{"id": 1237,"ncpdp": "0200066","pharmacy_name": "CARRS #1802","address1": "1340 GAMBELL STREET","address2": "","city": "ANCHORAGE","state": "AK","zip": "99501","zip+4": "0000","phone": "9073390260","NPI": "     1669401600"}, 
{"id": 1238,"ncpdp": "0200078","pharmacy_name": "CARRS #1805","address1": "1650 W NORTHERN LIGHTS BLVD","address2": "","city": "ANCHORAGE","state": "AK","zip": "99503","zip+4": "0000","phone": "9073390560","NPI": "     1578592515"}, 
{"id": 1239,"ncpdp": "0200080","pharmacy_name": "CARRS #1806","address1": "600 EAST NORTHERN LIGHTS BOULE","address2": "","city": "ANCHORAGE","state": "AK","zip": "99503","zip+4": "0000","phone": "9073390660","NPI": "     1487683421"}, 
{"id": 1240,"ncpdp": "0200092","pharmacy_name": "CARRS #2628","address1": "1725 ABBOTT ROAD","address2": "","city": "ANCHORAGE","state": "AK","zip": "99507","zip+4": "0000","phone": "9073392860","NPI": "     1295764231"}, 
{"id": 1241,"ncpdp": "0200105","pharmacy_name": "CARRS #1809","address1": "5600 DEBARR RD","address2": "","city": "ANCHORAGE","state": "AK","zip": "99504","zip+4": "0000","phone": "9073390960","NPI": "     1104855147"}, 
{"id": 1242,"ncpdp": "0200193","pharmacy_name": "FRED MEYER PHARMACY #701011","address1": "1000 E NORTHERN LIGHTS BLVD","address2": "","city": "ANCHORAGE","state": "AK","zip": "99508","zip+4": "0000","phone": "9072649633","NPI": "     1518903475"}, 
{"id": 1243,"ncpdp": "0200244","pharmacy_name": "PROFESSIONAL PHARMACY","address1": "1001 NOBLE ST","address2": "","city": "FAIRBANKS","state": "AK","zip": "99701","zip+4": "4948","phone": "9074522556","NPI": "     1841201415"}, 
{"id": 1244,"ncpdp": "0200333","pharmacy_name": "FOODLAND SUPER DRUG","address1": "631 WILLOUGHBY AVE","address2": "","city": "JUNEAU","state": "AK","zip": "99801","zip+4": "1725","phone": "9075862012","NPI": "     1871694000"}, 
{"id": 1245,"ncpdp": "0200496","pharmacy_name": "ISLAND PHARMACY","address1": "3526 TONGASS AVE","address2": "","city": "KETCHIKAN","state": "AK","zip": "99901","zip+4": "5635","phone": "9072256186","NPI": "     1881776664"}, 
{"id": 1246,"ncpdp": "0200511","pharmacy_name": "RON\'S APOTHECARY SHOPPE","address1": "9101 MENDENHALL MALL","address2": "","city": "JUNEAU","state": "AK","zip": "99801","zip+4": "0000","phone": "9077890458","NPI": "     1912012931"}, 
{"id": 1247,"ncpdp": "0200547","pharmacy_name": "CARRS #1808","address1": "10576 KENAI SPUR HIGHWAY","address2": "","city": "KENAI","state": "AK","zip": "99611","zip+4": "0000","phone": "9072836360","NPI": "     1013946052"}, 
{"id": 1248,"ncpdp": "0200686","pharmacy_name": "DENALI PHARMACY","address1": "1650 COWLES ST","address2": "DEPT 41 C","city": "FAIRBANKS","state": "AK","zip": "99701","zip+4": "5998","phone": "9074585615","NPI": "     1306952247"}, 
{"id": 1249,"ncpdp": "0200763","pharmacy_name": "CARRS #1807","address1": "11431 BUSINESS BOULEVARD","address2": "","city": "EAGLE RIVER","state": "AK","zip": "99577","zip+4": "0000","phone": "9076969460","NPI": "     1922037969"}, 
{"id": 1250,"ncpdp": "0201082","pharmacy_name": "ULMER DRUG AND HARDWARE","address1": "3858 LAKE ST STE 5","address2": "","city": "HOMER","state": "AK","zip": "99603","zip+4": "7684","phone": "9072357760","NPI": "     1396859286"}, 
{"id": 1251,"ncpdp": "0201107","pharmacy_name": "CARRS #1811","address1": "595 EAST PARKS HIGHWAY 300","address2": "","city": "WASILLA","state": "AK","zip": "99687","zip+4": "0000","phone": "9073521160","NPI": "     1831128875"}, 
{"id": 1252,"ncpdp": "0201169","pharmacy_name": "PRESCRIPTION CENTER #2010","address1": "1919 LATHROP ST","address2": "SUITE 109","city": "FAIRBANKS","state": "AK","zip": "99701","zip+4": "5973","phone": "9074521514","NPI": "     1801852769"}, 
{"id": 1253,"ncpdp": "0201208","pharmacy_name": "CARRS #1812","address1": "4000 W DIMOND BLVD","address2": "","city": "ANCHORAGE","state": "AK","zip": "99502","zip+4": "0000","phone": "9073391260","NPI": "     1740219781"}, 
{"id": 1254,"ncpdp": "0201272","pharmacy_name": "FRED MEYER PHARMACY #701485","address1": "3755 AIRPORT WAY","address2": "","city": "FAIRBANKS","state": "AK","zip": "99709","zip+4": "0000","phone": "9074741433","NPI": "     1508802059"}, 
{"id": 1255,"ncpdp": "0201323","pharmacy_name": "BERNIES PHARMACY INC","address1": "4100 LAKE OTIS PKWY 200","address2": "","city": "ANCHORAGE","state": "AK","zip": "99508","zip+4": "0000","phone": "9075622138","NPI": "     1790781912"}, 
{"id": 1256,"ncpdp": "0201385","pharmacy_name": "CARRS #1813","address1": "1501 E HUFFMAN RD","address2": "","city": "ANCHORAGE","state": "AK","zip": "99511","zip+4": "0000","phone": "9073391360","NPI": "     1659300697"}, 
{"id": 1257,"ncpdp": "0201436","pharmacy_name": "SOLDOTNA PROFESSIONAL PHARMACY","address1": "299 N BINKLEY ST","address2": "","city": "SOLDOTNA","state": "AK","zip": "99669","zip+4": "0000","phone": "9072623800","NPI": "     1467564443"}, 
{"id": 1258,"ncpdp": "0201448","pharmacy_name": "CARRS #1814","address1": "PIONEER SQUARE","address2": "STE 14","city": "PALMER","state": "AK","zip": "99645","zip+4": "0000","phone": "9077611460","NPI": "     1134148166"}, 
{"id": 1259,"ncpdp": "0201462","pharmacy_name": "CARRS #1817","address1": "7731 EAST NORTHERN LIGHTS BOUL","address2": "","city": "ANCHORAGE","state": "AK","zip": "99503","zip+4": "0000","phone": "9073391760","NPI": "     1588695399"}, 
{"id": 1260,"ncpdp": "0201501","pharmacy_name": "FRED MEYER PHARMACY #701071","address1": "2000 WEST DIMOND BLVD","address2": "","city": "DIMOND","state": "AK","zip": "99515","zip+4": "0000","phone": "9072676733","NPI": "     1467497537"}, 
{"id": 1261,"ncpdp": "0201525","pharmacy_name": "LAKE OTIS PHARMACY","address1": "4201 LAKE OTIS PKWY","address2": "","city": "ANCHORAGE","state": "AK","zip": "99508","zip+4": "5268","phone": "9075637878","NPI": "     1982625943"}, 
{"id": 1262,"ncpdp": "0201549","pharmacy_name": "SAFEWAY #1090","address1": "2685 MILL BAY RD","address2": "","city": "KODIAK","state": "AK","zip": "99615","zip+4": "0000","phone": "9074811560","NPI": "     1568491504"}, 
{"id": 1263,"ncpdp": "0201575","pharmacy_name": "FRED MEYER PHARMACY #701158","address1": "8181 OLD GLACIER HWY","address2": "","city": "JUNEAU","state": "AK","zip": "99801","zip+4": "0000","phone": "9077890860","NPI": "     1457374613"}, 
{"id": 1264,"ncpdp": "0201664","pharmacy_name": "SAFEWAY #2728","address1": "MILE 15 SEWARD HIGHWAY","address2": "","city": "SEWARD","state": "AK","zip": "99664","zip+4": "0000","phone": "9072246960","NPI": "     1942229976"}, 
{"id": 1265,"ncpdp": "0201688","pharmacy_name": "GENEVA WOODS PHARMACY INC","address1": "1200 AIRPORT HEIGHTS DR","address2": "SUITE 170","city": "ANCHORAGE","state": "AK","zip": "99508","zip+4": "2994","phone": "9072971111","NPI": "     1801987862"}, 
{"id": 1266,"ncpdp": "0201715","pharmacy_name": "DOWNTOWN DRUGSTORE","address1": "300 FRONT ST","address2": "","city": "KETCHIKAN","state": "AK","zip": "99901","zip+4": "6496","phone": "9072253144","NPI": "     1215080502"}, 
{"id": 1267,"ncpdp": "0201741","pharmacy_name": "COSTCO PHARMACY #10","address1": "330 W DIMOND BLVD","address2": "","city": "ANCHORAGE","state": "AK","zip": "99515","zip+4": "0000","phone": "9072677116","NPI": "     1932219631"}, 
{"id": 1268,"ncpdp": "0201765","pharmacy_name": "COSTCO PHARMACY #63","address1": "4125 DEBARR ROAD","address2": "","city": "ANCHORAGE","state": "AK","zip": "99508","zip+4": "0000","phone": "9072699503","NPI": "     1841300548"}, 
{"id": 1269,"ncpdp": "0201955","pharmacy_name": "FRED MEYER PHARMACY #701018","address1": "7701 DEBARR RD","address2": "","city": "ANCHORAGE","state": "AK","zip": "99504","zip+4": "0000","phone": "9072691733","NPI": "     1417993965"}, 
{"id": 1270,"ncpdp": "0201979","pharmacy_name": "WAL-MART PHARMACY #102071","address1": "8900 OLD SEWARD HWY","address2": "","city": "ANCHORAGE","state": "AK","zip": "99515","zip+4": "0000","phone": "9073447300","NPI": "     1427075738"}, 
{"id": 1271,"ncpdp": "0201981","pharmacy_name": "WAL-MART PHARMACY #102074","address1": "1350 S SEWARD MERIDIAN PKWY","address2": "","city": "WASILLA","state": "AK","zip": "99654","zip+4": "0000","phone": "9073769783","NPI": "     1336166644"}, 
{"id": 1272,"ncpdp": "0201993","pharmacy_name": "WAL-MART PHARMACY #102070","address1": "3101 A STREET","address2": "","city": "ANCHORAGE","state": "AK","zip": "99503","zip+4": "0000","phone": "9075636600","NPI": "     1245257559"}, 
{"id": 1273,"ncpdp": "0202034","pharmacy_name": "FRED MEYER PHARMACY #701017","address1": "43843 STERLING HWY","address2": "STE 400","city": "SOLDATNA","state": "AK","zip": "99669","zip+4": "0000","phone": "9072602233","NPI": "     1578508008"}, 
{"id": 1274,"ncpdp": "0202046","pharmacy_name": "CARRS #1829","address1": "1341 FAIRBANKS","address2": "","city": "ANCHORAGE","state": "AK","zip": "99501","zip+4": "4611","phone": "8007302627","NPI": "     1881606754"}, 
{"id": 1275,"ncpdp": "0202060","pharmacy_name": "CARRS #1818","address1": "2417 TONGASS AVENUE","address2": "","city": "KETCHIKAN","state": "AK","zip": "99901","zip+4": "0000","phone": "9072281960","NPI": "     1477582419"}, 
{"id": 1276,"ncpdp": "0202072","pharmacy_name": "PROVIDENCE MEDICAL ARTS PHARMA","address1": "3300 PROVIDENCE DR","address2": "STE 101","city": "ANCHORAGE","state": "AK","zip": "99508","zip+4": "4698","phone": "9072125090","NPI": "     1760483556"}, 
{"id": 1277,"ncpdp": "0202084","pharmacy_name": "SAFEWAY #1820","address1": "3011 VINTAGE BOULEVARD","address2": "","city": "JUNEAU","state": "AK","zip": "99801","zip+4": "0000","phone": "9075232060","NPI": "     1386673325"}, 
{"id": 1278,"ncpdp": "0202159","pharmacy_name": "FRED MEYER PHARMACY #701224","address1": "930 OLD STEESE HIGHWAY","address2": "","city": "FAIRBANKS","state": "AK","zip": "99701","zip+4": "0000","phone": "9074594233","NPI": "     1487699914"}, 
{"id": 1279,"ncpdp": "0202224","pharmacy_name": "FRED MEYER PHARMACY #701653","address1": "1501 EAST PARKS DRIVE","address2": "","city": "WASILLA","state": "AK","zip": "99659","zip+4": "0000","phone": "9073525033","NPI": "     1295770725"}, 
{"id": 1280,"ncpdp": "0202248","pharmacy_name": "SAFEWAY #1821","address1": "301 NORTH SANTA CLAUS LANE","address2": "","city": "NORTH POLE","state": "AK","zip": "99705","zip+4": "0000","phone": "9074902760","NPI": "     1194754135"}, 
{"id": 1281,"ncpdp": "0202250","pharmacy_name": "FAMILY PHARMACY","address1": "11432 BUSINESS BLVD 10","address2": "","city": "EAGLE RIVER","state": "AK","zip": "99577","zip+4": "0000","phone": "9076947007","NPI": "     1750392320"}, 
{"id": 1282,"ncpdp": "0202262","pharmacy_name": "ANCHORAGE NEIGHBORHOOD HLTH CT","address1": "1217 E 10TH AVE","address2": "","city": "ANCHORAGE","state": "AK","zip": "99501","zip+4": "0000","phone": "9072574691","NPI": "     1316952013"}, 
{"id": 1283,"ncpdp": "0202298","pharmacy_name": "WAL-MART PHARMACY #102711","address1": "2911 MILL BAY ROAD","address2": "","city": "KODIAK","state": "AK","zip": "99615","zip+4": "0000","phone": "9074811675","NPI": "     1063439370"}, 
{"id": 1284,"ncpdp": "0202426","pharmacy_name": "WAL-MART PHARMACY #102188","address1": "18600 EAGLE RIVER ROAD","address2": "","city": "EAGLE RIVER","state": "AK","zip": "99577","zip+4": "0000","phone": "9076949786","NPI": "     1972520286"}, 
{"id": 1285,"ncpdp": "0202476","pharmacy_name": "SAFEWAY #3410","address1": "30 COLLEGE ROAD","address2": "","city": "FAIRBANKS","state": "AK","zip": "99701","zip+4": "0000","phone": "9073744160","NPI": "     1003845041"}, 
{"id": 1286,"ncpdp": "0202488","pharmacy_name": "EAGLE #1832","address1": "90 STERLING HWY","address2": "","city": "HOMER","state": "AK","zip": "99603","zip+4": "0000","phone": "9072261060","NPI": "     1912936956"}, 
{"id": 1287,"ncpdp": "0202490","pharmacy_name": "CHIEF ANDREW ISAAC HEALTH CENT","address1": "1408 19TH AVE","address2": "","city": "FAIRBANKS","state": "AK","zip": "99701","zip+4": "0000","phone": "9074593807","NPI": "     1649385667"}, 
{"id": 1288,"ncpdp": "0202503","pharmacy_name": "WAL-MART PHARMACY #102710","address1": "4230 DON KING ROAD","address2": "","city": "KETCHIKAN","state": "AK","zip": "99901","zip+4": "0000","phone": "9072472183","NPI": "     1710904925"}, 
{"id": 1289,"ncpdp": "0202527","pharmacy_name": "CARRS #0520","address1": "3101 PENLAND PKWY","address2": "","city": "ANCHORAGE","state": "AK","zip": "99508","zip+4": "0000","phone": "9073395260","NPI": "     1821027863"}, 
{"id": 1290,"ncpdp": "0202541","pharmacy_name": "SAMS PHARMACY #106601","address1": "8801 OLD SEWARD HWY","address2": "","city": "ANCHORAGE","state": "AK","zip": "99515","zip+4": "0000","phone": "9076440880","NPI": "     1629095831"}, 
{"id": 1291,"ncpdp": "0202553","pharmacy_name": "SUSITNA PROFESSIONAL PHARMACY","address1": "1751 E GARDNER WAY","address2": "STE G","city": "WASILLA","state": "AK","zip": "99654","zip+4": "0000","phone": "9073737933","NPI": "     1467441808"}, 
{"id": 1292,"ncpdp": "0202565","pharmacy_name": "SAMS PHARMACY #106603","address1": "48 COLLEGE ROAD","address2": "","city": "FAIRBANKS","state": "AK","zip": "99701","zip+4": "0000","phone": "9074514813","NPI": "     1538186747"}, 
{"id": 1293,"ncpdp": "0202591","pharmacy_name": "FRED MEYER PHARMACY #701656","address1": "2300 ABBOTT ROAD","address2": "","city": "ANCHORAGE","state": "AK","zip": "99507","zip+4": "0000","phone": "9073652033","NPI": "     1104861632"}, 
{"id": 1294,"ncpdp": "0226313","pharmacy_name": "SAFEWAY #0548","address1": "44428 STERLING HIGHWAY","address2": "","city": "SOLDOTNA","state": "AK","zip": "99669","zip+4": "0000","phone": "9077145460","NPI": "     1730118779"}, 
{"id": 1295,"ncpdp": "0226426","pharmacy_name": "SAFEWAY #0405","address1": "3627 AIRPORT WAY","address2": "","city": "FAIRBANKS","state": "AK","zip": "99701","zip+4": "0000","phone": "9073744060","NPI": "     1649209685"}, 
{"id": 1296,"ncpdp": "0226642","pharmacy_name": "FRED MEYER PHARMACY #701668","address1": "13401 OLD GLENN HWY","address2": "","city": "EAGLE RIVER","state": "AK","zip": "99577","zip+4": "0000","phone": "9076894033","NPI": "     1013952548"}, 
{"id": 1297,"ncpdp": "0227339","pharmacy_name": "FRED MEYER PHARMACY #701671","address1": "650 SOUTH COBB ST","address2": "","city": "PALMER","state": "AK","zip": "99645","zip+4": "0000","phone": "9077614233","NPI": "     1922043454"}, 
{"id": 1298,"ncpdp": "0227442","pharmacy_name": "WAL-MART PHARMACY #102722","address1": "537 JOHANSEN EXPRESSWAY","address2": "","city": "FAIRBANKS","state": "AK","zip": "99701","zip+4": "0000","phone": "9074519906","NPI": "     1447277652"}, 
{"id": 1299,"ncpdp": "0227682","pharmacy_name": "ANCHORAGE MEDSET PHARMACY","address1": "4101 ARCTIC BLVD","address2": "STE B","city": "ANCHORAGE","state": "AK","zip": "99503","zip+4": "0000","phone": "9077706081","NPI": "     1346261476"}, 
{"id": 1300,"ncpdp": "0227694","pharmacy_name": "GENEVA WOODS MAT SU PHARMACY","address1": "3674 E COUNTRY FIELD CIRCLE","address2": "STE A","city": "WASILLA","state": "AK","zip": "99654","zip+4": "0000","phone": "9073768200","NPI": "     1578654034"}, 
{"id": 1301,"ncpdp": "0227719","pharmacy_name": "THREE BEARS ALASKA INC #60","address1": "8151 E PALMER WASILLA HWY","address2": "","city": "PALMER","state": "AK","zip": "99645","zip+4": "0000","phone": "9077463891","NPI": "     1376757310"}, 
{"id": 1302,"ncpdp": "0227745","pharmacy_name": "RAY ANDREASSEN DO","address1": "2360 SERVICE ST","address2": "","city": "DELTA JUNCTION","state": "AK","zip": "99737","zip+4": "0000","phone": "9078955100","NPI": "     1114026069"}, 
{"id": 1303,"ncpdp": "0227757","pharmacy_name": "THREE BEARS PHARMACY #50","address1": "10575 KENAI SPUR HWY","address2": "","city": "KENAI","state": "AK","zip": "99611","zip+4": "0000","phone": "9073352061","NPI": "     1386655421"}, 
{"id": 1304,"ncpdp": "0227769","pharmacy_name": "GREAT LAND INFUSION PHARMACY I","address1": "2421 E TUDOR RD","address2": "STE 107","city": "ANCHORAGE","state": "AK","zip": "99508","zip+4": "0000","phone": "9075612421","NPI": "     1437194206"}, 
{"id": 1305,"ncpdp": "0227834","pharmacy_name": "WAL-MART PHARMACY #103814","address1": "6525 GLACIER HIGHWAY","address2": "","city": "JUNEAU","state": "AK","zip": "99801","zip+4": "0000","phone": "9077892440","NPI": "     1629277108"}, 
{"id": 1306,"ncpdp": "0227846","pharmacy_name": "PROVIDENCE HEALTH PARK PHARMAC","address1": "3841 PIPER STREET","address2": "STE 4230","city": "ANCHORAGE","state": "AK","zip": "99508","zip+4": "0000","phone": "9072126868","NPI": "     1821271271"}, 
{"id": 1307,"ncpdp": "0227858","pharmacy_name": "CAPSTONE FAMILY MEDICINE","address1": "3223 E PALMER WASILLA HWY","address2": "","city": "WASILLA","state": "AK","zip": "99654","zip+4": "0000","phone": "9073579590","NPI": "     1306023452"}, 
{"id": 1308,"ncpdp": "0227884","pharmacy_name": "TARGET PHARMACY #2371","address1": "1200 N MULDOON RD","address2": "STE F","city": "ANCHORAGE","state": "AK","zip": "99504","zip+4": "0000","phone": "9072692101","NPI": "     1942458849"}, 
{"id": 1309,"ncpdp": "0227896","pharmacy_name": "TARGET PHARMACY #2339","address1": "1801 E PARKS HWY","address2": "","city": "WASILLA","state": "AK","zip": "99654","zip+4": "0000","phone": "9076317201","NPI": "     1841448743"}, 
{"id": 1310,"ncpdp": "0227911","pharmacy_name": "HILLSIDE FAMILY MEDICINE LLC","address1": "9220 LAKE OTIS PARKWAY","address2": "STE 9","city": "ANCHORAGE","state": "AK","zip": "99507","zip+4": "0000","phone": "9073440200","NPI": "     1417120965"}, 
{"id": 1311,"ncpdp": "0227923","pharmacy_name": "TOK CLINIC","address1": "MILE 124.5 TOK CUTOFF","address2": "","city": "TOK","state": "AK","zip": "99780","zip+4": "0000","phone": "9078835855","NPI": "     1922146448"}, 
{"id": 1312,"ncpdp": "0227959","pharmacy_name": "WALGREENS #12681","address1": "1721 E GEORGE PARKS HWY","address2": "","city": "WASILLA","state": "AK","zip": "99654","zip+4": "0000","phone": "9076310300","NPI": "     1760616841"}, 
{"id": 1313,"ncpdp": "0227973","pharmacy_name": "WALGREENS #12680","address1": "2197 W DIMOND BLVD","address2": "","city": "ANCHORAGE","state": "AK","zip": "99515","zip+4": "1457","phone": "9073399600","NPI": "     1265668560"}, 
{"id": 1314,"ncpdp": "0227985","pharmacy_name": "WALGREENS #12679","address1": "7600 DEBARR RD","address2": "","city": "ANCHORAGE","state": "AK","zip": "99502","zip+4": "0000","phone": "9077719920","NPI": "     1427284223"}, 
{"id": 1315,"ncpdp": "0227997","pharmacy_name": "TARGET PHARMACY #2372","address1": "150 W 100TH AVE STE A","address2": "","city": "ANCHORAGE","state": "AK","zip": "99515","zip+4": "2673","phone": "9072677501","NPI": "     1194957043"}, 
{"id": 1316,"ncpdp": "0228002","pharmacy_name": "VALLEY NEUROSCIENCE CENTER LLC","address1": "3719 E MERIDIAN LOOP","address2": "STE E","city": "WASILLA","state": "AK","zip": "99654","zip+4": "0000","phone": "9073736500","NPI": "     1215130372"}, 
{"id": 1317,"ncpdp": "0228014","pharmacy_name": "COSTCO PHARMACY #107","address1": "5225 COMMERCIAL BLVD","address2": "","city": "JUNEAU","state": "AK","zip": "99801","zip+4": "0000","phone": "9077802261","NPI": "     1295068054"},