{"id": 2346,"ncpdp": "0400109","pharmacy_name": "WALGREEN DRUG STORE #5789","address1": "1800 N MISSOURI ST STE 2","address2": "","city": "WEST MEMPHIS","state": "AR","zip": "72301","zip+4": "0000","phone": "8707358996","NPI": "     1659386910"}, 
{"id": 2347,"ncpdp": "0400185","pharmacy_name": "KROGER PHARMACY #25627","address1": "8824 GEYER SPRINGS RD","address2": "","city": "LITTLE ROCK","state": "AR","zip": "72209","zip+4": "0000","phone": "5015657584","NPI": "     1972537710"}, 
{"id": 2348,"ncpdp": "0400197","pharmacy_name": "WALGREEN DRUG STORE #10198","address1": "2135 N WEST AVE","address2": "","city": "EL DORADO","state": "AR","zip": "71730","zip+4": "3351","phone": "8708625458","NPI": "     1568477826"}, 
{"id": 2349,"ncpdp": "0400250","pharmacy_name": "KROGER PHARMACY #25642","address1": "6929 JFK BLVD","address2": "","city": "N LITTLE ROCK","state": "AR","zip": "72116","zip+4": "0000","phone": "5018356530","NPI": "     1295895274"}, 
{"id": 2350,"ncpdp": "0400301","pharmacy_name": "USA DRUG #1021","address1": "1428 WEST WALNUT","address2": "","city": "ROGERS","state": "AR","zip": "72756","zip+4": "3318","phone": "4796362155","NPI": "     1639252042"}, 
{"id": 2351,"ncpdp": "0400349","pharmacy_name": "STOTTS DRUG CO","address1": "103 W ARCH AVE","address2": "","city": "SEARCY","state": "AR","zip": "72143","zip+4": "7783","phone": "5012682536","NPI": "     1669408381"}, 
{"id": 2352,"ncpdp": "0400363","pharmacy_name": "COLLEGE HILL DRUG","address1": "1 COLLEGE HILL CTR","address2": "","city": "TEXARKANA","state": "AR","zip": "71854","zip+4": "0000","phone": "8707726969","NPI": "     1235114208"}, 
{"id": 2353,"ncpdp": "0400387","pharmacy_name": "ALLCARE PHARMACY #5","address1": "711 EAST ST","address2": "","city": "TEXARKANA","state": "AR","zip": "71854","zip+4": "0000","phone": "8707736789","NPI": "     1275603359"}, 
{"id": 2354,"ncpdp": "0400464","pharmacy_name": "COLLIER DRUG DICKSON","address1": "100 W DICKSON ST","address2": "","city": "FAYETTEVILLE","state": "AR","zip": "72701","zip+4": "5219","phone": "4794426262","NPI": "     1699774208"}, 
{"id": 2355,"ncpdp": "0400490","pharmacy_name": "THE HEALTH DEPOT #2","address1": "1610 FORT ST","address2": "","city": "BARLING","state": "AR","zip": "72923","zip+4": "2018","phone": "4794521237","NPI": "     1730198110"}, 
{"id": 2356,"ncpdp": "0400527","pharmacy_name": "VAUGHN PRESCRIPTION","address1": "507 LEXINGTON AVE","address2": "","city": "FORT SMITH","state": "AR","zip": "72901","zip+4": "0000","phone": "4797828209","NPI": "     1831274125"}, 
{"id": 2357,"ncpdp": "0400541","pharmacy_name": "MEDISAV HOMECARE PHARMACY #3","address1": "5701 JENNY LIND RD","address2": "","city": "FT SMITH","state": "AR","zip": "72908","zip+4": "0000","phone": "4796462971","NPI": "     1861587669"}, 
{"id": 2358,"ncpdp": "0400553","pharmacy_name": "STRECKERS DRUG","address1": "770 S SAINT LOUIS ST","address2": "","city": "BATESVILLE","state": "AR","zip": "72501","zip+4": "5821","phone": "8707936816","NPI": "     1457412298"}, 
{"id": 2359,"ncpdp": "0400565","pharmacy_name": "MIDLAND DRUG INC","address1": "2310 MIDLAND BLVD","address2": "","city": "FT SMITH","state": "AR","zip": "72904","zip+4": "5428","phone": "4797830221","NPI": "     1609949163"}, 
{"id": 2360,"ncpdp": "0400589","pharmacy_name": "MCKINNEY DRUG STORE INC","address1": "601 W MAPLE AVE","address2": "STE 201","city": "SPRINGDALE","state": "AR","zip": "72764","zip+4": "0000","phone": "4797514536","NPI": "     1366554354"}, 
{"id": 2361,"ncpdp": "0400628","pharmacy_name": "PRINCE DRUG STORE INC","address1": "1112 TOWSON AVE","address2": "","city": "FT SMITH","state": "AR","zip": "72901","zip+4": "5099","phone": "4797829210","NPI": "     1417039298"}, 
{"id": 2362,"ncpdp": "0400678","pharmacy_name": "LANGSTON DRUG STORE INC","address1": "1202 E MAIN","address2": "","city": "VAN BUREN","state": "AR","zip": "72956","zip+4": "0000","phone": "4794743431","NPI": "     1801885041"}, 
{"id": 2363,"ncpdp": "0400705","pharmacy_name": "KROGER PHARMACY #25638","address1": "4403 CAMP ROBINSON RD","address2": "","city": "N. LITTLE ROCK","state": "AR","zip": "72118","zip+4": "0000","phone": "5017586360","NPI": "     1881628626"}, 
{"id": 2364,"ncpdp": "0400743","pharmacy_name": "USA DRUG EXPRESS #1030","address1": "1101 NORTH WALTON","address2": "","city": "BENTONVILLE","state": "AR","zip": "72712","zip+4": "0000","phone": "4792733394","NPI": "     1548343957"}, 
{"id": 2365,"ncpdp": "0400755","pharmacy_name": "ECONOMY DRUG INC","address1": "300 PERRY ST","address2": "","city": "HELENA","state": "AR","zip": "72342","zip+4": "3325","phone": "8703386464","NPI": "     1093701336"}, 
{"id": 2366,"ncpdp": "0400820","pharmacy_name": "USA DRUG EXPRESS #1029","address1": "100 HIGHWAY 412 W","address2": "","city": "SILOAM SPRINGS","state": "AR","zip": "72761","zip+4": "0000","phone": "4795246103","NPI": "     1720161342"}, 
{"id": 2367,"ncpdp": "0400856","pharmacy_name": "OWENS DRUG STORE","address1": "523 N 6TH ST","address2": "","city": "BLYTHEVILLE","state": "AR","zip": "72315","zip+4": "2498","phone": "8707622024","NPI": "     1336219187"}, 
{"id": 2368,"ncpdp": "0400907","pharmacy_name": "COBBS WESTSIDE PHARMACY INC","address1": "108 SKYLINE DR","address2": "STE B","city": "RUSSELLVILLE","state": "AR","zip": "72801","zip+4": "3362","phone": "4799687180","NPI": "     1457309148"}, 
{"id": 2369,"ncpdp": "0400919","pharmacy_name": "MEDIC PHARMACY INC #1","address1": "5901 W 12TH ST","address2": "","city": "LITTLE ROCK","state": "AR","zip": "72204","zip+4": "1608","phone": "5016643907","NPI": "     1508972167"}, 
{"id": 2370,"ncpdp": "0400921","pharmacy_name": "USA DRUG #1005","address1": "105 NORTH RODNEY PARHAM 3","address2": "","city": "LITTLE ROCK","state": "AR","zip": "72205","zip+4": "0000","phone": "5012256211","NPI": "     1457434862"}, 
{"id": 2371,"ncpdp": "0400933","pharmacy_name": "MEDICAL ARTS PHARMACY","address1": "2515 HUNTSVILLE RD","address2": "","city": "FAYETTEVILLE","state": "AR","zip": "72701","zip+4": "0000","phone": "4794433411","NPI": "     1891789574"}, 
{"id": 2372,"ncpdp": "0400969","pharmacy_name": "USA DRUG #1003","address1": "6115 BASELINE ROAD","address2": "","city": "LITTLE ROCK","state": "AR","zip": "72209","zip+4": "0000","phone": "5015622348","NPI": "     1366525776"}, 
{"id": 2373,"ncpdp": "0401024","pharmacy_name": "ROLANDS DRUG STORE","address1": "116 N PINE ST","address2": "","city": "PERRYVILLE","state": "AR","zip": "72126","zip+4": "0000","phone": "5018895111","NPI": "     1629182696"}, 
{"id": 2374,"ncpdp": "0401048","pharmacy_name": "USA DRUG EXPRESS #1006","address1": "4010 WEST 12TH STREET","address2": "","city": "LITTLE ROCK","state": "AR","zip": "72204","zip+4": "0000","phone": "5016639497","NPI": "     1275616682"}, 
{"id": 2375,"ncpdp": "0401062","pharmacy_name": "USA DRUG EXPRESS #1001","address1": "500 SOUTH UNIVERSITY","address2": "","city": "LITTLE ROCK","state": "AR","zip": "72205","zip+4": "0000","phone": "5016644121","NPI": "     1639252257"}, 
{"id": 2376,"ncpdp": "0401163","pharmacy_name": "DELTA DRUG INC","address1": "257 S HWY 18 BYPASS","address2": "","city": "MANILA","state": "AR","zip": "72442","zip+4": "0000","phone": "8705613113","NPI": "     1043318041"}, 
{"id": 2377,"ncpdp": "0401175","pharmacy_name": "DONS PHARMACY INC","address1": "8609 WEST MARKHAM A","address2": "","city": "LITTLE ROCK","state": "AR","zip": "72205","zip+4": "0000","phone": "5012252222","NPI": "     1497869697"}, 
{"id": 2378,"ncpdp": "0401238","pharmacy_name": "LANDMARK PHARMACY LLC","address1": "3401 ATWOOD RD","address2": "STE E","city": "LITTLE ROCK","state": "AR","zip": "72206","zip+4": "6099","phone": "5018882223","NPI": "     1851443774"}, 
{"id": 2379,"ncpdp": "0401240","pharmacy_name": "MEDIC PHARMACY OF BRYANT INC","address1": "101 NW 3RD ST","address2": "STE A","city": "BRYANT","state": "AR","zip": "72022","zip+4": "3458","phone": "5018473596","NPI": "     1245228824"}, 
{"id": 2380,"ncpdp": "0401303","pharmacy_name": "SHANNON HILLS PHARMACY","address1": "13907 HIGH RD","address2": "","city": "SHANNON HILLS","state": "AR","zip": "72103","zip+4": "0000","phone": "5014551086","NPI": "     1568453793"}, 
{"id": 2381,"ncpdp": "0401531","pharmacy_name": "ASH FLAT PHARMACY INC","address1": "JUNCTION HWY 62 AND 167","address2": "","city": "ASH FLAT","state": "AR","zip": "72513","zip+4": "0000","phone": "8709947377","NPI": "     1184625808"}, 
{"id": 2382,"ncpdp": "0401593","pharmacy_name": "CLARK DRUG STORE","address1": "2116 HWY 367 N","address2": "","city": "BALD KNOB","state": "AR","zip": "72010","zip+4": "1130","phone": "5017243261","NPI": "     1376530659"}, 
{"id": 2383,"ncpdp": "0401719","pharmacy_name": "USA DRUG EXPRESS #1017","address1": "1024 MILITARY ROAD","address2": "","city": "BENTON","state": "AR","zip": "72015","zip+4": "0000","phone": "5017787456","NPI": "     1184707598"}, 
{"id": 2384,"ncpdp": "0401745","pharmacy_name": "WEST SIDE PHARMACY INC","address1": "620 W SOUTH ST STE C","address2": "","city": "BENTON","state": "AR","zip": "72015","zip+4": "4258","phone": "5017783151","NPI": "     1013922541"}, 
{"id": 2385,"ncpdp": "0401783","pharmacy_name": "POYNER DRUG STORE","address1": "408 PUBLIC SQUARE","address2": "","city": "BERRYVILLE","state": "AR","zip": "72616","zip+4": "3958","phone": "8704232737","NPI": "     1427128636"}, 
{"id": 2386,"ncpdp": "0401810","pharmacy_name": "BIG WORLD PHARMACY","address1": "1531 E MAIN ST","address2": "","city": "BOONEVILLE","state": "AR","zip": "72927","zip+4": "0000","phone": "4796753900","NPI": "     1932274362"}, 
{"id": 2387,"ncpdp": "0401834","pharmacy_name": "WINNINGHAM DRUG STORE","address1": "232 W MAIN ST","address2": "","city": "BRADFORD","state": "AR","zip": "72020","zip+4": "0000","phone": "5013442763","NPI": "     1619046711"}, 
{"id": 2388,"ncpdp": "0402026","pharmacy_name": "MEDSKERS FAMILY PHARMACY AND G","address1": "121 N COURT","address2": "","city": "CARLISLE","state": "AR","zip": "72024","zip+4": "0000","phone": "8705527837","NPI": "     1346247210"}, 
{"id": 2389,"ncpdp": "0402076","pharmacy_name": "ROSE DRUG","address1": "211 E MAIN ST","address2": "","city": "CLARKSVILLE","state": "AR","zip": "72830","zip+4": "3723","phone": "4797542180","NPI": "     1568501914"}, 
{"id": 2390,"ncpdp": "0402127","pharmacy_name": "BAKER DRUG STORE","address1": "924 FRONT ST","address2": "","city": "CONWAY","state": "AR","zip": "72032","zip+4": "4387","phone": "5013295626","NPI": "     1306843016"}, 
{"id": 2391,"ncpdp": "0402278","pharmacy_name": "BAKERS PHARMACY","address1": "300 MAIN ST","address2": "","city": "CROSSETT","state": "AR","zip": "71635","zip+4": "2988","phone": "8703645155","NPI": "     1063599868"}, 
{"id": 2392,"ncpdp": "0402329","pharmacy_name": "ROSE DRUG","address1": "1736 STATE HIGHWAY 22 W","address2": "","city": "DARDANELLE","state": "AR","zip": "72834","zip+4": "0000","phone": "4792294040","NPI": "     1063410223"}, 
{"id": 2393,"ncpdp": "0402470","pharmacy_name": "MEADOR PHARMACY","address1": "101 W WATERMAN ST","address2": "","city": "DUMAS","state": "AR","zip": "71639","zip+4": "2139","phone": "4793824343","NPI": "     1083608376"}, 
{"id": 2394,"ncpdp": "0402507","pharmacy_name": "FONGS DRUGS","address1": "621 COMMERCE ST","address2": "","city": "EARLE","state": "AR","zip": "72331","zip+4": "1616","phone": "8707928763","NPI": "     1619051737"}, 
{"id": 2395,"ncpdp": "0402571","pharmacy_name": "LARRYS REXALL PHARMACY","address1": "102 E ELM ST","address2": "","city": "EL DORADO","state": "AR","zip": "71730","zip+4": "6194","phone": "8708638111","NPI": "     1477547362"}, 
{"id": 2396,"ncpdp": "0402634","pharmacy_name": "EUDORA DRUG STORE","address1": "140 S MAIN ST","address2": "","city": "EUDORA","state": "AR","zip": "71640","zip+4": "0000","phone": "8703554448","NPI": "     1275548828"}, 
{"id": 2397,"ncpdp": "0402658","pharmacy_name": "MEDICAL PARK PHARMACY","address1": "146 PASSION PLAY RD","address2": "STE B","city": "EUREKA SPRINGS","state": "AR","zip": "72632","zip+4": "0000","phone": "4792539751","NPI": "     1558324624"}, 
{"id": 2398,"ncpdp": "0402696","pharmacy_name": "USA EXPRESS #1013","address1": "1572 N COLLEGE AVE","address2": "","city": "FAYETTEVILLE","state": "AR","zip": "72703","zip+4": "1901","phone": "4795213200","NPI": "     1407982598"}, 
{"id": 2399,"ncpdp": "0402797","pharmacy_name": "FOREMAN PHARMACY","address1": "106 SCHUMAN ST","address2": "","city": "FOREMAN","state": "AR","zip": "71836","zip+4": "0000","phone": "8705426544","NPI": "     1841373990"}, 
{"id": 2400,"ncpdp": "0402963","pharmacy_name": "NATIONAL FAMILY PHARMACY","address1": "1615 DODSON AVE","address2": "","city": "FT SMITH","state": "AR","zip": "72901","zip+4": "5129","phone": "4797836135","NPI": "     1164405858"}, 
{"id": 2401,"ncpdp": "0403080","pharmacy_name": "AMERICAN DRUG","address1": "1 E MAIN ST","address2": "","city": "GREENBRIER","state": "AR","zip": "72058","zip+4": "9601","phone": "5016792211","NPI": "     1174623912"}, 
{"id": 2402,"ncpdp": "0403117","pharmacy_name": "THOMERSON DRUG STORE","address1": "113 E 1ST ST","address2": "","city": "GURDON","state": "AR","zip": "71743","zip+4": "0190","phone": "8703534442","NPI": "     1922041201"}, 
{"id": 2403,"ncpdp": "0403131","pharmacy_name": "LA GRONE DRUG","address1": "201 N MAIN ST","address2": "","city": "HAMBURG","state": "AR","zip": "71646","zip+4": "3264","phone": "8708538666","NPI": "     1245240746"}, 
{"id": 2404,"ncpdp": "0403206","pharmacy_name": "USA DRUG #1026","address1": "202 WEST BOWER","address2": "","city": "HARRISON","state": "AR","zip": "72601","zip+4": "0000","phone": "8707413453","NPI": "     1992888309"}, 
{"id": 2405,"ncpdp": "0403282","pharmacy_name": "GLENNS DRUG INC #AR20265","address1": "401 W MAIN ST","address2": "","city": "HEBER SPRINGS","state": "AR","zip": "72543","zip+4": "3018","phone": "5013622633","NPI": "     1659431948"}, 
{"id": 2406,"ncpdp": "0403410","pharmacy_name": "MITCHELLS MEDI MART","address1": "1523 S MAIN ST","address2": "","city": "HOPE","state": "AR","zip": "71801","zip+4": "0000","phone": "8707775555","NPI": "     1447307590"}, 
{"id": 2407,"ncpdp": "0403446","pharmacy_name": "ALLCARE PHARMACY #2","address1": "318 W 3RD ST","address2": "","city": "HOPE","state": "AR","zip": "71801","zip+4": "5199","phone": "8707774643","NPI": "     1184794265"}, 
{"id": 2408,"ncpdp": "0403511","pharmacy_name": "USA DRUG EXPRESS #1011","address1": "531 WEST GRAND","address2": "","city": "HOT SPRINGS","state": "AR","zip": "71901","zip+4": "0000","phone": "5016242538","NPI": "     1801979216"}, 
{"id": 2409,"ncpdp": "0403561","pharmacy_name": "HOPKINS HEALTHMART","address1": "627 ALBERT PIKE RD","address2": "","city": "HOT SPRINGS","state": "AR","zip": "71913","zip+4": "3895","phone": "5016244491","NPI": "     1164504221"}, 
{"id": 2410,"ncpdp": "0403686","pharmacy_name": "ECONOMY DRUGS OF HUNTSVILLE IN","address1": "601 N GASKILL","address2": "","city": "HUNTSVILLE","state": "AR","zip": "72740","zip+4": "0157","phone": "4797382620","NPI": "     1225130628"}, 
{"id": 2411,"ncpdp": "0403751","pharmacy_name": "SUPER D DRUGS #1008","address1": "1328 STADIUM BLVD","address2": "","city": "JONESBORO","state": "AR","zip": "72401","zip+4": "0000","phone": "8709352242","NPI": "     1710060124"}, 
{"id": 2412,"ncpdp": "0403802","pharmacy_name": "PARKER ROAD SPECIALITY PHARMAC","address1": "1109 W PARKER RD","address2": "","city": "JONESBORO","state": "AR","zip": "72404","zip+4": "0000","phone": "8709356400","NPI": "     1619991767"}, 
{"id": 2413,"ncpdp": "0403840","pharmacy_name": "SOOS DRUG AND COMPOUNDING CENT","address1": "2905 E NETTLETON AVE","address2": "","city": "JONESBORO","state": "AR","zip": "72401","zip+4": "0000","phone": "8709326930","NPI": "     1497755946"}, 
{"id": 2414,"ncpdp": "0403864","pharmacy_name": "HEALTH WAY PHARMACY","address1": "803 HWY 36 TN","address2": "","city": "JUDSONIA","state": "AR","zip": "72081","zip+4": "0000","phone": "5017293670","NPI": "     1750464806"}, 
{"id": 2415,"ncpdp": "0403890","pharmacy_name": "LAKE VILLAGE DRUG STORE","address1": "2907 HWY 65 82 SO","address2": "","city": "LAKE VILLAGE","state": "AR","zip": "71653","zip+4": "2120","phone": "8702655555","NPI": "     1487789400"}, 
{"id": 2416,"ncpdp": "0403915","pharmacy_name": "HUNTERS PHARMACY","address1": "401 MAIN ST","address2": "","city": "LAKE VILLAGE","state": "AR","zip": "71653","zip+4": "1799","phone": "8702655120","NPI": "     1922142025"}, 
{"id": 2417,"ncpdp": "0404183","pharmacy_name": "KAVANAUGH PHARMACY, INC","address1": "5008 KAVANAUGH BLVD","address2": "","city": "LITTLE ROCK","state": "AR","zip": "72207","zip+4": "0000","phone": "5016643844","NPI": "     1093858698"}, 
{"id": 2418,"ncpdp": "0404246","pharmacy_name": "UAMS OUTPATIENT PHARMACY","address1": "4301 W MARKHAM ST","address2": "STE 54710","city": "LITTLE ROCK","state": "AR","zip": "72205","zip+4": "7101","phone": "5016865530","NPI": "     1598751562"}, 
{"id": 2419,"ncpdp": "0404361","pharmacy_name": "LACKIE DRUG STORE INC","address1": "179 N CENTER","address2": "","city": "LONOKE","state": "AR","zip": "72086","zip+4": "0000","phone": "5016766566","NPI": "     1740334184"}, 
{"id": 2420,"ncpdp": "0404373","pharmacy_name": "LYONS DRUG STORE","address1": "115 W FRONT ST","address2": "","city": "LONOKE","state": "AR","zip": "72086","zip+4": "0000","phone": "5016762247","NPI": "     1487764510"}, 
{"id": 2421,"ncpdp": "0404474","pharmacy_name": "MILLERS DRUG STORE INC","address1": "231 S MAIN ST","address2": "","city": "MALVERN","state": "AR","zip": "72104","zip+4": "3736","phone": "5013322351","NPI": "     1801985452"}, 
{"id": 2422,"ncpdp": "0404513","pharmacy_name": "DONS DRUG","address1": "213 E HOWARD ST","address2": "","city": "MANSFIELD","state": "AR","zip": "72944","zip+4": "0000","phone": "4799284499","NPI": "     1407037450"}, 
{"id": 2423,"ncpdp": "0404638","pharmacy_name": "BEST DRUG","address1": "906 N EDMONDS","address2": "","city": "MCCORY","state": "AR","zip": "72101","zip+4": "0000","phone": "8707312251","NPI": "     1023024817"}, 
{"id": 2424,"ncpdp": "0404664","pharmacy_name": "KELLEY DRUG AND SELECTIONS","address1": "104 HOLLY ST","address2": "","city": "MCGEHEE","state": "AR","zip": "71654","zip+4": "0021","phone": "8702225071","NPI": "     1447364179"}, 
{"id": 2425,"ncpdp": "0404690","pharmacy_name": "USA DRUG EXPRESS #1028","address1": "803 EAST HWY 71 NORTH","address2": "","city": "MENA","state": "AR","zip": "71953","zip+4": "0000","phone": "4793945144","NPI": "     1639157092"}, 
{"id": 2426,"ncpdp": "0404854","pharmacy_name": "LEMONS PRESCRIPTION SHOP","address1": "1713 N BUSINESS ST","address2": "PO BOX 709","city": "MORRILTON","state": "AR","zip": "72110","zip+4": "0709","phone": "5013543318","NPI": "     1629078605"}, 
{"id": 2427,"ncpdp": "0405046","pharmacy_name": "POWER PHARMACY","address1": "1310 S 4TH ST","address2": "","city": "NASHVILLE","state": "AR","zip": "71852","zip+4": "3007","phone": "8708451413","NPI": "     1053311969"}, 
{"id": 2428,"ncpdp": "0405298","pharmacy_name": "USA DRUG EXPRESS #1002","address1": "5209 JFK BLVD","address2": "","city": "NORTH LITTLE ROCK","state": "AR","zip": "72116","zip+4": "0000","phone": "5017580850","NPI": "     1619050234"}, 
{"id": 2429,"ncpdp": "0405375","pharmacy_name": "NEWCOMB DRUG STORE","address1": "100 E HALE AVE","address2": "","city": "OSCEOLA","state": "AR","zip": "72370","zip+4": "2647","phone": "8705632618","NPI": "     1437225398"}, 
{"id": 2430,"ncpdp": "0405387","pharmacy_name": "OSCEOLA PHARMACY","address1": "600 W LEE AVE","address2": "","city": "OSCEOLA","state": "AR","zip": "72370","zip+4": "3099","phone": "8705636516","NPI": "     1013094721"}, 
{"id": 2431,"ncpdp": "0405399","pharmacy_name": "STAR PHARMACY LTD","address1": "916 W KEISER AVE","address2": "","city": "OSCEOLA","state": "AR","zip": "72370","zip+4": "0000","phone": "8705635255","NPI": "     1609911338"}, 
{"id": 2432,"ncpdp": "0405476","pharmacy_name": "SUPER D DRUGS #21","address1": "1703 PARAGOULD PLAZA","address2": "","city": "PARAGOULD","state": "AR","zip": "72450","zip+4": "0000","phone": "8702399588","NPI": "     1629151030"}, 
{"id": 2433,"ncpdp": "0405539","pharmacy_name": "HOLCOMBS PHARMACY","address1": "231 W MAIN ST","address2": "","city": "PIGGOTT","state": "AR","zip": "72454","zip+4": "2039","phone": "8705983183","NPI": "     1194825042"}, 
{"id": 2434,"ncpdp": "0405604","pharmacy_name": "SUPER D EXPRESS RX #1022","address1": "2711 HAZEL STREET","address2": "","city": "PINE BLUFF","state": "AR","zip": "71603","zip+4": "0000","phone": "8705366607","NPI": "     1538242946"}, 
{"id": 2435,"ncpdp": "0405666","pharmacy_name": "JRMC RETAIL PHARMACY","address1": "1600 W 40TH AVE","address2": "","city": "PINE BLUFF","state": "AR","zip": "71603","zip+4": "0000","phone": "8705417902","NPI": "     1851421861"}, 
{"id": 2436,"ncpdp": "0405743","pharmacy_name": "FUTRELL PHARMACY, INC.","address1": "115 E BROADWAY ST","address2": "","city": "POCAHONTAS","state": "AR","zip": "72455","zip+4": "3498","phone": "8708925615","NPI": "     1780681932"}, 
{"id": 2437,"ncpdp": "0405818","pharmacy_name": "JOHNSON PHARMACY","address1": "6124 HEBER SPGS RD W","address2": "","city": "QUITMAN","state": "AR","zip": "72131","zip+4": "0164","phone": "5015892890","NPI": "     1942348024"}, 
{"id": 2438,"ncpdp": "0405832","pharmacy_name": "CITY PHARMACY OF RISON","address1": "209 MAIN ST","address2": "","city": "RISON","state": "AR","zip": "71665","zip+4": "0000","phone": "8703256237","NPI": "     1033102769"}, 
{"id": 2439,"ncpdp": "0405882","pharmacy_name": "C AND D DRUG STORE","address1": "121 N COMMERCE AVE","address2": "","city": "RUSSELLVILLE","state": "AR","zip": "72801","zip+4": "3790","phone": "4799682456","NPI": "     1295831899"}, 
{"id": 2440,"ncpdp": "0405919","pharmacy_name": "NEWTONS PHARMACY","address1": "715 W MAIN ST","address2": "","city": "RUSSELLVILLE","state": "AR","zip": "72801","zip+4": "0000","phone": "4799681157","NPI": "     1609980028"}, 
{"id": 2441,"ncpdp": "0405957","pharmacy_name": "BAKERS PHARMACY","address1": "106 W HWY 62 412","address2": "","city": "SALEM","state": "AR","zip": "72576","zip+4": "0247","phone": "8708953811","NPI": "     1316950041"}, 
{"id": 2442,"ncpdp": "0405969","pharmacy_name": "MILLERS PHARMACY","address1": "172 HWY 62 E","address2": "SUITE 2","city": "SALEM","state": "AR","zip": "72576","zip+4": "0155","phone": "8708952143","NPI": "     1366542318"}, 
{"id": 2443,"ncpdp": "0406012","pharmacy_name": "MEDICAL CENTER PHARMACY","address1": "2900 HAWKINS DR","address2": "","city": "SEARCY","state": "AR","zip": "72143","zip+4": "4802","phone": "5012683311","NPI": "     1306898093"}, 
{"id": 2444,"ncpdp": "0406048","pharmacy_name": "MCCOY TYGART DRUG STORE","address1": "821 N ROCK ST","address2": "","city": "SHERIDAN","state": "AR","zip": "72150","zip+4": "0000","phone": "8709425121","NPI": "     1073579843"}, 
{"id": 2445,"ncpdp": "0406101","pharmacy_name": "BRUCE DRUGS INC","address1": "711 BROADWAY ST","address2": "","city": "SMACKOVER","state": "AR","zip": "71762","zip+4": "1822","phone": "8707252401","NPI": "     1336208602"}, 
{"id": 2446,"ncpdp": "0406187","pharmacy_name": "PEOPLES DRUG AND GIFT","address1": "237 MAIN ST","address2": "","city": "STAMPS","state": "AR","zip": "71860","zip+4": "0000","phone": "8705334311","NPI": "     1851480537"}, 
{"id": 2447,"ncpdp": "0406202","pharmacy_name": "BEARD DRUG COMPANY","address1": "614 S LINCOLN AVE","address2": "","city": "STAR CITY","state": "AR","zip": "71667","zip+4": "1109","phone": "8706284277","NPI": "     1942337811"}, 
{"id": 2448,"ncpdp": "0406240","pharmacy_name": "COKER HAMPTON DRUG CO","address1": "218 S MAIN ST","address2": "","city": "STUTTGART","state": "AR","zip": "72160","zip+4": "0902","phone": "8706732691","NPI": "     1649377920"}, 
{"id": 2449,"ncpdp": "0406341","pharmacy_name": "TRUMANN DRUG COMPANY","address1": "213 HWY 463 NORTH","address2": "","city": "TRUMANN","state": "AR","zip": "72472","zip+4": "2619","phone": "8704836439","NPI": "     1306914395"}, 
{"id": 2450,"ncpdp": "0406454","pharmacy_name": "GANNAWAY DRUG STORE","address1": "101 N MAIN ST","address2": "","city": "WARREN","state": "AR","zip": "71671","zip+4": "2785","phone": "8702263751","NPI": "     1285778605"}, 
{"id": 2451,"ncpdp": "0406581","pharmacy_name": "WYNNE MEDICAL PHARMACY","address1": "718 S FALLS BLVD","address2": "","city": "WYNNE","state": "AR","zip": "72396","zip+4": "0000","phone": "8702388531","NPI": "     1457332850"}, 
{"id": 2452,"ncpdp": "0406656","pharmacy_name": "SUPER D DRUGS #39","address1": "430 WEST BROADWAY","address2": "","city": "WEST MEMPHIS","state": "AR","zip": "72301","zip+4": "0000","phone": "8707322260","NPI": "     1447333851"}, 
{"id": 2453,"ncpdp": "0406682","pharmacy_name": "THE CORNER PHARMACY","address1": "191 W MAIN ST","address2": "","city": "ASHDOWN","state": "AR","zip": "71822","zip+4": "0000","phone": "8708985151","NPI": "     1821083619"}, 
{"id": 2454,"ncpdp": "0406707","pharmacy_name": "MEDISAV HOMECARE PHARMACY #1","address1": "101 S LOGAN ST","address2": "","city": "CHARLESTON","state": "AR","zip": "72933","zip+4": "0000","phone": "4799652244","NPI": "     1063507861"}, 
{"id": 2455,"ncpdp": "0406783","pharmacy_name": "KROGER PHARMACY #25632","address1": "6420 ASHER AVENUE","address2": "","city": "LITTLE ROCK","state": "AR","zip": "72204","zip+4": "0000","phone": "5015650188","NPI": "     1790719540"}, 
{"id": 2456,"ncpdp": "0406860","pharmacy_name": "USA DRUG EXPRESS #1027","address1": "100 AIRPORT ROAD","address2": "","city": "HOT SPRINGS","state": "AR","zip": "71913","zip+4": "0000","phone": "5016240669","NPI": "     1356424766"}, 
{"id": 2457,"ncpdp": "0406896","pharmacy_name": "CATE PHARMACY INC","address1": "500 N MISSOURI","address2": "","city": "CORNING","state": "AR","zip": "72422","zip+4": "2797","phone": "8708576766","NPI": "     1225025232"}, 
{"id": 2458,"ncpdp": "0406911","pharmacy_name": "BAPTIST MEDICAL TOWERS PHARMAC","address1": "9601 LILE DR","address2": "SUITE 109","city": "LITTLE ROCK","state": "AR","zip": "72205","zip+4": "6316","phone": "5012022462","NPI": "     1124095070"}, 
{"id": 2459,"ncpdp": "0406973","pharmacy_name": "VILLAGE HEALTH MART DRUG #1","address1": "4440 HWY 7 NORTH","address2": "","city": "HOT SPRINGS VILLGE","state": "AR","zip": "71909","zip+4": "4020","phone": "5019220777","NPI": "     1093720617"}, 
{"id": 2460,"ncpdp": "0408078","pharmacy_name": "YOUNGS HEALTHMART PHARMACY","address1": "1304 S MAIN ST","address2": "","city": "MALVERN","state": "AR","zip": "72104","zip+4": "5228","phone": "5013374901","NPI": "     1194941948"}, 
{"id": 2461,"ncpdp": "0408092","pharmacy_name": "ECONOMY DRUG","address1": "1006 W TRIMBLE AVE","address2": "","city": "BERRYVILLE","state": "AR","zip": "72616","zip+4": "0000","phone": "8704232094","NPI": "     1447364419"}, 
{"id": 2462,"ncpdp": "0408369","pharmacy_name": "LEES SUPER DRUG STORE","address1": "105 W CHOCTAW ST","address2": "","city": "DUMAS","state": "AR","zip": "71639","zip+4": "2005","phone": "8703824007","NPI": "     1003805474"}, 
{"id": 2463,"ncpdp": "0408852","pharmacy_name": "MEDI QUIK PHARMACY","address1": "810 W COMMERCIAL ST","address2": "","city": "OZARK","state": "AR","zip": "72949","zip+4": "3010","phone": "4796674145","NPI": "     1942384748"}, 
{"id": 2464,"ncpdp": "0409183","pharmacy_name": "PRESCRIPTION SHOP","address1": "158 S LIVERMORE","address2": "","city": "HAZEN","state": "AR","zip": "72064","zip+4": "0507","phone": "8702554403","NPI": "     1477688463"}, 
{"id": 2465,"ncpdp": "0409311","pharmacy_name": "DAVIS DRUG STORE INC","address1": "HWY 62 412 MIDWAY PLAZA","address2": "STE 10","city": "HARDY","state": "AR","zip": "72542","zip+4": "0000","phone": "8708563080","NPI": "     1871694513"}, 
{"id": 2466,"ncpdp": "0409347","pharmacy_name": "MEDISAV HOMECARE PHARMACY #2","address1": "8820 ROGERS AVE","address2": "","city": "FT SMITH","state": "AR","zip": "72903","zip+4": "0000","phone": "4794520278","NPI": "     1518069004"}, 
{"id": 2467,"ncpdp": "0409397","pharmacy_name": "S AND H PHARMACY","address1": "711 N EDMONDS ST","address2": "","city": "MCCRORY","state": "AR","zip": "72101","zip+4": "0000","phone": "8707312361","NPI": "     1669555710"}, 
{"id": 2468,"ncpdp": "0409412","pharmacy_name": "ALLCARE PHARMACY #4","address1": "310 E ELM ST","address2": "","city": "PRESCOTT","state": "AR","zip": "71857","zip+4": "2499","phone": "8708876664","NPI": "     1992875074"}, 
{"id": 2469,"ncpdp": "0409424","pharmacy_name": "MARKS PHARMACY","address1": "7311 N HILLS BLVD STE 3","address2": "","city": "SHERWOOD","state": "AR","zip": "72116","zip+4": "5396","phone": "5018357775","NPI": "     1417984741"}, 
{"id": 2470,"ncpdp": "0409436","pharmacy_name": "EAST AR FAMILY HLTH CTR PHCY","address1": "215 E BOND AVE","address2": "","city": "WEST MEMPHIS","state": "AR","zip": "72301","zip+4": "3100","phone": "4797353846","NPI": "     1427170901"}, 
{"id": 2471,"ncpdp": "0409450","pharmacy_name": "USA DRUG #2","address1": "2514 WEST 28TH STREET","address2": "","city": "PINE BLUFF","state": "AR","zip": "71603","zip+4": "0000","phone": "8705367710","NPI": "     1265515670"}, 
{"id": 2472,"ncpdp": "0409486","pharmacy_name": "WILSON WIL-SAV PHARMACY","address1": "10 ALLEN CHAPEL RD","address2": "","city": "BATESVILLE","state": "AR","zip": "72501","zip+4": "9787","phone": "8702512432","NPI": "     1649386285"}, 
{"id": 2473,"ncpdp": "0409525","pharmacy_name": "ALLCARE PHARMACY #32","address1": "515 MAIN ST","address2": "","city": "ARKADELPHIA","state": "AR","zip": "71923","zip+4": "6091","phone": "8704039401","NPI": "     1801966981"}, 
{"id": 2474,"ncpdp": "0409551","pharmacy_name": "ALLCARE PHARMACY #6","address1": "107 E NORTH ST","address2": "","city": "MAGNOLIA","state": "AR","zip": "71753","zip+4": "2822","phone": "8702348120","NPI": "     1710057898"}, 
{"id": 2475,"ncpdp": "0409587","pharmacy_name": "WAL-MART PHARMACY #100004","address1": "2901 HWY 412 EAST","address2": "","city": "SILOAM SPRINGS","state": "AR","zip": "72761","zip+4": "0000","phone": "4795243156","NPI": "     1437176815"}, 
{"id": 2476,"ncpdp": "0409676","pharmacy_name": "USA DRUG #1","address1": "1401 E HARDING AVE","address2": "","city": "PINE BLUFF","state": "AR","zip": "71601","zip+4": "0000","phone": "8705367140","NPI": "     1174606586"}, 
{"id": 2477,"ncpdp": "0409880","pharmacy_name": "FLIPPIN PHARMACY","address1": "109 N 1ST ST","address2": "","city": "FLIPPIN","state": "AR","zip": "72634","zip+4": "0000","phone": "8704532218","NPI": "     1265567192"}, 
{"id": 2478,"ncpdp": "0410047","pharmacy_name": "IMBODEN MEDICAL PHARMACY","address1": "203 WALNUT ST","address2": "","city": "IMBODEN","state": "AR","zip": "72434","zip+4": "0000","phone": "8708692046","NPI": "     1528058112"}, 
{"id": 2479,"ncpdp": "0410085","pharmacy_name": "USA DRUG EXPRESS #1033","address1": "2111 W MARTIN LUTHER KING BLVD","address2": "","city": "FAYETTEVILLE","state": "AR","zip": "72701","zip+4": "0000","phone": "4794425225","NPI": "     1528141140"}, 
{"id": 2480,"ncpdp": "0410097","pharmacy_name": "WAL-MART PHARMACY #100054","address1": "2004 SOUTH PLEASANT","address2": "","city": "SPRINGDALE","state": "AR","zip": "72764","zip+4": "0000","phone": "4797560860","NPI": "     1346267721"}, 
{"id": 2481,"ncpdp": "0410174","pharmacy_name": "OAK GROVE PHARMACY INC","address1": "11114 MACARTHUR DR","address2": "","city": "NORTH LITTLE ROCK","state": "AR","zip": "72118","zip+4": "0000","phone": "5018513636","NPI": "     1316922487"}, 
{"id": 2482,"ncpdp": "0410201","pharmacy_name": "USA DRUG # #8006","address1": "5462 CENTRAL AVE","address2": "","city": "HOT SPRINGS","state": "AR","zip": "71913","zip+4": "0000","phone": "5015253288","NPI": "     1972686590"}, 
{"id": 2483,"ncpdp": "0410249","pharmacy_name": "VILONIA DRUG INC","address1": "1155 MAIN","address2": "","city": "VILONIA","state": "AR","zip": "72173","zip+4": "0145","phone": "5017962116","NPI": "     1497753461"}, 
{"id": 2484,"ncpdp": "0410263","pharmacy_name": "WAL-MART PHARMACY #100144","address1": "2875 MARTIN LUTHER KING JR. BL","address2": "","city": "FAYETTEVILLE","state": "AR","zip": "72704","zip+4": "0000","phone": "4795214350","NPI": "     1255358636"}, 
{"id": 2485,"ncpdp": "0410314","pharmacy_name": "PLAZA PHARMACY","address1": "3001 APACHE DR","address2": "","city": "JONESBORO","state": "AR","zip": "72401","zip+4": "0000","phone": "8709721751","NPI": "     1639180219"}, 
{"id": 2486,"ncpdp": "0410364","pharmacy_name": "MEDI QUIK PHARMACY","address1": "442 N MAIN ST","address2": "","city": "MULBERRY","state": "AR","zip": "72947","zip+4": "0000","phone": "4799978033","NPI": "     1679563712"}, 
{"id": 2487,"ncpdp": "0410403","pharmacy_name": "NEWSOMS FAMILY PHARMACY","address1": "9661 STRONG HWY","address2": "","city": "STRONG","state": "AR","zip": "71765","zip+4": "0000","phone": "8707972011","NPI": "     1326169152"}, 
{"id": 2488,"ncpdp": "0410542","pharmacy_name": "WAL-MART PHARMACY #100100","address1": "406 SOUTH WALTON BLVD","address2": "","city": "BENTONVILLE","state": "AR","zip": "72712","zip+4": "0000","phone": "4792735080","NPI": "     1164449542"}, 
{"id": 2489,"ncpdp": "0410554","pharmacy_name": "FOOTES SUPER DRUG INC #4","address1": "109 E ADAMS ST","address2": "","city": "HAMBURG","state": "AR","zip": "71646","zip+4": "3256","phone": "8708535275","NPI": "     1033252267"}, 
{"id": 2490,"ncpdp": "0410580","pharmacy_name": "USA DRUG EXPRESS #1035","address1": "1300 EAST KIEHL","address2": "","city": "SHERWOOD","state": "AR","zip": "72120","zip+4": "0000","phone": "5018341480","NPI": "     1528141934"}, 
{"id": 2491,"ncpdp": "0410655","pharmacy_name": "HAMPTON MEDICAL PHARMACY","address1": "344 S LEE","address2": "","city": "HAMPTON","state": "AR","zip": "71744","zip+4": "0732","phone": "8707984247","NPI": "     1861493447"}, 
{"id": 2492,"ncpdp": "0410732","pharmacy_name": "WOODSPRINGS PHARMACY","address1": "1807 WOODSPRINGS RD","address2": "","city": "JONESBORO","state": "AR","zip": "72401","zip+4": "5643","phone": "8709728310","NPI": "     1902803042"}, 
{"id": 2493,"ncpdp": "0410770","pharmacy_name": "ALLCARE PHARMACY - PONDER","address1": "400 S COLLEGE ST","address2": "","city": "MOUNTAIN HOME","state": "AR","zip": "72653","zip+4": "3923","phone": "8704255145","NPI": "     1851372437"}, 
{"id": 2494,"ncpdp": "0410821","pharmacy_name": "SUPER V DRUGS","address1": "1000 E MATTHEWS AVE","address2": "STE A","city": "JONESBORO","state": "AR","zip": "72401","zip+4": "4307","phone": "8709726470","NPI": "     1487661583"}, 
{"id": 2495,"ncpdp": "0410833","pharmacy_name": "WAL-MART PHARMACY #100052","address1": "1601 ALBERT PIKE BLV","address2": "","city": "HOT SPRINGS","state": "AR","zip": "71913","zip+4": "0000","phone": "5016240142","NPI": "     1073530457"}, 
{"id": 2496,"ncpdp": "0410908","pharmacy_name": "COLEMAN PHARMACY INC","address1": "3610 GRAND AVE","address2": "","city": "FT SMITH","state": "AR","zip": "72904","zip+4": "6898","phone": "4797835171","NPI": "     1407844855"}, 
{"id": 2497,"ncpdp": "0410922","pharmacy_name": "KROGER PHARMACY #25687","address1": "303 ST LOUIS STEET","address2": "","city": "BATESVILLE","state": "AR","zip": "72501","zip+4": "0000","phone": "8707933000","NPI": "     1265592497"}, 
{"id": 2498,"ncpdp": "0410934","pharmacy_name": "KROGER PHARMACY #25652","address1": "101 WEST OAK ST","address2": "","city": "CONWAY","state": "AR","zip": "72032","zip+4": "0000","phone": "5013290795","NPI": "     1174683304"}, 
{"id": 2499,"ncpdp": "0410958","pharmacy_name": "FLOWERS PHARMACY","address1": "1401 S STATE ST","address2": "STE A","city": "PINE BLUFF","state": "AR","zip": "71601","zip+4": "0000","phone": "8705348366","NPI": "     1437298213"}, 
{"id": 2500,"ncpdp": "0410960","pharmacy_name": "NORMAN AND BAKER PHARMACY","address1": "1117 MCLAIN ST","address2": "","city": "NEWPORT","state": "AR","zip": "72112","zip+4": "3531","phone": "8705239472","NPI": "     1043290299"}, 
{"id": 2501,"ncpdp": "0411001","pharmacy_name": "CITY PHARMACY INC","address1": "606 S PARK ST","address2": "","city": "POCAHONTAS","state": "AR","zip": "72455","zip+4": "0000","phone": "8708925517","NPI": "     1982719902"}, 
{"id": 2502,"ncpdp": "0411037","pharmacy_name": "SUPER D DRUGS #45","address1": "1111 NORTH WASHINGTON AVENUE","address2": "","city": "FORREST CITY","state": "AR","zip": "72335","zip+4": "0000","phone": "8706334463","NPI": "     1437232840"}, 
{"id": 2503,"ncpdp": "0411049","pharmacy_name": "MARKET PLACE PHARMACY","address1": "11316 HURON LN","address2": "","city": "LITTLE ROCK","state": "AR","zip": "72211","zip+4": "0000","phone": "5012255056","NPI": "     1316073059"}, 
{"id": 2504,"ncpdp": "0411051","pharmacy_name": "WAL-MART PHARMACY #100001","address1": "2110 WEST WALNUT","address2": "","city": "ROGERS","state": "AR","zip": "72756","zip+4": "0000","phone": "4796368238","NPI": "     1982621363"}, 
{"id": 2505,"ncpdp": "0411140","pharmacy_name": "SMITHS DRUG PLLC","address1": "695 E THIRD ST","address2": "","city": "GENTRY","state": "AR","zip": "72734","zip+4": "0000","phone": "4797362241","NPI": "     1255410999"}, 
{"id": 2506,"ncpdp": "0411176","pharmacy_name": "WAL-MART PHARMACY #100318","address1": "109 W.P. MALONE DR","address2": "","city": "ARKADELPHIA","state": "AR","zip": "71923","zip+4": "0000","phone": "8702465410","NPI": "     1902823495"}, 
{"id": 2507,"ncpdp": "0411188","pharmacy_name": "WAL-MART PHARMACY #100058","address1": "2409 EAST MAIN STREET","address2": "","city": "RUSSELLVILLE","state": "AR","zip": "72802","zip+4": "0000","phone": "4799682970","NPI": "     1790702173"}, 
{"id": 2508,"ncpdp": "0411227","pharmacy_name": "PIGGOTT DISCOUNT DRUG","address1": "175 N 3RD AVE","address2": "","city": "PIGGOTT","state": "AR","zip": "72454","zip+4": "0000","phone": "8705985353","NPI": "     1295740710"}, 
{"id": 2509,"ncpdp": "0411241","pharmacy_name": "WALDEN DRUG","address1": "320 S 12TH ST","address2": "","city": "PARAGOULD","state": "AR","zip": "72450","zip+4": "0000","phone": "8702366118","NPI": "     1073601571"}, 
{"id": 2510,"ncpdp": "0411253","pharmacy_name": "MAGEE THOMAS PHARMACY","address1": "200 E 7TH ST","address2": "","city": "MOUNTAIN HOME","state": "AR","zip": "72653","zip+4": "0000","phone": "8704252221","NPI": "     1386675304"}, 
{"id": 2511,"ncpdp": "0411304","pharmacy_name": "PARK WEST PHARMACY","address1": "11215 HERMITAGE RD","address2": "","city": "LITTLE ROCK","state": "AR","zip": "72211","zip+4": "3857","phone": "5012243499","NPI": "     1053308940"}, 
{"id": 2512,"ncpdp": "0411354","pharmacy_name": "FREDS PHARMACY #2016","address1": "2308 SOUTH CARAWAY RD","address2": "","city": "JONESBORO","state": "AR","zip": "72401","zip+4": "0000","phone": "8709728751","NPI": "     1538191564"}, 
{"id": 2513,"ncpdp": "0411366","pharmacy_name": "CORNER DRUG STORE","address1": "118 SPRING ST","address2": "","city": "MELBOURNE","state": "AR","zip": "72556","zip+4": "0000","phone": "8703687171","NPI": "     1326015371"}, 
{"id": 2514,"ncpdp": "0411568","pharmacy_name": "SUPER D EXPRESS RX #1043","address1": "533 WEST NETTLETON","address2": "","city": "JONESBORO","state": "AR","zip": "72401","zip+4": "0000","phone": "8709321014","NPI": "     1881777407"}, 
{"id": 2515,"ncpdp": "0411594","pharmacy_name": "WAL-MART PHARMACY #100083","address1": "60 79-BYPASS NORTH","address2": "","city": "MAGNOLIA","state": "AR","zip": "71753","zip+4": "0000","phone": "8702345421","NPI": "     1811914302"}, 
{"id": 2516,"ncpdp": "0411607","pharmacy_name": "WAL-MART PHARMACY #100348","address1": "427 HWY 425 NORTH","address2": "","city": "MONTICELLO","state": "AR","zip": "71655","zip+4": "0000","phone": "8703673559","NPI": "     1609893080"}, 
{"id": 2517,"ncpdp": "0411619","pharmacy_name": "BILLS PHARMACY","address1": "201 E BROADWAY ST","address2": "","city": "MORRILTON","state": "AR","zip": "72110","zip+4": "3403","phone": "5013543505","NPI": "     1366585887"}, 
{"id": 2518,"ncpdp": "0411809","pharmacy_name": "KROGER PHARMACY #25550","address1": "1100 EAST ROOSEVELT","address2": "","city": "LITTLE ROCK","state": "AR","zip": "72206","zip+4": "0000","phone": "5013755645","NPI": "     1609800457"}, 
{"id": 2519,"ncpdp": "0411835","pharmacy_name": "WAL-MART PHARMACY #100358","address1": "367 WEST CHERRY ST","address2": "","city": "ALMA","state": "AR","zip": "72921","zip+4": "0000","phone": "4796324330","NPI": "     1720005218"}, 
{"id": 2520,"ncpdp": "0411847","pharmacy_name": "BOBBY TEETERS DRUG STORE INC #","address1": "200 W MAIN ST","address2": "","city": "CLARKSVILLE","state": "AR","zip": "72830","zip+4": "3097","phone": "4797542196","NPI": "     1922192327"}, 
{"id": 2521,"ncpdp": "0411936","pharmacy_name": "CITY DRUG","address1": "201 E GAINES ST","address2": "","city": "MONTICELLO","state": "AR","zip": "71655","zip+4": "4903","phone": "8703675301","NPI": "     1740371475"}, 
{"id": 2522,"ncpdp": "0411948","pharmacy_name": "THE MEDICINE CHEST PHARMACY","address1": "209 CARTER ST","address2": "","city": "BERRYVILLE","state": "AR","zip": "72616","zip+4": "4303","phone": "8704236677","NPI": "     1063427516"}, 
{"id": 2523,"ncpdp": "0411950","pharmacy_name": "BELLA VISTA PHARMACY","address1": "408 TOWN CENTER AVE","address2": "","city": "BELLA VISTA","state": "AR","zip": "72714","zip+4": "1817","phone": "4798553791","NPI": "     1841336765"}, 
{"id": 2524,"ncpdp": "0411962","pharmacy_name": "WAL-MART PHARMACY #100067","address1": "600 HWY 71 NORTH","address2": "","city": "MENA","state": "AR","zip": "71953","zip+4": "0000","phone": "4793943897","NPI": "     1518984996"}, 
{"id": 2525,"ncpdp": "0412039","pharmacy_name": "MILLERS PHARMACY","address1": "111 S COURT SQUARE","address2": "","city": "MAGNOLIA","state": "AR","zip": "71753","zip+4": "3511","phone": "8702342012","NPI": "     1801895842"}, 
{"id": 2526,"ncpdp": "0412053","pharmacy_name": "ALLCARE PHARMACY #8","address1": "3002 PINE ST","address2": "","city": "ARKADELPHIA","state": "AR","zip": "71923","zip+4": "5325","phone": "8702463044","NPI": "     1629148705"}, 
{"id": 2527,"ncpdp": "0412077","pharmacy_name": "MYERS PHARMACY","address1": "226 MAIN ST","address2": "","city": "MAMMOTH SPRING","state": "AR","zip": "72554","zip+4": "0000","phone": "8706253214","NPI": "     1689749426"}, 
{"id": 2528,"ncpdp": "0412089","pharmacy_name": "WAL-MART PHARMACY #100359","address1": "3919 NO. MALL AVE","address2": "","city": "FAYETTEVILLE","state": "AR","zip": "72703","zip+4": "0000","phone": "4794439267","NPI": "     1427075803"}, 
{"id": 2529,"ncpdp": "0412091","pharmacy_name": "WAL-MART PHARMACY #100261","address1": "4019 CENTRAL AVENUE","address2": "","city": "HOT SPRINGS","state": "AR","zip": "71913","zip+4": "0000","phone": "5016237689","NPI": "     1932128915"}, 
{"id": 2530,"ncpdp": "0412116","pharmacy_name": "CLINTON DRUG","address1": "2526 HWY 65 S","address2": "STE 101","city": "CLINTON","state": "AR","zip": "72031","zip+4": "0000","phone": "5017458414","NPI": "     1053492405"}, 
{"id": 2531,"ncpdp": "0412130","pharmacy_name": "COLLIER DRUG PRAIRE GROVE","address1": "801 E DOUGLAS","address2": "","city": "PRAIRIE GROVE","state": "AR","zip": "72753","zip+4": "0000","phone": "4798462195","NPI": "     1003816174"}, 
{"id": 2532,"ncpdp": "0412243","pharmacy_name": "WAL-MART PHARMACY #100085","address1": "17309 I-30","address2": "","city": "BENTON","state": "AR","zip": "72015","zip+4": "0000","phone": "5017785041","NPI": "     1336166834"}, 
{"id": 2533,"ncpdp": "0412279","pharmacy_name": "WAL-MART PHARMACY #100127","address1": "1910 MARTIN LUTHER KING BLVD","address2": "","city": "MALVERN","state": "AR","zip": "72104","zip+4": "0000","phone": "5013371170","NPI": "     1336166719"}, 
{"id": 2534,"ncpdp": "0412320","pharmacy_name": "PILE DRUG STORE","address1": "116 SOUTH MAIN STREET","address2": "","city": "NASHVILLE","state": "AR","zip": "71852","zip+4": "2497","phone": "8708451565","NPI": "     1699866178"}, 
{"id": 2535,"ncpdp": "0412344","pharmacy_name": "HEALTH CARE PHARMACY","address1": "10 HOSPITAL DR","address2": "","city": "MORRILTON","state": "AR","zip": "72110","zip+4": "4500","phone": "5013541460","NPI": "     1225053986"}, 
{"id": 2536,"ncpdp": "0412445","pharmacy_name": "WAL-MART PHARMACY #100062","address1": "3700 EAST HWY 18","address2": "","city": "BLYTHEVILLE","state": "AR","zip": "72315","zip+4": "0000","phone": "8707631013","NPI": "     1245257625"}, 
{"id": 2537,"ncpdp": "0412457","pharmacy_name": "CHAMBERS DRUG INC","address1": "630 W MAIN ST","address2": "","city": "JACKSONVILLE","state": "AR","zip": "72076","zip+4": "4498","phone": "5019822117","NPI": "     1205823002"}, 
{"id": 2538,"ncpdp": "0412471","pharmacy_name": "GRIFFINS PHARMACY","address1": "239 MAIN ST","address2": "","city": "STAMPS","state": "AR","zip": "71860","zip+4": "2827","phone": "8705334351","NPI": "     1578562195"}, 
{"id": 2539,"ncpdp": "0412508","pharmacy_name": "BILLS PHARMACY","address1": "601 MAIN ST","address2": "","city": "AUGUSTA","state": "AR","zip": "72006","zip+4": "0270","phone": "8703472620","NPI": "     1740340124"}, 
{"id": 2540,"ncpdp": "0412572","pharmacy_name": "CORNERSTONE PHARMACY AT GREERS","address1": "8470 EDGEMONT RD","address2": "","city": "GREERS FERRY","state": "AR","zip": "72067","zip+4": "1291","phone": "5018256265","NPI": "     1548271125"}, 
{"id": 2541,"ncpdp": "0412609","pharmacy_name": "CITY PHARMACY","address1": "1801 S BROADWAY","address2": "","city": "LITTLE ROCK","state": "AR","zip": "72206","zip+4": "0000","phone": "5013746565","NPI": "     1841291150"}, 
{"id": 2542,"ncpdp": "0412611","pharmacy_name": "HONS SAV ON DRUG","address1": "1610 HARRISON ST","address2": "","city": "BATESVILLE","state": "AR","zip": "72501","zip+4": "7301","phone": "8707934770","NPI": "     1003977166"}, 
{"id": 2543,"ncpdp": "0412673","pharmacy_name": "WAL-MART PHARMACY #100125","address1": "2425 SOUTH ZERO ST","address2": "","city": "FORT SMITH","state": "AR","zip": "72901","zip+4": "0000","phone": "4796464983","NPI": "     1154348530"}, 
{"id": 2544,"ncpdp": "0412685","pharmacy_name": "WAL-MART PHARMACY #100071","address1": "1415 HWY 67 SOUTH","address2": "","city": "POCAHONTAS","state": "AR","zip": "72455","zip+4": "0000","phone": "8708924441","NPI": "     1063439446"}, 
{"id": 2545,"ncpdp": "0412774","pharmacy_name": "BUERKLE DRUG COMPANY","address1": "202 S MAIN ST","address2": "","city": "STUTTGART","state": "AR","zip": "72160","zip+4": "4355","phone": "8706733784","NPI": "     1356485684"}, 
{"id": 2546,"ncpdp": "0412798","pharmacy_name": "GIBSONS PHARMACY OF JONESBORO","address1": "403 E MATTHEWS AVE","address2": "","city": "JONESBORO","state": "AR","zip": "72401","zip+4": "3142","phone": "8709729125","NPI": "     1326049131"}, 
{"id": 2547,"ncpdp": "0412813","pharmacy_name": "VILLAGE PHARMACY","address1": "500 W COMMERCIAL ST","address2": "","city": "OZARK","state": "AR","zip": "72949","zip+4": "3198","phone": "4796672101","NPI": "     1740361500"}, 
{"id": 2548,"ncpdp": "0412849","pharmacy_name": "HARRIS DRUG STORE","address1": "205 W DEQUEEN AVE","address2": "","city": "DE QUEEN","state": "AR","zip": "71832","zip+4": "2897","phone": "8705843555","NPI": "     1427130129"}, 
{"id": 2549,"ncpdp": "0412851","pharmacy_name": "DL BAKER DRUG CO","address1": "4133 E BROADWAY ST","address2": "","city": "NO LITTLE ROCK","state": "AR","zip": "72117","zip+4": "4120","phone": "5019453264","NPI": "     1699789545"}, 
{"id": 2550,"ncpdp": "0412952","pharmacy_name": "WAL-MART PHARMACY #100388","address1": "2100 NO 62ND ST","address2": "","city": "FT. SMITH","state": "AR","zip": "72904","zip+4": "0000","phone": "4797820606","NPI": "     1972520351"}, 
{"id": 2551,"ncpdp": "0412964","pharmacy_name": "WAL-MART PHARMACY #100141","address1": "8301 ROGERS AVENUE","address2": "","city": "FORT SMITH","state": "AR","zip": "72903","zip+4": "0000","phone": "4794523695","NPI": "     1881611267"}, 
{"id": 2552,"ncpdp": "0412988","pharmacy_name": "EAST END PHARMACY","address1": "20381 ARCH ST","address2": "","city": "LITTLE ROCK","state": "AR","zip": "72206","zip+4": "0000","phone": "5018882830","NPI": "     1023159282"}, 
{"id": 2553,"ncpdp": "0412990","pharmacy_name": "DELTA DRUG OF DERMOTT INC","address1": "111 E PEDDICORD ST","address2": "PO DRAWER 348","city": "DERMOTT","state": "AR","zip": "71638","zip+4": "0348","phone": "8705385510","NPI": "     1427191154"}, 
{"id": 2554,"ncpdp": "0413055","pharmacy_name": "WATSON PHARMACY INC","address1": "908 W 4TH ST","address2": "","city": "FORDYCE","state": "AR","zip": "71742","zip+4": "2299","phone": "8703522161","NPI": "     1669423810"}, 
{"id": 2555,"ncpdp": "0413120","pharmacy_name": "WAL-MART PHARMACY #100074","address1": "1051 WEST KEISER AVENUE","address2": "","city": "OSCEOLA","state": "AR","zip": "72370","zip+4": "0000","phone": "8705636633","NPI": "     1255358644"}, 
{"id": 2556,"ncpdp": "0413170","pharmacy_name": "ROSE DRUGS","address1": "1211 E WALNUT ST","address2": "","city": "PARIS","state": "AR","zip": "72855","zip+4": "4125","phone": "4799636400","NPI": "     1457362030"}, 
{"id": 2557,"ncpdp": "0413219","pharmacy_name": "AUSTIN DRUGS","address1": "118 E MAIN NE","address2": "","city": "GRAVETTE","state": "AR","zip": "72736","zip+4": "0000","phone": "4797875432","NPI": "     1679649339"}, 
{"id": 2558,"ncpdp": "0413271","pharmacy_name": "BRYANTS PHARMACY","address1": "2000 HARRISON ST","address2": "","city": "BATESVILLE","state": "AR","zip": "72501","zip+4": "7413","phone": "8707933999","NPI": "     1275528390"}, 
{"id": 2559,"ncpdp": "0413283","pharmacy_name": "BLANFORD PHARMACY","address1": "5 SAINT VINCENT CIR","address2": "STE 110","city": "LITTLE ROCK","state": "AR","zip": "72205","zip+4": "5412","phone": "5016644466","NPI": "     1750450607"}, 
{"id": 2560,"ncpdp": "0413295","pharmacy_name": "KROGER PHARMACY #25615","address1": "315 NORTH SHACKLEFORD","address2": "","city": "LITTLE ROCK","state": "AR","zip": "72211","zip+4": "0000","phone": "5012243872","NPI": "     1518991363"}, 
{"id": 2561,"ncpdp": "0413310","pharmacy_name": "WAL-MART PHARMACY #100157","address1": "3509 EAST RACE AVENUE","address2": "","city": "SEARCY","state": "AR","zip": "72143","zip+4": "0000","phone": "5012684946","NPI": "     1164449559"}, 
{"id": 2562,"ncpdp": "0413334","pharmacy_name": "STONEWOOD VILLAGE PHARMACY","address1": "7320 ROGERS AVE","address2": "SUITE 18","city": "FT SMITH","state": "AR","zip": "72903","zip+4": "4164","phone": "4794528290","NPI": "     1881757706"}, 
{"id": 2563,"ncpdp": "0413396","pharmacy_name": "OAK PARK PHARMACY","address1": "1305 WHITE DR","address2": "","city": "BATESVILLE","state": "AR","zip": "72501","zip+4": "9467","phone": "8706981974","NPI": "     1770570491"}, 
{"id": 2564,"ncpdp": "0413411","pharmacy_name": "TEASLEY DRUG","address1": "205 ATLANTA SE ST","address2": "","city": "GRAVETTE","state": "AR","zip": "72736","zip+4": "0000","phone": "4797875966","NPI": "     1275645269"}, 
{"id": 2565,"ncpdp": "0413473","pharmacy_name": "SUPER SAV DRUG #2","address1": "1125 W 2ND","address2": "","city": "WALDRON","state": "AR","zip": "72958","zip+4": "0000","phone": "4796374197","NPI": "     1396878468"}, 
{"id": 2566,"ncpdp": "0413548","pharmacy_name": "WAL-MART PHARMACY #100468","address1": "133 ARKANSAS BLVD","address2": "","city": "TEXARKANA","state": "AR","zip": "71854","zip+4": "0000","phone": "8707727872","NPI": "     1073530465"}, 
{"id": 2567,"ncpdp": "0413598","pharmacy_name": "M AND S PHARMACY","address1": "415 HOSPITAL DR","address2": "STE 2","city": "CAMDEN","state": "AR","zip": "71701","zip+4": "4694","phone": "8708362212","NPI": "     1710040506"}, 
{"id": 2568,"ncpdp": "0413637","pharmacy_name": "SMEE DRUG STORE","address1": "32 W MAIN ST","address2": "","city": "BOONEVILLE","state": "AR","zip": "72927","zip+4": "3635","phone": "4796752306","NPI": "     1184736175"}, 
{"id": 2569,"ncpdp": "0413649","pharmacy_name": "FAMILY PHARMACY","address1": "810 S MAIN ST","address2": "","city": "HOPE","state": "AR","zip": "71801","zip+4": "6523","phone": "8707772263","NPI": "     1235169103"}, 
{"id": 2570,"ncpdp": "0413675","pharmacy_name": "WAL-MART PHARMACY #100076","address1": "1000 WEST TRIMBLE","address2": "","city": "BERRYVILLE","state": "AR","zip": "72616","zip+4": "0000","phone": "8704236611","NPI": "     1982621371"}, 
{"id": 2571,"ncpdp": "0413687","pharmacy_name": "RHEA DRUGSTORE INC","address1": "2801 KAVANAUGH BLVD","address2": "","city": "LITTLE ROCK","state": "AR","zip": "72205","zip+4": "3896","phone": "5016634131","NPI": "     1891789715"}, 
{"id": 2572,"ncpdp": "0413738","pharmacy_name": "FREDS PHARMACY #1291","address1": "245 EAST OAK STREET","address2": "","city": "CONWAY","state": "AR","zip": "72032","zip+4": "0000","phone": "5013294067","NPI": "     1447282470"}, 
{"id": 2573,"ncpdp": "0413752","pharmacy_name": "WAL-MART PHARMACY #100119","address1": "3150 HARRISON STREET","address2": "","city": "BATESVILLE","state": "AR","zip": "72501","zip+4": "0000","phone": "8707934464","NPI": "     1790702181"}, 
{"id": 2574,"ncpdp": "0413776","pharmacy_name": "NORTHPARK PHARMACY INC","address1": "821 N MAPLE","address2": "","city": "DE QUEEN","state": "AR","zip": "71832","zip+4": "0000","phone": "8706423784","NPI": "     1912087446"}, 
{"id": 2575,"ncpdp": "0413790","pharmacy_name": "PRICE CUTTER PHARMACY #108","address1": "1109 S THOMPSON","address2": "","city": "SPRINGDALE","state": "AR","zip": "72765","zip+4": "0000","phone": "4797510464","NPI": "     1699875914"}, 
{"id": 2576,"ncpdp": "0413803","pharmacy_name": "WAL-MART PHARMACY #100002","address1": "1417 HWY 62/65 N","address2": "","city": "HARRISON","state": "AR","zip": "72601","zip+4": "0000","phone": "8707412327","NPI": "     1609893098"}, 
{"id": 2577,"ncpdp": "0413839","pharmacy_name": "WAL-MART PHARMACY #100011","address1": "65 WAL-MART DRIVE","address2": "","city": "MOUNTAIN HOME","state": "AR","zip": "72653","zip+4": "0000","phone": "8704927733","NPI": "     1518984905"}, 
{"id": 2578,"ncpdp": "0413865","pharmacy_name": "MARSHALL ROAD PHARMACY","address1": "811 MARSHALL RD","address2": "","city": "JACKSONVILLE","state": "AR","zip": "72076","zip+4": "3744","phone": "5019823551","NPI": "     1275674905"}, 
{"id": 2579,"ncpdp": "0413891","pharmacy_name": "NASHVILLE DRUG COMPANY INC","address1": "100 S MAIN ST","address2": "","city": "NASHVILLE","state": "AR","zip": "71852","zip+4": "2499","phone": "8708452722","NPI": "     1366511842"}, 
{"id": 2580,"ncpdp": "0413916","pharmacy_name": "ROSE DRUG OF RUSSELLVILLE INC","address1": "3103 W MAIN PL","address2": "","city": "RUSSELLVILLE","state": "AR","zip": "72801","zip+4": "3398","phone": "4799681323","NPI": "     1669487294"}, 
{"id": 2581,"ncpdp": "0413942","pharmacy_name": "KMART PHARMACY #7356","address1": "2010 SOUTH CARAWAY ROAD","address2": "","city": "JONESBORO","state": "AR","zip": "72401","zip+4": "0000","phone": "8709726926","NPI": "     1356372460"}, 
{"id": 2582,"ncpdp": "0413954","pharmacy_name": "WAL-MART PHARMACY #100005","address1": "1155 HWY 65 NORTH","address2": "","city": "CONWAY","state": "AR","zip": "72032","zip+4": "0000","phone": "5013291592","NPI": "     1013934512"}, 
{"id": 2583,"ncpdp": "0413966","pharmacy_name": "WAL-MART PHARMACY #100045","address1": "1815 EAST HIGHLAND DRIVE","address2": "","city": "JONESBORO","state": "AR","zip": "72401","zip+4": "0000","phone": "8709721838","NPI": "     1427075811"}, 
{"id": 2584,"ncpdp": "0413978","pharmacy_name": "WAL-MART PHARMACY #100068","address1": "800 HWY 64 EAST","address2": "","city": "WYNNE","state": "AR","zip": "72396","zip+4": "0000","phone": "8702387146","NPI": "     1336166727"}, 
{"id": 2585,"ncpdp": "0413980","pharmacy_name": "WAL-MART PHARMACY #100167","address1": "910 UNITY ROAD","address2": "","city": "CROSSETT","state": "AR","zip": "71635","zip+4": "0000","phone": "8703647205","NPI": "     1245257633"}, 
{"id": 2586,"ncpdp": "0414007","pharmacy_name": "WAL-MART PHARMACY #100070","address1": "798 WEST SERVICE ROAD","address2": "","city": "WEST MEMPHIS","state": "AR","zip": "72301","zip+4": "0000","phone": "8707352324","NPI": "     1154348548"}, 
{"id": 2587,"ncpdp": "0414021","pharmacy_name": "WAL-MART PHARMACY #100279","address1": "926 E. COLLIN RAYE DR.","address2": "","city": "DE QUEEN","state": "AR","zip": "71832","zip+4": "0000","phone": "8706426921","NPI": "     1063439453"}, 
{"id": 2588,"ncpdp": "0414057","pharmacy_name": "BURNS DRUG STORE INC","address1": "615 W COMMERCIAL ST","address2": "","city": "OZARK","state": "AR","zip": "72949","zip+4": "3196","phone": "4796673131","NPI": "     1427181080"}, 
{"id": 2589,"ncpdp": "0414069","pharmacy_name": "FREDS PHARMACY #2041","address1": "428 S JAMES STREET","address2": "","city": "JACKSONVILLE","state": "AR","zip": "72076","zip+4": "0000","phone": "5019851535","NPI": "     1356373385"}, 
{"id": 2590,"ncpdp": "0414071","pharmacy_name": "TOMMYS REXALL DRUG COMPANY","address1": "220 COURT SQUARE","address2": "","city": "DEWITT","state": "AR","zip": "72042","zip+4": "0000","phone": "8709464221","NPI": "     1962553404"}, 
{"id": 2591,"ncpdp": "0414083","pharmacy_name": "ECONO MART PHARMACY INC","address1": "1595 HARRISON ST","address2": "","city": "BATESVILLE","state": "AR","zip": "72501","zip+4": "7298","phone": "8707934179","NPI": "     1679568729"}, 
{"id": 2592,"ncpdp": "0414095","pharmacy_name": "WAL-MART PHARMACY #100788","address1": "1966 HWY 65 SOUTH","address2": "","city": "CLINTON","state": "AR","zip": "72031","zip+4": "0000","phone": "5017452888","NPI": "     1972520369"}, 
{"id": 2593,"ncpdp": "0414108","pharmacy_name": "WAL-MART PHARMACY #100024","address1": "2000 JOHN HARDEN DR","address2": "","city": "JACKSONVILLE","state": "AR","zip": "72076","zip+4": "0000","phone": "5019823357","NPI": "     1881611275"}, 
{"id": 2594,"ncpdp": "0414196","pharmacy_name": "KENS SAV ON DRUG","address1": "2221 BEEBE-CAPPS EXPY","address2": "","city": "SEARCY","state": "AR","zip": "72143","zip+4": "0000","phone": "5012681120","NPI": "     1235138652"}, 
{"id": 2595,"ncpdp": "0414285","pharmacy_name": "MARMADUKE FAMILY PHARMACY","address1": "11901 HWY 49 N","address2": "","city": "MARMADUKE","state": "AR","zip": "72443","zip+4": "0000","phone": "8705972911","NPI": "     1013959832"}, 
{"id": 2596,"ncpdp": "0414425","pharmacy_name": "ATKINS FAMILY PHARMACY #1085","address1": "408 N CHURCH STREET","address2": "","city": "ATKINS","state": "AR","zip": "72823","zip+4": "0000","phone": "4796417878","NPI": "     1659416972"}, 
{"id": 2597,"ncpdp": "0414463","pharmacy_name": "WAL-MART PHARMACY #100160","address1": "219 HIGHWAY 412","address2": "","city": "ASH FLAT","state": "AR","zip": "72513","zip+4": "0000","phone": "8709942152","NPI": "     1922025428"}, 
{"id": 2598,"ncpdp": "0414475","pharmacy_name": "WAL-MART PHARMACY #100126","address1": "700 SOUTH BOWMAN BLV","address2": "","city": "LITTLE ROCK","state": "AR","zip": "72211","zip+4": "0000","phone": "5012210096","NPI": "     1699792085"}, 
{"id": 2599,"ncpdp": "0414487","pharmacy_name": "WAL-MART PHARMACY #100036","address1": "2802 WEST KINGS HIGHWAY","address2": "","city": "PARAGOULD","state": "AR","zip": "72450","zip+4": "0000","phone": "8702367785","NPI": "     1508883992"}, 
{"id": 2600,"ncpdp": "0414499","pharmacy_name": "WAL-MART PHARMACY #100230","address1": "1501 EAST WALNUT STREET","address2": "","city": "PARIS","state": "AR","zip": "72855","zip+4": "0000","phone": "4799632189","NPI": "     1831116334"}, 
{"id": 2601,"ncpdp": "0414514","pharmacy_name": "WAL-MART PHARMACY #100016","address1": "2214 FAYETTEVILLE RD","address2": "","city": "VAN BUREN","state": "AR","zip": "72956","zip+4": "0000","phone": "4794745051","NPI": "     1417974809"}, 
{"id": 2602,"ncpdp": "0414526","pharmacy_name": "WAL-MART PHARMACY #100209","address1": "1516 NORTH 18TH STREET","address2": "","city": "OZARK","state": "AR","zip": "72949","zip+4": "0000","phone": "4796674448","NPI": "     1326065715"}, 
{"id": 2603,"ncpdp": "0414540","pharmacy_name": "MEDIC PHARMACY INC","address1": "704 W FAULKNER ST","address2": "","city": "EL DORADO","state": "AR","zip": "71730","zip+4": "0000","phone": "8708624931","NPI": "     1083608319"}, 
{"id": 2604,"ncpdp": "0414588","pharmacy_name": "WYNNE APOTHECARY INC","address1": "411 S FALLS BLVD","address2": "","city": "WYNNE","state": "AR","zip": "72396","zip+4": "0000","phone": "8702388511","NPI": "     1508859737"}, 
{"id": 2605,"ncpdp": "0414590","pharmacy_name": "SAM ALEXANDER PHARMACY","address1": "127 N MAIN ST","address2": "","city": "HARRISON","state": "AR","zip": "72601","zip+4": "0000","phone": "8707416511","NPI": "     1518953132"}, 
{"id": 2606,"ncpdp": "0414615","pharmacy_name": "ARGENTA DRUG COMPANY","address1": "324 MAIN STREET","address2": "","city": "NORTH LITTLE ROCK","state": "AR","zip": "72114","zip+4": "0000","phone": "5013744851","NPI": "     1760603104"}, 
{"id": 2607,"ncpdp": "0414641","pharmacy_name": "WOODS PHARMACY","address1": "301 W MAIN ST","address2": "","city": "MOUNTAIN VIEW","state": "AR","zip": "72560","zip+4": "1229","phone": "8702693253","NPI": "     1962595108"}, 
{"id": 2608,"ncpdp": "0414665","pharmacy_name": "HEALTH-WAY SAVE-ON DRUGS","address1": "1903 DEWITT HENRY DR","address2": "","city": "BEEBE","state": "AR","zip": "72012","zip+4": "2028","phone": "5018826471","NPI": "     1164588380"}, 
{"id": 2609,"ncpdp": "0414677","pharmacy_name": "COLLIER DRUG FARMINGTON","address1": "197 E MAIN","address2": "","city": "FARMINGTON","state": "AR","zip": "72730","zip+4": "0000","phone": "4795217875","NPI": "     1427058593"}, 
{"id": 2610,"ncpdp": "0414704","pharmacy_name": "PRINCE PHARMACY","address1": "211 E STADIUM DR","address2": "","city": "MAGNOLIA","state": "AR","zip": "71753","zip+4": "0000","phone": "8702347292","NPI": "     1023099660"}, 
{"id": 2611,"ncpdp": "0414730","pharmacy_name": "BILLS PHARMACY","address1": "137 E VAN BUREN","address2": "","city": "EUREKA SPRINGS","state": "AR","zip": "72632","zip+4": "0000","phone": "4792539175","NPI": "     1578681755"}, 
{"id": 2612,"ncpdp": "0414742","pharmacy_name": "FAMILY MEDICAL CENTER PHCY INC","address1": "4202 S UNIVERSITY AVE","address2": "","city": "LITTLE ROCK","state": "AR","zip": "72204","zip+4": "7857","phone": "5015623314","NPI": "     1801970413"}, 
{"id": 2613,"ncpdp": "0414780","pharmacy_name": "KROGER PHARMACY #25590","address1": "3341 CENTRAL AVENUE","address2": "","city": "HOT SPRINGS","state": "AR","zip": "71901","zip+4": "0000","phone": "5016245542","NPI": "     1427082270"}, 
{"id": 2614,"ncpdp": "0414805","pharmacy_name": "WAL-MART PHARMACY #100008","address1": "1621 NORTH BUSINESS 9","address2": "","city": "MORRILTON","state": "AR","zip": "72110","zip+4": "0000","phone": "5013544135","NPI": "     1235156621"}, 
{"id": 2615,"ncpdp": "0414893","pharmacy_name": "THE PRESCRIPTION STORE","address1": "1115 W 4TH ST","address2": "","city": "FORDYCE","state": "AR","zip": "71742","zip+4": "2001","phone": "8703528631","NPI": "     1851431399"}, 
{"id": 2616,"ncpdp": "0414982","pharmacy_name": "CALDWELL DISCOUNT DRUG CO #1","address1": "804 S FALLS BLVD","address2": "","city": "WYNNE","state": "AR","zip": "72396","zip+4": "0000","phone": "8702387085","NPI": "     1992703243"}, 
{"id": 2617,"ncpdp": "0415009","pharmacy_name": "SUPER SAV DRUG #3","address1": "2215 ALMA HWY","address2": "","city": "VAN BUREN","state": "AR","zip": "72956","zip+4": "4824","phone": "4794745028","NPI": "     1164563136"}, 
{"id": 2618,"ncpdp": "0415035","pharmacy_name": "WAL-MART PHARMACY #100296","address1": "1172 NO. HWY 7","address2": "","city": "DARDANELLE","state": "AR","zip": "72834","zip+4": "0000","phone": "4792292157","NPI": "     1740207240"}, 
{"id": 2619,"ncpdp": "0415047","pharmacy_name": "WAL-MART PHARMACY #100281","address1": "1500 HWY 25B NORTH","address2": "","city": "HEBER SPRINGS","state": "AR","zip": "72543","zip+4": "0000","phone": "5013625837","NPI": "     1659398154"}, 
{"id": 2620,"ncpdp": "0415059","pharmacy_name": "WAL-MART PHARMACY #101065","address1": "2400 N HERVEY ST","address2": "","city": "HOPE","state": "AR","zip": "71801","zip+4": "0000","phone": "8707771600","NPI": "     1144247537"}, 
{"id": 2621,"ncpdp": "0415299","pharmacy_name": "SUPER D DRUGS #145","address1": "306 N 6TH STREET","address2": "","city": "BLYTHEVILLE","state": "AR","zip": "72315","zip+4": "0000","phone": "8707634507","NPI": "     1346323755"}, 
{"id": 2622,"ncpdp": "0415376","pharmacy_name": "ANDERSONS DISCOUNT PHARMACY","address1": "700 LEXINGTON AVE","address2": "","city": "FT SMITH","state": "AR","zip": "72901","zip+4": "0000","phone": "4797822881","NPI": "     1407881360"}, 
{"id": 2623,"ncpdp": "0415388","pharmacy_name": "ELMO HANEYS PHARMACY","address1": "201 E MAIN ST","address2": "","city": "ATKINS","state": "AR","zip": "72823","zip+4": "4527","phone": "4796411147","NPI": "     1194767715"}, 
{"id": 2624,"ncpdp": "0415453","pharmacy_name": "WAL-MART PHARMACY #101114","address1": "409 SYLAMORE AVENUE","address2": "","city": "MOUNTAIN VIEW","state": "AR","zip": "72560","zip+4": "0000","phone": "8702694295","NPI": "     1568489060"}, 
{"id": 2625,"ncpdp": "0415465","pharmacy_name": "WAL-MART PHARMACY #101147","address1": "168 WALMART DRIVE","address2": "","city": "FLIPPIN","state": "AR","zip": "72634","zip+4": "0000","phone": "8704538831","NPI": "     1477570976"}, 
{"id": 2626,"ncpdp": "0415477","pharmacy_name": "WAL-MART PHARMACY #101105","address1": "4450 EAST MCCAIN BLVD","address2": "","city": "NORTH LITTLE ROCK","state": "AR","zip": "72117","zip+4": "0000","phone": "5019459400","NPI": "     1053338442"}, 
{"id": 2627,"ncpdp": "0415489","pharmacy_name": "WAL-MART PHARMACY #100169","address1": "322 BROWNSVILLE LOOP","address2": "","city": "LONOKE","state": "AR","zip": "72086","zip+4": "0000","phone": "5016763184","NPI": "     1962429357"}, 
{"id": 2628,"ncpdp": "0415504","pharmacy_name": "FREDS PHARMACY #2916","address1": "2706 EAST RACE STREET","address2": "","city": "SEARCY","state": "AR","zip": "72143","zip+4": "0000","phone": "5012680300","NPI": "     1265464291"}, 
{"id": 2629,"ncpdp": "0415516","pharmacy_name": "FREDS PHARMACY #2421","address1": "1705 MALCOLM","address2": "","city": "NEWPORT","state": "AR","zip": "72112","zip+4": "0000","phone": "8705239228","NPI": "     1174555106"}, 
{"id": 2630,"ncpdp": "0415528","pharmacy_name": "FREDS PHARMACY #1421","address1": "808 WEST COLLIN RAYE DR","address2": "","city": "DEQUEEN","state": "AR","zip": "71832","zip+4": "0000","phone": "8706428021","NPI": "     1083646012"}, 
{"id": 2631,"ncpdp": "0415542","pharmacy_name": "WEINER PHARMACY","address1": "212 N VAN BUREN","address2": "","city": "WEINER","state": "AR","zip": "72479","zip+4": "0412","phone": "8706842214","NPI": "     1821003435"}, 
{"id": 2632,"ncpdp": "0415566","pharmacy_name": "HUDSON PHARMACY","address1": "1609 MAIN ST","address2": "","city": "VAN BUREN","state": "AR","zip": "72956","zip+4": "4735","phone": "4794741193","NPI": "     1689662819"}, 
{"id": 2633,"ncpdp": "0415655","pharmacy_name": "GARYS PHARMACY","address1": "322 HWY 463 SOUTH","address2": "","city": "TRUMANN","state": "AR","zip": "72472","zip+4": "3114","phone": "8704836325","NPI": "     1952473332"}, 
{"id": 2634,"ncpdp": "0415693","pharmacy_name": "MEDICAL CENTER PHARMACY","address1": "421 W MAIN ST","address2": "","city": "TRUMANN","state": "AR","zip": "72472","zip+4": "3116","phone": "8704836391","NPI": "     1619055761"}, 
{"id": 2635,"ncpdp": "0415720","pharmacy_name": "WAL-MART PHARMACY #100102","address1": "406 E 22ND STREET","address2": "","city": "STUTTGART","state": "AR","zip": "72160","zip+4": "0000","phone": "8706731834","NPI": "     1871510263"}, 
{"id": 2636,"ncpdp": "0415732","pharmacy_name": "NATIONAL PARK PHARMACY","address1": "1534 MALVERN AVE","address2": "STE B","city": "HOT SPRINGS","state": "AR","zip": "71901","zip+4": "6535","phone": "5016232280","NPI": "     1518956747"}, 
{"id": 2637,"ncpdp": "0415744","pharmacy_name": "LEACHVILLE DISCOUNT DRUG","address1": "109 MAIN ST","address2": "","city": "LEACHVILLE","state": "AR","zip": "72438","zip+4": "9748","phone": "8705396831","NPI": "     1760533509"}, 
{"id": 2638,"ncpdp": "0415794","pharmacy_name": "ARCH STREET PHARMACY","address1": "11200 ARCH ST","address2": "","city": "LITTLE ROCK","state": "AR","zip": "72206","zip+4": "0000","phone": "5012617181","NPI": "     1487706925"}, 
{"id": 2639,"ncpdp": "0415807","pharmacy_name": "CITY PHARMACY OF SPRINGDALE IN","address1": "701A SOUTH THOMPSON STREET","address2": "","city": "SPRINGDALE","state": "AR","zip": "72764","zip+4": "0000","phone": "4797512072","NPI": "     1306832225"}, 
{"id": 2640,"ncpdp": "0415833","pharmacy_name": "WAL-MART PHARMACY #100055","address1": "1555 EAST MAIN","address2": "","city": "BOONEVILLE","state": "AR","zip": "72927","zip+4": "0000","phone": "4796755341","NPI": "     1780601179"}, 
{"id": 2641,"ncpdp": "0415883","pharmacy_name": "USA DRUG EXPRESS #1044","address1": "215 NORTH BOWMAN ROAD","address2": "","city": "LITTLE ROCK","state": "AR","zip": "72211","zip+4": "0000","phone": "5012213666","NPI": "     1255414660"}, 
{"id": 2642,"ncpdp": "0415908","pharmacy_name": "DRUG EMPORIUM #240","address1": "9112 N RODNEY PARHAM RD","address2": "STE 110","city": "LITTLE ROCK","state": "AR","zip": "72205","zip+4": "1663","phone": "5012232262","NPI": "     1609827302"}, 
{"id": 2643,"ncpdp": "0415934","pharmacy_name": "WAGNER\'S MOUNT IDA PHARMACY","address1": "734 HWY 270 E","address2": "","city": "MT IDA","state": "AR","zip": "71957","zip+4": "0066","phone": "8708673174","NPI": "     1568477198"}, 
{"id": 2644,"ncpdp": "0415996","pharmacy_name": "SEXTON PHARMACY","address1": "218 W MAIN ST","address2": "","city": "WALNUT RIDGE","state": "AR","zip": "72476","zip+4": "0469","phone": "8708863461","NPI": "     1174624829"}, 
{"id": 2645,"ncpdp": "0416087","pharmacy_name": "THOMAS LAKESIDE PHARMACY","address1": "902 CENTRAL BLVD","address2": "","city": "BULL SHOALS","state": "AR","zip": "72619","zip+4": "0000","phone": "8704457188","NPI": "     1750326146"}, 
{"id": 2646,"ncpdp": "0416099","pharmacy_name": "WAL-MART PHARMACY #100033","address1": "1710 SO. 4TH ST","address2": "","city": "NASHVILLE","state": "AR","zip": "71852","zip+4": "0000","phone": "8708451573","NPI": "     1598782989"}, 
{"id": 2647,"ncpdp": "0416102","pharmacy_name": "WAL-MART PHARMACY #100018","address1": "2500 MALCOLM ST/HWY 67 NORTH","address2": "","city": "NEWPORT","state": "AR","zip": "72112","zip+4": "0000","phone": "8705232383","NPI": "     1720005226"}, 
{"id": 2648,"ncpdp": "0416138","pharmacy_name": "PEOPLES HEALTH MART INC","address1": "401 N 2ND ST","address2": "","city": "ASHDOWN","state": "AR","zip": "71822","zip+4": "0000","phone": "8708982400","NPI": "     1467524249"}, 
{"id": 2649,"ncpdp": "0416152","pharmacy_name": "RECTOR DOWNTOWN DRUG","address1": "403 S MAIN ST","address2": "","city": "RECTOR","state": "AR","zip": "72461","zip+4": "1706","phone": "8705953523","NPI": "     1649280389"}, 
{"id": 2650,"ncpdp": "0416176","pharmacy_name": "WAL-MART PHARMACY #100007","address1": "3801 CAMP ROBINSON RD","address2": "","city": "NORTH LITTLE ROCK","state": "AR","zip": "72118","zip+4": "0000","phone": "5017536454","NPI": "     1972520377"}, 
{"id": 2651,"ncpdp": "0416188","pharmacy_name": "WAL-MART PHARMACY #100066","address1": "1230 MARKET STREET","address2": "","city": "CLARKSVILLE","state": "AR","zip": "72830","zip+4": "0000","phone": "4797546169","NPI": "     1881611283"}, 
{"id": 2652,"ncpdp": "0416190","pharmacy_name": "MCHANEY DRUG PA","address1": "1400 W HUNT ST","address2": "","city": "PARAGOULD","state": "AR","zip": "72450","zip+4": "3574","phone": "8702367323","NPI": "     1487748166"}, 
{"id": 2653,"ncpdp": "0416215","pharmacy_name": "HEALTH CARE PHARMACY INC","address1": "3401 ATWOOD RD STE F","address2": "","city": "LITTLE ROCK","state": "AR","zip": "72206","zip+4": "6012","phone": "5018887514","NPI": "     1760470520"}, 
{"id": 2654,"ncpdp": "0416289","pharmacy_name": "WOODARD DRUG","address1": "210 E BROADWAY","address2": "","city": "GLENWOOD","state": "AR","zip": "71943","zip+4": "0000","phone": "8703562193","NPI": "     1144372145"}, 
{"id": 2655,"ncpdp": "0416392","pharmacy_name": "DECATUR DISCOUNT PHARMACY","address1": "154 MAIN STREET","address2": "","city": "DECATUR","state": "AR","zip": "72722","zip+4": "0000","phone": "4797525888","NPI": "     1538244504"}, 
{"id": 2656,"ncpdp": "0416429","pharmacy_name": "WAL-MART PHARMACY #100057","address1": "1600 WEST MAIN","address2": "","city": "WALNUT RIDGE","state": "AR","zip": "72476","zip+4": "0000","phone": "8708862806","NPI": "     1699792093"}, 
{"id": 2657,"ncpdp": "0416431","pharmacy_name": "DARLING PHARMACY","address1": "1303 MCLAIN ST","address2": "","city": "NEWPORT","state": "AR","zip": "72112","zip+4": "3633","phone": "8705235888","NPI": "     1528136470"}, 
{"id": 2658,"ncpdp": "0416467","pharmacy_name": "CLINIC DRUG STORE INC","address1": "1700 HARRISON ST","address2": "STE D","city": "BATESVILLE","state": "AR","zip": "72501","zip+4": "0000","phone": "8707935170","NPI": "     1700947272"}, 
{"id": 2659,"ncpdp": "0416594","pharmacy_name": "HARPS PHARMACY #176","address1": "1189 NORTH GARLAND","address2": "","city": "FAYETTEVILLE","state": "AR","zip": "72703","zip+4": "0000","phone": "4794447967","NPI": "     1508966821"}, 
{"id": 2660,"ncpdp": "0416633","pharmacy_name": "FAIRFIELD BAY PHARMACY","address1": "367 DAVE CREEK PKWY","address2": "","city": "FAIRFIELD BAY","state": "AR","zip": "72088","zip+4": "0000","phone": "5018843388","NPI": "     1356335566"}, 
{"id": 2661,"ncpdp": "0416671","pharmacy_name": "MEDICINE SHOPPE #1064","address1": "116 HIGHWAY 201 NORTH","address2": "","city": "MOUNTAIN HOME","state": "AR","zip": "72653","zip+4": "0000","phone": "8704244010","NPI": "     1245335959"}, 
{"id": 2662,"ncpdp": "0416734","pharmacy_name": "HYDE PHARMACY INC","address1": "1001 W KINGS HIGHWAY","address2": "","city": "PARAGOULD","state": "AR","zip": "72450","zip+4": "4638","phone": "8702394036","NPI": "     1487675310"}, 
{"id": 2663,"ncpdp": "0416746","pharmacy_name": "FREDS PHARMACY #1621","address1": "2227 NORTH WASHINGTON","address2": "","city": "FORREST CITY","state": "AR","zip": "72335","zip+4": "0000","phone": "8706336015","NPI": "     1891727822"}, 
{"id": 2664,"ncpdp": "0416758","pharmacy_name": "KROGER PHARMACY #25616","address1": "14000 CANTRELL RD","address2": "","city": "LITTLE ROCK","state": "AR","zip": "72212","zip+4": "0000","phone": "5012256006","NPI": "     1336173186"}, 
{"id": 2665,"ncpdp": "0416772","pharmacy_name": "ALMA PHARMACY","address1": "108 HIGHWAY 71 NORTH","address2": "SUITE 105","city": "ALMA","state": "AR","zip": "72921","zip+4": "3201","phone": "4796322011","NPI": "     1891778635"}, 
{"id": 2666,"ncpdp": "0416796","pharmacy_name": "KMART PHARMACY #3933","address1": "1 KMART PLAZA STATE HWY 89","address2": "","city": "CABOT","state": "AR","zip": "72023","zip+4": "0000","phone": "5018436265","NPI": "     1265463376"}, 
{"id": 2667,"ncpdp": "0416936","pharmacy_name": "VILLAGE HEALTH MART DRUG #2","address1": "399 PONCE DELEON DR","address2": "STE 2","city": "HOT SPRINGS VILLAG","state": "AR","zip": "71909","zip+4": "5011","phone": "5019220909","NPI": "     1902954969"}, 
{"id": 2668,"ncpdp": "0416948","pharmacy_name": "HARPS PHARMACY #174","address1": "3401 SOUTH 74TH","address2": "","city": "FORT SMITH","state": "AR","zip": "72903","zip+4": "0000","phone": "4794520993","NPI": "     1417057738"}, 
{"id": 2669,"ncpdp": "0417041","pharmacy_name": "CAVE CITY PHARMACY #1","address1": "301 SOUTH MAIN","address2": "SUITE C","city": "CAVE CITY","state": "AR","zip": "72521","zip+4": "0147","phone": "8702835589","NPI": "     1043340789"}, 
{"id": 2670,"ncpdp": "0417065","pharmacy_name": "MELVINS DISCOUNT PHARMACY","address1": "828 W HILLSBORO ST","address2": "","city": "EL DORADO","state": "AR","zip": "71730","zip+4": "0000","phone": "8708634155","NPI": "     1497897995"}, 
{"id": 2671,"ncpdp": "0417116","pharmacy_name": "FREDS PHARMACY #2391","address1": "1201 HIGHWAY 71 SOUTH","address2": "","city": "MENA","state": "AR","zip": "71953","zip+4": "0000","phone": "4793947136","NPI": "     1700818739"}, 
{"id": 2672,"ncpdp": "0417128","pharmacy_name": "USA DRUG #6","address1": "2300 WEST SUNSET","address2": "","city": "SPRINGDALE","state": "AR","zip": "72762","zip+4": "0000","phone": "4797566464","NPI": "     1164505574"}, 
{"id": 2673,"ncpdp": "0417192","pharmacy_name": "PRICE CUTTER PHARMACY #107","address1": "805 WEST MAIN","address2": "","city": "CABOT","state": "AR","zip": "72023","zip+4": "0000","phone": "5018433374","NPI": "     1326148644"}, 
{"id": 2674,"ncpdp": "0417205","pharmacy_name": "MEDICINE SHOPPE #0618","address1": "325 SOUTHWEST DR","address2": "","city": "JONESBORO","state": "AR","zip": "72401","zip+4": "0000","phone": "8709351340","NPI": "     1285706069"}, 
{"id": 2675,"ncpdp": "0417243","pharmacy_name": "MED CENTER PHARMACY","address1": "2901 MEDICAL CENTER DR","address2": "","city": "POCAHONTAS","state": "AR","zip": "72455","zip+4": "9438","phone": "8708924495","NPI": "     1801908892"}, 
{"id": 2676,"ncpdp": "0417255","pharmacy_name": "FREDS PHARMACY #1201","address1": "1212 MILITARY HIGHWAY","address2": "","city": "BENTON","state": "AR","zip": "72015","zip+4": "0000","phone": "5017782036","NPI": "     1639107618"}, 
{"id": 2677,"ncpdp": "0417281","pharmacy_name": "JOHN AND FRANK PHARMACY","address1": "50 FRISCO ST","address2": "","city": "MARKED TREE","state": "AR","zip": "72365","zip+4": "2214","phone": "8703582484","NPI": "     1932271590"}, 
{"id": 2678,"ncpdp": "0417306","pharmacy_name": "WAL-MART PHARMACY #100229","address1": "512 INDUSTRIAL DRIVE","address2": "","city": "TRUMANN","state": "AR","zip": "72472","zip+4": "0000","phone": "8704836157","NPI": "     1366469868"}, 
{"id": 2679,"ncpdp": "0417332","pharmacy_name": "MEDICINE SHOPPE #1172","address1": "343 S JAMES","address2": "","city": "JACKSONVILLE","state": "AR","zip": "72076","zip+4": "4315","phone": "5019829433","NPI": "     1093887879"}, 
{"id": 2680,"ncpdp": "0417344","pharmacy_name": "MONETTE DISCOUNT DRUG INC","address1": "214 W DREW AVE","address2": "","city": "MONETTE","state": "AR","zip": "72447","zip+4": "0487","phone": "8704862111","NPI": "     1366453946"}, 
{"id": 2681,"ncpdp": "0417356","pharmacy_name": "FREDS PHARMACY #2261","address1": "601 N ST JOSEPH HWY 9","address2": "","city": "MORRILTON","state": "AR","zip": "72110","zip+4": "0000","phone": "4793544669","NPI": "     1619909645"}, 
{"id": 2682,"ncpdp": "0417419","pharmacy_name": "CANTRELL DRUG COMPANY INC","address1": "7524 CANTRELL RD","address2": "","city": "LITTLE ROCK","state": "AR","zip": "72207","zip+4": "2591","phone": "5016662020","NPI": "     1851377519"}, 
{"id": 2683,"ncpdp": "0417421","pharmacy_name": "WAL-MART PHARMACY #100373","address1": "EAST LEE STREET","address2": "","city": "HUNTSVILLE","state": "AR","zip": "72740","zip+4": "0000","phone": "4797381270","NPI": "     1447273503"}, 
{"id": 2684,"ncpdp": "0417433","pharmacy_name": "CRAWFORD PHARMACY","address1": "107 CRAWFORD DR","address2": "","city": "HOT SPRINGS","state": "AR","zip": "71913","zip+4": "0000","phone": "5016244636","NPI": "     1134258882"}, 
{"id": 2685,"ncpdp": "0417469","pharmacy_name": "FREDS PHARMACY #1896","address1": "535 NORTH HERVEY","address2": "","city": "HOPE","state": "AR","zip": "71801","zip+4": "0000","phone": "8707771402","NPI": "     1164450144"}, 
{"id": 2686,"ncpdp": "0417558","pharmacy_name": "SAVON PHARMACY #4111","address1": "3710 N STATE LINE AVE","address2": "","city": "TEXARKANA","state": "AR","zip": "71854","zip+4": "0000","phone": "8707735521","NPI": "     1013956499"}, 
{"id": 2687,"ncpdp": "0417560","pharmacy_name": "THE DRUG STORE INC","address1": "11715 RAINWOOD RD","address2": "STE B 1","city": "LITTLE ROCK","state": "AR","zip": "72212","zip+4": "3951","phone": "5012232636","NPI": "     1013188168"}, 
{"id": 2688,"ncpdp": "0417609","pharmacy_name": "HARPS PHARMACY #119","address1": "2894 WEST SUNSET","address2": "","city": "SPRINGDALE","state": "AR","zip": "72765","zip+4": "0000","phone": "4797510882","NPI": "     1235239559"}, 
{"id": 2689,"ncpdp": "0417635","pharmacy_name": "SAV MART PHARMACY","address1": "1007 HIGHWAY 65 S","address2": "","city": "MCGEHEE","state": "AR","zip": "71654","zip+4": "0000","phone": "8702226676","NPI": "     1720268378"}, 
{"id": 2690,"ncpdp": "0417661","pharmacy_name": "DEANS PHARMACY","address1": "1640 S WHITEHEAD DR","address2": "","city": "DEWITT","state": "AR","zip": "72042","zip+4": "0000","phone": "8709462381","NPI": "     1811902091"}, 
{"id": 2691,"ncpdp": "0417673","pharmacy_name": "DRUG MART","address1": "712 HOLLY ST","address2": "","city": "MC GEHEE","state": "AR","zip": "71654","zip+4": "2109","phone": "8702223080","NPI": "     1942296603"}, 
{"id": 2692,"ncpdp": "0417712","pharmacy_name": "FREDS PHARMACY #1806","address1": "308 SOUTH 7TH STREET","address2": "","city": "HEBER SPRINGS","state": "AR","zip": "72543","zip+4": "0000","phone": "5013626514","NPI": "     1144252172"}, 
{"id": 2693,"ncpdp": "0417724","pharmacy_name": "PHARMACY EXPRESS","address1": "1515 FAYETTVILLE RD","address2": "","city": "VAN BUREN","state": "AR","zip": "72956","zip+4": "2246","phone": "4794747171","NPI": "     1730194341"}, 
{"id": 2694,"ncpdp": "0417762","pharmacy_name": "SUPER D EXPRESS RX #42","address1": "1340 HIGDON FERRY ROAD","address2": "","city": "HOT SPRINGS","state": "AR","zip": "71913","zip+4": "0000","phone": "5016238787","NPI": "     1760566806"}, 
{"id": 2695,"ncpdp": "0417774","pharmacy_name": "WAL-MART PHARMACY #100124","address1": "8801 BASELINE ROAD","address2": "","city": "LITTLE ROCK","state": "AR","zip": "72209","zip+4": "0000","phone": "5015651164","NPI": "     1508883901"}, 
{"id": 2696,"ncpdp": "0417801","pharmacy_name": "DOLORESS FAMILY PHARMACY","address1": "1008 E CHURCH ST","address2": "","city": "WARREN","state": "AR","zip": "71671","zip+4": "0000","phone": "8702269800","NPI": "     1487641056"}, 
{"id": 2697,"ncpdp": "0417851","pharmacy_name": "WAL-MART PHARMACY #100289","address1": "US 65 SOUTH","address2": "","city": "MCGEHEE","state": "AR","zip": "71654","zip+4": "0000","phone": "8702226233","NPI": "     1356364418"}, 
{"id": 2698,"ncpdp": "0417863","pharmacy_name": "STONES PHARMACY INC","address1": "417 E MATTHEWS AVE","address2": "","city": "JONESBORO","state": "AR","zip": "72401","zip+4": "3142","phone": "8709355538","NPI": "     1134141005"}, 
{"id": 2699,"ncpdp": "0417899","pharmacy_name": "FREDS PHARMACY #2806","address1": "3303 W MAIN PLACE","address2": "SKYLINE S/C HWY 64","city": "RUSSELLVILLE","state": "AR","zip": "72801","zip+4": "0000","phone": "4799683540","NPI": "     1053343087"}, 
{"id": 2700,"ncpdp": "0417902","pharmacy_name": "FREDS PHARMACY #1046","address1": "28TH AND PINE HWY 8","address2": "","city": "ARKADELPHIA","state": "AR","zip": "71923","zip+4": "0000","phone": "8702466751","NPI": "     1962434993"}, 
{"id": 2701,"ncpdp": "0417926","pharmacy_name": "HOLLYS HEALTH MART","address1": "1430 W 1ST ST N","address2": "","city": "PRESCOTT","state": "AR","zip": "71857","zip+4": "0000","phone": "8708872717","NPI": "     1528064367"}, 
{"id": 2702,"ncpdp": "0417952","pharmacy_name": "WAL-MART PHARMACY #100714","address1": "602 SHELIA STREET","address2": "","city": "WEST HELENA","state": "AR","zip": "72390","zip+4": "0000","phone": "8705726741","NPI": "     1417974817"}, 
{"id": 2703,"ncpdp": "0417976","pharmacy_name": "WAL-MART PHARMACY #100128","address1": "1911 WEST PARKER RD","address2": "","city": "JONESBORO","state": "AR","zip": "72404","zip+4": "0000","phone": "8709721060","NPI": "     1326065723"}, 
{"id": 2704,"ncpdp": "0417988","pharmacy_name": "USA DRUG #7","address1": "1105 WEST MAIN SUITE C","address2": "","city": "RUSSELVILLE","state": "AR","zip": "72801","zip+4": "0000","phone": "4799673738","NPI": "     1073696480"}, 
{"id": 2705,"ncpdp": "0417990","pharmacy_name": "WAL-MART PHARMACY #100235","address1": "1900 WEST MAIN","address2": "","city": "CORNING","state": "AR","zip": "72422","zip+4": "0000","phone": "8708573411","NPI": "     1174540686"}, 
{"id": 2706,"ncpdp": "0418017","pharmacy_name": "USA DRUG EXPRESS #8","address1": "424 CALIFORNIA","address2": "","city": "CAMDEN","state": "AR","zip": "71701","zip+4": "0000","phone": "8708364157","NPI": "     1982787396"}, 
{"id": 2707,"ncpdp": "0418067","pharmacy_name": "KMART PHARMACY #9711","address1": "2821 E MAIN ST","address2": "","city": "RUSSELLVILLE","state": "AR","zip": "72802","zip+4": "9662","phone": "4799677301","NPI": "     1174554281"}, 
{"id": 2708,"ncpdp": "0418081","pharmacy_name": "WAL-MART PHARMACY #102203","address1": "702 SW 8TH STREET","address2": "","city": "BENTONVILLE","state": "AR","zip": "72712","zip+4": "0000","phone": "4792734941","NPI": "     1669491643"}, 
{"id": 2709,"ncpdp": "0418106","pharmacy_name": "JUNCTION CITY PHARMACY","address1": "500 N MAIN ST","address2": "","city": "JUNCTION CITY","state": "AR","zip": "71749","zip+4": "0000","phone": "8709244018","NPI": "     1003943770"}, 
{"id": 2710,"ncpdp": "0418118","pharmacy_name": "TANGLEWOOD DRUG STORE","address1": "6815 CANTRELL RD","address2": "","city": "LITTLE ROCK","state": "AR","zip": "72207","zip+4": "0000","phone": "5016644444","NPI": "     1396750998"}, 
{"id": 2711,"ncpdp": "0418120","pharmacy_name": "BROOKSHIRES PHARMACY #00000000","address1": "1600 FLORIDA","address2": "ATTENTION PHARMACY DEPT","city": "CROSSETT","state": "AR","zip": "71635","zip+4": "0000","phone": "8703648220","NPI": "     1063585537"}, 
{"id": 2712,"ncpdp": "0418132","pharmacy_name": "BROOKSHIRES PHARMACY #00000000","address1": "2202 NORTH WEST AVENUE","address2": "ATTENTION PHARMACY DEPT","city": "EL DORADO","state": "AR","zip": "71730","zip+4": "0000","phone": "8708640107","NPI": "     1972676443"}, 
{"id": 2713,"ncpdp": "0418156","pharmacy_name": "FREDS PHARMACY #2441","address1": "614 SOUTH MAIN STREET","address2": "","city": "NASHVILLE","state": "AR","zip": "71852","zip+4": "0000","phone": "8708454277","NPI": "     1871525808"}, 
{"id": 2714,"ncpdp": "0418168","pharmacy_name": "FREDS PHARMACY #2281","address1": "438 SOUTH ALABAMA ST","address2": "","city": "MARIANNA","state": "AR","zip": "72360","zip+4": "0000","phone": "8702953405","NPI": "     1780616714"}, 
{"id": 2715,"ncpdp": "0418219","pharmacy_name": "BEARDEN PHARMACY","address1": "26 N 1ST ST","address2": "","city": "BEARDEN","state": "AR","zip": "71720","zip+4": "0000","phone": "8706873814","NPI": "     1063599934"}, 
{"id": 2716,"ncpdp": "0418221","pharmacy_name": "BROOKSHIRES PHARMACY #00000000","address1": "1623 EAST MAIN","address2": "ATTENTION PHARMACY DEPT","city": "MAGNOLIA","state": "AR","zip": "71753","zip+4": "0000","phone": "8702347073","NPI": "     1881767358"}, 
{"id": 2717,"ncpdp": "0418257","pharmacy_name": "ALLCARE PHARMACY #15","address1": "1112 WINDOVER RD","address2": "","city": "JONESBORO","state": "AR","zip": "72401","zip+4": "3101","phone": "8709356364","NPI": "     1538239611"}, 
{"id": 2718,"ncpdp": "0418271","pharmacy_name": "POLK PHARMACY","address1": "333 MADISON ST","address2": "","city": "CLARENDON","state": "AR","zip": "72029","zip+4": "2718","phone": "8707473304","NPI": "     1972616126"}, 
{"id": 2719,"ncpdp": "0418308","pharmacy_name": "COLLIER DRUG NORTH HLLS","address1": "3380 N FUTRALL DR STE","address2": "STE 2","city": "FAYETTEVILLE","state": "AR","zip": "72703","zip+4": "0000","phone": "4794439200","NPI": "     1598765596"}, 
{"id": 2720,"ncpdp": "0418334","pharmacy_name": "WAL-MART PHARMACY #100339","address1": "1123 HIGHWAY 79 167 BYPASS","address2": "","city": "FORDYCE","state": "AR","zip": "71742","zip+4": "0000","phone": "8703528034","NPI": "     1235156639"}, 
{"id": 2721,"ncpdp": "0418346","pharmacy_name": "WAL-MART PHARMACY #100091","address1": "205 DEADRICK ROAD","address2": "","city": "FORREST CITY","state": "AR","zip": "72335","zip+4": "0000","phone": "8706330465","NPI": "     1144247545"}, 
{"id": 2722,"ncpdp": "0418358","pharmacy_name": "WAL-MART PHARMACY #100336","address1": "1308 SOUTH ROCK STREET","address2": "","city": "SHERIDAN","state": "AR","zip": "72150","zip+4": "0000","phone": "8709425045","NPI": "     1053338459"}, 
{"id": 2723,"ncpdp": "0418396","pharmacy_name": "FREDS PHARMACY #3246","address1": "826 N SEBASTIAN STREET","address2": "","city": "WEST HELENA","state": "AR","zip": "72390","zip+4": "0000","phone": "8705723996","NPI": "     1407888431"}, 
{"id": 2724,"ncpdp": "0418409","pharmacy_name": "FREIDERICA PHARMACY","address1": "400 W CAPITOL AVE #100B","address2": "REGIONS CENTER","city": "LITTLE ROCK","state": "AR","zip": "72201","zip+4": "0000","phone": "5013742207","NPI": "     1255449831"}, 
{"id": 2725,"ncpdp": "0418411","pharmacy_name": "HICKORY HILL PHARMACY","address1": "109 HICKORY HILL DR","address2": "","city": "HELENA","state": "AR","zip": "72342","zip+4": "0000","phone": "8703388351","NPI": "     1194718411"}, 
{"id": 2726,"ncpdp": "0418461","pharmacy_name": "LITTLE ROCK COM MNTL HLTH","address1": "4400 SHUFIELD","address2": "","city": "LITTLE ROCK","state": "AR","zip": "72205","zip+4": "0000","phone": "5016869052","NPI": "     1538202619"}, 
{"id": 2727,"ncpdp": "0418485","pharmacy_name": "SUPER 1 PHARMACY #0000000619","address1": "909 NORTH HERVEY","address2": "ATTENTION PHARMACY DEPT","city": "HOPE","state": "AR","zip": "71801","zip+4": "0000","phone": "8707776989","NPI": "     1699848168"}, 
{"id": 2728,"ncpdp": "0418497","pharmacy_name": "BROOKSHIRES PHARMACY #00000000","address1": "1345 HWY 4 SPUR SW","address2": "ATTENTION PHARMACY DEPT","city": "CAMDEN","state": "AR","zip": "71701","zip+4": "0000","phone": "8708363324","NPI": "     1144393471"}, 
{"id": 2729,"ncpdp": "0418548","pharmacy_name": "MEDICINE SHOPPE #1324","address1": "521 W MAIN ST","address2": "","city": "CABOT","state": "AR","zip": "72023","zip+4": "2402","phone": "5018435846","NPI": "     1467524066"}, 
{"id": 2730,"ncpdp": "0418550","pharmacy_name": "MEDICINE SHOPPE #1330","address1": "4545 HIGHWAY 7N","address2": "","city": "HOT SPRINGS VILLAG","state": "AR","zip": "71910","zip+4": "0000","phone": "5019846101","NPI": "     1376615971"}, 
{"id": 2731,"ncpdp": "0418562","pharmacy_name": "MEDICINE SHOPPE #1686","address1": "324 W PERSHING BLVD","address2": "","city": "NORTH LITTLE ROCK","state": "AR","zip": "72114","zip+4": "2100","phone": "5017581010","NPI": "     1790890713"}, 
{"id": 2732,"ncpdp": "0418601","pharmacy_name": "WAL-MART PHARMACY #100171","address1": "950 CALIFORNIA AVE","address2": "","city": "CAMDEN","state": "AR","zip": "71701","zip+4": "0000","phone": "8708360500","NPI": "     1083631592"}, 
{"id": 2733,"ncpdp": "0418613","pharmacy_name": "WALGREEN DRUG STORE #3425","address1": "159 EAST GRAND AVE","address2": "","city": "HOT SPRINGS","state": "AR","zip": "71901","zip+4": "0000","phone": "5016246733","NPI": "     1477568731"}, 
{"id": 2734,"ncpdp": "0418625","pharmacy_name": "WALGREEN DRUG STORE #3411","address1": "3631 N CENTRAL AVE","address2": "","city": "HOT SPRINGS","state": "AR","zip": "71913","zip+4": "0000","phone": "5016231241","NPI": "     1386659647"}, 
{"id": 2735,"ncpdp": "0418637","pharmacy_name": "JASPER PHARMACY","address1": "200 W CHURCH ST","address2": "","city": "JASPER","state": "AR","zip": "72641","zip+4": "0520","phone": "8704465515","NPI": "     1356455323"}, 
{"id": 2736,"ncpdp": "0418649","pharmacy_name": "KONDO DRUG STORE INC","address1": "1100 DR M L KING DR","address2": "","city": "LITTLE ROCK","state": "AR","zip": "72203","zip+4": "0000","phone": "5013753131","NPI": "     1184765315"}, 
{"id": 2737,"ncpdp": "0418675","pharmacy_name": "KMART PHARMACY #7308","address1": "7434 ROGERS AVENUE","address2": "","city": "FORT SMITH","state": "AR","zip": "72903","zip+4": "0000","phone": "4794520353","NPI": "     1083645196"}, 
{"id": 2738,"ncpdp": "0418738","pharmacy_name": "GARDEN OAKS PHARMACY","address1": "200 GARDEN OAKS CTR","address2": "","city": "CAMDEN","state": "AR","zip": "71701","zip+4": "3712","phone": "8708368176","NPI": "     1598751984"}, 
{"id": 2739,"ncpdp": "0418752","pharmacy_name": "LOWERY DRUG MART #2","address1": "123 CENTRAL AVE","address2": "","city": "SEARCY","state": "AR","zip": "72143","zip+4": "7329","phone": "5012681900","NPI": "     1235138637"}, 
{"id": 2740,"ncpdp": "0418764","pharmacy_name": "WALGREEN DRUG STORE #3412","address1": "5917 BASELINE RD","address2": "","city": "LITTLE ROCK","state": "AR","zip": "72209","zip+4": "0000","phone": "5015650357","NPI": "     1194730457"}, 
{"id": 2741,"ncpdp": "0418776","pharmacy_name": "WAL-MART PHARMACY #100380","address1": "1359 WEST 2ND STREET","address2": "","city": "WALDRON","state": "AR","zip": "72958","zip+4": "0000","phone": "4796371186","NPI": "     1962429365"}, 
{"id": 2742,"ncpdp": "0418788","pharmacy_name": "WALGREEN DRUG STORE #2774","address1": "346 W BROADWAY","address2": "","city": "WEST MEMPHIS","state": "AR","zip": "72301","zip+4": "0000","phone": "8707330558","NPI": "     1952317331"}, 
{"id": 2743,"ncpdp": "0418790","pharmacy_name": "WALGREEN DRUG STORE #3416","address1": "4823 JFK BLVD","address2": "","city": "N LITTLE ROCK","state": "AR","zip": "72116","zip+4": "0000","phone": "5017711662","NPI": "     1003821364"}, 
{"id": 2744,"ncpdp": "0418803","pharmacy_name": "WALGREEN DRUG STORE #3413","address1": "5525 W 12TH STREET","address2": "","city": "LITTLE ROCK","state": "AR","zip": "72204","zip+4": "0000","phone": "5016637580","NPI": "     1912912270"}, 
{"id": 2745,"ncpdp": "0418827","pharmacy_name": "KROGER PHARMACY #25619","address1": "215 AIRPORT RD","address2": "","city": "HOT SPRINGS","state": "AR","zip": "71901","zip+4": "0000","phone": "5016232650","NPI": "     1386669083"}, 
{"id": 2746,"ncpdp": "0418942","pharmacy_name": "USA DRUG EXPRESS #1045","address1": "701 WEST GROVE STREET","address2": "","city": "EL DORADO","state": "AR","zip": "71730","zip+4": "0000","phone": "8708818434","NPI": "     1790868107"}, 
{"id": 2747,"ncpdp": "0418966","pharmacy_name": "MEDICINE MAN PHARMACY","address1": "2623 PIKE AVENUE","address2": "","city": "N LITTLE ROCK","state": "AR","zip": "72114","zip+4": "0000","phone": "5017587581","NPI": "     1467506923"}, 
{"id": 2748,"ncpdp": "0418978","pharmacy_name": "COLLIER DRUG WILLOW CREEK","address1": "5201 WILLOW CREEK","address2": "","city": "JOHNSON","state": "AR","zip": "72741","zip+4": "0000","phone": "4795217876","NPI": "     1609877414"}, 
{"id": 2749,"ncpdp": "0418980","pharmacy_name": "USA DRUG #15","address1": "2743 LAKEWOOD VILLAGE DRIVE","address2": "","city": "NORTH LITTLE ROCK","state": "AR","zip": "72116","zip+4": "0000","phone": "5017588723","NPI": "     1609959014"}, 
{"id": 2750,"ncpdp": "0419045","pharmacy_name": "REDFIELD PHARMACY","address1": "1017 C HWY 46","address2": "","city": "REDFIELD","state": "AR","zip": "72132","zip+4": "0326","phone": "5013975400","NPI": "     1093863037"}, 
{"id": 2751,"ncpdp": "0419095","pharmacy_name": "COLLIER DRUG PEA RIDGE","address1": "885 CURTIS AVE","address2": "","city": "PEA RIDGE","state": "AR","zip": "72751","zip+4": "0000","phone": "4794511112","NPI": "     1902806961"}, 
{"id": 2752,"ncpdp": "0419108","pharmacy_name": "MEDICINE SHOPPE #1397","address1": "2080 HARRISON ST","address2": "SUITE A","city": "BATESVILLE","state": "AR","zip": "72501","zip+4": "0000","phone": "8707932161","NPI": "     1457423238"}, 
{"id": 2753,"ncpdp": "0419122","pharmacy_name": "KROGER PHARMACY #25625","address1": "855 SALEM RD","address2": "","city": "CONWAY","state": "AR","zip": "72034","zip+4": "0000","phone": "5013293981","NPI": "     1326072174"}, 
{"id": 2754,"ncpdp": "0419134","pharmacy_name": "FOOD GIANT DISCOUNT PHARMACY","address1": "605 N ILLINOIS ST","address2": "","city": "HARRISBURG","state": "AR","zip": "72432","zip+4": "0000","phone": "8705783277","NPI": "     1275544850"}, 
{"id": 2755,"ncpdp": "0419146","pharmacy_name": "HARVEST FOOD PHARMACY","address1": "129 BONE ST","address2": "","city": "CLINTON","state": "AR","zip": "72031","zip+4": "0000","phone": "5017454266","NPI": "     1962512897"}, 
{"id": 2756,"ncpdp": "0419158","pharmacy_name": "PLAINVIEW CORNER DRUG","address1": "102 WEST MAIN STREET","address2": "","city": "PLAINVIEW","state": "AR","zip": "72857","zip+4": "0000","phone": "4792724291","NPI": "     1043386964"}, 
{"id": 2757,"ncpdp": "0419172","pharmacy_name": "MARSHALL MEDIC PHARMACY","address1": "243 HWY 65 N","address2": "","city": "MARSHALL","state": "AR","zip": "72650","zip+4": "0427","phone": "8704483614","NPI": "     1992848493"}, 
{"id": 2758,"ncpdp": "0419211","pharmacy_name": "SMITHS COUNTRY CLUB DRUG STORE","address1": "5114 KAVANAUGH BLVD","address2": "","city": "LITTLE ROCK","state": "AR","zip": "72207","zip+4": "4699","phone": "5016634118","NPI": "     1841339645"}, 
{"id": 2759,"ncpdp": "0419235","pharmacy_name": "WAL-MART PHARMACY #100133","address1": "297 HWY 32 BY PASS EAST","address2": "","city": "ASHDOWN","state": "AR","zip": "71822","zip+4": "0000","phone": "8708982142","NPI": "     1871510271"}, 
{"id": 2760,"ncpdp": "0419247","pharmacy_name": "KROGER PHARMACY #25637","address1": "1410 MILITARY RD","address2": "","city": "BENTON","state": "AR","zip": "72015","zip+4": "0000","phone": "5013153434","NPI": "     1245264092"}, 
{"id": 2761,"ncpdp": "0419297","pharmacy_name": "SAV-ON DRUGS","address1": "1014 HARKRIDER ST","address2": "","city": "CONWAY","state": "AR","zip": "72032","zip+4": "4471","phone": "5013276777","NPI": "     1518048164"}, 
{"id": 2762,"ncpdp": "0419324","pharmacy_name": "STEWART DRUGS","address1": "202 SOUTH COKER","address2": "","city": "GREENWOOD","state": "AR","zip": "72936","zip+4": "0000","phone": "4799962818","NPI": "     1205961117"}, 
{"id": 2763,"ncpdp": "0419336","pharmacy_name": "WAL-MART PHARMACY #100530","address1": "2730 NORTHWEST AVE","address2": "","city": "EL DORADO","state": "AR","zip": "71730","zip+4": "0000","phone": "8708624866","NPI": "     1780601187"}, 
{"id": 2764,"ncpdp": "0419350","pharmacy_name": "CLARKS FAMILY PHARMACY","address1": "708 COMMERCE","address2": "","city": "EARLE","state": "AR","zip": "72331","zip+4": "0000","phone": "8707927177","NPI": "     1841321940"}, 
{"id": 2765,"ncpdp": "0419362","pharmacy_name": "PRICE CUTTER PHARMACY #357","address1": "103 NORTH DIXIELAND ROAD","address2": "","city": "ROGERS","state": "AR","zip": "72756","zip+4": "0000","phone": "4796310210","NPI": "     1144320466"}, 
{"id": 2766,"ncpdp": "0419398","pharmacy_name": "KROGER PHARMACY #25445","address1": "1525 S CARAWAY RD","address2": "","city": "JONESBORO","state": "AR","zip": "72401","zip+4": "0000","phone": "8709724739","NPI": "     1235163080"}, 
{"id": 2767,"ncpdp": "0419401","pharmacy_name": "STANLEY PHARMACY","address1": "2007 W BEEBE CAPPS EXP","address2": "","city": "SEARCY","state": "AR","zip": "72143","zip+4": "0000","phone": "5012799525","NPI": "     1841356870"}, 
{"id": 2768,"ncpdp": "0419451","pharmacy_name": "SMITH CALDWELL DRUG INC","address1": "414 N MAIN ST","address2": "","city": "BENTON","state": "AR","zip": "72015","zip+4": "0000","phone": "5013157700","NPI": "     1770676918"}, 
{"id": 2769,"ncpdp": "0419475","pharmacy_name": "COUNTRY MART","address1": "611 W HWY 62 AND 65 NORTH","address2": "","city": "HARRISON","state": "AR","zip": "72601","zip+4": "0000","phone": "8707412118","NPI": "     1588730246"}, 
{"id": 2770,"ncpdp": "0419487","pharmacy_name": "MORRISONS PHARMACY #0","address1": "1286 HIGHWAY 278","address2": "","city": "CAMDEN","state": "AR","zip": "71701","zip+4": "0000","phone": "8708368132","NPI": "     1982698981"}, 
{"id": 2771,"ncpdp": "0419499","pharmacy_name": "MORRISON CLINIC PHARMACY #1","address1": "353 CASH RD SW","address2": "","city": "CAMDEN","state": "AR","zip": "71701","zip+4": "0000","phone": "8708362727","NPI": "     1730173600"}, 
{"id": 2772,"ncpdp": "0419502","pharmacy_name": "ALLCARE PHARMACY #23","address1": "216 S 13TH ST","address2": "","city": "ROGERS","state": "AR","zip": "72758","zip+4": "0000","phone": "4796210400","NPI": "     1447320528"}, 
{"id": 2773,"ncpdp": "0419514","pharmacy_name": "MARKS PHARMACY","address1": "602 MAIN ST","address2": "","city": "MELBOURNE","state": "AR","zip": "72556","zip+4": "0000","phone": "8703685355","NPI": "     1184714099"}, 
{"id": 2774,"ncpdp": "0419526","pharmacy_name": "FREDS PHARMACY #1881","address1": "2 FOREST PARK AVE","address2": "","city": "HOLIDAY ISLAND","state": "AR","zip": "72631","zip+4": "0000","phone": "4792537062","NPI": "     1316979347"}, 
{"id": 2775,"ncpdp": "0419540","pharmacy_name": "WALGREEN DRUG STORE #4017","address1": "8521 HIGHWAY 107","address2": "","city": "SHERWOOD","state": "AR","zip": "72120","zip+4": "3893","phone": "5018332601","NPI": "     1821003187"}, 
{"id": 2776,"ncpdp": "0419588","pharmacy_name": "ROSE DRUG","address1": "8880 MARKET ST","address2": "","city": "DOVER","state": "AR","zip": "72837","zip+4": "0000","phone": "4793312133","NPI": "     1508970393"}, 
{"id": 2777,"ncpdp": "0419590","pharmacy_name": "KROGER PHARMACY #25469","address1": "300 INTERSTATE 40 SERVICE RD","address2": "","city": "WEST MEMPHIS","state": "AR","zip": "72301","zip+4": "0000","phone": "8707320283","NPI": "     1144254996"}, 
{"id": 2778,"ncpdp": "0419653","pharmacy_name": "MEDIC 2","address1": "6221 COLONEL GLENN","address2": "","city": "LITTLE ROCK","state": "AR","zip": "72204","zip+4": "7760","phone": "5015623740","NPI": "     1619028602"}, 
{"id": 2779,"ncpdp": "0419728","pharmacy_name": "KROGER PHARMACY #25639","address1": "2509 MCCAIN BLVD","address2": "","city": "N. LITTLE ROCK","state": "AR","zip": "72116","zip+4": "0000","phone": "5017589307","NPI": "     1053345801"}, 
{"id": 2780,"ncpdp": "0419730","pharmacy_name": "KROGER PHARMACY #25630","address1": "8415 W MARKAM","address2": "","city": "LITTLE ROCK","state": "AR","zip": "72205","zip+4": "0000","phone": "5012278200","NPI": "     1962436717"}, 
{"id": 2781,"ncpdp": "0419742","pharmacy_name": "KROGER PHARMACY #25540","address1": "101 COMMERCE","address2": "","city": "MAUMELLE","state": "AR","zip": "72113","zip+4": "0000","phone": "5018517528","NPI": "     1871527622"}, 
{"id": 2782,"ncpdp": "0419754","pharmacy_name": "KROGER PHARMACY #25633","address1": "900 PERSHING RD","address2": "","city": "N. LITTLE ROCK","state": "AR","zip": "72114","zip+4": "0000","phone": "5017712903","NPI": "     1780618538"}, 
{"id": 2783,"ncpdp": "0419766","pharmacy_name": "KROGER PHARMACY #25636","address1": "614 N BEECHWOOD","address2": "","city": "LITTLE ROCK","state": "AR","zip": "72205","zip+4": "0000","phone": "5016667997","NPI": "     1194740894"}, 
{"id": 2784,"ncpdp": "0419778","pharmacy_name": "KROGER PHARMACY #25644","address1": "1900 NORTH POLK","address2": "","city": "LITTLE ROCK","state": "AR","zip": "72207","zip+4": "0000","phone": "5016633257","NPI": "     1083774210"}, 
{"id": 2785,"ncpdp": "0419780","pharmacy_name": "BROOKSHIRES PHARMACY #00000001","address1": "1605 EAST HARDING AVENUE","address2": "ATTENTION PHARMACY DEPT","city": "PINE BLUFF","state": "AR","zip": "71601","zip+4": "0000","phone": "8705341380","NPI": "     1508939075"}, 
{"id": 2786,"ncpdp": "0419792","pharmacy_name": "BROOKSHIRES PHARMACY #00000001","address1": "5805 DOLLARWAY ROAD","address2": "ATTENTION PHARMACY DEPT","city": "PINE BLUFF","state": "AR","zip": "71602","zip+4": "0000","phone": "8702475854","NPI": "     1326111899"}, 
{"id": 2787,"ncpdp": "0419805","pharmacy_name": "BROOKSHIRES PHARMACY #00000001","address1": "2800 SOUTH HAZEL STREET","address2": "ATTENTION PHARMACY DEPT","city": "PINE BLUFF","state": "AR","zip": "71603","zip+4": "0000","phone": "8705354044","NPI": "     1235202706"}, 
{"id": 2788,"ncpdp": "0419817","pharmacy_name": "BROOKSHIRES PHARMACY #00000000","address1": "2800 PINE STREET NO 5 PINE PLA","address2": "ATTENTION PHARMACY DEPT","city": "ARKADELPHIA","state": "AR","zip": "71923","zip+4": "0000","phone": "8702462015","NPI": "     1053484386"}, 
{"id": 2789,"ncpdp": "0419829","pharmacy_name": "BROOKSHIRES PHARMACY #00000000","address1": "220 SOUTH WEST AVENUE","address2": "ATTENTION PHARMACY DEPT","city": "EL DORADO","state": "AR","zip": "71730","zip+4": "0000","phone": "8708637996","NPI": "     1588737811"}, 
{"id": 2790,"ncpdp": "0419843","pharmacy_name": "BOB\'S FOOD CITY #1450","address1": "800 MALVERN","address2": "","city": "HOT SPRINGS","state": "AR","zip": "71901","zip+4": "0000","phone": "5016241054","NPI": "     1265580260"}, 
{"id": 2791,"ncpdp": "0419893","pharmacy_name": "COUNTRY MART","address1": "3106 SOUTHWEST DR","address2": "","city": "JONESBORO","state": "AR","zip": "72404","zip+4": "0000","phone": "8709332016","NPI": "     1396811055"}, 
{"id": 2792,"ncpdp": "0419906","pharmacy_name": "HARPS PHARMACY #172","address1": "3100 GRAND AVENUE","address2": "","city": "FORT SMITH","state": "AR","zip": "72904","zip+4": "0000","phone": "4797833699","NPI": "     1053411371"}, 
{"id": 2793,"ncpdp": "0419918","pharmacy_name": "KROGER PHARMACY #25614","address1": "103 GREGORY PLACE","address2": "","city": "JACKSONVILLE","state": "AR","zip": "72076","zip+4": "0000","phone": "5019850822","NPI": "     1598799348"}, 
{"id": 2794,"ncpdp": "0419944","pharmacy_name": "PHILS EASTSIDE PHARMACY","address1": "253 HWY 70 EAST","address2": "STE A","city": "GLENWOOD","state": "AR","zip": "71943","zip+4": "0000","phone": "8703567445","NPI": "     1902946668"}, 
{"id": 2795,"ncpdp": "0419956","pharmacy_name": "CENTRAL PHARMACY COMPANY OF LI","address1": "7301 INDUSTRY DRIVE","address2": "","city": "NORTH LITTLE ROCK","state": "AR","zip": "72217","zip+4": "0000","phone": "5017070152","NPI": "     1558475269"}, 
{"id": 2796,"ncpdp": "0419968","pharmacy_name": "MID SOUTH HEALTH SYSTEMS PHARM","address1": "2707 BROWNS LANE","address2": "","city": "JONESBORO","state": "AR","zip": "72401","zip+4": "0000","phone": "8709724038","NPI": "     1548301344"}, 
{"id": 2797,"ncpdp": "0419970","pharmacy_name": "HARPS PHARMACY #177","address1": "1780 NORTH CROSSOVER ROAD","address2": "","city": "FAYETTEVILLE","state": "AR","zip": "72703","zip+4": "0000","phone": "4795711214","NPI": "     1962502286"}, 
{"id": 2798,"ncpdp": "0419994","pharmacy_name": "COMMUNITY DRUG STORE","address1": "615 N MAIN ST","address2": "","city": "BRINKLEY","state": "AR","zip": "72021","zip+4": "0000","phone": "8704592413","NPI": "     1215007497"}, 
{"id": 2799,"ncpdp": "0420000","pharmacy_name": "WAL-MART PHARMACY #102587","address1": "304 SOUTH ROCKWOOD","address2": "","city": "CABOT","state": "AR","zip": "72023","zip+4": "0000","phone": "5019415300","NPI": "     1598782997"}, 
{"id": 2800,"ncpdp": "0420012","pharmacy_name": "FREDS PHARMACY #3341","address1": "8515 DOLLAR WAY ROAD","address2": "","city": "WHITEHALL","state": "AR","zip": "71602","zip+4": "0000","phone": "8702470026","NPI": "     1225060254"}, 
{"id": 2801,"ncpdp": "0420024","pharmacy_name": "FREDS PHARMACY #1891","address1": "3825 HWY 7 NORTH","address2": "","city": "HOT SPRINGS VILLAG","state": "AR","zip": "71909","zip+4": "0000","phone": "5016237002","NPI": "     1134151160"}, 
{"id": 2802,"ncpdp": "0420062","pharmacy_name": "KROGER PHARMACY #25465","address1": "400 W MOUTRIE","address2": "","city": "BLYTHVILLE","state": "AR","zip": "72315","zip+4": "0000","phone": "8707637951","NPI": "     1407880255"}, 
{"id": 2803,"ncpdp": "0420101","pharmacy_name": "FREDS PHARMACY #2461","address1": "1164 HIGHWAY 133 NORTH","address2": "","city": "NORTH CROSSETT","state": "AR","zip": "71635","zip+4": "0000","phone": "8703649345","NPI": "     1043242076"}, 
{"id": 2804,"ncpdp": "0420125","pharmacy_name": "FREDS PHARMACY #2981","address1": "1309 NORTH LINCOLN","address2": "HWY 425 NORTH","city": "STAR CITY","state": "AR","zip": "71667","zip+4": "0000","phone": "8706285912","NPI": "     1952333981"}, 
{"id": 2805,"ncpdp": "0420137","pharmacy_name": "BUCKS PHARMACY","address1": "408 N 1ST STREET","address2": "","city": "GLENWOOD","state": "AR","zip": "71943","zip+4": "0000","phone": "8703562288","NPI": "     1598825960"}, 
{"id": 2806,"ncpdp": "0420163","pharmacy_name": "FREDS PHARMACY #1216","address1": "207 SOUTH 2ND STREET","address2": "","city": "CABOT","state": "AR","zip": "72023","zip+4": "0000","phone": "5018435814","NPI": "     1588680151"}, 
{"id": 2807,"ncpdp": "0420199","pharmacy_name": "MEDICAP PHARMACY #8221","address1": "2818 W MARTIN LUTHER KING BLVD","address2": "","city": "FAYETTEVILLE","state": "AR","zip": "72704","zip+4": "0000","phone": "4795714545","NPI": "     1366514143"}, 
{"id": 2808,"ncpdp": "0420202","pharmacy_name": "PRICE CHOPPER #2330","address1": "827 HWY 463 N","address2": "","city": "TRUMANN","state": "AR","zip": "72472","zip+4": "0000","phone": "8704838015","NPI": "     1205902962"}, 
{"id": 2809,"ncpdp": "0420214","pharmacy_name": "FREDS PHARMACY #1846","address1": "615 HWY 62/65 NORTH","address2": "","city": "HARRISON","state": "AR","zip": "72601","zip+4": "0000","phone": "8707417631","NPI": "     1861424897"}, 
{"id": 2810,"ncpdp": "0420226","pharmacy_name": "SALEM DRUG COMPANY","address1": "502 HIGHWAY 62 WEST","address2": "","city": "SALEM","state": "AR","zip": "72576","zip+4": "0000","phone": "8708957455","NPI": "     1275755696"}, 
{"id": 2811,"ncpdp": "0420240","pharmacy_name": "HARPS PHARMACY #355","address1": "3055 NORTH COLLEGE","address2": "","city": "FAYETTEVILLE","state": "AR","zip": "72703","zip+4": "0000","phone": "4794427917","NPI": "     1154422889"}, 
{"id": 2812,"ncpdp": "0420264","pharmacy_name": "SAMS PHARMACY #108209","address1": "3081 N HIGHWAY 112","address2": "","city": "FAYETTEVILLE","state": "AR","zip": "72704","zip+4": "0000","phone": "4795871853","NPI": "     1407873805"}, 
{"id": 2813,"ncpdp": "0420276","pharmacy_name": "SALEM PHARMACY","address1": "1208 SALEM RD","address2": "","city": "BENTON","state": "AR","zip": "72019","zip+4": "0000","phone": "5013161600","NPI": "     1922095785"}, 
{"id": 2814,"ncpdp": "0420290","pharmacy_name": "WAL-MART PHARMACY #102743","address1": "8801 HWY 107","address2": "","city": "SHERWOOD","state": "AR","zip": "72120","zip+4": "0000","phone": "5018333116","NPI": "     1316964711"}, 
{"id": 2815,"ncpdp": "0420303","pharmacy_name": "WAL-MART PHARMACY #102741","address1": "3510 SE 14TH STREET","address2": "","city": "BENTONVILLE","state": "AR","zip": "72712","zip+4": "0000","phone": "4796216470","NPI": "     1558380535"}, 
{"id": 2816,"ncpdp": "0420341","pharmacy_name": "FREDS PHARMACY #3311","address1": "507 WEST PINE","address2": "","city": "WARREN","state": "AR","zip": "71671","zip+4": "0000","phone": "8702265522","NPI": "     1770515702"}, 
{"id": 2817,"ncpdp": "0420353","pharmacy_name": "WALGREEN DRUG STORE #4794","address1": "850 OAK ST","address2": "","city": "CONWAY","state": "AR","zip": "72032","zip+4": "0000","phone": "5013274887","NPI": "     1730194093"}, 
{"id": 2818,"ncpdp": "0420389","pharmacy_name": "FREDS PHARMACY #1311","address1": "1125 MORNINGSIDE DRIVE","address2": "","city": "CONWAY","state": "AR","zip": "72032","zip+4": "0000","phone": "5013279746","NPI": "     1073541058"}, 
{"id": 2819,"ncpdp": "0420391","pharmacy_name": "FREDS PHARMACY #2371","address1": "406 HWY 425 SOUTH","address2": "","city": "MONTICELLO","state": "AR","zip": "71655","zip+4": "0000","phone": "8703671101","NPI": "     1689606618"}, 
{"id": 2820,"ncpdp": "0420404","pharmacy_name": "WAL-MART PHARMACY #102742","address1": "1375 MARKET SQUARE DRIVE","address2": "","city": "SPRINGDALE","state": "AR","zip": "72762","zip+4": "0000","phone": "4797507856","NPI": "     1225055627"}, 
{"id": 2821,"ncpdp": "0420416","pharmacy_name": "WAL-MART PHARMACY #102744","address1": "4900 ROGERS AVE SUITE 101J","address2": "","city": "FORT SMITH","state": "AR","zip": "72903","zip+4": "0000","phone": "4794849125","NPI": "     1467471441"}, 
{"id": 2822,"ncpdp": "0420428","pharmacy_name": "GAMMELS CLINIC PHARMACY","address1": "909 UNITY RD","address2": "","city": "CROSSETT","state": "AR","zip": "71635","zip+4": "0000","phone": "8703645100","NPI": "     1083754816"}, 
{"id": 2823,"ncpdp": "0420430","pharmacy_name": "FREDS PHARMACY #2296","address1": "2695 HWY 77","address2": "","city": "MARION","state": "AR","zip": "72364","zip+4": "0000","phone": "8707395518","NPI": "     1124050158"}, 
{"id": 2824,"ncpdp": "0420505","pharmacy_name": "USA DRUG EXPRESS #8022","address1": "300 EAST 8TH STREET","address2": "","city": "DANVILLE","state": "AR","zip": "72833","zip+4": "0000","phone": "4794955444","NPI": "     1699858217"}, 
{"id": 2825,"ncpdp": "0420531","pharmacy_name": "WALGREEN DRUG STORE #5041","address1": "2002 S THOMPSON ST","address2": "","city": "SPRINGDALE","state": "AR","zip": "72764","zip+4": "6330","phone": "4797560087","NPI": "     1649285909"}, 
{"id": 2826,"ncpdp": "0420555","pharmacy_name": "FREDS PHARMACY #2326","address1": "1042 HIGHLAND CIRCLE","address2": "","city": "MOUNTAIN HOME","state": "AR","zip": "72653","zip+4": "0000","phone": "8704255494","NPI": "     1982632964"}, 
{"id": 2827,"ncpdp": "0420579","pharmacy_name": "KROGER PHARMACY #25608","address1": "16105 D CHENAL PARKWAY","address2": "","city": "LITTLE ROCK","state": "AR","zip": "72223","zip+4": "0000","phone": "5018216841","NPI": "     1003831702"}, 
{"id": 2828,"ncpdp": "0420606","pharmacy_name": "WALGREEN DRUG STORE #5237","address1": "1722 WEST WALNUT ST","address2": "","city": "ROGERS","state": "AR","zip": "72756","zip+4": "0000","phone": "4792460193","NPI": "     1558376814"}, 
{"id": 2829,"ncpdp": "0420644","pharmacy_name": "FREDS PHARMACY #1719","address1": "57 SOUTH BROADVIEW","address2": "","city": "GREENBRIER","state": "AR","zip": "72058","zip+4": "0000","phone": "5016794898","NPI": "     1396761961"}, 
{"id": 2830,"ncpdp": "0420682","pharmacy_name": "WALGREEN DRUG STORE #5260","address1": "2701 ROGERS AVE","address2": "","city": "FORT SMITH","state": "AR","zip": "72901","zip+4": "0000","phone": "4797834780","NPI": "     1245246610"}, 
{"id": 2831,"ncpdp": "0420707","pharmacy_name": "KROGER PHARMACY #25621","address1": "4407 CENTRAL SO STATE HWY7","address2": "","city": "HOT SPRINGS","state": "AR","zip": "71913","zip+4": "0000","phone": "5015257296","NPI": "     1528092236"}, 
{"id": 2832,"ncpdp": "0420721","pharmacy_name": "HARPS PHARMACY #178","address1": "110 MIDTOWN SHOPPING CENTER","address2": "","city": "BENTONVILLE","state": "AR","zip": "72712","zip+4": "0000","phone": "4792735541","NPI": "     1134229453"}, 
{"id": 2833,"ncpdp": "0420733","pharmacy_name": "CHAPEL PHARMACY","address1": "3800 CAMDEN RD","address2": "STE 1","city": "PINE BLUFF","state": "AR","zip": "71603","zip+4": "0000","phone": "8708791490","NPI": "     1275534513"}, 
{"id": 2834,"ncpdp": "0420757","pharmacy_name": "WAL-MART PHARMACY #102745","address1": "2690 EAST CITIZENS DRIVE","address2": "","city": "FAYETTEVILLE","state": "AR","zip": "72703","zip+4": "0000","phone": "4795716673","NPI": "     1376562355"}, 
{"id": 2835,"ncpdp": "0420808","pharmacy_name": "MEDICAP PHARMACY #8260","address1": "103 DYER ST","address2": "","city": "MOUNTAIN HOME","state": "AR","zip": "72653","zip+4": "0000","phone": "8704251538","NPI": "     1831283233"}, 
{"id": 2836,"ncpdp": "0420822","pharmacy_name": "PRICE CUTTER PHARMACY #353","address1": "1617 SOUTH ZERO STREET","address2": "","city": "FORT SMITH","state": "AR","zip": "72901","zip+4": "0000","phone": "4796462222","NPI": "     1538242250"}, 
{"id": 2837,"ncpdp": "0420834","pharmacy_name": "PRICE CUTTER PHARMACY #352","address1": "120 CLOVERLEAF PLAZA","address2": "","city": "VAN BUREN","state": "AR","zip": "72956","zip+4": "0000","phone": "4794710800","NPI": "     1043310360"}, 
{"id": 2838,"ncpdp": "0420858","pharmacy_name": "WAL-MART PHARMACY #102575","address1": "3900 DAVE WARD DRIVE","address2": "","city": "CONWAY","state": "AR","zip": "72034","zip+4": "0000","phone": "5013285000","NPI": "     1134146533"}, 
{"id": 2839,"ncpdp": "0420860","pharmacy_name": "MAYFLOWER FOOD AND DRUG","address1": "582 HWY 365","address2": "SUITE B","city": "MAYFLOWER","state": "AR","zip": "72106","zip+4": "0000","phone": "5014703773","NPI": "     1407985161"}, 
{"id": 2840,"ncpdp": "0420884","pharmacy_name": "ECONO-MED PHARMACY INC","address1": "1 CHOCTAW CENTER","address2": "","city": "CHEROKEE VILLAGE","state": "AR","zip": "72529","zip+4": "0000","phone": "8708564696","NPI": "     1275606907"}, 
{"id": 2841,"ncpdp": "0420896","pharmacy_name": "PRICE CUTTER PHARMACY #356","address1": "1600 HIGHWAY 412","address2": "","city": "SILOAM SPRINGS","state": "AR","zip": "72761","zip+4": "0000","phone": "4795493200","NPI": "     1952401275"}, 
{"id": 2842,"ncpdp": "0420909","pharmacy_name": "KMART PHARMACY #3120","address1": "10901 RODNEY PARHAM","address2": "","city": "LITTLE ROCK","state": "AR","zip": "72212","zip+4": "0000","phone": "5012270131","NPI": "     1891726907"}, 
{"id": 2843,"ncpdp": "0420911","pharmacy_name": "DEBBIES FAMILY PHARMACY","address1": "5403 PINNACLE POINT DR","address2": "","city": "ROGERS","state": "AR","zip": "72758","zip+4": "0000","phone": "4792716300","NPI": "     1477556926"}, 
{"id": 2844,"ncpdp": "0420947","pharmacy_name": "SAMS PHARMACY #108104","address1": "900 SOUTH BOWMAN ROAD","address2": "","city": "LITTLE ROCK","state": "AR","zip": "72211","zip+4": "0000","phone": "5012190283","NPI": "     1043237449"}, 
{"id": 2845,"ncpdp": "0420997","pharmacy_name": "FREDS PHARMACY #1206","address1": "3395 HWY 5 NORTH","address2": "","city": "BENTON","state": "AR","zip": "72015","zip+4": "0000","phone": "5016532241","NPI": "     1598790651"}, 
{"id": 2846,"ncpdp": "0421002","pharmacy_name": "SAMS PHARMACY #108266","address1": "5600 LANDERS ROAD","address2": "","city": "SHERWOOD","state": "AR","zip": "72117","zip+4": "0000","phone": "5019559451","NPI": "     1952328353"}, 
{"id": 2847,"ncpdp": "0421038","pharmacy_name": "WALGREEN DRUG STORE #5730","address1": "3710 S UNIVERSITY","address2": "","city": "LITTLE ROCK","state": "AR","zip": "72204","zip+4": "0000","phone": "5015681446","NPI": "     1861408247"}, 
{"id": 2848,"ncpdp": "0421052","pharmacy_name": "BERRY DRUG OF DARDANELLE","address1": "417 UNION ST","address2": "","city": "DARDANELLE","state": "AR","zip": "72834","zip+4": "0000","phone": "4792294811","NPI": "     1881703379"}, 
{"id": 2849,"ncpdp": "0421064","pharmacy_name": "THE HEALTH DEPOT #3","address1": "1530 WEST CENTER","address2": "","city": "GREENWOOD","state": "AR","zip": "72936","zip+4": "0000","phone": "4799969898","NPI": "     1801808837"}, 
{"id": 2850,"ncpdp": "0421088","pharmacy_name": "FREDS PHARMACY #1086","address1": "901 DEWITT HENRY BLVD","address2": "","city": "BEEBE","state": "AR","zip": "72012","zip+4": "0000","phone": "5018825402","NPI": "     1033141064"}, 
{"id": 2851,"ncpdp": "0421103","pharmacy_name": "FREDS PHARMACY #1866","address1": "1301 NORTH ILLINOIS AVENUE","address2": "","city": "HARRISBURG","state": "AR","zip": "72432","zip+4": "0000","phone": "8705785362","NPI": "     1942232970"}, 
{"id": 2852,"ncpdp": "0421115","pharmacy_name": "FREDS PHARMACY #3411","address1": "320 HIGHWAY SOUTH","address2": "","city": "YELLVILLE","state": "AR","zip": "72687","zip+4": "0000","phone": "8704492255","NPI": "     1275550733"}, 
{"id": 2853,"ncpdp": "0421127","pharmacy_name": "FREDS PHARMACY #2021","address1": "4212 EAST JOHNSON STREET","address2": "","city": "JONESBORO","state": "AR","zip": "72401","zip+4": "0000","phone": "8702689700","NPI": "     1407881568"}, 
{"id": 2854,"ncpdp": "0421141","pharmacy_name": "WALGREEN DRUG STORE #5993","address1": "111 N BOWMAN RD","address2": "","city": "LITTLE ROCK","state": "AR","zip": "72211","zip+4": "0000","phone": "5012258569","NPI": "     1467467720"}, 
{"id": 2855,"ncpdp": "0421165","pharmacy_name": "HARPS PHARMACY #135","address1": "924 EAST HIGHWAY 62","address2": "","city": "MOUNTAIN HOME","state": "AR","zip": "72653","zip+4": "0000","phone": "8704254127","NPI": "     1861592180"}, 
{"id": 2856,"ncpdp": "0421177","pharmacy_name": "PARKIN DRUG STORE","address1": "1740 CHURCH ST","address2": "","city": "AUGUSTA","state": "AR","zip": "72006","zip+4": "0000","phone": "8703473300","NPI": "     1790854271"}, 
{"id": 2857,"ncpdp": "0421191","pharmacy_name": "WALGREEN DRUG STORE #5475","address1": "300 E TOWNSHIP ST","address2": "","city": "FAYETTEVILLE","state": "AR","zip": "72703","zip+4": "0000","phone": "4795822338","NPI": "     1376558635"}, 
{"id": 2858,"ncpdp": "0421204","pharmacy_name": "CAMPS MEDICAL PHARMACY INC","address1": "800 S CHURCH","address2": "STE 103","city": "JONESBORO","state": "AR","zip": "72401","zip+4": "0000","phone": "8709105550","NPI": "     1558447763"}, 
{"id": 2859,"ncpdp": "0421216","pharmacy_name": "KROGER PHARMACY #25624","address1": "1003 W MAIN ST","address2": "","city": "RUSSELLVILLE","state": "AR","zip": "72801","zip+4": "0000","phone": "4798903402","NPI": "     1316971161"}, 
{"id": 2860,"ncpdp": "0421242","pharmacy_name": "FREDS PHARMACY #2146","address1": "15700 ARCH STREET","address2": "","city": "LITTLE ROCK","state": "AR","zip": "72206","zip+4": "0000","phone": "5012617007","NPI": "     1851323885"}, 
{"id": 2861,"ncpdp": "0421254","pharmacy_name": "WAL-MART PHARMACY #103230","address1": "400 BRYANT AVENUE","address2": "","city": "BRYANT","state": "AR","zip": "72022","zip+4": "0000","phone": "5018474615","NPI": "     1861419269"}, 
{"id": 2862,"ncpdp": "0421266","pharmacy_name": "APRIA HEALTHCARE #212","address1": "1519 BOWMAN RD","address2": "SUITE B","city": "LITTLE ROCK","state": "AR","zip": "72211","zip+4": "0000","phone": "5013121655","NPI": "     1265501472"}, 
{"id": 2863,"ncpdp": "0421280","pharmacy_name": "WALGREEN DRUG STORE #5535","address1": "4634 N HWY 7","address2": "","city": "HOT SPRINGS VILLAG","state": "AR","zip": "71909","zip+4": "0000","phone": "5019845280","NPI": "     1285649541"}, 
{"id": 2864,"ncpdp": "0421305","pharmacy_name": "FAMILY CLINIC PHARMACY LLC","address1": "1208 W MAIN","address2": "","city": "WALNUT RIDGE","state": "AR","zip": "72476","zip+4": "0000","phone": "8708868100","NPI": "     1811026156"}, 
{"id": 2865,"ncpdp": "0421329","pharmacy_name": "FREDS PHARMACY #1386","address1": "409 W MAIN STREET","address2": "","city": "CLARKSVILLE","state": "AR","zip": "72830","zip+4": "0000","phone": "4797549303","NPI": "     1760414791"}, 
{"id": 2866,"ncpdp": "0421355","pharmacy_name": "SULLIVAN PHARMACY","address1": "731 N MAIN ST","address2": "STE B","city": "HARRISON","state": "AR","zip": "72601","zip+4": "0000","phone": "8707412119","NPI": "     1497818967"}, 
{"id": 2867,"ncpdp": "0421367","pharmacy_name": "PALACE DRUG","address1": "270 MAIN ST","address2": "","city": "MAMMOTH SPRING","state": "AR","zip": "72554","zip+4": "0000","phone": "8706253222","NPI": "     1558390633"}, 
{"id": 2868,"ncpdp": "0421379","pharmacy_name": "HARPS PHARMACY #170","address1": "1945 BUTTERFIELD COACH ROAD","address2": "","city": "SPRINGDALE","state": "AR","zip": "72764","zip+4": "0000","phone": "4799273379","NPI": "     1023118270"}, 
{"id": 2869,"ncpdp": "0421381","pharmacy_name": "WOODLANDS PHARMACY","address1": "7197 SHERIDAN RD SUITE 109","address2": "","city": "WHITE HALL","state": "AR","zip": "71602","zip+4": "0000","phone": "8702473900","NPI": "     1841282662"}, 
{"id": 2870,"ncpdp": "0421406","pharmacy_name": "BROOKSHIRES PHARMACY #00000000","address1": "1310 SOUTH CONSTITUTION AVE","address2": "ATTENTION PHARMACY DEPT","city": "ASHDOWN","state": "AR","zip": "71822","zip+4": "0000","phone": "8708985501","NPI": "     1396818621"}, 
{"id": 2871,"ncpdp": "0421418","pharmacy_name": "MIDSOUTH PHARMACY","address1": "3215 N WEST AVE","address2": "","city": "EL DORADO","state": "AR","zip": "71730","zip+4": "0000","phone": "8708640730","NPI": "     1861438772"}, 
{"id": 2872,"ncpdp": "0421420","pharmacy_name": "WAL-MART PHARMACY #103479","address1": "1819 SOUTH 8TH ST","address2": "","city": "ROGERS","state": "AR","zip": "72756","zip+4": "0000","phone": "4796330802","NPI": "     1285653261"}, 
{"id": 2873,"ncpdp": "0421432","pharmacy_name": "FREDS PHARMACY #2926","address1": "624 SOUTH ROCK STREET","address2": "","city": "SHERIDAN","state": "AR","zip": "72150","zip+4": "0000","phone": "8709425800","NPI": "     1679505606"}, 
{"id": 2874,"ncpdp": "0421444","pharmacy_name": "SHINABERYS COMMUNITY PHARMACY","address1": "1150 E MATTHEWS AVE STE 103","address2": "","city": "JONESBORO","state": "AR","zip": "72401","zip+4": "0000","phone": "8709336369","NPI": "     1043426729"}, 
{"id": 2875,"ncpdp": "0421482","pharmacy_name": "WALGREEN DRUG STORE #6765","address1": "108 E HIGHLAND DR","address2": "","city": "JONESBORO","state": "AR","zip": "72401","zip+4": "0000","phone": "8708022173","NPI": "     1093720351"}, 
{"id": 2876,"ncpdp": "0421494","pharmacy_name": "WALGREEN DRUG STORE #6959","address1": "702 MILITARY RD","address2": "","city": "BENTON","state": "AR","zip": "72015","zip+4": "0000","phone": "5018607352","NPI": "     1902811268"}, 
{"id": 2877,"ncpdp": "0421533","pharmacy_name": "TARGET PHARMACY #1470","address1": "3545 NORTH SHILOH DRIVE","address2": "","city": "FAYETTEVILLE","state": "AR","zip": "72703","zip+4": "0000","phone": "4794435628","NPI": "     1407878283"}, 
{"id": 2878,"ncpdp": "0421545","pharmacy_name": "ALLCARE PHARMACY #29","address1": "521 MAIN ST","address2": "","city": "ARKADELPHIA","state": "AR","zip": "71923","zip+4": "0000","phone": "8704039400","NPI": "     1326120106"}, 
{"id": 2879,"ncpdp": "0421557","pharmacy_name": "CORNERSTONE PHARMACY","address1": "4220 N RODNEY PARHAM RD","address2": "STE 101","city": "LITTLE ROCK","state": "AR","zip": "72212","zip+4": "0000","phone": "5012232224","NPI": "     1437228756"}, 
{"id": 2880,"ncpdp": "0421571","pharmacy_name": "DEANS PHARMACY # #2","address1": "803 N BUERKLE","address2": "","city": "STUTTGART","state": "AR","zip": "72160","zip+4": "0000","phone": "8706724790","NPI": "     1881609899"}, 
{"id": 2881,"ncpdp": "0421583","pharmacy_name": "FREDS PHARMACY #1531","address1": "440 SOUTH BRADLEY","address2": "","city": "EL DORADO","state": "AR","zip": "71730","zip+4": "0000","phone": "8708634157","NPI": "     1588696512"}, 
{"id": 2882,"ncpdp": "0421622","pharmacy_name": "FREDS PHARMACY #1096","address1": "170 HWY 167","address2": "","city": "BALD KNOB","state": "AR","zip": "72010","zip+4": "0000","phone": "5017249113","NPI": "     1396777322"}, 
{"id": 2883,"ncpdp": "0421658","pharmacy_name": "WALGREEN DRUG STORE #7234","address1": "8500 ROGERS AVE","address2": "","city": "FORT SMITH","state": "AR","zip": "72903","zip+4": "0000","phone": "4794523243","NPI": "     1811902174"}, 
{"id": 2884,"ncpdp": "0421711","pharmacy_name": "WAL-MART PHARMACY #103231","address1": "551 LIBERTY DRIVE","address2": "","city": "GREENWOOD","state": "AR","zip": "72936","zip+4": "0000","phone": "4799968533","NPI": "     1770500175"}, 
{"id": 2885,"ncpdp": "0421723","pharmacy_name": "KROGER PHARMACY #25576","address1": "301 PINE BLUFF HIGHWAY","address2": "","city": "ENGLAND","state": "AR","zip": "72046","zip+4": "0000","phone": "5018423471","NPI": "     1225062078"}, 
{"id": 2886,"ncpdp": "0421747","pharmacy_name": "PHARMACY SOLUTIONS JONESBORO #","address1": "2929 S CARAWAY RD","address2": "STE 9","city": "JONESBORO","state": "AR","zip": "72401","zip+4": "0000","phone": "8709322822","NPI": "     1851432306"}, 
{"id": 2887,"ncpdp": "0421759","pharmacy_name": "WALGREEN DRUG STORE #7235","address1": "1601 FAYETTEVILLE RD","address2": "","city": "VAN BUREN","state": "AR","zip": "72956","zip+4": "0000","phone": "4794748834","NPI": "     1063427326"}, 
{"id": 2888,"ncpdp": "0421761","pharmacy_name": "WALGREEN DRUG STORE #7284","address1": "14820 CANTRELL RD","address2": "","city": "LITTLE ROCK","state": "AR","zip": "72223","zip+4": "0000","phone": "5018686053","NPI": "     1972518231"}, 
{"id": 2889,"ncpdp": "0421773","pharmacy_name": "SAMS PHARMACY #108134","address1": "7700 ROGERS AVE","address2": "","city": "FT SMITH","state": "AR","zip": "72903","zip+4": "0000","phone": "4794848008","NPI": "     1689691081"}, 
{"id": 2890,"ncpdp": "0421800","pharmacy_name": "FREDS PHARMACY #2596","address1": "198 NORTH CURTIS","address2": "","city": "PEA RIDGE","state": "AR","zip": "72751","zip+4": "0000","phone": "4794518400","NPI": "     1114959145"}, 
{"id": 2891,"ncpdp": "0421824","pharmacy_name": "WALGREEN DRUG STORE #7283","address1": "1404 ALBERT PIKE","address2": "","city": "HOT SPRINGS","state": "AR","zip": "71913","zip+4": "0000","phone": "5013181305","NPI": "     1376559765"}, 
{"id": 2892,"ncpdp": "0421862","pharmacy_name": "FREDS PHARMACY #2236","address1": "HWY 65 N","address2": "","city": "MARSHALL","state": "AR","zip": "72650","zip+4": "0000","phone": "8704483841","NPI": "     1184641649"}, 
{"id": 2893,"ncpdp": "0421874","pharmacy_name": "USA DRUG #17","address1": "11108 NORTH RODNEY PARHAM ROAD","address2": "","city": "LITTLE ROCK","state": "AR","zip": "72212","zip+4": "0000","phone": "5012236944","NPI": "     1598847709"}, 
{"id": 2894,"ncpdp": "0421898","pharmacy_name": "MARVELL CLINIC PHARMACY INC","address1": "406 S MILL ST","address2": "","city": "MARVELL","state": "AR","zip": "72366","zip+4": "0000","phone": "8708291044","NPI": "     1295752376"}, 
{"id": 2895,"ncpdp": "0421925","pharmacy_name": "WAL-MART PHARMACY #103331","address1": "5501 SOUTH OLIVE STREET","address2": "","city": "PINE BLUFF","state": "AR","zip": "71603","zip+4": "0000","phone": "8708791420","NPI": "     1790702108"}, 
{"id": 2896,"ncpdp": "0421937","pharmacy_name": "MCFARLIN PHARMACY INC","address1": "101 WEST DREW","address2": "","city": "MONETTE","state": "AR","zip": "72447","zip+4": "0000","phone": "8704865220","NPI": "     1447317714"}, 
{"id": 2897,"ncpdp": "0421951","pharmacy_name": "WALGREEN DRUG STORE #7847","address1": "524 S SCHOOL RD","address2": "","city": "FAYETTEVILLE","state": "AR","zip": "72701","zip+4": "0000","phone": "4792517413","NPI": "     1881609147"}, 
{"id": 2898,"ncpdp": "0421963","pharmacy_name": "KROGER PHARMACY #25613","address1": "1295 WEST MAIN ST","address2": "","city": "CABOT","state": "AR","zip": "72023","zip+4": "0000","phone": "5016285187","NPI": "     1134153984"}, 
{"id": 2899,"ncpdp": "0421975","pharmacy_name": "LOWELL PHARMACY","address1": "114 HARRISON AVE","address2": "","city": "LOWELL","state": "AR","zip": "72745","zip+4": "0000","phone": "4797700111","NPI": "     1881670818"}, 
{"id": 2900,"ncpdp": "0421987","pharmacy_name": "MEDI SHOP PHARMACY","address1": "204 HWY 71 SOUTH","address2": "","city": "MENA","state": "AR","zip": "71953","zip+4": "0000","phone": "4793943254","NPI": "     1235211012"}, 
{"id": 2901,"ncpdp": "0421999","pharmacy_name": "TARGET PHARMACY #1891","address1": "501 ELSINGER BLVD","address2": "","city": "CONWAY","state": "AR","zip": "72032","zip+4": "0000","phone": "5013285316","NPI": "     1316969199"}, 
{"id": 2902,"ncpdp": "0422004","pharmacy_name": "WAL-MART PHARMACY #105244","address1": "19301 CANTRELL ROAD","address2": "","city": "LITTLE ROCK","state": "AR","zip": "72223","zip+4": "0000","phone": "5018689854","NPI": "     1609893015"}, 
{"id": 2903,"ncpdp": "0422016","pharmacy_name": "WILSON PHARMACY","address1": "5 N JEFFERSON STREET","address2": "","city": "WILSON","state": "AR","zip": "72395","zip+4": "0000","phone": "8706558415","NPI": "     1104954585"}, 
{"id": 2904,"ncpdp": "0422028","pharmacy_name": "WALGREEN DRUG STORE #1952","address1": "1330 S CARAWAY RD","address2": "","city": "JONESBORO","state": "AR","zip": "72401","zip+4": "0000","phone": "8702681424","NPI": "     1306852058"}, 
{"id": 2905,"ncpdp": "0422030","pharmacy_name": "WALGREEN DRUG STORE #2364","address1": "819 W MAIN ST","address2": "","city": "JACKSONVILLE","state": "AR","zip": "72076","zip+4": "0000","phone": "5012410222","NPI": "     1790790061"}, 
{"id": 2906,"ncpdp": "0422042","pharmacy_name": "WALGREEN DRUG STORE #7718","address1": "4007 N SHILOH DR","address2": "","city": "FAYETTEVILLE","state": "AR","zip": "72701","zip+4": "0000","phone": "4794423615","NPI": "     1215943964"}, 
{"id": 2907,"ncpdp": "0422066","pharmacy_name": "WAL-MART PHARMACY #105433","address1": "3604 NORTH HIGHWAY 7","address2": "","city": "HOT SPRINGS VILLAG","state": "AR","zip": "71909","zip+4": "0000","phone": "5013180902","NPI": "     1518984921"}, 
{"id": 2908,"ncpdp": "0422078","pharmacy_name": "USA DRUG #18","address1": "3525 HWY 5 NORTH","address2": "","city": "BENTON","state": "AR","zip": "72015","zip+4": "0000","phone": "5018475410","NPI": "     1508949124"}, 
{"id": 2909,"ncpdp": "0422080","pharmacy_name": "HECTOR PHARMACY","address1": "11167 SR 27","address2": "","city": "HECTOR","state": "AR","zip": "72843","zip+4": "0000","phone": "4792842011","NPI": "     1972693950"}, 
{"id": 2910,"ncpdp": "0422092","pharmacy_name": "BELL PHARMACY","address1": "113 BOYER AVE","address2": "","city": "LINCOLN","state": "AR","zip": "72744","zip+4": "0000","phone": "4798243256","NPI": "     1841275260"}, 
{"id": 2911,"ncpdp": "0422117","pharmacy_name": "BROWNFIELD PHARMACY INC","address1": "675 W CENTER","address2": "","city": "GREENWOOD","state": "AR","zip": "72936","zip+4": "0000","phone": "4799962424","NPI": "     1235277245"}, 
{"id": 2912,"ncpdp": "0422167","pharmacy_name": "WAL-MART PHARMACY #105260","address1": "4208 PLEASANT CROSSING BLVD","address2": "","city": "ROGERS","state": "AR","zip": "72758","zip+4": "0000","phone": "4796210629","NPI": "     1427075837"}, 
{"id": 2913,"ncpdp": "0422181","pharmacy_name": "WALGREEN DRUG STORE #9593","address1": "3499 BELLA VISTA WAY","address2": "","city": "BELLA VISTA","state": "AR","zip": "72712","zip+4": "0000","phone": "4792732437","NPI": "     1245245513"}, 
{"id": 2914,"ncpdp": "0422193","pharmacy_name": "JACKSONS PHARMACY","address1": "434 HWY 18","address2": "SUITE C","city": "MANILA","state": "AR","zip": "72442","zip+4": "0000","phone": "8705613032","NPI": "     1699869032"}, 
{"id": 2915,"ncpdp": "0422206","pharmacy_name": "MEDICAL CENTER PHARMACY WEST","address1": "2505 W BEEBE CAPPS EXPRESSWAY","address2": "STE 100","city": "SEARCY","state": "AR","zip": "72143","zip+4": "0000","phone": "5012683456","NPI": "     1134223183"}, 
{"id": 2916,"ncpdp": "0422218","pharmacy_name": "FREDS XPRESS #3696","address1": "1601 HIGHWAY 270 W 301","address2": "","city": "MALVERN","state": "AR","zip": "72104","zip+4": "0000","phone": "5013322101","NPI": "     1750313789"}, 
{"id": 2917,"ncpdp": "0422220","pharmacy_name": "TARGET PHARMACY #1919","address1": "3000 E HIGHLAND DR STE A","address2": "","city": "JONESBORO","state": "AR","zip": "72401","zip+4": "0000","phone": "8709349668","NPI": "     1225050008"}, 
{"id": 2918,"ncpdp": "0422232","pharmacy_name": "WALGREEN DRUG STORE #9624","address1": "705 HWY 62 65 N","address2": "","city": "HARRISON","state": "AR","zip": "72601","zip+4": "2007","phone": "8703650139","NPI": "     1154336428"}, 
{"id": 2919,"ncpdp": "0422244","pharmacy_name": "HARPS PHARMACY #124","address1": "1274 COLORADO DRIVE","address2": "","city": "SPRINGDALE","state": "AR","zip": "72704","zip+4": "0000","phone": "4792519130","NPI": "     1770683096"}, 
{"id": 2920,"ncpdp": "0422268","pharmacy_name": "WALGREEN DRUG STORE #9766","address1": "200 E RACE AVE","address2": "","city": "SEARCY","state": "AR","zip": "72143","zip+4": "0000","phone": "5012797816","NPI": "     1063427334"}, 
{"id": 2921,"ncpdp": "0422270","pharmacy_name": "HARVEST FOODS PHARMACY #3219","address1": "1739 AIRPORT RD","address2": "","city": "HOT SPRINGS","state": "AR","zip": "71913","zip+4": "0000","phone": "5017671919","NPI": "     1457409385"}, 
{"id": 2922,"ncpdp": "0422282","pharmacy_name": "WALGREEN DRUG STORE #9743","address1": "350 HWY 62 E","address2": "","city": "MOUNTAIN HOME","state": "AR","zip": "72653","zip+4": "0000","phone": "8704243812","NPI": "     1972518249"}, 
{"id": 2923,"ncpdp": "0422307","pharmacy_name": "FREDS PHARMACY #1609","address1": "611 US HWY 65 SOUTH","address2": "SUITE A","city": "DUMAS","state": "AR","zip": "71639","zip+4": "0000","phone": "8703822955","NPI": "     1487796520"}, 
{"id": 2924,"ncpdp": "0422319","pharmacy_name": "HARPS PHARMACY #123","address1": "1007 JONES ROAD","address2": "","city": "SPRINGDALE","state": "AR","zip": "72765","zip+4": "0000","phone": "4793611950","NPI": "     1689774903"}, 
{"id": 2925,"ncpdp": "0422321","pharmacy_name": "HARPS PHARMACY #349","address1": "100 SOUTH KNOXVILLE","address2": "","city": "RUSSELLVILLE","state": "AR","zip": "72801","zip+4": "0000","phone": "4796974099","NPI": "     1497855712"}, 
{"id": 2926,"ncpdp": "0422369","pharmacy_name": "AMITY DRUG AND SUNDRY","address1": "109 W THOMPSON","address2": "","city": "AMITY","state": "AR","zip": "71921","zip+4": "0000","phone": "8703425080","NPI": "     1003822644"}, 
{"id": 2927,"ncpdp": "0422371","pharmacy_name": "ROGERS PHARMACY","address1": "221 SW 2ND","address2": "","city": "WALNUT RIDGE","state": "AR","zip": "72476","zip+4": "0000","phone": "8708865700","NPI": "     1104847151"}, 
{"id": 2928,"ncpdp": "0422383","pharmacy_name": "SMITH CALDWELL LTC","address1": "403 N MARKET","address2": "","city": "BENTON","state": "AR","zip": "72015","zip+4": "0000","phone": "5013266153","NPI": "     1225088990"}, 
{"id": 2929,"ncpdp": "0422408","pharmacy_name": "CABOT MEDICAL PARK PHCY INC","address1": "2039 W MAIN ST","address2": "STE D","city": "CABOT","state": "AR","zip": "72023","zip+4": "0000","phone": "5019412626","NPI": "     1548206634"}, 
{"id": 2930,"ncpdp": "0422410","pharmacy_name": "WALGREEN DRUG STORE #10240","address1": "5500 HWY 5 N","address2": "","city": "BRYANT","state": "AR","zip": "72022","zip+4": "7000","phone": "5018477420","NPI": "     1972544393"}, 
{"id": 2931,"ncpdp": "0422422","pharmacy_name": "COUNTY DISCOUNT PHARMACY","address1": "48 S GARLAND","address2": "","city": "MAGAZINE","state": "AR","zip": "72943","zip+4": "0000","phone": "4799692727","NPI": "     1932150448"}, 
{"id": 2932,"ncpdp": "0422434","pharmacy_name": "WALGREEN DRUG STORE #10199","address1": "1100 E MAIN ST","address2": "","city": "RUSSELLVILLE","state": "AR","zip": "72801","zip+4": "5319","phone": "4799671573","NPI": "     1164449591"}, 
{"id": 2933,"ncpdp": "0422446","pharmacy_name": "WALGREEN DRUG STORE #09594","address1": "1925 ZERO ST","address2": "","city": "FOREST SMITH","state": "AR","zip": "72901","zip+4": "8415","phone": "4796465336","NPI": "     1194744771"}, 
{"id": 2934,"ncpdp": "0422458","pharmacy_name": "SMACKOVER PHARMACY","address1": "1402 PERSHING HWY","address2": "","city": "SMACKOVER","state": "AR","zip": "71762","zip+4": "0000","phone": "8707252220","NPI": "     1083625610"}, 
{"id": 2935,"ncpdp": "0422460","pharmacy_name": "WALGREEN DRUG STORE #09813","address1": "2503 W PLEASANT GROVE RD","address2": "","city": "ROGERS","state": "AR","zip": "72758","zip+4": "0000","phone": "4799368096","NPI": "     1700898798"}, 
{"id": 2936,"ncpdp": "0422472","pharmacy_name": "WALGREEN DRUG STORE #09880","address1": "1500 W KINGS HWY","address2": "","city": "PARAGOULD","state": "AR","zip": "72450","zip+4": "4009","phone": "8702408091","NPI": "     1356450563"}, 
{"id": 2937,"ncpdp": "0422484","pharmacy_name": "QOL MEDS LLC #010","address1": "125 DONS WAY","address2": "","city": "HOT SPRINGS","state": "AR","zip": "71913","zip+4": "0000","phone": "5015251001","NPI": "     1356413587"}, 
{"id": 2938,"ncpdp": "0422496","pharmacy_name": "POLK PHARMACY ENGLAND","address1": "815 E FORDYCE","address2": "","city": "ENGLAND","state": "AR","zip": "72046","zip+4": "0000","phone": "5018422575","NPI": "     1184635765"}, 
{"id": 2939,"ncpdp": "0422509","pharmacy_name": "SAMS PHARMACY #104969","address1": "3500 SOUTHEAST CLUB BLVD","address2": "","city": "BENTONVILLE","state": "AR","zip": "72712","zip+4": "0000","phone": "4796210283","NPI": "     1689685109"}, 
{"id": 2940,"ncpdp": "0422511","pharmacy_name": "WALGREEN DRUG STORE #10170","address1": "505 SALEM RD","address2": "","city": "CONWAY","state": "AR","zip": "72034","zip+4": "6195","phone": "5013283117","NPI": "     1437249661"}, 
{"id": 2941,"ncpdp": "0422523","pharmacy_name": "HORSESHOE HEALTH AND MEDICINE","address1": "600 MARKET ST","address2": "","city": "HORSESHOE BEND","state": "AR","zip": "72512","zip+4": "0000","phone": "8706704580","NPI": "     1376646752"}, 
{"id": 2942,"ncpdp": "0422535","pharmacy_name": "TARGET PHARMACY #2204","address1": "7377 ALCOA ROAD","address2": "","city": "BRYANT","state": "AR","zip": "72022","zip+4": "0000","phone": "5017764361","NPI": "     1417039884"}, 
{"id": 2943,"ncpdp": "0422547","pharmacy_name": "MARKET STREET DRUGS","address1": "404 MARKET ST","address2": "","city": "HORSESHOE BEND","state": "AR","zip": "72512","zip+4": "3871","phone": "8706705098","NPI": "     1477650216"}, 
{"id": 2944,"ncpdp": "0422559","pharmacy_name": "WALGREEN DRUG STORE #10352","address1": "2500 MCCAIN BLVD","address2": "","city": "NORTH LITTLE ROCK","state": "AR","zip": "72116","zip+4": "7609","phone": "5018126228","NPI": "     1922178771"}, 
{"id": 2945,"ncpdp": "0422561","pharmacy_name": "WALGREEN DRUG STORE #10365","address1": "308 S MAIN ST","address2": "","city": "MALVERN","state": "AR","zip": "72104","zip+4": "0000","phone": "5014678197","NPI": "     1124198221"}, 
{"id": 2946,"ncpdp": "0422585","pharmacy_name": "WALGREEN DRUG STORE #10586","address1": "440 HWY 412 E","address2": "","city": "SILOAM SPRINGS","state": "AR","zip": "72761","zip+4": "4701","phone": "4795243671","NPI": "     1588701692"}, 
{"id": 2947,"ncpdp": "0422597","pharmacy_name": "WALGREEN DRUG STORE #10418","address1": "1004 COMMERCE BLVD","address2": "","city": "HOPE","state": "AR","zip": "71801","zip+4": "0000","phone": "8707774830","NPI": "     1356474449"}, 
{"id": 2948,"ncpdp": "0422600","pharmacy_name": "HIGHLANDS PHARMACY","address1": "3232 N NORTH HILLS BLVD","address2": "","city": "FAYETTEVILLE","state": "AR","zip": "72703","zip+4": "0000","phone": "4796951199","NPI": "     1093861825"}, 
{"id": 2949,"ncpdp": "0422612","pharmacy_name": "WALGREEN DRUG STORE #10364","address1": "9220 N RODNEY PARHAM RD","address2": "","city": "LITTLE ROCK","state": "AR","zip": "72227","zip+4": "6202","phone": "5012239814","NPI": "     1437278017"}, 
{"id": 2950,"ncpdp": "0422624","pharmacy_name": "NEWTONS INHOUSE PHARMACY","address1": "715 W MAIN ST","address2": "","city": "RUSSELLVILLE","state": "AR","zip": "72801","zip+4": "0000","phone": "4799681157","NPI": "     1821130618"}, 
{"id": 2951,"ncpdp": "0422636","pharmacy_name": "WALGREEN DRUG STORE #10059","address1": "1325 W MAIN ST","address2": "","city": "CABOT","state": "AR","zip": "72023","zip+4": "2458","phone": "5019413131","NPI": "     1083733224"}, 
{"id": 2952,"ncpdp": "0422648","pharmacy_name": "WALGREEN DRUG STORE #10715","address1": "131 N 26TH ST","address2": "","city": "ARKADELPHIA","state": "AR","zip": "71923","zip+4": "4348","phone": "8702301809","NPI": "     1396866687"}, 
{"id": 2953,"ncpdp": "0422650","pharmacy_name": "WESTSIDE FAMILY PHARMACY INC","address1": "3819 W SUNSET AVE","address2": "","city": "SPRINGDALE","state": "AR","zip": "72762","zip+4": "0000","phone": "4797563232","NPI": "     1386761757"}, 
{"id": 2954,"ncpdp": "0422674","pharmacy_name": "CORNERSTONE PHARMACY AT CHENAL","address1": "1811 RAHLING RD","address2": "STE 110","city": "LITTLE ROCK","state": "AR","zip": "72223","zip+4": "0000","phone": "5018212300","NPI": "     1306965512"}, 
{"id": 2955,"ncpdp": "0422686","pharmacy_name": "MED QUICK DISCOUNT PHARMACY #3","address1": "406 E WALNUT ST","address2": "","city": "PARIS","state": "AR","zip": "72855","zip+4": "0000","phone": "4799631555","NPI": "     1831306489"}, 
{"id": 2956,"ncpdp": "0422698","pharmacy_name": "WALGREENS DRUG STORE #10666","address1": "640 W GAINES ST","address2": "","city": "MONTICELLO","state": "AR","zip": "71655","zip+4": "4675","phone": "8703676146","NPI": "     1497962088"}, 
{"id": 2957,"ncpdp": "0422701","pharmacy_name": "MORRILTON FOOD AND DRUG","address1": "100 SOUTH SAINT JOSESPH ST","address2": "","city": "MORRILTON","state": "AR","zip": "72110","zip+4": "0000","phone": "5014775048","NPI": "     1043417835"}, 
{"id": 2958,"ncpdp": "0422713","pharmacy_name": "HARPS PHARMACY #117","address1": "715 N 2ND ST","address2": "","city": "ROGERS","state": "AR","zip": "72756","zip+4": "0000","phone": "4796317013","NPI": "     1144426974"}, 
{"id": 2959,"ncpdp": "0422725","pharmacy_name": "GENUINE CARE PHARMACY","address1": "7337 HWY 62 W","address2": "","city": "GASSVILLE","state": "AR","zip": "72635","zip+4": "0000","phone": "8704355757","NPI": "     1689866089"}, 
{"id": 2960,"ncpdp": "0422749","pharmacy_name": "WALGREENS DRUG STORE #10897","address1": "1644 E MAIN ST","address2": "","city": "MAGNOLIA","state": "AR","zip": "71753","zip+4": "3804","phone": "8702343493","NPI": "     1235321332"}, 
{"id": 2961,"ncpdp": "0422751","pharmacy_name": "WALGREEN DRUG STORE #11344","address1": "2110 N WASHINGTON ST","address2": "","city": "FORREST CITY","state": "AR","zip": "72335","zip+4": "1846","phone": "8706309042","NPI": "     1396932026"}, 
{"id": 2962,"ncpdp": "0422787","pharmacy_name": "HARPS PHARMACY #137","address1": "2507 MARKET TRACE","address2": "","city": "FT SMITH","state": "AR","zip": "72908","zip+4": "8677","phone": "4796465505","NPI": "     1124223243"}, 
{"id": 2963,"ncpdp": "0422799","pharmacy_name": "FREDS PHARMACY #2616","address1": "303 EAST MAIN ST","address2": "","city": "PIGGOTT","state": "AR","zip": "72454","zip+4": "0000","phone": "8705981700","NPI": "     1437330701"}, 
{"id": 2964,"ncpdp": "0422802","pharmacy_name": "HARPS PHARMACY #136","address1": "2525 W BEEBE CAPPS EXPRESSWAY","address2": "","city": "SEARCY","state": "AR","zip": "72143","zip+4": "0000","phone": "5012684171","NPI": "     1942486576"}, 
{"id": 2965,"ncpdp": "0422814","pharmacy_name": "WAL-MART PHARMACY #104460","address1": "12001 MAUMELLE BOULEVARD","address2": "","city": "N LITTLE ROCK","state": "AR","zip": "72113","zip+4": "0000","phone": "5018516459","NPI": "     1992981336"}, 
{"id": 2966,"ncpdp": "0422826","pharmacy_name": "WALGREEN DRUG STORE #11161","address1": "2401 MALCOLM AVE","address2": "","city": "NEWPORT","state": "AR","zip": "72112","zip+4": "0000","phone": "8702170170","NPI": "     1609044528"}, 
{"id": 2967,"ncpdp": "0422838","pharmacy_name": "WAL-MART PHARMACY #105822","address1": "2708 RIFE DR","address2": "","city": "ROGERS","state": "AR","zip": "72758","zip+4": "0000","phone": "4796364101","NPI": "     1841469558"}, 
{"id": 2968,"ncpdp": "0422840","pharmacy_name": "ALLCARE PHARMACY #2","address1": "1523 S BOWMAN RD","address2": "STE G","city": "LITTLE ROCK","state": "AR","zip": "72211","zip+4": "0000","phone": "5012178881","NPI": "     1275708042"}, 
{"id": 2969,"ncpdp": "0422852","pharmacy_name": "BEST DRUG STORE","address1": "415 EAST MAIN STREET","address2": "","city": "MOUNTAIN VIEW","state": "AR","zip": "72560","zip+4": "0000","phone": "8702694329","NPI": "     1265605687"}, 
{"id": 2970,"ncpdp": "0422864","pharmacy_name": "WALGREEN DRUG STORE #11345","address1": "7601 CANTRELL RD","address2": "","city": "LITTLE ROCK","state": "AR","zip": "72227","zip+4": "3319","phone": "5012211601","NPI": "     1194992149"}, 
{"id": 2971,"ncpdp": "0422876","pharmacy_name": "WAL-MART PHARMACY #105783","address1": "117 AUDUBON DRIVE","address2": "","city": "MAUMELLE","state": "AR","zip": "72113","zip+4": "0000","phone": "5018518896","NPI": "     1518124908"}, 
{"id": 2972,"ncpdp": "0422888","pharmacy_name": "WALGREEN DRUG STORE #11933","address1": "15500 CHENAL PKWY","address2": "","city": "LITTLE ROCK","state": "AR","zip": "72211","zip+4": "2018","phone": "5012173872","NPI": "     1821255977"}, 
{"id": 2973,"ncpdp": "0422890","pharmacy_name": "ROSE DRUG OF DANVILLE","address1": "708 E 8TH STREET","address2": "","city": "DANVILLE","state": "AR","zip": "72833","zip+4": "0000","phone": "4794957673","NPI": "     1750542221"}, 
{"id": 2974,"ncpdp": "0422915","pharmacy_name": "WALGREENS #11781","address1": "2964 W 6TH ST","address2": "","city": "FAYETTEVILLE","state": "AR","zip": "72704","zip+4": "0000","phone": "4795215103","NPI": "     1952564205"}, 
{"id": 2975,"ncpdp": "0422939","pharmacy_name": "PRESCRIPTION CORNER DRUG INC","address1": "320 W KINGS HIGHWAY","address2": "","city": "PARAGOULD","state": "AR","zip": "72450","zip+4": "0000","phone": "8702399535","NPI": "     1134309602"}, 
{"id": 2976,"ncpdp": "0422941","pharmacy_name": "TARGET PHARMACY #2284","address1": "4001 PHOENIX AVE","address2": "","city": "FORT SMITH","state": "AR","zip": "72903","zip+4": "0000","phone": "4797098941","NPI": "     1538317987"}, 
{"id": 2977,"ncpdp": "0422977","pharmacy_name": "WALGREENS #11988","address1": "2750 E MISSION RD","address2": "","city": "FAYETTEVILLE","state": "AR","zip": "72703","zip+4": "3262","phone": "4794422134","NPI": "     1902052285"}, 
{"id": 2978,"ncpdp": "0422989","pharmacy_name": "TARGET PHARMACY #1114","address1": "12700 CHENAL PARKWAY","address2": "","city": "LITTLE ROCK","state": "AR","zip": "72211","zip+4": "0000","phone": "5017071996","NPI": "     1306096615"}, 
{"id": 2979,"ncpdp": "0422991","pharmacy_name": "WALGREENS #11987","address1": "323 HIGHWAY 64 E","address2": "","city": "ALMA","state": "AR","zip": "72921","zip+4": "0000","phone": "4796329080","NPI": "     1962652552"}, 
{"id": 2980,"ncpdp": "0423006","pharmacy_name": "FRED\'S PHARMACY #2651","address1": "2809 SOUTH CAMDEN RD.","address2": "","city": "PINE BLUFF","state": "AR","zip": "71603","zip+4": "0000","phone": "8708793948","NPI": "     1659528339"}, 
{"id": 2981,"ncpdp": "0423018","pharmacy_name": "FRED\'S STORES OF TENNESSEE INC","address1": "6027 US HWY 67","address2": "","city": "HASKELL","state": "AR","zip": "72015","zip+4": "0000","phone": "5017787505","NPI": "     1285886259"}, 
{"id": 2982,"ncpdp": "0423020","pharmacy_name": "WAL-MART PHARMACY #105738","address1": "3553 E ROBINSON AVE","address2": "","city": "SPRINGDALE","state": "AR","zip": "72764","zip+4": "0000","phone": "4797502903","NPI": "     1457596587"}, 
{"id": 2983,"ncpdp": "0423032","pharmacy_name": "TARGET PHARMACY #2498","address1": "2404 PROMENADE BLVD","address2": "","city": "ROGERS","state": "AR","zip": "72758","zip+4": "0000","phone": "4799861101","NPI": "     1114164597"}, 
{"id": 2984,"ncpdp": "0423044","pharmacy_name": "MEDICINE SHOPPE #1890","address1": "2425 DAVE WARD DR","address2": "","city": "CONWAY","state": "AR","zip": "72034","zip+4": "0000","phone": "5013293777","NPI": "     1902043227"}, 
{"id": 2985,"ncpdp": "0423056","pharmacy_name": "MEDICINE SHOPPE #1883","address1": "1701 CLUB MANOR DRIVE","address2": "SUITE D","city": "MAUMELLE","state": "AR","zip": "72113","zip+4": "0000","phone": "5018514949","NPI": "     1710124037"}, 
{"id": 2986,"ncpdp": "0423068","pharmacy_name": "STAGECOACH PHARMACY","address1": "1 STAGECOACH VILLAGE DR.","address2": "STE 2","city": "LITTLE ROCK","state": "AR","zip": "72210","zip+4": "0000","phone": "5014556295","NPI": "     1760629984"}, 
{"id": 2987,"ncpdp": "0423070","pharmacy_name": "MEDICINE SHOPPE #1906","address1": "2125 COLLEGE AVE","address2": "SUITE 1","city": "CONWAY","state": "AR","zip": "72034","zip+4": "0000","phone": "5013278088","NPI": "     1669619094"}, 
{"id": 2988,"ncpdp": "0423082","pharmacy_name": "WALGREENS #12670","address1": "3234 E ROBINSON AVE","address2": "","city": "SPRINGDALE","state": "AR","zip": "72764","zip+4": "0000","phone": "4797564368","NPI": "     1447498555"}, 
{"id": 2989,"ncpdp": "0423094","pharmacy_name": "DEAN\'S PHARMACY # #3","address1": "425 W CHESTNUT ST","address2": "","city": "MARIANNA","state": "AR","zip": "72360","zip+4": "0000","phone": "8702954100","NPI": "     1396984498"}, 
{"id": 2990,"ncpdp": "0423107","pharmacy_name": "GENOA HEALTHCARE #68","address1": "2400 SOUTH 48TH ST.","address2": "","city": "SPRINGDALE","state": "AR","zip": "72762","zip+4": "6683","phone": "4794199285","NPI": "     1417196742"}, 
{"id": 2991,"ncpdp": "0423133","pharmacy_name": "WALGREENS #12417","address1": "1045 S SAINT LOUIS ST","address2": "","city": "BATESVILLE","state": "AR","zip": "72501","zip+4": "7224","phone": "8703070262","NPI": "     1083855605"}, 
{"id": 2992,"ncpdp": "0423157","pharmacy_name": "DOCTOR\'S ORDERS PHARMACY #0001","address1": "1600 W HOLLAND AVE STE 101A","address2": "","city": "WHITE HALL","state": "AR","zip": "71602","zip+4": "9636","phone": "8708508010","NPI": "     1962636829"}, 
{"id": 2993,"ncpdp": "0423169","pharmacy_name": "USA DRUG EXPRESS # #8418","address1": "1701 MAIN ST","address2": "","city": "LITTLE ROCK","state": "AR","zip": "72206","zip+4": "1471","phone": "5013719229","NPI": "     1336375252"}, 
{"id": 2994,"ncpdp": "0423183","pharmacy_name": "FRED\'S PHARMACY #3524","address1": "111 N MAIN ST","address2": "","city": "BRINKLEY","state": "AR","zip": "72021","zip+4": "2819","phone": "8707343161","NPI": "     1821226614"}, 
{"id": 2995,"ncpdp": "0423208","pharmacy_name": "FRED\'S PHARMACY #3528","address1": "1415 PINECREST ST.","address2": "","city": "BRINKLEY","state": "AR","zip": "72021","zip+4": "0000","phone": "8707343088","NPI": "     1801025549"}, 
{"id": 2996,"ncpdp": "0423210","pharmacy_name": "LEPANTO DISCOUNT DRUGS","address1": "216 GREENWOOD AVE","address2": "","city": "LEPANTO","state": "AR","zip": "72354","zip+4": "3213","phone": "8704752617","NPI": "     1952530248"}, 
{"id": 2997,"ncpdp": "0423222","pharmacy_name": "USA DRUG EXPRESS # #8419","address1": "10320 STAGECOACH RD","address2": "","city": "LITTLE ROCK","state": "AR","zip": "72210","zip+4": "5746","phone": "5014558080","NPI": "     1265661987"}, 
{"id": 2998,"ncpdp": "0423234","pharmacy_name": "COLEMAN PHARMACY OF ALMA","address1": "18 HWY 162 SOUTH","address2": "","city": "ALMA","state": "AR","zip": "72921","zip+4": "0000","phone": "4796322248","NPI": "     1295964047"}, 
{"id": 2999,"ncpdp": "0423246","pharmacy_name": "WALGREENS #12418","address1": "115 COMMONS DR","address2": "","city": "MAUMELLE","state": "AR","zip": "72113","zip+4": "7266","phone": "5018033274","NPI": "     1932338779"}, 
{"id": 3000,"ncpdp": "0423258","pharmacy_name": "WALGREENS #12384","address1": "1800 AIRPORT RD","address2": "","city": "HOT SPRINGS","state": "AR","zip": "71913","zip+4": "5396","phone": "5017602089","NPI": "     1033348339"}, 
{"id": 3001,"ncpdp": "0423260","pharmacy_name": "WALGREENS #12912","address1": "705 W CENTER ST","address2": "","city": "GREENWOOD","state": "AR","zip": "72936","zip+4": "3726","phone": "4799965522","NPI": "     1508097379"}, 
{"id": 3002,"ncpdp": "0423272","pharmacy_name": "WALGREENS #12500","address1": "4206 W NEW HOPE RD","address2": "","city": "ROGERS","state": "AR","zip": "72758","zip+4": "8236","phone": "4796210958","NPI": "     1639302730"}, 
{"id": 59583,"ncpdp": "9000938","pharmacy_name": "HARPS FOOD STORES INC","address1": "918 S GUTENSHON","address2": "","city": "SPRINGDALE","state": "AR","zip": "72762","zip+4": "0000","phone": "","NPI": ""}, 
{"id": 59456,"ncpdp": "9000057","pharmacy_name": "WAL-MART PHARMACY DIVISION","address1": "MAIL STOP 0230","address2": "702 SW 8TH ST","city": "BENTONVILLE","state": "AR","zip": "72716","zip+4": "9113","phone": "4792771242","NPI": ""}, 
{"id": 59631,"ncpdp": "9500400","pharmacy_name": "USA/SUPER D DRUG","address1": "3017 N MIDLAND DR","address2": "","city": "PINE BLUFF","state": "AR","zip": "71613","zip+4": "0000","phone": "8705355171","NPI": ""}, 
