
{"id": 7538,"ncpdp": "0700066","pharmacy_name": "SILADIS PHARMACY","address1": "1055 HIGH RIDGE RD","address2": "","city": "STAMFORD","state": "CT","zip": "06905","zip+4": "1195","phone": "2033227654","NPI": "     1396709853"}, 
{"id": 7539,"ncpdp": "0700078","pharmacy_name": "GRAEBERS PHARMACY #1","address1": "172 W MAIN ST","address2": "","city": "MERIDEN","state": "CT","zip": "06451","zip+4": "0000","phone": "2032356305","NPI": "     1528076189"}, 
{"id": 7540,"ncpdp": "0700701","pharmacy_name": "SERAFINO PHARMACY INC #495","address1": "36 N MAIN ST","address2": "","city": "SOUTHINGTON","state": "CT","zip": "06489","zip+4": "2567","phone": "8606287979","NPI": "     1871501106"}, 
{"id": 7541,"ncpdp": "0700713","pharmacy_name": "PLANTSVILLE PHARMACY INC.","address1": "1 W MAIN ST","address2": "","city": "PLANTSVILLE","state": "CT","zip": "06479","zip+4": "1522","phone": "8606282385","NPI": "     1811933617"}, 
{"id": 7542,"ncpdp": "0700787","pharmacy_name": "SIMSBURY PHARMACY","address1": "1418 HOPMEADOW ST","address2": "","city": "SIMSBURY","state": "CT","zip": "06070","zip+4": "1493","phone": "8606584489","NPI": "     1235236431"}, 
{"id": 7543,"ncpdp": "0700840","pharmacy_name": "CVS PHARMACY #00288","address1": "839 FARMINGTON AVE RTE 6 BRIST","address2": "","city": "BRISTOL","state": "CT","zip": "06010","zip+4": "0000","phone": "8605828167","NPI": "     1114021011"}, 
{"id": 7544,"ncpdp": "0700890","pharmacy_name": "PETRICONES TORRINGTON PHARMACY","address1": "110 E MAIN ST","address2": "","city": "TORRINGTON","state": "CT","zip": "06790","zip+4": "5492","phone": "8604895511","NPI": "     1891892022"}, 
{"id": 7545,"ncpdp": "0701044","pharmacy_name": "DALE DRUG CO","address1": "2152 POQUONOCK AVE","address2": "","city": "WINDSOR","state": "CT","zip": "06095","zip+4": "0000","phone": "8606886253","NPI": "     1598740441"}, 
{"id": 7546,"ncpdp": "0701133","pharmacy_name": "BEACON PRESCRIPTIONS","address1": "25 COLLINS RD","address2": "","city": "BRISTOL","state": "CT","zip": "06010","zip+4": "3844","phone": "8605895587","NPI": "     1033141528"}, 
{"id": 7547,"ncpdp": "0701157","pharmacy_name": "RITE AID PHARMACY #10391","address1": "1203 HIGH RIDGE ROAD","address2": "","city": "STAMFORD","state": "CT","zip": "06905","zip+4": "1214","phone": "2033227669","NPI": "     1538268859"}, 
{"id": 7548,"ncpdp": "0701284","pharmacy_name": "RITE AID PHARMACY #10389","address1": "125 DANBURY ROAD","address2": "","city": "RIDGEFIELD","state": "CT","zip": "06877","zip+4": "0000","phone": "2034387378","NPI": "     1356440671"}, 
{"id": 7549,"ncpdp": "0701513","pharmacy_name": "CANFIELD CORNER PHARMACY","address1": "2 MAIN ST","address2": "","city": "WOODBURY","state": "CT","zip": "06798","zip+4": "0000","phone": "2032632595","NPI": "     1134184260"}, 
{"id": 7550,"ncpdp": "0701549","pharmacy_name": "THE MEDICINE CENTREL BORDONARO","address1": "283 S MAIN ST","address2": "","city": "PORTLAND","state": "CT","zip": "06480","zip+4": "0000","phone": "8603423390","NPI": "     1235201997"}, 
{"id": 7551,"ncpdp": "0701828","pharmacy_name": "BUNKER HILL PHARMACY","address1": "256 BUNKER HILL AVE","address2": "","city": "WATERBURY","state": "CT","zip": "06708","zip+4": "1999","phone": "2035747825","NPI": "     1649251372"}, 
{"id": 7552,"ncpdp": "0701830","pharmacy_name": "HEALTH COMPLEX PHARMACY INC","address1": "55 DEFOREST PL","address2": "","city": "WATERTOWN","state": "CT","zip": "06795","zip+4": "2189","phone": "8602748816","NPI": "     1962423913"}, 
{"id": 7553,"ncpdp": "0701854","pharmacy_name": "RITE AID PHARMACY #00513","address1": "1085 MAIN STREET","address2": "","city": "BRIDGEPORT","state": "CT","zip": "06604","zip+4": "4405","phone": "2033840051","NPI": "     1477662849"}, 
{"id": 7554,"ncpdp": "0701880","pharmacy_name": "RITE AID PHARMACY #00576","address1": "605 NORTH COLONY ROAD","address2": "","city": "WALLINGFORD","state": "CT","zip": "06492","zip+4": "3109","phone": "2032653600","NPI": "     1295844678"}, 
{"id": 7555,"ncpdp": "0701917","pharmacy_name": "RITE AID PHARMACY #00667","address1": "404 MAIN STREET","address2": "","city": "ANSONIA","state": "CT","zip": "06401","zip+4": "2303","phone": "2037343152","NPI": "     1104935584"}, 
{"id": 7556,"ncpdp": "0701943","pharmacy_name": "RITE AID PHARMACY #00744","address1": "75 BOSTON POST ROAD","address2": "","city": "WATERFORD","state": "CT","zip": "06385","zip+4": "2423","phone": "8604378880","NPI": "     1013026491"}, 
{"id": 7557,"ncpdp": "0702010","pharmacy_name": "LUPES DRUG STORE #3","address1": "2035 BLACK ROCK TURNPIKE","address2": "","city": "FAIRFIELD","state": "CT","zip": "06825","zip+4": "0000","phone": "2033681955","NPI": "     1932203510"}, 
{"id": 7558,"ncpdp": "0702452","pharmacy_name": "VISELS PHARMACY","address1": "714 DIXWELL AVE","address2": "","city": "NEW HAVEN","state": "CT","zip": "06511","zip+4": "1097","phone": "2035626878","NPI": "     1710070487"}, 
{"id": 7559,"ncpdp": "0702488","pharmacy_name": "TOWNE PHARMACY INC","address1": "1012 MAIN ST","address2": "","city": "BRANFORD","state": "CT","zip": "06405","zip+4": "3798","phone": "2034881631","NPI": "     1386773984"}, 
{"id": 7560,"ncpdp": "0702527","pharmacy_name": "APEX PHARMACY AND HOME CARE CT","address1": "2380 DIXWELL AVENUE","address2": "","city": "HAMDEN","state": "CT","zip": "06514","zip+4": "0000","phone": "2032816571","NPI": "     1780621169"}, 
{"id": 7561,"ncpdp": "0702604","pharmacy_name": "HALL BENEDICT DRUG COMPANY","address1": "767 ORANGE ST","address2": "","city": "NEW HAVEN","state": "CT","zip": "06511","zip+4": "2534","phone": "2035625131","NPI": "     1750485702"}, 
{"id": 7562,"ncpdp": "0702666","pharmacy_name": "ROTARY DRUG INC","address1": "1030 BARNUM AVE","address2": "","city": "STRATFORD","state": "CT","zip": "06614","zip+4": "0000","phone": "2033789394","NPI": "     1336106582"}, 
{"id": 7563,"ncpdp": "0702692","pharmacy_name": "BELLA VISTA PHARMACY","address1": "321 EASTERN ST","address2": "","city": "NEW HAVEN","state": "CT","zip": "06513","zip+4": "2462","phone": "2034671683","NPI": "     1396885836"}, 
{"id": 7564,"ncpdp": "0702705","pharmacy_name": "RITE AID PHARMACY #00922","address1": "1271 MAIN STREET","address2": "","city": "WATERTOWN","state": "CT","zip": "06795","zip+4": "3107","phone": "8602749191","NPI": "     1922117308"}, 
{"id": 7565,"ncpdp": "0702844","pharmacy_name": "ENGLISH DRUG COMPANY","address1": "140 GREENWOOD AVE","address2": "","city": "BETHEL","state": "CT","zip": "06801","zip+4": "0000","phone": "2037440945","NPI": "     1982684890"}, 
{"id": 7566,"ncpdp": "0702882","pharmacy_name": "BOLTON PHARMACY INC","address1": "667 BOSTON TPK","address2": "","city": "BOLTON","state": "CT","zip": "06043","zip+4": "9216","phone": "8606430165","NPI": "     1780781070"}, 
{"id": 7567,"ncpdp": "0703048","pharmacy_name": "HANCOCK PHARMACY","address1": "1557 FAIRFIELD AVE","address2": "","city": "BRIDGEPORT","state": "CT","zip": "06605","zip+4": "1935","phone": "2033674571","NPI": "     1619074010"}, 
{"id": 7568,"ncpdp": "0703062","pharmacy_name": "LUPES DRUG STORE #2","address1": "3129 MAIN ST","address2": "","city": "BRIDGEPORT","state": "CT","zip": "06606","zip+4": "4287","phone": "2033740600","NPI": "     1952324212"}, 
{"id": 7569,"ncpdp": "0703276","pharmacy_name": "BROOKFIELD PHARMACY","address1": "31 OLD RT 7","address2": "","city": "BROOKFIELD","state": "CT","zip": "06804","zip+4": "0000","phone": "2037750463","NPI": "     1740374156"}, 
{"id": 7570,"ncpdp": "0703543","pharmacy_name": "BONNEVILLE PHARMACY","address1": "77 WESTCOTT RD","address2": "","city": "DANIELSON","state": "CT","zip": "06239","zip+4": "2929","phone": "8607749362","NPI": "     1164587580"}, 
{"id": 7571,"ncpdp": "0704090","pharmacy_name": "GRANNICKS DRUG STORE INC","address1": "277 GREENWICH AVE","address2": "","city": "GREENWICH","state": "CT","zip": "06830","zip+4": "6592","phone": "2038693492","NPI": "     1184792871"}, 
{"id": 7572,"ncpdp": "0704747","pharmacy_name": "MURPHYS PHARMACY","address1": "59 WEST ST","address2": "","city": "LITCHFIELD","state": "CT","zip": "06759","zip+4": "3502","phone": "8605678325","NPI": "     1700977071"}, 
{"id": 7573,"ncpdp": "0704812","pharmacy_name": "LENOX PHARMACY","address1": "299 E CENTER ST","address2": "","city": "MANCHESTER","state": "CT","zip": "06040","zip+4": "5211","phone": "8606490896","NPI": "     1255437455"}, 
{"id": 7574,"ncpdp": "0704862","pharmacy_name": "WESTOWN PHARMACY INC","address1": "455 HARTFORD RD","address2": "","city": "MANCHESTER","state": "CT","zip": "06040","zip+4": "5764","phone": "8606499946","NPI": "     1578578175"}, 
{"id": 7575,"ncpdp": "0705054","pharmacy_name": "NATHAN HALE PHARMACY INC","address1": "26 FALLS RD","address2": "","city": "MOODUS","state": "CT","zip": "06469","zip+4": "0407","phone": "8608731481","NPI": "     1932194578"}, 
{"id": 7576,"ncpdp": "0705129","pharmacy_name": "FORD PHARMACY AND MEDICAL SUPP","address1": "2 CHURCH ST","address2": "","city": "NAUGATUCK","state": "CT","zip": "06770","zip+4": "4178","phone": "2037231376","NPI": "     1902908668"}, 
{"id": 7577,"ncpdp": "0705193","pharmacy_name": "LANGS PHARMACY INC","address1": "136 ELM ST","address2": "","city": "NEW CANAAN","state": "CT","zip": "06840","zip+4": "0000","phone": "2039669593","NPI": "     1609853274"}, 
{"id": 7578,"ncpdp": "0705636","pharmacy_name": "NEW MILFORD PHARMACY LLC","address1": "2 BANK ST","address2": "","city": "NEW MILFORD","state": "CT","zip": "06776","zip+4": "0000","phone": "8603545554","NPI": "     1134177595"}, 
{"id": 7579,"ncpdp": "0705674","pharmacy_name": "DRUG CENTER OF NEWTOWN","address1": "61 CHURCHHILL","address2": "","city": "NEWTOWN","state": "CT","zip": "06470","zip+4": "0000","phone": "2034264505","NPI": "     1508855842"}, 
{"id": 7580,"ncpdp": "0705775","pharmacy_name": "NORTH HAVEN PHARMACY","address1": "278 MAPLE AVE","address2": "","city": "NORTH HAVEN","state": "CT","zip": "06473","zip+4": "3326","phone": "2032392086","NPI": "     1588778385"}, 
{"id": 7581,"ncpdp": "0705977","pharmacy_name": "GREENVILLE DRUG STORE INC","address1": "213 CENTRAL AVE","address2": "","city": "NORWICH","state": "CT","zip": "06360","zip+4": "3898","phone": "8608899857","NPI": "     1366546087"}, 
{"id": 7582,"ncpdp": "0706020","pharmacy_name": "UTLEY AND JONES PHARMACY","address1": "112 LAFAYETTE ST","address2": "","city": "NORWICH","state": "CT","zip": "06360","zip+4": "2776","phone": "8608872538","NPI": "     1487669081"}, 
{"id": 7583,"ncpdp": "0706272","pharmacy_name": "MEDICINE SHOPPE #1442","address1": "79 EAST STREET","address2": "","city": "ROCKVILLE","state": "CT","zip": "06066","zip+4": "3837","phone": "8608752507","NPI": "     1023184785"}, 
{"id": 7584,"ncpdp": "0706323","pharmacy_name": "SALISBURY PHARMACY, LLC","address1": "20 MAIN STREET","address2": "","city": "SALISBURY","state": "CT","zip": "06068","zip+4": "1801","phone": "8604359388","NPI": "     1295783645"}, 
{"id": 7585,"ncpdp": "0706347","pharmacy_name": "SHARON PHARMACY INC","address1": "8 GAY ST","address2": "","city": "SHARON","state": "CT","zip": "06069","zip+4": "0000","phone": "8603645272","NPI": "     1487747630"}, 
{"id": 7586,"ncpdp": "0706400","pharmacy_name": "SOMERS PHARMACY","address1": "629 MAIN ST","address2": "","city": "SOMERS","state": "CT","zip": "06071","zip+4": "2102","phone": "8607493433","NPI": "     1245344597"}, 
{"id": 7587,"ncpdp": "0706498","pharmacy_name": "SWITZERS PHARMACY","address1": "322 PEQUOT AVE","address2": "","city": "SOUTHPORT","state": "CT","zip": "06890","zip+4": "0000","phone": "2032597891","NPI": "     1023156882"}, 
{"id": 7588,"ncpdp": "0707173","pharmacy_name": "DELLA PIETRA PHARMACY #696","address1": "792 HIGHLAND AVE","address2": "","city": "WATERBURY","state": "CT","zip": "06708","zip+4": "4197","phone": "2037540181","NPI": "     1861506164"}, 
{"id": 7589,"ncpdp": "0707490","pharmacy_name": "SUBURBAN PHARMACY","address1": "344 N MAIN ST","address2": "","city": "W HARTFORD","state": "CT","zip": "06117","zip+4": "2575","phone": "8602363564","NPI": "     1639275183"}, 
{"id": 7590,"ncpdp": "0707553","pharmacy_name": "ACHORNS PHARMACY","address1": "166 MAIN ST","address2": "","city": "WESTPORT","state": "CT","zip": "06880","zip+4": "3383","phone": "2032260741","NPI": "     1437229051"}, 
{"id": 7591,"ncpdp": "0707565","pharmacy_name": "COLONIAL DRUGGISTS INC","address1": "611 POST ROAD EAST","address2": "","city": "WESTPORT","state": "CT","zip": "06880","zip+4": "0000","phone": "2032279538","NPI": "     1255316139"}, 
{"id": 7592,"ncpdp": "0707921","pharmacy_name": "WOODBURY DRUG","address1": "238 MAIN ST SO","address2": "","city": "WOODBURY","state": "CT","zip": "06798","zip+4": "0000","phone": "2032632282","NPI": "     1609953348"}, 
{"id": 7593,"ncpdp": "0708036","pharmacy_name": "SLAVINS PROFESSIONAL PHARMACY","address1": "922 WASHINGTON BLVD","address2": "","city": "STAMFORD","state": "CT","zip": "06901","zip+4": "2996","phone": "2033232161","NPI": "     1881793776"}, 
{"id": 7594,"ncpdp": "0708137","pharmacy_name": "HEBRON PHARMACY","address1": "117 MAIN ST","address2": "","city": "HEBRON","state": "CT","zip": "06248","zip+4": "0000","phone": "8602283888","NPI": "     1265547475"}, 
{"id": 7595,"ncpdp": "0708327","pharmacy_name": "CVS PHARMACY #00231","address1": "142 TALCOTTVILLE RD","address2": "","city": "VERNON","state": "CT","zip": "06066","zip+4": "0000","phone": "8608711661","NPI": "     1023112927"}, 
{"id": 7596,"ncpdp": "0708353","pharmacy_name": "SOUTHWOOD PHARMACY","address1": "89 RAFFIA RD","address2": "","city": "ENFIELD","state": "CT","zip": "06082","zip+4": "5177","phone": "8607498334","NPI": "     1003968488"}, 
{"id": 7597,"ncpdp": "0708391","pharmacy_name": "SHOPRITE PHARMACY OF MANCHESTE","address1": "214 SPENCER STREET","address2": "","city": "MANCHESTER","state": "CT","zip": "06040","zip+4": "0000","phone": "8606453244","NPI": "     1083754980"}, 
{"id": 7598,"ncpdp": "0708543","pharmacy_name": "FORT HILL PHARMACY INC","address1": "116 FORT HILL RD","address2": "","city": "GROTON","state": "CT","zip": "06340","zip+4": "4396","phone": "8604456431","NPI": "     1518063965"}, 
{"id": 7599,"ncpdp": "0708618","pharmacy_name": "RITE AID PHARMACY #00441","address1": "66 CHURCH STREET","address2": "","city": "NEW HAVEN","state": "CT","zip": "06510","zip+4": "3304","phone": "2038386141","NPI": "     1831208214"}, 
{"id": 7600,"ncpdp": "0708872","pharmacy_name": "HOPMEADOW APOTHECARY","address1": "1300 HOPMEADOW ST","address2": "","city": "SIMSBURY","state": "CT","zip": "06070","zip+4": "1411","phone": "8606513331","NPI": "     1851401814"}, 
{"id": 7601,"ncpdp": "0708911","pharmacy_name": "CVS PHARMACY #00185","address1": "277 BANK ST","address2": "","city": "SEYMOUR","state": "CT","zip": "06483","zip+4": "0000","phone": "2038889068","NPI": "     1851496699"}, 
{"id": 7602,"ncpdp": "0709139","pharmacy_name": "RITE AID PHARMACY #00475","address1": "167 MAIN STREET","address2": "","city": "SOUTHINGTON","state": "CT","zip": "06489","zip+4": "2505","phone": "8606282444","NPI": "     1740399120"}, 
{"id": 7603,"ncpdp": "0709177","pharmacy_name": "CVS PHARMACY #00294","address1": "177 COLUMBUS BLVD","address2": "","city": "NEW BRITAIN","state": "CT","zip": "06051","zip+4": "0000","phone": "8602293757","NPI": "     1932203833"}, 
{"id": 7604,"ncpdp": "0709189","pharmacy_name": "CVS PHARMACY #00333","address1": "976 1/2-978 FARMINGTON AVE","address2": "","city": "WEST HARTFORD","state": "CT","zip": "06107","zip+4": "0000","phone": "8605215844","NPI": "     1760587505"}, 
{"id": 7605,"ncpdp": "0709204","pharmacy_name": "SHOPRITE PHARMACY #314","address1": "943 WOLCOTT ST","address2": "","city": "WATERBURY","state": "CT","zip": "06705","zip+4": "0000","phone": "2037531718","NPI": "     1699815589"}, 
{"id": 7606,"ncpdp": "0709280","pharmacy_name": "PROFESSIONAL PHCY OF S NORWALK","address1": "32 STRAWBERRY HILL COURT","address2": "","city": "STAMFORD","state": "CT","zip": "06902","zip+4": "0000","phone": "2033239988","NPI": "     1124113253"}, 
{"id": 7607,"ncpdp": "0709456","pharmacy_name": "CVS PHARMACY #00348","address1": "1078 SILAS DEAN HWY","address2": "","city": "WETHERSFIELD","state": "CT","zip": "06109","zip+4": "0000","phone": "8605292535","NPI": "     1841394749"}, 
{"id": 7608,"ncpdp": "0709470","pharmacy_name": "CVS PHARMACY #00350","address1": "566 FARMINGTON AVE","address2": "","city": "HARTFORD","state": "CT","zip": "06105","zip+4": "0000","phone": "8602339673","NPI": "     1750485652"}, 
{"id": 7609,"ncpdp": "0709482","pharmacy_name": "CVS PHARMACY #00349","address1": "484 WINDSOR AVE","address2": "","city": "WINDSOR","state": "CT","zip": "06095","zip+4": "0000","phone": "8606885265","NPI": "     1669576567"}, 
{"id": 7610,"ncpdp": "0709545","pharmacy_name": "TOWNE APOTHECARY LLCC","address1": "95 MAIN ST SOUTH","address2": "","city": "BETHLEHEM","state": "CT","zip": "06751","zip+4": "2022","phone": "2032667801","NPI": "     1295740892"}, 
{"id": 7611,"ncpdp": "0709557","pharmacy_name": "CVS PHARMACY #01903","address1": "799 824 PARK RD","address2": "","city": "BLOOMFIELD","state": "CT","zip": "06002","zip+4": "0000","phone": "8602431704","NPI": "     1679678411"}, 
{"id": 7612,"ncpdp": "0709610","pharmacy_name": "CVS PHARMACY #00377","address1": "915 POQUONNOCK RD.","address2": "","city": "GROTON","state": "CT","zip": "06340","zip+4": "0000","phone": "8604460912","NPI": "     1578667473"}, 
{"id": 7613,"ncpdp": "0709660","pharmacy_name": "CVS PHARMACY #00364","address1": "308 MAIN ST EXTENSION","address2": "","city": "MIDDLETOWN","state": "CT","zip": "06457","zip+4": "0000","phone": "8603441857","NPI": "     1487758389"}, 
{"id": 7614,"ncpdp": "0709785","pharmacy_name": "MACKENZIES PHARMACY","address1": "930 WHITE PLAINS RD","address2": "","city": "TRUMBULL","state": "CT","zip": "06611","zip+4": "4550","phone": "2032612541","NPI": "     1427052844"}, 
{"id": 7615,"ncpdp": "0709824","pharmacy_name": "RITE AID PHARMACY #00198","address1": "271 ELLINGTON ROAD","address2": "","city": "EAST HARTFORD","state": "CT","zip": "06108","zip+4": "1129","phone": "8605286115","NPI": "     1659480036"}, 
{"id": 7616,"ncpdp": "0709898","pharmacy_name": "CVS PHARMACY #00459","address1": "2639 MAIN ST","address2": "","city": "GLASTONBURY","state": "CT","zip": "06033","zip+4": "0000","phone": "8606591329","NPI": "     1295839199"}, 
{"id": 7617,"ncpdp": "0709925","pharmacy_name": "MEDICINE SHOPPE PHARMACY #1821","address1": "202 LEAVENWORTH RD","address2": "","city": "SHELTON","state": "CT","zip": "06484","zip+4": "0000","phone": "2039298668","NPI": "     1508964800"}, 
{"id": 7618,"ncpdp": "0709937","pharmacy_name": "RITE AID PHARMACY #01033","address1": "85 MIDDLETOWN AVENUE","address2": "","city": "NORTH HAVEN","state": "CT","zip": "06473","zip+4": "3927","phone": "2038653179","NPI": "     1568571941"}, 
{"id": 7619,"ncpdp": "0710005","pharmacy_name": "RITE AID PHARMACY #01087","address1": "151 HIGHLAND AVENUE","address2": "","city": "CHESHIRE","state": "CT","zip": "06410","zip+4": "2520","phone": "2032723543","NPI": "     1477662856"}, 
{"id": 7620,"ncpdp": "0710067","pharmacy_name": "MEDICINE SHOPPE #0232","address1": "613 BROAD STREET","address2": "","city": "NEW LONDON","state": "CT","zip": "06320","zip+4": "2544","phone": "8604420669","NPI": "     1154332641"}, 
{"id": 7621,"ncpdp": "0710207","pharmacy_name": "RITE AID PHARMACY #01155","address1": "335 CENTER STREET","address2": "","city": "MANCHESTER","state": "CT","zip": "06040","zip+4": "3922","phone": "8606499110","NPI": "     1386753762"}, 
{"id": 7622,"ncpdp": "0710271","pharmacy_name": "CVS PHARMACY #00388","address1": "613 BOSTON POST RD RTE 79 NE I","address2": "","city": "MADISON","state": "CT","zip": "06443","zip+4": "0000","phone": "2032453165","NPI": "     1104920008"}, 
{"id": 7623,"ncpdp": "0710372","pharmacy_name": "SHOPRITE PHARMACY #390","address1": "240 SHIPPAN AVENUE","address2": "","city": "STAMFORD","state": "CT","zip": "06902","zip+4": "0000","phone": "2033233491","NPI": "     1376683284"}, 
{"id": 7624,"ncpdp": "0710384","pharmacy_name": "RITE AID PHARMACY #01214","address1": "331 WEST STREET","address2": "","city": "LITCHFIELD","state": "CT","zip": "06759","zip+4": "3406","phone": "8605677064","NPI": "     1194834572"}, 
{"id": 7625,"ncpdp": "0710586","pharmacy_name": "CVS PHARMACY #00671","address1": "1099 NEW BRITTAIN AVE","address2": "","city": "WEST HARTFORD","state": "CT","zip": "06110","zip+4": "0000","phone": "8602366181","NPI": "     1013011915"}, 
{"id": 7626,"ncpdp": "0710649","pharmacy_name": "VITAL CARE OF CONNECTICUT INC","address1": "75 MAIN ST","address2": "","city": "NORWALK","state": "CT","zip": "06851","zip+4": "4713","phone": "2038450616","NPI": "     1487738746"}, 
{"id": 7627,"ncpdp": "0710651","pharmacy_name": "CVS PHARMACY #00692","address1": "162 WASHINGTON AVE","address2": "","city": "NORTH HAVEN","state": "CT","zip": "06473","zip+4": "0000","phone": "2022394071","NPI": "     1922102821"}, 
{"id": 7628,"ncpdp": "0710663","pharmacy_name": "CVS PHARMACY #00696","address1": "14 CANDLEWOOD LAKE RD","address2": "","city": "BROOKFIELD","state": "CT","zip": "06804","zip+4": "0000","phone": "2037752709","NPI": "     1831293737"}, 
{"id": 7629,"ncpdp": "0710687","pharmacy_name": "CVS PHARMACY #00629","address1": "146 SOUTH ST","address2": "","city": "DANBURY","state": "CT","zip": "06810","zip+4": "0000","phone": "2037978919","NPI": "     1740384643"}, 
{"id": 7630,"ncpdp": "0710702","pharmacy_name": "RITE AID PHARMACY #01375","address1": "56 RUBBER AVENUE","address2": "","city": "NAUGATUCK","state": "CT","zip": "06770","zip+4": "4112","phone": "2037237745","NPI": "     1003925488"}, 
{"id": 7631,"ncpdp": "0710790","pharmacy_name": "RITE AID PHARMACY #01404","address1": "30 GERMANTOWN ROAD","address2": "GERMANTOWN PLAZA","city": "DANBURY","state": "CT","zip": "06810","zip+4": "5033","phone": "2037970223","NPI": "     1912016395"}, 
{"id": 7632,"ncpdp": "0710841","pharmacy_name": "CVS PHARMACY #00738","address1": "467 MAIN ST","address2": "","city": "RIDGEFIELD","state": "CT","zip": "06877","zip+4": "0000","phone": "2034318888","NPI": "     1659475556"}, 
{"id": 7633,"ncpdp": "0710865","pharmacy_name": "RITE AID PHARMACY #01427","address1": "430 A NORTH MAIN STREET","address2": "","city": "BRISTOL","state": "CT","zip": "06010","zip+4": "4117","phone": "8605823491","NPI": "     1821107202"}, 
{"id": 7634,"ncpdp": "0710877","pharmacy_name": "CVS PHARMACY #00691","address1": "1181 MAIN ST","address2": "","city": "NEWINGTON","state": "CT","zip": "06111","zip+4": "0000","phone": "8606671888","NPI": "     1568566461"}, 
{"id": 7635,"ncpdp": "0710891","pharmacy_name": "RITE AID PHARMACY #01437","address1": "92 WILLOW STREET","address2": "","city": "TORRINGTON","state": "CT","zip": "06790","zip+4": "5501","phone": "8604825522","NPI": "     1730298118"}, 
{"id": 7636,"ncpdp": "0710942","pharmacy_name": "CVS PHARMACY #00750","address1": "875 ENFIELD ST ENFIELD PLZ SHO","address2": "","city": "ENFIELD","state": "CT","zip": "06082","zip+4": "0000","phone": "8607413013","NPI": "     1588769327"}, 
{"id": 7637,"ncpdp": "0711019","pharmacy_name": "CVS PHARMACY #00718","address1": "24 36 PERSHING DRIVE","address2": "","city": "ANSONIA","state": "CT","zip": "06401","zip+4": "0000","phone": "2037357837","NPI": "     1477657377"}, 
{"id": 7638,"ncpdp": "0711095","pharmacy_name": "CVS PHARMACY #00623","address1": "397 POST RD E","address2": "","city": "WESTPORT","state": "CT","zip": "06880","zip+4": "0000","phone": "2032277354","NPI": "     1386748283"}, 
{"id": 7639,"ncpdp": "0711108","pharmacy_name": "CVS PHARMACY #00760","address1": "713 WEST MAIN STREET","address2": "","city": "NEW BRITAIN","state": "CT","zip": "06053","zip+4": "0000","phone": "8602243494","NPI": "     1396840138"}, 
{"id": 7640,"ncpdp": "0711134","pharmacy_name": "MEDICAL CENTER PHARMACY #50","address1": "50 YORK ST","address2": "","city": "NEW HAVEN","state": "CT","zip": "06511","zip+4": "5663","phone": "2036887064","NPI": "     1336263763"}, 
{"id": 7641,"ncpdp": "0711184","pharmacy_name": "CVS PHARMACY #00775","address1": "2045 DIXWELL AVE","address2": "","city": "HAMDEN","state": "CT","zip": "06514","zip+4": "0000","phone": "2032870835","NPI": "     1194829093"}, 
{"id": 7642,"ncpdp": "0711209","pharmacy_name": "MEDICAL PHARMACY","address1": "1213 MAIN ST","address2": "","city": "WILLIMANTIC","state": "CT","zip": "06226","zip+4": "0000","phone": "8604231661","NPI": "     1831206218"}, 
{"id": 7643,"ncpdp": "0711425","pharmacy_name": "CVS PHARMACY #00798","address1": "299 305 WHITE ST","address2": "","city": "DANBURY","state": "CT","zip": "06810","zip+4": "0000","phone": "2037909483","NPI": "     1003910902"}, 
{"id": 7644,"ncpdp": "0711437","pharmacy_name": "NORTH STREET PHARMACY","address1": "1043 NORTH STREET","address2": "","city": "GREENWICH","state": "CT","zip": "06831","zip+4": "0000","phone": "2038692130","NPI": "     1790838365"}, 
{"id": 7645,"ncpdp": "0711463","pharmacy_name": "CVS PHARMACY #00811","address1": "1168 WHALLEY AVE","address2": "","city": "NEW HAVEN","state": "CT","zip": "06515","zip+4": "0000","phone": "2033894714","NPI": "     1912001819"}, 
{"id": 7646,"ncpdp": "0711514","pharmacy_name": "APRIA HEALTHCARE #006","address1": "40 SEBETHE DRIVE","address2": "","city": "CROMWELL","state": "CT","zip": "06416","zip+4": "0000","phone": "8003335082","NPI": "     1457420663"}, 
{"id": 7647,"ncpdp": "0711639","pharmacy_name": "CVS PHARMACY #00822","address1": "40 EAST STREET","address2": "","city": "NEW MILFORD","state": "CT","zip": "06776","zip+4": "0000","phone": "8603544455","NPI": "     1821192725"}, 
{"id": 7648,"ncpdp": "0711653","pharmacy_name": "PICKETT DRUG","address1": "675 N MAIN ST","address2": "","city": "WATERBURY","state": "CT","zip": "06704","zip+4": "3599","phone": "2037535158","NPI": "     1669486940"}, 
{"id": 7649,"ncpdp": "0711689","pharmacy_name": "THE RYAN PHARMACY","address1": "30 MILL ST","address2": "","city": "UNIONVILLE","state": "CT","zip": "06085","zip+4": "1000","phone": "8606733219","NPI": "     1285749721"}, 
{"id": 7650,"ncpdp": "0711691","pharmacy_name": "CVS PHARMACY #00839","address1": "14 FARMINGTON AVE","address2": "","city": "PLAINVILLE","state": "CT","zip": "06062","zip+4": "0000","phone": "8607939248","NPI": "     1730283631"}, 
{"id": 7651,"ncpdp": "0711716","pharmacy_name": "MEDICINE SHOPPE #1758","address1": "296 BEDFORD ST","address2": "","city": "STAMFORD","state": "CT","zip": "06901","zip+4": "1720","phone": "2033274479","NPI": "     1558439356"}, 
{"id": 7652,"ncpdp": "0711728","pharmacy_name": "BEACON PRESCRIPTIONS SOUTH STR","address1": "57 SOUTH ST","address2": "","city": "BRISTOL","state": "CT","zip": "06010","zip+4": "6597","phone": "8605831006","NPI": "     1831161918"}, 
{"id": 7653,"ncpdp": "0711742","pharmacy_name": "WALGREEN DRUG STORE #3944","address1": "330 E MAIN ST","address2": "","city": "BRANFORD","state": "CT","zip": "06405","zip+4": "0000","phone": "2034810387","NPI": "     1750396008"}, 
{"id": 7654,"ncpdp": "0711754","pharmacy_name": "WALGREEN DRUG STORE #11825","address1": "525 FARMINGTON AVE","address2": "","city": "BRISTOL","state": "CT","zip": "06010","zip+4": "0000","phone": "8605833638","NPI": "     1669487914"}, 
{"id": 7655,"ncpdp": "0711766","pharmacy_name": "WALGREEN DRUG STORE #06968","address1": "101 FEDERAL RD","address2": "","city": "DANBURY","state": "CT","zip": "06811","zip+4": "4001","phone": "2037987753","NPI": "     1578578829"}, 
{"id": 7656,"ncpdp": "0711778","pharmacy_name": "WALGREEN DRUG STORE #1873","address1": "138 HEIGHTS RD","address2": "","city": "DARIEN","state": "CT","zip": "06820","zip+4": "0000","phone": "2036553515","NPI": "     1295740546"}, 
{"id": 7657,"ncpdp": "0711780","pharmacy_name": "WALGREEN DRUG STORE #7566","address1": "922 SILVER LN","address2": "","city": "EAST HARTFORD","state": "CT","zip": "06118","zip+4": "0000","phone": "8605694122","NPI": "     1003953449"}, 
{"id": 7658,"ncpdp": "0711792","pharmacy_name": "WALGREEN DRUG STORE #1824","address1": "30 HAZARD AVE","address2": "","city": "ENFIELD","state": "CT","zip": "06082","zip+4": "0000","phone": "8607413505","NPI": "     1104831452"}, 
{"id": 7659,"ncpdp": "0711805","pharmacy_name": "WALGREEN DRUG STORE #1835","address1": "740 VILLA AVENUE","address2": "","city": "FAIRFIELD","state": "CT","zip": "06430","zip+4": "0000","phone": "2033363553","NPI": "     1013922368"}, 
{"id": 7660,"ncpdp": "0711817","pharmacy_name": "WALGREEN DRUG STORE #3827","address1": "161 WASHINGTON ST","address2": "","city": "HARTFORD","state": "CT","zip": "06106","zip+4": "0000","phone": "8605225404","NPI": "     1922013275"}, 
{"id": 7661,"ncpdp": "0711829","pharmacy_name": "WALGREEN DRUG STORE #5407","address1": "295 MAIN ST","address2": "","city": "MANCHESTER","state": "CT","zip": "06040","zip+4": "0000","phone": "8606498899","NPI": "     1831104181"}, 
{"id": 7662,"ncpdp": "0711831","pharmacy_name": "WALGREEN DRUG STORE #3579","address1": "1471 WHALLEY AVENUE","address2": "","city": "NEW HAVEN","state": "CT","zip": "06515","zip+4": "0000","phone": "2033877079","NPI": "     1740295096"}, 
{"id": 7663,"ncpdp": "0711843","pharmacy_name": "WALGREEN DRUG STORE #7935","address1": "54 BOSTON POST RD","address2": "","city": "ORANGE","state": "CT","zip": "06477","zip+4": "0000","phone": "2037955443","NPI": "     1659386902"}, 
{"id": 7664,"ncpdp": "0711855","pharmacy_name": "WALGREEN DRUG STORE #5134","address1": "540 BUSHY HILL ROAD","address2": "","city": "SIMSBURY","state": "CT","zip": "06070","zip+4": "0000","phone": "8606513877","NPI": "     1568477818"}, 
{"id": 7665,"ncpdp": "0711867","pharmacy_name": "WALGREEN DRUG STORE #3359","address1": "1606 BARNUM AVENUE","address2": "","city": "STRATFORD","state": "CT","zip": "06614","zip+4": "0000","phone": "2033777502","NPI": "     1477568723"}, 
{"id": 7666,"ncpdp": "0711879","pharmacy_name": "WALGREEN DRUG STORE #1826","address1": "324 NORTH MAIN ST","address2": "","city": "WEST HARTFORD","state": "CT","zip": "06117","zip+4": "0000","phone": "8602361980","NPI": "     1386659639"}, 
{"id": 7667,"ncpdp": "0711881","pharmacy_name": "WALGREEN DRUG STORE #1834","address1": "1870 E STATE ST","address2": "","city": "WESTPORT","state": "CT","zip": "06880","zip+4": "0000","phone": "2032598074","NPI": "     1194730440"}, 
{"id": 7668,"ncpdp": "0711893","pharmacy_name": "WALGREEN DRUG STORE #4490","address1": "1100 SILAS DEANE HWY","address2": "","city": "WETHERSFIELD","state": "CT","zip": "06109","zip+4": "0000","phone": "8607211708","NPI": "     1003821356"}, 
{"id": 7669,"ncpdp": "0711906","pharmacy_name": "WALGREEN DRUG STORE #7333","address1": "1475 MAIN ST","address2": "","city": "WILLIMANTIC","state": "CT","zip": "06226","zip+4": "0000","phone": "8604234273","NPI": "     1912912262"}, 
{"id": 7670,"ncpdp": "0711920","pharmacy_name": "CVS PHARMACY #00854","address1": "327 MAIN ST","address2": "","city": "NORWALK","state": "CT","zip": "06851","zip+4": "0000","phone": "2038472896","NPI": "     1649374547"}, 
{"id": 7671,"ncpdp": "0711956","pharmacy_name": "STOP AND SHOP PHARMACY #687","address1": "22 LEETES ISLAND ROAD","address2": "","city": "BRANFORD","state": "CT","zip": "06405","zip+4": "0000","phone": "2034813392","NPI": "     1265464127"}, 
{"id": 7672,"ncpdp": "0711970","pharmacy_name": "MANCHESTER PHARMACY LLC","address1": "348 MAIN STREET","address2": "","city": "MANCHESTER","state": "CT","zip": "06040","zip+4": "0000","phone": "8606491025","NPI": "     1871538280"}, 
{"id": 7673,"ncpdp": "0711982","pharmacy_name": "STOP AND SHOP PHARMACY #629","address1": "898 BRIDGEPORT AVE","address2": "","city": "SHELTON","state": "CT","zip": "06484","zip+4": "0000","phone": "2039293887","NPI": "     1174555031"}, 
{"id": 7674,"ncpdp": "0711994","pharmacy_name": "STOP AND SHOP PHARMACY #652","address1": "215 E MAIN STREET","address2": "","city": "CLINTON","state": "CT","zip": "06413","zip+4": "0000","phone": "8606696636","NPI": "     1083646947"}, 
{"id": 7675,"ncpdp": "0712009","pharmacy_name": "STOP AND SHOP PHARMACY #659","address1": "72 NEW TOWN ROAD","address2": "","city": "DANBURY","state": "CT","zip": "06810","zip+4": "0000","phone": "2037980735","NPI": "     1891727756"}, 
{"id": 7676,"ncpdp": "0712011","pharmacy_name": "STOP AND SHOP PHARMACY #667","address1": "117 BOSTON POST ROAD","address2": "","city": "WATERFORD","state": "CT","zip": "06385","zip+4": "0000","phone": "8604426698","NPI": "     1700818663"}, 
{"id": 7677,"ncpdp": "0712023","pharmacy_name": "STOP AND SHOP PHARMACY #606","address1": "35 SHUNPIKE ROAD","address2": "","city": "CROMWELL","state": "CT","zip": "06416","zip+4": "0000","phone": "8606356303","NPI": "     1619909579"}, 
{"id": 7678,"ncpdp": "0712035","pharmacy_name": "STOP AND SHOP PHARMACY #674","address1": "1391 MAIN STREET","address2": "","city": "WILLIMANTIC","state": "CT","zip": "06226","zip+4": "0000","phone": "8604567240","NPI": "     1528090487"}, 
{"id": 7679,"ncpdp": "0712047","pharmacy_name": "STOP AND SHOP PHARMACY #676","address1": "259 BULL HILL LANE","address2": "","city": "ORANGE","state": "CT","zip": "06477","zip+4": "0000","phone": "2037953514","NPI": "     1437181393"}, 
{"id": 7680,"ncpdp": "0712059","pharmacy_name": "STOP AND SHOP PHARMACY #679","address1": "240 CHASE AVENUE","address2": "","city": "WATERBURY","state": "CT","zip": "06704","zip+4": "0000","phone": "2035971498","NPI": "     1346272200"}, 
{"id": 7681,"ncpdp": "0712061","pharmacy_name": "STOP AND SHOP PHARMACY #683","address1": "180 DANBURY ROAD","address2": "","city": "NEW MILFORD","state": "CT","zip": "06776","zip+4": "0000","phone": "8603553763","NPI": "     1154353019"}, 
{"id": 7682,"ncpdp": "0712073","pharmacy_name": "STOP AND SHOP PHARMACY #692","address1": "370 HEMINGWAY AVENUE","address2": "","city": "EAST HAVEN","state": "CT","zip": "06512","zip+4": "0000","phone": "2034681113","NPI": "     1255363115"}, 
{"id": 7683,"ncpdp": "0712085","pharmacy_name": "ORONOQUE PHARMACY","address1": "7365 MAIN ST","address2": "","city": "STRATFORD","state": "CT","zip": "06614","zip+4": "0000","phone": "2033784400","NPI": "     1629039383"}, 
{"id": 7684,"ncpdp": "0712150","pharmacy_name": "CVS PHARMACY #00840","address1": "908 910 MAPLE AVE","address2": "","city": "HARTFORD","state": "CT","zip": "06114","zip+4": "0000","phone": "8609567107","NPI": "     1558465450"}, 
{"id": 7685,"ncpdp": "0712162","pharmacy_name": "SEYBRIDGE PHARMACY INC","address1": "37 NEW HAVEN RD","address2": "","city": "SEYMOUR","state": "CT","zip": "06483","zip+4": "3456","phone": "2038880073","NPI": "     1992763882"}, 
{"id": 7686,"ncpdp": "0712174","pharmacy_name": "RITE AID PHARMACY #01790","address1": "141 MERIDEN ROAD","address2": "","city": "WATERBURY","state": "CT","zip": "06705","zip+4": "1937","phone": "2035730378","NPI": "     1831262831"}, 
{"id": 7687,"ncpdp": "0712225","pharmacy_name": "STOP AND SHOP PHARMACY #682","address1": "220 RTE 12 GROTON SQ SHOP CENT","address2": "","city": "GROTON","state": "CT","zip": "06340","zip+4": "0000","phone": "8604458807","NPI": "     1063444925"}, 
{"id": 7688,"ncpdp": "0712251","pharmacy_name": "CVS PHARMACY #00865","address1": "839 E MAIN ST","address2": "","city": "MERIDEN","state": "CT","zip": "06450","zip+4": "0000","phone": "2032358285","NPI": "     1467556365"}, 
{"id": 7689,"ncpdp": "0712275","pharmacy_name": "CVS PHARMACY #00857","address1": "660 FOXON RD","address2": "","city": "EAST HAVEN","state": "CT","zip": "06513","zip+4": "0000","phone": "2034678876","NPI": "     1073617973"}, 
{"id": 7690,"ncpdp": "0712340","pharmacy_name": "CVS PHARMACY #00916","address1": "1650 WATERTOWN AVE","address2": "","city": "WATERBURY","state": "CT","zip": "06708","zip+4": "0000","phone": "2037549399","NPI": "     1982708889"}, 
{"id": 7691,"ncpdp": "0712376","pharmacy_name": "NELSONS PHARMACY","address1": "153 MAPLE ST","address2": "","city": "NAUGATUCK","state": "CT","zip": "06770","zip+4": "4265","phone": "2037292297","NPI": "     1023180973"}, 
{"id": 7692,"ncpdp": "0712390","pharmacy_name": "WALGREEN DRUG STORE #7584","address1": "394 CAMPBELL AVE","address2": "","city": "WEST HAVEN","state": "CT","zip": "06516","zip+4": "0000","phone": "2039375247","NPI": "     1821003179"}, 
{"id": 7693,"ncpdp": "0712415","pharmacy_name": "RITE AID PHARMACY #01882","address1": "325 FERRY STREET","address2": "","city": "NEW HAVEN","state": "CT","zip": "06513","zip+4": "3702","phone": "2037770695","NPI": "     1649389024"}, 
{"id": 7694,"ncpdp": "0712465","pharmacy_name": "STOP AND SHOP PHARMACY #628","address1": "597 FARMINGTON AVE","address2": "","city": "BRISTOL","state": "CT","zip": "06010","zip+4": "0000","phone": "8605824080","NPI": "     1972535839"}, 
{"id": 7695,"ncpdp": "0712477","pharmacy_name": "GRANBY PHARMACY","address1": "9 HARTFORD AVE","address2": "","city": "GRANBY","state": "CT","zip": "06035","zip+4": "0167","phone": "8606532517","NPI": "     1326056516"}, 
{"id": 7696,"ncpdp": "0712491","pharmacy_name": "CVS PHARMACY #01027","address1": "313 WEST MAIN ST","address2": "","city": "NORWICH","state": "CT","zip": "06360","zip+4": "0000","phone": "8608875970","NPI": "     1790889699"}, 
{"id": 7697,"ncpdp": "0712542","pharmacy_name": "STOP AND SHOP PHARMACY #639","address1": "200 E MAIN STREET","address2": "","city": "STRATFORD","state": "CT","zip": "06614","zip+4": "0000","phone": "2033755717","NPI": "     1881626745"}, 
{"id": 7698,"ncpdp": "0712554","pharmacy_name": "OXFORD PHARMACY","address1": "100 OXFORD RD","address2": "","city": "OXFORD","state": "CT","zip": "06478","zip+4": "1956","phone": "2038884567","NPI": "     1104876036"}, 
{"id": 7699,"ncpdp": "0712566","pharmacy_name": "MEDICAL CENTER PHARMACY #800","address1": "800 HOWARD AVE","address2": "","city": "NEW HAVEN","state": "CT","zip": "06519","zip+4": "0000","phone": "2036886816","NPI": "     1285756858"}, 
{"id": 7700,"ncpdp": "0712578","pharmacy_name": "CVS PHARMACY #00941","address1": "844 JONES HILL RD","address2": "","city": "WEST HAVEN","state": "CT","zip": "06516","zip+4": "0000","phone": "2039335499","NPI": "     1114022951"}, 
{"id": 7701,"ncpdp": "0712580","pharmacy_name": "CVS PHARMACY #00942","address1": "542 PROVIDENCE RD","address2": "","city": "BROOKLYN","state": "CT","zip": "06239","zip+4": "0000","phone": "8607790523","NPI": "     1922103761"}, 
{"id": 7702,"ncpdp": "0712629","pharmacy_name": "CVS PHARMACY #01070","address1": "90 MAIN ST","address2": "","city": "WINDSOR LOCKS","state": "CT","zip": "06096","zip+4": "0000","phone": "8606232407","NPI": "     1609970508"}, 
{"id": 7703,"ncpdp": "0712631","pharmacy_name": "STOLLS PHARMACY INC","address1": "185 GROVE ST","address2": "","city": "WATERBURY","state": "CT","zip": "06710","zip+4": "2292","phone": "2035750199","NPI": "     1710991047"}, 
{"id": 7704,"ncpdp": "0712643","pharmacy_name": "BEACON PRESCRIPTIONS SOUTHINGT","address1": "609 NORTH MAIN ST","address2": "","city": "SOUTHINGTON","state": "CT","zip": "06489","zip+4": "0000","phone": "8606283972","NPI": "     1184730814"}, 
{"id": 7705,"ncpdp": "0712655","pharmacy_name": "ABLE CARE PHARMACY AND MEDICAL","address1": "15 PALOMBA DR","address2": "","city": "ENFIELD","state": "CT","zip": "06082","zip+4": "3806","phone": "8607450183","NPI": "     1811008071"}, 
{"id": 7706,"ncpdp": "0712679","pharmacy_name": "CVS PHARMACY #00953","address1": "45 SOUTH MAIN ST FARMINGTON PL","address2": "","city": "UNIONVILLE","state": "CT","zip": "06085","zip+4": "0000","phone": "8606759210","NPI": "     1831294677"}, 
{"id": 7707,"ncpdp": "0712693","pharmacy_name": "CVS PHARMACY #01038","address1": "1044 BLVD","address2": "","city": "WEST HARTFORD","state": "CT","zip": "06119","zip+4": "0000","phone": "8602369348","NPI": "     1518061415"}, 
{"id": 7708,"ncpdp": "0712706","pharmacy_name": "CVS PHARMACY #01097","address1": "661 MAIN ST","address2": "","city": "TORRINGTON","state": "CT","zip": "06790","zip+4": "0000","phone": "8604828298","NPI": "     1427152321"}, 
{"id": 7709,"ncpdp": "0712718","pharmacy_name": "CVS PHARMACY #01098","address1": "47 HAZARD AVE","address2": "","city": "ENFIELD","state": "CT","zip": "06082","zip+4": "0000","phone": "8607410751","NPI": "     1336243237"}, 
{"id": 7710,"ncpdp": "0712720","pharmacy_name": "CVS PHARMACY #01028","address1": "724 QUEENS ST EDWARDS PLZ","address2": "","city": "SOUTHINGTON","state": "CT","zip": "06489","zip+4": "0000","phone": "8606217371","NPI": "     1740385582"}, 
{"id": 7711,"ncpdp": "0712744","pharmacy_name": "CVS PHARMACY #01101","address1": "16 MAIN ST","address2": "","city": "EAST HARTFORD","state": "CT","zip": "06118","zip+4": "0000","phone": "8605681700","NPI": "     1245334143"}, 
{"id": 7712,"ncpdp": "0712756","pharmacy_name": "CVS PHARMACY #01102","address1": "341 COTTAGE GROVE RD","address2": "","city": "BLOOMFIELD","state": "CT","zip": "06002","zip+4": "0000","phone": "8602438351","NPI": "     1154425056"}, 
{"id": 7713,"ncpdp": "0712833","pharmacy_name": "STOP AND SHOP PHARMACY #691","address1": "54 HAZARD AVENUE","address2": "","city": "ENFIELD","state": "CT","zip": "06082","zip+4": "0000","phone": "8607412230","NPI": "     1699707554"}, 
{"id": 7714,"ncpdp": "0712845","pharmacy_name": "CVS PHARMACY #01044","address1": "656 NEW HAVEN AVE CALDOR SC","address2": "","city": "DERBY","state": "CT","zip": "06418","zip+4": "0000","phone": "2037324495","NPI": "     1659476497"}, 
{"id": 7715,"ncpdp": "0712934","pharmacy_name": "WALGREEN DRUG STORE #09785","address1": "436 WHALLEY AVENUE","address2": "","city": "NEW HAVEN","state": "CT","zip": "06511","zip+4": "0000","phone": "2037778001","NPI": "     1730194085"}, 
{"id": 7716,"ncpdp": "0712958","pharmacy_name": "STOP AND SHOP PHARMACY #604","address1": "727 RUBBER AV MT VIEW PLAZA","address2": "","city": "NAUGATUCK","state": "CT","zip": "06770","zip+4": "0000","phone": "2037236939","NPI": "     1508898461"}, 
{"id": 7717,"ncpdp": "0712960","pharmacy_name": "CVS PHARMACY #01051","address1": "593 NEWFIELD AVE","address2": "","city": "STAMFORD","state": "CT","zip": "06905","zip+4": "0000","phone": "2039674600","NPI": "     1063516961"}, 
{"id": 7718,"ncpdp": "0712972","pharmacy_name": "CVS PHARMACY #01060","address1": "326 MAIN ST","address2": "","city": "SOUTHINGTON","state": "CT","zip": "06489","zip+4": "0000","phone": "8606211996","NPI": "     1972607877"}, 
{"id": 7719,"ncpdp": "0712984","pharmacy_name": "EAST MAIN PHARMACY #608","address1": "2152 E MAIN ST","address2": "","city": "WATERBURY","state": "CT","zip": "06705","zip+4": "2606","phone": "2037557200","NPI": "     1194888453"}, 
{"id": 7720,"ncpdp": "0713049","pharmacy_name": "CVS PHARMACY #01109","address1": "7 DURANT AVE","address2": "","city": "BETHEL","state": "CT","zip": "06801","zip+4": "0000","phone": "2037949500","NPI": "     1881798783"}, 
{"id": 7721,"ncpdp": "0713051","pharmacy_name": "STOP AND SHOP PHARMACY #661","address1": "1245 DIXWELL AVENUE","address2": "","city": "HAMDEN","state": "CT","zip": "06514","zip+4": "0000","phone": "2032814235","NPI": "     1417989377"}, 
{"id": 7722,"ncpdp": "0713087","pharmacy_name": "CVS PHARMACY #01080","address1": "817 BANK ST","address2": "","city": "NEW LONDON","state": "CT","zip": "06320","zip+4": "0000","phone": "8604435359","NPI": "     1699879593"}, 
{"id": 7723,"ncpdp": "0713138","pharmacy_name": "STOP AND SHOP PHARMACY #688","address1": "RTE 1 AND ELM STREET","address2": "","city": "OLD SAYBROOK","state": "CT","zip": "06475","zip+4": "0000","phone": "8603886461","NPI": "     1669491692"}, 
{"id": 7724,"ncpdp": "0713140","pharmacy_name": "STOP AND SHOP PHARMACY #609","address1": "RTE 5 AND N COLONY ROAD","address2": "","city": "WALLINGFORD","state": "CT","zip": "06492","zip+4": "0000","phone": "2032653942","NPI": "     1578582508"}, 
{"id": 7725,"ncpdp": "0713164","pharmacy_name": "SHOPRITE PHARMACY #300","address1": "533 SOUTH BROAD STREET","address2": "","city": "MERIDEN","state": "CT","zip": "06450","zip+4": "0000","phone": "2036393959","NPI": "     1790855419"}, 
{"id": 7726,"ncpdp": "0713188","pharmacy_name": "DANIELS PHARMACY","address1": "42 REYNOLDS ST","address2": "","city": "DANIELSON","state": "CT","zip": "06239","zip+4": "2917","phone": "8607743214","NPI": "     1679558381"}, 
{"id": 7727,"ncpdp": "0713239","pharmacy_name": "RITE AID PHARMACY #02286","address1": "200 NEW HARTFORD ROAD","address2": "","city": "WINSTED","state": "CT","zip": "06098","zip+4": "3373","phone": "8603795436","NPI": "     1558470930"}, 
{"id": 7728,"ncpdp": "0713304","pharmacy_name": "CVS PHARMACY #01089","address1": "20 BURNSIDE AVE","address2": "","city": "EAST HARTFORD","state": "CT","zip": "06108","zip+4": "3403","phone": "8602902091","NPI": "     1508960402"}, 
{"id": 7729,"ncpdp": "0713316","pharmacy_name": "STOP AND SHOP PHARMACY #635","address1": "100 DIVISION STREET","address2": "","city": "ANSONIA","state": "CT","zip": "06401","zip+4": "0000","phone": "2037323907","NPI": "     1326070285"}, 
{"id": 7730,"ncpdp": "0713328","pharmacy_name": "ARROW PRESCRIPTION CENTER #14","address1": "100 WOODLAND ST","address2": "","city": "HARTFORD","state": "CT","zip": "06105","zip+4": "0000","phone": "8605272800","NPI": "     1629077912"}, 
{"id": 7731,"ncpdp": "0713330","pharmacy_name": "ARROW PRESCRIPTION CENTER #12","address1": "500 FARMINGTON AVE","address2": "","city": "HARTFORD","state": "CT","zip": "06105","zip+4": "0000","phone": "8605229289","NPI": "     1972501294"}, 
{"id": 7732,"ncpdp": "0713354","pharmacy_name": "A AND P SUPERFOODMART PHARMACY","address1": "799 NEW HAVEN RD","address2": "","city": "NAUGATUCK","state": "CT","zip": "06770","zip+4": "0000","phone": "2037231876","NPI": "     1346265998"}, 
{"id": 7733,"ncpdp": "0713378","pharmacy_name": "DURHAM HEALTHMART PHARMACY","address1": "321 MAIN ST","address2": "","city": "DURHAM","state": "CT","zip": "06422","zip+4": "1614","phone": "8603493478","NPI": "     1235146804"}, 
{"id": 7734,"ncpdp": "0713392","pharmacy_name": "CVS PHARMACY #01155","address1": "308 BERLIN TPK","address2": "","city": "BERLIN","state": "CT","zip": "06037","zip+4": "0000","phone": "8608290800","NPI": "     1417051319"}, 
{"id": 7735,"ncpdp": "0713405","pharmacy_name": "CVS PHARMACY #01149","address1": "696 WEST AVE","address2": "","city": "NORWALK","state": "CT","zip": "06850","zip+4": "0000","phone": "2038660949","NPI": "     1326142225"}, 
{"id": 7736,"ncpdp": "0713417","pharmacy_name": "CVS PHARMACY #01148","address1": "905 SOUTH MAIN ST","address2": "","city": "CHESHIRE","state": "CT","zip": "06410","zip+4": "0000","phone": "2032723255","NPI": "     1568567303"}, 
{"id": 7737,"ncpdp": "0713429","pharmacy_name": "STOP AND SHOP PHARMACY #644","address1": "44 LAKE AVENUE EXTENSION","address2": "","city": "WEST DANBURY","state": "CT","zip": "06810","zip+4": "0000","phone": "2037978476","NPI": "     1235161191"}, 
{"id": 7738,"ncpdp": "0713479","pharmacy_name": "WALGREEN DRUG STORE #10647","address1": "284 S COLONY ROAD","address2": "","city": "WALLINGFORD","state": "CT","zip": "06492","zip+4": "0000","phone": "2032656336","NPI": "     1649285990"}, 
{"id": 7739,"ncpdp": "0713493","pharmacy_name": "CVS PHARMACY #01043","address1": "525 BUCKLAND RD","address2": "","city": "SOUTH WINDSOR","state": "CT","zip": "06074","zip+4": "0000","phone": "8606444241","NPI": "     1235233131"}, 
{"id": 7740,"ncpdp": "0713506","pharmacy_name": "CVS PHARMACY #01151","address1": "464 REIDVILLE DRIVE","address2": "","city": "WATERBURY","state": "CT","zip": "06705","zip+4": "0000","phone": "2035960909","NPI": "     1144324047"}, 
{"id": 7741,"ncpdp": "0713520","pharmacy_name": "ARROW PRESCRIPTION CENTER #17","address1": "85 SEYMOUR ST","address2": "","city": "HARTFORD","state": "CT","zip": "06106","zip+4": "0000","phone": "8607271123","NPI": "     1508907080"}, 
{"id": 7742,"ncpdp": "0713582","pharmacy_name": "CVS PHARMACY #01180","address1": "358 WEST MAIN ST","address2": "","city": "AVON","state": "CT","zip": "06001","zip+4": "0000","phone": "8606788605","NPI": "     1053415950"}, 
{"id": 7743,"ncpdp": "0713621","pharmacy_name": "STOP AND SHOP PHARMACY #610","address1": "1380 BERLIN TURNPIKE","address2": "","city": "WETHERSFIELD","state": "CT","zip": "06109","zip+4": "0000","phone": "8609563740","NPI": "     1144252008"}, 
{"id": 7744,"ncpdp": "0713633","pharmacy_name": "CVS PHARMACY #01123","address1": "22 DEPOT HILL RD","address2": "","city": "SOUTHBURY","state": "CT","zip": "06488","zip+4": "0000","phone": "2032621831","NPI": "     1962506865"}, 
{"id": 7745,"ncpdp": "0713669","pharmacy_name": "STOP AND SHOP PHARMACY #636","address1": "228 S MAIN STREET","address2": "","city": "NEWTOWN","state": "CT","zip": "06470","zip+4": "0000","phone": "2032700827","NPI": "     1053343913"}, 
{"id": 7746,"ncpdp": "0713671","pharmacy_name": "WALGREEN DRUG STORE #2410","address1": "1697 WHITNEY AVE","address2": "","city": "HAMDEN","state": "CT","zip": "06517","zip+4": "0000","phone": "2032300622","NPI": "     1467467712"}, 
{"id": 7747,"ncpdp": "0713683","pharmacy_name": "WALGREEN DRUG STORE #090701","address1": "49 WASHINGTON AVE","address2": "","city": "NORTH HAVEN","state": "CT","zip": "06473","zip+4": "1704","phone": "2032394428","NPI": "     1376558627"}, 
{"id": 7748,"ncpdp": "0713695","pharmacy_name": "CVS PHARMACY #01152","address1": "58 PENNSYLVANIA AVE","address2": "","city": "NIANTIC","state": "CT","zip": "06357","zip+4": "0000","phone": "8606910380","NPI": "     1871697771"}, 
{"id": 7749,"ncpdp": "0713746","pharmacy_name": "STOP AND SHOP PHARMACY #622","address1": "211 HIGH STREET","address2": "","city": "TORRINGTON","state": "CT","zip": "06790","zip+4": "0000","phone": "8604892433","NPI": "     1962434829"}, 
{"id": 7750,"ncpdp": "0713760","pharmacy_name": "BEACON PRESCRIPTIONS TERRYVILL","address1": "241 MAIN ST","address2": "","city": "TERRYVILLE","state": "CT","zip": "06786","zip+4": "0000","phone": "8605855158","NPI": "     1407908783"}, 
{"id": 7751,"ncpdp": "0713835","pharmacy_name": "RITE AID PHARMACY #02666","address1": "277 FAIRFIELD AVENUE","address2": "","city": "WATERBURY","state": "CT","zip": "06708","zip+4": "4061","phone": "2035968192","NPI": "     1467561845"}, 
{"id": 7752,"ncpdp": "0713885","pharmacy_name": "BEACON PRESCRIPTIONS-ROCKVILLE","address1": "40 WEST MAIN ST","address2": "","city": "VERNON ROCKVILLE","state": "CT","zip": "06066","zip+4": "0000","phone": "8608759263","NPI": "     1194821025"}, 
{"id": 7753,"ncpdp": "0713936","pharmacy_name": "CVS PHARMACY #01125","address1": "10 LATHROP RD","address2": "","city": "PLAINFIELD","state": "CT","zip": "06374","zip+4": "0000","phone": "8605642111","NPI": "     1699879502"}, 
{"id": 7754,"ncpdp": "0713950","pharmacy_name": "XPECT PHARMACY #21","address1": "480 BOSTON POST RD","address2": "","city": "MILFORD","state": "CT","zip": "06460","zip+4": "0000","phone": "2038777828","NPI": "     1497760334"}, 
{"id": 7755,"ncpdp": "0714003","pharmacy_name": "CVS PHARMACY #00172","address1": "2 6 SHORT BEACH RD","address2": "","city": "BRANFORD","state": "CT","zip": "06405","zip+4": "0000","phone": "2034889485","NPI": "     1477658219"}, 
{"id": 7756,"ncpdp": "0714039","pharmacy_name": "WALGREEN DRUG STORE #5723","address1": "960 NORTH AVE","address2": "","city": "BRIDGEPORT","state": "CT","zip": "06606","zip+4": "0000","phone": "2033346368","NPI": "     1285649533"}, 
{"id": 7757,"ncpdp": "0714041","pharmacy_name": "XPECT PHARMACY #29","address1": "47 SHUNPIKE RD","address2": "","city": "CROMWELL","state": "CT","zip": "06416","zip+4": "0000","phone": "8606329092","NPI": "     1306851241"}, 
{"id": 7758,"ncpdp": "0714091","pharmacy_name": "CVS PHARMACY #01213","address1": "94 PARK ST","address2": "","city": "NEW CANAAN","state": "CT","zip": "06840","zip+4": "0000","phone": "2039666758","NPI": "     1417051327"}, 
{"id": 7759,"ncpdp": "0714128","pharmacy_name": "WALGREEN DRUG STORE #2698","address1": "13 SEYMOURBANK ST","address2": "","city": "SEYMOUR","state": "CT","zip": "06483","zip+4": "0000","phone": "2038819505","NPI": "     1093720344"}, 
{"id": 7760,"ncpdp": "0714154","pharmacy_name": "CVS PHARMACY #01242","address1": "714 HOPMEADOW ST SIMSBURY PLZ","address2": "","city": "SIMSBURY","state": "CT","zip": "06070","zip+4": "0000","phone": "8606511440","NPI": "     1386749125"}, 
{"id": 7761,"ncpdp": "0714166","pharmacy_name": "UNCAS PHARMACY","address1": "20 TOWN ST","address2": "","city": "NORWICH","state": "CT","zip": "06360","zip+4": "2371","phone": "8608898413","NPI": "     1831152644"}, 
{"id": 7762,"ncpdp": "0714180","pharmacy_name": "BEACON PRESCRIPTIONS","address1": "875 FOXON RD","address2": "","city": "EAST HAVEN","state": "CT","zip": "06513","zip+4": "0000","phone": "2034672600","NPI": "     1821143124"}, 
{"id": 7763,"ncpdp": "0714192","pharmacy_name": "COSTCO PHARMACY #304","address1": "200 FEDERAL ROAD","address2": "","city": "BROOKFIELD","state": "CT","zip": "06804","zip+4": "0000","phone": "2037407965","NPI": "     1558471169"}, 
{"id": 7764,"ncpdp": "0714217","pharmacy_name": "STOP AND SHOP PHARMACY #653","address1": "1790 POST ROAD EAST","address2": "","city": "WESTPORT","state": "CT","zip": "06880","zip+4": "0000","phone": "2032549461","NPI": "     1871525733"}, 
{"id": 7765,"ncpdp": "0714229","pharmacy_name": "CVS PHARMACY #01241","address1": "233 BROAD ST","address2": "","city": "MILFORD","state": "CT","zip": "06460","zip+4": "0000","phone": "2038778127","NPI": "     1144324054"}, 
{"id": 7766,"ncpdp": "0714231","pharmacy_name": "WALGREEN DRUG STORE #7585","address1": "102 WASHINGTON ST","address2": "","city": "NEW BRITAIN","state": "CT","zip": "06051","zip+4": "0000","phone": "8608267404","NPI": "     1902811250"}, 
{"id": 7767,"ncpdp": "0714293","pharmacy_name": "STOP AND SHOP PHARMACY #623","address1": "416 EMAIN STREET","address2": "","city": "MIDDLETOWN","state": "CT","zip": "06457","zip+4": "0000","phone": "8603461779","NPI": "     1780616649"}, 
{"id": 7768,"ncpdp": "0714332","pharmacy_name": "CVS PHARMACY #01280","address1": "99 GREENWICH AVE","address2": "","city": "GREENWICH","state": "CT","zip": "06830","zip+4": "0000","phone": "2038629320","NPI": "     1053415968"}, 
{"id": 7769,"ncpdp": "0714407","pharmacy_name": "RITE AID PHARMACY #03203","address1": "1291 ALBANY AVENUE","address2": "UPPER ALBANY PLAZA","city": "HARTFORD","state": "CT","zip": "06112","zip+4": "2198","phone": "8605601881","NPI": "     1659480937"}, 
{"id": 7770,"ncpdp": "0714433","pharmacy_name": "CVS PHARMACY #01153","address1": "1875 BOSTON AVE","address2": "","city": "BRIDGEPORT","state": "CT","zip": "06610","zip+4": "0000","phone": "2033308278","NPI": "     1366546277"}, 
{"id": 7771,"ncpdp": "0714469","pharmacy_name": "BEACON PRESCRIPTIONS #5","address1": "972 MAIN ST","address2": "","city": "WILLIMANTIC","state": "CT","zip": "06226","zip+4": "2396","phone": "8604231410","NPI": "     1952416125"}, 
{"id": 7772,"ncpdp": "0714495","pharmacy_name": "CVS PHARMACY #01183","address1": "750 MAIN ST","address2": "","city": "HARTFORD","state": "CT","zip": "06103","zip+4": "0000","phone": "8602449424","NPI": "     1184728099"}, 
{"id": 7773,"ncpdp": "0714508","pharmacy_name": "WALGREEN DRUG STORE #2871","address1": "674 FARMINGTON AVE","address2": "","city": "WEST HARTFORD","state": "CT","zip": "06119","zip+4": "0000","phone": "8605235150","NPI": "     1811902166"}, 
{"id": 7774,"ncpdp": "0714510","pharmacy_name": "STOP AND SHOP PHARMACY #630","address1": "44 FENN ROAD","address2": "","city": "NEWINGTON","state": "CT","zip": "06111","zip+4": "0000","phone": "8606679292","NPI": "     1598797466"}, 
{"id": 7775,"ncpdp": "0714522","pharmacy_name": "STOP AND SHOP PHARMACY #689","address1": "286 BROAD STREET","address2": "","city": "MANCHESTER","state": "CT","zip": "06040","zip+4": "0000","phone": "8606470325","NPI": "     1407888373"}, 
{"id": 7776,"ncpdp": "0714560","pharmacy_name": "STOP AND SHOP PHARMACY #618","address1": "410 READVILLE DRIVE","address2": "","city": "WATERBURY","state": "CT","zip": "06705","zip+4": "0000","phone": "2037555814","NPI": "     1316979289"}, 
{"id": 7777,"ncpdp": "0714609","pharmacy_name": "RITE AID PHARMACY #03264","address1": "10 HEMINGWAY AVENUE","address2": "","city": "EAST HAVEN","state": "CT","zip": "06512","zip+4": "3404","phone": "2034694609","NPI": "     1568571842"}, 
{"id": 7778,"ncpdp": "0714611","pharmacy_name": "WAL-MART PHARMACY #101891","address1": "420 BUCKLAND HILLS DR","address2": "","city": "MANCHESTER","state": "CT","zip": "06040","zip+4": "0000","phone": "8606445105","NPI": "     1417974791"}, 
{"id": 7779,"ncpdp": "0714659","pharmacy_name": "BEACON PRESCRIPTION","address1": "294 MAIN ST","address2": "","city": "WINSTED","state": "CT","zip": "06098","zip+4": "1641","phone": "8607382506","NPI": "     1649383092"}, 
{"id": 7780,"ncpdp": "0714673","pharmacy_name": "CVS PHARMACY #01910","address1": "260 N MAIN ST","address2": "","city": "MANCHESTER","state": "CT","zip": "06042","zip+4": "2004","phone": "8606464510","NPI": "     1801990718"}, 
{"id": 7781,"ncpdp": "0714685","pharmacy_name": "CVS PHARMACY #01156","address1": "1240 FARMINGTON AVE","address2": "","city": "WEST HARTFORD","state": "CT","zip": "06107","zip+4": "0000","phone": "8605219877","NPI": "     1629172531"}, 
{"id": 7782,"ncpdp": "0714700","pharmacy_name": "WALGREEN DRUG STORE #09784","address1": "20 CONNECTICUT BLVD","address2": "","city": "HARTFORD","state": "CT","zip": "06108","zip+4": "3007","phone": "8602894944","NPI": "     1871513051"}, 
{"id": 7783,"ncpdp": "0714712","pharmacy_name": "STOP AND SHOP PHARMACY #648","address1": "112 AMITY ROAD AMITY PLAZA","address2": "","city": "NEW HAVEN","state": "CT","zip": "06525","zip+4": "0000","phone": "2033898863","NPI": "     1508898479"}, 
{"id": 7784,"ncpdp": "0714724","pharmacy_name": "CVS PHARMACY #00918","address1": "964 POST RD","address2": "","city": "DARIEN","state": "CT","zip": "06820","zip+4": "0000","phone": "2036556335","NPI": "     1447354352"}, 
{"id": 7785,"ncpdp": "0714748","pharmacy_name": "BROOKFIELD PHARMACY","address1": "60 OLD NEW MILFORD RD","address2": "","city": "BROOKFIELD","state": "CT","zip": "06804","zip+4": "0000","phone": "2037759040","NPI": "     1659465060"}, 
{"id": 7786,"ncpdp": "0714750","pharmacy_name": "SHOPRITE PHARMACY #394","address1": "360 CONNECTICUT AVENUE","address2": "","city": "NORWALK","state": "CT","zip": "06854","zip+4": "0000","phone": "2038385553","NPI": "     1356486146"}, 
{"id": 7787,"ncpdp": "0714762","pharmacy_name": "WALGREEN DRUG STORE #2976","address1": "399 WEST MAIN","address2": "","city": "NORWICH","state": "CT","zip": "06360","zip+4": "0000","phone": "8608851272","NPI": "     1720093073"}, 
{"id": 7788,"ncpdp": "0714774","pharmacy_name": "STOP AND SHOP PHARMACY #615","address1": "42 TOWN STREET","address2": "","city": "NORWICH","state": "CT","zip": "06360","zip+4": "0000","phone": "8608871615","NPI": "     1225060197"}, 
{"id": 7789,"ncpdp": "0714786","pharmacy_name": "COSTCO PHARMACY #312","address1": "1718 BOSTON POST ROAD","address2": "","city": "MILFORD","state": "CT","zip": "06460","zip+4": "0000","phone": "2037013051","NPI": "     1376653980"}, 
{"id": 7790,"ncpdp": "0714837","pharmacy_name": "UNIVERSITY OF CONNECTICUT","address1": "234 GLENBROOK RD","address2": "UNIT 2011","city": "STORRS MANSFIELD","state": "CT","zip": "06269","zip+4": "0000","phone": "8604860736","NPI": "     1487788196"}, 
{"id": 7791,"ncpdp": "0714863","pharmacy_name": "CVS PHARMACY #01276","address1": "59 N MAIN ST","address2": "","city": "BRISTOL","state": "CT","zip": "06010","zip+4": "0000","phone": "8605848998","NPI": "     1265536171"}, 
{"id": 7792,"ncpdp": "0714887","pharmacy_name": "CVS PHARMACY #01912","address1": "1968 BLACK ROCK TPK FAIRWAY PL","address2": "","city": "FAIRFIELD","state": "CT","zip": "06430","zip+4": "0000","phone": "2033668070","NPI": "     1295830040"}, 
{"id": 7793,"ncpdp": "0714899","pharmacy_name": "STOP AND SHOP PHARMACY #684","address1": "505 N MAIN STREET","address2": "","city": "SOUTHINGTON","state": "CT","zip": "06489","zip+4": "0000","phone": "8606209060","NPI": "     1134151004"}, 
{"id": 7794,"ncpdp": "0714902","pharmacy_name": "STOP AND SHOP PHARMACY #607","address1": "498 BUSHY HILL ROAD","address2": "","city": "SIMSBURY","state": "CT","zip": "06070","zip+4": "0000","phone": "8606519843","NPI": "     1043242910"}, 
{"id": 7795,"ncpdp": "0715017","pharmacy_name": "COSTCO PHARMACY #313","address1": "3600 EAST MAIN STREET","address2": "","city": "WATERBURY","state": "CT","zip": "06705","zip+4": "0000","phone": "2037579115","NPI": "     1093825606"}, 
{"id": 7796,"ncpdp": "0715029","pharmacy_name": "RITE AID PHARMACY #03440","address1": "190 EAST AVENUE","address2": "","city": "NORWALK","state": "CT","zip": "06855","zip+4": "1112","phone": "2038386141","NPI": "     1477662757"}, 
{"id": 7797,"ncpdp": "0715079","pharmacy_name": "CVS PHARMACY #01898","address1": "225 SOUND BEACH AVE","address2": "","city": "OLD GREENWICH","state": "CT","zip": "06870","zip+4": "0000","phone": "2036981457","NPI": "     1891899704"}, 
{"id": 7798,"ncpdp": "0715106","pharmacy_name": "MEDICINE SHOPPE #1096","address1": "774 FARMINGTON AVENUE","address2": "","city": "WEST HARTFORD","state": "CT","zip": "06119","zip+4": "0000","phone": "8602324595","NPI": "     1073678496"}, 
{"id": 7799,"ncpdp": "0715118","pharmacy_name": "WAL-MART PHARMACY #102022","address1": "474 BOSTON POST ROAD","address2": "","city": "NORTH WINDHAM","state": "CT","zip": "06256","zip+4": "0000","phone": "8604562126","NPI": "     1326065608"}, 
{"id": 7800,"ncpdp": "0715168","pharmacy_name": "CVS PHARMACY #01268","address1": "106 BOSTON POST ROAD","address2": "","city": "WATERFORD","state": "CT","zip": "06385","zip+4": "0000","phone": "8604431244","NPI": "     1619071529"}, 
{"id": 7801,"ncpdp": "0715245","pharmacy_name": "STOP AND SHOP PHARMACY #693","address1": "940 SILVER LANE","address2": "","city": "EAST HARTFORD","state": "CT","zip": "06108","zip+4": "0000","phone": "8605697135","NPI": "     1952333825"}, 
{"id": 7802,"ncpdp": "0715257","pharmacy_name": "CVS PHARMACY #01960","address1": "1279 WEST MAIN ST","address2": "","city": "WATERBURY","state": "CT","zip": "06708","zip+4": "0000","phone": "2037555490","NPI": "     1437253341"}, 
{"id": 7803,"ncpdp": "0715308","pharmacy_name": "CVS PHARMACY #01966","address1": "1057 BOSTON POST RD RT 1","address2": "","city": "GUILFORD","state": "CT","zip": "06437","zip+4": "0000","phone": "2034581444","NPI": "     1255435160"}, 
{"id": 7804,"ncpdp": "0715358","pharmacy_name": "COLLINS IV CARE #13735","address1": "60 WATSON BLVD","address2": "","city": "STRATFORD","state": "CT","zip": "06615","zip+4": "0000","phone": "2033837787","NPI": "     1609974187"}, 
{"id": 7805,"ncpdp": "0715396","pharmacy_name": "WALGREEN DRUG STORE #2858","address1": "633 WASHINGTON","address2": "","city": "MIDDLETOWN","state": "CT","zip": "06457","zip+4": "0000","phone": "8603467372","NPI": "     1639184989"}, 
{"id": 7806,"ncpdp": "0715447","pharmacy_name": "STOP AND SHOP PHARMACY #634","address1": "150 NEW PARK AVENUE","address2": "","city": "HARTFORD","state": "CT","zip": "06106","zip+4": "0000","phone": "8602328848","NPI": "     1861424731"}, 
{"id": 7807,"ncpdp": "0715459","pharmacy_name": "WALGREEN DRUG STORE #3192","address1": "649 W MAIN ST","address2": "","city": "WATERBURY","state": "CT","zip": "06702","zip+4": "0000","phone": "2037575102","NPI": "     1548275894"}, 
{"id": 7808,"ncpdp": "0715461","pharmacy_name": "BEACON PRESCRIPTIONS-NEW BRITA","address1": "543 W MAIN ST","address2": "","city": "NEW BRITAIN","state": "CT","zip": "06053","zip+4": "0000","phone": "8602256487","NPI": "     1861531675"}, 
{"id": 7809,"ncpdp": "0715473","pharmacy_name": "VARNUMS PHARMACY #187","address1": "91 MAIN ST","address2": "","city": "NEW CANAAN","state": "CT","zip": "06840","zip+4": "4787","phone": "2039664575","NPI": "     1760554547"}, 
{"id": 7810,"ncpdp": "0715497","pharmacy_name": "CVS PHARMACY #00123","address1": "519 BOSTON POST RD","address2": "","city": "OLD SAYBROOK","state": "CT","zip": "06475","zip+4": "0000","phone": "8603881045","NPI": "     1073617981"}, 
{"id": 7811,"ncpdp": "0715512","pharmacy_name": "WAL-MART PHARMACY #102170","address1": "220 SALEM TURNPIKE","address2": "","city": "NORWICH","state": "CT","zip": "06360","zip+4": "0000","phone": "8608897530","NPI": "     1144247420"}, 
{"id": 7812,"ncpdp": "0715524","pharmacy_name": "WAL-MART PHARMACY #102200","address1": "150 GOLD STAR HWY","address2": "","city": "GROTON","state": "CT","zip": "06340","zip+4": "0000","phone": "8604496902","NPI": "     1356368641"}, 
{"id": 7813,"ncpdp": "0715548","pharmacy_name": "FINCH PHARMACY INC","address1": "3 RIVERSVILLE RD","address2": "","city": "GREENWICH","state": "CT","zip": "06831","zip+4": "0000","phone": "2035318494","NPI": "     1639281561"}, 
{"id": 7814,"ncpdp": "0715562","pharmacy_name": "CVS PHARMACY #01948","address1": "690 WETHERSFIELD AVE","address2": "","city": "HARTFORD","state": "CT","zip": "06114","zip+4": "0000","phone": "8602961155","NPI": "     1790889608"}, 
{"id": 7815,"ncpdp": "0715586","pharmacy_name": "RITE AID PHARMACY #10339","address1": "385 WEST MAIN STREET","address2": "","city": "AVON","state": "CT","zip": "06001","zip+4": "3604","phone": "8606740027","NPI": "     1619076981"}, 
{"id": 7816,"ncpdp": "0715598","pharmacy_name": "RITE AID PHARMACY #10382","address1": "289 GREENWOOD AVENUE","address2": "","city": "BETHEL","state": "CT","zip": "06801","zip+4": "0000","phone": "2037926190","NPI": "     1528167897"}, 
{"id": 7817,"ncpdp": "0715601","pharmacy_name": "RITE AID PHARMACY #10340","address1": "835 PARK AVENUE","address2": "","city": "BLOOMFIELD","state": "CT","zip": "06002","zip+4": "0000","phone": "8602425551","NPI": "     1437258704"}, 
{"id": 7818,"ncpdp": "0715651","pharmacy_name": "RITE AID PHARMACY #10361","address1": "922 SOUTH MAIN STREET","address2": "","city": "CHESHIRE","state": "CT","zip": "06410","zip+4": "3419","phone": "2032710282","NPI": "     1346349610"}, 
{"id": 7819,"ncpdp": "0715663","pharmacy_name": "RITE AID PHARMACY #10362","address1": "27 BROADWAY STREET","address2": "","city": "COLCHESTER","state": "CT","zip": "06415","zip+4": "1001","phone": "8605379034","NPI": "     1255430526"}, 
{"id": 7820,"ncpdp": "0715675","pharmacy_name": "RITE AID PHARMACY #10385","address1": "1 A PADANARUM ROAD","address2": "SUITE 8","city": "DANBURY","state": "CT","zip": "06810","zip+4": "0000","phone": "2037484134","NPI": "     1467552893"}, 
{"id": 7821,"ncpdp": "0715687","pharmacy_name": "RITE AID PHARMACY #10363","address1": "25 EAST HIGH STREET","address2": "","city": "EAST HAMPTON","state": "CT","zip": "06424","zip+4": "1001","phone": "8602670732","NPI": "     1164521431"}, 
{"id": 7822,"ncpdp": "0715699","pharmacy_name": "RITE AID PHARMACY #10354","address1": "340 FLANDERS ROAD","address2": "","city": "EAST LYME","state": "CT","zip": "06333","zip+4": "1710","phone": "8607399007","NPI": "     1073612347"}, 
{"id": 7823,"ncpdp": "0715702","pharmacy_name": "RITE AID PHARMACY #10364","address1": "125 WESTBROOK ROAD","address2": "","city": "ESSEX","state": "CT","zip": "06426","zip+4": "0000","phone": "8607672181","NPI": "     1982703252"}, 
{"id": 7824,"ncpdp": "0715726","pharmacy_name": "RITE AID PHARMACY #10386","address1": "1619 POST ROAD","address2": "","city": "FAIRFIELD","state": "CT","zip": "06824","zip+4": "5910","phone": "2032591894","NPI": "     1790884062"}, 
{"id": 7825,"ncpdp": "0715740","pharmacy_name": "RITE AID PHARMACY #10375","address1": "2175 DIXWELL AVENUE","address2": "","city": "HAMDEN","state": "CT","zip": "06514","zip+4": "2405","phone": "2032883895","NPI": "     1609975978"}, 
{"id": 7826,"ncpdp": "0715790","pharmacy_name": "RITE AID PHARMACY #10367","address1": "1387 NEW HAVEN AVENUE","address2": "","city": "MILFORD","state": "CT","zip": "06460","zip+4": "0000","phone": "2038740845","NPI": "     1376643700"}, 
{"id": 7827,"ncpdp": "0715803","pharmacy_name": "RITE AID PHARMACY #10369","address1": "508 MONROE TURNPIKE","address2": "","city": "MONROE","state": "CT","zip": "06468","zip+4": "0000","phone": "2032685471","NPI": "     1427157791"}, 
{"id": 7828,"ncpdp": "0715815","pharmacy_name": "RITE AID PHARMACY #10370","address1": "435 MAIN STREET","address2": "","city": "MONROE","state": "CT","zip": "06468","zip+4": "0000","phone": "2032681098","NPI": "     1285734616"}, 
{"id": 7829,"ncpdp": "0715839","pharmacy_name": "RITE AID PHARMACY #10352","address1": "280 BROAD STREET","address2": "","city": "NEW LONDON","state": "CT","zip": "06320","zip+4": "5227","phone": "8604470661","NPI": "     1336248608"}, 
{"id": 7830,"ncpdp": "0715865","pharmacy_name": "RITE AID PHARMACY #10371","address1": "280 BRANFORD ROAD","address2": "","city": "NORTH BRANFORD","state": "CT","zip": "06471","zip+4": "0000","phone": "2034888703","NPI": "     1972602241"}, 
{"id": 7831,"ncpdp": "0715877","pharmacy_name": "RITE AID PHARMACY #10372","address1": "1395 MIDDLETOWN AVENUE","address2": "","city": "NORTHFORD","state": "CT","zip": "06472","zip+4": "0000","phone": "2034840432","NPI": "     1902906332"}, 
{"id": 7832,"ncpdp": "0715889","pharmacy_name": "RITE AID PHARMACY #10388","address1": "120 NEW CANAAN AVENUE","address2": "","city": "NORWALK","state": "CT","zip": "06850","zip+4": "0000","phone": "2038462398","NPI": "     1881793156"}, 
{"id": 7833,"ncpdp": "0715904","pharmacy_name": "RITE AID PHARMACY #10359","address1": "37 SOUTH BROAD STREET","address2": "","city": "PAWCATUCK","state": "CT","zip": "06379","zip+4": "7909","phone": "8605994030","NPI": "     1699874966"}, 
{"id": 7834,"ncpdp": "0715916","pharmacy_name": "RITE AID PHARMACY #10350","address1": "203 KENNEDY DRIVE","address2": "","city": "PUTNAM","state": "CT","zip": "06260","zip+4": "1628","phone": "8609637230","NPI": "     1508965872"}, 
{"id": 7835,"ncpdp": "0715942","pharmacy_name": "RITE AID PHARMACY #10390","address1": "82 HOYT STREET","address2": "","city": "STAMFORD","state": "CT","zip": "06905","zip+4": "5701","phone": "2033251260","NPI": "     1417056789"}, 
{"id": 7836,"ncpdp": "0715966","pharmacy_name": "RITE AID PHARMACY #10376","address1": "3680 MAIN STREET","address2": "","city": "STRATFORD","state": "CT","zip": "06614","zip+4": "4120","phone": "2032883895","NPI": "     1235238502"}, 
{"id": 7837,"ncpdp": "0715978","pharmacy_name": "RITE AID PHARMACY #10378","address1": "8A SOUTH MAIN STREET","address2": "","city": "TERRYVILLE","state": "CT","zip": "06786","zip+4": "0000","phone": "8605897713","NPI": "     1396833711"}, 
{"id": 7838,"ncpdp": "0715992","pharmacy_name": "RITE AID PHARMACY #10356","address1": "ROUTE 32 MIDWAY SHOPPING CENTE","address2": "","city": "UNCASVILLE","state": "CT","zip": "06382","zip+4": "0000","phone": "8608487979","NPI": "     1205924628"}, 
{"id": 7839,"ncpdp": "0716019","pharmacy_name": "RITE AID PHARMACY #10345","address1": "74 BRIDGE STREET","address2": "","city": "WAREHOUSE POINT","state": "CT","zip": "06088","zip+4": "0000","phone": "8606233327","NPI": "     1720188154"}, 
{"id": 7840,"ncpdp": "0716057","pharmacy_name": "RITE AID PHARMACY #10381","address1": "620 MAIN STREET","address2": "","city": "WATERTOWN","state": "CT","zip": "06795","zip+4": "0000","phone": "8602747550","NPI": "     1639279060"}, 
{"id": 7841,"ncpdp": "0716108","pharmacy_name": "CVS PHARMACY #01202","address1": "20 BANK ST","address2": "","city": "GRANBY","state": "CT","zip": "06035","zip+4": "0000","phone": "8606534221","NPI": "     1104921956"}, 
{"id": 7842,"ncpdp": "0716146","pharmacy_name": "CVS PHARMACY #00512","address1": "2321 SUMMER ST","address2": "","city": "STAMFORD","state": "CT","zip": "06905","zip+4": "0000","phone": "2033252884","NPI": "     1427152339"}, 
{"id": 7843,"ncpdp": "0716158","pharmacy_name": "CVS PHARMACY #01219","address1": "229 HOPE ST","address2": "","city": "STAMFORD","state": "CT","zip": "06906","zip+4": "0000","phone": "2039211313","NPI": "     1245334150"}, 
{"id": 7844,"ncpdp": "0716172","pharmacy_name": "RITE AID PHARMACY #03513","address1": "60 WHALLEY AVENUE","address2": "","city": "NEW HAVEN","state": "CT","zip": "06511","zip+4": "3221","phone": "2037773080","NPI": "     1386753663"}, 
{"id": 7845,"ncpdp": "0716184","pharmacy_name": "MEDICAL CENTER PHARMACY #60","address1": "60 TEMPLE ST","address2": "","city": "NEW HAVEN","state": "CT","zip": "06510","zip+4": "0000","phone": "2036883999","NPI": "     1881819795"}, 
{"id": 7846,"ncpdp": "0716209","pharmacy_name": "XPECT PHARMACY #43","address1": "78 FRONTAGE RD","address2": "","city": "NEW HAVEN","state": "CT","zip": "06512","zip+4": "0000","phone": "2034685124","NPI": "     1215942156"}, 
{"id": 7847,"ncpdp": "0716235","pharmacy_name": "CVS PHARMACY #01941","address1": "535 MONROE TPK CENTURY PLZ RTE","address2": "","city": "MONROE","state": "CT","zip": "06468","zip+4": "0000","phone": "2032611185","NPI": "     1013012863"}, 
{"id": 7848,"ncpdp": "0716247","pharmacy_name": "OMNICARE OF CONNECTICUT","address1": "525 KNOTTER DR","address2": "CHESHIRE INDUSTRIAL PARK","city": "CHESHIRE","state": "CT","zip": "06410","zip+4": "0000","phone": "2032723856","NPI": "     1881791093"}, 
{"id": 7849,"ncpdp": "0716297","pharmacy_name": "CVS PHARMACY #02022","address1": "152 MOUNTAIN RD RTE 168","address2": "","city": "SUFFIELD","state": "CT","zip": "06078","zip+4": "0000","phone": "8606685115","NPI": "     1063516979"}, 
{"id": 7850,"ncpdp": "0716336","pharmacy_name": "CVS PHARMACY #01968","address1": "369 MAIN ST","address2": "","city": "EAST HAVEN","state": "CT","zip": "06512","zip+4": "0000","phone": "2034686594","NPI": "     1881798791"}, 
{"id": 7851,"ncpdp": "0716350","pharmacy_name": "CVS PHARMACY #00145","address1": "188 MAIN ST RTE 10 POST OFFICE","address2": "","city": "FARMINGTON","state": "CT","zip": "06032","zip+4": "0000","phone": "8606775047","NPI": "     1922103779"}, 
{"id": 7852,"ncpdp": "0716362","pharmacy_name": "RITE AID PHARMACY #03619","address1": "1060 EAST MAIN STREET","address2": "","city": "BRIDGEPORT","state": "CT","zip": "06608","zip+4": "1915","phone": "2033820009","NPI": "     1194834473"}, 
{"id": 7853,"ncpdp": "0716425","pharmacy_name": "CORAM SPECIALTY INFUSION SERVI","address1": "2 BARNES INDUSTRIAL PARK RD","address2": "STE A","city": "WALLINGFORD","state": "CT","zip": "06492","zip+4": "1845","phone": "2032848558","NPI": "     1740230135"}, 
{"id": 7854,"ncpdp": "0716437","pharmacy_name": "OSCO PHARMACY #7446","address1": "425 BROAD ST","address2": "","city": "MANCHESTER","state": "CT","zip": "06040","zip+4": "0000","phone": "8606433477","NPI": "     1023064045"}, 
{"id": 7855,"ncpdp": "0716449","pharmacy_name": "OSCO PHARMACY #7448","address1": "50 WINDSORVILLE RD","address2": "","city": "VERNON","state": "CT","zip": "06066","zip+4": "0000","phone": "8608706255","NPI": "     1215983838"}, 
{"id": 7856,"ncpdp": "0716463","pharmacy_name": "WAL-MART PHARMACY #101980","address1": "625 SCHOOL STREET","address2": "","city": "PUTNAM","state": "CT","zip": "06260","zip+4": "0000","phone": "8609284199","NPI": "     1265459556"}, 
{"id": 7857,"ncpdp": "0716475","pharmacy_name": "OSCO PHARMACY #7447","address1": "325 OAKLAND ST","address2": "","city": "BRISTOL","state": "CT","zip": "06010","zip+4": "0000","phone": "8603142710","NPI": "     1912953308"}, 
{"id": 7858,"ncpdp": "0716499","pharmacy_name": "CVS PHARMACY #00124","address1": "98 BRIDGE ST.","address2": "","city": "NAUGATUCK","state": "CT","zip": "06770","zip+4": "0000","phone": "2037231172","NPI": "     1831294685"}, 
{"id": 7859,"ncpdp": "0716502","pharmacy_name": "CVS PHARMACY #01284","address1": "14 E MAIN ST","address2": "","city": "CLINTON","state": "CT","zip": "06413","zip+4": "0000","phone": "8606649337","NPI": "     1518061431"}, 
{"id": 7860,"ncpdp": "0716538","pharmacy_name": "STOP AND SHOP PHARMACY #600","address1": "2335 DIXWELL AVENUE","address2": "","city": "HAMDEN","state": "CT","zip": "06514","zip+4": "0000","phone": "2032489631","NPI": "     1023043122"}, 
{"id": 7861,"ncpdp": "0716540","pharmacy_name": "ARROW PRESCRIPTION CENTER #49","address1": "2660 MAIN ST STE 119","address2": "","city": "BRIDGEPORT","state": "CT","zip": "06606","zip+4": "0000","phone": "2033677979","NPI": "     1871691360"}, 
{"id": 7862,"ncpdp": "0716588","pharmacy_name": "CVS PHARMACY #00135","address1": "266 WEST ST RTE 202","address2": "","city": "LITCHFIELD","state": "CT","zip": "06759","zip+4": "0000","phone": "8605670856","NPI": "     1740385590"}, 
{"id": 7863,"ncpdp": "0716590","pharmacy_name": "CVS PHARMACY #00133","address1": "698 POST RD","address2": "","city": "FAIRFIELD","state": "CT","zip": "06824","zip+4": "0000","phone": "2032552861","NPI": "     1336243252"}, 
{"id": 7864,"ncpdp": "0716603","pharmacy_name": "STOP AND SHOP PHARMACY #632","address1": "80 TOWN LINE ROAD","address2": "","city": "ROCKY HILL","state": "CT","zip": "06067","zip+4": "0000","phone": "8605634462","NPI": "     1770515645"}, 
{"id": 7865,"ncpdp": "0716615","pharmacy_name": "ARROW PRESCRIPTION CENTER #13","address1": "131 COVENTRY ST 2ND FLR","address2": "","city": "HARTFORD","state": "CT","zip": "06112","zip+4": "0000","phone": "8602862766","NPI": "     1063410389"}, 
{"id": 7866,"ncpdp": "0716639","pharmacy_name": "WAL-MART PHARMACY #102371","address1": "844 NO. COLONY ROAD","address2": "","city": "WALLINGFORD","state": "CT","zip": "06492","zip+4": "0000","phone": "2032696633","NPI": "     1174540462"}, 
{"id": 7867,"ncpdp": "0716641","pharmacy_name": "SWC PHARMACY INC","address1": "24 STEVENS STREET","address2": "MAIN LOBBY","city": "NORWALK","state": "CT","zip": "06850","zip+4": "0000","phone": "2038522690","NPI": "     1285627414"}, 
{"id": 7868,"ncpdp": "0716653","pharmacy_name": "STOP AND SHOP PHARMACY #662","address1": "380 MAIN STREET","address2": "","city": "NORWALK","state": "CT","zip": "06850","zip+4": "0000","phone": "2038498735","NPI": "     1689606550"}, 
{"id": 7869,"ncpdp": "0716677","pharmacy_name": "MEDICAL CENTER PHARMACY #150","address1": "150 SARGENT DR","address2": "","city": "NEW HAVEN","state": "CT","zip": "06511","zip+4": "0000","phone": "2036881600","NPI": "     1346376316"}, 
{"id": 7870,"ncpdp": "0716689","pharmacy_name": "CVS PHARMACY #01244","address1": "73 WATERBURY RD","address2": "","city": "PROSPECT","state": "CT","zip": "06712","zip+4": "0000","phone": "2037583316","NPI": "     1154425072"}, 
{"id": 7871,"ncpdp": "0716704","pharmacy_name": "WALGREEN DRUG STORE #3523","address1": "75 MAIN STREET STE 83","address2": "","city": "DANBURY","state": "CT","zip": "06810","zip+4": "0000","phone": "2037910306","NPI": "     1457366700"}, 
{"id": 7872,"ncpdp": "0716728","pharmacy_name": "CVS PHARMACY #01139","address1": "2610 E MAIN ST BRIARWOODS SC","address2": "","city": "BRIDGEPORT","state": "CT","zip": "06610","zip+4": "0000","phone": "2033680947","NPI": "     1659476406"}, 
{"id": 7873,"ncpdp": "0716730","pharmacy_name": "WAL-MART PHARMACY #102163","address1": "465 BRIDGEPORT AVENUE","address2": "","city": "SHELTON","state": "CT","zip": "06484","zip+4": "0000","phone": "2039291144","NPI": "     1083631378"}, 
{"id": 7874,"ncpdp": "0716742","pharmacy_name": "WAL-MART PHARMACY #102331","address1": "155 WATERFORD PARKWAY NO.","address2": "","city": "WATERFORD","state": "CT","zip": "06385","zip+4": "0000","phone": "8604473747","NPI": "     1598783011"}, 
{"id": 7875,"ncpdp": "0716766","pharmacy_name": "OSCO PHARMACY #7450","address1": "206 KITTS LN","address2": "","city": "NEWINGTON","state": "CT","zip": "06111","zip+4": "0000","phone": "8605947123","NPI": "     1730135120"}, 
{"id": 7876,"ncpdp": "0716780","pharmacy_name": "CVS PHARMACY #01154","address1": "6 WILLARD AVE","address2": "","city": "NORWALK","state": "CT","zip": "06851","zip+4": "0000","phone": "2037506901","NPI": "     1972607893"}, 
{"id": 7877,"ncpdp": "0716817","pharmacy_name": "CVS PHARMACY #02143","address1": "3710 MAIN ST","address2": "","city": "BRIDGEPORT","state": "CT","zip": "06606","zip+4": "0000","phone": "2033711280","NPI": "     1699879510"}, 
{"id": 7878,"ncpdp": "0716829","pharmacy_name": "WAL-MART PHARMACY #102144","address1": "970 TORRINGFORD STREET","address2": "","city": "TORRINGTON","state": "CT","zip": "06790","zip+4": "0000","phone": "8604969193","NPI": "     1891712188"}, 
{"id": 7879,"ncpdp": "0716831","pharmacy_name": "A AND P SUPERFOODMART PHARMACY","address1": "207 WEBSTER SQUARE RD","address2": "","city": "BERLIN","state": "CT","zip": "06037","zip+4": "0000","phone": "8608287511","NPI": "     1255356804"}, 
{"id": 7880,"ncpdp": "0716843","pharmacy_name": "STOP AND SHOP PHARMACY #625","address1": "200 NEW HARTFORD ROAD","address2": "","city": "WINSTED","state": "CT","zip": "06098","zip+4": "0000","phone": "8607382707","NPI": "     1497787360"}, 
{"id": 7881,"ncpdp": "0716855","pharmacy_name": "STOP AND SHOP PHARMACY #631","address1": "215 GLASTONBURY BOULEVARD","address2": "","city": "GLASTONBURY","state": "CT","zip": "06033","zip+4": "0000","phone": "8606595844","NPI": "     1306878277"}, 
{"id": 7882,"ncpdp": "0716879","pharmacy_name": "STOP AND SHOP PHARMACY #727","address1": "60 PROVIDENCE TURNPIKE","address2": "","city": "PUTNAM","state": "CT","zip": "06260","zip+4": "0000","phone": "8609632642","NPI": "     1215969183"}, 
{"id": 7883,"ncpdp": "0716881","pharmacy_name": "STOP AND SHOP PHARMACY #608","address1": "99 LINWOOD AVENUE","address2": "","city": "COLCHESTER","state": "CT","zip": "06415","zip+4": "0000","phone": "8605372570","NPI": "     1124050091"}, 
{"id": 7884,"ncpdp": "0716893","pharmacy_name": "STOP AND SHOP PHARMACY #619","address1": "1095 KENNEDY ROAD","address2": "","city": "WINDSOR","state": "CT","zip": "06095","zip+4": "0000","phone": "8606881744","NPI": "     1023040995"}, 
{"id": 7885,"ncpdp": "0716932","pharmacy_name": "OSCO PHARMACY #7466","address1": "60 CANTOR DR","address2": "","city": "WILLIMANTIC","state": "CT","zip": "06226","zip+4": "0000","phone": "8604236607","NPI": "     1558317941"}, 
{"id": 7886,"ncpdp": "0716944","pharmacy_name": "OSCO PHARMACY #7467","address1": "46 KANE ST","address2": "","city": "WEST HARTFORD","state": "CT","zip": "06119","zip+4": "0000","phone": "8602339622","NPI": "     1467408856"}, 
{"id": 7887,"ncpdp": "0716956","pharmacy_name": "OSCO PHARMACY #7469","address1": "266 E MAIN ST","address2": "","city": "CLINTON","state": "CT","zip": "06413","zip+4": "0000","phone": "8606696619","NPI": "     1376599761"}, 
{"id": 7888,"ncpdp": "0716968","pharmacy_name": "CVS PHARMACY #00954","address1": "311 MAIN ST VILLAGE PLZ","address2": "","city": "TERRYVILLE","state": "CT","zip": "06786","zip+4": "0000","phone": "8603142891","NPI": "     1568567311"}, 
{"id": 7889,"ncpdp": "0716970","pharmacy_name": "RITE AID PHARMACY #04687","address1": "52 EAST STREET","address2": "","city": "PLAINVILLE","state": "CT","zip": "06062","zip+4": "2309","phone": "8607475787","NPI": "     1003925389"}, 
{"id": 7890,"ncpdp": "0716982","pharmacy_name": "PRICE CHOPPER PHARMACY #156","address1": "990 TORRINGFORD ST RT 183","address2": "","city": "TORRINGTON","state": "CT","zip": "06790","zip+4": "0000","phone": "8604965058","NPI": "     1679686778"}, 
{"id": 7891,"ncpdp": "0716994","pharmacy_name": "GRIFFIN PHARMACY AND GIFTS","address1": "130 DIVISION ST","address2": "","city": "DERBY","state": "CT","zip": "06418","zip+4": "0000","phone": "2037321490","NPI": "     1811106461"}, 
{"id": 7892,"ncpdp": "0717009","pharmacy_name": "A AND P SUPERFOODMART PHARMACY","address1": "820 WASHINGTON ST","address2": "","city": "MIDDLETOWN","state": "CT","zip": "06457","zip+4": "0000","phone": "8603441551","NPI": "     1164447710"}, 
{"id": 7893,"ncpdp": "0717011","pharmacy_name": "A AND P SUPERFOODMART PHARMACY","address1": "35 MAIN ST","address2": "","city": "DANBURY","state": "CT","zip": "06810","zip+4": "0000","phone": "2037489122","NPI": "     1073538625"}, 
{"id": 7894,"ncpdp": "0717035","pharmacy_name": "JEWETT CITY PHARMACY","address1": "78 MAIN ST","address2": "","city": "JEWETT CITY","state": "CT","zip": "06351","zip+4": "0000","phone": "8603764468","NPI": "     1689676074"}, 
{"id": 7895,"ncpdp": "0717061","pharmacy_name": "ARROW PHARMACY AND NUTRITION C","address1": "838 FARMINGTON AVENUE","address2": "","city": "FARMINGTON","state": "CT","zip": "06032","zip+4": "0000","phone": "8606760850","NPI": "     1649207598"}, 
{"id": 7896,"ncpdp": "0717085","pharmacy_name": "RITE AID PHARMACY #04620","address1": "744 WOLCOTT ROAD","address2": "","city": "WOLCOTT","state": "CT","zip": "06716","zip+4": "1906","phone": "2038795853","NPI": "     1912016296"}, 
{"id": 7897,"ncpdp": "0717112","pharmacy_name": "CVS PHARMACY #01897","address1": "6 QUEEN ST","address2": "","city": "NEWTOWN","state": "CT","zip": "06470","zip+4": "0000","phone": "2034262595","NPI": "     1417051335"}, 
{"id": 7898,"ncpdp": "0717148","pharmacy_name": "STOP AND SHOP PHARMACY #663","address1": "1360 EAST TOWN ROAD","address2": "","city": "MILFORD","state": "CT","zip": "06460","zip+4": "0000","phone": "2038771912","NPI": "     1932131802"}, 
{"id": 7899,"ncpdp": "0717162","pharmacy_name": "CVS PHARMACY #02210","address1": "1239 E PUTNAM AVE","address2": "","city": "RIVERSIDE","state": "CT","zip": "06878","zip+4": "0000","phone": "2036984006","NPI": "     1326142241"}, 
{"id": 7900,"ncpdp": "0717201","pharmacy_name": "WAL-MART PHARMACY #102299","address1": "161 BERLIN ROAD","address2": "","city": "CROMWELL","state": "CT","zip": "06416","zip+4": "0000","phone": "8606351507","NPI": "     1700803095"}, 
{"id": 7901,"ncpdp": "0717225","pharmacy_name": "WAL-MART PHARMACY #102282","address1": "69 PROSPECT HILL ROAD","address2": "","city": "EAST WINDSOR","state": "CT","zip": "06088","zip+4": "0000","phone": "8602921573","NPI": "     1619994902"}, 
{"id": 7902,"ncpdp": "0717237","pharmacy_name": "RITE AID PHARMACY #04759","address1": "88 WEST STAFFORD ROAD","address2": "","city": "STAFFORD SPRINGS","state": "CT","zip": "06076","zip+4": "1067","phone": "8606849555","NPI": "     1730298019"}, 
{"id": 7903,"ncpdp": "0717249","pharmacy_name": "WAL-MART PHARMACY #102232","address1": "120 COMMERCIAL PARKWAY","address2": "","city": "BRANFORD","state": "CT","zip": "06405","zip+4": "0000","phone": "2034883914","NPI": "     1528085818"}, 
{"id": 7904,"ncpdp": "0717251","pharmacy_name": "STOP AND SHOP PHARMACY #637","address1": "2200 BEDFORD STREET","address2": "","city": "STAMFORD","state": "CT","zip": "06905","zip+4": "0000","phone": "2033560126","NPI": "     1033141908"}, 
{"id": 7905,"ncpdp": "0717287","pharmacy_name": "PHARMACY EXPRESS","address1": "262 STATE ST","address2": "","city": "NORTH HAVEN","state": "CT","zip": "06473","zip+4": "0000","phone": "2032877375","NPI": "     1578606380"}, 
{"id": 7906,"ncpdp": "0717299","pharmacy_name": "RITE AID PHARMACY #04778","address1": "588 MAIN STREET","address2": "","city": "EAST HAVEN","state": "CT","zip": "06512","zip+4": "2001","phone": "2034697648","NPI": "     1023129277"}, 
{"id": 7907,"ncpdp": "0717302","pharmacy_name": "CVS PHARMACY #02153","address1": "150 S MAIN ST","address2": "","city": "W. HARTFORD","state": "CT","zip": "06107","zip+4": "0000","phone": "8605616164","NPI": "     1144324062"}, 
{"id": 7908,"ncpdp": "0717314","pharmacy_name": "WAL-MART PHARMACY #102284","address1": "1100 NEW HAVEN ROAD","address2": "","city": "NAUGATUCK","state": "CT","zip": "06770","zip+4": "0000","phone": "2037292288","NPI": "     1437176724"}, 
{"id": 7909,"ncpdp": "0717338","pharmacy_name": "STOP AND SHOP PHARMACY #613","address1": "10 PITKIN ROAD","address2": "","city": "VERNON","state": "CT","zip": "06066","zip+4": "0000","phone": "8608711053","NPI": "     1942232814"}, 
{"id": 7910,"ncpdp": "0717340","pharmacy_name": "RITE AID PHARMACY #10373","address1": "227 MAIN STREET","address2": "","city": "PORTLAND","state": "CT","zip": "06480","zip+4": "0000","phone": "8603422121","NPI": "     1871692145"}, 
{"id": 7911,"ncpdp": "0717352","pharmacy_name": "MEDICAL CENTER PHARMACY #1415","address1": "1415 CHAPEL ST","address2": "","city": "NEW HAVEN","state": "CT","zip": "06511","zip+4": "0000","phone": "2036881880","NPI": "     1710016522"}, 
{"id": 7912,"ncpdp": "0717376","pharmacy_name": "A AND P SUPERFOODMART PHARMACY","address1": "179 STONINGTON RD","address2": "","city": "MYSTIC","state": "CT","zip": "06355","zip+4": "0000","phone": "8605365835","NPI": "     1609891258"}, 
{"id": 7913,"ncpdp": "0717403","pharmacy_name": "STOP AND SHOP PHARMACY #650","address1": "1160 KINGS HWY CUTOFF","address2": "","city": "FAIRFIELD","state": "CT","zip": "06430","zip+4": "0000","phone": "2032548538","NPI": "     1841222718"}, 
{"id": 7914,"ncpdp": "0717439","pharmacy_name": "HOWES DRUG STORE LLC","address1": "78 BROAD ST","address2": "","city": "MILFORD","state": "CT","zip": "06460","zip+4": "0000","phone": "2038782441","NPI": "     1649384314"}, 
{"id": 7915,"ncpdp": "0717441","pharmacy_name": "CVS PHARMACY #02140","address1": "526 MERIDEN RD","address2": "","city": "WATERBURY","state": "CT","zip": "06705","zip+4": "0000","phone": "2034657055","NPI": "     1962506881"}, 
{"id": 7916,"ncpdp": "0717477","pharmacy_name": "RITE AID PHARMACY #10357","address1": "20 PROSPECT STREET","address2": "","city": "MOOSUP","state": "CT","zip": "06354","zip+4": "0000","phone": "8605644307","NPI": "     1780783050"}, 
{"id": 7917,"ncpdp": "0717528","pharmacy_name": "RITE AID PHARMACY #10358","address1": "624 WEST MAIN STREET","address2": "","city": "NORWICH","state": "CT","zip": "06360","zip+4": "0000","phone": "8608861418","NPI": "     1598864860"}, 
{"id": 7918,"ncpdp": "0717530","pharmacy_name": "CVS PHARMACY #02109","address1": "22 WINDSOR AVE RTE 83","address2": "","city": "ROCKVILLE","state": "CT","zip": "06066","zip+4": "0000","phone": "8608706765","NPI": "     1184728008"}, 
{"id": 7919,"ncpdp": "0717578","pharmacy_name": "CVS PHARMACY #02056","address1": "25 BROADWAY","address2": "","city": "MYSTIC","state": "CT","zip": "06355","zip+4": "0000","phone": "8605365639","NPI": "     1801990726"}, 
{"id": 7920,"ncpdp": "0717592","pharmacy_name": "A AND P SUPERFOODMART PHARMACY","address1": "1 PADANARAM RD","address2": "","city": "DANBURY","state": "CT","zip": "06812","zip+4": "0000","phone": "2037912356","NPI": "     1427073071"}, 
{"id": 7921,"ncpdp": "0717605","pharmacy_name": "RITE AID PHARMACY #01839","address1": "70 ELM STREET","address2": "","city": "WEST HAVEN","state": "CT","zip": "06516","zip+4": "3810","phone": "2039335260","NPI": "     1245302728"}, 
{"id": 7922,"ncpdp": "0717643","pharmacy_name": "CVS PHARMACY #02018","address1": "540 WEST MAIN ST","address2": "","city": "MERIDEN","state": "CT","zip": "06451","zip+4": "0000","phone": "2032378984","NPI": "     1629172549"}, 
{"id": 7923,"ncpdp": "0717655","pharmacy_name": "OSCO PHARMACY #7454","address1": "150 WHALLEY AVE","address2": "","city": "NEW HAVEN","state": "CT","zip": "06511","zip+4": "0000","phone": "2034959630","NPI": "     1093761488"}, 
{"id": 7924,"ncpdp": "0717679","pharmacy_name": "RITE AID PHARMACY #04772","address1": "71 PALOMBA DRIVE","address2": "","city": "ENFIELD","state": "CT","zip": "06082","zip+4": "3801","phone": "8607494184","NPI": "     1649389925"}, 
{"id": 7925,"ncpdp": "0717693","pharmacy_name": "RITE AID PHARMACY #10341","address1": "76 MAIN STREET","address2": "","city": "CANAAN","state": "CT","zip": "06018","zip+4": "2460","phone": "8608245481","NPI": "     1407955776"}, 
{"id": 7926,"ncpdp": "0717706","pharmacy_name": "STOP AND SHOP PHARMACY #642","address1": "747 PINE STREET","address2": "","city": "BRISTOL","state": "CT","zip": "06010","zip+4": "0000","phone": "8605839213","NPI": "     1932134038"}, 
{"id": 7927,"ncpdp": "0717718","pharmacy_name": "RITE AID PHARMACY #10342","address1": "900 FARMINGTON AVENUE","address2": "","city": "KENSINGTON","state": "CT","zip": "06037","zip+4": "0000","phone": "8608290742","NPI": "     1316046683"}, 
{"id": 7928,"ncpdp": "0717720","pharmacy_name": "STOP AND SHOP PHARMACY #620","address1": "100 QUALITY STREET","address2": "","city": "TRUMBULL","state": "CT","zip": "06611","zip+4": "0000","phone": "2032613691","NPI": "     1750313623"}, 
{"id": 7929,"ncpdp": "0717732","pharmacy_name": "CVS PHARMACY #02119","address1": "1055 FARMINGTON AVE","address2": "","city": "KENSINGTON","state": "CT","zip": "06037","zip+4": "0000","phone": "8608286584","NPI": "     1447354360"}, 
{"id": 7930,"ncpdp": "0717744","pharmacy_name": "CVS PHARMACY #00785","address1": "632 MIDDLE TPK","address2": "","city": "STORRS","state": "CT","zip": "06268","zip+4": "0000","phone": "8604872034","NPI": "     1265536189"}, 
{"id": 7931,"ncpdp": "0717770","pharmacy_name": "STOP AND SHOP PHARMACY #668","address1": "2600 MADISON AVENUE","address2": "","city": "BRIDGEPORT","state": "CT","zip": "06606","zip+4": "0000","phone": "2033727150","NPI": "     1669404539"}, 
{"id": 7932,"ncpdp": "0717821","pharmacy_name": "OSCO PHARMACY #7451","address1": "846 N COLONY RD","address2": "","city": "WALLINGFORD","state": "CT","zip": "06492","zip+4": "0000","phone": "2032944233","NPI": "     1902852395"}, 
{"id": 7933,"ncpdp": "0717857","pharmacy_name": "RITE AID PHARMACY #02574","address1": "1360 BOSTON POST ROAD","address2": "","city": "MILFORD","state": "CT","zip": "06460","zip+4": "2704","phone": "2038776774","NPI": "     1558470831"}, 
{"id": 7934,"ncpdp": "0717972","pharmacy_name": "CVS PHARMACY #01166","address1": "219 BROAD ST","address2": "","city": "WINDSOR","state": "CT","zip": "06095","zip+4": "0000","phone": "8602985925","NPI": "     1083718902"}, 
{"id": 7935,"ncpdp": "0718001","pharmacy_name": "CVS PHARMACY #02525","address1": "323 CROMWELL AVE","address2": "","city": "ROCKY HILL","state": "CT","zip": "06067","zip+4": "0000","phone": "8605639393","NPI": "     1700980620"}, 
{"id": 7936,"ncpdp": "0718025","pharmacy_name": "STOP AND SHOP PHARMACY #640","address1": "385 CONNECTICUT AVENUE","address2": "","city": "NORWALK","state": "CT","zip": "06856","zip+4": "0000","phone": "2032991718","NPI": "     1578595443"}, 
{"id": 7937,"ncpdp": "0718049","pharmacy_name": "RITE AID PHARMACY #02089","address1": "1030 WOLCOTT STREET","address2": "","city": "WATERBURY","state": "CT","zip": "06705","zip+4": "1316","phone": "2037543636","NPI": "     1467561746"}, 
{"id": 7938,"ncpdp": "0718102","pharmacy_name": "RITE AID PHARMACY #04995","address1": "173 DANBURY ROAD","address2": "","city": "NEW MILFORD","state": "CT","zip": "06776","zip+4": "4309","phone": "8603546313","NPI": "     1376652651"}, 
{"id": 7939,"ncpdp": "0718114","pharmacy_name": "STOP AND SHOP PHARMACY #670","address1": "4531 NORTH MAIN ST","address2": "","city": "BRIDGEPORT","state": "CT","zip": "06606","zip+4": "0000","phone": "2033726538","NPI": "     1386679488"}, 
{"id": 7940,"ncpdp": "0718138","pharmacy_name": "REDDING PHARMACY","address1": "73 REDDING RD","address2": "PO BOX 359","city": "GEORGETOWN","state": "CT","zip": "06829","zip+4": "0359","phone": "2035448306","NPI": "     1437144185"}, 
{"id": 7941,"ncpdp": "0718140","pharmacy_name": "SHOPRITE PHARMACY #308","address1": "1200FARMINGTON AVENUE","address2": "","city": "BRISTOL","state": "CT","zip": "06010","zip+4": "0000","phone": "8605845733","NPI": "     1427198316"}, 
{"id": 7942,"ncpdp": "0718164","pharmacy_name": "CVS PHARMACY #02388","address1": "2000 N MAIN ST","address2": "","city": "WATERBURY","state": "CT","zip": "06704","zip+4": "0000","phone": "2035913006","NPI": "     1619071537"}, 
{"id": 7943,"ncpdp": "0718188","pharmacy_name": "CVS PHARMACY #00943","address1": "1200 MAIN ST","address2": "","city": "WILLIMANTIC","state": "CT","zip": "06226","zip+4": "0000","phone": "8604565931","NPI": "     1285739037"}, 
{"id": 7944,"ncpdp": "0718190","pharmacy_name": "RITE AID PHARMACY #02737","address1": "495 SOUTH MAIN STREET","address2": "","city": "THOMASTON","state": "CT","zip": "06787","zip+4": "1816","phone": "8602838541","NPI": "     1093824377"}, 
{"id": 7945,"ncpdp": "0718203","pharmacy_name": "WALDBAUMS PHARMACY #362","address1": "772 NORTH MAIN ST","address2": "","city": "WEST HARTFORD","state": "CT","zip": "06117","zip+4": "0000","phone": "8602325964","NPI": "     1336164987"}, 
{"id": 7946,"ncpdp": "0718253","pharmacy_name": "RITE AID PHARMACY #10343","address1": "1350 STANLEY STREET","address2": "","city": "NEW BRITAIN","state": "CT","zip": "06053","zip+4": "0000","phone": "8602247906","NPI": "     1225137599"}, 
{"id": 7947,"ncpdp": "0718265","pharmacy_name": "RITE AID PHARMACY #10355","address1": "27 MAIN STREET","address2": "","city": "JEWETT CITY","state": "CT","zip": "06351","zip+4": "0000","phone": "8603761236","NPI": "     1134228406"}, 
{"id": 7948,"ncpdp": "0718328","pharmacy_name": "STOP AND SHOP PHARMACY #654","address1": "485 BROAD STREET","address2": "","city": "MERIDEN","state": "CT","zip": "06450","zip+4": "0000","phone": "2032381261","NPI": "     1487686358"}, 
{"id": 7949,"ncpdp": "0718330","pharmacy_name": "CVS PHARMACY #02219","address1": "2427 MAIN ST","address2": "","city": "ROCKY HILL","state": "CT","zip": "06067","zip+4": "0000","phone": "8602584963","NPI": "     1437253358"}, 
{"id": 7950,"ncpdp": "0718392","pharmacy_name": "SHOP RITE PHARMACY OF NEW LOND","address1": "351 N FRONTAGE ROAD","address2": "","city": "NEW LONDON","state": "CT","zip": "06320","zip+4": "0000","phone": "8604471194","NPI": "     1639268097"}, 
{"id": 7951,"ncpdp": "0718506","pharmacy_name": "STOP AND SHOP PHARMACY #694","address1": "79 WASHINGTON AVENUE","address2": "","city": "NORTH HAVEN","state": "CT","zip": "06473","zip+4": "0000","phone": "2032347461","NPI": "     1295767168"}, 
{"id": 7952,"ncpdp": "0718518","pharmacy_name": "WAL-MART PHARMACY #102897","address1": "235 QUEEN STREET","address2": "","city": "SOUTHINGTON","state": "CT","zip": "06489","zip+4": "0000","phone": "8606219830","NPI": "     1255358545"}, 
{"id": 7953,"ncpdp": "0718532","pharmacy_name": "STOP AND SHOP PHARMACY #647","address1": "855 BRIDGEPORT AVENUE","address2": "","city": "MILFORD","state": "CT","zip": "06460","zip+4": "0000","phone": "2038760654","NPI": "     1194750299"}, 
{"id": 7954,"ncpdp": "0718544","pharmacy_name": "STOP AND SHOP PHARMACY #624","address1": "136 SAMSON ROCK DRIVE","address2": "","city": "MADISON","state": "CT","zip": "06443","zip+4": "0000","phone": "2032457467","NPI": "     1104858075"}, 
{"id": 7955,"ncpdp": "0718556","pharmacy_name": "CVS PHARMACY #02584","address1": "252 ORANGE AVE","address2": "","city": "WEST HAVEN","state": "CT","zip": "06516","zip+4": "0000","phone": "2039314541","NPI": "     1255435178"}, 
{"id": 7956,"ncpdp": "0718582","pharmacy_name": "WAL-MART PHARMACY #102900","address1": "80 TOWN LINE ROAD","address2": "","city": "ROCKY HILL","state": "CT","zip": "06067","zip+4": "0000","phone": "8605634322","NPI": "     1164449450"}, 
{"id": 7957,"ncpdp": "0718645","pharmacy_name": "CVS PHARMACY #02502","address1": "581 HIGHLAND AVE","address2": "","city": "CHESHIRE","state": "CT","zip": "06410","zip+4": "0000","phone": "2032502251","NPI": "     1073617999"}, 
{"id": 7958,"ncpdp": "0718657","pharmacy_name": "TARGET PHARMACY #1249","address1": "125 BUCKLAND HILLS DRIVE","address2": "","city": "MANCHESTER","state": "CT","zip": "06040","zip+4": "0000","phone": "8603270083","NPI": "     1083636682"}, 
{"id": 7959,"ncpdp": "0718669","pharmacy_name": "TARGET PHARMACY #1267","address1": "900 HARTFORDNEW LONDON TRPK","address2": "","city": "WATERFORD","state": "CT","zip": "06385","zip+4": "0000","phone": "8604433171","NPI": "     1811910110"}, 
{"id": 7960,"ncpdp": "0718671","pharmacy_name": "TARGET PHARMACY #1289","address1": "475 HARTFORD ROAD","address2": "","city": "NEW BRITAIN","state": "CT","zip": "06053","zip+4": "0000","phone": "8603489163","NPI": "     1891717492"}, 
{"id": 7961,"ncpdp": "0718683","pharmacy_name": "CVS PHARMACY #02572","address1": "1 HAWLEY LANE","address2": "","city": "STRATFORD","state": "CT","zip": "06614","zip+4": "0000","phone": "2033837736","NPI": "     1891899720"}, 
{"id": 7962,"ncpdp": "0718695","pharmacy_name": "CVS PHARMACY #02573","address1": "1425 BARNUM AVE","address2": "","city": "STRATFORD","state": "CT","zip": "06614","zip+4": "0000","phone": "2033837741","NPI": "     1619071545"}, 
{"id": 7963,"ncpdp": "0718708","pharmacy_name": "WAL-MART PHARMACY #102896","address1": "656 NEW HAVEN AVENUE","address2": "","city": "DERBY","state": "CT","zip": "06418","zip+4": "0000","phone": "2037362667","NPI": "     1073530366"}, 
{"id": 7964,"ncpdp": "0718710","pharmacy_name": "WAL-MART PHARMACY #102954","address1": "650 MAIN AVENUE","address2": "","city": "NORWALK","state": "CT","zip": "06851","zip+4": "0000","phone": "2038468365","NPI": "     1982621272"}, 
{"id": 7965,"ncpdp": "0718722","pharmacy_name": "STOP AND SHOP PHARMACY #603","address1": "15 FRANKLIN STREET","address2": "","city": "SEYMOUR","state": "CT","zip": "06483","zip+4": "0000","phone": "2038812756","NPI": "     1013949981"}, 
{"id": 7966,"ncpdp": "0718734","pharmacy_name": "STOP AND SHOP PHARMACY #645","address1": "1309 CORBIN AVENUE","address2": "","city": "NEW BRITAIN","state": "CT","zip": "06053","zip+4": "0000","phone": "8603489830","NPI": "     1922030899"}, 
{"id": 7967,"ncpdp": "0718758","pharmacy_name": "WAL-MART PHARMACY #102899","address1": "255 W MAIN STREET","address2": "","city": "AVON","state": "CT","zip": "06001","zip+4": "0000","phone": "8604090406","NPI": "     1790702082"}, 
{"id": 7968,"ncpdp": "0718760","pharmacy_name": "WAL-MART PHARMACY #102719","address1": "1400 FARMINGTON AVENUE","address2": "","city": "BRISTOL","state": "CT","zip": "06010","zip+4": "0000","phone": "8605851103","NPI": "     1609893999"}, 
{"id": 7969,"ncpdp": "0718772","pharmacy_name": "WALGREEN DRUG STORE #5948","address1": "425 W MAIN ST","address2": "","city": "MERIDEN","state": "CT","zip": "06451","zip+4": "0000","phone": "2036398788","NPI": "     1891700142"}, 
{"id": 7970,"ncpdp": "0718796","pharmacy_name": "WALGREEN DRUG STORE #6308","address1": "55 WESTPORT AVE","address2": "","city": "NORWALK","state": "CT","zip": "06851","zip+4": "0000","phone": "2038450436","NPI": "     1700891058"}, 
{"id": 7971,"ncpdp": "0718809","pharmacy_name": "WALGREEN DRUG STORE #5406","address1": "1191 DIXWELL AVE","address2": "","city": "HAMDEN","state": "CT","zip": "06514","zip+4": "0000","phone": "2032302590","NPI": "     1619982964"}, 
{"id": 7972,"ncpdp": "0718835","pharmacy_name": "COSTCO PHARMACY #324","address1": "779 CONNECTICUT AVE","address2": "","city": "NORWALK","state": "CT","zip": "06854","zip+4": "0000","phone": "2038222002","NPI": "     1902916513"}, 
{"id": 7973,"ncpdp": "0718873","pharmacy_name": "WALGREEN DRUG STORE #5949","address1": "28 E ELM ST","address2": "","city": "TORRINGTON","state": "CT","zip": "06790","zip+4": "0000","phone": "8604825451","NPI": "     1528073871"}, 
{"id": 7974,"ncpdp": "0718924","pharmacy_name": "CVS PHARMACY #02097","address1": "279 BOSTON POST RD","address2": "","city": "ORANGE","state": "CT","zip": "06477","zip+4": "0000","phone": "2037954704","NPI": "     1437253366"}, 
{"id": 7975,"ncpdp": "0718936","pharmacy_name": "WALGREEN DRUG STORE #6474","address1": "88 YORK ST","address2": "","city": "NEW HAVEN","state": "CT","zip": "06511","zip+4": "0000","phone": "2037529586","NPI": "     1396751038"}, 
{"id": 7976,"ncpdp": "0718948","pharmacy_name": "BRANFORD HILLS HEALTH CARE CTR","address1": "189 ALPS RD","address2": "","city": "BRANFORD","state": "CT","zip": "06405","zip+4": "0000","phone": "2033152634","NPI": "     1891739645"}, 
{"id": 7977,"ncpdp": "0718950","pharmacy_name": "WAL-MART PHARMACY #102854","address1": "180 RIVER ROAD","address2": "","city": "LISBON","state": "CT","zip": "06351","zip+4": "0000","phone": "8603760132","NPI": "     1518984806"}, 
{"id": 7978,"ncpdp": "0718962","pharmacy_name": "WAL-MART PHARMACY #102898","address1": "665 BOSTON POST ROAD","address2": "","city": "OLD SAYBROOK","state": "CT","zip": "06475","zip+4": "0000","phone": "8603880560","NPI": "     1427075712"}, 
{"id": 7979,"ncpdp": "0718998","pharmacy_name": "STOP AND SHOP PHARMACY #675","address1": "920 WOLCOTT STREET","address2": "","city": "WATERBURY","state": "CT","zip": "06705","zip+4": "0000","phone": "2037559538","NPI": "     1003841107"}, 
{"id": 7980,"ncpdp": "0719003","pharmacy_name": "CVS PHARMACY #03795","address1": "93 OLD RIDGEFIELD RD","address2": "","city": "WILTON","state": "CT","zip": "06897","zip+4": "0000","phone": "2037625020","NPI": "     1255435186"}, 
{"id": 7981,"ncpdp": "0719015","pharmacy_name": "WAL-MART PHARMACY #102965","address1": "3164 BERLIN TURNPIKE","address2": "","city": "NEWINGTON","state": "CT","zip": "06111","zip+4": "0000","phone": "8606670152","NPI": "     1336166628"}, 
{"id": 7982,"ncpdp": "0719027","pharmacy_name": "TARGET PHARMACY #1255","address1": "90 ELM ST","address2": "","city": "ENFIELD","state": "CT","zip": "06082","zip+4": "0000","phone": "8607418054","NPI": "     1700808300"}, 
{"id": 7983,"ncpdp": "0719039","pharmacy_name": "TARGET PHARMACY #1373","address1": "474 CHAMBERLAIN HWY","address2": "","city": "MERIDEN","state": "CT","zip": "06451","zip+4": "0000","phone": "2036346060","NPI": "     1528080124"}, 
{"id": 7984,"ncpdp": "0719041","pharmacy_name": "CVS PHARMACY #02099","address1": "479 BLUE HILLS AVE","address2": "","city": "HARTFORD","state": "CT","zip": "06112","zip+4": "0000","phone": "8607696870","NPI": "     1073617908"}, 
{"id": 7985,"ncpdp": "0719053","pharmacy_name": "CVS PHARMACY #02682","address1": "47 MAIN ST","address2": "","city": "WINSTED","state": "CT","zip": "06098","zip+4": "0000","phone": "8607386243","NPI": "     1790889624"}, 
{"id": 7986,"ncpdp": "0719065","pharmacy_name": "STOP AND SHOP PHARMACY #611","address1": "120 SALMON BROOK ST AND RT 10","address2": "","city": "GRANBY","state": "CT","zip": "06035","zip+4": "0000","phone": "8608448346","NPI": "     1831121706"}, 
{"id": 7987,"ncpdp": "0719077","pharmacy_name": "STOP AND SHOP PHARMACY #657","address1": "763 STRAITS TURNPIKE","address2": "","city": "WATERTOWN","state": "CT","zip": "06795","zip+4": "0000","phone": "8602747461","NPI": "     1740212612"}, 
{"id": 7988,"ncpdp": "0719091","pharmacy_name": "BIG Y PHARMACY #60","address1": "67 PROSPECT HILL ROAD","address2": "","city": "EAST WINDSOR","state": "CT","zip": "06088","zip+4": "0000","phone": "8606231407","NPI": "     1043309677"}, 
{"id": 7989,"ncpdp": "0719104","pharmacy_name": "CVS PHARMACY #02259","address1": "215 WHALLEY AVE","address2": "","city": "NEW HAVEN","state": "CT","zip": "06511","zip+4": "0000","phone": "2034014660","NPI": "     1518061449"}, 
{"id": 7990,"ncpdp": "0719116","pharmacy_name": "DRUG SHOPPE HLTH SOLUTIONS","address1": "7 ANNGINA DR","address2": "","city": "ENFIELD","state": "CT","zip": "06082","zip+4": "0000","phone": "8607493824","NPI": "     1598777153"}, 
{"id": 7991,"ncpdp": "0719142","pharmacy_name": "WAL-MART PHARMACY #102585","address1": "150 BARNUM AVENUE CUTOFF","address2": "","city": "STRATFORD","state": "CT","zip": "06614","zip+4": "0000","phone": "2035027629","NPI": "     1407874928"}, 
{"id": 7992,"ncpdp": "0719154","pharmacy_name": "CVS PHARMACY #05450","address1": "331 NEW LONDON TPK","address2": "","city": "GLASTONBURY","state": "CT","zip": "06033","zip+4": "0000","phone": "8606334668","NPI": "     1336243260"}, 
{"id": 7993,"ncpdp": "0719178","pharmacy_name": "SHOPRITE PHARMACY OF DERBY #39","address1": "49 PERSHING DRIVE","address2": "","city": "DERBY","state": "CT","zip": "06418","zip+4": "0000","phone": "2037361055","NPI": "     1548311848"}, 
{"id": 7994,"ncpdp": "0719180","pharmacy_name": "WALGREEN DRUG STORE #6503","address1": "541 BRIDGEPORT AVE","address2": "","city": "MILFORD","state": "CT","zip": "06460","zip+4": "0000","phone": "2038767581","NPI": "     1437164787"}, 
{"id": 7995,"ncpdp": "0719217","pharmacy_name": "WALGREEN DRUG STORE #7086","address1": "5 FARMINGTON AVE","address2": "","city": "PLAINVILLE","state": "CT","zip": "06062","zip+4": "0000","phone": "8607939064","NPI": "     1346255692"}, 
{"id": 7996,"ncpdp": "0719229","pharmacy_name": "WAL-MART PHARMACY #103545","address1": "2300 DIXWELL AVENUE","address2": "","city": "HAMDEN","state": "CT","zip": "06514","zip+4": "0000","phone": "2032302841","NPI": "     1245257534"}, 
{"id": 7997,"ncpdp": "0719231","pharmacy_name": "WALGREEN DRUG STORE #6966","address1": "14 MERIDEN RD","address2": "","city": "WATERBURY","state": "CT","zip": "06705","zip+4": "0000","phone": "2037578002","NPI": "     1255346508"}, 
{"id": 7998,"ncpdp": "0719243","pharmacy_name": "SAMS PHARMACY #108195","address1": "69 PAVILIONS DRIVE","address2": "","city": "MANCHESTER","state": "CT","zip": "06040","zip+4": "0000","phone": "8606445807","NPI": "     1154348449"}, 
{"id": 7999,"ncpdp": "0719267","pharmacy_name": "WAL-MART PHARMACY #103548","address1": "910 WOLCOTT STREET","address2": "","city": "WATERBURY","state": "CT","zip": "06705","zip+4": "0000","phone": "2037591637","NPI": "     1063439354"}, 
{"id": 8000,"ncpdp": "0719281","pharmacy_name": "WAL-MART PHARMACY #103543","address1": "67 NEWTOWN ROAD","address2": "","city": "DANBURY","state": "CT","zip": "06810","zip+4": "0000","phone": "2037918178","NPI": "     1972520260"}, 
{"id": 8001,"ncpdp": "0719293","pharmacy_name": "WAL-MART PHARMACY #103546","address1": "164 DANBURY ROAD","address2": "","city": "NEW MILFORD","state": "CT","zip": "06776","zip+4": "0000","phone": "8603504815","NPI": "     1699792986"}, 
{"id": 8002,"ncpdp": "0719306","pharmacy_name": "WALGREEN DRUG STORE #6654","address1": "149 DEMING ST","address2": "","city": "MANCHESTER","state": "CT","zip": "06040","zip+4": "0000","phone": "8606441140","NPI": "     1164437414"}, 
{"id": 8003,"ncpdp": "0719332","pharmacy_name": "CVS PHARMACY #05848","address1": "119 SOUTH MAIN ST","address2": "","city": "COLCHESTER","state": "CT","zip": "06415","zip+4": "0000","phone": "8605370711","NPI": "     1245334176"}, 
{"id": 8004,"ncpdp": "0719344","pharmacy_name": "STOP AND SHOP PHARMACY #605","address1": "55 OAK STREET","address2": "","city": "GLASTONBURY","state": "CT","zip": "06033","zip+4": "0000","phone": "8606529208","NPI": "     1912932013"}, 
{"id": 8005,"ncpdp": "0719382","pharmacy_name": "RITE AID PHARMACY #10384","address1": "113 115 MILL PLAIN ROAD","address2": "","city": "DANBURY","state": "CT","zip": "06811","zip+4": "5277","phone": "2037987520","NPI": "     1174622492"}, 
{"id": 8006,"ncpdp": "0719394","pharmacy_name": "RITE AID PHARMACY #10348","address1": "40 CEDAR STREET","address2": "","city": "NEWINGTON","state": "CT","zip": "06111","zip+4": "2613","phone": "8606664079","NPI": "     1043319312"}, 
{"id": 8007,"ncpdp": "0719457","pharmacy_name": "STOP AND SHOP PHARMACY #665","address1": "248 FLANDERS ROAD","address2": "","city": "EAST LYME","state": "CT","zip": "06333","zip+4": "0000","phone": "8607395957","NPI": "     1467484337"}, 
{"id": 8008,"ncpdp": "0719471","pharmacy_name": "GEER PHARMACY","address1": "99 S CANAAN RD","address2": "","city": "CANAAN","state": "CT","zip": "06018","zip+4": "0000","phone": "8608243822","NPI": "     1417990680"}, 
{"id": 8009,"ncpdp": "0719495","pharmacy_name": "STOP AND SHOP PHARMACY #697","address1": "1094 KILLINGLY COMMONS","address2": "","city": "DAYVILLE","state": "CT","zip": "06241","zip+4": "0000","phone": "8607745301","NPI": "     1376575241"}, 
{"id": 8010,"ncpdp": "0719510","pharmacy_name": "WAL-MART PHARMACY #103547","address1": "680 CONNECTICUT AVENUE","address2": "","city": "NORWALK","state": "CT","zip": "06854","zip+4": "0000","phone": "2038548519","NPI": "     1508883893"}, 
{"id": 8011,"ncpdp": "0719522","pharmacy_name": "CVS PHARMACY #03373","address1": "961 BLACK ROCK TPK","address2": "","city": "FAIRFIELD","state": "CT","zip": "06825","zip+4": "0000","phone": "2033314746","NPI": "     1063516995"}, 
{"id": 8012,"ncpdp": "0719558","pharmacy_name": "WALGREEN DRUG STORE #6757","address1": "1333 E PUTNAM AVE","address2": "","city": "RIVERSIDE","state": "CT","zip": "06878","zip+4": "0000","phone": "2036371029","NPI": "     1073528329"}, 
{"id": 8013,"ncpdp": "0719560","pharmacy_name": "CVS PHARMACY #02220","address1": "3514 MAIN ST","address2": "","city": "COVENTRY","state": "CT","zip": "06238","zip+4": "0000","phone": "8607423543","NPI": "     1881798718"}, 
{"id": 8014,"ncpdp": "0719572","pharmacy_name": "CVS PHARMACY #06807","address1": "679 EAST MAIN ST","address2": "","city": "MERIDEN","state": "CT","zip": "06450","zip+4": "0000","phone": "2032378997","NPI": "     1508960436"}, 
{"id": 8015,"ncpdp": "0719647","pharmacy_name": "BIG Y PHARMACY #45","address1": "234 TOLLAND TURNPIKE","address2": "","city": "MANCHESTER","state": "CT","zip": "06040","zip+4": "0000","phone": "8606464832","NPI": "     1861581498"}, 
{"id": 8016,"ncpdp": "0719659","pharmacy_name": "TARGET PHARMACY #1802","address1": "32065 BERLIN TURNPIKE","address2": "","city": "NEWINGTON","state": "CT","zip": "06111","zip+4": "0000","phone": "8606160023","NPI": "     1720001027"}, 
{"id": 8017,"ncpdp": "0719661","pharmacy_name": "WALGREEN DRUG STORE #7145","address1": "880 POST RD E","address2": "","city": "WESTPORT","state": "CT","zip": "06880","zip+4": "0000","phone": "2032268107","NPI": "     1700892106"}, 
{"id": 8018,"ncpdp": "0719685","pharmacy_name": "PARTNERS HEALTHCARE","address1": "6 THOMPSON RD","address2": "","city": "EAST WINDSOR","state": "CT","zip": "06088","zip+4": "0000","phone": "8606233000","NPI": "     1336170349"}, 
{"id": 8019,"ncpdp": "0719700","pharmacy_name": "STOP AND SHOP PHARMACY #658","address1": "5 RIVER ROAD","address2": "","city": "WILTON","state": "CT","zip": "06897","zip+4": "0000","phone": "2038342204","NPI": "     1285666156"}, 
{"id": 8020,"ncpdp": "0719712","pharmacy_name": "WALGREEN DRUG STORE #7522","address1": "4083 MAIN ST","address2": "","city": "BRIDGEPORT","state": "CT","zip": "06606","zip+4": "0000","phone": "2033742784","NPI": "     1205842945"}, 
{"id": 8021,"ncpdp": "0719724","pharmacy_name": "PRICE CHOPPER PHARMACY #204","address1": "121 FARMINGTON AVE","address2": "","city": "BRISTOL","state": "CT","zip": "06010","zip+4": "0000","phone": "8605823702","NPI": "     1164535506"}, 
{"id": 8022,"ncpdp": "0719736","pharmacy_name": "PRICE CHOPPER PHARMACY #203","address1": "410 QUEEN ST","address2": "","city": "SOUTHINGTON","state": "CT","zip": "06489","zip+4": "0000","phone": "8606215369","NPI": "     1285747626"}, 
{"id": 8023,"ncpdp": "0719748","pharmacy_name": "RITE AID PHARMACY #10349","address1": "315 FRANKLIN AVENUE","address2": "","city": "HARTFORD","state": "CT","zip": "06114","zip+4": "1851","phone": "8602963481","NPI": "     1952400228"}, 
{"id": 8024,"ncpdp": "0719750","pharmacy_name": "TARGET PHARMACY #1528","address1": "7 STONY HILL RD","address2": "","city": "BETHEL","state": "CT","zip": "06801","zip+4": "0000","phone": "2034481030","NPI": "     1437171030"}, 
{"id": 8025,"ncpdp": "0719762","pharmacy_name": "OSCO PHARMACY #7457","address1": "25 STATE ROUTE 39","address2": "","city": "NEW FAIRFIELD","state": "CT","zip": "06812","zip+4": "0000","phone": "2033129818","NPI": "     1942256565"}, 
{"id": 8026,"ncpdp": "0719774","pharmacy_name": "WALGREEN DRUG STORE #6992","address1": "529 TALCOTTVILLE RD","address2": "","city": "VERNON","state": "CT","zip": "06066","zip+4": "0000","phone": "8608716064","NPI": "     1982619235"}, 
{"id": 8027,"ncpdp": "0719786","pharmacy_name": "ARROW PRESCRIPTION CENTER #11","address1": "500 ALBANY AVE","address2": "","city": "HARTFORD","state": "CT","zip": "06120","zip+4": "2599","phone": "8605245304","NPI": "     1134128838"}, 
{"id": 8028,"ncpdp": "0719798","pharmacy_name": "OSCO PHARMACY #7606","address1": "31 MAIN ST","address2": "","city": "EAST HARTFORD","state": "CT","zip": "06118","zip+4": "0000","phone": "8608958106","NPI": "     1851347470"}, 
{"id": 8029,"ncpdp": "0719801","pharmacy_name": "RITE AID PHARMACY #10366","address1": "100 MAIN STREET","address2": "","city": "MIDDLETOWN","state": "CT","zip": "06457","zip+4": "3477","phone": "8603468601","NPI": "     1861591133"}, 
{"id": 8030,"ncpdp": "0719813","pharmacy_name": "RITE AID PHARMACY #10347","address1": "657 SILAS DEANE HIGHWAY","address2": "","city": "WETHERSFIELD","state": "CT","zip": "06109","zip+4": "3026","phone": "8602578000","NPI": "     1497854764"}, 
{"id": 8031,"ncpdp": "0719825","pharmacy_name": "BIG Y PHARMACY #34","address1": "141B STORRS ROAD","address2": "","city": "MANSFIELD","state": "CT","zip": "06250","zip+4": "0000","phone": "8604561358","NPI": "     1104916188"}, 
{"id": 8032,"ncpdp": "0719837","pharmacy_name": "WALGREEN DRUG STORE #7602","address1": "275 MONROE TPKE","address2": "","city": "MONROE","state": "CT","zip": "06468","zip+4": "0000","phone": "2032680407","NPI": "     1790790046"}, 
{"id": 8033,"ncpdp": "0719849","pharmacy_name": "WAL-MART PHARMACY #105439","address1": "315 FOXON BLVD","address2": "","city": "NEW HAVEN","state": "CT","zip": "06513","zip+4": "0000","phone": "2034677637","NPI": "     1417974700"}, 
{"id": 8034,"ncpdp": "0719851","pharmacy_name": "CVS PHARMACY #02545","address1": "35 PADANARAM AVE","address2": "","city": "DANBURY","state": "CT","zip": "06811","zip+4": "0000","phone": "2037304870","NPI": "     1093810848"}, 
{"id": 8035,"ncpdp": "0719863","pharmacy_name": "HEALTH COMPLEX PHARMACY II","address1": "84 PROGRESS LANE","address2": "","city": "WATERBURY","state": "CT","zip": "06705","zip+4": "0000","phone": "2037537778","NPI": "     1598828873"}, 
{"id": 8036,"ncpdp": "0719875","pharmacy_name": "BIG Y PHARMACY #77","address1": "345 WASHINGTON AVE","address2": "","city": "NORTHAVEN","state": "CT","zip": "06473","zip+4": "0000","phone": "2032340110","NPI": "     1689763211"}, 
{"id": 8037,"ncpdp": "0719887","pharmacy_name": "BIG Y PHARMACY #44","address1": "1040 ELM STREET","address2": "","city": "ROCKY HILL","state": "CT","zip": "06067","zip+4": "0000","phone": "8607210580","NPI": "     1497844021"}, 
{"id": 8038,"ncpdp": "0719899","pharmacy_name": "COSTCO PHARMACY #780","address1": "75 FRESHWATER BLVD","address2": "","city": "ENFIELD","state": "CT","zip": "06082","zip+4": "0000","phone": "8603942028","NPI": "     1720198336"}, 
{"id": 8039,"ncpdp": "0719914","pharmacy_name": "SAMS PHARMACY #106442","address1": "2 BOSTON POST ROAD","address2": "","city": "ORANGE","state": "CT","zip": "06477","zip+4": "0000","phone": "2037992351","NPI": "     1326065616"}, 
{"id": 8040,"ncpdp": "0719926","pharmacy_name": "WALGREEN DRUG STORE #7814","address1": "218 E MAIN ST","address2": "","city": "CLINTON","state": "CT","zip": "06413","zip+4": "0000","phone": "8606643930","NPI": "     1609881952"}, 
{"id": 8041,"ncpdp": "0719952","pharmacy_name": "CAP PHARMACY LP","address1": "80 CLARK SR","address2": "STE B","city": "EAST BERLIN","state": "CT","zip": "06023","zip+4": "0000","phone": "8666321551","NPI": "     1295803435"}, 
{"id": 8042,"ncpdp": "0719964","pharmacy_name": "STOP AND SHOP PHARMACY CO #646","address1": "1937 W MAIN ST","address2": "","city": "STAMFORD","state": "CT","zip": "06902","zip+4": "0000","phone": "2033589626","NPI": "     1093747966"}, 
{"id": 8043,"ncpdp": "0719988","pharmacy_name": "RITE AID PHARMACY #10383","address1": "215 FEDERAL ROAD","address2": "","city": "BROOKFIELD","state": "CT","zip": "06804","zip+4": "2630","phone": "2037401005","NPI": "     1891883211"}, 
{"id": 8044,"ncpdp": "0719990","pharmacy_name": "WALGREEN DRUG STORE #7258","address1": "370 MAIN ST S","address2": "","city": "SOUTHBURY","state": "CT","zip": "06488","zip+4": "0000","phone": "2032676700","NPI": "     1518972868"}, 
{"id": 8045,"ncpdp": "0720006","pharmacy_name": "TARGET PHARMACY #1544","address1": "21 BROAD ST","address2": "","city": "STAMFORD","state": "CT","zip": "06901","zip+4": "0000","phone": "2033880038","NPI": "     1346262946"}, 
{"id": 8046,"ncpdp": "0720018","pharmacy_name": "TARGET PHARMACY #1916","address1": "200 UNIVERSAL DRIVE N","address2": "","city": "NORTH HAVEN","state": "CT","zip": "06473","zip+4": "0000","phone": "2038593491","NPI": "     1255353850"}, 
{"id": 8047,"ncpdp": "0720044","pharmacy_name": "WALGREEN DRUG STORE #7759","address1": "441 LONG HILL RD","address2": "","city": "GROTON","state": "CT","zip": "06340","zip+4": "0000","phone": "8604051908","NPI": "     1720125164"}, 
{"id": 8048,"ncpdp": "0720056","pharmacy_name": "PRICE CHOPPER PHARMACY #205","address1": "35 TALCOTTVILLE RD","address2": "","city": "VERNON","state": "CT","zip": "06066","zip+4": "0000","phone": "8608751211","NPI": "     1598878936"}, 
{"id": 8049,"ncpdp": "0720070","pharmacy_name": "WAL-MART PHARMACY #105095","address1": "495 FLATBUSH AVE","address2": "","city": "HARTFORD","state": "CT","zip": "06106","zip+4": "0000","phone": "8609530725","NPI": "     1235156522"}, 
{"id": 8050,"ncpdp": "0720094","pharmacy_name": "WALGREEN DRUG STORE #1451","address1": "1083 BOSTON POST RD","address2": "","city": "MILFORD","state": "CT","zip": "06460","zip+4": "0000","phone": "2038787104","NPI": "     1114933850"}, 
{"id": 8051,"ncpdp": "0720107","pharmacy_name": "WALGREEN DRUG STORE #7641","address1": "359 MAIN ST","address2": "","city": "SOUTHINGTON","state": "CT","zip": "06489","zip+4": "0000","phone": "8606210273","NPI": "     1427063775"}, 
{"id": 8052,"ncpdp": "0720119","pharmacy_name": "OSCO PHARMACY #7460","address1": "775 MAIN ST S","address2": "","city": "SOUTHBURY","state": "CT","zip": "06488","zip+4": "0000","phone": "2032677422","NPI": "     1841246865"}, 
{"id": 8053,"ncpdp": "0720121","pharmacy_name": "WALGREEN DRUG STORE #6914","address1": "415 FOXON BLVD","address2": "","city": "NEW HAVEN","state": "CT","zip": "06513","zip+4": "0000","phone": "2034693123","NPI": "     1336154681"}, 
{"id": 8054,"ncpdp": "0720133","pharmacy_name": "BIG Y PHARMACY #61","address1": "995 POQUONNOCK ROAD","address2": "","city": "GROTON","state": "CT","zip": "06340","zip+4": "0000","phone": "8604457719","NPI": "     1013007095"}, 
{"id": 8055,"ncpdp": "0720145","pharmacy_name": "PRICE CHOPPER PHARMACY #209","address1": "2985 BERLIN TURNPIKE","address2": "","city": "NEWINGTON","state": "CT","zip": "06111","zip+4": "0000","phone": "8606677603","NPI": "     1891809182"}, 
{"id": 8056,"ncpdp": "0720157","pharmacy_name": "TARGET PHARMACY #1955","address1": "25 BOSTON POST RD","address2": "","city": "ORANGE","state": "CT","zip": "06477","zip+4": "0000","phone": "2038593695","NPI": "     1073535670"}, 
{"id": 8057,"ncpdp": "0720169","pharmacy_name": "TARGET PHARMACY #1956","address1": "120 HAWLEY LN","address2": "","city": "TRUMBULL","state": "CT","zip": "06611","zip+4": "0000","phone": "2034550103","NPI": "     1982626586"}, 
{"id": 8058,"ncpdp": "0720171","pharmacy_name": "STOP AND SHOP PHARMACY #656","address1": "125 DANBURY ROAD RTE 35","address2": "","city": "RIDGEFIELD","state": "CT","zip": "06877","zip+4": "0000","phone": "2034380340","NPI": "     1902838873"}, 
{"id": 8059,"ncpdp": "0720208","pharmacy_name": "HOPE STREET PHARMACY","address1": "221 HOPE ST","address2": "","city": "STAMFORD","state": "CT","zip": "06906","zip+4": "2013","phone": "2033485366","NPI": "     1992769350"}, 
{"id": 8060,"ncpdp": "0720222","pharmacy_name": "WALGREEN DRUG STORE #1455","address1": "1116 BOSTON POST RD","address2": "","city": "GUILFORD","state": "CT","zip": "06437","zip+4": "0000","phone": "2034531660","NPI": "     1245245596"}, 
{"id": 8061,"ncpdp": "0720234","pharmacy_name": "RX HEALTH LLC #1961","address1": "234 MURPHY RD","address2": "STE A","city": "HARTFORD","state": "CT","zip": "06114","zip+4": "0000","phone": "8607274064","NPI": "     1013918622"}, 
{"id": 8062,"ncpdp": "0720246","pharmacy_name": "BIG Y PHARMACY #30","address1": "224 SALEM TURNPIKE","address2": "","city": "NORWICH","state": "CT","zip": "06360","zip+4": "0000","phone": "8608861301","NPI": "     1306935937"}, 
{"id": 8063,"ncpdp": "0720258","pharmacy_name": "ANNEX PHCY HOME CARE AND NUTRI","address1": "2380 DIXWELL AVE","address2": "STE A","city": "HAMDEN","state": "CT","zip": "06514","zip+4": "0000","phone": "2032812718","NPI": "     1710074901"}, 
{"id": 8064,"ncpdp": "0720272","pharmacy_name": "BIG Y PHARMACY #81","address1": "33 FIELDSTONE COMMONS","address2": "","city": "TOLLAND","state": "CT","zip": "06084","zip+4": "0000","phone": "8608720369","NPI": "     1215026844"}, 
{"id": 8065,"ncpdp": "0720296","pharmacy_name": "MASONIC HEALTHCARE CENTER PHAR","address1": "22 MASONIC AVE","address2": "","city": "WALLINGFORD","state": "CT","zip": "06492","zip+4": "0000","phone": "2036796226","NPI": "     1780689836"}, 
{"id": 8066,"ncpdp": "0720323","pharmacy_name": "STOP AND SHOP PHARMACY #695","address1": "275 HIGHLAND AVENUE","address2": "","city": "CHESHIRE","state": "CT","zip": "06410","zip+4": "0000","phone": "2032723697","NPI": "     1720010697"}, 
{"id": 8067,"ncpdp": "0720335","pharmacy_name": "WALGREEN DRUG STORE #1977","address1": "188 UNION ST","address2": "","city": "VERNON","state": "CT","zip": "06066","zip+4": "0000","phone": "8608961824","NPI": "     1023024767"}, 
{"id": 8068,"ncpdp": "0720359","pharmacy_name": "CVS PHARMACY #07093","address1": "47 49 LAKE AVE EXT","address2": "","city": "DANBURY","state": "CT","zip": "06811","zip+4": "0000","phone": "2037787471","NPI": "     1902901754"}, 
{"id": 8069,"ncpdp": "0720361","pharmacy_name": "STOP AND SHOP PHARMACY #621","address1": "100 MAIN STREET-NORTH","address2": "","city": "SOUTHBURY","state": "CT","zip": "06488","zip+4": "0000","phone": "2032624559","NPI": "     1639101504"}, 
{"id": 8070,"ncpdp": "0720373","pharmacy_name": "BEACON FALLS PHARMACY LLC","address1": "20 NORTH MAIN ST","address2": "","city": "BEACON FALLS","state": "CT","zip": "06403","zip+4": "0000","phone": "2037294567","NPI": "     1851317705"}, 
{"id": 8071,"ncpdp": "0720385","pharmacy_name": "STOP AND SHOP PHARMACY #614","address1": "1135 FARMINGTON AVENUE","address2": "","city": "BERLIN","state": "CT","zip": "06037","zip+4": "0000","phone": "8608280772","NPI": "     1548292410"}, 
{"id": 8072,"ncpdp": "0720397","pharmacy_name": "RITE AID PHARMACY #10346","address1": "10 SCHOOL STREET","address2": "","city": "EAST HARTFORD","state": "CT","zip": "06108","zip+4": "2637","phone": "8602898289","NPI": "     1720094931"}, 
{"id": 8073,"ncpdp": "0720400","pharmacy_name": "WALGREEN DRUG STORE #7047","address1": "2920 BERLIN TPKE","address2": "","city": "NEWINGTON","state": "CT","zip": "06111","zip+4": "0000","phone": "8606670406","NPI": "     1154336402"}, 
{"id": 8074,"ncpdp": "0720412","pharmacy_name": "WALGREEN DRUG STORE #7750","address1": "940 QUAKER LN S","address2": "","city": "WEST HARTFORD","state": "CT","zip": "06110","zip+4": "0000","phone": "8602311502","NPI": "     1063427318"}, 
{"id": 8075,"ncpdp": "0720436","pharmacy_name": "TARGET PHARMACY #2045","address1": "1191 BOSTON POST RD","address2": "","city": "MILFORD","state": "CT","zip": "06460","zip+4": "0000","phone": "2033065064","NPI": "     1639192933"}, 
{"id": 8076,"ncpdp": "0720448","pharmacy_name": "WALGREEN DRUG STORE #10003","address1": "134 STATE ST","address2": "","city": "MERIDEN","state": "CT","zip": "06450","zip+4": "0000","phone": "2036343241","NPI": "     1972518223"}, 
{"id": 8077,"ncpdp": "0720450","pharmacy_name": "CVS PHARMACY #07916","address1": "292 SPEILMAN HWY","address2": "","city": "BURLINGTON","state": "CT","zip": "06013","zip+4": "0000","phone": "8606738006","NPI": "     1235233164"}, 
{"id": 8078,"ncpdp": "0720462","pharmacy_name": "CVS PHARMACY #01775","address1": "1058 HOPE ST","address2": "","city": "STAMFORD","state": "CT","zip": "06907","zip+4": "0000","phone": "2033255172","NPI": "     1053415984"}, 
{"id": 8079,"ncpdp": "0720501","pharmacy_name": "STOP AND SHOP PHARMACY #696","address1": "410 ELM STREET","address2": "","city": "WEST HAVEN","state": "CT","zip": "06516","zip+4": "0000","phone": "2039319478","NPI": "     1720038672"}, 
{"id": 8080,"ncpdp": "0720513","pharmacy_name": "WALGREEN DRUG STORE #09101","address1": "2505 WHITNEY AVE","address2": "","city": "HAMDEN","state": "CT","zip": "06518","zip+4": "3019","phone": "2032885217","NPI": "     1962429944"}, 
{"id": 8081,"ncpdp": "0720525","pharmacy_name": "STACY R NERENSTONE MD","address1": "85 RETREAT AVE","address2": "","city": "HARTFORD","state": "CT","zip": "06106","zip+4": "0000","phone": "8602456291","NPI": "     1295777613"}, 
{"id": 8082,"ncpdp": "0720537","pharmacy_name": "WALGREEN DRUG STORE #09612","address1": "700 BRIDGEPORT AVE","address2": "STE 101","city": "SHELTON","state": "CT","zip": "06484","zip+4": "4734","phone": "2032250296","NPI": "     1255350815"}, 
{"id": 8083,"ncpdp": "0720549","pharmacy_name": "WALGREEN DRUG STORE #09521","address1": "1000 PARK AVE","address2": "","city": "BRIDGEPORT","state": "CT","zip": "06604","zip+4": "3406","phone": "2036960127","NPI": "     1710096318"}, 
{"id": 8084,"ncpdp": "0720551","pharmacy_name": "SHOPRITE PHARMACY OF COMMERCE","address1": "1990 WEST MAIN STREET","address2": "","city": "STAMFORD","state": "CT","zip": "06902","zip+4": "0000","phone": "2039780464","NPI": "     1376656777"}, 
{"id": 8085,"ncpdp": "0720563","pharmacy_name": "PRICE CHOPPER PHARMACY #189","address1": "251 KENNEDY DR","address2": "STE A","city": "PUTNAM","state": "CT","zip": "06260","zip+4": "0000","phone": "8609281533","NPI": "     1225141682"}, 
{"id": 8086,"ncpdp": "0720575","pharmacy_name": "RITE AID PHARMACY #10353","address1": "200 WESTMINSTER ROAD","address2": "","city": "CANTERBURY","state": "CT","zip": "06331","zip+4": "1450","phone": "8605466766","NPI": "     1104832443"}, 
{"id": 8087,"ncpdp": "0720587","pharmacy_name": "BIG Y PHARMACY #73","address1": "135 WEST ROAD","address2": "","city": "ELLINGTON","state": "CT","zip": "06029","zip+4": "0000","phone": "8608960264","NPI": "     1124117759"}, 
{"id": 8088,"ncpdp": "0720599","pharmacy_name": "ROBERTS PHARMACY INC","address1": "514 OLD TOLL RD","address2": "","city": "MADISON","state": "CT","zip": "06443","zip+4": "0000","phone": "2034214600","NPI": "     1225129562"}, 
{"id": 8089,"ncpdp": "0720602","pharmacy_name": "TARGET PHARMACY #2156","address1": "300 CHASE AVE","address2": "","city": "WATERBURY","state": "CT","zip": "06704","zip+4": "0000","phone": "2034373674","NPI": "     1063594422"}, 
{"id": 8090,"ncpdp": "0720614","pharmacy_name": "TARGET PHARMACY #2213","address1": "1075 KENNEDY ROAD","address2": "","city": "WINDSOR","state": "CT","zip": "06095","zip+4": "0000","phone": "8609073069","NPI": "     1972685337"}, 
{"id": 8091,"ncpdp": "0720626","pharmacy_name": "OSCO PHARMACY #7647","address1": "11 E HIGH ST","address2": "","city": "EAST HAMPTON","state": "CT","zip": "06424","zip+4": "0000","phone": "8602672771","NPI": "     1154419240"}, 
{"id": 8092,"ncpdp": "0720638","pharmacy_name": "WALGREEN DRUG STORE #09432","address1": "2 SHAKER RD","address2": "","city": "ENFIELD","state": "CT","zip": "06082","zip+4": "3112","phone": "8602530463","NPI": "     1063550473"}, 
{"id": 8093,"ncpdp": "0720640","pharmacy_name": "CAREPLUS CVS PHARMACY","address1": "68 ELMCROFT RD","address2": "","city": "STAMFORD","state": "CT","zip": "06902","zip+4": "0000","phone": "2039214332","NPI": "     1104975606"}, 
{"id": 8094,"ncpdp": "0720652","pharmacy_name": "WALGREEN HOME CARE INC #10624","address1": "410 WODLAND DR","address2": "","city": "BLOOMFIELD","state": "CT","zip": "06002","zip+4": "1342","phone": "","NPI": "     1598834855"}, 
{"id": 8095,"ncpdp": "0720676","pharmacy_name": "CANAAN APOTHECARY","address1": "11 E MAIN ST","address2": "","city": "CANAAN","state": "CT","zip": "06018","zip+4": "0000","phone": "8608248000","NPI": "     1871670745"}, 
{"id": 8096,"ncpdp": "0720688","pharmacy_name": "WAL-MART PHARMACY #103803","address1": "515 SAWMILL ROAD","address2": "","city": "WEST HAVEN","state": "CT","zip": "06516","zip+4": "0000","phone": "2039312221","NPI": "     1043343148"}, 
{"id": 8097,"ncpdp": "0720690","pharmacy_name": "SUBURAN LTC INC","address1": "342 N MAIN ST","address2": "STE 70","city": "WEST HARTFORD","state": "CT","zip": "06117","zip+4": "0000","phone": "8608821808","NPI": "     1932236775"}, 
{"id": 8098,"ncpdp": "0720703","pharmacy_name": "HOSP OF ST RAFHAIL APOTHECARY","address1": "1450 CHAPEL ST","address2": "","city": "NEW HAVEN","state": "CT","zip": "06511","zip+4": "4405","phone": "2037894076","NPI": "     1679600746"}, 
{"id": 8099,"ncpdp": "0720715","pharmacy_name": "BIG Y PHARMACY #82","address1": "81 STONY HILL RD","address2": "","city": "BETHEL","state": "CT","zip": "06801","zip+4": "0000","phone": "2037919820","NPI": "     1376688655"}, 
{"id": 8100,"ncpdp": "0720727","pharmacy_name": "WALGREENS #10144","address1": "1745 E MAIN ST","address2": "","city": "TORRINGTON","state": "CT","zip": "06790","zip+4": "3520","phone": "8604828837","NPI": "     1508085093"}, 
{"id": 8101,"ncpdp": "0720739","pharmacy_name": "BONNEVILLE LTC","address1": "77 A WESTCOTT RD","address2": "","city": "DANIELSON","state": "CT","zip": "06239","zip+4": "0000","phone": "8607746418","NPI": "     1609095868"}, 
{"id": 8102,"ncpdp": "0720741","pharmacy_name": "WALGREENS DRUG STORE #10203","address1": "25 MAIN ST","address2": "","city": "BRISTOL","state": "CT","zip": "06010","zip+4": "6528","phone": "8605857426","NPI": "     1871712026"}, 
{"id": 8103,"ncpdp": "0720765","pharmacy_name": "WALGREENS DRUG STORE #11604","address1": "220 ALBANY TURNPIKE","address2": "","city": "CANTON","state": "CT","zip": "06019","zip+4": "0000","phone": "8606938359","NPI": "     1184845471"}, 
{"id": 8104,"ncpdp": "0720777","pharmacy_name": "WALGREENS DRUG STORE #12025","address1": "20 E. MAIN ST","address2": "","city": "WATEBURY","state": "CT","zip": "06702","zip+4": "3202","phone": "2037531116","NPI": "     1407069610"}, 
{"id": 8105,"ncpdp": "0720789","pharmacy_name": "BIG Y PHARMACY #31","address1": "70 WAVREGAN RD","address2": "","city": "DANIELSON","state": "CT","zip": "06239","zip+4": "0000","phone": "8607747437","NPI": "     1003036385"}, 
{"id": 8106,"ncpdp": "0720791","pharmacy_name": "WALGREENS DRUG STORE #11590","address1": "99 ASH STREET","address2": "","city": "EAST HARTFORD","state": "CT","zip": "06108","zip+4": "0000","phone": "8602918478","NPI": "     1457565046"}, 
{"id": 8107,"ncpdp": "0720804","pharmacy_name": "WALGREENS DRUG STORE #11577","address1": "67 SANDY DESERT RD","address2": "","city": "UNCASVILLE","state": "CT","zip": "06382","zip+4": "0000","phone": "8608599764","NPI": "     1437379005"}, 
{"id": 8108,"ncpdp": "0720816","pharmacy_name": "WALGREENS DRUG STORE #11605","address1": "73 CENTER STREET","address2": "","city": "SHELTON","state": "CT","zip": "06484","zip+4": "0000","phone": "2039247740","NPI": "     1598986788"}, 
{"id": 8109,"ncpdp": "0720828","pharmacy_name": "WALGREENS DRUG STORE #10119","address1": "980 FARMINGTON AVE","address2": "","city": "BERLIN","state": "CT","zip": "06037","zip+4": "0000","phone": "8608286844","NPI": "     1891917472"}, 
{"id": 8110,"ncpdp": "0720842","pharmacy_name": "TARGET PHARMACY #2249","address1": "20 WEST MAIN ST","address2": "","city": "ANSONIA","state": "CT","zip": "06401","zip+4": "0000","phone": "2032785056","NPI": "     1558578468"}, 
{"id": 8111,"ncpdp": "0720854","pharmacy_name": "BIG Y PHARMACY #17","address1": "87 C W STAFFOROAD SPRINGS ROAD","address2": "","city": "STAFFORD SPRINGS","state": "CT","zip": "06076","zip+4": "0000","phone": "8606844597","NPI": "     1043421068"}, 
{"id": 8112,"ncpdp": "0720866","pharmacy_name": "PRICE CHOPPER PHARMACY #221","address1": "675 POQUONCOCK AVE","address2": "","city": "WINDSOR","state": "CT","zip": "06095","zip+4": "0000","phone": "8606871910","NPI": "     1972708758"}, 
{"id": 8113,"ncpdp": "0720880","pharmacy_name": "WAL-MART PHARMACY #105294","address1": "1365 BOSTON POST ROAD","address2": "","city": "MILFORD","state": "CT","zip": "06460","zip+4": "0000","phone": "2033010570","NPI": "     1316144637"}, 
{"id": 8114,"ncpdp": "0720892","pharmacy_name": "GENOA HEALTHCARE #43","address1": "165 STATE ST","address2": "STE 208","city": "NEW LONDON","state": "CT","zip": "06320","zip+4": "0000","phone": "8604479145","NPI": "     1548469729"}, 
{"id": 8115,"ncpdp": "0720905","pharmacy_name": "TARGET PHARMACY #2305","address1": "1922 E MAIN ST","address2": "","city": "TORRINGTON","state": "CT","zip": "06790","zip+4": "0000","phone": "8606184008","NPI": "     1619161791"}, 
{"id": 8116,"ncpdp": "0720917","pharmacy_name": "WALGREENS DRUG STORE #09818","address1": "6 HAMMERHEAD PL","address2": "","city": "CROMWELL","state": "CT","zip": "06416","zip+4": "1805","phone": "8606132324","NPI": "     1184818056"}, 
{"id": 8117,"ncpdp": "0720943","pharmacy_name": "WALGREEN DRUG STORE #10309","address1": "1036 W MAIN ST","address2": "","city": "BRANFORD","state": "CT","zip": "06405","zip+4": "3428","phone": "2034889059","NPI": "     1053507210"}, 
{"id": 8118,"ncpdp": "0720967","pharmacy_name": "ST FRANCIS CARE PHARMACY","address1": "7 ELM ST","address2": "STE 306","city": "ENFIELD","state": "CT","zip": "06082","zip+4": "0000","phone": "8603944727","NPI": "     1437338555"}, 
{"id": 8119,"ncpdp": "0720979","pharmacy_name": "STORRS DRUG","address1": "1232 STORRS RD","address2": "STE 6","city": "STORRS","state": "CT","zip": "06268","zip+4": "0000","phone": "8604299365","NPI": "     1013190776"}, 
{"id": 8120,"ncpdp": "0720981","pharmacy_name": "LANGS PHARMACY OF WESTON","address1": "190 WESTON RD","address2": "","city": "WESTON","state": "CT","zip": "06883","zip+4": "0000","phone": "2032267800","NPI": "     1407038904"}, 
{"id": 8121,"ncpdp": "0721008","pharmacy_name": "BIG Y PHARMACY #84","address1": "355 HAWLEY LANE","address2": "","city": "STRATFORD","state": "CT","zip": "06614","zip+4": "0000","phone": "2033861489","NPI": "     1144404344"}, 
{"id": 8122,"ncpdp": "0721010","pharmacy_name": "BIG Y PHARMACY #87","address1": "1289 FOXON RD","address2": "RTE 80","city": "NORTH BRANFORD","state": "CT","zip": "06471","zip+4": "0000","phone": "2034849681","NPI": "     1982887030"}, 
{"id": 8123,"ncpdp": "0721022","pharmacy_name": "WALGREEN DRUG STORE #09820","address1": "825 E MAIN ST","address2": "","city": "MERIDEN","state": "CT","zip": "06450","zip+4": "6064","phone": "2032380910","NPI": "     1730364134"}, 
{"id": 8124,"ncpdp": "0721034","pharmacy_name": "WALGREEN DRUG STORE #10244","address1": "1211 BOSTON POST RD","address2": "","city": "WESTBROOK","state": "CT","zip": "06498","zip+4": "1949","phone": "8603996899","NPI": "     1134303563"}, 
{"id": 8125,"ncpdp": "0721046","pharmacy_name": "WALGREEN DRUG STORE #10483","address1": "698 BANK ST","address2": "","city": "NEW LONDON","state": "CT","zip": "06320","zip+4": "5040","phone": "8604403566","NPI": "     1538344932"}, 
{"id": 8126,"ncpdp": "0721058","pharmacy_name": "BEACON PRESCRIPTIONS KENSINGTO","address1": "59 CHAMBERLAN HIGHWAY","address2": "","city": "KENSINGTON","state": "CT","zip": "06037","zip+4": "0000","phone": "8608283921","NPI": "     1205014255"}, 
{"id": 8127,"ncpdp": "0721060","pharmacy_name": "HEMATOLOGY ONCOLOGY PC","address1": "34 SHELBURNE RD","address2": "","city": "STAMFORD","state": "CT","zip": "06902","zip+4": "0000","phone": "2033252695","NPI": "     1629195219"}, 
{"id": 8128,"ncpdp": "0721072","pharmacy_name": "CVS PHARMACY #04149","address1": "54 EAST HIGH ST","address2": "","city": "EAST HAMPTON","state": "CT","zip": "06424","zip+4": "0000","phone": "8602676853","NPI": "     1891967410"}, 
{"id": 8129,"ncpdp": "0721096","pharmacy_name": "CVS PHARMACY #00071","address1": "989 BOSTON POST ROAD","address2": "","city": "MILFORD","state": "CT","zip": "06460","zip+4": "0000","phone": "2037839058","NPI": "     1922270602"}, 
{"id": 8130,"ncpdp": "0721109","pharmacy_name": "BIG Y PHARMACY #59","address1": "504 WINSTRED RD","address2": "","city": "TORRINGTON","state": "CT","zip": "06790","zip+4": "0000","phone": "8604892970","NPI": "     1457525545"}, 
{"id": 8131,"ncpdp": "0721111","pharmacy_name": "WALGREEN DRUG STORE #10058","address1": "235 MAIN ST","address2": "","city": "NORWALK","state": "CT","zip": "06851","zip+4": "2720","phone": "2038458767","NPI": "     1457523706"}, 
{"id": 8132,"ncpdp": "0721123","pharmacy_name": "WALGREEN DRUG STORE #10261","address1": "184 MAIN ST","address2": "","city": "DEEP RIVER","state": "CT","zip": "06417","zip+4": "2039","phone": "8605268052","NPI": "     1578739439"}, 
{"id": 8133,"ncpdp": "0721135","pharmacy_name": "WALGREEN DRUG STORE #02228","address1": "2900 MAIN ST","address2": "","city": "GLASTONBURY","state": "CT","zip": "06033","zip+4": "1027","phone": "8605334186","NPI": "     1992971857"}, 
{"id": 8134,"ncpdp": "0721147","pharmacy_name": "WALGREEN DRUG STORE #09821","address1": "36 PINE ST","address2": "","city": "NEW CANAAN","state": "CT","zip": "06840","zip+4": "5408","phone": "2038010121","NPI": "     1144496340"}, 
{"id": 8135,"ncpdp": "0721159","pharmacy_name": "BRIDGEPORT PHARMACY","address1": "970 E MAIN ST","address2": "","city": "BRIDGEPORT","state": "CT","zip": "06608","zip+4": "0000","phone": "2033679000","NPI": "     1588821789"}, 
{"id": 8136,"ncpdp": "0721161","pharmacy_name": "RITE AID PHARMACY #06601","address1": "90 HALLS ROAD","address2": "","city": "OLD LYME","state": "CT","zip": "06371","zip+4": "0000","phone": "8604348111","NPI": "     1528228202"}, 
{"id": 8137,"ncpdp": "0721185","pharmacy_name": "TARGET PHARMACY #2361","address1": "5065 MAIN ST STE TARGET","address2": "","city": "TRUMBULL","state": "CT","zip": "06611","zip+4": "4204","phone": "2038732014","NPI": "     1538317953"}, 
{"id": 8138,"ncpdp": "0721197","pharmacy_name": "TARGET PHARMACY #2432","address1": "2177 KILLINGLY COMMONS DR","address2": "","city": "KILLINGLY","state": "CT","zip": "06241","zip+4": "0000","phone": "8604121284","NPI": "     1548418544"}, 
{"id": 8139,"ncpdp": "0721200","pharmacy_name": "TARGET PHARMACY #2434","address1": "2100 KILLINGLY COMMONS","address2": "","city": "SOUTHINGTON","state": "CT","zip": "06489","zip+4": "0000","phone": "8604066755","NPI": "     1457509457"}, 
{"id": 8140,"ncpdp": "0721212","pharmacy_name": "KENT APOTHECARY","address1": "3 MAPLE STREET","address2": "","city": "KENT","state": "CT","zip": "06757","zip+4": "0000","phone": "8609273725","NPI": "     1588812176"}, 
{"id": 8141,"ncpdp": "0721224","pharmacy_name": "WELLNESS WORKS CENTER PHARMACY","address1": "151 FARMINGTON AVE","address2": "","city": "HARTFORD","state": "CT","zip": "06156","zip+4": "0000","phone": "8602731912","NPI": "     1295997021"}, 
{"id": 8142,"ncpdp": "0721236","pharmacy_name": "WALGREENS #10177","address1": "54 WEST AVE","address2": "","city": "NORWALK","state": "CT","zip": "06854","zip+4": "2225","phone": "2032991215","NPI": "     1659528990"}, 
{"id": 8143,"ncpdp": "0721248","pharmacy_name": "WALGREENS #10310","address1": "780 E MAIN ST","address2": "","city": "STAMFORD","state": "CT","zip": "06902","zip+4": "0000","phone": "2033539117","NPI": "     1346498235"}, 
{"id": 8144,"ncpdp": "0721250","pharmacy_name": "CVS PHARMACY #03835","address1": "72 BERLIN RD","address2": "","city": "CROMWELL","state": "CT","zip": "06416","zip+4": "0000","phone": "8606130499","NPI": "     1992954994"}, 
{"id": 8145,"ncpdp": "0721262","pharmacy_name": "CVS PHARMACY #02475","address1": "122 E PUTNAM RD","address2": "","city": "COS COB","state": "CT","zip": "06807","zip+4": "0000","phone": "2034222129","NPI": "     1649429952"}, 
{"id": 8146,"ncpdp": "0721274","pharmacy_name": "CVS PHARMACY #02839","address1": "2005 NORWICH NEW LONDON TPKE","address2": "","city": "MONTVILLE","state": "CT","zip": "06353","zip+4": "0000","phone": "8608483202","NPI": "     1487804688"}, 
{"id": 8147,"ncpdp": "0721286","pharmacy_name": "CVS PHARMACY #02896","address1": "675 WASHINGTON ST","address2": "","city": "MIDDLETOWN","state": "CT","zip": "06457","zip+4": "2901","phone": "8603441320","NPI": "     1497905830"}, 
{"id": 8148,"ncpdp": "0721301","pharmacy_name": "BIG Y PHARMACY #62","address1": "38 EAST MAIN ST","address2": "","city": "ROCKVILLE","state": "CT","zip": "06066","zip+4": "0000","phone": "8608753323","NPI": "     1528213683"}, 
{"id": 8149,"ncpdp": "0721313","pharmacy_name": "RITE AID PHARMACY #04092","address1": "645 FOXON ROAD","address2": "","city": "EAST HAVEN","state": "CT","zip": "06513","zip+4": "1951","phone": "2034681039","NPI": "     1013161488"}, 
{"id": 8150,"ncpdp": "0721325","pharmacy_name": "MCQUADES PHARMACY","address1": "39 WEST BROAD ST","address2": "","city": "PAWCATUCK","state": "CT","zip": "06379","zip+4": "0000","phone": "8605995083","NPI": "     1811144223"}, 
{"id": 8151,"ncpdp": "0721337","pharmacy_name": "GREENVIEW PHARMACY LLC","address1": "13 NORTH WATER ST","address2": "","city": "GREENWICH","state": "CT","zip": "06830","zip+4": "0000","phone": "2035313323","NPI": "     1043455900"}, 
{"id": 8152,"ncpdp": "0721349","pharmacy_name": "WALGREENS #09746","address1": "1 ELM ST","address2": "","city": "WINDSOR LOCKS","state": "CT","zip": "06096","zip+4": "2334","phone": "8602921751","NPI": "     1851537203"}, 
{"id": 8153,"ncpdp": "0721351","pharmacy_name": "WALGREENS #11164","address1": "42 DANBURY RD","address2": "","city": "RIDGEFIELD","state": "CT","zip": "06877","zip+4": "4019","phone": "2038948744","NPI": "     1437397916"}, 
{"id": 8154,"ncpdp": "0721363","pharmacy_name": "BERNEYS PHARMACY","address1": "615 HOWARD AV","address2": "","city": "NEW HAVEN","state": "CT","zip": "06519","zip+4": "0000","phone": "2035624447","NPI": "     1154569481"}, 
{"id": 8155,"ncpdp": "0721387","pharmacy_name": "JENNIFER G JOSE MD LLC","address1": "688 BOSTON POST ROAD","address2": "","city": "DARLEN","state": "CT","zip": "06820","zip+4": "0000","phone": "2036629602","NPI": "     1053581868"}, 
{"id": 8156,"ncpdp": "0721399","pharmacy_name": "GENOA HEALTHCARE #74","address1": "1007 NORTH MAIN STREET","address2": "","city": "DAYVILLE","state": "CT","zip": "06241","zip+4": "2170","phone": "8604574690","NPI": "     1306086749"}, 
{"id": 8157,"ncpdp": "0721440","pharmacy_name": "WATERBURY PHARMACY","address1": "197 E MAIN ST","address2": "","city": "WATERBURY","state": "CT","zip": "06702","zip+4": "0000","phone": "2037572000","NPI": "     1487898060"}, 
{"id": 8158,"ncpdp": "0721452","pharmacy_name": "CVS PHARMACY #04436","address1": "241 MIDDLE TURNPIKE WEST","address2": "","city": "MANCHESTER","state": "CT","zip": "06040","zip+4": "0000","phone": "8605331156","NPI": "     1518101732"}, 
{"id": 8159,"ncpdp": "0721464","pharmacy_name": "DISCOVER RX CT","address1": "25 ROBERT JACKSON WAY","address2": "","city": "PLAINVILLE","state": "CT","zip": "06062","zip+4": "0000","phone": "8607932800","NPI": "     1710127469"}, 
{"id": 8160,"ncpdp": "0721476","pharmacy_name": "TARGET PHARMACY #2433","address1": "195 RIVER RD","address2": "","city": "LISBON","state": "CT","zip": "06351","zip+4": "3253","phone": "8608232961","NPI": "     1508091315"}, 
{"id": 8161,"ncpdp": "0721488","pharmacy_name": "GENOA HEALTHCARE","address1": "883 PADDOCK AVENUE","address2": "","city": "MERIDEN","state": "CT","zip": "06450","zip+4": "0000","phone": "4256795683","NPI": "     1609002377"}, 
{"id": 8162,"ncpdp": "0721490","pharmacy_name": "RITE AID PHARMACY #06599","address1": "500 QUEEN STREET","address2": "","city": "SOUTHINGTON","state": "CT","zip": "06489","zip+4": "1801","phone": "8602768511","NPI": "     1164659165"}, 
{"id": 8163,"ncpdp": "0721503","pharmacy_name": "WALGREENS #12120","address1": "157 MAIN ST","address2": "","city": "EAST HAVEN","state": "CT","zip": "06512","zip+4": "2525","phone": "2034689732","NPI": "     1982832853"}, 
{"id": 8164,"ncpdp": "0721541","pharmacy_name": "CVS PHARMACY #04473","address1": "15 CHESTERFIELD RD.","address2": "","city": "EAST LYME","state": "CT","zip": "06333","zip+4": "0000","phone": "8607390276","NPI": "     1316177389"}, 
{"id": 8165,"ncpdp": "0721565","pharmacy_name": "CVS PHARMACY #08249","address1": "57 PROVIDENCE PIKE","address2": "","city": "PUTNAM","state": "CT","zip": "06260","zip+4": "0000","phone": "8609632548","NPI": "     1942433032"}, 
{"id": 8166,"ncpdp": "0721577","pharmacy_name": "MAIN STREET PHARMACY","address1": "1005 MAIN ST # 1J","address2": "","city": "BRIDGEPORT","state": "CT","zip": "06604","zip+4": "4221","phone": "2038709901","NPI": "     1609109842"}, 
{"id": 8167,"ncpdp": "0721589","pharmacy_name": "WALGREENS #12058","address1": "1093 N MAIN ST","address2": "","city": "DAYVILLE","state": "CT","zip": "06241","zip+4": "2124","phone": "8607740490","NPI": "     1548593650"}, 
{"id": 8168,"ncpdp": "0721604","pharmacy_name": "WALGREENS #11919","address1": "1630 BOSTON TPKE","address2": "","city": "COVENTRY","state": "CT","zip": "06238","zip+4": "1205","phone": "8607425389","NPI": "     1326371956"}, 
