{"id": 57672,"ncpdp": "5400015","pharmacy_name": "PEREZVILLE PHARMACY","address1": "851 GOV CARLOS CAMACHO RD","address2": "","city": "TAMUNING","state": "GU","zip": "96913","zip+4": "3153","phone": "6716499400","NPI": "     1386783629"}, 
{"id": 57673,"ncpdp": "5400041","pharmacy_name": "ITC PHARMACY I #1","address1": "590 S MARINE DR GRD FLR","address2": "ITC BLDG STE 126","city": "TAMUNING","state": "GU","zip": "96913","zip+4": "3531","phone": "6716466395","NPI": "     1053470955"}, 
{"id": 57674,"ncpdp": "5400089","pharmacy_name": "ITC PHARMACY II #2","address1": "416 CHALAN SAN ANTONIO","address2": "","city": "TAMUNING","state": "GU","zip": "96913","zip+4": "0000","phone": "6716491977","NPI": "     1336200930"}, 
{"id": 57675,"ncpdp": "5410155","pharmacy_name": "SUPERDRUG DEDEDO PAYLESS","address1": "214 W MARINE DRIVE","address2": "","city": "DEDEDO","state": "GU","zip": "96929","zip+4": "0000","phone": "6716379783","NPI": "     1467564385"}, 
{"id": 57676,"ncpdp": "5410268","pharmacy_name": "SUPERDRUG OKA PAYLESS","address1": "291 FARENHOLT AVE","address2": "","city": "TAMUNING","state": "GU","zip": "96913","zip+4": "3209","phone": "6716466183","NPI": "     1285746107"}, 
{"id": 57677,"ncpdp": "5410371","pharmacy_name": "SUPERDRUG AGANA PAYLESS","address1": "302 S RTE 4","address2": "STE 118","city": "HAGATNA","state": "GU","zip": "96910","zip+4": "0000","phone": "6714773627","NPI": "     1619919040"}, 
{"id": 57678,"ncpdp": "5410939","pharmacy_name": "GUAM REXALL DRUGS","address1": "646 S MARINE DR","address2": "","city": "TAMUNING","state": "GU","zip": "96913","zip+4": "0000","phone": "6716464827","NPI": "     1154310878"}, 
{"id": 57679,"ncpdp": "5411400","pharmacy_name": "COMMUNITY PHARMACY I #1","address1": "177C CHALAN PASAHERU","address2": "","city": "TAMUNING","state": "GU","zip": "96931","zip+4": "0000","phone": "6716466160","NPI": "     1548397128"}, 
{"id": 57680,"ncpdp": "5411513","pharmacy_name": "MEGA DRUG #1","address1": "255 FARENHOLT AVE","address2": "","city": "TAMUNING","state": "GU","zip": "96913","zip+4": "0000","phone": "6716465355","NPI": "     1609912229"}, 
{"id": 57681,"ncpdp": "5411626","pharmacy_name": "MEGA DRUG II #2","address1": "136 D KAYEN CHANDO ST","address2": "STE A6","city": "DEDEDO","state": "GU","zip": "96929","zip+4": "0000","phone": "6716323385","NPI": "     1518003136"}, 
{"id": 57682,"ncpdp": "5412200","pharmacy_name": "OKA PHARMACY INC","address1": "241 FARENHOLT AVE","address2": "STE 105","city": "TAMUNING","state": "GU","zip": "96913","zip+4": "0000","phone": "6716471193","NPI": "     1427194042"}, 
{"id": 57683,"ncpdp": "5412539","pharmacy_name": "KMART PHARMACY #7705","address1": "404 N MARINE CORPS DR","address2": "","city": "TAMUNING","state": "GU","zip": "96913","zip+4": "4109","phone": "6716497843","NPI": "     1881625937"}, 