{"id": 18524,"ncpdp": "1600015","pharmacy_name": "SORG PHARMACY INC","address1": "1138 7TH AVENUE","address2": "","city": "MARION","state": "IA","zip": "52302","zip+4": "0000","phone": "3193771533","NPI": "     1851432876"}, 
{"id": 18525,"ncpdp": "1600039","pharmacy_name": "WEIRICK PHARMACY","address1": "101 N WALNUT ST","address2": "","city": "COLFAX","state": "IA","zip": "50054","zip+4": "1039","phone": "5156743503","NPI": "     1780746867"}, 
{"id": 18526,"ncpdp": "1600077","pharmacy_name": "ADEL HEALTHMART","address1": "113 N 9TH ST","address2": "","city": "ADEL","state": "IA","zip": "50003","zip+4": "1443","phone": "5159933644","NPI": "     1609864818"}, 
{"id": 18527,"ncpdp": "1600104","pharmacy_name": "BENNETT PHARMACY INC","address1": "1 W MAIN ST","address2": "","city": "NEW HAMPTON","state": "IA","zip": "50659","zip+4": "0000","phone": "6413944156","NPI": "     1750423810"}, 
{"id": 18528,"ncpdp": "1600128","pharmacy_name": "HUGHES HEALTH MART PHARMACY","address1": "2216 MAIN ST","address2": "","city": "EMMETSBURG","state": "IA","zip": "50536","zip+4": "2447","phone": "7128522886","NPI": "     1942379367"}, 
{"id": 18529,"ncpdp": "1600192","pharmacy_name": "HOINES HEALTHMART PHARMACY","address1": "113 N ELM ST","address2": "","city": "CRESCO","state": "IA","zip": "52136","zip+4": "1523","phone": "5635473401","NPI": "     1982694063"}, 
{"id": 18530,"ncpdp": "1600205","pharmacy_name": "PRESCRIPTION CENTER","address1": "616 N 8TH ST","address2": "","city": "OSAGE","state": "IA","zip": "50461","zip+4": "0000","phone": "6417326161","NPI": "     1629161062"}, 
{"id": 18531,"ncpdp": "1600243","pharmacy_name": "WALGREEN DRUG STORE #6553","address1": "830 MIDDLE ROAD","address2": "","city": "BETTENDORF","state": "IA","zip": "52722","zip+4": "0000","phone": "5633554773","NPI": "     1376558684"}, 
{"id": 18532,"ncpdp": "1600255","pharmacy_name": "MEYER HEALTHMART PHARMACY","address1": "110 10TH ST SW","address2": "","city": "WAVERLY","state": "IA","zip": "50677","zip+4": "0000","phone": "3193523120","NPI": "     1194876581"}, 
{"id": 18533,"ncpdp": "1600267","pharmacy_name": "WALGREEN DRUG STORE #5119","address1": "806 S 4TH ST","address2": "","city": "CLINTON","state": "IA","zip": "52732","zip+4": "0000","phone": "5632424616","NPI": "     1285649590"}, 
{"id": 18534,"ncpdp": "1600281","pharmacy_name": "WALGREENS #11709","address1": "1805 BRADY ST","address2": "","city": "DAVENPORT","state": "IA","zip": "52803","zip+4": "0000","phone": "5633862909","NPI": "     1093720302"}, 
{"id": 18535,"ncpdp": "1600293","pharmacy_name": "WALGREEN DRUG STORE #4405","address1": "2508 W BROADWAY","address2": "","city": "COUNCIL BLUFFS","state": "IA","zip": "51501","zip+4": "0000","phone": "7123282314","NPI": "     1720093032"}, 
{"id": 18536,"ncpdp": "1600306","pharmacy_name": "WALGREEN DRUG STORE #359","address1": "2545 EAST EUCLID","address2": "","city": "DES MOINES","state": "IA","zip": "50317","zip+4": "0000","phone": "5152663171","NPI": "     1639184948"}, 
{"id": 18537,"ncpdp": "1600318","pharmacy_name": "WALGREEN DRUG STORE #4973","address1": "7000 DOUGLAS AVE","address2": "","city": "DES MOINES","state": "IA","zip": "50322","zip+4": "0000","phone": "5152781617","NPI": "     1548275852"}, 
{"id": 18538,"ncpdp": "1600320","pharmacy_name": "WALGREEN DRUG STORE #3252","address1": "606 WALNUT ST","address2": "","city": "DES MOINES","state": "IA","zip": "50309","zip+4": "0000","phone": "5152831793","NPI": "     1457366767"}, 
{"id": 18539,"ncpdp": "1600344","pharmacy_name": "WALGREEN DRUG STORE #5361","address1": "2503 5TH AVE S","address2": "","city": "FORT DODGE","state": "IA","zip": "50501","zip+4": "5552","phone": "5155767111","NPI": "     1366457673"}, 
{"id": 18540,"ncpdp": "1600356","pharmacy_name": "WALGREEN DRUG STORE #910","address1": "100 PIERCE STREET","address2": "","city": "SIOUX CITY","state": "IA","zip": "51101","zip+4": "0000","phone": "7122521841","NPI": "     1275548588"}, 
{"id": 18541,"ncpdp": "1600572","pharmacy_name": "HAMMER PHARMACY","address1": "600 E GRAND AVENUE","address2": "","city": "DES MOINES","state": "IA","zip": "50309","zip+4": "0000","phone": "5152434177","NPI": "     1073583027"}, 
{"id": 18542,"ncpdp": "1600584","pharmacy_name": "WALGREEN DRUG STORE #9708","address1": "55 JFK RD","address2": "","city": "DUBUQUE","state": "IA","zip": "52002","zip+4": "0000","phone": "5635563613","NPI": "     1184639494"}, 
{"id": 18543,"ncpdp": "1600609","pharmacy_name": "WAGNER PHARMACY #1","address1": "200 5TH AVE SOUTH","address2": "SUITE 1","city": "CLINTON","state": "IA","zip": "52732","zip+4": "4309","phone": "5632420626","NPI": "     1154405538"}, 
{"id": 18544,"ncpdp": "1600611","pharmacy_name": "CONNERS CLINIC PHARMACY","address1": "1501 S MAIN ST","address2": "STE 2","city": "CHARLES CITY","state": "IA","zip": "50616","zip+4": "0000","phone": "6412284136","NPI": "     1013933621"}, 
{"id": 18545,"ncpdp": "1600661","pharmacy_name": "WALGREEN DRUG STORE #5885","address1": "1703 PARK AVE","address2": "","city": "MUSCATINE","state": "IA","zip": "52761","zip+4": "0000","phone": "5632637840","NPI": "     1992710206"}, 
{"id": 18546,"ncpdp": "1600712","pharmacy_name": "OSCO PHARMACY #3118","address1": "1309 N SECOND","address2": "","city": "CLINTON","state": "IA","zip": "52732","zip+4": "0000","phone": "5632436641","NPI": "     1023064557"}, 
{"id": 18547,"ncpdp": "1601031","pharmacy_name": "KOERNER WHIPPLE DRUG","address1": "104 1ST NW","address2": "","city": "HAMPTON","state": "IA","zip": "50441","zip+4": "0000","phone": "6414562510","NPI": "     1184786113"}, 
{"id": 18548,"ncpdp": "1601067","pharmacy_name": "MEDICAP PHARMACY #8010","address1": "5802 FRANKLIN AVE","address2": "","city": "DES MOINES","state": "IA","zip": "50322","zip+4": "6132","phone": "5152744609","NPI": "     1013022045"}, 
{"id": 18549,"ncpdp": "1601079","pharmacy_name": "HY VEE DRUGSTORE #7055","address1": "1706 S CENTER STREET","address2": "","city": "MARSHALLTOWN","state": "IA","zip": "50158","zip+4": "0000","phone": "6417524685","NPI": "     1750319000"}, 
{"id": 18550,"ncpdp": "1601132","pharmacy_name": "HY VEE DRUGSTORE 2 #7022","address1": "1440 32ND STREET NE","address2": "","city": "CEDAR RAPIDS","state": "IA","zip": "52402","zip+4": "0000","phone": "3193633587","NPI": "     1861422115"}, 
{"id": 18551,"ncpdp": "1601144","pharmacy_name": "HY VEE DRUGSTORE 1 #7020","address1": "1520 SIXTH STREET SW","address2": "","city": "CEDAR RAPIDS","state": "IA","zip": "52404","zip+4": "0000","phone": "3193630219","NPI": "     1982647236"}, 
{"id": 18552,"ncpdp": "1601168","pharmacy_name": "A AVENUE PHARMACY","address1": "717 A AVE NE","address2": "SUITE 202","city": "CEDAR RAPIDS","state": "IA","zip": "52401","zip+4": "1024","phone": "3193641586","NPI": "     1174616650"}, 
{"id": 18553,"ncpdp": "1601194","pharmacy_name": "REUTZEL PHARMACY","address1": "617 8TH AVE SE","address2": "","city": "CEDAR RAPIDS","state": "IA","zip": "52401","zip+4": "0000","phone": "3193644181","NPI": "     1801900642"}, 
{"id": 18554,"ncpdp": "1601384","pharmacy_name": "LAGRANGE PHARMACY INC","address1": "111 W 4TH ST","address2": "","city": "VINTON","state": "IA","zip": "52349","zip+4": "1138","phone": "3194724274","NPI": "     1831271998"}, 
{"id": 18555,"ncpdp": "1601473","pharmacy_name": "WALGREEN DRUG STORE #5077","address1": "2214 MUSCATINE AVE","address2": "","city": "IOWA CITY","state": "IA","zip": "52240","zip+4": "6600","phone": "3193541315","NPI": "     1801801113"}, 
{"id": 18556,"ncpdp": "1601562","pharmacy_name": "AMANA SOCIETY PHARMACY","address1": "507 39TH AVE","address2": "","city": "AMANA","state": "IA","zip": "52203","zip+4": "0000","phone": "3196223341","NPI": "     1053354811"}, 
{"id": 18557,"ncpdp": "1601586","pharmacy_name": "CLINGMAN PHARMACY INC","address1": "106 E 4TH ST","address2": "","city": "VINTON","state": "IA","zip": "52349","zip+4": "0000","phone": "3194724731","NPI": "     1427143858"}, 
{"id": 18558,"ncpdp": "1601598","pharmacy_name": "TIPTON PHARMACY","address1": "124 E 5TH ST","address2": "","city": "TIPTON","state": "IA","zip": "52772","zip+4": "1731","phone": "5638862158","NPI": "     1780778811"}, 
{"id": 18559,"ncpdp": "1601613","pharmacy_name": "WIDNER DRUG","address1": "111 S FRANKLIN ST","address2": "","city": "MANCHESTER","state": "IA","zip": "52057","zip+4": "0000","phone": "5639274463","NPI": "     1841212966"}, 
{"id": 18560,"ncpdp": "1601637","pharmacy_name": "WESTER DRUG INC","address1": "315 E 2ND ST","address2": "","city": "MUSCATINE","state": "IA","zip": "52761","zip+4": "4109","phone": "5632637044","NPI": "     1407836778"}, 
{"id": 18561,"ncpdp": "1601663","pharmacy_name": "WALGREEN DRUG STORE #3196","address1": "5 EAST ANSON","address2": "","city": "MARSHALLTOWN","state": "IA","zip": "50158","zip+4": "0000","phone": "6417526308","NPI": "     1710992029"}, 
{"id": 18562,"ncpdp": "1601675","pharmacy_name": "WALGREEN DRUG STORE #5721","address1": "3140 SE 14TH ST","address2": "","city": "DES MOINES","state": "IA","zip": "50320","zip+4": "0000","phone": "5152822177","NPI": "     1629083936"}, 
{"id": 18563,"ncpdp": "1601714","pharmacy_name": "SAC CITY DRUG","address1": "514 MAIN","address2": "","city": "SAC CITY","state": "IA","zip": "50583","zip+4": "1727","phone": "7126627146","NPI": "     1982685525"}, 
{"id": 18564,"ncpdp": "1601726","pharmacy_name": "SCHWENKE PHARMACY","address1": "126 SOUTH CODY ROAD","address2": "","city": "LECLAIRE","state": "IA","zip": "52753","zip+4": "0000","phone": "5632895656","NPI": "     1902076334"}, 
{"id": 18565,"ncpdp": "1601740","pharmacy_name": "RICHARDS PHARMACY","address1": "5625 HICKMAN ROAD","address2": "","city": "DES MOINES","state": "IA","zip": "50310","zip+4": "1119","phone": "5152744001","NPI": "     1194893537"}, 
{"id": 18566,"ncpdp": "1601776","pharmacy_name": "MEDICINE SHOPPE #1691","address1": "212 1ST STREET NORTH","address2": "","city": "NEWTON","state": "IA","zip": "50208","zip+4": "0000","phone": "6417923111","NPI": "     1578690939"}, 
{"id": 18567,"ncpdp": "1601790","pharmacy_name": "MEDICAL CENTER PHARMACY","address1": "1720 CENTRAL AVE EAST","address2": "","city": "HAMPTON","state": "IA","zip": "50441","zip+4": "0000","phone": "6414564146","NPI": "     1164589123"}, 
{"id": 18568,"ncpdp": "1601839","pharmacy_name": "FIFTH AVENUE PHARMACY","address1": "411 10TH ST SE","address2": "","city": "CEDAR RAPIDS","state": "IA","zip": "52403","zip+4": "2426","phone": "3193642406","NPI": "     1013012251"}, 
{"id": 18569,"ncpdp": "1601853","pharmacy_name": "WALGREEN DRUG STORE #3595","address1": "1720 WEST KIMBERLY RD","address2": "","city": "DAVENPORT","state": "IA","zip": "52806","zip+4": "0000","phone": "5633861110","NPI": "     1538174842"}, 
{"id": 18570,"ncpdp": "1601904","pharmacy_name": "OSTERHAUS PHARMACY","address1": "918 W PLATT","address2": "STE 2","city": "MAQUOKETA","state": "IA","zip": "52060","zip+4": "0000","phone": "5636525611","NPI": "     1699867994"}, 
{"id": 18571,"ncpdp": "1601942","pharmacy_name": "BROWER DRUG COMPANY","address1": "308 W 4TH ST","address2": "","city": "ST ANSGAR","state": "IA","zip": "50472","zip+4": "0000","phone": "6417364381","NPI": "     1619067683"}, 
{"id": 18572,"ncpdp": "1601966","pharmacy_name": "MEDICAP PHARMACY #8002","address1": "3825 SW 9TH ST","address2": "","city": "DES MOINES","state": "IA","zip": "50315","zip+4": "0000","phone": "5152831754","NPI": "     1144392937"}, 
{"id": 18573,"ncpdp": "1601992","pharmacy_name": "FIFIELD DRUG STORE #2","address1": "501 UNIVERSITY AVENUE","address2": "","city": "DES MOINES","state": "IA","zip": "50314","zip+4": "0000","phone": "5152443221","NPI": "     1265573992"}, 
{"id": 18574,"ncpdp": "1602019","pharmacy_name": "WESTSIDE MERCY FAMILY PHARMACY","address1": "910 N EISENHOWER","address2": "","city": "MASON CITY","state": "IA","zip": "50401","zip+4": "1597","phone": "6414225630","NPI": "     1639253990"}, 
{"id": 18575,"ncpdp": "1602071","pharmacy_name": "DRILLING REXALL PHARMACY","address1": "4010 MORNINGSIDE AVE","address2": "","city": "SIOUX CITY","state": "IA","zip": "51106","zip+4": "2486","phone": "7122764621","NPI": "     1336166214"}, 
{"id": 18576,"ncpdp": "1602083","pharmacy_name": "THOMPSON DEAN DRUG","address1": "911 W 7TH ST","address2": "","city": "SIOUX CITY","state": "IA","zip": "51103","zip+4": "5397","phone": "7122522761","NPI": "     1073666202"}, 
{"id": 18577,"ncpdp": "1602095","pharmacy_name": "RASHID DRUG","address1": "2404 AVE L","address2": "","city": "FORT MADISON","state": "IA","zip": "52627","zip+4": "0000","phone": "3193722300","NPI": "     1881700144"}, 
{"id": 18578,"ncpdp": "1602158","pharmacy_name": "HY VEE PHARMACY #1170","address1": "1221 CENTRAL AVENUE","address2": "","city": "ESTHERVILLE","state": "IA","zip": "51334","zip+4": "0000","phone": "7123625551","NPI": "     1063448306"}, 
{"id": 18579,"ncpdp": "1602184","pharmacy_name": "MANSMITH PHARMACY INC","address1": "3204 W 1ST ST","address2": "","city": "EMMETSBURG","state": "IA","zip": "50536","zip+4": "2515","phone": "7128522727","NPI": "     1003974817"}, 
{"id": 18580,"ncpdp": "1602209","pharmacy_name": "MANLY DRUG STORE #1","address1": "621 G AVE","address2": "","city": "GRUNDY CENTER","state": "IA","zip": "50638","zip+4": "1597","phone": "3198245446","NPI": "     1164516027"}, 
{"id": 18581,"ncpdp": "1602259","pharmacy_name": "KEASLINGS DRUG","address1": "1414 MAIN ST","address2": "","city": "KEOKUK","state": "IA","zip": "52632","zip+4": "3926","phone": "3195245435","NPI": "     1346348372"}, 
{"id": 18582,"ncpdp": "1602297","pharmacy_name": "GREENVILLE PHARMACY","address1": "2705 CORRECTIONVILLE RD","address2": "","city": "SIOUX CITY","state": "IA","zip": "51105","zip+4": "3627","phone": "7122580113","NPI": "     1528137015"}, 
{"id": 18583,"ncpdp": "1602312","pharmacy_name": "KAME PHARMACY","address1": "420 N 17TH ST","address2": "","city": "KEOKUK","state": "IA","zip": "52632","zip+4": "0000","phone": "3195248144","NPI": "     1962528752"}, 
{"id": 18584,"ncpdp": "1602348","pharmacy_name": "EVANSDALE PHARMACY","address1": "3506 LAFAYETTE ROAD","address2": "","city": "EVANSDALE","state": "IA","zip": "50707","zip+4": "0000","phone": "3192333395","NPI": "     1619012382"}, 
{"id": 18585,"ncpdp": "1602350","pharmacy_name": "FALLS ROAD DRUG","address1": "2027 FALLS AVE","address2": "","city": "WATERLOO","state": "IA","zip": "50701","zip+4": "2359","phone": "3192342634","NPI": "     1265529408"}, 
{"id": 18586,"ncpdp": "1602499","pharmacy_name": "KIMBALL AVENUE DRUG","address1": "2104 KIMBALL AVE","address2": "","city": "WATERLOO","state": "IA","zip": "50702","zip+4": "5094","phone": "3192346673","NPI": "     1811084056"}, 
{"id": 18587,"ncpdp": "1602526","pharmacy_name": "LEEDS PHARMACY INC","address1": "4029 FLOYD BLVD","address2": "","city": "SIOUX CITY","state": "IA","zip": "51108","zip+4": "1550","phone": "7122392051","NPI": "     1568532075"}, 
{"id": 18588,"ncpdp": "1602540","pharmacy_name": "COVENANT FAMILY PHARMACY","address1": "2710 ST FRANCIS DR","address2": "STE 101","city": "WATERLOO","state": "IA","zip": "50702","zip+4": "5493","phone": "3192725700","NPI": "     1497796494"}, 
{"id": 18589,"ncpdp": "1602552","pharmacy_name": "DONS PHARMACY","address1": "32 S FREDERICK AVE","address2": "","city": "OELWEIN","state": "IA","zip": "50662","zip+4": "2384","phone": "3192835254","NPI": "     1427122944"}, 
{"id": 18590,"ncpdp": "1602766","pharmacy_name": "TAMMYS PHARMACY INC","address1": "930 HWY 18 W","address2": "","city": "GARNER","state": "IA","zip": "50438","zip+4": "0000","phone": "6419232649","NPI": "     1770594285"}, 
{"id": 18591,"ncpdp": "1602778","pharmacy_name": "OARD AND ROSS DRUG INC","address1": "701 16TH AVE","address2": "","city": "COUNCIL BLUFFS","state": "IA","zip": "51501","zip+4": "6396","phone": "7123222501","NPI": "     1457402968"}, 
{"id": 18592,"ncpdp": "1602893","pharmacy_name": "BAUDER PHARMACY","address1": "3802 INGERSOLL AVE","address2": "","city": "DES MOINES","state": "IA","zip": "50312","zip+4": "0000","phone": "5152551124","NPI": "     1316081938"}, 
{"id": 18593,"ncpdp": "1602918","pharmacy_name": "SCHUCHMANNS HEALTHMART PHARMAC","address1": "12 S FREDERICK AVE","address2": "","city": "OELWEIN","state": "IA","zip": "50662","zip+4": "2390","phone": "3192832161","NPI": "     1417031089"}, 
{"id": 18594,"ncpdp": "1602944","pharmacy_name": "UNION DRUG","address1": "315 HWY 150 N","address2": "","city": "WEST UNION","state": "IA","zip": "52175","zip+4": "1115","phone": "5634223721","NPI": "     1104852318"}, 
{"id": 18595,"ncpdp": "1602956","pharmacy_name": "WARD EAST SIDE PHARMACY INC","address1": "2501 EAST WALNUT STREET","address2": "","city": "DES MOINES","state": "IA","zip": "50317","zip+4": "7951","phone": "5152625615","NPI": "     1871535104"}, 
{"id": 18596,"ncpdp": "1603047","pharmacy_name": "HY VEE DRUGSTORE #7028","address1": "218 EAST MAIN STREET","address2": "","city": "CHEROKEE","state": "IA","zip": "51012","zip+4": "0000","phone": "7122255783","NPI": "     1093750556"}, 
{"id": 18597,"ncpdp": "1603061","pharmacy_name": "THORSON DRUG","address1": "233 REED ST","address2": "","city": "AKRON","state": "IA","zip": "51001","zip+4": "0000","phone": "7125682013","NPI": "     1174743397"}, 
{"id": 18598,"ncpdp": "1603237","pharmacy_name": "DANIEL PHARMACY","address1": "1114 CENTRAL AVE","address2": "","city": "FT DODGE","state": "IA","zip": "50501","zip+4": "4097","phone": "5155733431","NPI": "     1043256050"}, 
{"id": 18599,"ncpdp": "1603287","pharmacy_name": "MAIN STREET PHARMACY","address1": "103 N MAIN ST","address2": "BOX 70","city": "HOLSTEIN","state": "IA","zip": "51025","zip+4": "5016","phone": "7123684549","NPI": "     1376642835"}, 
{"id": 18600,"ncpdp": "1603340","pharmacy_name": "DAHLS PHARMACY","address1": "3425 INGERSOLL AVE","address2": "","city": "DES MOINES","state": "IA","zip": "50312","zip+4": "3976","phone": "5152558642","NPI": "     1487671046"}, 
{"id": 18601,"ncpdp": "1603352","pharmacy_name": "DAHLS PHARMACY","address1": "1819 BEAVER AVE","address2": "","city": "DES MOINES","state": "IA","zip": "50310","zip+4": "3899","phone": "5152794382","NPI": "     1669553475"}, 
{"id": 18602,"ncpdp": "1603364","pharmacy_name": "DAHLS PHARMACY","address1": "4121 FLEUR DR","address2": "","city": "DES MOINES","state": "IA","zip": "50321","zip+4": "0000","phone": "5152855927","NPI": "     1164455218"}, 
{"id": 18603,"ncpdp": "1603388","pharmacy_name": "DAHLS PHARMACY","address1": "1320 E EUCLID","address2": "","city": "DES MOINES","state": "IA","zip": "50316","zip+4": "1218","phone": "5152655946","NPI": "     1124102801"}, 
{"id": 18604,"ncpdp": "1603390","pharmacy_name": "DAHLS PHARMACY","address1": "3400 E 33RD ST","address2": "","city": "DES MOINES","state": "IA","zip": "50317","zip+4": "4393","phone": "5152627342","NPI": "     1699785048"}, 
{"id": 18605,"ncpdp": "1603554","pharmacy_name": "UNION PHARMACY","address1": "235 W BROADWAY","address2": "","city": "COUNCIL BLUFFS","state": "IA","zip": "51503","zip+4": "0000","phone": "7123283344","NPI": "     1407911837"}, 
{"id": 18606,"ncpdp": "1603720","pharmacy_name": "HY VEE DRUGSTORE #7065","address1": "1140 N JEFFERSON STREET","address2": "","city": "OTTUMWA","state": "IA","zip": "52501","zip+4": "0000","phone": "6416845467","NPI": "     1356372700"}, 
{"id": 18607,"ncpdp": "1603782","pharmacy_name": "WILLIAMS DRUG CO INC","address1": "611 2ND ST","address2": "","city": "WEBSTER CITY","state": "IA","zip": "50595","zip+4": "1709","phone": "5158321150","NPI": "     1790790301"}, 
{"id": 18608,"ncpdp": "1603895","pharmacy_name": "MED EQUIP PHARMACY","address1": "141 S CENTRAL AVE","address2": "","city": "HARTLEY","state": "IA","zip": "51346","zip+4": "1494","phone": "7127282165","NPI": "     1508972316"}, 
{"id": 18609,"ncpdp": "1603972","pharmacy_name": "HY VEE PHARMACY #1092","address1": "1706 N 16TH STREET","address2": "","city": "COUNCIL BLUFFS","state": "IA","zip": "51501","zip+4": "0000","phone": "7123223111","NPI": "     1942239454"}, 
{"id": 18610,"ncpdp": "1603984","pharmacy_name": "MCMAHON DRUG STORE","address1": "625 DAVIS AVE","address2": "","city": "CORNING","state": "IA","zip": "50841","zip+4": "0000","phone": "6413223454","NPI": "     1275548810"}, 
{"id": 18611,"ncpdp": "1604049","pharmacy_name": "WOODLAWN PHARMACY","address1": "101 N WOODLAWN AVE","address2": "","city": "LAKE CITY","state": "IA","zip": "51449","zip+4": "1723","phone": "7124648811","NPI": "     1619043056"}, 
{"id": 18612,"ncpdp": "1604099","pharmacy_name": "LEHAN PHARMACY","address1": "317 MAIN ST","address2": "","city": "MINDEN","state": "IA","zip": "51553","zip+4": "0000","phone": "7124832884","NPI": "     1700891397"}, 
{"id": 18613,"ncpdp": "1604102","pharmacy_name": "HY VEE DRUGSTORE #7008","address1": "849 SOUTH ANKENY BLVD","address2": "","city": "ANKENY","state": "IA","zip": "50021","zip+4": "0000","phone": "5159640656","NPI": "     1790727311"}, 
{"id": 18614,"ncpdp": "1604114","pharmacy_name": "BLOEMKE PHARMACY","address1": "443 EAST MAIN ST","address2": "","city": "BELMOND","state": "IA","zip": "50421","zip+4": "1223","phone": "6414443451","NPI": "     1346376530"}, 
{"id": 18615,"ncpdp": "1604126","pharmacy_name": "DAHLS PHARMACY","address1": "1208 PROSPECT AVE","address2": "","city": "WEST DES MOINES","state": "IA","zip": "50265","zip+4": "3592","phone": "5152234626","NPI": "     1497835300"}, 
{"id": 18616,"ncpdp": "1604138","pharmacy_name": "DAHLS PHARMACY","address1": "8700 HICKMAN RD","address2": "","city": "DES MOINES","state": "IA","zip": "50325","zip+4": "0000","phone": "5152768784","NPI": "     1356374623"}, 
{"id": 18617,"ncpdp": "1604152","pharmacy_name": "DUTCH MILL PHARMACY","address1": "104 ALBANY AVE NE","address2": "","city": "ORANGE CITY","state": "IA","zip": "51041","zip+4": "1423","phone": "7127374844","NPI": "     1568498947"}, 
{"id": 18618,"ncpdp": "1604164","pharmacy_name": "MOVILLE PHARMACY INC","address1": "216 E MAIN ST","address2": "","city": "MOVILLE","state": "IA","zip": "51039","zip+4": "5040","phone": "7128733401","NPI": "     1114963592"}, 
{"id": 18619,"ncpdp": "1604203","pharmacy_name": "HY VEE PHARMACY #1887","address1": "1700 VALLEY WEST DRIVE","address2": "","city": "WEST DES MOINES","state": "IA","zip": "50265","zip+4": "0000","phone": "5152259330","NPI": "     1073558607"}, 
{"id": 18620,"ncpdp": "1604227","pharmacy_name": "HY VEE DRUGSTORE #7050","address1": "2790 SEVENTH AVENUE","address2": "","city": "MARION","state": "IA","zip": "52302","zip+4": "0000","phone": "3193770959","NPI": "     1558306845"}, 
{"id": 18621,"ncpdp": "1604366","pharmacy_name": "HARTIG DRUG CO #12","address1": "21 W MAIN ST","address2": "","city": "WAUKON","state": "IA","zip": "52172","zip+4": "1637","phone": "5635686315","NPI": "     1972600542"}, 
{"id": 18622,"ncpdp": "1604405","pharmacy_name": "HY VEE DRUGSTORE 3 #7024","address1": "2405 MT VERNON AVENUE SE","address2": "","city": "CEDAR RAPIDS","state": "IA","zip": "52402","zip+4": "0000","phone": "3193657579","NPI": "     1184669814"}, 
{"id": 18623,"ncpdp": "1604431","pharmacy_name": "MCGREGOR PHARMACY","address1": "230 MAIN ST","address2": "","city": "MCGREGOR","state": "IA","zip": "52157","zip+4": "0000","phone": "5638733781","NPI": "     1578639407"}, 
{"id": 18624,"ncpdp": "1604443","pharmacy_name": "HY VEE PHARMACY #1522","address1": "1215 141ST STREET","address2": "","city": "PERRY","state": "IA","zip": "50220","zip+4": "0000","phone": "5154653543","NPI": "     1982630364"}, 
{"id": 18625,"ncpdp": "1604479","pharmacy_name": "MEDICAP PHARMACY #8207","address1": "403 STORY ST","address2": "","city": "BOONE","state": "IA","zip": "50036","zip+4": "3533","phone": "5154322311","NPI": "     1407962400"}, 
{"id": 18626,"ncpdp": "1604481","pharmacy_name": "SOUTH SIDE DRUG INC","address1": "337 CHURCH ST","address2": "","city": "OTTUMWA","state": "IA","zip": "52501","zip+4": "4212","phone": "6416823467","NPI": "     1801817879"}, 
{"id": 18627,"ncpdp": "1604544","pharmacy_name": "BOONE MEDICAL ASSOCIATES P","address1": "120 S STORY ST","address2": "SUITE C","city": "BOONE","state": "IA","zip": "50036","zip+4": "4739","phone": "5154323460","NPI": "     1396782991"}, 
{"id": 18628,"ncpdp": "1604568","pharmacy_name": "LUTZ PHARMACY","address1": "120 8TH ST SE","address2": "","city": "ALTOONA","state": "IA","zip": "50009","zip+4": "1994","phone": "5159674213","NPI": "     1407876204"}, 
{"id": 18629,"ncpdp": "1604594","pharmacy_name": "DECATUR FAMILY PHARMACY","address1": "204 N MAIN ST","address2": "","city": "LEON","state": "IA","zip": "50144","zip+4": "0000","phone": "6414464136","NPI": "     1477667442"}, 
{"id": 18630,"ncpdp": "1604657","pharmacy_name": "MONTROSS PHARMACY INC","address1": "118 N 1ST AVE","address2": "","city": "WINTERSET","state": "IA","zip": "50273","zip+4": "1594","phone": "5154622282","NPI": "     1952490500"}, 
{"id": 18631,"ncpdp": "1604758","pharmacy_name": "MEDICAP PHARMACY #8004","address1": "11 NORTH 3RD AVENUE","address2": "","city": "MARSHALLTOWN","state": "IA","zip": "50158","zip+4": "0000","phone": "6417527139","NPI": "     1336297332"}, 
{"id": 18632,"ncpdp": "1604873","pharmacy_name": "CAMANCHE PHARMACY","address1": "818 7TH AVE","address2": "","city": "CAMANCHE","state": "IA","zip": "52730","zip+4": "1811","phone": "5632598361","NPI": "     1083782569"}, 
{"id": 18633,"ncpdp": "1605027","pharmacy_name": "IOWA HLTH SYSTMS PHCY","address1": "1026 A AVE NE","address2": "","city": "CEDAR RAPIDS","state": "IA","zip": "52402","zip+4": "5036","phone": "3193697528","NPI": "     1629171780"}, 
{"id": 18634,"ncpdp": "1605205","pharmacy_name": "CARROLL APOTHECARY","address1": "707 N MAIN ST","address2": "","city": "CARROLL","state": "IA","zip": "51401","zip+4": "0000","phone": "7127922671","NPI": "     1073506366"}, 
{"id": 18635,"ncpdp": "1605217","pharmacy_name": "VER HELST SNYDER DRUG","address1": "98 N 10TH ST","address2": "","city": "NORTHWOOD","state": "IA","zip": "50459","zip+4": "1438","phone": "6413242116","NPI": "     1316909484"}, 
{"id": 18636,"ncpdp": "1605433","pharmacy_name": "DISCO DRUG-MEDICAL ARTS DVSN","address1": "1428 2ND AVE N","address2": "","city": "FT DODGE","state": "IA","zip": "50501","zip+4": "4119","phone": "5159555430","NPI": "     1003828096"}, 
{"id": 18637,"ncpdp": "1605469","pharmacy_name": "NESSEN PHARMACY","address1": "104 S FRANKLIN ST","address2": "","city": "CORYDON","state": "IA","zip": "50060","zip+4": "1518","phone": "6418722512","NPI": "     1336132588"}, 
{"id": 18638,"ncpdp": "1605712","pharmacy_name": "DONLON HEALTHMART PHARMACY","address1": "201 W WATER ST","address2": "","city": "DECORAH","state": "IA","zip": "52101","zip+4": "1727","phone": "5633822626","NPI": "     1669554457"}, 
{"id": 18639,"ncpdp": "1605863","pharmacy_name": "HARTIG DRUG CO #4","address1": "2225 CENTRAL AVE","address2": "","city": "DUBUQUE","state": "IA","zip": "52001","zip+4": "3506","phone": "5635888704","NPI": "     1417054776"}, 
{"id": 18640,"ncpdp": "1605875","pharmacy_name": "HARTIG DRUG CO #2","address1": "157 LOCUST ST","address2": "","city": "DUBUQUE","state": "IA","zip": "52001","zip+4": "7660","phone": "5635888702","NPI": "     1356448914"}, 
{"id": 18641,"ncpdp": "1605887","pharmacy_name": "HARTIG DRUG CO #3","address1": "2255 JOHN F KENNEDY RD","address2": "","city": "DUBUQUE","state": "IA","zip": "52002","zip+4": "2846","phone": "5635888703","NPI": "     1891892451"}, 
{"id": 18642,"ncpdp": "1605902","pharmacy_name": "HARTIG PHARMACY SERVICES #9","address1": "2216 WOODLAND DR","address2": "","city": "DUBUQUE","state": "IA","zip": "52002","zip+4": "3879","phone": "5635888709","NPI": "     1144327404"}, 
{"id": 18643,"ncpdp": "1605938","pharmacy_name": "MERCY FAMILY PHARMACY-ELM","address1": "1920 ELM ST","address2": "","city": "DUBUQUE","state": "IA","zip": "52001","zip+4": "0000","phone": "5635837379","NPI": "     1619064805"}, 
{"id": 18644,"ncpdp": "1605952","pharmacy_name": "MERCY FAMILY PHARMACY EAST","address1": "1000 LANGWORTHY ST","address2": "","city": "DUBUQUE","state": "IA","zip": "52001","zip+4": "7365","phone": "5635843405","NPI": "     1922034131"}, 
{"id": 18645,"ncpdp": "1605988","pharmacy_name": "DUNLAP FAMILY PHARMACY","address1": "612 IOWA AVE","address2": "","city": "DUNLAP","state": "IA","zip": "51529","zip+4": "0000","phone": "7126435162","NPI": "     1881763738"}, 
{"id": 18646,"ncpdp": "1605990","pharmacy_name": "WESTFAIR DRUG INC","address1": "621 5TH ST","address2": "","city": "DURANT","state": "IA","zip": "52747","zip+4": "9774","phone": "5637854930","NPI": "     1053494047"}, 
{"id": 18647,"ncpdp": "1606144","pharmacy_name": "MILLER PHARMACY","address1": "635 HWY 9 E","address2": "","city": "FOREST CITY","state": "IA","zip": "50436","zip+4": "0169","phone": "6415853931","NPI": "     1215045539"}, 
{"id": 18648,"ncpdp": "1606168","pharmacy_name": "FRIENDSHIP HAVEN PHARMACY","address1": "420 KENYON RD","address2": "","city": "FT DODGE","state": "IA","zip": "50501","zip+4": "5254","phone": "5155736015","NPI": "     1700809407"}, 
{"id": 18649,"ncpdp": "1606219","pharmacy_name": "DOWD DRUG INC","address1": "307 STATE ST","address2": "","city": "GUTHRIE CENTER","state": "IA","zip": "50115","zip+4": "0099","phone": "6417478317","NPI": "     1538235304"}, 
{"id": 18650,"ncpdp": "1606221","pharmacy_name": "GUTTENBERG PHARMACY INC #5","address1": "807 S HWY 52","address2": "","city": "GUTTENBERG","state": "IA","zip": "52052","zip+4": "0000","phone": "5632521172","NPI": "     1417923061"}, 
{"id": 18651,"ncpdp": "1606233","pharmacy_name": "STONER DRUG #1","address1": "1105 MAIN ST","address2": "","city": "HAMBURG","state": "IA","zip": "51640","zip+4": "1233","phone": "7123822551","NPI": "     1104992866"}, 
{"id": 18652,"ncpdp": "1606295","pharmacy_name": "PEXTON PHARMACY","address1": "1812 CHATBURN PLAZA","address2": "","city": "HARLAN","state": "IA","zip": "51537","zip+4": "1395","phone": "7127552101","NPI": "     1235173451"}, 
{"id": 18653,"ncpdp": "1606310","pharmacy_name": "BOOTH PHARMACY INC","address1": "903 CENTRAL AVE","address2": "","city": "HAWARDEN","state": "IA","zip": "51023","zip+4": "0000","phone": "7125512374","NPI": "     1952343485"}, 
{"id": 18654,"ncpdp": "1606346","pharmacy_name": "HULL PHARMACY","address1": "1044 MAIN ST","address2": "","city": "HULL","state": "IA","zip": "51239","zip+4": "0000","phone": "7124391611","NPI": "     1477660512"}, 
{"id": 18655,"ncpdp": "1606360","pharmacy_name": "IDA GROVE PHARMACY","address1": "506 SECOND ST","address2": "","city": "IDA GROVE","state": "IA","zip": "51445","zip+4": "0000","phone": "7123642734","NPI": "     1508985508"}, 
{"id": 18656,"ncpdp": "1606497","pharmacy_name": "CORNER PHARMACY","address1": "504 ROCKSYLVANIA","address2": "","city": "IOWA FALLS","state": "IA","zip": "50126","zip+4": "0000","phone": "6416485550","NPI": "     1396896908"}, 
{"id": 18657,"ncpdp": "1606625","pharmacy_name": "EBY DRUG STORE INC","address1": "103 N 4TH AVE","address2": "","city": "LOGAN","state": "IA","zip": "51546","zip+4": "0000","phone": "7126442160","NPI": "     1821189366"}, 
{"id": 18658,"ncpdp": "1606663","pharmacy_name": "MAIER FAMILY PHARMACY","address1": "411 MAIN ST","address2": "","city": "MAPLETON","state": "IA","zip": "51034","zip+4": "0000","phone": "7128811033","NPI": "     1861555468"}, 
{"id": 18659,"ncpdp": "1606928","pharmacy_name": "NOELS PHARMACY","address1": "132 S MAIN ST","address2": "","city": "NORTH ENGLISH","state": "IA","zip": "52316","zip+4": "9612","phone": "3196643115","NPI": "     1932170347"}, 
{"id": 18660,"ncpdp": "1606980","pharmacy_name": "STANGEL PHARMACY","address1": "821 IOWA AVE","address2": "","city": "ONAWA","state": "IA","zip": "51040","zip+4": "1629","phone": "7124231131","NPI": "     1174515001"}, 
{"id": 18661,"ncpdp": "1607019","pharmacy_name": "HOMETOWN PHARMACY #1","address1": "512 8TH ST SE","address2": "","city": "ORANGE CITY","state": "IA","zip": "51041","zip+4": "0000","phone": "7127374919","NPI": "     1356455414"}, 
{"id": 18662,"ncpdp": "1607071","pharmacy_name": "MEDICAP PHARMACY #8211","address1": "615 E MAIN ST","address2": "","city": "PANORA","state": "IA","zip": "50216","zip+4": "0000","phone": "6417552312","NPI": "     1710071121"}, 
{"id": 18663,"ncpdp": "1607209","pharmacy_name": "MERCY FAMILY PHARMACY-SHEFFIEL","address1": "115 GILMAN","address2": "","city": "SHEFFIELD","state": "IA","zip": "50475","zip+4": "0000","phone": "6418924640","NPI": "     1659453116"}, 
{"id": 18664,"ncpdp": "1607312","pharmacy_name": "PENN DRUG CO","address1": "714 ILLINOIS ST","address2": "","city": "SIDNEY","state": "IA","zip": "51652","zip+4": "0575","phone": "7123742513","NPI": "     1972643914"}, 
{"id": 18665,"ncpdp": "1607487","pharmacy_name": "HONEYMAN DRUG","address1": "408 S 3RD AVE","address2": "","city": "VILLISCA","state": "IA","zip": "50864","zip+4": "0000","phone": "7128264112","NPI": "     1013083773"}, 
{"id": 18666,"ncpdp": "1607627","pharmacy_name": "PETERSON DRUG COMPANY","address1": "514 ELM ST","address2": "","city": "WILLIAMSBURG","state": "IA","zip": "52361","zip+4": "0360","phone": "3196681664","NPI": "     1356311013"}, 
{"id": 18667,"ncpdp": "1607829","pharmacy_name": "MEDICAP PHARMACY #8006","address1": "1551 FIRST AVE SE","address2": "","city": "CEDAR RAPIDS","state": "IA","zip": "52402","zip+4": "0000","phone": "3193668351","NPI": "     1053483842"}, 
{"id": 18668,"ncpdp": "1607867","pharmacy_name": "MEDICAP PHARMACY #8003","address1": "105 LINCOLN WAY","address2": "","city": "AMES","state": "IA","zip": "50010","zip+4": "3323","phone": "5152321653","NPI": "     1669408175"}, 
{"id": 18669,"ncpdp": "1607906","pharmacy_name": "DAHLS PHARMACY","address1": "4343 MERLE HAY RD","address2": "","city": "DES MOINES","state": "IA","zip": "50310","zip+4": "1499","phone": "5152764845","NPI": "     1265463400"}, 
{"id": 18670,"ncpdp": "1607920","pharmacy_name": "ESTHERVILLE DRUG","address1": "522 CENTRAL AVE","address2": "","city": "ESTHERVILLE","state": "IA","zip": "51334","zip+4": "0000","phone": "7123623154","NPI": "     1093750416"}, 
{"id": 18671,"ncpdp": "1608023","pharmacy_name": "HY VEE PHARMACY #1622","address1": "1951 SOUTH MAIN","address2": "","city": "SIOUX CENTER","state": "IA","zip": "51250","zip+4": "0000","phone": "7127223516","NPI": "     1124054481"}, 
{"id": 18672,"ncpdp": "1608047","pharmacy_name": "CASSADY PHARMACY #2","address1": "4505 SW 9TH ST","address2": "","city": "DES MOINES","state": "IA","zip": "50315","zip+4": "0000","phone": "5152852474","NPI": "     1003957960"}, 
{"id": 18673,"ncpdp": "1608085","pharmacy_name": "MEDICAP PHARMACY #8058","address1": "504 A AVENUE WEST","address2": "","city": "OSKALOOSA","state": "IA","zip": "52577","zip+4": "0000","phone": "6416738486","NPI": "     1962574756"}, 
{"id": 18674,"ncpdp": "1608162","pharmacy_name": "PARKERSBURG PHARMACY","address1": "226 3RD ST","address2": "","city": "PARKERSBURG","state": "IA","zip": "50665","zip+4": "0000","phone": "3193461970","NPI": "     1932257599"}, 
{"id": 18675,"ncpdp": "1608198","pharmacy_name": "HY VEE PHARMACY 5 #1151","address1": "1107 SE ARMY POST ROAD","address2": "","city": "DES MOINES","state": "IA","zip": "50315","zip+4": "0000","phone": "5152871022","NPI": "     1417983057"}, 
{"id": 18676,"ncpdp": "1608201","pharmacy_name": "JESUP PHARMACY","address1": "1094 220TH ST","address2": "","city": "JESUP","state": "IA","zip": "50648","zip+4": "0000","phone": "3198276889","NPI": "     1922045632"}, 
{"id": 18677,"ncpdp": "1608225","pharmacy_name": "MONTROSS PHARMACY","address1": "134 MAIN ST","address2": "","city": "ST CHARLES","state": "IA","zip": "50240","zip+4": "1522","phone": "6413962445","NPI": "     1740370667"}, 
{"id": 18678,"ncpdp": "1608251","pharmacy_name": "HY VEE DRUGSTORE #7056","address1": "875 SW 4TH ST","address2": "","city": "MASON CITY","state": "IA","zip": "50401","zip+4": "0000","phone": "6414245522","NPI": "     1326083718"}, 
{"id": 18679,"ncpdp": "1608287","pharmacy_name": "MILLER MEDICINE CABINET","address1": "214 5TH ST","address2": "","city": "KALONA","state": "IA","zip": "52247","zip+4": "0000","phone": "3196563134","NPI": "     1538262696"}, 
{"id": 18680,"ncpdp": "1608299","pharmacy_name": "VALLEY DRUG STORE","address1": "318 E ERIE ST","address2": "","city": "MISSOURI VALLEY","state": "IA","zip": "51555","zip+4": "1692","phone": "7126422747","NPI": "     1700942802"}, 
{"id": 18681,"ncpdp": "1608326","pharmacy_name": "SAMPLE MEDICAL PHARMACY","address1": "2310 JOHNSON AVENUE NW","address2": "","city": "CEDAR RAPIDS","state": "IA","zip": "52404","zip+4": "0000","phone": "3193653239","NPI": "     1265573125"}, 
{"id": 18682,"ncpdp": "1608415","pharmacy_name": "MEDICAP PHARMACY #8008","address1": "7641 DOUGLAS AVENUE","address2": "","city": "URBANDALE","state": "IA","zip": "50322","zip+4": "0000","phone": "5152763471","NPI": "     1316002744"}, 
{"id": 18683,"ncpdp": "1609835","pharmacy_name": "REX PHARMACY INC","address1": "507 CHESTNUT ST","address2": "","city": "ATLANTIC","state": "IA","zip": "50022","zip+4": "1249","phone": "7122432110","NPI": "     1841277282"}, 
{"id": 18684,"ncpdp": "1609885","pharmacy_name": "KMART PHARMACY #4158","address1": "3810 UNIVERSITY AVE","address2": "","city": "WATERLOO","state": "IA","zip": "50701","zip+4": "0000","phone": "3192341507","NPI": "     1518998574"}, 
{"id": 18685,"ncpdp": "1609897","pharmacy_name": "HY VEE PHARMACY #1610","address1": "2827 HAMILTON BLVD","address2": "","city": "SIOUX CITY","state": "IA","zip": "51104","zip+4": "0000","phone": "7122778734","NPI": "     1336179936"}, 
{"id": 18686,"ncpdp": "1609900","pharmacy_name": "MONTROSS PHARMACY INC","address1": "105 S CHESTNUT AVE","address2": "","city": "EARLHAM","state": "IA","zip": "50072","zip+4": "0000","phone": "5157582174","NPI": "     1639149990"}, 
{"id": 18687,"ncpdp": "1609912","pharmacy_name": "METHODIST PLAZA PHARMACY LTD","address1": "1212 PLEASANT ST","address2": "SUITE 105","city": "DES MOINES","state": "IA","zip": "50309","zip+4": "1410","phone": "5152448855","NPI": "     1295833135"}, 
{"id": 18688,"ncpdp": "1610016","pharmacy_name": "IOWA STATE UNIVERSITY","address1": "2260 THIELEN STUDENT HEALTH CN","address2": "","city": "AMES","state": "IA","zip": "50011","zip+4": "2260","phone": "5152947983","NPI": "     1346376332"}, 
{"id": 18689,"ncpdp": "1610042","pharmacy_name": "PARK PHARMACY","address1": "804 6TH ST","address2": "","city": "SIBLEY","state": "IA","zip": "51249","zip+4": "1712","phone": "7127543859","NPI": "     1285769489"}, 
{"id": 18690,"ncpdp": "1610066","pharmacy_name": "KMART PHARMACY #3441","address1": "3616 W KIMBERLY RD","address2": "","city": "DAVENPORT","state": "IA","zip": "52806","zip+4": "0000","phone": "5633863742","NPI": "     1427089481"}, 
{"id": 18691,"ncpdp": "1610155","pharmacy_name": "FOREST PARK PHARMACY","address1": "1010 4TH ST SW STE 110","address2": "","city": "MASON CITY","state": "IA","zip": "50401","zip+4": "0000","phone": "6414226100","NPI": "     1134204738"}, 
{"id": 18692,"ncpdp": "1610167","pharmacy_name": "SCOTT THRIFTY WHITE DRUG","address1": "629 6TH AVE","address2": "","city": "DEWITT","state": "IA","zip": "52742","zip+4": "1635","phone": "5636595042","NPI": "     1174630735"}, 
{"id": 18693,"ncpdp": "1610206","pharmacy_name": "CARLEY DRUG COMPANY","address1": "102 N ELM ST","address2": "","city": "AVOCA","state": "IA","zip": "51521","zip+4": "0000","phone": "7123436777","NPI": "     1528128253"}, 
{"id": 18694,"ncpdp": "1610232","pharmacy_name": "INDIAN HILLS PHARMACY","address1": "1551 INDIAN HILLS DR","address2": "SUITE 101","city": "SIOUX CITY","state": "IA","zip": "51104","zip+4": "1800","phone": "7122559150","NPI": "     1114095403"}, 
{"id": 18695,"ncpdp": "1610294","pharmacy_name": "FAY PHARMACY","address1": "400 AUDUBON ST","address2": "","city": "ADAIR","state": "IA","zip": "50002","zip+4": "0608","phone": "6417423440","NPI": "     1902948854"}, 
{"id": 18696,"ncpdp": "1610484","pharmacy_name": "CLINTON MEDICAL CLINIC PHARMAC","address1": "221 MAIN AVE","address2": "","city": "CLINTON","state": "IA","zip": "52732","zip+4": "2241","phone": "5632421724","NPI": "     1710995758"}, 
{"id": 18697,"ncpdp": "1610511","pharmacy_name": "ATLANTIC MEDICAL CENTER PHCY","address1": "1501 E 10TH ST","address2": "","city": "ATLANTIC","state": "IA","zip": "50022","zip+4": "0000","phone": "7122433367","NPI": "     1295827913"}, 
{"id": 18698,"ncpdp": "1610523","pharmacy_name": "KMART PHARMACY #4314","address1": "2727 16TH AVE SW","address2": "","city": "CEDAR RAPIDS","state": "IA","zip": "52404","zip+4": "0000","phone": "3193667815","NPI": "     1336170398"}, 
{"id": 18699,"ncpdp": "1610535","pharmacy_name": "KMART PHARMACY #4289","address1": "180 COLLINS RD NE","address2": "","city": "CEDAR RAPIDS","state": "IA","zip": "52402","zip+4": "0000","phone": "3193773338","NPI": "     1245261205"}, 
{"id": 18700,"ncpdp": "1610573","pharmacy_name": "KMART PHARMACY #4485","address1": "2006 4TH ST SW","address2": "","city": "MASON CITY","state": "IA","zip": "50401","zip+4": "0000","phone": "6414235178","NPI": "     1154352110"}, 
{"id": 18701,"ncpdp": "1610648","pharmacy_name": "KMART PHARMACY #4315","address1": "901 HOLLYWOOD BLVD","address2": "","city": "IOWA CITY","state": "IA","zip": "52240","zip+4": "0000","phone": "3193511768","NPI": "     1063443026"}, 
{"id": 18702,"ncpdp": "1610698","pharmacy_name": "DENVER DRUG","address1": "340 S STATE ST","address2": "","city": "DENVER","state": "IA","zip": "50622","zip+4": "0000","phone": "3199845691","NPI": "     1124192539"}, 
{"id": 18703,"ncpdp": "1610701","pharmacy_name": "WAGNER CLINIC PHARMACY","address1": "915 13TH AVE NORTH","address2": "","city": "CLINTON","state": "IA","zip": "52732","zip+4": "0000","phone": "5632425944","NPI": "     1528155116"}, 
{"id": 18704,"ncpdp": "1610802","pharmacy_name": "HY VEE PHARMACY #1013","address1": "3800 WEST LINCOLN WAY","address2": "","city": "AMES","state": "IA","zip": "50010","zip+4": "0000","phone": "5152928375","NPI": "     1043241300"}, 
{"id": 18705,"ncpdp": "1610890","pharmacy_name": "HY VEE PHARMACY 2 #1101","address1": "1745 MADISON AVENUE","address2": "","city": "COUNCIL BLUFFS","state": "IA","zip": "51501","zip+4": "0000","phone": "7123229222","NPI": "     1336175975"}, 
{"id": 18706,"ncpdp": "1610941","pharmacy_name": "KMART PHARMACY #3097","address1": "2803 EAST KANESVILLE BLVD","address2": "","city": "COUNCIL BLUFFS","state": "IA","zip": "51503","zip+4": "0000","phone": "7123250987","NPI": "     1972534931"}, 
{"id": 18707,"ncpdp": "1610989","pharmacy_name": "KMART PHARMACY #4465","address1": "5700 GORDON DRIVE","address2": "","city": "SIOUX CITY","state": "IA","zip": "51106","zip+4": "0000","phone": "7122761461","NPI": "     1881625846"}, 
{"id": 18708,"ncpdp": "1611006","pharmacy_name": "HY VEE PHARMACY #1759","address1": "8601 DOUGLAS AVENUE","address2": "","city": "URBANDALE","state": "IA","zip": "50322","zip+4": "0000","phone": "5152702225","NPI": "     1659307197"}, 
{"id": 18709,"ncpdp": "1611032","pharmacy_name": "BELLEVUE PHARMACY","address1": "115 STATE ST","address2": "","city": "BELLEVUE","state": "IA","zip": "52031","zip+4": "1307","phone": "5638724259","NPI": "     1295842839"}, 
{"id": 18710,"ncpdp": "1611119","pharmacy_name": "MAIN AT LOCUST PHARMACY AND ME","address1": "129 W LOCUST ST","address2": "","city": "DAVENPORT","state": "IA","zip": "52803","zip+4": "0000","phone": "5633241641","NPI": "     1184781940"}, 
{"id": 18711,"ncpdp": "1611121","pharmacy_name": "ANDERSON PHCY UNITED DRUGS #20","address1": "61 W GILLETT ST","address2": "","city": "PRESTON","state": "IA","zip": "52069","zip+4": "0040","phone": "5636893301","NPI": "     1306857818"}, 
{"id": 18712,"ncpdp": "1611284","pharmacy_name": "CLARION PHARMACY","address1": "210 N MAIN ST","address2": "","city": "CLARION","state": "IA","zip": "50525","zip+4": "1494","phone": "5155326626","NPI": "     1518012814"}, 
{"id": 18713,"ncpdp": "1611412","pharmacy_name": "KMART PHARMACY #7002","address1": "3200 AGENCY ST","address2": "","city": "BURLINGTON","state": "IA","zip": "52601","zip+4": "0000","phone": "3197536515","NPI": "     1699706655"}, 
{"id": 18714,"ncpdp": "1611424","pharmacy_name": "KMART PHARMACY #4160","address1": "2535 HUBBELL AVE","address2": "","city": "DES MOINES","state": "IA","zip": "50317","zip+4": "0000","phone": "5152629578","NPI": "     1508897562"}, 
{"id": 18715,"ncpdp": "1611436","pharmacy_name": "KMART PHARMACY #4156","address1": "7501 HICKMAN","address2": "","city": "URBANDALE","state": "IA","zip": "50322","zip+4": "0000","phone": "5152702623","NPI": "     1417988478"}, 
{"id": 18716,"ncpdp": "1611474","pharmacy_name": "SCOTT PHARMACY","address1": "238 S MAIN","address2": "","city": "FAYETTE","state": "IA","zip": "52142","zip+4": "0000","phone": "5634254530","NPI": "     1669587473"}, 
{"id": 18717,"ncpdp": "1611614","pharmacy_name": "ECONOFOODS PHARMACY #507","address1": "522 N HANCOCK","address2": "","city": "OTTUMWA","state": "IA","zip": "52501","zip+4": "0000","phone": "6416826403","NPI": "     1407904774"}, 
{"id": 18718,"ncpdp": "1611640","pharmacy_name": "LARRYS PHARMACY #1","address1": "1310 10TH AVE N","address2": "","city": "HUMBOLDT","state": "IA","zip": "50548","zip+4": "0384","phone": "5153321627","NPI": "     1700808789"}, 
{"id": 18719,"ncpdp": "1611652","pharmacy_name": "MEDICAP PHARMACY #8012","address1": "400 N ELM","address2": "","city": "JEFFERSON","state": "IA","zip": "50129","zip+4": "0000","phone": "5153862164","NPI": "     1639173685"}, 
{"id": 18720,"ncpdp": "1611664","pharmacy_name": "CROWN PHARMACY","address1": "802 WASHINGTON ST","address2": "","city": "PELLA","state": "IA","zip": "50219","zip+4": "1525","phone": "6416281612","NPI": "     1194818674"}, 
{"id": 18721,"ncpdp": "1611765","pharmacy_name": "WALGREEN DRUG STORE #5239","address1": "1660 W LOCUST ST","address2": "","city": "DAVENPORT","state": "IA","zip": "52804","zip+4": "0000","phone": "5633243504","NPI": "     1447265756"}, 
{"id": 18722,"ncpdp": "1611830","pharmacy_name": "MEDICAP PHARMACY #8016","address1": "443 S FREDERICK AVE","address2": "","city": "OELWEIN","state": "IA","zip": "50662","zip+4": "0000","phone": "3192832028","NPI": "     1598837387"}, 
{"id": 18723,"ncpdp": "1611842","pharmacy_name": "HY VEE PHARMACY 3 #1288","address1": "1201 NORTH DODGE","address2": "","city": "IOWA CITY","state": "IA","zip": "52245","zip+4": "0000","phone": "3193376310","NPI": "     1487683728"}, 
{"id": 18724,"ncpdp": "1611866","pharmacy_name": "WALGREEN DRUG STORE #4041","address1": "1525 E KIMBERLY","address2": "","city": "DAVENPORT","state": "IA","zip": "52807","zip+4": "0000","phone": "5633866277","NPI": "     1356356661"}, 
{"id": 18725,"ncpdp": "1611878","pharmacy_name": "CARRUTHERS PHARMACY","address1": "526 MAIN STREET","address2": "","city": "MEDIAPOLIS","state": "IA","zip": "52637","zip+4": "0000","phone": "3193943420","NPI": "     1164466793"}, 
{"id": 18726,"ncpdp": "1611979","pharmacy_name": "SHEPLEY PHARMACY","address1": "113 FIRST ST E","address2": "","city": "MOUNT VERNON","state": "IA","zip": "52314","zip+4": "0000","phone": "3198956248","NPI": "     1871687905"}, 
{"id": 18727,"ncpdp": "1611993","pharmacy_name": "HY VEE PHARMACY #1281","address1": "1720 WATERFRONT DRIVE","address2": "","city": "IOWA CITY","state": "IA","zip": "52240","zip+4": "0000","phone": "3193547121","NPI": "     1083640114"}, 
{"id": 18728,"ncpdp": "1612008","pharmacy_name": "MEDICAP PHARMACY #8019","address1": "108 2ND AVE W","address2": "","city": "TOLEDO","state": "IA","zip": "52342","zip+4": "0000","phone": "6414846198","NPI": "     1538253943"}, 
{"id": 18729,"ncpdp": "1612010","pharmacy_name": "COMMUNITY PHARMACY","address1": "215 13TH AVE SW","address2": "","city": "CLARION","state": "IA","zip": "50525","zip+4": "2078","phone": "5155322801","NPI": "     1386719748"}, 
{"id": 18730,"ncpdp": "1612109","pharmacy_name": "HARTIG DRUG CO #14","address1": "200 1ST ST E","address2": "","city": "INDEPENDENCE","state": "IA","zip": "50644","zip+4": "0000","phone": "3193347155","NPI": "     1699872267"}, 
{"id": 18731,"ncpdp": "1612159","pharmacy_name": "MEDICAL ARTS PHARMACY","address1": "116 E 11TH ST","address2": "","city": "SPENCER","state": "IA","zip": "51301","zip+4": "4363","phone": "7122622343","NPI": "     1225149628"}, 
{"id": 18732,"ncpdp": "1612337","pharmacy_name": "MEDICAP PHARMACY #8022","address1": "300 WEST WASHINGTON","address2": "","city": "MT PLEASANT","state": "IA","zip": "52641","zip+4": "0000","phone": "3199865151","NPI": "     1215087531"}, 
{"id": 18733,"ncpdp": "1612351","pharmacy_name": "BLAKESLEY DRUG","address1": "124 W MAIN","address2": "","city": "MANCHESTER","state": "IA","zip": "52057","zip+4": "0000","phone": "5639273509","NPI": "     1558318766"}, 
{"id": 18734,"ncpdp": "1612402","pharmacy_name": "CLARKS PHARMACY","address1": "1946 42ND STREET NE","address2": "","city": "CEDAR RAPIDS","state": "IA","zip": "52402","zip+4": "0000","phone": "3193933210","NPI": "     1285732503"}, 
{"id": 18735,"ncpdp": "1612414","pharmacy_name": "LINCOLN HIGHWAY PHARMACY","address1": "859 E US HIGHWAY 30","address2": "","city": "CARROLL","state": "IA","zip": "51401","zip+4": "0000","phone": "7127756337","NPI": "     1184714347"}, 
{"id": 18736,"ncpdp": "1612438","pharmacy_name": "MEDICAP PHARMACY #8024","address1": "214 S MAIN","address2": "","city": "OSCEOLA","state": "IA","zip": "50213","zip+4": "0000","phone": "6413426557","NPI": "     1336213859"}, 
{"id": 18737,"ncpdp": "1612541","pharmacy_name": "WALGREEN DRUG STORE #4714","address1": "4555 FLEUR DR","address2": "","city": "DES MOINES","state": "IA","zip": "50321","zip+4": "0000","phone": "5152875550","NPI": "     1265447577"}, 
{"id": 18738,"ncpdp": "1612907","pharmacy_name": "KMART PHARMACY #7161","address1": "1131 N QUINCY AVE","address2": "","city": "OTTUMWA","state": "IA","zip": "52501","zip+4": "0000","phone": "6416833814","NPI": "     1326079385"}, 
{"id": 18739,"ncpdp": "1612921","pharmacy_name": "POCAHONTAS PHARMACY","address1": "701 W ELM AVE","address2": "","city": "POCAHONTAS","state": "IA","zip": "50574","zip+4": "1439","phone": "7123353119","NPI": "     1285629618"}, 
{"id": 18740,"ncpdp": "1612957","pharmacy_name": "MEDICAP PHARMACY #8029","address1": "601 1ST AVE","address2": "","city": "PERRY","state": "IA","zip": "50220","zip+4": "0000","phone": "5154653391","NPI": "     1669471504"}, 
{"id": 18741,"ncpdp": "1613012","pharmacy_name": "ECONOFOODS PHARMACY #511","address1": "20 SOUTH 4TH STREET","address2": "","city": "CLEAR LAKE","state": "IA","zip": "50428","zip+4": "0000","phone": "6413572169","NPI": "     1316095680"}, 
{"id": 18742,"ncpdp": "1613048","pharmacy_name": "COON RAPIDS PHARMACY","address1": "515 MAIN ST","address2": "","city": "COON RAPIDS","state": "IA","zip": "50058","zip+4": "1611","phone": "7129997979","NPI": "     1336105634"}, 
{"id": 18743,"ncpdp": "1613098","pharmacy_name": "MEDICAP PHARMACY # #8032","address1": "702 MONTGOMERY","address2": "","city": "DECORAH","state": "IA","zip": "52101","zip+4": "0000","phone": "5633828765","NPI": "     1215948724"}, 
{"id": 18744,"ncpdp": "1613149","pharmacy_name": "BIG CREEK PHARMACY","address1": "119 2ND ST","address2": "","city": "POLK CITY","state": "IA","zip": "50226","zip+4": "0000","phone": "5159846554","NPI": "     1790812337"}, 
{"id": 18745,"ncpdp": "1613187","pharmacy_name": "LA PORTE CITY PHARMACY","address1": "601 HWY 218 N","address2": "","city": "LA PORTE CITY","state": "IA","zip": "50651","zip+4": "1012","phone": "3193423620","NPI": "     1497796783"}, 
{"id": 18746,"ncpdp": "1613240","pharmacy_name": "SUN DRUG VILLAGE SQUARE LTD","address1": "6105 MERLE HAY RD","address2": "","city": "JOHNSTON","state": "IA","zip": "50131","zip+4": "0288","phone": "5152785503","NPI": "     1376619106"}, 
{"id": 18747,"ncpdp": "1613276","pharmacy_name": "WHITE DRUG #42","address1": "400 GRAND AVENUE","address2": "","city": "SPENCER","state": "IA","zip": "51301","zip+4": "4037","phone": "7122621523","NPI": "     1982793584"}, 
{"id": 18748,"ncpdp": "1613327","pharmacy_name": "MEDICAP PHARMACY #8033","address1": "2030 6TH STREET SW","address2": "","city": "CEDAR RAPIDS","state": "IA","zip": "52404","zip+4": "0000","phone": "3193646930","NPI": "     1225193659"}, 
{"id": 18749,"ncpdp": "1613353","pharmacy_name": "KMART PHARMACY #7583","address1": "1720 S CENTER","address2": "","city": "MARSHALLTOWN","state": "IA","zip": "50158","zip+4": "0000","phone": "6417530957","NPI": "     1235160292"}, 
{"id": 18750,"ncpdp": "1613365","pharmacy_name": "HERITAGE PARK PHARMACY","address1": "1223 S GEAR AVE","address2": "STE 105","city": "WEST BURLINGTON","state": "IA","zip": "52655","zip+4": "0000","phone": "3197683950","NPI": "     1306959531"}, 
{"id": 18751,"ncpdp": "1613416","pharmacy_name": "REMSEN PHARMACY","address1": "111 S WASHINGTON ST","address2": "BOX 407","city": "REMSEN","state": "IA","zip": "51050","zip+4": "0000","phone": "7127862093","NPI": "     1619982204"}, 
{"id": 18752,"ncpdp": "1613478","pharmacy_name": "MEDICAP PHARMACY #8034","address1": "405 S SUMNER","address2": "","city": "CRESTON","state": "IA","zip": "50801","zip+4": "0000","phone": "6417826558","NPI": "     1447344858"}, 
{"id": 18753,"ncpdp": "1613505","pharmacy_name": "CARROLL CLINIC PHARMACY","address1": "405 S CLARK ST","address2": "STE 150","city": "CARROLL","state": "IA","zip": "51401","zip+4": "0000","phone": "7127923212","NPI": "     1013900018"}, 
{"id": 18754,"ncpdp": "1613531","pharmacy_name": "SHOPKO PHARMACY #40","address1": "3025 HAMILTON BLVD","address2": "","city": "SIOUX CITY","state": "IA","zip": "51104","zip+4": "2407","phone": "7122558055","NPI": "     1407807118"}, 
{"id": 18755,"ncpdp": "1613543","pharmacy_name": "MONONA PHARMACY","address1": "200 WEST IOWA ST","address2": "","city": "MONONA","state": "IA","zip": "52159","zip+4": "0000","phone": "5635392348","NPI": "     1245393263"}, 
{"id": 18756,"ncpdp": "1613555","pharmacy_name": "HY VEE DRUGSTORE #7057","address1": "129 S JEFFERSON STREET","address2": "","city": "MT PLEASANT","state": "IA","zip": "52641","zip+4": "0000","phone": "3193853163","NPI": "     1801824016"}, 
{"id": 18757,"ncpdp": "1613579","pharmacy_name": "KWIK RX PHARMACY","address1": "2308 12TH ST","address2": "","city": "HARLAN","state": "IA","zip": "51537","zip+4": "0000","phone": "7127553823","NPI": "     1831204866"}, 
{"id": 18758,"ncpdp": "1613581","pharmacy_name": "APPLE PHARMACY","address1": "9255 ATLANTIC DR SW","address2": "","city": "CEDAR RAPIDS","state": "IA","zip": "52404","zip+4": "0000","phone": "3193961386","NPI": "     1851491666"}, 
{"id": 18759,"ncpdp": "1613593","pharmacy_name": "RICKS PHARMACY","address1": "6 1ST ST NW","address2": "","city": "HAMPTON","state": "IA","zip": "50441","zip+4": "0000","phone": "6414563538","NPI": "     1023173259"}, 
{"id": 18760,"ncpdp": "1613606","pharmacy_name": "MEDICAP PHARMACY #8036","address1": "208 E EUCLID","address2": "","city": "INDIANOLA","state": "IA","zip": "50125","zip+4": "0000","phone": "5159615303","NPI": "     1093764086"}, 
{"id": 18761,"ncpdp": "1613733","pharmacy_name": "TOWNCREST PHARMACY","address1": "2306 MUSCATINE AVE","address2": "","city": "IOWA CITY","state": "IA","zip": "52240","zip+4": "6637","phone": "3193373526","NPI": "     1306825179"}, 
{"id": 18762,"ncpdp": "1613795","pharmacy_name": "MERCY OUTPATIENT PHARMACY","address1": "1111 6TH AVE","address2": "","city": "DES MOINES","state": "IA","zip": "50314","zip+4": "0000","phone": "5156434429","NPI": "     1740220490"}, 
{"id": 18763,"ncpdp": "1613810","pharmacy_name": "HY VEE DRUGSTORE #7035","address1": "214 SOUTH 25TH STREET","address2": "","city": "FT DODGE","state": "IA","zip": "50501","zip+4": "0000","phone": "5155763652","NPI": "     1689602831"}, 
{"id": 18764,"ncpdp": "1613896","pharmacy_name": "MEDICAP PHARMACY #8043","address1": "901 W PLEASANT ST","address2": "","city": "KNOXVILLE","state": "IA","zip": "50138","zip+4": "2743","phone": "6418287312","NPI": "     1255399663"}, 
{"id": 18765,"ncpdp": "1613923","pharmacy_name": "WAL-MART PHARMACY #100750","address1": "302 ENTERPRISE DRIVE","address2": "","city": "INDEPENDENCE","state": "IA","zip": "50644","zip+4": "0000","phone": "3193347131","NPI": "     1003833476"}, 
{"id": 18766,"ncpdp": "1613947","pharmacy_name": "WAL-MART PHARMACY #100751","address1": "1650 WASHINGTON ST","address2": "","city": "PELLA","state": "IA","zip": "50219","zip+4": "0000","phone": "6416289227","NPI": "     1912924382"}, 
{"id": 18767,"ncpdp": "1613961","pharmacy_name": "BALANCERX INTEGRATIVE PHARMACY","address1": "4927 MAPLE DR","address2": "","city": "PLEASANT HILL","state": "IA","zip": "50327","zip+4": "0000","phone": "5152641503","NPI": "     1124039631"}, 
{"id": 18768,"ncpdp": "1613997","pharmacy_name": "GEORGE JAY DRUG COMPANY","address1": "612 W SHERIDAN AVE","address2": "","city": "SHENANDOAH","state": "IA","zip": "51601","zip+4": "0000","phone": "7122462635","NPI": "     1124105796"}, 
{"id": 18769,"ncpdp": "1614014","pharmacy_name": "OAKLAND PHARMACY INC","address1": "106 N MAIN","address2": "","city": "OAKLAND","state": "IA","zip": "51560","zip+4": "0000","phone": "7124823015","NPI": "     1437212149"}, 
{"id": 18770,"ncpdp": "1614026","pharmacy_name": "WAL-MART PHARMACY #100646","address1": "101 115TH ST","address2": "","city": "ANAMOSA","state": "IA","zip": "52205","zip+4": "0000","phone": "3194624314","NPI": "     1821015298"}, 
{"id": 18771,"ncpdp": "1614052","pharmacy_name": "EAGLE GROVE PHARMACY INC","address1": "311 W BROADWAY ST","address2": "","city": "EAGLE GROVE","state": "IA","zip": "50533","zip+4": "0000","phone": "5154483814","NPI": "     1316968373"}, 
{"id": 18772,"ncpdp": "1614103","pharmacy_name": "WAL-MART PHARMACY #100647","address1": "415 INDUSTRIAL AVE","address2": "","city": "GRINNELL","state": "IA","zip": "50112","zip+4": "0000","phone": "6412366333","NPI": "     1831116326"}, 
{"id": 18773,"ncpdp": "1614115","pharmacy_name": "WAL-MART PHARMACY #100748","address1": "300 IOWA SPEEDWAY DRIVE","address2": "","city": "NEWTON","state": "IA","zip": "50208","zip+4": "0000","phone": "6417915327","NPI": "     1730106105"}, 
{"id": 18774,"ncpdp": "1614141","pharmacy_name": "WAL-MART PHARMACY #100784","address1": "1045 NO. GRAND AVENUE","address2": "","city": "MT PLEASANT","state": "IA","zip": "52641","zip+4": "0000","phone": "3193858600","NPI": "     1649297011"}, 
{"id": 18775,"ncpdp": "1614189","pharmacy_name": "KINGSLEY PHARMACY INC","address1": "7 W 2ND ST","address2": "","city": "KINGSLEY","state": "IA","zip": "51028","zip+4": "0000","phone": "7123782700","NPI": "     1467509307"}, 
{"id": 18776,"ncpdp": "1614204","pharmacy_name": "WAL-MART PHARMACY #100810","address1": "4151 FOURTH STREET SW","address2": "","city": "MASON CITY","state": "IA","zip": "50401","zip+4": "0000","phone": "6414233494","NPI": "     1114944592"}, 
{"id": 18777,"ncpdp": "1614216","pharmacy_name": "WAL-MART PHARMACY #100749","address1": "3015 GRAND AVE","address2": "","city": "AMES","state": "IA","zip": "50010","zip+4": "0000","phone": "5152331736","NPI": "     1023035409"}, 
{"id": 18778,"ncpdp": "1614305","pharmacy_name": "WAL-MART PHARMACY #100797","address1": "324 WEST AGENCY ROAD","address2": "","city": "WEST BURLINGTON","state": "IA","zip": "52655","zip+4": "0000","phone": "3197532269","NPI": "     1932126315"}, 
{"id": 18779,"ncpdp": "1614329","pharmacy_name": "MEDICAP PHARMACY #8051","address1": "316 BROADWAY","address2": "","city": "AUDUBON","state": "IA","zip": "50025","zip+4": "0000","phone": "7125632655","NPI": "     1245281450"}, 
{"id": 18780,"ncpdp": "1614343","pharmacy_name": "WRIGHT PHARMACY","address1": "303S W 7TH ST","address2": "","city": "STUART","state": "IA","zip": "50250","zip+4": "0000","phone": "5155231525","NPI": "     1275611907"}, 
{"id": 18781,"ncpdp": "1614367","pharmacy_name": "Q AND T PHARMACY","address1": "920 W 5TH ST","address2": "","city": "WATERLOO","state": "IA","zip": "50702","zip+4": "2198","phone": "3192335216","NPI": "     1043303449"}, 
{"id": 18782,"ncpdp": "1614381","pharmacy_name": "WAL-MART PHARMACY #100841","address1": "1126 HIGHWAY 38 NORTH","address2": "","city": "TIPTON","state": "IA","zip": "52772","zip+4": "0000","phone": "5638862117","NPI": "     1669499166"}, 
{"id": 18783,"ncpdp": "1614432","pharmacy_name": "BAX INC","address1": "401 WASHINGTON ST","address2": "","city": "FONTANELLE","state": "IA","zip": "50846","zip+4": "0000","phone": "6417453221","NPI": "     1992877518"}, 
{"id": 18784,"ncpdp": "1614468","pharmacy_name": "SWANSON DRUG INC","address1": "305 W WALNUT ST","address2": "","city": "OGDEN","state": "IA","zip": "50212","zip+4": "0000","phone": "5152752362","NPI": "     1659464105"}, 
{"id": 18785,"ncpdp": "1614494","pharmacy_name": "SHOPKO PHARMACY #52","address1": "615 S MONROE AVE","address2": "","city": "MASON CITY","state": "IA","zip": "50401","zip+4": "5061","phone": "6414244302","NPI": "     1619928330"}, 
{"id": 18786,"ncpdp": "1614533","pharmacy_name": "STEEGE PHARMACY","address1": "119 N VINE ST","address2": "","city": "WEST UNION","state": "IA","zip": "52175","zip+4": "1346","phone": "5634223151","NPI": "     1174682561"}, 
{"id": 18787,"ncpdp": "1614557","pharmacy_name": "HARTIG DRUG CO #6","address1": "711 16TH AVE SE","address2": "","city": "DYERSVILLE","state": "IA","zip": "52040","zip+4": "2158","phone": "5638752552","NPI": "     1619074283"}, 
{"id": 18788,"ncpdp": "1614569","pharmacy_name": "HY VEE PHARMACY #1105","address1": "3019 ROCKINGHAM ROAD","address2": "","city": "DAVENPORT","state": "IA","zip": "52802","zip+4": "0000","phone": "5633227573","NPI": "     1992731160"}, 
{"id": 18789,"ncpdp": "1614571","pharmacy_name": "HY VEE PHARMACY #1136","address1": "3330 MARTIN LUTHER KING JR EXP","address2": "","city": "DES MOINES","state": "IA","zip": "50310","zip+4": "0000","phone": "5152556213","NPI": "     1760418941"}, 
{"id": 18790,"ncpdp": "1614583","pharmacy_name": "HY VEE PHARMACY 2 #1888","address1": "1990 GRAND AVENUE","address2": "","city": "WEST DES MOINES","state": "IA","zip": "50265","zip+4": "0000","phone": "5152238506","NPI": "     1023047479"}, 
{"id": 18791,"ncpdp": "1614608","pharmacy_name": "MEDICAP PHARMACY #8057","address1": "904 N JOHN WAYNE DR","address2": "","city": "WINTERSET","state": "IA","zip": "50273","zip+4": "0000","phone": "5154622880","NPI": "     1821047945"}, 
{"id": 18792,"ncpdp": "1614622","pharmacy_name": "WAL-MART PHARMACY #100886","address1": "3036 1ST AVE. SOUTH","address2": "","city": "FT DODGE","state": "IA","zip": "50501","zip+4": "0000","phone": "5155767405","NPI": "     1841217221"}, 
{"id": 18793,"ncpdp": "1614634","pharmacy_name": "WAL-MART PHARMACY #100892","address1": "1002 SE NATIONAL DR","address2": "","city": "ANKENY","state": "IA","zip": "50021","zip+4": "0000","phone": "5159643992","NPI": "     1750308136"}, 
{"id": 18794,"ncpdp": "1614646","pharmacy_name": "DAHLS PHARMACY","address1": "15500 HICKMAN RD","address2": "","city": "CLIVE","state": "IA","zip": "50325","zip+4": "0000","phone": "5159870377","NPI": "     1194889477"}, 
{"id": 18795,"ncpdp": "1614658","pharmacy_name": "WALGREEN DRUG STORE #09476","address1": "201 S CENTRAL AVE","address2": "","city": "BURLINGTON","state": "IA","zip": "52601","zip+4": "0000","phone": "3197531639","NPI": "     1174538482"}, 
{"id": 18796,"ncpdp": "1614660","pharmacy_name": "WALGREEN DRUG STORE #5044","address1": "3245 AGENCY ST","address2": "","city": "BURLINGTON","state": "IA","zip": "52601","zip+4": "0000","phone": "3197589888","NPI": "     1962418558"}, 
{"id": 18797,"ncpdp": "1614684","pharmacy_name": "WAL-MART PHARMACY #100913","address1": "1798 OLD STAGE ROAD","address2": "","city": "DECORAH","state": "IA","zip": "52101","zip+4": "0000","phone": "5633828456","NPI": "     1669499042"}, 
{"id": 18798,"ncpdp": "1614747","pharmacy_name": "ECONOFOODS PHARMACY #471","address1": "3355 JFK CIRCLE","address2": "","city": "DUBUQUE","state": "IA","zip": "52002","zip+4": "0000","phone": "5635821724","NPI": "     1225186596"}, 
{"id": 18799,"ncpdp": "1614773","pharmacy_name": "HY VEE DRUGSTORE #7045","address1": "100 NORTH WILSON","address2": "","city": "JEFFERSON","state": "IA","zip": "50129","zip+4": "0000","phone": "5153864152","NPI": "     1972548303"}, 
{"id": 18800,"ncpdp": "1614785","pharmacy_name": "RYAN PHARMACY","address1": "1100 1ST ST E","address2": "","city": "INDEPENDENCE","state": "IA","zip": "50644","zip+4": "0000","phone": "3193347171","NPI": "     1609811892"}, 
{"id": 18801,"ncpdp": "1614862","pharmacy_name": "KMART PHARMACY #4018","address1": "2600 DODGE STREET","address2": "","city": "DUBUQUE","state": "IA","zip": "52002","zip+4": "0000","phone": "5635889097","NPI": "     1053342014"}, 
{"id": 18802,"ncpdp": "1614874","pharmacy_name": "MEDICAP PHARMACY #8065","address1": "303 2ND AVE SW","address2": "","city": "CRESCO","state": "IA","zip": "52136","zip+4": "0000","phone": "5635475111","NPI": "     1407928294"}, 
{"id": 18803,"ncpdp": "1614898","pharmacy_name": "WAL-MART PHARMACY #100985","address1": "1800 W BURLINGTON AVE","address2": "","city": "FAIRFIELD","state": "IA","zip": "52556","zip+4": "0000","phone": "6414726199","NPI": "     1578580957"}, 
{"id": 18804,"ncpdp": "1614937","pharmacy_name": "WALGREEN DRUG STORE #5306","address1": "301 W BENNETT AVE","address2": "","city": "COUNCIL BLUFFS","state": "IA","zip": "51503","zip+4": "0000","phone": "7123250600","NPI": "     1083629398"}, 
{"id": 18805,"ncpdp": "1614951","pharmacy_name": "HY VEE DRUGSTORE 4 #7025","address1": "4825 JOHNSON AVENUE NW","address2": "","city": "CEDAR RAPIDS","state": "IA","zip": "52405","zip+4": "0000","phone": "3193967419","NPI": "     1245275007"}, 
{"id": 18806,"ncpdp": "1614963","pharmacy_name": "COMMUNITY PHARMACY #1","address1": "1321 W MAIN ST","address2": "","city": "LAKE CITY","state": "IA","zip": "51449","zip+4": "7704","phone": "7124647281","NPI": "     1518943083"}, 
{"id": 18807,"ncpdp": "1615028","pharmacy_name": "COMMUNITY PHARMACY #2","address1": "1800 MAIN ST","address2": "","city": "GOWRIE","state": "IA","zip": "50543","zip+4": "0109","phone": "5153523876","NPI": "     1427033265"}, 
{"id": 18808,"ncpdp": "1615042","pharmacy_name": "MOSER FAMILY PHARMACY #1","address1": "135 N MAIN","address2": "","city": "ELKADER","state": "IA","zip": "52043","zip+4": "0000","phone": "5632452530","NPI": "     1730260860"}, 
{"id": 18809,"ncpdp": "1615092","pharmacy_name": "WAL-MART PHARMACY #101005","address1": "2700 4TH STREET SW","address2": "","city": "WAVERLY","state": "IA","zip": "50677","zip+4": "0000","phone": "3193522735","NPI": "     1487671863"}, 
{"id": 18810,"ncpdp": "1615179","pharmacy_name": "WALGREEN DRUG STORE #7833","address1": "3501 INGERSOLL AVE","address2": "","city": "DES MOINES","state": "IA","zip": "50312","zip+4": "0000","phone": "5152715031","NPI": "     1891700100"}, 
{"id": 18811,"ncpdp": "1615268","pharmacy_name": "FIRST MED PHARMACY","address1": "1227 E RUSHOLME ST","address2": "","city": "DAVENPORT","state": "IA","zip": "52803","zip+4": "2459","phone": "5634216366","NPI": "     1972683373"}, 
{"id": 18812,"ncpdp": "1615321","pharmacy_name": "COMMUNITY PHARMACY #3","address1": "1160 3RD ST","address2": "","city": "LAKE VIEW","state": "IA","zip": "51450","zip+4": "0000","phone": "7126578554","NPI": "     1740265586"}, 
{"id": 18813,"ncpdp": "1615333","pharmacy_name": "GREENWOOD DRUG INC","address1": "224 BYRON AVE","address2": "","city": "WATERLOO","state": "IA","zip": "50702","zip+4": "3796","phone": "3192341589","NPI": "     1871542977"}, 
{"id": 18814,"ncpdp": "1615345","pharmacy_name": "WAL-MART PHARMACY #101152","address1": "255 16TH ST SW","address2": "","city": "SIOUX CENTER","state": "IA","zip": "51250","zip+4": "0000","phone": "7127222326","NPI": "     1295752673"}, 
{"id": 18815,"ncpdp": "1615434","pharmacy_name": "MEDICAP PHARMACY #8075","address1": "2201 W BROADWAY","address2": "BAY 8","city": "COUNCIL BLUFFS","state": "IA","zip": "51501","zip+4": "0000","phone": "7123258676","NPI": "     1538252978"}, 
{"id": 18816,"ncpdp": "1615446","pharmacy_name": "HY VEE PHARMACY 2 #1106","address1": "2200 W KIMBERLY ROAD","address2": "","city": "DAVENPORT","state": "IA","zip": "52806","zip+4": "0000","phone": "5633911543","NPI": "     1003852518"}, 
{"id": 18817,"ncpdp": "1615511","pharmacy_name": "MANNING PHARMACY INC","address1": "317 MAIN ST","address2": "","city": "MANNING","state": "IA","zip": "51455","zip+4": "1030","phone": "7126559490","NPI": "     1518052612"}, 
{"id": 18818,"ncpdp": "1615523","pharmacy_name": "WALGREEN DRUG STORE #7454","address1": "901 N ANKENY BLVD","address2": "","city": "ANKENY","state": "IA","zip": "50023","zip+4": "0000","phone": "5159647148","NPI": "     1700891017"}, 
{"id": 18819,"ncpdp": "1615662","pharmacy_name": "WAL-MART PHARMACY #101285","address1": "1940 VENTURE DRIVE","address2": "","city": "OTTUMWA","state": "IA","zip": "52501","zip+4": "0000","phone": "6416831357","NPI": "     1104843580"}, 
{"id": 18820,"ncpdp": "1615698","pharmacy_name": "WAL-MART PHARMACY #101241","address1": "5811 ELMORE AVENUE","address2": "","city": "DAVENPORT","state": "IA","zip": "52807","zip+4": "0000","phone": "5633594874","NPI": "     1013934496"}, 
{"id": 18821,"ncpdp": "1615775","pharmacy_name": "COMMUNITY PHARMACY #4","address1": "507 E LAKE ST","address2": "","city": "ROCKWELL CITY","state": "IA","zip": "50579","zip+4": "1407","phone": "7122977337","NPI": "     1184609927"}, 
{"id": 18822,"ncpdp": "1615787","pharmacy_name": "PETERSON PHARMACY","address1": "104 E WASHINGTON ST","address2": "","city": "MARENGO","state": "IA","zip": "52301","zip+4": "1545","phone": "3196423312","NPI": "     1992784870"}, 
{"id": 18823,"ncpdp": "1615838","pharmacy_name": "LIBERTY PHARMACY","address1": "555 W CHERRY ST","address2": "","city": "NORTH LIBERTY","state": "IA","zip": "52317","zip+4": "0000","phone": "3196266188","NPI": "     1447355433"}, 
{"id": 18824,"ncpdp": "1616032","pharmacy_name": "WAL-MART PHARMACY #101361","address1": "3400 SINGING HILLS BLVD","address2": "","city": "SIOUX CITY","state": "IA","zip": "51106","zip+4": "0000","phone": "7122524905","NPI": "     1922025303"}, 
{"id": 18825,"ncpdp": "1616044","pharmacy_name": "WAL-MART PHARMACY #101393","address1": "2203 AVENUE A WEST","address2": "","city": "OSKALOOSA","state": "IA","zip": "52577","zip+4": "0000","phone": "6416736811","NPI": "     1578580072"}, 
{"id": 18826,"ncpdp": "1616119","pharmacy_name": "WAL-MART PHARMACY #101435","address1": "806 LAUREL ST.","address2": "","city": "CRESTON","state": "IA","zip": "50801","zip+4": "0000","phone": "6417826951","NPI": "     1831116219"}, 
{"id": 18827,"ncpdp": "1616121","pharmacy_name": "WAL-MART PHARMACY #101415","address1": "2200 17TH ST.","address2": "","city": "SPIRIT LAKE","state": "IA","zip": "51360","zip+4": "0000","phone": "7123361756","NPI": "     1487671988"}, 
{"id": 18828,"ncpdp": "1616133","pharmacy_name": "WAL-MART PHARMACY #101431","address1": "300 NO. PARK DRIVE","address2": "","city": "KEOKUK","state": "IA","zip": "52632","zip+4": "0000","phone": "3195244071","NPI": "     1740207125"}, 
{"id": 18829,"ncpdp": "1616145","pharmacy_name": "WAL-MART PHARMACY #101389","address1": "1815 SOUTH STORY","address2": "","city": "BOONE","state": "IA","zip": "50036","zip+4": "0000","phone": "5154323484","NPI": "     1659398030"}, 
{"id": 18830,"ncpdp": "1616195","pharmacy_name": "WAL-MART PHARMACY #101526","address1": "1831 LAKE AVENUE","address2": "","city": "STORM LAKE","state": "IA","zip": "50588","zip+4": "0000","phone": "7127327960","NPI": "     1477570851"}, 
{"id": 18831,"ncpdp": "1616234","pharmacy_name": "WAL-MART PHARMACY #101475","address1": "530 HWY 1 SOUTH","address2": "","city": "WASHINGTON","state": "IA","zip": "52353","zip+4": "0000","phone": "3196537218","NPI": "     1386661767"}, 
{"id": 18832,"ncpdp": "1616246","pharmacy_name": "WALGREEN DRUG STORE #7452","address1": "4415 DOUGLAS AVE","address2": "","city": "DES MOINES","state": "IA","zip": "50310","zip+4": "0000","phone": "5152794405","NPI": "     1619982923"}, 
{"id": 18833,"ncpdp": "1616258","pharmacy_name": "CENTRAL CITY FAMILY PHARMACY #","address1": "402 MAIN ST","address2": "","city": "CENTRAL CITY","state": "IA","zip": "52214","zip+4": "0000","phone": "3194381988","NPI": "     1679552004"}, 
{"id": 18834,"ncpdp": "1616412","pharmacy_name": "WAL-MART PHARMACY #101491","address1": "1500 NORTH JEFFERSON","address2": "","city": "INDIANOLA","state": "IA","zip": "50125","zip+4": "0000","phone": "5159618960","NPI": "     1194742577"}, 
{"id": 18835,"ncpdp": "1616424","pharmacy_name": "WAL-MART PHARMACY #101496","address1": "1334 FLAMMANG DRIVE","address2": "","city": "WATERLOO","state": "IA","zip": "50702","zip+4": "0000","phone": "3192323514","NPI": "     1003833484"}, 
{"id": 18836,"ncpdp": "1616436","pharmacy_name": "WAL-MART PHARMACY #101506","address1": "1220 WEST MAIN","address2": "","city": "MANCHESTER","state": "IA","zip": "52057","zip+4": "0000","phone": "5639274988","NPI": "     1912924390"}, 
{"id": 18837,"ncpdp": "1616448","pharmacy_name": "WAL-MART PHARMACY #101509","address1": "103 E CARLISLE","address2": "","city": "MAQUOKETA","state": "IA","zip": "52060","zip+4": "0000","phone": "5636526733","NPI": "     1821015207"}, 
{"id": 18838,"ncpdp": "1616450","pharmacy_name": "HERITAGE FAMILY PHARMACY","address1": "1201 W AGENCY","address2": "","city": "WEST BURLINGTON","state": "IA","zip": "52655","zip+4": "0000","phone": "3197533681","NPI": "     1487761508"}, 
{"id": 18839,"ncpdp": "1616474","pharmacy_name": "WAL-MART PHARMACY #101528","address1": "2645 BLAIRS FERRY RD","address2": "","city": "CEDAR RAPIDS","state": "IA","zip": "52402","zip+4": "0000","phone": "3193932110","NPI": "     1730106113"}, 
{"id": 18840,"ncpdp": "1616486","pharmacy_name": "WAL-MART PHARMACY #101546","address1": "840 S OAK","address2": "","city": "IOWA FALLS","state": "IA","zip": "50126","zip+4": "0000","phone": "6416485109","NPI": "     1649297029"}, 
{"id": 18841,"ncpdp": "1616549","pharmacy_name": "MEDICAL PLAZA PHARMACY INC","address1": "540 E JEFFERSON ST","address2": "SUITE 104","city": "IOWA CITY","state": "IA","zip": "52245","zip+4": "2462","phone": "3193373966","NPI": "     1750372223"}, 
{"id": 18842,"ncpdp": "1616551","pharmacy_name": "WAL-MART PHARMACY #101621","address1": "1101 NORTH 18TH STREET","address2": "","city": "CENTERVILLE","state": "IA","zip": "52544","zip+4": "0000","phone": "6414377185","NPI": "     1467479840"}, 
{"id": 18843,"ncpdp": "1616563","pharmacy_name": "WAL-MART PHARMACY #101625","address1": "1111 HOLTON DRIVE","address2": "","city": "LE MARS","state": "IA","zip": "51031","zip+4": "0000","phone": "7125465150","NPI": "     1285651661"}, 
{"id": 18844,"ncpdp": "1616575","pharmacy_name": "WALGREEN DRUG STORE #6678","address1": "1999 GRAND AVE","address2": "","city": "WEST DES MOINES","state": "IA","zip": "50265","zip+4": "0000","phone": "5152221543","NPI": "     1528073830"}, 
{"id": 18845,"ncpdp": "1616587","pharmacy_name": "FEDDERS PHARMACY","address1": "52 MAIN AVE N","address2": "","city": "BRITT","state": "IA","zip": "50423","zip+4": "1698","phone": "6418433885","NPI": "     1811986565"}, 
{"id": 18846,"ncpdp": "1616599","pharmacy_name": "HY VEE PHARMACY 2 #1138","address1": "2540 E EUCLID AVENUE","address2": "","city": "DES MOINES","state": "IA","zip": "50317","zip+4": "0000","phone": "5152622108","NPI": "     1568407229"}, 
{"id": 18847,"ncpdp": "1616652","pharmacy_name": "ELK HORN PHARMACY INC","address1": "4022 MAIN ST BOX 355","address2": "","city": "ELK HORN","state": "IA","zip": "51531","zip+4": "0000","phone": "7127642334","NPI": "     1124000328"}, 
{"id": 18848,"ncpdp": "1616664","pharmacy_name": "MEDICAP PHARMACY #8052","address1": "1300 E 14TH","address2": "","city": "DES MOINES","state": "IA","zip": "50316","zip+4": "0000","phone": "5152631782","NPI": "     1528017647"}, 
{"id": 18849,"ncpdp": "1616676","pharmacy_name": "THE PRESCRIPTION SHOPPE","address1": "212 4TH ST SE","address2": "","city": "DYERSVILLE","state": "IA","zip": "52040","zip+4": "1814","phone": "5638757455","NPI": "     1972656619"}, 
{"id": 18850,"ncpdp": "1616727","pharmacy_name": "KMART PHARMACY #9220","address1": "1501 HIGHWAY 169N","address2": "","city": "ALGONA","state": "IA","zip": "50511","zip+4": "0000","phone": "5152957704","NPI": "     1144251109"}, 
{"id": 18851,"ncpdp": "1616739","pharmacy_name": "WAL-MART PHARMACY #101683","address1": "524 S FREMONT","address2": "","city": "SHENANDOAH","state": "IA","zip": "51601","zip+4": "0000","phone": "7122464033","NPI": "     1093732471"}, 
{"id": 18852,"ncpdp": "1616753","pharmacy_name": "HY VEE PHARMACY #1010","address1": "1500 HIGHWAY 169 NORTH","address2": "","city": "ALGONA","state": "IA","zip": "50511","zip+4": "0000","phone": "5152959238","NPI": "     1720024623"}, 
{"id": 18853,"ncpdp": "1616777","pharmacy_name": "ELDORA PRESCRIPTION PHARMACY","address1": "1274 EDGINGTON AVE","address2": "","city": "ELDORA","state": "IA","zip": "50627","zip+4": "1739","phone": "6419393091","NPI": "     1386861482"}, 
{"id": 18854,"ncpdp": "1616789","pharmacy_name": "WAL-MART PHARMACY #101721","address1": "1001 HWY 1 WEST","address2": "","city": "IOWA CITY","state": "IA","zip": "52246","zip+4": "0000","phone": "3193378862","NPI": "     1902823388"}, 
{"id": 18855,"ncpdp": "1616791","pharmacy_name": "WAL-MART PHARMACY #101732","address1": "404 ARROWHEAD","address2": "","city": "DENISON","state": "IA","zip": "51442","zip+4": "0000","phone": "7122632012","NPI": "     1811914294"}, 
{"id": 18856,"ncpdp": "1616804","pharmacy_name": "WALGREEN DRUG STORE #2637","address1": "2501 GRAND AVENUE","address2": "","city": "AMES","state": "IA","zip": "50010","zip+4": "0000","phone": "5152328276","NPI": "     1437164746"}, 
{"id": 18857,"ncpdp": "1616816","pharmacy_name": "MERCY FAMILY PHARMACY","address1": "1111 3RD ST SW","address2": "","city": "DYERSVILLE","state": "IA","zip": "52040","zip+4": "0000","phone": "5638757624","NPI": "     1154421469"}, 
{"id": 18858,"ncpdp": "1616830","pharmacy_name": "WAL-MART PHARMACY #101723","address1": "5101 SE 14TH STREET","address2": "","city": "DES MOINES","state": "IA","zip": "50320","zip+4": "0000","phone": "5152877748","NPI": "     1720005101"}, 
{"id": 18859,"ncpdp": "1616842","pharmacy_name": "HY VEE DRUGSTORE CLINIC #7008","address1": "1541 SOUTH 3RD SUITE 100","address2": "","city": "GRIMES","state": "IA","zip": "50111","zip+4": "0000","phone": "5159864527","NPI": "     1447292081"}, 
{"id": 18860,"ncpdp": "1616854","pharmacy_name": "HY VEE PHARMACY 6 #1063","address1": "4035 MT VERNON ROAD","address2": "","city": "CEDAR RAPIDS","state": "IA","zip": "52403","zip+4": "0000","phone": "3193627900","NPI": "     1427087956"}, 
{"id": 18861,"ncpdp": "1616866","pharmacy_name": "HY VEE PHARMACY 4 #1148","address1": "4605 FLEUR DR","address2": "","city": "DES MOINES","state": "IA","zip": "50321","zip+4": "0000","phone": "5152857133","NPI": "     1003851627"}, 
{"id": 18862,"ncpdp": "1616878","pharmacy_name": "HY VEE PHARMACY #1396","address1": "3600 BUSINESS HWY 151","address2": "","city": "MARION","state": "IA","zip": "52302","zip+4": "0000","phone": "3193777216","NPI": "     1144259573"}, 
{"id": 18863,"ncpdp": "1616880","pharmacy_name": "WAL-MART PHARMACY #101764","address1": "1001 73RD STREET","address2": "","city": "DES MOINES","state": "IA","zip": "50311","zip+4": "0000","phone": "5152746359","NPI": "     1639196017"}, 
{"id": 18864,"ncpdp": "1616905","pharmacy_name": "PHARMACY CARE CENTRE","address1": "1791 HWY 64 EAST","address2": "STE 1","city": "ANAMOSA","state": "IA","zip": "52205","zip+4": "0000","phone": "3194623306","NPI": "     1457486409"}, 
{"id": 18865,"ncpdp": "1616917","pharmacy_name": "HARTIG DRUG CO #8","address1": "1600 UNIVERSITY AVE","address2": "","city": "DUBUQUE","state": "IA","zip": "52001","zip+4": "0000","phone": "5635888708","NPI": "     1235236597"}, 
{"id": 18866,"ncpdp": "1616929","pharmacy_name": "MAIN HEALTHCARE PHARMACY","address1": "2151 KIMBERLY RD","address2": "","city": "BETTENDORF","state": "IA","zip": "52722","zip+4": "0000","phone": "5633245004","NPI": "     1699832451"}, 
{"id": 18867,"ncpdp": "1616955","pharmacy_name": "WAL-MART PHARMACY #101787","address1": "2014 KITTY HAWK AVE","address2": "","city": "CARROLL","state": "IA","zip": "51401","zip+4": "0000","phone": "7127923033","NPI": "     1831116227"}, 
{"id": 18868,"ncpdp": "1616993","pharmacy_name": "KMART PHARMACY #3585","address1": "715 US HIGHWAY 30 WEST","address2": "","city": "CARROLL","state": "IA","zip": "51401","zip+4": "0000","phone": "7127925835","NPI": "     1205867272"}, 
{"id": 18869,"ncpdp": "1617010","pharmacy_name": "WAL-MART PHARMACY #100581","address1": "2802 S CENTER STREET","address2": "","city": "MARSHALLTOWN","state": "IA","zip": "50158","zip+4": "0000","phone": "6417533204","NPI": "     1740207133"}, 
{"id": 18870,"ncpdp": "1617060","pharmacy_name": "PHARMACY CARE ASSOCIATES","address1": "5801 16TH AVE SW","address2": "","city": "CEDAR RAPIDS","state": "IA","zip": "52404","zip+4": "0000","phone": "3193632398","NPI": "     1811932510"}, 
{"id": 18871,"ncpdp": "1617072","pharmacy_name": "MERCY CAREMOR","address1": "535 HILL ST","address2": "STE B","city": "DUBUQUE","state": "IA","zip": "52001","zip+4": "0000","phone": "5635884033","NPI": "     1669569521"}, 
{"id": 18872,"ncpdp": "1617084","pharmacy_name": "MEDICAL PHARMACY","address1": "1030 5TH AVE SE","address2": "","city": "CEDAR RAPIDS","state": "IA","zip": "52403","zip+4": "2467","phone": "3193628976","NPI": "     1942381876"}, 
{"id": 18873,"ncpdp": "1617135","pharmacy_name": "STONER DRUG #3","address1": "712 MAIN ST","address2": "","city": "TABOR","state": "IA","zip": "51653","zip+4": "0097","phone": "7126292945","NPI": "     1184790727"}, 
{"id": 18874,"ncpdp": "1617159","pharmacy_name": "HY VEE PHARMACY 4 #1869","address1": "4000 UNIVERSITY AVENUE","address2": "","city": "WATERLOO","state": "IA","zip": "50701","zip+4": "0000","phone": "3192361786","NPI": "     1902832454"}, 
{"id": 18875,"ncpdp": "1617161","pharmacy_name": "HY VEE PHARMACY 3 #1866","address1": "1422 FLAMMANG","address2": "","city": "WATERLOO","state": "IA","zip": "50702","zip+4": "0000","phone": "3192341774","NPI": "     1093741357"}, 
{"id": 18876,"ncpdp": "1617173","pharmacy_name": "HY VEE PHARMACY 2 #1614","address1": "4500 SERGEANT ROAD","address2": "","city": "SIOUX CITY","state": "IA","zip": "51106","zip+4": "0000","phone": "7122742949","NPI": "     1134155781"}, 
{"id": 18877,"ncpdp": "1617212","pharmacy_name": "HY VEE PHARMACY #1022","address1": "410 N ANKENY BLVD","address2": "","city": "ANKENY","state": "IA","zip": "50021","zip+4": "0000","phone": "5159649464","NPI": "     1275561110"}, 
{"id": 18878,"ncpdp": "1617248","pharmacy_name": "WALGREEN DRUG STORE #7453","address1": "104 E EUCLID","address2": "","city": "DES MOINES","state": "IA","zip": "50313","zip+4": "0000","phone": "5152438661","NPI": "     1982619292"}, 
{"id": 18879,"ncpdp": "1617250","pharmacy_name": "SUPER SAVER PHARMACY #12","address1": "1141 N BROADWAY","address2": "","city": "COUNCIL BLUFFS","state": "IA","zip": "51503","zip+4": "0000","phone": "7123229019","NPI": "     1376659078"}, 
{"id": 18880,"ncpdp": "1617274","pharmacy_name": "DAHLS PHARMACY","address1": "5003 EP TRUE PKWY","address2": "","city": "WEST DES MOINES","state": "IA","zip": "50265","zip+4": "2852","phone": "5152242111","NPI": "     1801937917"}, 
{"id": 18881,"ncpdp": "1617402","pharmacy_name": "MAHASKA DRUGS INC","address1": "205 NORTH E ST","address2": "","city": "OSKALOOSA","state": "IA","zip": "52577","zip+4": "2000","phone": "6416733439","NPI": "     1720006372"}, 
{"id": 18882,"ncpdp": "1617414","pharmacy_name": "HY VEE PHARMACY #1247","address1": "611 TENTH AVENUE N","address2": "","city": "HUMBOLDT","state": "IA","zip": "50548","zip+4": "0000","phone": "5153325082","NPI": "     1295761831"}, 
{"id": 18883,"ncpdp": "1617438","pharmacy_name": "THE PRESCRIPTION SHOPPE","address1": "304 E 1ST ST","address2": "","city": "MONTICELLO","state": "IA","zip": "52310","zip+4": "1503","phone": "3194654404","NPI": "     1295888014"}, 
{"id": 18884,"ncpdp": "1617440","pharmacy_name": "PAMIDA PHARMACY #336","address1": "1501 PARK ST","address2": "","city": "SHELDON","state": "IA","zip": "51201","zip+4": "1304","phone": "7123243552","NPI": "     1194778688"}, 
{"id": 18885,"ncpdp": "1617452","pharmacy_name": "ROCKWELL COLLINS PHARMACY","address1": "5070 ROCKWELL DR NE","address2": "","city": "CEDAR RAPIDS","state": "IA","zip": "52402","zip+4": "0000","phone": "3192959365","NPI": "     1689695637"}, 
{"id": 18886,"ncpdp": "1617464","pharmacy_name": "WAL-MART PHARMACY #101965","address1": "3201 MANAWA DR","address2": "","city": "COUNCIL BLUFFS","state": "IA","zip": "51503","zip+4": "0000","phone": "7123661315","NPI": "     1659398048"}, 
{"id": 18887,"ncpdp": "1617476","pharmacy_name": "HY VEE PHARMACY #1080","address1": "HWY 6 WEST 2000 8TH STREET","address2": "LANTERN PARK PLAZA","city": "CORALVILLE","state": "IA","zip": "52241","zip+4": "0000","phone": "3193513880","NPI": "     1659308344"}, 
{"id": 18888,"ncpdp": "1617515","pharmacy_name": "HY VEE PHARMACY #1074","address1": "901 KELLY STREET","address2": "","city": "CHARLES CITY","state": "IA","zip": "50616","zip+4": "0000","phone": "6412281222","NPI": "     1194751438"}, 
{"id": 18889,"ncpdp": "1617527","pharmacy_name": "WAL-MART PHARMACY #102004","address1": "4200 DODGE STREET","address2": "","city": "DUBUQUE","state": "IA","zip": "52003","zip+4": "0000","phone": "5635821519","NPI": "     1568489953"}, 
{"id": 18890,"ncpdp": "1617628","pharmacy_name": "AMICARE PHARMACY INC","address1": "1015 S HACKETT RD","address2": "","city": "WATERLOO","state": "IA","zip": "50701","zip+4": "0000","phone": "3192926600","NPI": "     1134284565"}, 
{"id": 18891,"ncpdp": "1617654","pharmacy_name": "PARKVIEW HEALTHMART PHARMACY","address1": "1727 SOUTH B AVE","address2": "","city": "NEVADA","state": "IA","zip": "50201","zip+4": "0000","phone": "5153822134","NPI": "     1912068644"}, 
{"id": 18892,"ncpdp": "1617705","pharmacy_name": "HY VEE PHARMACY #1403","address1": "802 SOUTH CENTER STREET","address2": "","city": "MARSHALLTOWN","state": "IA","zip": "50158","zip+4": "0000","phone": "6417522266","NPI": "     1093744435"}, 
{"id": 18893,"ncpdp": "1617743","pharmacy_name": "HY VEE PHARMACY #1052","address1": "A 3 COLLEGE SQUARE MALL","address2": "","city": "CEDAR FALLS","state": "IA","zip": "50613","zip+4": "0000","phone": "3192669874","NPI": "     1134165624"}, 
{"id": 18894,"ncpdp": "1617755","pharmacy_name": "HY VEE PHARMACY 2 #1055","address1": "279 COLLINS ROAD NE","address2": "","city": "CEDAR RAPIDS","state": "IA","zip": "52402","zip+4": "0000","phone": "3193934480","NPI": "     1952339442"}, 
{"id": 18895,"ncpdp": "1617781","pharmacy_name": "HY VEE DRUGSTORE 5 #7026","address1": "2001 BLAIRS FERRY ROAD NE","address2": "","city": "CEDAR RAPIDS","state": "IA","zip": "52402","zip+4": "0000","phone": "3193930561","NPI": "     1396771267"}, 
{"id": 18896,"ncpdp": "1617806","pharmacy_name": "AMICARE PHARMACY INC","address1": "3740 UTICA RIDGE RD","address2": "","city": "BETTENDORF","state": "IA","zip": "52722","zip+4": "0000","phone": "5633447450","NPI": "     1114934239"}, 
{"id": 18897,"ncpdp": "1617832","pharmacy_name": "SIOUXLAND COMMUNITY HEALTH CEN","address1": "1021 NEBRASKA ST","address2": "","city": "SIOUX CITY","state": "IA","zip": "51102","zip+4": "0000","phone": "7122554204","NPI": "     1700967833"}, 
{"id": 18898,"ncpdp": "1617870","pharmacy_name": "HY VEE PHARMACY #1037","address1": "2900 DEVILS GLEN ROAD","address2": "","city": "BETTENDORF","state": "IA","zip": "52722","zip+4": "0000","phone": "5633322983","NPI": "     1487690384"}, 
{"id": 18899,"ncpdp": "1617907","pharmacy_name": "WALGREEN DRUG STORE #3590","address1": "3910 UNIVERSITY AVE","address2": "","city": "WATERLOO","state": "IA","zip": "50701","zip+4": "0000","phone": "3192369924","NPI": "     1790790004"}, 
{"id": 18900,"ncpdp": "1617921","pharmacy_name": "CORAM SPECIALTY INFUSION SERVI","address1": "3513 VINE COURT","address2": "","city": "DAVENPORT","state": "IA","zip": "52806","zip+4": "0000","phone": "5633863220","NPI": "     1245286756"}, 
{"id": 18901,"ncpdp": "1617933","pharmacy_name": "HY VEE DRUGSTORE #7007","address1": "500 MAIN STREET","address2": "SUITE A","city": "AMES","state": "IA","zip": "50010","zip+4": "0000","phone": "5152339858","NPI": "     1174566426"}, 
{"id": 18902,"ncpdp": "1618000","pharmacy_name": "IOWA PHARMACEUTICAL SERVICES L","address1": "525 TENTH STREET SE","address2": "","city": "CEDAR RAPIDS","state": "IA","zip": "52403","zip+4": "0000","phone": "3193662236","NPI": "     1114923513"}, 
{"id": 18903,"ncpdp": "1618050","pharmacy_name": "HY VEE PHARMACY #1054","address1": "1843 JOHNSON AVENUE NE","address2": "","city": "CEDAR RAPIDS","state": "IA","zip": "52405","zip+4": "0000","phone": "3193655343","NPI": "     1063440550"}, 
{"id": 18904,"ncpdp": "1618074","pharmacy_name": "MASSENA CLINIC PHARMACY","address1": "92 MAIN ST","address2": "","city": "MASSENA","state": "IA","zip": "50853","zip+4": "0000","phone": "7127792266","NPI": "     1457414716"}, 
{"id": 18905,"ncpdp": "1618086","pharmacy_name": "THE RICEVILLE PHARMACY","address1": "120 W MAIN ST","address2": "","city": "RICEVILLE","state": "IA","zip": "50466","zip+4": "0000","phone": "6419854114","NPI": "     1225127335"}, 
{"id": 18906,"ncpdp": "1618098","pharmacy_name": "KMART PHARMACY #3971","address1": "1405 BUCKEYE AVENUE","address2": "","city": "AMES","state": "IA","zip": "50010","zip+4": "0000","phone": "5152328414","NPI": "     1114958188"}, 
{"id": 18907,"ncpdp": "1618101","pharmacy_name": "TARGET PHARMACY #0804","address1": "3450 4TH STREET S W","address2": "","city": "MASON CITY","state": "IA","zip": "50401","zip+4": "0000","phone": "6414231325","NPI": "     1225050958"}, 
{"id": 18908,"ncpdp": "1618125","pharmacy_name": "KMART PHARMACY #7767","address1": "1405 S GRAND","address2": "","city": "CHARLES CITY","state": "IA","zip": "50616","zip+4": "0000","phone": "6412287940","NPI": "     1023049095"}, 
{"id": 18909,"ncpdp": "1618151","pharmacy_name": "WALGREEN DRUG STORE #3773","address1": "4600 86TH STREET","address2": "","city": "URBANDALE","state": "IA","zip": "50322","zip+4": "0000","phone": "5152527076","NPI": "     1689680068"}, 
{"id": 18910,"ncpdp": "1618226","pharmacy_name": "OMNICARE OF THE QUAD CITIES","address1": "127 W 76TH ST","address2": "","city": "DAVENPORT","state": "IA","zip": "52806","zip+4": "0000","phone": "5633881887","NPI": "     1922040393"}, 
{"id": 18911,"ncpdp": "1618238","pharmacy_name": "PAMIDA PHARMACY #355","address1": "402 E HIGHWAY 92","address2": "","city": "WINTERSET","state": "IA","zip": "50273","zip+4": "2416","phone": "5154622192","NPI": "     1578516274"}, 
{"id": 18912,"ncpdp": "1618252","pharmacy_name": "TARGET PHARMACY #0533","address1": "5225 ELMORE AVENUE","address2": "","city": "DAVENPORT","state": "IA","zip": "52807","zip+4": "0000","phone": "5633449629","NPI": "     1134141864"}, 
{"id": 18913,"ncpdp": "1618264","pharmacy_name": "MARION FAMILY PHARMACY #2","address1": "3701 KATZ DR","address2": "","city": "MARION","state": "IA","zip": "52302","zip+4": "3871","phone": "3193778709","NPI": "     1063491488"}, 
{"id": 18914,"ncpdp": "1618327","pharmacy_name": "WAL-MART PHARMACY #100753","address1": "525 BRANDILYNN BLVD","address2": "","city": "CEDAR FALLS","state": "IA","zip": "50613","zip+4": "0000","phone": "3192777793","NPI": "     1386661775"}, 
{"id": 18915,"ncpdp": "1618353","pharmacy_name": "HY VEE PHARMACY 3 #1107","address1": "1823 EAST KIMBERLY","address2": "","city": "DAVENPORT","state": "IA","zip": "52807","zip+4": "0000","phone": "5633595313","NPI": "     1003842477"}, 
{"id": 18916,"ncpdp": "1618365","pharmacy_name": "BLAIRS FERRY FAMILY PHARMACY #","address1": "1790 BLAIRS FERRY RD","address2": "","city": "HIAWATHA","state": "IA","zip": "52233","zip+4": "0000","phone": "3193934944","NPI": "     1083693410"}, 
{"id": 18917,"ncpdp": "1618377","pharmacy_name": "ALLEN CLINIC PHARMACY","address1": "146 W DALE ST","address2": "SUITE 103","city": "WATERLOO","state": "IA","zip": "50703","zip+4": "0000","phone": "3192353777","NPI": "     1659461572"}, 
{"id": 18918,"ncpdp": "1618404","pharmacy_name": "MERCY FAMILY PHARMACY WEST","address1": "1500 ASSOCIATES DR","address2": "","city": "DUBUQUE","state": "IA","zip": "52002","zip+4": "2260","phone": "5635844405","NPI": "     1962573774"}, 
{"id": 18919,"ncpdp": "1618428","pharmacy_name": "HY VEE PHARMACY #1437","address1": "2400 2ND AVENUE","address2": "","city": "MUSCATINE","state": "IA","zip": "52761","zip+4": "0000","phone": "5632645810","NPI": "     1265461669"}, 
{"id": 18920,"ncpdp": "1618430","pharmacy_name": "HY VEE PHARMACY #1192","address1": "115 S 29TH STREET","address2": "","city": "FT DODGE","state": "IA","zip": "50501","zip+4": "0000","phone": "5155765320","NPI": "     1326075011"}, 
{"id": 18921,"ncpdp": "1618442","pharmacy_name": "HY VEE DRUGSTORE #7060","address1": "510 E SIXTH STREET","address2": "","city": "MUSCATINE","state": "IA","zip": "52761","zip+4": "0000","phone": "5632636461","NPI": "     1770511933"}, 
{"id": 18922,"ncpdp": "1618466","pharmacy_name": "HY VEE DRUGSTORE #7034","address1": "507 W BURLINGTON AVENUE","address2": "","city": "FAIRFIELD","state": "IA","zip": "52556","zip+4": "0000","phone": "6414733542","NPI": "     1891730222"}, 
{"id": 18923,"ncpdp": "1618478","pharmacy_name": "HY VEE PHARMACY #1159","address1": "3500 DODGE STREET","address2": "","city": "DUBUQUE","state": "IA","zip": "52003","zip+4": "0000","phone": "5635833858","NPI": "     1245266758"}, 
{"id": 18924,"ncpdp": "1618505","pharmacy_name": "WAL-MART PHARMACY #100559","address1": "3003 NORTH HWY 61","address2": "","city": "MUSCATINE","state": "IA","zip": "52761","zip+4": "0000","phone": "5632623755","NPI": "     1194742585"}, 
{"id": 18925,"ncpdp": "1618567","pharmacy_name": "HY VEE PHARMACY #1075","address1": "901 SOUTH 4TH STREET","address2": "","city": "CLINTON","state": "IA","zip": "52733","zip+4": "0000","phone": "5632436063","NPI": "     1023054533"}, 
{"id": 18926,"ncpdp": "1618579","pharmacy_name": "HY VEE DRUGSTORE 6 #7019","address1": "505 BOYSON ROAD NE","address2": "","city": "CEDAR RAPIDS","state": "IA","zip": "52402","zip+4": "0000","phone": "3192948095","NPI": "     1255374575"}, 
{"id": 18927,"ncpdp": "1618581","pharmacy_name": "HY VEE PHARMACY 2 #1285","address1": "812 SOUTH 1ST AVENUE","address2": "","city": "IOWA CITY","state": "IA","zip": "52245","zip+4": "0000","phone": "3193374279","NPI": "     1639105158"}, 
{"id": 18928,"ncpdp": "1618593","pharmacy_name": "WALGREEN DRUG STORE #3875","address1": "2821 1ST AVE SE","address2": "","city": "CEDAR RAPIDS","state": "IA","zip": "52402","zip+4": "0000","phone": "3193656335","NPI": "     1609881911"}, 
{"id": 18929,"ncpdp": "1618632","pharmacy_name": "HY VEE DRUGSTORE CLINIC #7055","address1": "303 NICHOLAS DRIVE","address2": "","city": "MARSHALLTOWN","state": "IA","zip": "50158","zip+4": "0000","phone": "6417524712","NPI": "     1356386015"}, 
{"id": 18930,"ncpdp": "1618733","pharmacy_name": "HARTIG DRUG CO #10","address1": "701 MORMON TREK BLVD","address2": "","city": "IOWA CITY","state": "IA","zip": "52246","zip+4": "0000","phone": "3193385778","NPI": "     1336246909"}, 
{"id": 18931,"ncpdp": "1618795","pharmacy_name": "WALGREEN DRUG STORE #3700","address1": "535 E BROADWAY","address2": "","city": "COUNCIL BLUFFS","state": "IA","zip": "51503","zip+4": "0000","phone": "7123290901","NPI": "     1871509463"}, 
{"id": 18932,"ncpdp": "1618872","pharmacy_name": "KMART PHARMACY #3447","address1": "10331 UNIVERSITY AVENUE","address2": "","city": "CLIVE","state": "IA","zip": "50325","zip+4": "0868","phone": "5152252694","NPI": "     1932130903"}, 
{"id": 18933,"ncpdp": "1618909","pharmacy_name": "HY VEE PHARMACY #1026","address1": "1630 E 7TH STREET","address2": "","city": "ATLANTIC","state": "IA","zip": "50022","zip+4": "0000","phone": "7122432240","NPI": "     1871539882"}, 
{"id": 18934,"ncpdp": "1618923","pharmacy_name": "MEDICAP PHARMACY #8229","address1": "1224 10TH AVENUE","address2": "","city": "MANSON","state": "IA","zip": "50563","zip+4": "0000","phone": "7124692214","NPI": "     1942337399"}, 
{"id": 18935,"ncpdp": "1618959","pharmacy_name": "NUCARA PHARMACY 14 CONRAD","address1": "118 CENTER STREET","address2": "","city": "CONRAD","state": "IA","zip": "50621","zip+4": "0000","phone": "6413662774","NPI": "     1396756433"}, 
{"id": 18936,"ncpdp": "1618961","pharmacy_name": "FIRST MED PHARMACY","address1": "1803 E KIMBERLY RD","address2": "","city": "DAVENPORT","state": "IA","zip": "52807","zip+4": "0000","phone": "5634213308","NPI": "     1740337278"}, 
{"id": 18937,"ncpdp": "1618973","pharmacy_name": "HY VEE PHARMACY #1895","address1": "7101 UNIVERSITY AVENUE","address2": "","city": "WINDSOR HEIGHTS","state": "IA","zip": "50311","zip+4": "0000","phone": "5152794408","NPI": "     1174553713"}, 
{"id": 18938,"ncpdp": "1618985","pharmacy_name": "HY VEE PHARMACY 3 #1889","address1": "1725 JORDAN CREEK PARKWAY","address2": "","city": "WEST DES MOINES","state": "IA","zip": "50266","zip+4": "0000","phone": "5152268921","NPI": "     1598792160"}, 
{"id": 18939,"ncpdp": "1619040","pharmacy_name": "MERCY FAMILY PHARMACY MERCY","address1": "250 MERCY DR","address2": "","city": "DUBUQUE","state": "IA","zip": "52001","zip+4": "0000","phone": "5635899370","NPI": "     1578650438"}, 
{"id": 18940,"ncpdp": "1619064","pharmacy_name": "HY VEE PHARMACY #1628","address1": "1500 18TH STREET","address2": "","city": "SPIRIT LAKE","state": "IA","zip": "51360","zip+4": "0000","phone": "7123364551","NPI": "     1609802081"}, 
{"id": 18941,"ncpdp": "1619103","pharmacy_name": "WALGREEN DRUG STORE #3876","address1": "1225 7TH AVE","address2": "","city": "MARION","state": "IA","zip": "52302","zip+4": "0000","phone": "3193735380","NPI": "     1518972827"}, 
{"id": 18942,"ncpdp": "1619115","pharmacy_name": "UNITED MED PARK CLINIC PHARMAC","address1": "1731 W RIDGEWAY AVE","address2": "","city": "WATERLOO","state": "IA","zip": "50701","zip+4": "0000","phone": "3198335725","NPI": "     1134127442"}, 
{"id": 18943,"ncpdp": "1619139","pharmacy_name": "HY VEE PHARMACY 2 #1018","address1": "640 LINCOLN WAY","address2": "","city": "AMES","state": "IA","zip": "50010","zip+4": "0000","phone": "5152335645","NPI": "     1811928690"}, 
{"id": 18944,"ncpdp": "1619153","pharmacy_name": "OMNICARE OF URBANDALE","address1": "4621 121ST STREET","address2": "","city": "URBANDALE","state": "IA","zip": "50322","zip+4": "0000","phone": "5157278090","NPI": "     1770695884"}, 
{"id": 18945,"ncpdp": "1619189","pharmacy_name": "HY VEE PHARMACY 3 #1615","address1": "3301 GORDON DRIVE","address2": "","city": "SIOUX CITY","state": "IA","zip": "51105","zip+4": "0000","phone": "7122341949","NPI": "     1063448587"}, 
{"id": 18946,"ncpdp": "1619204","pharmacy_name": "MEDICAP PHARMACY #8230","address1": "1128 SUNSET DRIVE","address2": "","city": "NORWALK","state": "IA","zip": "50211","zip+4": "1340","phone": "5159810139","NPI": "     1124086533"}, 
{"id": 18947,"ncpdp": "1619216","pharmacy_name": "HY VEE PHARMACY #1038","address1": "1111 8TH STREET","address2": "","city": "BOONE","state": "IA","zip": "50036","zip+4": "0000","phone": "5154321304","NPI": "     1912943895"}, 
{"id": 18948,"ncpdp": "1619228","pharmacy_name": "SHOPKO PHARMACY #141","address1": "313 N ROOSEVELT AVE","address2": "","city": "BURLINGTON","state": "IA","zip": "52601","zip+4": "1757","phone": "3197589526","NPI": "     1215988183"}, 
{"id": 18949,"ncpdp": "1619266","pharmacy_name": "SHOPKO PHARMACY #142","address1": "4810 AVENUE O","address2": "","city": "FORT MADISON","state": "IA","zip": "52627","zip+4": "9677","phone": "3193728629","NPI": "     1699726588"}, 
{"id": 18950,"ncpdp": "1619331","pharmacy_name": "PAMIDA PHARMACY #375","address1": "616 E US HIGHWAY 9","address2": "","city": "FOREST CITY","state": "IA","zip": "50436","zip+4": "1012","phone": "6415822780","NPI": "     1851344352"}, 
{"id": 18951,"ncpdp": "1619343","pharmacy_name": "PAMIDA PHARMACY #364","address1": "819 11TH AVE SW","address2": "","city": "WAUKON","state": "IA","zip": "52172","zip+4": "7593","phone": "5635683668","NPI": "     1316990716"}, 
{"id": 18952,"ncpdp": "1619367","pharmacy_name": "KMART PHARMACY #9359","address1": "3808 BRADY STREET","address2": "","city": "DAVENPORT","state": "IA","zip": "52806","zip+4": "0000","phone": "5633918587","NPI": "     1538191382"}, 
{"id": 18953,"ncpdp": "1619381","pharmacy_name": "MERCY FAMILY PHARMACY-CASCADE","address1": "805 JOHNSON ST SW","address2": "","city": "CASCADE","state": "IA","zip": "52033","zip+4": "0000","phone": "5638527757","NPI": "     1528155710"}, 
{"id": 18954,"ncpdp": "1619393","pharmacy_name": "LEWIS FAMILY DRUG #55","address1": "703 WEST HIGHWAY 175","address2": "STE 2","city": "IDA GROVE","state": "IA","zip": "51445","zip+4": "0000","phone": "7123642120","NPI": "     1679662290"}, 
{"id": 18955,"ncpdp": "1619406","pharmacy_name": "LEWIS FAMILY DRUG #59","address1": "143 SOUTH MAIN AVENUE","address2": "","city": "SIOUX CENTER","state": "IA","zip": "51250","zip+4": "0000","phone": "7127222704","NPI": "     1588753107"}, 
{"id": 18956,"ncpdp": "1619418","pharmacy_name": "LEWIS FAMILY DRUG #61","address1": "106 NORTH BOONE","address2": "","city": "ROCK RAPIDS","state": "IA","zip": "51246","zip+4": "0000","phone": "7124724044","NPI": "     1396834917"}, 
{"id": 18957,"ncpdp": "1619420","pharmacy_name": "LEWIS FAMILY DRUG #52","address1": "610 PARK STREET","address2": "","city": "SHELDON","state": "IA","zip": "51201","zip+4": "0000","phone": "7123244331","NPI": "     1205925823"}, 
{"id": 18958,"ncpdp": "1619432","pharmacy_name": "LEWIS FAMILY DRUG #54","address1": "2308 17TH STREET","address2": "","city": "SPIRIT LAKE","state": "IA","zip": "51360","zip+4": "0000","phone": "7123364731","NPI": "     1841380847"}, 
{"id": 18959,"ncpdp": "1619468","pharmacy_name": "HY VEE PHARMACY #1634","address1": "1250 N LAKE AVENUE","address2": "","city": "STORM LAKE","state": "IA","zip": "50588","zip+4": "0000","phone": "7127321364","NPI": "     1114963477"}, 
{"id": 18960,"ncpdp": "1619482","pharmacy_name": "PAMIDA PHARMACY #379","address1": "1305 141ST ST","address2": "","city": "PERRY","state": "IA","zip": "50220","zip+4": "8128","phone": "5154655484","NPI": "     1902859317"}, 
{"id": 18961,"ncpdp": "1619494","pharmacy_name": "LEWIS FAMILY DRUG #62","address1": "402 SOUTH 2ND AVENUE","address2": "","city": "ROCK RAPIDS","state": "IA","zip": "51246","zip+4": "0000","phone": "7124724220","NPI": "     1114016730"}, 
{"id": 18962,"ncpdp": "1619507","pharmacy_name": "CENTER POINT FAMILY PHARMACY #","address1": "900 BANK CT","address2": "","city": "CENTER POINT","state": "IA","zip": "52213","zip+4": "0000","phone": "3198492799","NPI": "     1750360186"}, 
{"id": 18963,"ncpdp": "1619569","pharmacy_name": "MEDICAP PHARMACY #8247","address1": "800 SCHOOL ST","address2": "","city": "CARLISLE","state": "IA","zip": "50047","zip+4": "0000","phone": "5159893261","NPI": "     1912956020"}, 
{"id": 18964,"ncpdp": "1619571","pharmacy_name": "HERITAGE PARTNERS PHARMACY","address1": "1223 S GEAR AVE","address2": "SUITE 006","city": "WEST BURLINGTON","state": "IA","zip": "52655","zip+4": "1683","phone": "3197683960","NPI": "     1780661751"}, 
{"id": 18965,"ncpdp": "1619622","pharmacy_name": "TARGET PHARMACY #1170","address1": "320 S DUFF AVE","address2": "","city": "AMES","state": "IA","zip": "50010","zip+4": "0000","phone": "5156639645","NPI": "     1043232770"}, 
{"id": 18966,"ncpdp": "1619634","pharmacy_name": "WALGREEN DRUG STORE #5144","address1": "1905 N SECOND ST","address2": "","city": "CLINTON","state": "IA","zip": "52732","zip+4": "0000","phone": "5632432116","NPI": "     1134135726"}, 
{"id": 18967,"ncpdp": "1619658","pharmacy_name": "HY VEE DRUGSTORE #7042","address1": "310 N 1ST AVENUE","address2": "","city": "IOWA CITY","state": "IA","zip": "52240","zip+4": "0000","phone": "3193512921","NPI": "     1689602666"}, 
{"id": 18968,"ncpdp": "1619696","pharmacy_name": "SHOPKO PHARMACY #164","address1": "255 JOHN F KENNEDY RD","address2": "","city": "DUBUQUE","state": "IA","zip": "52002","zip+4": "5313","phone": "5635835808","NPI": "     1407807308"}, 
{"id": 18969,"ncpdp": "1619711","pharmacy_name": "HY VEE PHARMACY #1058","address1": "609 N 18TH STREET","address2": "","city": "CENTERVILLE","state": "IA","zip": "52544","zip+4": "0000","phone": "6418563832","NPI": "     1871529537"}, 
{"id": 18970,"ncpdp": "1619773","pharmacy_name": "WAL-MART PHARMACY #102716","address1": "3601 29TH AVENUE S.W.","address2": "","city": "CEDAR RAPIDS","state": "IA","zip": "52404","zip+4": "0000","phone": "3193909925","NPI": "     1003833492"}, 
{"id": 18971,"ncpdp": "1619901","pharmacy_name": "WAL-MART PHARMACY #102714","address1": "500 11TH ST. S.W.","address2": "","city": "SPENCER","state": "IA","zip": "51301","zip+4": "0000","phone": "7122625011","NPI": "     1912924309"}, 
{"id": 18972,"ncpdp": "1619913","pharmacy_name": "MEDICAP PHARMACY #8023","address1": "400 1ST AVE W","address2": "","city": "NEWTON","state": "IA","zip": "50208","zip+4": "0000","phone": "6417923528","NPI": "     1316019102"}, 
{"id": 18973,"ncpdp": "1619925","pharmacy_name": "WALGREEN DRUG STORE #5060","address1": "12753 UNIVERSITY","address2": "","city": "CLIVE","state": "IA","zip": "50325","zip+4": "0000","phone": "5152261477","NPI": "     1427063742"}, 
{"id": 18974,"ncpdp": "1619937","pharmacy_name": "WALGREEN DRUG STORE #5042","address1": "3325 16TH AVE SW","address2": "","city": "CEDAR RAPIDS","state": "IA","zip": "52404","zip+4": "0000","phone": "3192211911","NPI": "     1336154657"}, 
{"id": 18975,"ncpdp": "1619987","pharmacy_name": "HY VEE PHARMACY #1324","address1": "3111 MAIN STREET","address2": "","city": "KEOKUK","state": "IA","zip": "52632","zip+4": "0000","phone": "3195249535","NPI": "     1720014244"}, 
{"id": 18976,"ncpdp": "1620055","pharmacy_name": "WALGREEN DRUG STORE #5362","address1": "1330 E UNIVERSITY","address2": "","city": "DES MOINES","state": "IA","zip": "50316","zip+4": "0000","phone": "5152999798","NPI": "     1245245562"}, 
{"id": 18977,"ncpdp": "1620067","pharmacy_name": "MEDICAP PHARMACY #8269","address1": "504 14TH STREET","address2": "","city": "DALLAS CENTER","state": "IA","zip": "50063","zip+4": "0000","phone": "5159923784","NPI": "     1972679744"}, 
{"id": 18978,"ncpdp": "1620093","pharmacy_name": "THRIFTY WHITE DRUG #49","address1": "909 WILLSON AVENUE","address2": "","city": "WEBSTER CITY","state": "IA","zip": "50595","zip+4": "0000","phone": "5158324137","NPI": "     1790874394"}, 
{"id": 18979,"ncpdp": "1620106","pharmacy_name": "HY VEE PHARMACY #1271","address1": "910 N JEFFERSON","address2": "","city": "INDIANOLA","state": "IA","zip": "50125","zip+4": "0000","phone": "5159629444","NPI": "     1780610295"}, 
{"id": 18980,"ncpdp": "1620132","pharmacy_name": "MEDICAP PHARMACY #8259","address1": "103 E 18TH ST","address2": "","city": "CEDAR FALLS","state": "IA","zip": "50613","zip+4": "0000","phone": "3192771829","NPI": "     1750384624"}, 
{"id": 18981,"ncpdp": "1620170","pharmacy_name": "WHITING FAMILY PHARMACY","address1": "723 WHITTIER ST","address2": "","city": "WHITING","state": "IA","zip": "51063","zip+4": "0000","phone": "7124582500","NPI": "     1699844548"}, 
{"id": 18982,"ncpdp": "1620194","pharmacy_name": "MEDICAP PHARMACY #8256","address1": "10 WARRIOR LN","address2": "","city": "WAUKEE","state": "IA","zip": "50263","zip+4": "0000","phone": "5159878111","NPI": "     1023044179"}, 
{"id": 18983,"ncpdp": "1620219","pharmacy_name": "HY VEE PHARMACY #1850","address1": "528 S HWY 1","address2": "","city": "WASHINGTON","state": "IA","zip": "52353","zip+4": "0000","phone": "3196532155","NPI": "     1497781751"}, 
{"id": 18984,"ncpdp": "1620221","pharmacy_name": "HY VEE PHARMACY #1051","address1": "905 US HIGHWAY 30 WEST","address2": "","city": "CARROLL","state": "IA","zip": "51401","zip+4": "0000","phone": "7127929093","NPI": "     1558398453"}, 
{"id": 18985,"ncpdp": "1620245","pharmacy_name": "WALGREEN DRUG STORE #5470","address1": "4650 MORNINGSIDE AVE","address2": "","city": "SIOUX CITY","state": "IA","zip": "51106","zip+4": "0000","phone": "7122763100","NPI": "     1154336477"}, 
{"id": 18986,"ncpdp": "1620322","pharmacy_name": "MED EQUIP HOMECARE PHARMACY #3","address1": "141 S CENTRAL AVE","address2": "","city": "HARTLEY","state": "IA","zip": "51346","zip+4": "0000","phone": "7127282165","NPI": "     1235245051"}, 
{"id": 18987,"ncpdp": "1620334","pharmacy_name": "HY VEE DRUGSTORE #7070","address1": "2627 PIERCE STREET","address2": "","city": "SIOUX CITY","state": "IA","zip": "51104","zip+4": "0000","phone": "7122580117","NPI": "     1780629162"}, 
{"id": 18988,"ncpdp": "1620346","pharmacy_name": "HY VEE PHARMACY 2 #1160","address1": "2395 NW ARTERIAL","address2": "","city": "DUBUQUE","state": "IA","zip": "52002","zip+4": "0000","phone": "5635823436","NPI": "     1184650558"}, 
{"id": 18989,"ncpdp": "1620384","pharmacy_name": "HY VEE PHARMACY #1202","address1": "2606 AVENUE L","address2": "","city": "FT MADISON","state": "IA","zip": "52627","zip+4": "0000","phone": "3193729396","NPI": "     1912933565"}, 
{"id": 18990,"ncpdp": "1620423","pharmacy_name": "WAL-MART PHARMACY #102764","address1": "3501 8TH STREET S.W.","address2": "","city": "ALTOONA","state": "IA","zip": "50009","zip+4": "0000","phone": "5159671794","NPI": "     1821015215"}, 
{"id": 18991,"ncpdp": "1620459","pharmacy_name": "WALGREEN DRUG STORE #5512","address1": "3425 MIDDLE RD","address2": "","city": "BETTENDORF","state": "IA","zip": "52722","zip+4": "0000","phone": "5633326155","NPI": "     1023024429"}, 
{"id": 18992,"ncpdp": "1620461","pharmacy_name": "HY VEE PHARMACY #1011","address1": "108 8TH STREET","address2": "","city": "ALTOONA","state": "IA","zip": "50009","zip+4": "0000","phone": "5159673765","NPI": "     1255367983"}, 
{"id": 18993,"ncpdp": "1620473","pharmacy_name": "HY VEE PHARMACY 3 #1142","address1": "3221 SE 14TH STREET","address2": "","city": "DES MOINES","state": "IA","zip": "50320","zip+4": "0000","phone": "5152461390","NPI": "     1396780912"}, 
{"id": 18994,"ncpdp": "1620497","pharmacy_name": "HY VEE PHARMACY #1353","address1": "809 WEST ROCK ISLAND STREET","address2": "","city": "KNOXVILLE","state": "IA","zip": "50138","zip+4": "0000","phone": "6418422512","NPI": "     1053353672"}, 
{"id": 18995,"ncpdp": "1620524","pharmacy_name": "WAL-MART PHARMACY #102889","address1": "2715 S. 25TH ST.","address2": "","city": "CLINTON","state": "IA","zip": "52732","zip+4": "0000","phone": "5632430600","NPI": "     1730106121"}, 
{"id": 18996,"ncpdp": "1620536","pharmacy_name": "HY VEE PHARMACY #1530","address1": "4815 MAPLE DRIVE","address2": "","city": "PLEASANT HILL","state": "IA","zip": "50327","zip+4": "0000","phone": "5152656144","NPI": "     1881620276"}, 
{"id": 18997,"ncpdp": "1620574","pharmacy_name": "HY VEE DRUGSTORE #7031","address1": "4100 UNIVERSITY AVENUE","address2": "","city": "DES MOINES","state": "IA","zip": "50311","zip+4": "0000","phone": "5156338606","NPI": "     1023053543"}, 
{"id": 18998,"ncpdp": "1620586","pharmacy_name": "MEDICAP PHARMACY #8240","address1": "325 8TH ST SE","address2": "","city": "ALTOONA","state": "IA","zip": "50009","zip+4": "0000","phone": "5159570001","NPI": "     1740395771"}, 
{"id": 18999,"ncpdp": "1620601","pharmacy_name": "TARGET PHARMACY #1767","address1": "2135 SE DELAWARE AVE","address2": "","city": "ANKENY","state": "IA","zip": "50021","zip+4": "0000","phone": "5159647000","NPI": "     1871515510"}, 
{"id": 19000,"ncpdp": "1620613","pharmacy_name": "CONTINUE CARE","address1": "2609 APACHE COURT","address2": "","city": "SIOUX CITY","state": "IA","zip": "51104","zip+4": "0000","phone": "7122242845","NPI": "     1598751489"}, 
{"id": 19001,"ncpdp": "1620625","pharmacy_name": "WALGREEN DRUG STORE #5941","address1": "1251 4TH STREET SW","address2": "","city": "MASON CITY","state": "IA","zip": "50401","zip+4": "0000","phone": "6414231472","NPI": "     1063427383"}, 
{"id": 19002,"ncpdp": "1620649","pharmacy_name": "WAL-MART PHARMACY #102935","address1": "814 WEST BELL AVENUE","address2": "","city": "KNOXVILLE","state": "IA","zip": "50138","zip+4": "0000","phone": "6418286183","NPI": "     1649297037"}, 
{"id": 19003,"ncpdp": "1620675","pharmacy_name": "HY VEE PHARMACY #1318","address1": "5750 MERLE HAY ROAD","address2": "BOX 9","city": "JOHNSTON","state": "IA","zip": "50131","zip+4": "0000","phone": "5152709212","NPI": "     1790711463"}, 
{"id": 19004,"ncpdp": "1620687","pharmacy_name": "WALGREEN DRUG STORE #5777","address1": "2930 E UNIVERSITY AVE","address2": "","city": "DES MOINES","state": "IA","zip": "50317","zip+4": "0000","phone": "5152995171","NPI": "     1043226632"}, 
{"id": 19005,"ncpdp": "1620699","pharmacy_name": "TARGET PHARMACY #1771","address1": "3400 EDGEWOOD ROAD SW","address2": "","city": "CEDAR RAPIDS","state": "IA","zip": "52404","zip+4": "0000","phone": "3193964777","NPI": "     1477575116"}, 
{"id": 19006,"ncpdp": "1620702","pharmacy_name": "DAHLS PHARMACY","address1": "5440 NW 86TH ST","address2": "","city": "JOHNSTON","state": "IA","zip": "50131","zip+4": "0000","phone": "5153310300","NPI": "     1730112152"}, 
{"id": 19007,"ncpdp": "1620714","pharmacy_name": "WAL-MART PHARMACY #102827","address1": "2801 COMMERCE DRIVE","address2": "","city": "CORALVILLE","state": "IA","zip": "52241","zip+4": "0000","phone": "3195456412","NPI": "     1558388942"}, 
{"id": 19008,"ncpdp": "1620726","pharmacy_name": "HY VEE PHARMACY #1410","address1": "2400 FOURTH STREET SW","address2": "","city": "MASON CITY","state": "IA","zip": "50401","zip+4": "0000","phone": "6414241343","NPI": "     1538198973"}, 
{"id": 19009,"ncpdp": "1620740","pharmacy_name": "HY VEE PHARMACY 2 #1044","address1": "3140 AGENCY STREET","address2": "","city": "BURLINGTON","state": "IA","zip": "52601","zip+4": "0000","phone": "3197522773","NPI": "     1073541553"}, 
{"id": 19010,"ncpdp": "1620764","pharmacy_name": "WALGREEN DRUG STORE #5943","address1": "1000 N JEFFERSON ST","address2": "","city": "INDIANOLA","state": "IA","zip": "50125","zip+4": "0000","phone": "5159612976","NPI": "     1972518298"}, 
{"id": 19011,"ncpdp": "1620776","pharmacy_name": "WALGREEN DRUG STORE #5942","address1": "1204 1ST AVE E","address2": "","city": "NEWTON","state": "IA","zip": "50208","zip+4": "0000","phone": "6417926506","NPI": "     1881609105"}, 
{"id": 19012,"ncpdp": "1620788","pharmacy_name": "MEDICAP PHARMACY #8282","address1": "600 SENATE AVE","address2": "","city": "RED OAK","state": "IA","zip": "51566","zip+4": "0000","phone": "7126231900","NPI": "     1699887547"}, 
{"id": 19013,"ncpdp": "1620790","pharmacy_name": "HY VEE PHARMACY #1042","address1": "939 ANGULAR STREET","address2": "","city": "BURLINGTON","state": "IA","zip": "52601","zip+4": "0000","phone": "3197530112","NPI": "     1003852997"}, 
{"id": 19014,"ncpdp": "1620803","pharmacy_name": "WALGREEN DRUG STORE #5852","address1": "3030 UNIVERSITY","address2": "","city": "DES MOINES","state": "IA","zip": "50311","zip+4": "0000","phone": "5152793004","NPI": "     1699780916"}, 
{"id": 19015,"ncpdp": "1620827","pharmacy_name": "HY VEE PHARMACY #1544","address1": "1605 BROADWAY","address2": "BOX 45","city": "RED OAK","state": "IA","zip": "51566","zip+4": "0000","phone": "7126233370","NPI": "     1952337347"}, 
{"id": 19016,"ncpdp": "1620839","pharmacy_name": "WALGREEN DRUG STORE #6154","address1": "2260 J F KENNEDY RD","address2": "","city": "DUBUQUE","state": "IA","zip": "52002","zip+4": "0000","phone": "5635821414","NPI": "     1164437596"}, 
{"id": 19017,"ncpdp": "1620841","pharmacy_name": "WALGREEN DRUG STORE #5886","address1": "1215 MAIN ST","address2": "","city": "KEOKUK","state": "IA","zip": "52632","zip+4": "0000","phone": "3195240142","NPI": "     1508871823"}, 
{"id": 19018,"ncpdp": "1620853","pharmacy_name": "PAMIDA PHARMACY #884","address1": "902 S LOCUST ST","address2": "","city": "GLENWOOD","state": "IA","zip": "51534","zip+4": "1834","phone": "7125279200","NPI": "     1982657912"}, 
{"id": 19019,"ncpdp": "1620865","pharmacy_name": "HY VEE PHARMACY #1065","address1": "2001 WEST COURT","address2": "","city": "CHARITON","state": "IA","zip": "50049","zip+4": "0000","phone": "6417742111","NPI": "     1770519431"}, 
{"id": 19020,"ncpdp": "1620877","pharmacy_name": "MERCY FAMILY PHARMACY-REGENCY","address1": "621 S ILLINOIS AVE STE 101","address2": "","city": "MASON CITY","state": "IA","zip": "50401","zip+4": "0000","phone": "6414226940","NPI": "     1962591370"}, 
{"id": 19021,"ncpdp": "1620889","pharmacy_name": "MERCY LONG TERM CARE PHARMACY","address1": "621 S ILLINOIS AVE","address2": "STE 104","city": "MASON CITY","state": "IA","zip": "50401","zip+4": "0000","phone": "6414226944","NPI": "     1801975065"}, 
{"id": 19022,"ncpdp": "1620891","pharmacy_name": "ANITA CLINIC PHARMACY","address1": "710 MAIN ST","address2": "","city": "ANITA","state": "IA","zip": "50020","zip+4": "1060","phone": "7127623945","NPI": "     1063562890"}, 
{"id": 19023,"ncpdp": "1620904","pharmacy_name": "HY VEE DRUGSTORE CLINIC #7060","address1": "111 E WALNUT ST","address2": "","city": "COLUMBUS JUNCTION","state": "IA","zip": "52738","zip+4": "0000","phone": "3197283144","NPI": "     1295777639"}, 
{"id": 19024,"ncpdp": "1620916","pharmacy_name": "WALGREEN DRUG STORE #5977","address1": "102 SECOND ST","address2": "","city": "CORALVILLE","state": "IA","zip": "52241","zip+4": "0000","phone": "3193415985","NPI": "     1417962739"}, 
{"id": 19025,"ncpdp": "1620928","pharmacy_name": "HY VEE PHARMACY #1875","address1": "823 2ND STREET","address2": "","city": "WEBSTER CITY","state": "IA","zip": "50595","zip+4": "0000","phone": "5158324025","NPI": "     1346276920"}, 
{"id": 19026,"ncpdp": "1620930","pharmacy_name": "HY VEE DRUGSTORE CLINIC #7060","address1": "312 N 2ND STREET","address2": "","city": "WAPELLO","state": "IA","zip": "52653","zip+4": "0000","phone": "3195233784","NPI": "     1578504981"}, 
{"id": 19027,"ncpdp": "1620942","pharmacy_name": "TARGET PHARMACY #1791","address1": "11148 PLUM DRIVE","address2": "","city": "URBANDALE","state": "IA","zip": "50322","zip+4": "0000","phone": "5152706884","NPI": "     1194747832"}, 
{"id": 19028,"ncpdp": "1620954","pharmacy_name": "TARGET PHARMACY #1792","address1": "1501 EAST SANMARNAN DRIVE","address2": "","city": "WATERLOO","state": "IA","zip": "50702","zip+4": "0000","phone": "3192266761","NPI": "     1003838749"}, 
{"id": 19029,"ncpdp": "1620966","pharmacy_name": "PAMIDA PHARMACY #889","address1": "201 N FILLMORE ST","address2": "","city": "MOUNT AYR","state": "IA","zip": "50854","zip+4": "1627","phone": "6414644527","NPI": "     1477505519"}, 
{"id": 19030,"ncpdp": "1620992","pharmacy_name": "HY VEE PHARMACY #1009","address1": "301 HWY 34 WEST","address2": "","city": "ALBIA","state": "IA","zip": "52531","zip+4": "0000","phone": "6419322188","NPI": "     1619903341"}, 
{"id": 19031,"ncpdp": "1621021","pharmacy_name": "SAMS PHARMACY #106344","address1": "1101 73RD STREET","address2": "","city": "DES MOINES","state": "IA","zip": "50311","zip+4": "0000","phone": "5152749676","NPI": "     1467479857"}, 
{"id": 19032,"ncpdp": "1621057","pharmacy_name": "WALGREEN DRUG STORE #6677","address1": "4900 MILLS CIVIC PKWY","address2": "","city": "WEST DES MOINES","state": "IA","zip": "50265","zip+4": "0000","phone": "5152238128","NPI": "     1295741882"}, 
{"id": 19033,"ncpdp": "1621069","pharmacy_name": "MEDICAP PHARMACY #8318","address1": "250 SE GATEWAY DR","address2": "","city": "GRIMES","state": "IA","zip": "50111","zip+4": "2045","phone": "5159860101","NPI": "     1609803964"}, 
{"id": 19034,"ncpdp": "1621071","pharmacy_name": "HY VEE DRUGSTORE CLINIC #7007","address1": "1215 DUFF AVENUE","address2": "","city": "AMES","state": "IA","zip": "50010","zip+4": "0000","phone": "5152327315","NPI": "     1902848229"}, 
{"id": 19035,"ncpdp": "1621083","pharmacy_name": "WALGREEN DRUG STORE #5944","address1": "6200 MERLE HAY RD","address2": "","city": "JOHNSTON","state": "IA","zip": "50131","zip+4": "0000","phone": "5153311343","NPI": "     1326053646"}, 
{"id": 19036,"ncpdp": "1621095","pharmacy_name": "WALGREEN DRUG STORE #6623","address1": "1660 22ND ST","address2": "","city": "WEST DES MOINES","state": "IA","zip": "50266","zip+4": "0000","phone": "5152239961","NPI": "     1235144551"}, 
{"id": 19037,"ncpdp": "1621108","pharmacy_name": "CUSTOM CARE COMPOUNDING PHARMA","address1": "405 S CLARK ST","address2": "SUITE 150","city": "CARROLL","state": "IA","zip": "51401","zip+4": "0000","phone": "7127923212","NPI": "     1902967979"}, 
{"id": 19038,"ncpdp": "1621122","pharmacy_name": "WALGREEN DRUG STORE #6186","address1": "4011 E 53RD ST","address2": "","city": "DAVENPORT","state": "IA","zip": "52807","zip+4": "0000","phone": "5633593267","NPI": "     1104832799"}, 
{"id": 19039,"ncpdp": "1621160","pharmacy_name": "TARGET PHARMACY #1768","address1": "1030 BLAIRS FERRY RD NE","address2": "","city": "CEDAR RAPIDS","state": "IA","zip": "52402","zip+4": "0000","phone": "3193934348","NPI": "     1912929654"}, 
{"id": 19040,"ncpdp": "1621184","pharmacy_name": "GRISWOLD CLINIC PHARMACY","address1": "1109 MORNINGSIDE DR","address2": "","city": "GRISWOLD","state": "IA","zip": "51535","zip+4": "0000","phone": "7127785145","NPI": "     1215093984"}, 
{"id": 19041,"ncpdp": "1621196","pharmacy_name": "HY VEE PHARMACY #1636","address1": "819 GRAND AVE","address2": "","city": "SPENCER","state": "IA","zip": "51301","zip+4": "0000","phone": "7122625611","NPI": "     1659307239"}, 
{"id": 19042,"ncpdp": "1621209","pharmacy_name": "HY VEE DRUGSTORE 2 #7082","address1": "1010 60TH STREET","address2": "","city": "WEST DES MOINES","state": "IA","zip": "50266","zip+4": "0000","phone": "5154401620","NPI": "     1255369054"}, 
{"id": 19043,"ncpdp": "1621211","pharmacy_name": "HY VEE PHARMACY 4 #1060","address1": "1556 1ST AVENUE NE","address2": "","city": "CEDAR RAPIDS","state": "IA","zip": "52402","zip+4": "0000","phone": "3193662239","NPI": "     1891725313"}, 
{"id": 19044,"ncpdp": "1621223","pharmacy_name": "HY VEE PHARMACY #1516","address1": "118 SE 9TH STREET","address2": "","city": "PELLA","state": "IA","zip": "50219","zip+4": "0000","phone": "6416281280","NPI": "     1932135456"}, 
{"id": 19045,"ncpdp": "1621235","pharmacy_name": "PAMIDA PHARMACY #888","address1": "413 W HURON ST","address2": "","city": "MISSOURI VALLEY","state": "IA","zip": "51555","zip+4": "1436","phone": "7126422716","NPI": "     1770535866"}, 
{"id": 19046,"ncpdp": "1621247","pharmacy_name": "PHILS PHARMACY","address1": "401 MAIN ST","address2": "","city": "REINBECK","state": "IA","zip": "50643","zip+4": "0000","phone": "3197887445","NPI": "     1376516435"}, 
{"id": 19047,"ncpdp": "1621261","pharmacy_name": "HY VEE PHARMACY 2 #1505","address1": "2453 N COURT","address2": "","city": "OTTUMWA","state": "IA","zip": "52501","zip+4": "0000","phone": "6416841853","NPI": "     1902840101"}, 
{"id": 19048,"ncpdp": "1621297","pharmacy_name": "MEDICAP PHARMACY #8015","address1": "107 NE DELAWARE AVE","address2": "STE 6","city": "ANKENY","state": "IA","zip": "50021","zip+4": "0000","phone": "5159648550","NPI": "     1447284666"}, 
{"id": 19049,"ncpdp": "1621312","pharmacy_name": "TARGET PHARMACY #0086","address1": "3500 DODGE STREET","address2": "","city": "DUBUQUE","state": "IA","zip": "52003","zip+4": "0000","phone": "5635570304","NPI": "     1821010562"}, 
{"id": 19050,"ncpdp": "1621324","pharmacy_name": "HY VEE PHARMACY #1504","address1": "1025 N QUINCY","address2": "","city": "OTTUMWA","state": "IA","zip": "52501","zip+4": "0000","phone": "6416834483","NPI": "     1558390898"}, 
{"id": 19051,"ncpdp": "1621348","pharmacy_name": "ENGLAND MEDICAL CLINIC","address1": "506 MAIN ST","address2": "","city": "GRISWOLD","state": "IA","zip": "51535","zip+4": "0000","phone": "7127782395","NPI": "     1851401566"}, 
{"id": 19052,"ncpdp": "1621362","pharmacy_name": "MERCY WEST PHARMACY","address1": "1601 NW 114TH ST","address2": "SUITE 234","city": "CLIVE","state": "IA","zip": "50325","zip+4": "0000","phone": "5152227979","NPI": "     1619952926"}, 
{"id": 19053,"ncpdp": "1621386","pharmacy_name": "LOWDEN FAMILY MEDICAL CLINIC","address1": "305 MCKINLEY AVE","address2": "","city": "LOWDEN","state": "IA","zip": "52255","zip+4": "0000","phone": "5639445361","NPI": "     1528017365"}, 
{"id": 19054,"ncpdp": "1621398","pharmacy_name": "LONE TREE FAMILY PRACTICE","address1": "109 W JAYNE STREET","address2": "","city": "LONE TREE","state": "IA","zip": "52755","zip+4": "0000","phone": "3196294214","NPI": "     1841249687"}, 
{"id": 19055,"ncpdp": "1621401","pharmacy_name": "THRIFTY WHITE DRUG #56","address1": "1320 BROADWAY","address2": "","city": "DENISON","state": "IA","zip": "51442","zip+4": "0000","phone": "7122634646","NPI": "     1609965201"}, 
{"id": 19056,"ncpdp": "1621413","pharmacy_name": "MEDICAP PHARMACY #8308","address1": "628 NILE KINNICK DR S","address2": "STE A","city": "ADEL","state": "IA","zip": "50003","zip+4": "0000","phone": "5159931119","NPI": "     1265526677"}, 
{"id": 19057,"ncpdp": "1621475","pharmacy_name": "HY VEE PHARMACY 4 #1108","address1": "4064 EAST 53RD STREET","address2": "","city": "DAVENPORT","state": "IA","zip": "52807","zip+4": "0000","phone": "5633593120","NPI": "     1326077959"}, 
{"id": 19058,"ncpdp": "1621487","pharmacy_name": "HY VEE DRUGSTORE CLINIC #7028","address1": "321 NORTH MAIN","address2": "","city": "MARCUS","state": "IA","zip": "51035","zip+4": "0000","phone": "7123762844","NPI": "     1992731087"}, 
{"id": 19059,"ncpdp": "1621499","pharmacy_name": "HY VEE PHARMACY #1235","address1": "320 WEST STREET SOUTH","address2": "","city": "GRINNELL","state": "IA","zip": "50112","zip+4": "0000","phone": "6412364287","NPI": "     1356387732"}, 
{"id": 19060,"ncpdp": "1621526","pharmacy_name": "HY VEE PHARMACY #1433","address1": "1700 E WASHINGTON STREET","address2": "","city": "MT PLEASANT","state": "IA","zip": "52641","zip+4": "0000","phone": "3199866979","NPI": "     1104855592"}, 
{"id": 19061,"ncpdp": "1621538","pharmacy_name": "HY VEE CLINIC #1433","address1": "501 S WHITE","address2": "","city": "MT PLEASANT","state": "IA","zip": "52641","zip+4": "0000","phone": "3193856745","NPI": "     1578505053"}, 
{"id": 19062,"ncpdp": "1621552","pharmacy_name": "PAMIDA PHARMACY #261","address1": "2099 CHATBURN AVE","address2": "","city": "HARLAN","state": "IA","zip": "51537","zip+4": "1845","phone": "7127551112","NPI": "     1073565446"}, 
{"id": 19063,"ncpdp": "1621576","pharmacy_name": "WALGREEN DRUG STORE #7455","address1": "111 W RIDGEWAY AVENUE","address2": "","city": "WATERLOO","state": "IA","zip": "50701","zip+4": "0000","phone": "3194330488","NPI": "     1013923606"}, 
{"id": 19064,"ncpdp": "1621588","pharmacy_name": "TARGET PHARMACY #1800","address1": "5775 SUNNYBROOK DR","address2": "","city": "SIOUX CITY","state": "IA","zip": "51106","zip+4": "0000","phone": "7122748854","NPI": "     1730101478"}, 
{"id": 19065,"ncpdp": "1621590","pharmacy_name": "WAL-MART PHARMACY #103590","address1": "3101 FLOYD BLVD","address2": "","city": "SIOUX CITY","state": "IA","zip": "51108","zip+4": "0000","phone": "7122398913","NPI": "     1376560763"}, 
{"id": 19066,"ncpdp": "1621627","pharmacy_name": "MEDICAP #8350","address1": "411 ANNEX ROAD","address2": "","city": "MADRID","state": "IA","zip": "50156","zip+4": "0000","phone": "5157954252","NPI": "     1912902024"}, 
{"id": 19067,"ncpdp": "1621639","pharmacy_name": "HY VEE CLINIC #1022","address1": "301 S HWY 69","address2": "","city": "HUXLEY","state": "IA","zip": "50124","zip+4": "0000","phone": "5155974100","NPI": "     1487696977"}, 
{"id": 19068,"ncpdp": "1621641","pharmacy_name": "MEDICAP PHARMACY #8095","address1": "1602 EDGINGTON AVE","address2": "","city": "ELDORA","state": "IA","zip": "50627","zip+4": "0000","phone": "6418583567","NPI": "     1174617583"}, 
{"id": 19069,"ncpdp": "1621677","pharmacy_name": "MARTIN HEALTH SERVICES INC","address1": "700 S STATE ST","address2": "","city": "DENVER","state": "IA","zip": "50622","zip+4": "0000","phone": "3199845680","NPI": "     1558475673"}, 
{"id": 19070,"ncpdp": "1621689","pharmacy_name": "MEDICAP PHARMACY #8347","address1": "2804 BEAVER AVENUE","address2": "","city": "DES MOINES","state": "IA","zip": "50310","zip+4": "0000","phone": "5152773702","NPI": "     1457405805"}, 
{"id": 19071,"ncpdp": "1621691","pharmacy_name": "TARGET PHARMACY #0069","address1": "1800 VALLEY WEST DRIVE","address2": "","city": "WEST DES MOINES","state": "IA","zip": "50266","zip+4": "0000","phone": "5152253170","NPI": "     1649292384"}, 
{"id": 19072,"ncpdp": "1621704","pharmacy_name": "PAMIDA PHARMACY #174","address1": "1006 S COUNTY RD","address2": "","city": "TOLEDO","state": "IA","zip": "52342","zip+4": "1062","phone": "6414848801","NPI": "     1295788891"}, 
{"id": 19073,"ncpdp": "1621716","pharmacy_name": "NORTH SCOTT PHARMACY","address1": "225 E LECLAIRE RD","address2": "","city": "ELDRIDGE","state": "IA","zip": "52748","zip+4": "0000","phone": "5632852001","NPI": "     1861434391"}, 
{"id": 19074,"ncpdp": "1621728","pharmacy_name": "PLAZA FAMILY PHARMACY #5","address1": "5264 COUNCIL ST NE","address2": "","city": "CEDAR RAPIDS","state": "IA","zip": "52402","zip+4": "0000","phone": "3192218861","NPI": "     1861471930"}, 
{"id": 19075,"ncpdp": "1621730","pharmacy_name": "PAMIDA PHARMACY #85","address1": "1901 W COURT AVE","address2": "","city": "CHARITON","state": "IA","zip": "50049","zip+4": "1905","phone": "6417745505","NPI": "     1588616965"}, 
{"id": 19076,"ncpdp": "1621766","pharmacy_name": "WAL-MART PHARMACY #105115","address1": "3101 WEST KIMBERLY ROAD","address2": "","city": "DAVENPORT","state": "IA","zip": "52806","zip+4": "0000","phone": "5634451098","NPI": "     1285651679"}, 
{"id": 19077,"ncpdp": "1621778","pharmacy_name": "MEDICAP PHARMACY #8007","address1": "320 6TH AVE","address2": "","city": "GRINNELL","state": "IA","zip": "50112","zip+4": "1845","phone": "6412363663","NPI": "     1639124845"}, 
{"id": 19078,"ncpdp": "1621792","pharmacy_name": "MEDICAP PHARMACY VITAL CARE #1","address1": "404 E EUCLID","address2": "","city": "INDIANOLA","state": "IA","zip": "50125","zip+4": "0000","phone": "5159622656","NPI": "     1114068921"}, 
{"id": 19079,"ncpdp": "1621817","pharmacy_name": "HY VEE PHARMACY 5 #1109","address1": "2351 W LOCUST","address2": "","city": "DAVENPORT","state": "IA","zip": "52804","zip+4": "0000","phone": "5633243900","NPI": "     1225064405"}, 
{"id": 19080,"ncpdp": "1621831","pharmacy_name": "SCOTT DRUG CLINIC PHARMACY","address1": "1021 11TH ST","address2": "","city": "DEWITT","state": "IA","zip": "52742","zip+4": "0000","phone": "5636598910","NPI": "     1013928522"}, 
{"id": 19081,"ncpdp": "1621843","pharmacy_name": "UNION FAMILY PHARMACY","address1": "2541 CENTRAL AVE","address2": "","city": "DUBUQUE","state": "IA","zip": "52001","zip+4": "3305","phone": "5635561493","NPI": "     1407909153"}, 
{"id": 19082,"ncpdp": "1621867","pharmacy_name": "WALGREEN DRUG STORE #7968","address1": "6200 SE 14TH ST","address2": "","city": "DES MOINES","state": "IA","zip": "50320","zip+4": "0000","phone": "5153095465","NPI": "     1922014513"}, 
{"id": 19083,"ncpdp": "1621879","pharmacy_name": "HY VEE PHARMACY #1382","address1": "1201 12TH AVENUE SW","address2": "","city": "LEMARS","state": "IA","zip": "51031","zip+4": "0000","phone": "7125484503","NPI": "     1881620912"}, 
{"id": 19084,"ncpdp": "1621893","pharmacy_name": "HY VEE PHARMACY #1481","address1": "110 S D STREET","address2": "","city": "OSKALOOSA","state": "IA","zip": "52577","zip+4": "0000","phone": "6416730259","NPI": "     1942236591"}, 
{"id": 19085,"ncpdp": "1621906","pharmacy_name": "THRIFTY WHITE DRUG #64","address1": "2 NORTH 4TH STREET","address2": "","city": "CLEAR LAKE","state": "IA","zip": "50428","zip+4": "0000","phone": "6413575271","NPI": "     1518056118"}, 
{"id": 19086,"ncpdp": "1621920","pharmacy_name": "PAMIDA PHARMACY #876","address1": "109 N MARKET ST","address2": "","city": "AUDUBON","state": "IA","zip": "50025","zip+4": "1173","phone": "7125633302","NPI": "     1689626970"}, 
{"id": 19087,"ncpdp": "1621968","pharmacy_name": "HY VEE PHARMACY #1124","address1": "1426 BROADWAY","address2": "","city": "DENISON","state": "IA","zip": "51442","zip+4": "0000","phone": "7122636161","NPI": "     1215963491"}, 
{"id": 19088,"ncpdp": "1621970","pharmacy_name": "PHILS PHARMACY II","address1": "101 EDDY STONE DR","address2": "","city": "HUDSON","state": "IA","zip": "50643","zip+4": "0000","phone": "3199883800","NPI": "     1437122504"}, 
{"id": 19089,"ncpdp": "1621982","pharmacy_name": "HY VEE PHARMACY #1295","address1": "632 S OAK RIVER HILLS","address2": "","city": "IOWA FALLS","state": "IA","zip": "50126","zip+4": "0000","phone": "6416484255","NPI": "     1265469761"}, 
{"id": 19090,"ncpdp": "1621994","pharmacy_name": "HY VEE PHARMACY #1095","address1": "600 SHELDON","address2": "","city": "CRESTON","state": "IA","zip": "50801","zip+4": "0000","phone": "6417828417","NPI": "     1881620060"}, 
{"id": 19091,"ncpdp": "1622023","pharmacy_name": "TARGET PHARMACY #1901","address1": "5405 MILL CIVIC PARKWAY","address2": "","city": "WEST DES MOINES","state": "IA","zip": "50266","zip+4": "0000","phone": "5152233597","NPI": "     1245253566"}, 
{"id": 19092,"ncpdp": "1622047","pharmacy_name": "WALGREEN DRUG STORE #1301","address1": "327 W 4TH ST","address2": "","city": "OTTUMWA","state": "IA","zip": "52501","zip+4": "0000","phone": "6412265074","NPI": "     1144235466"}, 
{"id": 19093,"ncpdp": "1622059","pharmacy_name": "MEDICAP PHARMACY #8325","address1": "516 S OAK STREET","address2": "","city": "IOWA FALLS","state": "IA","zip": "50126","zip+4": "0000","phone": "6416484263","NPI": "     1083708499"}, 
{"id": 19094,"ncpdp": "1622073","pharmacy_name": "HY VEE DRUGSTORE #7030","address1": "757 W BROADWAY","address2": "","city": "COUNCIL BLUFFS","state": "IA","zip": "51501","zip+4": "0000","phone": "7123283277","NPI": "     1669417044"}, 
{"id": 19095,"ncpdp": "1622112","pharmacy_name": "TARGET PHARMACY #1939","address1": "3414 8TH ST SW","address2": "","city": "ALTOONA","state": "IA","zip": "50009","zip+4": "0000","phone": "5159671885","NPI": "     1558383299"}, 
{"id": 19096,"ncpdp": "1622124","pharmacy_name": "WESTER DRUG INC","address1": "400 OVESEN RD","address2": "STE 102","city": "WILTON","state": "IA","zip": "52778","zip+4": "0000","phone": "5637325238","NPI": "     1578612768"}, 
{"id": 19097,"ncpdp": "1622136","pharmacy_name": "PAMIDA PHARMACY #152","address1": "660 W MILWAUKEE ST","address2": "","city": "NEW HAMPTON","state": "IA","zip": "50659","zip+4": "1013","phone": "6413946404","NPI": "     1265485858"}, 
{"id": 19098,"ncpdp": "1622162","pharmacy_name": "WALGREEN DRUG STORE #7967","address1": "15601 HICKMAN RD","address2": "","city": "CLIVE","state": "IA","zip": "50325","zip+4": "0000","phone": "5159876612","NPI": "     1831105428"}, 
{"id": 19099,"ncpdp": "1622174","pharmacy_name": "COSTCO PHARMACY #788","address1": "7205 MILLS CIVIC PARKWAY","address2": "","city": "WEST DES MOINES","state": "IA","zip": "50266","zip+4": "0000","phone": "5152222948","NPI": "     1407966021"}, 
{"id": 19100,"ncpdp": "1622186","pharmacy_name": "CARROLL CLINIC NURSING HOME PH","address1": "405 S CLARK ST","address2": "STE 150A","city": "CARROLL","state": "IA","zip": "51401","zip+4": "0000","phone": "7127923212","NPI": "     1922091925"}, 
{"id": 19101,"ncpdp": "1622198","pharmacy_name": "MERCY NORTH PHARMACY","address1": "800 E 1ST ST","address2": "STE 1800","city": "ANKENY","state": "IA","zip": "50021","zip+4": "0000","phone": "5156437590","NPI": "     1538163399"}, 
{"id": 19102,"ncpdp": "1622213","pharmacy_name": "CENTER PHARMACY","address1": "312 9TH ST SW","address2": "SUITE 1000","city": "WAVERLY","state": "IA","zip": "50677","zip+4": "0000","phone": "3194834100","NPI": "     1326027988"}, 
{"id": 19103,"ncpdp": "1622225","pharmacy_name": "SAMS PHARMACY #108238","address1": "3887 ELMORE AVENUE","address2": "","city": "DAVENPORT","state": "IA","zip": "52807","zip+4": "0000","phone": "5633444232","NPI": "     1093732489"}, 
{"id": 19104,"ncpdp": "1622237","pharmacy_name": "HY VEE PHARMACY #1872","address1": "1311 4TH STREET SW","address2": "","city": "WAVERLY","state": "IA","zip": "50677","zip+4": "0000","phone": "3193522021","NPI": "     1548296122"}, 
{"id": 19105,"ncpdp": "1622249","pharmacy_name": "PAMIDA PHARMACY #130","address1": "2220 HWY 175 W","address2": "","city": "ONAWA","state": "IA","zip": "51040","zip+4": "0149","phone": "7124239648","NPI": "     1265485031"}, 
{"id": 19106,"ncpdp": "1622275","pharmacy_name": "WAL-MART PHARMACY #103394","address1": "1905 EAST 7TH STREET","address2": "","city": "ATLANTIC","state": "IA","zip": "50022","zip+4": "0000","phone": "7122439223","NPI": "     1902823396"}, 
{"id": 19107,"ncpdp": "1622299","pharmacy_name": "SCHNUCKS PHARMACY #745","address1": "858 MIDDLE RD","address2": "","city": "BETTENDORF","state": "IA","zip": "52722","zip+4": "0000","phone": "5633557838","NPI": "     1992731244"}, 
{"id": 19108,"ncpdp": "1622314","pharmacy_name": "TARGET PHARMACY #2041","address1": "5901 DOUGLAS AVE","address2": "","city": "DES MOINES","state": "IA","zip": "50310","zip+4": "0000","phone": "5153310599","NPI": "     1154344471"}, 
{"id": 19109,"ncpdp": "1622338","pharmacy_name": "HY VEE PHARMACY 2 #1863","address1": "2181 LOGAN","address2": "","city": "WATERLOO","state": "IA","zip": "50703","zip+4": "0000","phone": "3192326366","NPI": "     1821024373"}, 
{"id": 19110,"ncpdp": "1622352","pharmacy_name": "HY VEE PHARMACY #1241","address1": "2003 CHATBURN","address2": "PO BOX 719","city": "HARLAN","state": "IA","zip": "51537","zip+4": "0000","phone": "7127552525","NPI": "     1811923469"}, 
{"id": 19111,"ncpdp": "1622376","pharmacy_name": "DEWITT PHARMACY INC","address1": "609 7TH AVE","address2": "","city": "DEWITT","state": "IA","zip": "52742","zip+4": "0000","phone": "5636595042","NPI": "     1205847340"}, 
{"id": 19112,"ncpdp": "1622390","pharmacy_name": "WAL-MART PHARMACY #103630","address1": "5491 BUSINESS HIGHWAY 151","address2": "","city": "MARION","state": "IA","zip": "52302","zip+4": "0000","phone": "3194472870","NPI": "     1639196132"}, 
{"id": 19113,"ncpdp": "1622415","pharmacy_name": "SAMS PHARMACY #108162","address1": "2605 BLAIRS FERRY ROAD NE","address2": "","city": "CEDAR RAPIDS","state": "IA","zip": "52402","zip+4": "0000","phone": "3192949461","NPI": "     1811914203"}, 
{"id": 19114,"ncpdp": "1622453","pharmacy_name": "HY VEE PHARMACY 7 #1064","address1": "5050 EDGEWOOD ROAD","address2": "","city": "CEDAR RAPIDS","state": "IA","zip": "52411","zip+4": "0000","phone": "3192949193","NPI": "     1679509319"}, 
{"id": 19115,"ncpdp": "1622465","pharmacy_name": "HY VEE CLINIC #1504","address1": "301 W JEFFERSON","address2": "","city": "BLOOMFIELD","state": "IA","zip": "52537","zip+4": "0000","phone": "6416642975","NPI": "     1811939119"}, 
{"id": 19116,"ncpdp": "1622489","pharmacy_name": "WALGREEN DRUG STORE #9791","address1": "101 8TH ST SE","address2": "","city": "ALTOONA","state": "IA","zip": "50009","zip+4": "0000","phone": "5159671486","NPI": "     1053326371"}, 
{"id": 19117,"ncpdp": "1622504","pharmacy_name": "HY VEE PHARMACY 4 #1890","address1": "555 SOUTH 51ST STREET","address2": "","city": "WEST DES MOINES","state": "IA","zip": "50265","zip+4": "0000","phone": "5152212751","NPI": "     1457381097"}, 
{"id": 19118,"ncpdp": "1622516","pharmacy_name": "SAMS PHARMACY #106472","address1": "3221 MANAWA SENTRE DRIVE","address2": "","city": "COUNCIL BLUFFS","state": "IA","zip": "51501","zip+4": "0000","phone": "7123667032","NPI": "     1720005119"}, 
{"id": 19119,"ncpdp": "1622528","pharmacy_name": "HY VEE PHARMACY 3 #1162","address1": "400 S LOCUST","address2": "","city": "DUBUQUE","state": "IA","zip": "52003","zip+4": "0000","phone": "5635821143","NPI": "     1861421497"}, 
{"id": 19120,"ncpdp": "1622530","pharmacy_name": "DUTCH MILL CLINIC PHCY","address1": "1000 LINCOLN CIR SE","address2": "","city": "ORANGE CITY","state": "IA","zip": "51041","zip+4": "0000","phone": "7127375347","NPI": "     1972531721"}, 
{"id": 19121,"ncpdp": "1622566","pharmacy_name": "CAREPLUS CVS PHARMACY #03829","address1": "711 HIGH ST","address2": "BLDG 1 THIRD FLOOR","city": "DES MOINES","state": "IA","zip": "50309","zip+4": "0000","phone": "5152448100","NPI": "     1477615904"}, 
{"id": 19122,"ncpdp": "1622578","pharmacy_name": "PELLA REGIONAL HEALTH CENTER","address1": "404 JEFFERSON ST","address2": "","city": "PELLA","state": "IA","zip": "50219","zip+4": "0000","phone": "6416283150","NPI": "     1386794634"}, 
{"id": 19123,"ncpdp": "1622580","pharmacy_name": "CVS PHARMACY #08539","address1": "201 S CLINTON","address2": "","city": "IOWA CITY","state": "IA","zip": "52240","zip+4": "0000","phone": "3193586462","NPI": "     1013951482"}, 
{"id": 19124,"ncpdp": "1622592","pharmacy_name": "CVS PHARMACY #08633","address1": "2314 SPRUCE HILLS DRIVE","address2": "","city": "BETTENDORF","state": "IA","zip": "52722","zip+4": "0000","phone": "5633590374","NPI": "     1922042399"}, 
{"id": 19125,"ncpdp": "1622605","pharmacy_name": "CVS PHARMACY #08544","address1": "2060 CROSSROADS","address2": "","city": "WATERLOO","state": "IA","zip": "50702","zip+4": "0000","phone": "3192356249","NPI": "     1831133206"}, 
{"id": 19126,"ncpdp": "1622629","pharmacy_name": "CVS PHARMACY #08532","address1": "2711 MOUNT VERNON ROAD SE","address2": "","city": "CEDAR RAPIDS","state": "IA","zip": "52403","zip+4": "0000","phone": "3193643051","NPI": "     1659315026"}, 
{"id": 19127,"ncpdp": "1622631","pharmacy_name": "CVS PHARMACY #08538","address1": "2302 W FIRST ST","address2": "","city": "CEDAR FALLS","state": "IA","zip": "50613","zip+4": "0000","phone": "3192775181","NPI": "     1568406932"}, 
{"id": 19128,"ncpdp": "1622643","pharmacy_name": "CVS PHARMACY #08659","address1": "1777 DIVISION ST","address2": "","city": "DAVENPORT","state": "IA","zip": "52804","zip+4": "0000","phone": "5633231074","NPI": "     1477597847"}, 
{"id": 19129,"ncpdp": "1622655","pharmacy_name": "CVS PHARMACY #08546","address1": "2068 LOGAN AVE","address2": "","city": "WATERLOO","state": "IA","zip": "50703","zip+4": "0000","phone": "3192344736","NPI": "     1124069034"}, 
{"id": 19130,"ncpdp": "1622667","pharmacy_name": "CVS PHARMACY #08526","address1": "4116 CENTER POINT RD NE","address2": "","city": "CEDAR RAPIDS","state": "IA","zip": "52402","zip+4": "0000","phone": "3193937480","NPI": "     1386688752"}, 
{"id": 19131,"ncpdp": "1622679","pharmacy_name": "CVS PHARMACY #08658","address1": "1655 WEST KIMBERLY ROAD","address2": "","city": "DAVENPORT","state": "IA","zip": "52806","zip+4": "0000","phone": "5633887856","NPI": "     1194769562"}, 
{"id": 19132,"ncpdp": "1622681","pharmacy_name": "CVS PHARMACY #08547","address1": "2425 MUSCATINE AVENUE","address2": "","city": "IOWA CITY","state": "IA","zip": "52240","zip+4": "0000","phone": "3193581056","NPI": "     1679518674"}, 
{"id": 19133,"ncpdp": "1622693","pharmacy_name": "STANGEL PHARMACY LTC","address1": "821 IOWA AVE","address2": "","city": "ONAWA","state": "IA","zip": "51040","zip+4": "0000","phone": "7124231131","NPI": "     1093856460"}, 
{"id": 19134,"ncpdp": "1622706","pharmacy_name": "DAHLS PHARMACY","address1": "1802N ANKENY BLVD","address2": "","city": "ANKENY","state": "IA","zip": "50023","zip+4": "0000","phone": "5152890911","NPI": "     1316978406"}, 
{"id": 19135,"ncpdp": "1622718","pharmacy_name": "MEDICAP PHARMACY #8403","address1": "702 MONTGOMERY ST","address2": "STE B","city": "DECORAH","state": "IA","zip": "52101","zip+4": "0000","phone": "5633828765","NPI": "     1467569038"}, 
{"id": 19136,"ncpdp": "1622732","pharmacy_name": "TARGET PHARMACY #0878","address1": "2910 1ST AVE S","address2": "","city": "FORT DODGE","state": "IA","zip": "50501","zip+4": "0000","phone": "5155737202","NPI": "     1457392359"}, 
{"id": 19137,"ncpdp": "1622744","pharmacy_name": "WAL-MART PHARMACY #103762","address1": "6365 STAGECOACH DRIVE","address2": "","city": "WEST DE MOINES","state": "IA","zip": "50266","zip+4": "0000","phone": "5154532760","NPI": "     1639196025"}, 
{"id": 19138,"ncpdp": "1622756","pharmacy_name": "PAMIDA PHARMACY #295","address1": "1012 JEFFREYS DR","address2": "","city": "OSCEOLA","state": "IA","zip": "50213","zip+4": "9500","phone": "6413421568","NPI": "     1821033663"}, 
{"id": 19139,"ncpdp": "1622768","pharmacy_name": "IOWA BLOOD AND CANCER CARE","address1": "855 A AVENUE NE","address2": "STE 420","city": "CEDAR RAPIDS","state": "IA","zip": "52402","zip+4": "0000","phone": "3193697091","NPI": "     1528045200"}, 
{"id": 19140,"ncpdp": "1622770","pharmacy_name": "SOMERSET PHARMACY INC","address1": "2709 NORTHRIDGE PARKWAY","address2": "","city": "AMES","state": "IA","zip": "50010","zip+4": "0000","phone": "5152923604","NPI": "     1972521862"}, 
{"id": 19141,"ncpdp": "1622794","pharmacy_name": "WALGREEN DRUG STORE #07996","address1": "2702 SE DELAWARE AVE","address2": "","city": "ANKENY","state": "IA","zip": "50021","zip+4": "0000","phone": "5154736069","NPI": "     1679652655"}, 
{"id": 19142,"ncpdp": "1622833","pharmacy_name": "WALGREEN DRUG STORE #11153","address1": "800 GRAND AVE","address2": "","city": "SPENCER","state": "IA","zip": "51301","zip+4": "0000","phone": "7122620231","NPI": "     1528142627"}, 
{"id": 19143,"ncpdp": "1622845","pharmacy_name": "SERGEANT BLUFF PHARMACY","address1": "110 GAUL DR","address2": "SUITE A","city": "SERGEANT BLUFF","state": "IA","zip": "51054","zip+4": "0000","phone": "7129431494","NPI": "     1275602518"}, 
{"id": 19144,"ncpdp": "1622857","pharmacy_name": "LEWIS FAMILY DRUG #69","address1": "1319 E TENTH STREET","address2": "","city": "ROCK VALLEY","state": "IA","zip": "51247","zip+4": "0000","phone": "7124765405","NPI": "     1316007354"}, 
{"id": 19145,"ncpdp": "1622871","pharmacy_name": "MEDICAP PHARMACY LTC #8405","address1": "404 E EUCLID","address2": "","city": "INDIANOLA","state": "IA","zip": "50125","zip+4": "0000","phone": "5159629399","NPI": "     1306913983"}, 
{"id": 19146,"ncpdp": "1622895","pharmacy_name": "WALGREEN DRUG STORE #10557","address1": "2509 WHITE TAIL DR","address2": "","city": "CEDAR FALLS","state": "IA","zip": "50613","zip+4": "7222","phone": "3195530206","NPI": "     1326190927"}, 
{"id": 19147,"ncpdp": "1622908","pharmacy_name": "SAMS PHARMACY #104973","address1": "4400 ASBURY ROAD","address2": "","city": "DUBUQUE","state": "IA","zip": "52002","zip+4": "0000","phone": "5635870586","NPI": "     1235294356"}, 
{"id": 19148,"ncpdp": "1622934","pharmacy_name": "VALUMED PHARMACY","address1": "224 4TH ST","address2": "STE 100","city": "SIOUX CITY","state": "IA","zip": "51101","zip+4": "0000","phone": "7122244040","NPI": "     1881743698"}, 
{"id": 19149,"ncpdp": "1622958","pharmacy_name": "HY VEE PHARMACY 3 #1056","address1": "20 WILSON AVE SW","address2": "","city": "CEDAR RAPIDS","state": "IA","zip": "52404","zip+4": "0000","phone": "3193623649","NPI": "     1467500439"}, 
{"id": 19150,"ncpdp": "1622972","pharmacy_name": "HY VEE PROFESSIONAL COMPOUNDIN","address1": "800 N 2ND ST STE 2","address2": "","city": "CHEROKEE","state": "IA","zip": "51012","zip+4": "0000","phone": "7122256121","NPI": "     1114045291"}, 
{"id": 19151,"ncpdp": "1622984","pharmacy_name": "HEMATOLOGY MEDICAL ONCOLOGY CO","address1": "1351 W CENTRAL PARK","address2": "","city": "DAVENPORT","state": "IA","zip": "52804","zip+4": "0000","phone": "5634211960","NPI": "     1982663985"}, 
{"id": 19152,"ncpdp": "1622996","pharmacy_name": "HY VEE PHARMACY #1068","address1": "800 N 2ND ST","address2": "","city": "CHEROKEE","state": "IA","zip": "51012","zip+4": "0000","phone": "7122256121","NPI": "     1881811784"}, 
{"id": 19153,"ncpdp": "1623013","pharmacy_name": "PAMIDA PHARMACY #885","address1": "202 SW KENT ST","address2": "","city": "GREENFIELD","state": "IA","zip": "50849","zip+4": "1379","phone": "6417432201","NPI": "     1720112816"}, 
{"id": 19154,"ncpdp": "1623025","pharmacy_name": "WALGREENS DRUG STORE #10770","address1": "105 E SIXTH ST","address2": "","city": "CARROLL","state": "IA","zip": "51401","zip+4": "2418","phone": "7127924566","NPI": "     1073731931"}, 
{"id": 19155,"ncpdp": "1623037","pharmacy_name": "WRIGHTWAY LTC PHARMACY #2","address1": "200 5TH AVE SOUTH","address2": "SUITE 2","city": "CLINTON","state": "IA","zip": "52732","zip+4": "0000","phone": "5632429376","NPI": "     1730394826"}, 
{"id": 19156,"ncpdp": "1623075","pharmacy_name": "PHILCARE PHARMACY","address1": "207 2ND AVE SE STE B","address2": "","city": "CEDAR RAPIDS","state": "IA","zip": "52401","zip+4": "0000","phone": "3192211050","NPI": "     1588867998"}, 
{"id": 19157,"ncpdp": "1623087","pharmacy_name": "RUFFNER PHARMACY","address1": "409 S LOCUST","address2": "","city": "GLENWOOD","state": "IA","zip": "51534","zip+4": "0000","phone": "7125274006","NPI": "     1326242850"}, 
{"id": 19158,"ncpdp": "1623102","pharmacy_name": "MEDICAP PHARMACY #8406","address1": "1206 S LOCUST ST","address2": "","city": "GLENWOOD","state": "IA","zip": "51534","zip+4": "0000","phone": "7125271200","NPI": "     1639372055"}, 
{"id": 19159,"ncpdp": "1623114","pharmacy_name": "LUTZ LONG TERM CARE","address1": "120 8TH ST SE","address2": "STE B","city": "ALTOONA","state": "IA","zip": "50009","zip+4": "0000","phone": "5159674214","NPI": "     1679763957"}, 
{"id": 19160,"ncpdp": "1623126","pharmacy_name": "MEDICAP PHARMACY #8011","address1": "2527 EASTON BLVD","address2": "","city": "DES MOINES","state": "IA","zip": "50317","zip+4": "0000","phone": "5152662694","NPI": "     1679764294"}, 
{"id": 19161,"ncpdp": "1623152","pharmacy_name": "WALGREENS DRUG STORE #11193","address1": "310 STORY ST","address2": "","city": "BOONE","state": "IA","zip": "50036","zip+4": "3530","phone": "5154324093","NPI": "     1427241579"}, 
{"id": 19162,"ncpdp": "1623188","pharmacy_name": "HY VEE CLINIC PHARMACY #1628","address1": "1012 OKLOBOJI AVE","address2": "","city": "MILFORD","state": "IA","zip": "51351","zip+4": "1375","phone": "7123384865","NPI": "     1689860678"}, 
{"id": 19163,"ncpdp": "1623203","pharmacy_name": "HY VEE PHARMACY #1449","address1": "1501 1ST AVE E","address2": "STE 24","city": "NEWTON","state": "IA","zip": "50208","zip+4": "0000","phone": "6417926100","NPI": "     1740478452"}, 
{"id": 19164,"ncpdp": "1623215","pharmacy_name": "REMEDY DRUG INC #1332","address1": "221 8TH AVE","address2": "","city": "WELLMAN","state": "IA","zip": "52356","zip+4": "0000","phone": "3196464466","NPI": "     1558541813"}, 
{"id": 19165,"ncpdp": "1623227","pharmacy_name": "WALGREEN DRUG STORE #10985","address1": "2751 HEARTLAND DR","address2": "","city": "CORALVILLE","state": "IA","zip": "52241","zip+4": "2731","phone": "3195454600","NPI": "     1275722530"}, 
{"id": 19166,"ncpdp": "1623239","pharmacy_name": "HY VEE CLINIC PHARMACY #1634","address1": "606 LAKE AVE","address2": "","city": "STORM LAKE","state": "IA","zip": "50588","zip+4": "1852","phone": "7127325067","NPI": "     1891975033"}, 
{"id": 19167,"ncpdp": "1623241","pharmacy_name": "HY VEE RESSLERS CLINIC PHARMAC","address1": "113 N 3 RD ST","address2": "","city": "LAURENS","state": "IA","zip": "50554","zip+4": "0000","phone": "7128414374","NPI": "     1164602306"}, 
{"id": 19168,"ncpdp": "1623253","pharmacy_name": "CORNERSTONE APOTHECARY","address1": "122 MAIN ST","address2": "","city": "VAN HORNE","state": "IA","zip": "52346","zip+4": "0000","phone": "3192288100","NPI": "     1518148956"}, 
{"id": 19169,"ncpdp": "1623289","pharmacy_name": "WALGREEN DRUG STORE #11330","address1": "800 LAKE AVE","address2": "","city": "STORM LAKE","state": "IA","zip": "50588","zip+4": "2055","phone": "7127320005","NPI": "     1699956672"}, 
{"id": 19170,"ncpdp": "1623291","pharmacy_name": "HY VEE DRUGSTORE CLINIC PHARMA","address1": "50 NORTH MAIN ST","address2": "","city": "FAIRFIELD","state": "IA","zip": "52556","zip+4": "3296","phone": "6414722122","NPI": "     1336321140"}, 
{"id": 19171,"ncpdp": "1623316","pharmacy_name": "HY VEE RX PHARMACY","address1": "409 W 5TH ST","address2": "","city": "STORM LAKE","state": "IA","zip": "50588","zip+4": "1725","phone": "7127324819","NPI": "     1205010519"}, 
{"id": 19172,"ncpdp": "1623328","pharmacy_name": "HYVEE CLINIC COMPOUNDING CENTE","address1": "606 LAKE AVE","address2": "SUITE A","city": "STORM LAKE","state": "IA","zip": "50588","zip+4": "0000","phone": "7127325067","NPI": "     1659555225"}, 
{"id": 19173,"ncpdp": "1623330","pharmacy_name": "HY VEE PHARMACY #1619","address1": "1208 W NISHNA ROAD","address2": "","city": "SHENANDOAH","state": "IA","zip": "51601","zip+4": "0000","phone": "7122463440","NPI": "     1952586976"}, 
{"id": 19174,"ncpdp": "1623354","pharmacy_name": "CHARLES CITY LONG TERM CARE PH","address1": "1203 N GRAND AVENUE","address2": "","city": "CHARLES CITY","state": "IA","zip": "50616","zip+4": "0000","phone": "6412283196","NPI": "     1184802449"}, 
{"id": 19175,"ncpdp": "1623366","pharmacy_name": "WAL-MART PHARMACY #104256","address1": "534 SO DUFF AVE","address2": "","city": "AMES","state": "IA","zip": "50010","zip+4": "0000","phone": "5159563547","NPI": "     1841472578"}, 
{"id": 19176,"ncpdp": "1623405","pharmacy_name": "WAL-MART PHARMACY #104606","address1": "2400 COLLEGE DRIVE","address2": "","city": "OSCEOLA","state": "IA","zip": "50213","zip+4": "0000","phone": "6413421662","NPI": "     1720264179"}, 
{"id": 19177,"ncpdp": "1623417","pharmacy_name": "BEANS PHARMACY","address1": "222 S IOWA AVENUE","address2": "","city": "WASHINGTON","state": "IA","zip": "52353","zip+4": "0000","phone": "3196534646","NPI": "     1053580746"}, 
{"id": 19178,"ncpdp": "1623429","pharmacy_name": "PLEASANTVILLE CLINIC","address1": "104 N WASHINGTON ST","address2": "","city": "PLEASANTVILLE","state": "IA","zip": "50225","zip+4": "0000","phone": "5158483113","NPI": "     1578735429"}, 
{"id": 19179,"ncpdp": "1623431","pharmacy_name": "MARTIN HEALTH SERVICES INC #2","address1": "5550 JOHNSTON DRIVE","address2": "STE B C","city": "JOHNSTON","state": "IA","zip": "50131","zip+4": "0000","phone": "5153312594","NPI": "     1699949560"}, 
{"id": 19180,"ncpdp": "1623443","pharmacy_name": "HEMATOLOGY AND ONCOLOGY CARE","address1": "1409 E KIMBERLY RD","address2": "STE 100","city": "DAVENPORT","state": "IA","zip": "52807","zip+4": "0000","phone": "5633599876","NPI": "     1306027164"}, 
{"id": 19181,"ncpdp": "1623479","pharmacy_name": "MERWIN LTC PHARMACY","address1": "1555 SE DELAWARE AVE","address2": "STE R","city": "ANKENY","state": "IA","zip": "50021","zip+4": "0000","phone": "5159631640","NPI": "     1538329180"}, 
{"id": 19182,"ncpdp": "1623481","pharmacy_name": "WALGREEN DRUG STORE #10855","address1": "1850 LOGAN AVENUE","address2": "","city": "WATERLOO","state": "IA","zip": "50703","zip+4": "0000","phone": "3192967761","NPI": "     1699934562"}, 
{"id": 19183,"ncpdp": "1623493","pharmacy_name": "REMEDY DRUG INC #2","address1": "323 E MAIN","address2": "","city": "MONTEZUMA","state": "IA","zip": "50171","zip+4": "0000","phone": "6416235710","NPI": "     1871759662"}, 
{"id": 19184,"ncpdp": "1623506","pharmacy_name": "PAMIDA PHARMACY #697","address1": "100 N MAIN ST","address2": "","city": "SIGOURNEY","state": "IA","zip": "52591","zip+4": "0000","phone": "6416223184","NPI": "     1891944187"}, 
{"id": 19185,"ncpdp": "1623518","pharmacy_name": "THOMPSON AND THOMSPON LONG TER","address1": "222 S. IOWA AVE","address2": "STE B","city": "WASHINGTON","state": "IA","zip": "52353","zip+4": "0000","phone": "3196531043","NPI": "     1265682256"}, 
{"id": 19186,"ncpdp": "1623520","pharmacy_name": "MEDICAP PHARMACY #8347","address1": "2804 BEAVER AVE","address2": "","city": "DES MOINES","state": "IA","zip": "50310","zip+4": "0000","phone": "5152773702","NPI": "     1942452230"}, 
{"id": 19187,"ncpdp": "1623532","pharmacy_name": "KNOXVILLE AREA COMMUNITY HOSPI","address1": "1002 SOUTH LINCOLN STREET","address2": "","city": "KNOXVILLE","state": "IA","zip": "50138","zip+4": "0000","phone": "6418422151","NPI": "     1205081791"}, 
{"id": 19188,"ncpdp": "1623544","pharmacy_name": "CARE INITIATIVES PHARMACY","address1": "2165 NW 108TH STREET","address2": "STE E","city": "CLIVE","state": "IA","zip": "50325","zip+4": "0000","phone": "5152244442","NPI": "     1841435823"}, 
{"id": 19189,"ncpdp": "1623556","pharmacy_name": "HY-VEE PHARMACY #1071","address1": "201 S 16TH STREET","address2": "","city": "CLARINDA","state": "IA","zip": "51632","zip+4": "0000","phone": "7125426546","NPI": "     1972748861"}, 
{"id": 19190,"ncpdp": "1623568","pharmacy_name": "TARGET PHARMACY #2454","address1": "3804 METRO DR","address2": "","city": "COUNCIL BLUFFS","state": "IA","zip": "51501","zip+4": "0000","phone": "7123093381","NPI": "     1407092844"}, 
{"id": 19191,"ncpdp": "1623570","pharmacy_name": "NO FRILLS PHARMACY #1","address1": "1817 WEST BROADWAY","address2": "","city": "COUNCIL BLUFFS","state": "IA","zip": "51501","zip+4": "0000","phone": "7123298976","NPI": "     1467690958"}, 
{"id": 19192,"ncpdp": "1623582","pharmacy_name": "NORTHWEST FAMILY PHARMACY #6","address1": "75 SHORT ST. NW","address2": "","city": "CEDAR RAPIDS","state": "IA","zip": "52405","zip+4": "0000","phone": "3193963395","NPI": "     1184862211"}, 
{"id": 19193,"ncpdp": "1623594","pharmacy_name": "NO FRILLS PHARMACY #6","address1": "1801 VALLEY VIEW DRIVE","address2": "","city": "COUNCIL BLUFFS","state": "IA","zip": "51503","zip+4": "0000","phone": "7123298990","NPI": "     1285872770"}, 
{"id": 19194,"ncpdp": "1623607","pharmacy_name": "ZEARING MEDICAL CLINIC","address1": "112 WEST MAIN ST","address2": "","city": "ZEARING","state": "IA","zip": "50278","zip+4": "0000","phone": "6414877779","NPI": "     1104064773"}, 
{"id": 19195,"ncpdp": "1623619","pharmacy_name": "WALGREENS #11759","address1": "2639 AVENUE L","address2": "","city": "FORT MADISON","state": "IA","zip": "52627","zip+4": "3840","phone": "3193728794","NPI": "     1760620918"}, 
{"id": 19196,"ncpdp": "1623621","pharmacy_name": "SHOPKO PHARMACY #180","address1": "3271 MARKETPLACE DR","address2": "","city": "COUNCIL BLUFFS","state": "IA","zip": "51501","zip+4": "0000","phone": "7123660377","NPI": "     1700042884"}, 
{"id": 19197,"ncpdp": "1623633","pharmacy_name": "CHEROKEE MAIN STREET PHARMACY","address1": "206 W MAIN ST","address2": "","city": "CHEROKEE","state": "IA","zip": "51012","zip+4": "0000","phone": "7122252320","NPI": "     1124268396"}, 
{"id": 19198,"ncpdp": "1623645","pharmacy_name": "CORNERSTONE APOTHECARY #2","address1": "1099 COURT AVE","address2": "","city": "MARENGO","state": "IA","zip": "52301","zip+4": "0000","phone": "3197416300","NPI": "     1457590879"}, 
{"id": 19199,"ncpdp": "1623657","pharmacy_name": "WALGREENS #11942","address1": "345 E 20TH ST","address2": "","city": "DUBUQUE","state": "IA","zip": "52001","zip+4": "3514","phone": "5636901836","NPI": "     1568605970"}, 
{"id": 19200,"ncpdp": "1623669","pharmacy_name": "TARGET PHARMACY #2526","address1": "214 VIKING PLAZA DR","address2": "","city": "CEDAR FALLS","state": "IA","zip": "50613","zip+4": "6936","phone": "3195531121","NPI": "     1578798690"}, 
{"id": 19201,"ncpdp": "1623671","pharmacy_name": "WALGREENS #12148","address1": "320 W BREMER AVE","address2": "","city": "WAVERLY","state": "IA","zip": "50677","zip+4": "3102","phone": "3195961085","NPI": "     1215164157"}, 
{"id": 19202,"ncpdp": "1623695","pharmacy_name": "M&M CARE","address1": "918 W. PLATT ST.","address2": "SUITE #3","city": "MAQUOKETA","state": "IA","zip": "52060","zip+4": "0000","phone": "5636525611","NPI": "     1821256041"}, 
{"id": 59457,"ncpdp": "9000063","pharmacy_name": "DAHLS FOODS","address1": "4343 MERLE HAY ROAD","address2": "","city": "DES MOINES","state": "IA","zip": "50310","zip+4": "1411","phone": "5152764845","NPI": ""}, 
{"id": 59463,"ncpdp": "9000081","pharmacy_name": "HARTIG DRUG CO., INC.","address1": "703 TOWN CLOCK PLAZA","address2": "","city": "DUBUQUE","state": "IA","zip": "52004","zip+4": "0709","phone": "3195888700","NPI": ""}, 
{"id": 59525,"ncpdp": "9000594","pharmacy_name": "HY-VEE FOOD STORES INC","address1": "5820 WESTOWN PKWY","address2": "","city": "W DES MOINES","state": "IA","zip": "50266","zip+4": "0000","phone": "5152672800","NPI": ""}, 
