{"id": 21878,"ncpdp": "2000139","pharmacy_name": "COLONIAL PHARMACY","address1": "40 DOCK SQUARE","address2": "","city": "KENNEBUNKPORT","state": "ME","zip": "04046","zip+4": "0646","phone": "2079674442","NPI": "     1013041557"}, 
{"id": 21879,"ncpdp": "2000204","pharmacy_name": "MILLER DRUG","address1": "210 STATE ST","address2": "","city": "BANGOR","state": "ME","zip": "04401","zip+4": "0000","phone": "2079478369","NPI": "     1649281155"}, 
{"id": 21880,"ncpdp": "2000216","pharmacy_name": "CITY DRUG STORE","address1": "172 ACADEMY ST","address2": "","city": "PRESQUE ISLE","state": "ME","zip": "04769","zip+4": "3145","phone": "2077644424","NPI": "     1043306939"}, 
{"id": 21881,"ncpdp": "2000230","pharmacy_name": "CVS PHARMACY #00329","address1": "87 AUBURN STREET","address2": "","city": "PORTLAND","state": "ME","zip": "04103","zip+4": "0000","phone": "2077973393","NPI": "     1427152347"}, 
{"id": 21882,"ncpdp": "2000812","pharmacy_name": "MARS HILL PHARMACY INC","address1": "106 MAIN ST","address2": "","city": "MARS HILL","state": "ME","zip": "04758","zip+4": "1019","phone": "2074254431","NPI": "     1114949112"}, 
{"id": 21883,"ncpdp": "2000925","pharmacy_name": "HANNAFORD FOOD AND DRUG #389","address1": "107 WELLS PLAZA US ROUTE 1","address2": "","city": "WELLS","state": "ME","zip": "04090","zip+4": "0000","phone": "2076462622","NPI": "     1568570943"}, 
{"id": 21884,"ncpdp": "2000951","pharmacy_name": "MEDICAL CENTER PHARMACY","address1": "121 MEDICAL CENTER DR","address2": "STE G500","city": "BRUNSWICK","state": "ME","zip": "04011","zip+4": "3288","phone": "2077293642","NPI": "     1063445625"}, 
{"id": 21885,"ncpdp": "2001028","pharmacy_name": "BEDARD PHARMACY","address1": "61 COLLEGE ST","address2": "","city": "LEWISTON","state": "ME","zip": "04240","zip+4": "6805","phone": "2077860138","NPI": "     1629048509"}, 
{"id": 21886,"ncpdp": "2001220","pharmacy_name": "UNITY PHARMACY #1","address1": "33 PLAZA DR","address2": "","city": "UNITY","state": "ME","zip": "04988","zip+4": "0143","phone": "2079483950","NPI": "     1497895932"}, 
{"id": 21887,"ncpdp": "2001244","pharmacy_name": "GOODNOWS PHARMACY","address1": "58 PARK ST.","address2": "","city": "ROCKLAND","state": "ME","zip": "04841","zip+4": "0000","phone": "2075945131","NPI": "     1699710806"}, 
{"id": 21888,"ncpdp": "2001270","pharmacy_name": "E W MOORE AND SON PHARMACY","address1": "337 MAIN ST","address2": "","city": "BINGHAM","state": "ME","zip": "04920","zip+4": "0614","phone": "2076723312","NPI": "     1609928605"}, 
{"id": 21889,"ncpdp": "2001357","pharmacy_name": "TAYLORS DRUG STORE","address1": "2 OLD POINT","address2": "","city": "MADISON","state": "ME","zip": "04950","zip+4": "0000","phone": "2076963935","NPI": "     1366509655"}, 
{"id": 21890,"ncpdp": "2001434","pharmacy_name": "WILSONS DRUG STORE","address1": "114 FRONT ST","address2": "","city": "BATH","state": "ME","zip": "04530","zip+4": "2607","phone": "2074428786","NPI": "     1912089707"}, 
{"id": 21891,"ncpdp": "2001624","pharmacy_name": "WALTZ PHARMACY INC","address1": "167 MAIN ST","address2": "","city": "DAMARISCOTTA","state": "ME","zip": "04543","zip+4": "0000","phone": "2075633128","NPI": "     1689732034"}, 
{"id": 21892,"ncpdp": "2001713","pharmacy_name": "HOWARDS REXALL DRUG","address1": "180 MAIN ST","address2": "","city": "FARMINGTON","state": "ME","zip": "04938","zip+4": "0591","phone": "2077782695","NPI": "     1851335954"}, 
{"id": 21893,"ncpdp": "2001775","pharmacy_name": "HARRIS DRUG","address1": "10 PRITHAM AVE","address2": "","city": "GREENVILLE","state": "ME","zip": "04441","zip+4": "0000","phone": "2076952921","NPI": "     1528196219"}, 
{"id": 21894,"ncpdp": "2002020","pharmacy_name": "PATTEN DRUG COMPANY","address1": "124 MAIN ST","address2": "","city": "PATTEN","state": "ME","zip": "04765","zip+4": "0000","phone": "2075282244","NPI": "     1447317821"}, 
{"id": 21895,"ncpdp": "2002195","pharmacy_name": "CARROLL DRUG STORE","address1": "3 VILLAGE GREEN WAY","address2": "PO BOX 1306","city": "SOUTHWEST HARBOR","state": "ME","zip": "04679","zip+4": "1306","phone": "2072445588","NPI": "     1750463808"}, 
{"id": 21896,"ncpdp": "2002258","pharmacy_name": "WALTZ PHARMACY INC","address1": "5 FRIENDSHIP ST","address2": "","city": "WALDOBORO","state": "ME","zip": "04572","zip+4": "0818","phone": "2078325511","NPI": "     1285792655"}, 
{"id": 21897,"ncpdp": "2002335","pharmacy_name": "SOUTH BERWICK PHARMACY","address1": "289 MAIN ST","address2": "","city": "SOUTH BERWICK","state": "ME","zip": "03908","zip+4": "1504","phone": "2073842772","NPI": "     1558400671"}, 
{"id": 21898,"ncpdp": "2002373","pharmacy_name": "HANNAFORD FOOD AND DRUG #390","address1": "800 MAIN STREET","address2": "","city": "SANFORD","state": "ME","zip": "04073","zip+4": "0000","phone": "2073243450","NPI": "     1477661858"}, 
{"id": 21899,"ncpdp": "2002412","pharmacy_name": "HANNAFORD FOOD AND DRUG #155","address1": "843 CENTRAL ST","address2": "","city": "MILLINOCKET","state": "ME","zip": "04462","zip+4": "0000","phone": "2077238148","NPI": "     1386752764"}, 
{"id": 21900,"ncpdp": "2002614","pharmacy_name": "VARIETY DRUG","address1": "78 WATER ST","address2": "","city": "SKOWHEGAN","state": "ME","zip": "04976","zip+4": "1716","phone": "2074743393","NPI": "     1285713958"}, 
{"id": 21901,"ncpdp": "2002626","pharmacy_name": "CVS PHARMACY #01288","address1": "147 BATH RD ROUTE 24","address2": "MERRYMEETING PLAZA","city": "BRUNSWICK","state": "ME","zip": "04011","zip+4": "0000","phone": "2077298587","NPI": "     1245334168"}, 
{"id": 21902,"ncpdp": "2002652","pharmacy_name": "HANNAFORD FOOD AND DRUG #350","address1": "99 MAIN ST","address2": "","city": "GORHAM","state": "ME","zip": "04038","zip+4": "0000","phone": "2078396551","NPI": "     1295843688"}, 
{"id": 21903,"ncpdp": "2002842","pharmacy_name": "CVS PHARMACY #00156","address1": "10 EAST AVENUE LEWISTON SC","address2": "","city": "LEWISTON","state": "ME","zip": "04240","zip+4": "0000","phone": "2077839134","NPI": "     1477650950"}, 
{"id": 21904,"ncpdp": "2002943","pharmacy_name": "CVS PHARMACY #00378","address1": "770 ROOSEVELT TRAIL ROUTE 302","address2": "SHAWS PLAZA","city": "WINDHAM","state": "ME","zip": "04062","zip+4": "0000","phone": "2078922541","NPI": "     1063516987"}, 
{"id": 21905,"ncpdp": "2002981","pharmacy_name": "CVS PHARMACY #00454","address1": "510 CONGRESS STREET","address2": "","city": "PORTLAND","state": "ME","zip": "04101","zip+4": "0000","phone": "2077744525","NPI": "     1881798700"}, 
{"id": 21906,"ncpdp": "2003135","pharmacy_name": "YORK HOSPITAL APOTHECARY","address1": "15 HOSPITAL DR","address2": "","city": "YORK","state": "ME","zip": "03909","zip+4": "1099","phone": "2073512150","NPI": "     1356478903"}, 
{"id": 21907,"ncpdp": "2003159","pharmacy_name": "CVS PHARMACY #00608","address1": "1096 BRIGHTON AVENUE","address2": "PINE TREE SHOPPING CTR","city": "PORTLAND","state": "ME","zip": "04102","zip+4": "0000","phone": "2077726201","NPI": "     1386741866"}, 
{"id": 21908,"ncpdp": "2003349","pharmacy_name": "HANNAFORD FOOD AND DRUG #265","address1": "692 SABATTUS ST","address2": "","city": "LEWISTON","state": "ME","zip": "04240","zip+4": "0000","phone": "2077860122","NPI": "     1104934595"}, 
{"id": 21909,"ncpdp": "2003387","pharmacy_name": "HEBERT REXALL PHARMACY","address1": "74 MAIN ST","address2": "","city": "VAN BUREN","state": "ME","zip": "04785","zip+4": "0000","phone": "2078682242","NPI": "     1093889511"}, 
{"id": 21910,"ncpdp": "2003399","pharmacy_name": "CVS PHARMACY #00620","address1": "1 KENNEDY MEMORIAL DRIVE","address2": "","city": "WATERVILLE","state": "ME","zip": "04901","zip+4": "0000","phone": "2078737161","NPI": "     1508960428"}, 
{"id": 21911,"ncpdp": "2003565","pharmacy_name": "HANNAFORD FOOD AND DRUG #351","address1": "295 FOREST AVE","address2": "","city": "PORTLAND","state": "ME","zip": "04101","zip+4": "0000","phone": "2077615967","NPI": "     1013025402"}, 
{"id": 21912,"ncpdp": "2003589","pharmacy_name": "HANNAFORD FOOD AND DRUG #138","address1": "532 MAIN ST","address2": "","city": "SACO","state": "ME","zip": "04072","zip+4": "0000","phone": "2072824131","NPI": "     1922116318"}, 
{"id": 21913,"ncpdp": "2003604","pharmacy_name": "MEDICINE SHOPPE PHARMACY #0550","address1": "373 SABATTUS ST","address2": "","city": "LEWISTON","state": "ME","zip": "04240","zip+4": "5429","phone": "2077833539","NPI": "     1821034760"}, 
{"id": 21914,"ncpdp": "2003680","pharmacy_name": "CVS PHARMACY #00800","address1": "CAPITOL ST","address2": "","city": "AUGUSTA","state": "ME","zip": "04330","zip+4": "0000","phone": "2076231170","NPI": "     1437250990"}, 
{"id": 21915,"ncpdp": "2003692","pharmacy_name": "CVS PHARMACY #00801","address1": "1 CHANDLER DR","address2": "SUITE 27","city": "BATH","state": "ME","zip": "04530","zip+4": "0000","phone": "2074433307","NPI": "     1235233156"}, 
{"id": 21916,"ncpdp": "2003705","pharmacy_name": "CVS PHARMACY #00523","address1": "797 MAIN ST STE D","address2": "","city": "SANFORD","state": "ME","zip": "04073","zip+4": "0000","phone": "2073243110","NPI": "     1053415976"}, 
{"id": 21917,"ncpdp": "2003717","pharmacy_name": "CVS PHARMACY #00803","address1": "870 MAIN STREET","address2": "","city": "WESTBROOK","state": "ME","zip": "04092","zip+4": "0000","phone": "2078548443","NPI": "     1871697797"}, 
{"id": 21918,"ncpdp": "2003729","pharmacy_name": "CVS PHARMACY #00804","address1": "1406 CONGRESS STREET WEST GATE","address2": "","city": "PORTLAND","state": "ME","zip": "04102","zip+4": "0000","phone": "2077733636","NPI": "     1194822676"}, 
{"id": 21919,"ncpdp": "2003731","pharmacy_name": "CVS PHARMACY #00805","address1": "335 OCEAN HOUSE ROAD","address2": "","city": "CAPE ELIZABETH","state": "ME","zip": "04107","zip+4": "0000","phone": "2077991113","NPI": "     1407950322"}, 
{"id": 21920,"ncpdp": "2003743","pharmacy_name": "CVS PHARMACY #00806","address1": "199 OCEAN STREET MILL CREEK S/","address2": "","city": "SO PORTLAND","state": "ME","zip": "04106","zip+4": "0000","phone": "2077998166","NPI": "     1003913583"}, 
{"id": 21921,"ncpdp": "2003767","pharmacy_name": "CVS PHARMACY #00374","address1": "449 FOREST AVENUE","address2": "","city": "PORTLAND","state": "ME","zip": "04101","zip+4": "0000","phone": "2077721928","NPI": "     1134223050"}, 
{"id": 21922,"ncpdp": "2003894","pharmacy_name": "HANNAFORD FOOD AND DRUG #347","address1": "95 SPRING ST","address2": "","city": "AUBURN","state": "ME","zip": "04210","zip+4": "0000","phone": "2077830661","NPI": "     1831207224"}, 
{"id": 21923,"ncpdp": "2004000","pharmacy_name": "HANNAFORD FOOD AND DRUG #238","address1": "190 JFK PLAZA KENNEDY MEMORIAL","address2": "","city": "WATERVILLE","state": "ME","zip": "04901","zip+4": "0000","phone": "2078722182","NPI": "     1740398130"}, 
{"id": 21924,"ncpdp": "2004048","pharmacy_name": "HANNAFORD FOOD AND DRUG #188","address1": "756 ROUTE 1 SHOPPERS VILLAGE","address2": "","city": "YARMOUTH","state": "ME","zip": "04096","zip+4": "0000","phone": "2078465251","NPI": "     1659489045"}, 
{"id": 21925,"ncpdp": "2004125","pharmacy_name": "HANNAFORD FOOD AND DRUG #230","address1": "75 MAVERICK ST","address2": "","city": "ROCKLAND","state": "ME","zip": "04841","zip+4": "0000","phone": "2075966389","NPI": "     1568570950"}, 
{"id": 21926,"ncpdp": "2004199","pharmacy_name": "MARTIN\'S POINT HEALTH CARE POR","address1": "331 VERANDA ST","address2": "","city": "PORTLAND","state": "ME","zip": "04104","zip+4": "0000","phone": "2077913756","NPI": "     1760442156"}, 
{"id": 21927,"ncpdp": "2004240","pharmacy_name": "HANNAFORD FOOD AND DRUG #387","address1": "415 PHILBROOK AVENUE","address2": "","city": "SO PORTLAND","state": "ME","zip": "04106","zip+4": "0000","phone": "2077720758","NPI": "     1477661866"}, 
{"id": 21928,"ncpdp": "2004288","pharmacy_name": "RIVERSIDE PHARMACY","address1": "431 STATE ST","address2": "","city": "BANGOR","state": "ME","zip": "04401","zip+4": "0000","phone": "2079738888","NPI": "     1407951676"}, 
{"id": 21929,"ncpdp": "2004339","pharmacy_name": "HANNAFORD FOOD AND DRUG #223","address1": "7 HANNAFORD DRIVE","address2": "","city": "WESTBROOK","state": "ME","zip": "04092","zip+4": "0000","phone": "2078541294","NPI": "     1386752772"}, 
{"id": 21930,"ncpdp": "2004341","pharmacy_name": "HANNAFORD FOOD AND DRUG #225","address1": "299 ELM STREET","address2": "","city": "BIDDEFORD","state": "ME","zip": "04005","zip+4": "0000","phone": "2072830409","NPI": "     1194833582"}, 
{"id": 21931,"ncpdp": "2004377","pharmacy_name": "TREWORGY PHARMACY","address1": "333 MAIN ST","address2": "","city": "CALAIS","state": "ME","zip": "04619","zip+4": "0809","phone": "2074543100","NPI": "     1013053628"}, 
{"id": 21932,"ncpdp": "2004389","pharmacy_name": "DAVIS PHARMACY","address1": "59 MAIN ST","address2": "","city": "E MILLINOCKET","state": "ME","zip": "04430","zip+4": "1126","phone": "2077463721","NPI": "     1114083094"}, 
{"id": 21933,"ncpdp": "2004404","pharmacy_name": "HANNAFORD FOOD AND DRUG #187","address1": "49 TOPSHAM FAIR MALL ROAD SUIT","address2": "","city": "TOPSHAM","state": "ME","zip": "04086","zip+4": "0000","phone": "2077293800","NPI": "     1003924499"}, 
{"id": 21934,"ncpdp": "2004579","pharmacy_name": "HANNAFORD FOOD AND DRUG #123","address1": "225 HIGH STREET SUITE 1","address2": "","city": "ELLSWORTH","state": "ME","zip": "04605","zip+4": "0000","phone": "2076673732","NPI": "     1912015306"}, 
{"id": 21935,"ncpdp": "2004620","pharmacy_name": "MILBRIDGE PHARMACY","address1": "11 MAIN STREET","address2": "","city": "MILBRIDGE","state": "ME","zip": "04658","zip+4": "0458","phone": "2075462304","NPI": "     1790824571"}, 
{"id": 21936,"ncpdp": "2004682","pharmacy_name": "HANNAFORD FOOD AND DRUG #349","address1": "111 OSSIPEE TRAIL COLONIAL MAR","address2": "","city": "STANDISH","state": "ME","zip": "04084","zip+4": "0000","phone": "2076425544","NPI": "     1821106212"}, 
{"id": 21937,"ncpdp": "2004694","pharmacy_name": "HANNAFORD FOOD AND DRUG #342","address1": "31 HANNAFORD DRIVE","address2": "","city": "SCARBOROUGH","state": "ME","zip": "04074","zip+4": "0000","phone": "2078837674","NPI": "     1730297128"}, 
{"id": 21938,"ncpdp": "2004707","pharmacy_name": "RITE AID PHARMACY #03280","address1": "51 MARKET STREET","address2": "","city": "SOUTH PORTLAND","state": "ME","zip": "04106","zip+4": "3617","phone": "2077992261","NPI": "     1144391541"}, 
{"id": 21939,"ncpdp": "2004721","pharmacy_name": "RITE AID PHARMACY #03286","address1": "335 ALFRED STREET","address2": "","city": "BIDDEFORD","state": "ME","zip": "04005","zip+4": "3128","phone": "2072821577","NPI": "     1558432955"}, 
{"id": 21940,"ncpdp": "2004733","pharmacy_name": "RITE AID PHARMACY #03292","address1": "81 MAIN STREET","address2": "","city": "LIVERMORE FALLS","state": "ME","zip": "04254","zip+4": "1510","phone": "2078976781","NPI": "     1972674380"}, 
{"id": 21941,"ncpdp": "2004745","pharmacy_name": "RITE AID PHARMACY #03293","address1": "226 UNION STREET","address2": "","city": "BANGOR","state": "ME","zip": "04401","zip+4": "6160","phone": "2079420515","NPI": "     1689745093"}, 
{"id": 21942,"ncpdp": "2004757","pharmacy_name": "RITE AID PHARMACY #03295","address1": "302 MAIN STREET","address2": "","city": "OLD TOWN","state": "ME","zip": "04468","zip+4": "1535","phone": "2078278021","NPI": "     1992876312"}, 
{"id": 21943,"ncpdp": "2004769","pharmacy_name": "RITE AID PHARMACY #03296","address1": "713 BROADWAY","address2": "","city": "BANGOR","state": "ME","zip": "04401","zip+4": "3225","phone": "2079425521","NPI": "     1013081777"}, 
{"id": 21944,"ncpdp": "2004783","pharmacy_name": "RITE AID PHARMACY #03298","address1": "713 CONGRESS STREET WEST","address2": "","city": "PORTLAND","state": "ME","zip": "04102","zip+4": "3303","phone": "2077748456","NPI": "     1811061575"}, 
{"id": 21945,"ncpdp": "2004795","pharmacy_name": "RITE AID PHARMACY #03300","address1": "315 MAIN STREET","address2": "","city": "LEWISTON","state": "ME","zip": "04240","zip+4": "7025","phone": "2077832011","NPI": "     1053482372"}, 
{"id": 21946,"ncpdp": "2004808","pharmacy_name": "RITE AID PHARMACY #03301","address1": "430 SABATTUS STREET","address2": "","city": "LEWISTON","state": "ME","zip": "04240","zip+4": "5430","phone": "2077832013","NPI": "     1346314002"}, 
{"id": 21947,"ncpdp": "2004846","pharmacy_name": "RITE AID PHARMACY #03307","address1": "400 US RT 1","address2": "","city": "YORK","state": "ME","zip": "03909","zip+4": "1148","phone": "2073634312","NPI": "     1982775227"}, 
{"id": 21948,"ncpdp": "2004858","pharmacy_name": "RITE AID PHARMACY #03308","address1": "2007 NORTH BELFAST AVENUE","address2": "","city": "AUGUSTA","state": "ME","zip": "04330","zip+4": "4363","phone": "2076222626","NPI": "     1497826747"}, 
{"id": 21949,"ncpdp": "2004872","pharmacy_name": "RITE AID PHARMACY #03277","address1": "290 CONGRESS STREET","address2": "","city": "PORTLAND","state": "ME","zip": "04101","zip+4": "3637","phone": "2077740344","NPI": "     1245301639"}, 
{"id": 21950,"ncpdp": "2004884","pharmacy_name": "RITE AID PHARMACY #03279","address1": "422 WILSON STREET","address2": "","city": "BREWER","state": "ME","zip": "04412","zip+4": "1415","phone": "2079896238","NPI": "     1346311743"}, 
{"id": 21951,"ncpdp": "2004896","pharmacy_name": "RITE AID PHARMACY #03281","address1": "144 DUBLIN STREET","address2": "","city": "MACHIAS","state": "ME","zip": "04654","zip+4": "3409","phone": "2072553458","NPI": "     1396816799"}, 
{"id": 21952,"ncpdp": "2004909","pharmacy_name": "RITE AID PHARMACY #03287","address1": "260 HIGH STREET","address2": "","city": "ELLSWORTH","state": "ME","zip": "04605","zip+4": "1716","phone": "2076674644","NPI": "     1184795593"}, 
{"id": 21953,"ncpdp": "2004935","pharmacy_name": "RITE AID PHARMACY #03278","address1": "33 DEPOT RD","address2": "","city": "FALMOUTH","state": "ME","zip": "04105","zip+4": "1380","phone": "2077814414","NPI": "     1124199518"}, 
{"id": 21954,"ncpdp": "2004947","pharmacy_name": "RITE AID PHARMACY #03294","address1": "188 SPRING STREET","address2": "","city": "DEXTER","state": "ME","zip": "04930","zip+4": "1312","phone": "2079247000","NPI": "     1477624880"}, 
{"id": 21955,"ncpdp": "2004959","pharmacy_name": "RITE AID PHARMACY #03299","address1": "36 MOOSEHEAD TRAIL","address2": "","city": "NEWPORT","state": "ME","zip": "04953","zip+4": "9802","phone": "2073685754","NPI": "     1902977226"}, 
{"id": 21956,"ncpdp": "2004961","pharmacy_name": "RITE AID PHARMACY #03306","address1": "478 ROUTE 1","address2": "","city": "YARMOUTH","state": "ME","zip": "04096","zip+4": "6735","phone": "2078461222","NPI": "     1538230867"}, 
{"id": 21957,"ncpdp": "2004973","pharmacy_name": "RITE AID PHARMACY #03309","address1": "37 PORTLAND ROAD","address2": "","city": "KENNEBUNK","state": "ME","zip": "04043","zip+4": "1629","phone": "2079857144","NPI": "     1508937871"}, 
{"id": 21958,"ncpdp": "2005002","pharmacy_name": "WAL-MART PHARMACY #101788","address1": "500 GALLERY BLVD","address2": "","city": "SCARBOROUGH","state": "ME","zip": "04074","zip+4": "0000","phone": "2078855191","NPI": "     1225055593"}, 
{"id": 21959,"ncpdp": "2005014","pharmacy_name": "HANNAFORD FOOD AND DRUG #239","address1": "29 WHITTEN ROAD","address2": "","city": "AUGUSTA","state": "ME","zip": "04330","zip+4": "0000","phone": "2076223148","NPI": "     1649388034"}, 
{"id": 21960,"ncpdp": "2005040","pharmacy_name": "WAL-MART PHARMACY #101797","address1": "265 CAMDEN STREET","address2": "","city": "ROCKLAND","state": "ME","zip": "04841","zip+4": "0000","phone": "2075961060","NPI": "     1194742460"}, 
{"id": 21961,"ncpdp": "2005064","pharmacy_name": "WAL-MART PHARMACY #101856","address1": "70 SPRINGER DRIVE","address2": "","city": "BANGOR","state": "ME","zip": "04401","zip+4": "0000","phone": "2079475811","NPI": "     1003833377"}, 
{"id": 21962,"ncpdp": "2005076","pharmacy_name": "WAL-MART PHARMACY #101868","address1": "100 MT AUBURN AVE","address2": "","city": "AUBURN","state": "ME","zip": "04210","zip+4": "0000","phone": "2077841244","NPI": "     1912924283"}, 
{"id": 21963,"ncpdp": "2005088","pharmacy_name": "WAL-MART PHARMACY #101919","address1": "250 WEST BROADWAY","address2": "","city": "LINCOLN","state": "ME","zip": "04457","zip+4": "0000","phone": "2077942055","NPI": "     1245258755"}, 
{"id": 21964,"ncpdp": "2005090","pharmacy_name": "WAL-MART PHARMACY #101924","address1": "781 MAIN STREET","address2": "","city": "PRESQUE ISLE","state": "ME","zip": "04769","zip+4": "0000","phone": "2077646935","NPI": "     1821015199"}, 
{"id": 21965,"ncpdp": "2005103","pharmacy_name": "HANNAFORD FOOD AND DRUG #345","address1": "797 ROOSEVELT TRAIL WINDHAM MA","address2": "","city": "NO WINDHAM","state": "ME","zip": "04062","zip+4": "0000","phone": "2078928571","NPI": "     1558479949"}, 
{"id": 21966,"ncpdp": "2005115","pharmacy_name": "HANNAFORD FOOD AND DRUG #133","address1": "500 STILLWATER AVE","address2": "","city": "OLD TOWN","state": "ME","zip": "04468","zip+4": "0000","phone": "2078273950","NPI": "     1376651760"}, 
{"id": 21967,"ncpdp": "2005127","pharmacy_name": "HANNAFORD FOOD AND DRUG #241","address1": "93 LINCOLNVILLE AVENUE","address2": "","city": "BELFAST","state": "ME","zip": "04915","zip+4": "0000","phone": "2073381918","NPI": "     1285742676"}, 
{"id": 21968,"ncpdp": "2005139","pharmacy_name": "WAL-MART PHARMACY #101866","address1": "615 WILTON ROAD","address2": "","city": "FARMINGTON","state": "ME","zip": "04938","zip+4": "0000","phone": "2077785615","NPI": "     1730106006"}, 
{"id": 21969,"ncpdp": "2005153","pharmacy_name": "WAL-MART PHARMACY #101939","address1": "15 TIBBETTS DRIVE","address2": "","city": "BRUNSWICK","state": "ME","zip": "04011","zip+4": "0000","phone": "2077251176","NPI": "     1649297912"}, 
{"id": 21970,"ncpdp": "2005165","pharmacy_name": "WAL-MART PHARMACY #101954","address1": "1930 MAIN STREET","address2": "","city": "SANFORD","state": "ME","zip": "04073","zip+4": "0000","phone": "2074902069","NPI": "     1558388827"}, 
{"id": 21971,"ncpdp": "2005177","pharmacy_name": "RITE AID PHARMACY #03491","address1": "365 MAIN STREET","address2": "","city": "DAMARISCOTTA","state": "ME","zip": "04543","zip+4": "4654","phone": "2075633506","NPI": "     1730250002"}, 
{"id": 21972,"ncpdp": "2005189","pharmacy_name": "HANNAFORD FOOD AND DRUG #141","address1": "469 MAIN STREET","address2": "","city": "DAMARISCOTTA","state": "ME","zip": "04543","zip+4": "0000","phone": "2075631974","NPI": "     1093823486"}, 
{"id": 21973,"ncpdp": "2005191","pharmacy_name": "HANNAFORD FOOD AND DRUG #291","address1": "131 SHOP N SAVE DRIVE SUITE 1","address2": "","city": "FARMINGTON","state": "ME","zip": "04938","zip+4": "0000","phone": "2077780644","NPI": "     1902914393"}, 
{"id": 21974,"ncpdp": "2005216","pharmacy_name": "WAL-MART PHARMACY #101932","address1": "461 HIGH STREET","address2": "","city": "ELLSWORTH","state": "ME","zip": "04605","zip+4": "0000","phone": "2076672644","NPI": "     1467479733"}, 
{"id": 21975,"ncpdp": "2005228","pharmacy_name": "WAL-MART PHARMACY #101974","address1": "17 LUDLOW ROAD","address2": "","city": "HOULTON","state": "ME","zip": "04730","zip+4": "0000","phone": "2075322213","NPI": "     1376560649"}, 
{"id": 21976,"ncpdp": "2005242","pharmacy_name": "WAL-MART PHARMACY #102013","address1": "80 WATERVILLE COMMONS DRIVE","address2": "","city": "WATERVILLE","state": "ME","zip": "04901","zip+4": "0000","phone": "2078779161","NPI": "     1285651554"}, 
{"id": 21977,"ncpdp": "2005254","pharmacy_name": "HANNAFORD FOOD AND DRUG #358","address1": "520 WALDO STREET","address2": "","city": "RUMFORD","state": "ME","zip": "04276","zip+4": "0000","phone": "2073643711","NPI": "     1811005200"}, 
{"id": 21978,"ncpdp": "2005278","pharmacy_name": "WAL-MART PHARMACY #102046","address1": "201 CIVIC CENTER DR","address2": "","city": "AUGUSTA","state": "ME","zip": "04330","zip+4": "0000","phone": "2076235144","NPI": "     1093732364"}, 
{"id": 21979,"ncpdp": "2005280","pharmacy_name": "RITE AID PHARMACY #03467","address1": "61 UNION STREET","address2": "","city": "AUBURN","state": "ME","zip": "04210","zip+4": "5447","phone": "2077530506","NPI": "     1760553036"}, 
{"id": 21980,"ncpdp": "2005305","pharmacy_name": "HANNAFORD FOOD AND DRUG #109","address1": "1133 UNION ST","address2": "","city": "BANGOR","state": "ME","zip": "04401","zip+4": "0000","phone": "2079453772","NPI": "     1013025360"}, 
{"id": 21981,"ncpdp": "2005331","pharmacy_name": "WAL-MART PHARMACY #102047","address1": "1573 MAIN STREET","address2": "","city": "PALMYRA","state": "ME","zip": "04965","zip+4": "0000","phone": "2073684401","NPI": "     1902823271"}, 
{"id": 21982,"ncpdp": "2005355","pharmacy_name": "HANNAFORD FOOD AND DRUG #231","address1": "35 ELM ST","address2": "","city": "BRUNSWICK","state": "ME","zip": "04011","zip+4": "0000","phone": "2077291604","NPI": "     1720196116"}, 
{"id": 21983,"ncpdp": "2005381","pharmacy_name": "HANNAFORD FOOD AND DRUG #338","address1": "1603 MAIN STREET","address2": "","city": "OXFORD","state": "ME","zip": "04270","zip+4": "0000","phone": "2077437982","NPI": "     1639287022"}, 
{"id": 21984,"ncpdp": "2005406","pharmacy_name": "RITE AID PHARMACY #03671","address1": "123 MAIN STREET","address2": "","city": "FAIRFIELD","state": "ME","zip": "04937","zip+4": "1120","phone": "2074532233","NPI": "     1366513632"}, 
{"id": 21985,"ncpdp": "2005420","pharmacy_name": "KMART PHARMACY #3021","address1": "603 CENTER STREET","address2": "","city": "AUBURN","state": "ME","zip": "04210","zip+4": "0000","phone": "2077843901","NPI": "     1598796575"}, 
{"id": 21986,"ncpdp": "2005432","pharmacy_name": "WAL-MART PHARMACY #102143","address1": "60 FAIRGROUNDS MARKET PLACE","address2": "","city": "SKOWHEGAN","state": "ME","zip": "04976","zip+4": "0000","phone": "2074743013","NPI": "     1811914187"}, 
{"id": 21987,"ncpdp": "2005468","pharmacy_name": "RITE AID PHARMACY #04167","address1": "210 MAIN STREET","address2": "","city": "WATERVILLE","state": "ME","zip": "04901","zip+4": "6117","phone": "2078779004","NPI": "     1972674638"}, 
{"id": 21988,"ncpdp": "2005470","pharmacy_name": "RITE AID PHARMACY #04112","address1": "15 SACO AVENUE","address2": "","city": "OLD ORCHARD BEACH","state": "ME","zip": "04064","zip+4": "2242","phone": "2079341000","NPI": "     1396816476"}, 
{"id": 21989,"ncpdp": "2005482","pharmacy_name": "RITE AID PHARMACY #04168","address1": "9 SPRING STREET","address2": "","city": "GARDINER","state": "ME","zip": "04345","zip+4": "1823","phone": "2075823051","NPI": "     1861563520"}, 
{"id": 21990,"ncpdp": "2005533","pharmacy_name": "RITE AID PHARMACY #04116","address1": "225 MADISON AVENUE","address2": "","city": "SKOWHEGAN","state": "ME","zip": "04976","zip+4": "2054","phone": "2074742525","NPI": "     1932270014"}, 
{"id": 21991,"ncpdp": "2005545","pharmacy_name": "RITE AID PHARMACY #04171","address1": "RFD 1","address2": "FORT KNOX SHOPPING PLAZA","city": "BUCKSPORT","state": "ME","zip": "04416","zip+4": "1232","phone": "2074692201","NPI": "     1851463384"}, 
{"id": 21992,"ncpdp": "2005557","pharmacy_name": "RITE AID PHARMACY #04117","address1": "259 MAIN STREET","address2": "","city": "SOUTH PARIS","state": "ME","zip": "04281","zip+4": "1620","phone": "2077435177","NPI": "     1487725560"}, 
{"id": 21993,"ncpdp": "2005569","pharmacy_name": "RITE AID PHARMACY #04118","address1": "987 LISBON STREET","address2": "","city": "LEWISTON","state": "ME","zip": "04240","zip+4": "5747","phone": "2077849588","NPI": "     1255405916"}, 
{"id": 21994,"ncpdp": "2005571","pharmacy_name": "RITE AID PHARMACY #04120","address1": "16 PECK FARM ROAD","address2": "","city": "WINTHROP","state": "ME","zip": "04364","zip+4": "3432","phone": "2073772279","NPI": "     1295806388"}, 
{"id": 21995,"ncpdp": "2005583","pharmacy_name": "RITE AID PHARMACY #04121","address1": "156 MAINE STREET","address2": "","city": "BRUNSWICK","state": "ME","zip": "04011","zip+4": "2007","phone": "2077298100","NPI": "     1659442747"}, 
{"id": 21996,"ncpdp": "2005595","pharmacy_name": "RITE AID PHARMACY 04122 #4122","address1": "383 ALLEN AVENUE","address2": "","city": "PORTLAND","state": "ME","zip": "04103","zip+4": "3728","phone": "2077974351","NPI": "     1386715472"}, 
{"id": 21997,"ncpdp": "2005610","pharmacy_name": "RITE AID PHARMACY #04123","address1": "317 MAIN STREET","address2": "","city": "FARMINGTON","state": "ME","zip": "04938","zip+4": "5803","phone": "2077783919","NPI": "     1730250820"}, 
{"id": 21998,"ncpdp": "2005634","pharmacy_name": "RITE AID PHARMACY #04125","address1": "465 MAIN STREET","address2": "","city": "WESTBROOK","state": "ME","zip": "04092","zip+4": "4328","phone": "2078549103","NPI": "     1467523555"}, 
{"id": 21999,"ncpdp": "2005658","pharmacy_name": "RITE AID PHARMACY #04126","address1": "7 PORTLAND STREET","address2": "","city": "RUMFORD","state": "ME","zip": "04276","zip+4": "2050","phone": "2073642969","NPI": "     1366513459"}, 
{"id": 22000,"ncpdp": "2005660","pharmacy_name": "RITE AID PHARMACY #04128","address1": "17 SOUTH STREET","address2": "","city": "BLUE HILL","state": "ME","zip": "04614","zip+4": "0335","phone": "2073743565","NPI": "     1194896670"}, 
{"id": 22001,"ncpdp": "2005672","pharmacy_name": "RITE AID PHARMACY #04129","address1": "35 ELM STREET","address2": "","city": "CAMDEN","state": "ME","zip": "04843","zip+4": "1910","phone": "2072364546","NPI": "     1912078494"}, 
{"id": 22002,"ncpdp": "2005684","pharmacy_name": "RITE AID PHARMACY #04130","address1": "112 BENNETT DRIVE","address2": "","city": "CARIBOU","state": "ME","zip": "04736","zip+4": "2022","phone": "2074988735","NPI": "     1669543757"}, 
{"id": 22003,"ncpdp": "2005696","pharmacy_name": "RITE AID PHARMACY #04131","address1": "137 NORTH STREET","address2": "","city": "HOULTON","state": "ME","zip": "04730","zip+4": "1832","phone": "2075326876","NPI": "     1487725479"}, 
{"id": 22004,"ncpdp": "2005709","pharmacy_name": "RITE AID PHARMACY #04132","address1": "279 MAIN STREET","address2": "","city": "SOUTH PORTLAND","state": "ME","zip": "04106","zip+4": "2629","phone": "2077412260","NPI": "     1427129410"}, 
{"id": 22005,"ncpdp": "2005711","pharmacy_name": "RITE AID PHARMACY #04133","address1": "701 FOREST AVENUE","address2": "","city": "PORTLAND","state": "ME","zip": "04103","zip+4": "4121","phone": "2077808144","NPI": "     1609940378"}, 
{"id": 22006,"ncpdp": "2005735","pharmacy_name": "RITE AID PHARMACY #04135","address1": "120 MAIN STREET","address2": "","city": "GORHAM","state": "ME","zip": "04038","zip+4": "1306","phone": "2078393160","NPI": "     1326119264"}, 
{"id": 22007,"ncpdp": "2005759","pharmacy_name": "RITE AID PHARMACY #04137","address1": "320 MAIN STREET","address2": "","city": "PRESQUE ISLE","state": "ME","zip": "04769","zip+4": "2809","phone": "2077645221","NPI": "     1770654618"}, 
{"id": 22008,"ncpdp": "2005761","pharmacy_name": "RITE AID PHARMACY #04178","address1": "1 WEST BROADWAY","address2": "","city": "LINCOLN","state": "ME","zip": "04457","zip+4": "1212","phone": "2077943344","NPI": "     1124190665"}, 
{"id": 22009,"ncpdp": "2005773","pharmacy_name": "RITE AID PHARMACY #04140","address1": "151 MAPLE STREET","address2": "","city": "CORNISH","state": "ME","zip": "04020","zip+4": "3103","phone": "2076258494","NPI": "     1023189966"}, 
{"id": 22010,"ncpdp": "2005785","pharmacy_name": "RITE AID PHARMACY #04141","address1": "461 MAIN STREET","address2": "","city": "SACO","state": "ME","zip": "04072","zip+4": "1528","phone": "2072844363","NPI": "     1548331481"}, 
{"id": 22011,"ncpdp": "2005797","pharmacy_name": "RITE AID PHARMACY #04142","address1": "506 SOMERSET AVENUE","address2": "","city": "PITTSFIELD","state": "ME","zip": "04967","zip+4": "0000","phone": "2074875467","NPI": "     1538230487"}, 
{"id": 22012,"ncpdp": "2005800","pharmacy_name": "RITE AID PHARMACY #04143","address1": "2 CHINA ROAD","address2": "","city": "WINSLOW","state": "ME","zip": "04901","zip+4": "7266","phone": "2078722727","NPI": "     1033281258"}, 
{"id": 22013,"ncpdp": "2005824","pharmacy_name": "RITE AID PHARMACY #04146","address1": "19 PORTLAND ROAD","address2": "","city": "BRIDGTON","state": "ME","zip": "04009","zip+4": "1229","phone": "2076473445","NPI": "     1043381916"}, 
{"id": 22014,"ncpdp": "2005848","pharmacy_name": "RITE AID PHARMACY #04147","address1": "62 WEST GRAY ROAD","address2": "","city": "GRAY","state": "ME","zip": "04039","zip+4": "0711","phone": "2076572333","NPI": "     1477624997"}, 
{"id": 22015,"ncpdp": "2005850","pharmacy_name": "RITE AID PHARMACY #04148","address1": "34 COTTAGE STREET","address2": "","city": "BAR HARBOR","state": "ME","zip": "04609","zip+4": "1810","phone": "2072882222","NPI": "     1770654543"}, 
{"id": 22016,"ncpdp": "2005862","pharmacy_name": "RITE AID PHARMACY #04149","address1": "254 MAIN STREET","address2": "","city": "BELFAST","state": "ME","zip": "04915","zip+4": "6572","phone": "2073384411","NPI": "     1316018104"}, 
{"id": 22017,"ncpdp": "2005874","pharmacy_name": "RITE AID PHARMACY #04150","address1": "464 MAIN STREET","address2": "","city": "SPRINGVALE","state": "ME","zip": "04083","zip+4": "1818","phone": "2073241222","NPI": "     1003987892"}, 
{"id": 22018,"ncpdp": "2005913","pharmacy_name": "RITE AID PHARMACY #04153","address1": "83 HOSPITAL STREET","address2": "","city": "AUGUSTA","state": "ME","zip": "04330","zip+4": "6617","phone": "2076231414","NPI": "     1144394818"}, 
{"id": 22019,"ncpdp": "2005949","pharmacy_name": "RITE AID PHARMACY #04160","address1": "226 PARKER FARM ROAD","address2": "","city": "BUXTON","state": "ME","zip": "04093","zip+4": "3150","phone": "2077275139","NPI": "     1699846402"}, 
{"id": 22020,"ncpdp": "2005951","pharmacy_name": "RITE AID PHARMACY #04161","address1": "665 ROOSEVELT TRAIL","address2": "","city": "NAPLES","state": "ME","zip": "04055","zip+4": "4008","phone": "2076933937","NPI": "     1851462386"}, 
{"id": 22021,"ncpdp": "2005963","pharmacy_name": "RITE AID PHARMACY #04162","address1": "119 BRIDGTON ROAD","address2": "","city": "FRYEBURG","state": "ME","zip": "04037","zip+4": "1407","phone": "2079352045","NPI": "     1811068570"}, 
{"id": 22022,"ncpdp": "2005975","pharmacy_name": "WAL-MART PHARMACY #102178","address1": "91 SOUTH STREET","address2": "","city": "CALAIS","state": "ME","zip": "04619","zip+4": "0000","phone": "2074548326","NPI": "     1669490173"}, 
{"id": 22023,"ncpdp": "2005987","pharmacy_name": "WAL-MART PHARMACY #102183","address1": "1240 MAIN ST/RT 26","address2": "","city": "OXFORD","state": "ME","zip": "04270","zip+4": "0000","phone": "2077435466","NPI": "     1578581088"}, 
{"id": 22024,"ncpdp": "2005999","pharmacy_name": "WAL-MART PHARMACY #102202","address1": "30 LANDING ROAD","address2": "","city": "WINDHAM","state": "ME","zip": "04062","zip+4": "0000","phone": "2078930654","NPI": "     1720005093"}, 
{"id": 22025,"ncpdp": "2006244","pharmacy_name": "HANNAFORD FOOD AND DRUG #330","address1": "100 FAIRGROUND MARKET PLACE","address2": "","city": "SKOWHEGAN","state": "ME","zip": "04976","zip+4": "0000","phone": "2078580076","NPI": "     1548378938"}, 
{"id": 22026,"ncpdp": "2006256","pharmacy_name": "HANNAFORD FOOD AND DRUG #173","address1": "383 WILSON ST","address2": "","city": "BREWER","state": "ME","zip": "04412","zip+4": "0000","phone": "2079898290","NPI": "     1457469843"}, 
{"id": 22027,"ncpdp": "2006270","pharmacy_name": "RITE AID PHARMACY #03863","address1": "575 LISBON STREET","address2": "575 LISBON STREET","city": "LISBON FALLS","state": "ME","zip": "04252","zip+4": "1121","phone": "2073534843","NPI": "     1417028796"}, 
{"id": 22028,"ncpdp": "2006294","pharmacy_name": "KENNEBEC PHARMACY AND HOME CAR","address1": "43 LEIGHTON RD","address2": "","city": "AUGUSTA","state": "ME","zip": "04330","zip+4": "9302","phone": "2076262726","NPI": "     1487668927"}, 
{"id": 22029,"ncpdp": "2006321","pharmacy_name": "RITE AID PHARMACY #03892","address1": "223 AND 233 NORTH STREET","address2": "","city": "CALAIS","state": "ME","zip": "04619","zip+4": "1619","phone": "2074542262","NPI": "     1598836009"}, 
{"id": 22030,"ncpdp": "2006345","pharmacy_name": "RITE AID PHARMACY #03894","address1": "355 MAIN STREET","address2": "","city": "FORT FAIRFIELD","state": "ME","zip": "04742","zip+4": "1181","phone": "2074721191","NPI": "     1457422743"}, 
{"id": 22031,"ncpdp": "2006369","pharmacy_name": "RITE AID PHARMACY #03896","address1": "429 MAIN STREET","address2": "","city": "MADAWASKA","state": "ME","zip": "04756","zip+4": "1165","phone": "2077283815","NPI": "     1689745762"}, 
{"id": 22032,"ncpdp": "2006371","pharmacy_name": "RITE AID PHARMACY #03897","address1": "35 PARK STREET","address2": "","city": "MILO","state": "ME","zip": "04463","zip+4": "1110","phone": "2079438750","NPI": "     1033280110"}, 
{"id": 22033,"ncpdp": "2006408","pharmacy_name": "RITE AID PHARMACY #03900","address1": "21 MAIN STREET","address2": "","city": "VAN BUREN","state": "ME","zip": "04785","zip+4": "1008","phone": "2078682626","NPI": "     1851462931"}, 
{"id": 22034,"ncpdp": "2006434","pharmacy_name": "RITE AID PHARMACY 03940 #03946","address1": "28 PARK STREET","address2": "","city": "ROCKLAND","state": "ME","zip": "04841","zip+4": "3349","phone": "2075960036","NPI": "     1740351220"}, 
{"id": 22035,"ncpdp": "2006458","pharmacy_name": "WAL-MART PHARMACY #102153","address1": "525 ALFRED STREET","address2": "","city": "BIDDEFORD","state": "ME","zip": "04005","zip+4": "0000","phone": "2072869562","NPI": "     1639196900"}, 
{"id": 22036,"ncpdp": "2006460","pharmacy_name": "RITE AID PHARMACY #02800","address1": "84 EAST MAIN STREET","address2": "","city": "FORT KENT","state": "ME","zip": "04743","zip+4": "1322","phone": "2078345444","NPI": "     1447321831"}, 
{"id": 22037,"ncpdp": "2006559","pharmacy_name": "RITE AID PHARMACY #04262","address1": "7 MAIN ROAD NORTH","address2": "","city": "HAMPDEN","state": "ME","zip": "04444","zip+4": "0664","phone": "2078624900","NPI": "     1093887531"}, 
{"id": 22038,"ncpdp": "2006573","pharmacy_name": "RITE AID PHARMACY #03891","address1": "223 TOWNSEND AVENUE","address2": "","city": "BOOTHBAY HARBOR","state": "ME","zip": "04538","zip+4": "1847","phone": "2076337023","NPI": "     1033280318"}, 
{"id": 22039,"ncpdp": "2006597","pharmacy_name": "RITE AID PHARMACY #04273","address1": "720 CENTRAL STREET","address2": "","city": "MILLINOCKET","state": "ME","zip": "04462","zip+4": "1800","phone": "2077239850","NPI": "     1326119009"}, 
{"id": 22040,"ncpdp": "2006600","pharmacy_name": "HANNAFORD FOOD AND DRUG #279","address1": "50 COTTAGE RD","address2": "","city": "SO PORTLAND","state": "ME","zip": "04106","zip+4": "0000","phone": "2077994023","NPI": "     1922116276"}, 
{"id": 22041,"ncpdp": "2006612","pharmacy_name": "KENNEBUNK VILLAGE PHARMACY INC","address1": "18 BLUE WAVE PROFESSIONAL CENT","address2": "","city": "KENNEBUNK","state": "ME","zip": "04043","zip+4": "0000","phone": "2079851755","NPI": "     1952309270"}, 
{"id": 22042,"ncpdp": "2006624","pharmacy_name": "RITE AID PHARMACY #04612","address1": "77 MALLETT DRIVE","address2": "","city": "TOPSHAM","state": "ME","zip": "04086","zip+4": "1300","phone": "2077290806","NPI": "     1588735278"}, 
{"id": 22043,"ncpdp": "2006636","pharmacy_name": "PARADIS SHOP N SAVE #212","address1": "114 HIGH ST PB BOX 230","address2": "","city": "CARIBOU","state": "ME","zip": "04736","zip+4": "0000","phone": "2074983545","NPI": "     1275641656"}, 
{"id": 22044,"ncpdp": "2006648","pharmacy_name": "HANNAFORD FOOD AND DRUG #140","address1": "22 GODING AVENUE","address2": "","city": "LINCOLN","state": "ME","zip": "04457","zip+4": "0000","phone": "2077946513","NPI": "     1184732562"}, 
{"id": 22045,"ncpdp": "2006674","pharmacy_name": "RITE AID PHARMACY #04660","address1": "698 MINOT AVENUE","address2": "","city": "AUBURN","state": "ME","zip": "04210","zip+4": "3922","phone": "2077865330","NPI": "     1225102999"}, 
{"id": 22046,"ncpdp": "2006686","pharmacy_name": "RITE AID PHARMACY #04762","address1": "19 MAIN STREET","address2": "","city": "OAKLAND","state": "ME","zip": "04963","zip+4": "4948","phone": "2074652757","NPI": "     1316018047"}, 
{"id": 22047,"ncpdp": "2006698","pharmacy_name": "RITE AID PHARMACY #04735","address1": "ROUTES 202 AND 17","address2": "","city": "MANCHESTER","state": "ME","zip": "04351","zip+4": "0550","phone": "2076226598","NPI": "     1477625929"}, 
{"id": 22048,"ncpdp": "2006751","pharmacy_name": "RITE AID PHARMACY #10303","address1": "10 MIDDLE STREET","address2": "","city": "FREEPORT","state": "ME","zip": "04032","zip+4": "1531","phone": "2078656324","NPI": "     1124127493"}, 
{"id": 22049,"ncpdp": "2006763","pharmacy_name": "WESTGATE PHARMACY #2","address1": "915 UNION ST STE 7","address2": "","city": "BANGOR","state": "ME","zip": "04401","zip+4": "0000","phone": "2079736788","NPI": "     1427153600"}, 
{"id": 22050,"ncpdp": "2006802","pharmacy_name": "OMNICARE OF MAINE","address1": "39 EISENHOWER DR","address2": "","city": "WESTBROOK","state": "ME","zip": "04092","zip+4": "0000","phone": "2078546400","NPI": "     1295847846"}, 
{"id": 22051,"ncpdp": "2006876","pharmacy_name": "RITE AID PHARMACY #04944","address1": "28 MAYVILLE ROAD","address2": "","city": "BETHEL","state": "ME","zip": "04217","zip+4": "0190","phone": "2078248085","NPI": "     1407928963"}, 
{"id": 22052,"ncpdp": "2006939","pharmacy_name": "COMMUNITY PHARMACY RANDOLPH","address1": "268 WATER ST","address2": "","city": "RANDOLPH","state": "ME","zip": "04346","zip+4": "0000","phone": "2075882482","NPI": "     1447247846"}, 
{"id": 22053,"ncpdp": "2006941","pharmacy_name": "APRIA HEALTHCARE INC #003","address1": "14 YARMOUTH JUNCTION","address2": "","city": "YARMOUTH","state": "ME","zip": "04096","zip+4": "0000","phone": "2078468543","NPI": "     1831268051"}, 
{"id": 22054,"ncpdp": "2006953","pharmacy_name": "WAL-MART PHARMACY #102659","address1": "206 US ROUTE 1","address2": "","city": "FALMOUTH","state": "ME","zip": "04105","zip+4": "0000","phone": "2077813754","NPI": "     1548287816"}, 
{"id": 22055,"ncpdp": "2007006","pharmacy_name": "RITE AID PHARMACY #10305","address1": "566 UNION STREET","address2": "","city": "BANGOR","state": "ME","zip": "04401","zip+4": "3752","phone": "2072625896","NPI": "     1942309216"}, 
{"id": 22056,"ncpdp": "2007032","pharmacy_name": "RITE AID PHARMACY #04979","address1": "1036 POST ROAD ROUTE 1","address2": "","city": "WELLS","state": "ME","zip": "04090","zip+4": "4500","phone": "2076466894","NPI": "     1760554224"}, 
{"id": 22057,"ncpdp": "2007056","pharmacy_name": "HANNAFORD FOOD AND DRUG #220","address1": "100 MAIN STREET","address2": "","city": "GARDINER","state": "ME","zip": "04345","zip+4": "0000","phone": "2075823750","NPI": "     1992813372"}, 
{"id": 22058,"ncpdp": "2007068","pharmacy_name": "CVS PHARMACY #02382","address1": "8 UNION ST","address2": "","city": "AUBURN","state": "ME","zip": "04210","zip+4": "0000","phone": "2077848101","NPI": "     1952405870"}, 
{"id": 22059,"ncpdp": "2007070","pharmacy_name": "COMMUNITY PHARMACY-BUCKSPORT #","address1": "75 MAIN ST","address2": "","city": "BUCKSPORT","state": "ME","zip": "04416","zip+4": "0000","phone": "2074697030","NPI": "     1881681286"}, 
{"id": 22060,"ncpdp": "2007082","pharmacy_name": "RITE AID PHARMACY #04875","address1": "600 US ROUTE ONE","address2": "","city": "SCARBOROUGH","state": "ME","zip": "04074","zip+4": "9776","phone": "2078851515","NPI": "     1073684718"}, 
{"id": 22061,"ncpdp": "2007094","pharmacy_name": "COMMUNITY PHARMACY SACO","address1": "244 MAIN ST","address2": "","city": "SACO","state": "ME","zip": "04072","zip+4": "0000","phone": "2072832792","NPI": "     1275520686"}, 
{"id": 22062,"ncpdp": "2007119","pharmacy_name": "RITE AID PHARMACY #02080","address1": "151 EAST MAIN STREET","address2": "","city": "DOVER-FOXCROFT","state": "ME","zip": "04426","zip+4": "1304","phone": "2075649011","NPI": "     1427129808"}, 
{"id": 22063,"ncpdp": "2007133","pharmacy_name": "OSCO PHARMACY #7558","address1": "510 ALFRED RD","address2": "","city": "BIDDEFORD","state": "ME","zip": "04005","zip+4": "0000","phone": "2072869315","NPI": "     1932155462"}, 
{"id": 22064,"ncpdp": "2007145","pharmacy_name": "OSCO PHARMACY #7556","address1": "353 MAIN ST","address2": "","city": "BANGOR","state": "ME","zip": "04401","zip+4": "0000","phone": "2079456550","NPI": "     1841246378"}, 
{"id": 22065,"ncpdp": "2007157","pharmacy_name": "HANNAFORD FOOD AND DRUG #165","address1": "15 JAY PLAZA PANE","address2": "","city": "JAY","state": "ME","zip": "04239","zip+4": "0000","phone": "2078977033","NPI": "     1801904289"}, 
{"id": 22066,"ncpdp": "2007171","pharmacy_name": "PENOBSCOT BAY MED CENTER PHCY","address1": "6 GLEN COVE DR","address2": "","city": "ROCKPORT","state": "ME","zip": "04856","zip+4": "0000","phone": "2075968585","NPI": "     1396815106"}, 
{"id": 22067,"ncpdp": "2007183","pharmacy_name": "HANNAFORD FOOD AND DRUG #384","address1": "440 US ROUTE 1","address2": "","city": "YORK","state": "ME","zip": "03909","zip+4": "0000","phone": "2073635928","NPI": "     1710095195"}, 
{"id": 22068,"ncpdp": "2007195","pharmacy_name": "RITE AID PHARMACY #02785","address1": "3 HUDSON AVENUE","address2": "","city": "GUILFORD","state": "ME","zip": "04443","zip+4": "0147","phone": "2078762788","NPI": "     1962573998"}, 
{"id": 22069,"ncpdp": "2007208","pharmacy_name": "OSCO PHARMACY #7552","address1": "150 WESTERN AVE","address2": "","city": "AUGUSTA","state": "ME","zip": "04330","zip+4": "0000","phone": "2076260364","NPI": "     1649227182"}, 
{"id": 22070,"ncpdp": "2007210","pharmacy_name": "PORTLAND PHARMACY II #II","address1": "901 WASHINGTON AVENUE","address2": "","city": "PORTLAND","state": "ME","zip": "04104","zip+4": "5040","phone": "2077745801","NPI": "     1134189186"}, 
{"id": 22071,"ncpdp": "2007311","pharmacy_name": "HANNAFORD FOOD AND DRUG #221","address1": "20 SOKOKIS TRAIL","address2": "","city": "EAST WATERBORO","state": "ME","zip": "04030","zip+4": "0000","phone": "2072478200","NPI": "     1629186002"}, 
{"id": 22072,"ncpdp": "2007347","pharmacy_name": "COMMUNITY PHARMACY RAYMOND","address1": "1233 ROOSEVELT TRAIL","address2": "","city": "RAYMOND","state": "ME","zip": "04071","zip+4": "0000","phone": "2076552239","NPI": "     1508853912"}, 
{"id": 22073,"ncpdp": "2007361","pharmacy_name": "HANNAFORD FOOD AND DRUG #222","address1": "65 GRAY ROAD","address2": "","city": "FALMOUTH","state": "ME","zip": "04105","zip+4": "0000","phone": "2078780017","NPI": "     1538277918"}, 
{"id": 22074,"ncpdp": "2007373","pharmacy_name": "ORONO PHARMACY","address1": "16 MILL ST","address2": "","city": "ORONO","state": "ME","zip": "04473","zip+4": "0000","phone": "2078663800","NPI": "     1114037298"}, 
{"id": 22075,"ncpdp": "2007385","pharmacy_name": "COMMUNITY PHARMACY OF GORHAM","address1": "365 MAIN ST","address2": "","city": "GORHAM","state": "ME","zip": "04038","zip+4": "0000","phone": "2078397892","NPI": "     1538156807"}, 
{"id": 22076,"ncpdp": "2007397","pharmacy_name": "AIRLINE PHARMACY #3","address1": "405 N MAIN ST","address2": "NORTH MAIN ST SHOPPING CTR","city": "BREWER","state": "ME","zip": "04412","zip+4": "0000","phone": "2079892424","NPI": "     1659476836"}, 
{"id": 22077,"ncpdp": "2007436","pharmacy_name": "PRESQUE ISLE PHARMACY","address1": "797 MAIN ST","address2": "","city": "PRESQUE ISLE","state": "ME","zip": "04769","zip+4": "0000","phone": "2077609100","NPI": "     1770645491"}, 
{"id": 22078,"ncpdp": "2007450","pharmacy_name": "HANNAFORD FOOD AND DRUG #107","address1": "653 BROADWAY","address2": "","city": "BANGOR","state": "ME","zip": "04401","zip+4": "0000","phone": "2079473680","NPI": "     1447368824"}, 
{"id": 22079,"ncpdp": "2007462","pharmacy_name": "TARGET PHARMACY #1338","address1": "200 RUNNING HILL ROAD","address2": "","city": "SOUTH PORTLAND","state": "ME","zip": "04106","zip+4": "0000","phone": "2078710911","NPI": "     1295757946"}, 
{"id": 22080,"ncpdp": "2007486","pharmacy_name": "SAMS PHARMACY #106333","address1": "47 HASKELL ROAD","address2": "","city": "BANGOR","state": "ME","zip": "04401","zip+4": "0000","phone": "2079459723","NPI": "     1457378721"}, 
{"id": 22081,"ncpdp": "2007498","pharmacy_name": "OSCO PHARMACY #7550","address1": "600 CENTER ST","address2": "","city": "AUBURN","state": "ME","zip": "04210","zip+4": "0000","phone": "2077838951","NPI": "     1750337283"}, 
{"id": 22082,"ncpdp": "2007501","pharmacy_name": "OSCO PHARMACY #7541","address1": "91 AUBURN ST NORTHGATE SHOPPIN","address2": "","city": "PORTLAND","state": "ME","zip": "04103","zip+4": "0000","phone": "2077970536","NPI": "     1669428199"}, 
{"id": 22083,"ncpdp": "2007513","pharmacy_name": "RITE AID PHARMACY #10302","address1": "15 SHAPELEIGH ROAD","address2": "","city": "KITTERY","state": "ME","zip": "03904","zip+4": "1401","phone": "2074389074","NPI": "     1851490122"}, 
{"id": 22084,"ncpdp": "2007537","pharmacy_name": "WALTZ LONG TERM CARE PHARMACY","address1": "605 LEWISTON RD","address2": "","city": "TOPSHAM","state": "ME","zip": "04086","zip+4": "0000","phone": "2073739077","NPI": "     1871672469"}, 
{"id": 22085,"ncpdp": "2007551","pharmacy_name": "WAL-MART PHARMACY #103269","address1": "258 RIVER ROAD","address2": "","city": "MEXICO","state": "ME","zip": "04257","zip+4": "0000","phone": "2073642993","NPI": "     1366469637"}, 
{"id": 22086,"ncpdp": "2007563","pharmacy_name": "BEDARD LONG TERM CARE PHAR","address1": "5 HORTON ST","address2": "","city": "LEWISTON","state": "ME","zip": "04240","zip+4": "0000","phone": "2077860139","NPI": "     1558372060"}, 
{"id": 22087,"ncpdp": "2007575","pharmacy_name": "OSCO PHARMACY #7548","address1": "235 CAMDEN ST","address2": "","city": "ROCKLAND","state": "ME","zip": "04841","zip+4": "0000","phone": "2075948070","NPI": "     1578519005"}, 
{"id": 22088,"ncpdp": "2007599","pharmacy_name": "COMMUNITY PHARMACY DEXTER","address1": "37 CHURCH ST","address2": "","city": "DEXTER","state": "ME","zip": "04930","zip+4": "0000","phone": "2079246259","NPI": "     1841287265"}, 
{"id": 22089,"ncpdp": "2007602","pharmacy_name": "OSCO PHARMACY #7559","address1": "27 EAST AVE","address2": "","city": "LEWISTON","state": "ME","zip": "04240","zip+4": "0000","phone": "2077846666","NPI": "     1487600912"}, 
{"id": 22090,"ncpdp": "2007614","pharmacy_name": "WAL-MART PHARMACY #105076","address1": "24 WALTON DRIVE","address2": "","city": "BREWER","state": "ME","zip": "04412","zip+4": "0000","phone": "2079896174","NPI": "     1275550543"}, 
{"id": 22091,"ncpdp": "2007640","pharmacy_name": "OSCO PHARMACY #7560","address1": "1364 MAIN ST","address2": "","city": "SANFORD","state": "ME","zip": "04073","zip+4": "0000","phone": "2074903562","NPI": "     1295781722"}, 
{"id": 22092,"ncpdp": "2007652","pharmacy_name": "COMMUNITY PHARMACY CORINTH","address1": "689 MAIN ST","address2": "","city": "CORINTH","state": "ME","zip": "04427","zip+4": "0000","phone": "2072857289","NPI": "     1700873122"}, 
{"id": 22093,"ncpdp": "2007664","pharmacy_name": "PENOBSCOT COMMUNITY HEALTH CEN","address1": "1012 UNION ST","address2": "STE 1","city": "BANGOR","state": "ME","zip": "04401","zip+4": "0000","phone": "2079924100","NPI": "     1427169010"}, 
{"id": 22094,"ncpdp": "2007676","pharmacy_name": "TARGET PHARMACY #1855","address1": "60 LONGVIEW DR","address2": "","city": "BANGOR","state": "ME","zip": "04401","zip+4": "0000","phone": "2079459977","NPI": "     1104848852"}, 
{"id": 22095,"ncpdp": "2007690","pharmacy_name": "OSCO PHARMACY #7608","address1": "200 LOWER MAIN ST","address2": "","city": "FREEPORT","state": "ME","zip": "04032","zip+4": "0000","phone": "2078650205","NPI": "     1104872639"}, 
{"id": 22096,"ncpdp": "2007703","pharmacy_name": "OSCO PHARMACY #7551","address1": "251 KENNEDY MEMORIAL DR","address2": "","city": "WATERVILLE","state": "ME","zip": "04901","zip+4": "0000","phone": "2076803001","NPI": "     1013963545"}, 
{"id": 22097,"ncpdp": "2007715","pharmacy_name": "FAIRFIELD PHARMACY","address1": "66 WESTERN AVE","address2": "","city": "FAIRFIELD","state": "ME","zip": "04937","zip+4": "0000","phone": "2074534411","NPI": "     1245229749"}, 
{"id": 22098,"ncpdp": "2007727","pharmacy_name": "OSCO PHARMACY #7623","address1": "31 MAIN ST","address2": "","city": "WESTBROOK","state": "ME","zip": "04092","zip+4": "0000","phone": "2078579298","NPI": "     1922054451"}, 
{"id": 22099,"ncpdp": "2007739","pharmacy_name": "ST JOHN VALLEY PHARMACY","address1": "182 MARKET ST","address2": "STE 2","city": "FORT KENT","state": "ME","zip": "04743","zip+4": "0000","phone": "2078342880","NPI": "     1952303422"}, 
{"id": 22100,"ncpdp": "2007741","pharmacy_name": "PARADIS SHOP N SAVE #208","address1": "62 WEST MAIN ST SUITE 101","address2": "","city": "FORT KENT","state": "ME","zip": "04743","zip+4": "0000","phone": "2078344204","NPI": "     1356459739"}, 
{"id": 22101,"ncpdp": "2007753","pharmacy_name": "PARADIS SHOP N SAVE #213","address1": "33 LUDLOW RD","address2": "","city": "HOULTON","state": "ME","zip": "04730","zip+4": "0000","phone": "2075322500","NPI": "     1265540645"}, 
{"id": 22102,"ncpdp": "2007765","pharmacy_name": "OSCO PHARMACY #7628","address1": "147 BATH RD","address2": "","city": "BRUNSWICK","state": "ME","zip": "04011","zip+4": "0000","phone": "2077210900","NPI": "     1831145366"}, 
{"id": 22103,"ncpdp": "2007777","pharmacy_name": "OSCO PHARMACY #7626","address1": "4 SCAMMON ST","address2": "SUITE 12","city": "SACO","state": "ME","zip": "04072","zip+4": "0000","phone": "2072849955","NPI": "     1740236272"}, 
{"id": 22104,"ncpdp": "2007789","pharmacy_name": "COMMUNITY PHARMACY NEWPORT","address1": "44 MOOSEHEAD TRAIL","address2": "","city": "NEWPORT","state": "ME","zip": "04953","zip+4": "0000","phone": "2073685230","NPI": "     1124015201"}, 
{"id": 22105,"ncpdp": "2007791","pharmacy_name": "OSCO PHARMACY #7629","address1": "1073 W MAIN ST","address2": "SUITE 9","city": "DOVER FOXCROFT","state": "ME","zip": "04426","zip+4": "0000","phone": "2075642857","NPI": "     1659327187"}, 
{"id": 22106,"ncpdp": "2007804","pharmacy_name": "HANNAFORD FOOD AND DRUG #354","address1": "787 RIVERSIDE ST","address2": "","city": "PORTLAND","state": "ME","zip": "04103","zip+4": "0000","phone": "2078781106","NPI": "     1174631550"}, 
{"id": 22107,"ncpdp": "2007816","pharmacy_name": "MILLER DRUG LTC","address1": "208 STATE ST","address2": "","city": "BANGOR","state": "ME","zip": "04401","zip+4": "0000","phone": "2079924458","NPI": "     1477564417"}, 
{"id": 22108,"ncpdp": "2007830","pharmacy_name": "MADAWASKA PHARMACY LLC","address1": "104 MAIN ST","address2": "","city": "MADAWASKA","state": "ME","zip": "04756","zip+4": "0000","phone": "2077287200","NPI": "     1265417430"}, 
{"id": 22109,"ncpdp": "2007842","pharmacy_name": "OAKLAND PHARMACY","address1": "54 MAIN STREET","address2": "","city": "OAKLAND","state": "ME","zip": "04963","zip+4": "0000","phone": "2074654440","NPI": "     1306836283"}, 
{"id": 22110,"ncpdp": "2007854","pharmacy_name": "V AND S PHARMACY","address1": "3 BURNT COVE RD","address2": "","city": "STONINGTON","state": "ME","zip": "04681","zip+4": "3301","phone": "2073675107","NPI": "     1821083189"}, 
{"id": 22111,"ncpdp": "2007866","pharmacy_name": "YORK HOSP BERWICK PHCY","address1": "4 DANA DR","address2": "","city": "BERWICK","state": "ME","zip": "03901","zip+4": "0000","phone": "2076986740","NPI": "     1407897366"}, 
{"id": 22112,"ncpdp": "2007878","pharmacy_name": "OSCO PHARMACY #7557","address1": "175 HIGH ST","address2": "","city": "ELLSWORTH","state": "ME","zip": "04605","zip+4": "0000","phone": "2076693005","NPI": "     1568418093"}, 
{"id": 22113,"ncpdp": "2007892","pharmacy_name": "ST JOHN VALLEY LTC","address1": "182 MARKET ST STE 3","address2": "","city": "FT KENT","state": "ME","zip": "04743","zip+4": "0000","phone": "2078342880","NPI": "     1184645921"}, 
{"id": 22114,"ncpdp": "2007905","pharmacy_name": "COMMUNITY PHARMACY BLUE HILL","address1": "15 SOUTH ST","address2": "","city": "BLUE HILL","state": "ME","zip": "04614","zip+4": "0000","phone": "2073743707","NPI": "     1013961549"}, 
{"id": 22115,"ncpdp": "2007917","pharmacy_name": "EDWARDS SHOP N SAVE #219","address1": "77 WESTERN AVE","address2": "","city": "HAMPDEN","state": "ME","zip": "04444","zip+4": "0000","phone": "2078625280","NPI": "     1083722466"}, 
{"id": 22116,"ncpdp": "2007929","pharmacy_name": "TARGET PHARMACY #2130","address1": "125 TOPSHAM FAIR MALL RD","address2": "","city": "TOPSHAM","state": "ME","zip": "04086","zip+4": "0000","phone": "2075045051","NPI": "     1013939768"}, 
{"id": 22117,"ncpdp": "2007931","pharmacy_name": "KENNEBEC PHCY AND HOME CARE","address1": "839 COMMERCIAL ST","address2": "","city": "ROCKPORT","state": "ME","zip": "04856","zip+4": "0000","phone": "2075940888","NPI": "     1710992342"}, 
{"id": 22118,"ncpdp": "2007943","pharmacy_name": "HANNAFORD FOOD AND DRUG #167","address1": "109 PORTLAND ROAD","address2": "","city": "BRIDGTON","state": "ME","zip": "04009","zip+4": "0000","phone": "2076475795","NPI": "     1891803276"}, 
{"id": 22119,"ncpdp": "2007967","pharmacy_name": "JUNE ST PHARMACY","address1": "25A JUNE ST","address2": "","city": "SANFORD","state": "ME","zip": "04073","zip+4": "0000","phone": "2074907947","NPI": "     1538125463"}, 
{"id": 22120,"ncpdp": "2007981","pharmacy_name": "RANGELEY PHARMACY INC","address1": "2185 MAIN STREET","address2": "","city": "RANGELEY","state": "ME","zip": "04970","zip+4": "0000","phone": "2078643984","NPI": "     1235165960"}, 
{"id": 22121,"ncpdp": "2007993","pharmacy_name": "COMMUNITY PHARMACY CORNISH","address1": "200 MAPLE ST","address2": "UNIT 3","city": "CORNISH","state": "ME","zip": "04020","zip+4": "0000","phone": "2076258050","NPI": "     1760587232"}, 
{"id": 22122,"ncpdp": "2008008","pharmacy_name": "OLD PORT PHARMACY INC","address1": "195 MIDDLE ST","address2": "","city": "PORTLAND","state": "ME","zip": "04101","zip+4": "0000","phone": "2077722164","NPI": "     1730292970"}, 
{"id": 22123,"ncpdp": "2008010","pharmacy_name": "TARGET PHARMACY #2166","address1": "585 ALFRED ROAD ROUTE 111","address2": "","city": "BIDDEFORD","state": "ME","zip": "04005","zip+4": "0000","phone": "2072842511","NPI": "     1609958073"}, 
{"id": 22124,"ncpdp": "2008022","pharmacy_name": "OSCO PHARMACY #7547","address1": "417 PAYNE RD","address2": "","city": "SCARBOROUGH","state": "ME","zip": "04074","zip+4": "0000","phone": "2075103005","NPI": "     1902994098"}, 
{"id": 22125,"ncpdp": "2008034","pharmacy_name": "WALGREEN DRUG STORE #10428","address1": "741 ROOSEVELT TRL","address2": "","city": "WINDHAM","state": "ME","zip": "04062","zip+4": "5269","phone": "2078932562","NPI": "     1093852618"}, 
{"id": 22126,"ncpdp": "2008072","pharmacy_name": "MACHIAS FRIENDLY PHARMACY","address1": "8 OLD COUNTRY RD","address2": "","city": "MARSHFIELD","state": "ME","zip": "04654","zip+4": "0000","phone": "2072556400","NPI": "     1568580587"}, 
{"id": 22127,"ncpdp": "2008084","pharmacy_name": "GOOD FOR ALL PHARMACY","address1": "10 GOODALL DR","address2": "STE 800","city": "EAST WATERBORO","state": "ME","zip": "04030","zip+4": "0000","phone": "2072474000","NPI": "     1912124017"}, 
{"id": 22128,"ncpdp": "2008096","pharmacy_name": "I CARE PHARMACY","address1": "227 MAIN ST","address2": "","city": "FORT FAIRFIELD","state": "ME","zip": "04742","zip+4": "0000","phone": "8884227319","NPI": "     1578680294"}, 
{"id": 22129,"ncpdp": "2008109","pharmacy_name": "HANNAFORD FOOD AND DRUG #229","address1": "140 ELM PLAZA","address2": "","city": "WATERVILLE","state": "ME","zip": "04901","zip+4": "0000","phone": "2078777552","NPI": "     1568585214"}, 
{"id": 22130,"ncpdp": "2008111","pharmacy_name": "MEDICINE SHOPPE #1925","address1": "415 WATER STREET","address2": "","city": "GARDINER","state": "ME","zip": "04345","zip+4": "0000","phone": "2075820362","NPI": "     1225248719"}, 
{"id": 22131,"ncpdp": "2008147","pharmacy_name": "WALGREEN DRUG STORE #10077","address1": "11 STATE RD","address2": "","city": "BATH","state": "ME","zip": "04530","zip+4": "6014","phone": "2074431786","NPI": "     1689860777"}, 
{"id": 22132,"ncpdp": "2008159","pharmacy_name": "CVS PHARMACY #00273","address1": "446 SABATTUS STREET","address2": "","city": "LEWISTON","state": "ME","zip": "04240","zip+4": "0000","phone": "2077833784","NPI": "     1003004938"}, 
{"id": 22133,"ncpdp": "2008161","pharmacy_name": "HANNAFORD SUPERMARKET & PHARMA","address1": "24 PORTLAND RD","address2": "","city": "BUXTON","state": "ME","zip": "04093","zip+4": "0000","phone": "2079293152","NPI": "     1831385152"}, 
{"id": 22134,"ncpdp": "2008197","pharmacy_name": "TARGET PHARMACY #2315","address1": "119 CROSSING WAY","address2": "","city": "AUGUSTA","state": "ME","zip": "04330","zip+4": "0000","phone": "2076228001","NPI": "     1972789311"}, 
{"id": 22135,"ncpdp": "2008200","pharmacy_name": "WALGREEN DRUG STORE #11545","address1": "437 WILSON ST","address2": "","city": "BREWER","state": "ME","zip": "04412","zip+4": "1414","phone": "2079919679","NPI": "     1609049998"}, 
{"id": 22136,"ncpdp": "2008212","pharmacy_name": "WALGREEN DRUG STORE #11285","address1": "706 BROADWAY","address2": "","city": "BANGOR","state": "ME","zip": "04401","zip+4": "3340","phone": "2072620190","NPI": "     1770758898"}, 
{"id": 22137,"ncpdp": "2008224","pharmacy_name": "WALGREEN DRUG STOR #11373","address1": "45 GROVE ST","address2": "","city": "AUGUSTA","state": "ME","zip": "04330","zip+4": "0000","phone": "2076299401","NPI": "     1982861811"}, 
{"id": 22138,"ncpdp": "2008236","pharmacy_name": "WALGREEN DRUG STORE #11416","address1": "53 PARIS ST","address2": "","city": "NORWAY","state": "ME","zip": "04268","zip+4": "5631","phone": "2077440712","NPI": "     1538328026"}, 
{"id": 22139,"ncpdp": "2008248","pharmacy_name": "SAMS PHARMACY #108186","address1": "440 PAYNE ROAD","address2": "","city": "SCARBOUROUGH","state": "ME","zip": "04074","zip+4": "0000","phone": "2078835553","NPI": "     1144483520"}, 
{"id": 22140,"ncpdp": "2008250","pharmacy_name": "CVS PHARMACY #00959","address1": "11 STEEPLE WAY","address2": "","city": "WELLS","state": "ME","zip": "04090","zip+4": "0000","phone": "2076410860","NPI": "     1588811699"}, 
{"id": 22141,"ncpdp": "2008274","pharmacy_name": "WALGREENS #11742","address1": "226 HIGH ST","address2": "","city": "ELLSWORTH","state": "ME","zip": "04605","zip+4": "1742","phone": "2076640952","NPI": "     1588820807"}, 
{"id": 22142,"ncpdp": "2008286","pharmacy_name": "CVS PHARMACY #04158","address1": "2 STONE ST","address2": "","city": "AUGUSTA","state": "ME","zip": "04330","zip+4": "0000","phone": "2076234181","NPI": "     1376793257"}, 
{"id": 22143,"ncpdp": "2008301","pharmacy_name": "APOTHECARY BY DESIGN SPECIALTY","address1": "84 MARGINAL WAY","address2": "SUITE 100","city": "PORTLAND","state": "ME","zip": "04101","zip+4": "0000","phone": "2077745220","NPI": "     1417100447"}, 
{"id": 22144,"ncpdp": "2008313","pharmacy_name": "KENNEBUNK GOOD FOR ALL PHARMAC","address1": "7 SHAPE DRIVE","address2": "","city": "KENNEBUNK","state": "ME","zip": "04043","zip+4": "0000","phone": "2079859400","NPI": "     1558509588"}, 
{"id": 22145,"ncpdp": "2008325","pharmacy_name": "SPRUCE MOUNTAIN PHARMACY INC.","address1": "3 TWEEDIE STREET","address2": "","city": "JAY","state": "ME","zip": "04239","zip+4": "0000","phone": "2078979080","NPI": "     1831337088"}, 
{"id": 22146,"ncpdp": "2008349","pharmacy_name": "CVS PHARMACY # #07410","address1": "48 PORTLAND RD","address2": "","city": "KENNEBUNK","state": "ME","zip": "04043","zip+4": "0000","phone": "4017651500","NPI": "     1962644708"}, 
{"id": 22147,"ncpdp": "2008351","pharmacy_name": "HANNAFORD SUPERMARKET & PHARMA","address1": "118 CONY ST","address2": "","city": "AUGUSTA","state": "ME","zip": "04330","zip+4": "5348","phone": "2076212574","NPI": "     1063656361"}, 
{"id": 22148,"ncpdp": "2008363","pharmacy_name": "HANNAFORD SUPERMARKET & PHARMA","address1": "399 MAIN ST","address2": "","city": "WINTHROP","state": "ME","zip": "04364","zip+4": "1531","phone": "2073773162","NPI": "     1083848139"}, 
{"id": 22149,"ncpdp": "2008375","pharmacy_name": "CENTRAL MAINE PHARMACY","address1": "18 CHINA ROAD","address2": "","city": "ALBION","state": "ME","zip": "04910","zip+4": "0000","phone": "2074377777","NPI": "     1982839601"}, 
{"id": 22150,"ncpdp": "2008399","pharmacy_name": "HANNAFORD SUPERMARKET & PHARMA","address1": "130 SHAKER RD","address2": "","city": "GRAY","state": "ME","zip": "04039","zip+4": "9633","phone": "2076575832","NPI": "     1710115696"}, 
{"id": 22151,"ncpdp": "2008402","pharmacy_name": "HANNAFORD SUPERMARKET & PHARMA","address1": "33 HANNAFORD DRIVE","address2": "","city": "CHINA","state": "ME","zip": "04358","zip+4": "0000","phone": "2074453389","NPI": "     1639307515"}, 
{"id": 22152,"ncpdp": "2008414","pharmacy_name": "CVS PHARMACY # #00143","address1": "384 ELM ST","address2": "","city": "BIDDEFORD","state": "ME","zip": "04005","zip+4": "3012","phone": "2072823187","NPI": "     1689807174"}, 
{"id": 22153,"ncpdp": "2008426","pharmacy_name": "WALGREENS #12325","address1": "616 FOREST AVE","address2": "","city": "PORTLAND","state": "ME","zip": "04101","zip+4": "1510","phone": "2077619454","NPI": "     1770816704"}, 
{"id": 59506,"ncpdp": "9000467","pharmacy_name": "HANNAFORD BROS CO INC","address1": "PO BOX 1000","address2": "","city": "PORTLAND","state": "ME","zip": "04104","zip+4": "0000","phone": "2078832911","NPI": ""}, 
