{"id": 39029,"ncpdp": "3500130","pharmacy_name": "THE PRESCRIPTION SHOP INC","address1": "1210 SHEYENNE ST","address2": "","city": "WEST FARGO","state": "ND","zip": "58078","zip+4": "2698","phone": "7012824665","NPI": "     1891891149"}, 
{"id": 39030,"ncpdp": "3500142","pharmacy_name": "WHITE DRUG #9","address1": "2475 32ND AVE S","address2": "STE 1","city": "GRAND FORKS","state": "ND","zip": "58201","zip+4": "3606","phone": "7017754209","NPI": "     1689763294"}, 
{"id": 39031,"ncpdp": "3500154","pharmacy_name": "WHITE DRUG #30","address1": "1380 SOUTH COLUMBIA ROAD","address2": "SUITE 1","city": "GRAND FORKS","state": "ND","zip": "58201","zip+4": "4012","phone": "7017464455","NPI": "     1851481790"}, 
{"id": 39032,"ncpdp": "3500231","pharmacy_name": "MEDCENTER ONE PHARMACY","address1": "300 N 7TH ST","address2": "","city": "BISMARCK","state": "ND","zip": "58501","zip+4": "4439","phone": "7013236099","NPI": "     1790889715"}, 
{"id": 39033,"ncpdp": "3500243","pharmacy_name": "DAKOTA PHARMACY OF BISMARCK IN","address1": "705 E MAIN AVE","address2": "","city": "BISMARCK","state": "ND","zip": "58501","zip+4": "0000","phone": "7012551881","NPI": "     1548202369"}, 
{"id": 39034,"ncpdp": "3500281","pharmacy_name": "MAYO PHARMACY","address1": "303 N 4TH ST","address2": "","city": "BISMARCK","state": "ND","zip": "58501","zip+4": "4093","phone": "7012232425","NPI": "     1013018910"}, 
{"id": 39035,"ncpdp": "3500394","pharmacy_name": "CASSELTON HEALTH MART DRUG","address1": "622 FRONT STREET","address2": "","city": "CASSELTON","state": "ND","zip": "58012","zip+4": "0000","phone": "7013474281","NPI": "     1730177510"}, 
{"id": 39036,"ncpdp": "3500522","pharmacy_name": "RAMSEY DRUG COMPANY","address1": "401 COLLEGE DR S","address2": "","city": "DEVILS LAKE","state": "ND","zip": "58301","zip+4": "0797","phone": "7016623117","NPI": "     1588686539"}, 
{"id": 39037,"ncpdp": "3500560","pharmacy_name": "GREENE DRUG AND GIFT COMPANY","address1": "16 W VILLARD ST","address2": "","city": "DICKINSON","state": "ND","zip": "58601","zip+4": "0000","phone": "7012255171","NPI": "     1245322437"}, 
{"id": 39038,"ncpdp": "3500623","pharmacy_name": "THE PRESCRIPTION SHOP","address1": "509MAIN ST","address2": "","city": "EDGELEY","state": "ND","zip": "58433","zip+4": "0000","phone": "7014932810","NPI": "     1245302900"}, 
{"id": 39039,"ncpdp": "3500685","pharmacy_name": "DAKOTA CLINIC PHARMACY","address1": "1702 S UNIVERSITY DR","address2": "","city": "FARGO","state": "ND","zip": "58103","zip+4": "0000","phone": "7013643367","NPI": "     1154332716"}, 
{"id": 39040,"ncpdp": "3500697","pharmacy_name": "MERITCARE HOSP S UNIVERSITY PH","address1": "1720 S UNIVERSITY DR","address2": "","city": "FARGO","state": "ND","zip": "58103","zip+4": "0000","phone": "7012804469","NPI": "     1558458844"}, 
{"id": 39041,"ncpdp": "3500712","pharmacy_name": "MERITCARE BROADWAY PHARMACY","address1": "737 BROADWAY","address2": "","city": "FARGO","state": "ND","zip": "58122","zip+4": "0000","phone": "7012342416","NPI": "     1235173519"}, 
{"id": 39042,"ncpdp": "3500736","pharmacy_name": "NDSU STUDENT HEALTH SERVICE PH","address1": "1707 CENTENNIAL BLVD","address2": "","city": "FARGO","state": "ND","zip": "58102","zip+4": "0000","phone": "7012317332","NPI": "     1811939416"}, 
{"id": 39043,"ncpdp": "3500774","pharmacy_name": "MERITCARE HOSPITAL","address1": "720 N 4TH ST","address2": "","city": "FARGO","state": "ND","zip": "58122","zip+4": "0000","phone": "7012343330","NPI": "     1356407910"}, 
{"id": 39044,"ncpdp": "3500801","pharmacy_name": "FORMAN DRUG INC","address1": "330 MAIN ST S","address2": "","city": "FORMAN","state": "ND","zip": "58032","zip+4": "0035","phone": "7017246222","NPI": "     1417945080"}, 
{"id": 39045,"ncpdp": "3500914","pharmacy_name": "GRAND FORKS CLINIC PHARMACY","address1": "1000 S COLUMBIA RD","address2": "","city": "GRAND FORKS","state": "ND","zip": "58201","zip+4": "4031","phone": "7017724875","NPI": "     1962436113"}, 
{"id": 39046,"ncpdp": "3500952","pharmacy_name": "HANKINSON DRUG","address1": "309 S MAIN AVE","address2": "","city": "HANKINSON","state": "ND","zip": "58041","zip+4": "0160","phone": "7012427414","NPI": "     1801900881"}, 
{"id": 39047,"ncpdp": "3500976","pharmacy_name": "SERVICE DRUG AND GIFT INC","address1": "815 LINCOLN AVE","address2": "","city": "HARVEY","state": "ND","zip": "58341","zip+4": "0325","phone": "7013242227","NPI": "     1508877168"}, 
{"id": 39048,"ncpdp": "3501106","pharmacy_name": "WHITE DRUG #15","address1": "410 10TH STREET SE","address2": "","city": "JAMESTOWN","state": "ND","zip": "58401","zip+4": "5562","phone": "7012525980","NPI": "     1497844005"}, 
{"id": 39049,"ncpdp": "3501132","pharmacy_name": "LA MOURE DRUG STORE","address1": "100 1ST AVE SW","address2": "","city": "LAMOURE","state": "ND","zip": "58458","zip+4": "0175","phone": "7018835339","NPI": "     1740249929"}, 
{"id": 39050,"ncpdp": "3501219","pharmacy_name": "LINTON DRUG COMPANY #9978","address1": "121 BROADWAY","address2": "","city": "LINTON","state": "ND","zip": "58552","zip+4": "0000","phone": "7012545432","NPI": "     1447353560"}, 
{"id": 39051,"ncpdp": "3501473","pharmacy_name": "MOTT DRUG STORE","address1": "216 BROWN AVE","address2": "","city": "MOTT","state": "ND","zip": "58646","zip+4": "7100","phone": "7018248297","NPI": "     1255486908"}, 
{"id": 39052,"ncpdp": "3501548","pharmacy_name": "OAKES DRUG","address1": "422 MAIN AVE","address2": "","city": "OAKES","state": "ND","zip": "58474","zip+4": "1637","phone": "7017422118","NPI": "     1528093259"}, 
{"id": 39053,"ncpdp": "3501699","pharmacy_name": "DAKOTA DRUG CO STANLEY","address1": "107 S MAIN ST","address2": "","city": "STANLEY","state": "ND","zip": "58784","zip+4": "0000","phone": "7016282255","NPI": "     1770698714"}, 
{"id": 39054,"ncpdp": "3501714","pharmacy_name": "TIOGA DRUG INC","address1": "106 N MAIN ST","address2": "","city": "TIOGA","state": "ND","zip": "58852","zip+4": "0000","phone": "7016642116","NPI": "     1689725434"}, 
{"id": 39055,"ncpdp": "3501738","pharmacy_name": "TURTLE LAKE REXALL DRUG","address1": "218 MAIN","address2": "","city": "TURTLE LAKE","state": "ND","zip": "58575","zip+4": "0000","phone": "7014482542","NPI": "     1780699314"}, 
{"id": 39056,"ncpdp": "3501752","pharmacy_name": "FOSS DRUG COMPANY","address1": "234 CENTRAL AVE N","address2": "","city": "VALLEY CITY","state": "ND","zip": "58072","zip+4": "2955","phone": "7018452652","NPI": "     1548282403"}, 
{"id": 39057,"ncpdp": "3501803","pharmacy_name": "CORNER DRUG STORE","address1": "522 DAKOTA AVE","address2": "","city": "WAHPETON","state": "ND","zip": "58075","zip+4": "4499","phone": "7016426223","NPI": "     1134345457"}, 
{"id": 39058,"ncpdp": "3501853","pharmacy_name": "LARSEN SERVICE DRUG INC","address1": "244 N MAIN ST","address2": "","city": "WATFORD CITY","state": "ND","zip": "58854","zip+4": "0000","phone": "7014442410","NPI": "     1568408581"}, 
{"id": 39059,"ncpdp": "3501928","pharmacy_name": "SERVICE DRUG PHARMACY","address1": "317 MAIN","address2": "","city": "WILLISTON","state": "ND","zip": "58801","zip+4": "0000","phone": "7015726721","NPI": "     1780768812"}, 
{"id": 39060,"ncpdp": "3502033","pharmacy_name": "NORTHBROOK DRUG","address1": "1929 N WASHINGTON ST","address2": "STE 8","city": "BISMARCK","state": "ND","zip": "58501","zip+4": "0000","phone": "7012581412","NPI": "     1144231705"}, 
{"id": 39061,"ncpdp": "3502083","pharmacy_name": "ALTRU RETAIL PHARMACY #0","address1": "1200 S COLUMBIA RD","address2": "","city": "GRAND FORKS","state": "ND","zip": "58201","zip+4": "0000","phone": "7017803444","NPI": "     1235277179"}, 
{"id": 39062,"ncpdp": "3502172","pharmacy_name": "ST ALEXIUS COMMUNITY PHARMACY","address1": "900 E BROADWAY AVE","address2": "","city": "BISMARCK","state": "ND","zip": "58506","zip+4": "5510","phone": "7015306906","NPI": "     1336283928"}, 
{"id": 39063,"ncpdp": "3502247","pharmacy_name": "STEINER PHARMACY #45","address1": "358 1ST ST E","address2": "","city": "DICKINSON","state": "ND","zip": "58601","zip+4": "0000","phone": "7012270191","NPI": "     1710091798"}, 
{"id": 39064,"ncpdp": "3502273","pharmacy_name": "YE OLDE MEDICINE CENTER","address1": "503 PARK ST WEST","address2": "","city": "PARK RIVER","state": "ND","zip": "58270","zip+4": "9802","phone": "7012847676","NPI": "     1720020324"}, 
{"id": 39065,"ncpdp": "3502362","pharmacy_name": "WHITE DRUG #17","address1": "1015 SOUTH BROADWAY","address2": "SUITE 3","city": "MINOT","state": "ND","zip": "58701","zip+4": "0000","phone": "7018524181","NPI": "     1306935911"}, 
{"id": 39066,"ncpdp": "3502401","pharmacy_name": "CLINIC PHARMACY INC","address1": "938 2ND AVE W","address2": "","city": "DICKINSON","state": "ND","zip": "58601","zip+4": "3999","phone": "7014834401","NPI": "     1013029024"}, 
{"id": 39067,"ncpdp": "3502449","pharmacy_name": "WALLS MEDICINE CENTER","address1": "708 S WASHINGTON ST","address2": "","city": "GRAND FORKS","state": "ND","zip": "58201","zip+4": "4328","phone": "7017460497","NPI": "     1407946338"}, 
{"id": 39068,"ncpdp": "3502451","pharmacy_name": "FAMILY HEALTHCARE PHCY NDSU","address1": "306 4TH ST N","address2": "","city": "FARGO","state": "ND","zip": "58102","zip+4": "0000","phone": "7012716390","NPI": "     1194805796"}, 
{"id": 39069,"ncpdp": "3502487","pharmacy_name": "THRIFTY DRUG LTD","address1": "1521 S UNIVERSITY DR","address2": "","city": "FARGO","state": "ND","zip": "58103","zip+4": "0000","phone": "7012328690","NPI": "     1952407892"}, 
{"id": 39070,"ncpdp": "3502499","pharmacy_name": "WHITE DRUG #39","address1": "1401 33RD STREET SW","address2": "","city": "FARGO","state": "ND","zip": "58103","zip+4": "3429","phone": "7012355511","NPI": "     1215026828"}, 
{"id": 39071,"ncpdp": "3502502","pharmacy_name": "WHITE DRUG #5","address1": "117 NORTH FIFTH STREET","address2": "","city": "BISMARCK","state": "ND","zip": "58501","zip+4": "0000","phone": "7012230936","NPI": "     1760572606"}, 
{"id": 39072,"ncpdp": "3502677","pharmacy_name": "WHITE DRUG #40","address1": "1600 SECOND AVENUE SW","address2": "","city": "MINOT","state": "ND","zip": "58701","zip+4": "3459","phone": "7018520388","NPI": "     1679663512"}, 
{"id": 39073,"ncpdp": "3502689","pharmacy_name": "NORTHPORT DRUG","address1": "2522 N BROADWAY","address2": "","city": "FARGO","state": "ND","zip": "58102","zip+4": "0000","phone": "7012355543","NPI": "     1457419962"}, 
{"id": 39074,"ncpdp": "3502730","pharmacy_name": "THE MEDICINE SHOPPE #0476","address1": "1304 EAST BOULEVARD AVE","address2": "","city": "BISMARCK","state": "ND","zip": "58501","zip+4": "0000","phone": "7012240175","NPI": "     1851485262"}, 
{"id": 39075,"ncpdp": "3502829","pharmacy_name": "SHEYENNE VALLEY DRUG","address1": "407 MAIN ST","address2": "","city": "LISBON","state": "ND","zip": "58054","zip+4": "0601","phone": "7016835282","NPI": "     1265535389"}, 
{"id": 39076,"ncpdp": "3502843","pharmacy_name": "N D PHARMACY INC","address1": "20 E 26TH ST","address2": "","city": "WILLISTON","state": "ND","zip": "58801","zip+4": "3093","phone": "7015724181","NPI": "     1558376152"}, 
{"id": 39077,"ncpdp": "3502867","pharmacy_name": "MEDICINE SHOPPE #0523","address1": "209 11TH AVE SW","address2": "","city": "MINOT","state": "ND","zip": "58701","zip+4": "0000","phone": "7018521524","NPI": "     1356413140"}, 
{"id": 39078,"ncpdp": "3502879","pharmacy_name": "N D PHARMACY INC","address1": "446 18TH STREET WEST","address2": "STE 2","city": "DICKINSON","state": "ND","zip": "58601","zip+4": "3017","phone": "7012254434","NPI": "     1386680767"}, 
{"id": 39079,"ncpdp": "3502920","pharmacy_name": "MEDICINE SHOPPE PHARMACY #0541","address1": "431 WEST VILLARD STREET","address2": "","city": "DICKINSON","state": "ND","zip": "58601","zip+4": "0000","phone": "7012278265","NPI": "     1407038532"}, 
{"id": 39080,"ncpdp": "3502968","pharmacy_name": "MEDICINE SHOPPE PHARMACY #0545","address1": "703 1ST AVENUE S","address2": "","city": "JAMESTOWN","state": "ND","zip": "58401","zip+4": "5549","phone": "7012523002","NPI": "     1134110463"}, 
{"id": 39081,"ncpdp": "3502970","pharmacy_name": "LISBON SHEYENNE PHARMACY","address1": "404 MAIN ST","address2": "","city": "LISBON","state": "ND","zip": "58054","zip+4": "0113","phone": "7016834691","NPI": "     1720150238"}, 
{"id": 39082,"ncpdp": "3502982","pharmacy_name": "HOLIDAY PROFESSIONAL PHARMACY","address1": "1140 E. BISMARCK EXPRESSWAY","address2": "","city": "BISMARCK","state": "ND","zip": "58504","zip+4": "0000","phone": "7012557220","NPI": "     1922000108"}, 
{"id": 39083,"ncpdp": "3502994","pharmacy_name": "WEST ACRES PHARMACY","address1": "3902 13TH AVENUE S","address2": "STE 3706","city": "FARGO","state": "ND","zip": "58103","zip+4": "0000","phone": "7012820285","NPI": "     1487783262"}, 
{"id": 39084,"ncpdp": "3503009","pharmacy_name": "WHITE DRUG #34","address1": "1681 THIRD AVENUE WEST","address2": "","city": "DICKINSON","state": "ND","zip": "58601","zip+4": "3073","phone": "7012254421","NPI": "     1124117734"}, 
{"id": 39085,"ncpdp": "3503100","pharmacy_name": "THOMPSON DRUG","address1": "505 MAIN ST","address2": "","city": "BOTTINEAU","state": "ND","zip": "58318","zip+4": "1202","phone": "7012282291","NPI": "     1962411868"}, 
{"id": 39086,"ncpdp": "3503213","pharmacy_name": "GATEWAY HEALTHMART PHARMACY NO","address1": "3101 N 11TH ST","address2": "SUITE 2","city": "BISMARCK","state": "ND","zip": "58503","zip+4": "0594","phone": "7012249521","NPI": "     1447356399"}, 
{"id": 39087,"ncpdp": "3503225","pharmacy_name": "MEDICINE SHOPPE #0977","address1": "116 2ND AVE NW","address2": "","city": "MANDAN","state": "ND","zip": "58554","zip+4": "0000","phone": "7016631151","NPI": "     1265504054"}, 
{"id": 39088,"ncpdp": "3503237","pharmacy_name": "CHURCHILL PHARMACY INC","address1": "1190 W TURNPIKE AVE","address2": "","city": "BISMARCK","state": "ND","zip": "58501","zip+4": "1300","phone": "7012240339","NPI": "     1639111230"}, 
{"id": 39089,"ncpdp": "3503251","pharmacy_name": "CENTRAL AVENUE PHARMACY","address1": "323 CENTRAL AVE N","address2": "SUITE 101","city": "VALLEY CITY","state": "ND","zip": "58072","zip+4": "2954","phone": "7018455280","NPI": "     1669546149"}, 
{"id": 39090,"ncpdp": "3503302","pharmacy_name": "CLINIC PHARMACY","address1": "1101 7TH ST NE","address2": "PO BOX 1100","city": "DEVILS LAKE","state": "ND","zip": "58301","zip+4": "0000","phone": "7016624427","NPI": "     1184718876"}, 
{"id": 39091,"ncpdp": "3503326","pharmacy_name": "MEDICINE SHOPPE #0080","address1": "1605 SOUTH UNIVERSITY DRIVE","address2": "","city": "FARGO","state": "ND","zip": "58103","zip+4": "4154","phone": "7012933060","NPI": "     1538271549"}, 
{"id": 39092,"ncpdp": "3503338","pharmacy_name": "THRIFTY WHITE DRUG #43","address1": "511 FIRST STREET NW","address2": "","city": "MANDAN","state": "ND","zip": "58554","zip+4": "0000","phone": "7016635188","NPI": "     1588753198"}, 
{"id": 39093,"ncpdp": "3503388","pharmacy_name": "SOUTHPOINTE PHARMACY","address1": "2400 32ND AVE S","address2": "","city": "FARGO","state": "ND","zip": "58103","zip+4": "5804","phone": "7012349912","NPI": "     1396723797"}, 
{"id": 39094,"ncpdp": "3503403","pharmacy_name": "NEW SALEM PHARMACY","address1": "1200 N 8TH ST","address2": "","city": "NEW SALEM","state": "ND","zip": "58563","zip+4": "0426","phone": "7018437563","NPI": "     1710056452"}, 
{"id": 39095,"ncpdp": "3503427","pharmacy_name": "SKIPS BUDGET DRUG","address1": "2015 LIBRARY CIRCLE","address2": "STE 102","city": "GRAND FORKS","state": "ND","zip": "58201","zip+4": "0000","phone": "7017724805","NPI": "     1306931977"}, 
{"id": 39096,"ncpdp": "3503477","pharmacy_name": "WAHPETON DRUG COMPANY INC","address1": "508 DAKOTA AVE","address2": "","city": "WAHPETON","state": "ND","zip": "58075","zip+4": "4498","phone": "7016429211","NPI": "     1336237346"}, 
{"id": 39097,"ncpdp": "3503489","pharmacy_name": "MEDICINE SHOPPE #1169","address1": "2800 N BROADWAY","address2": "","city": "FARGO","state": "ND","zip": "58102","zip+4": "1420","phone": "7012930221","NPI": "     1447362454"}, 
{"id": 39098,"ncpdp": "3503504","pharmacy_name": "NILLES DRUG INC #153","address1": "58 S MAIN ST","address2": "","city": "FESSENDEN","state": "ND","zip": "58438","zip+4": "7100","phone": "7015473201","NPI": "     1932241676"}, 
{"id": 39099,"ncpdp": "3503516","pharmacy_name": "BARRETT PHARMACY","address1": "145 N MAIN ST","address2": "","city": "WATFORD CITY","state": "ND","zip": "58854","zip+4": "0000","phone": "7018423311","NPI": "     1790795987"}, 
{"id": 39100,"ncpdp": "3503528","pharmacy_name": "WALZ PHARMACY","address1": "213 1ST AVE N","address2": "","city": "JAMESTOWN","state": "ND","zip": "58401","zip+4": "0000","phone": "7012523181","NPI": "     1043249980"}, 
{"id": 39101,"ncpdp": "3503530","pharmacy_name": "SOUTHTOWN ECONO DRUGS #1","address1": "387 11TH ST S","address2": "","city": "WAHPETON","state": "ND","zip": "58075","zip+4": "4653","phone": "7016422336","NPI": "     1710977897"}, 
{"id": 39102,"ncpdp": "3503542","pharmacy_name": "LINSON PHARMACY","address1": "3175 25TH ST S","address2": "","city": "FARGO","state": "ND","zip": "58103","zip+4": "0000","phone": "7012936022","NPI": "     1386664829"}, 
{"id": 39103,"ncpdp": "3503554","pharmacy_name": "PROFESSIONAL PHARMACY","address1": "3124 COLORADO LANE","address2": "#400","city": "BISMARCK","state": "ND","zip": "58503","zip+4": "0000","phone": "7012236854","NPI": "     1043243272"}, 
{"id": 39104,"ncpdp": "3503629","pharmacy_name": "THRIFTY DRUG SOUTHGATE","address1": "1532 32ND AVE S","address2": "","city": "FARGO","state": "ND","zip": "58103","zip+4": "0000","phone": "7012801929","NPI": "     1881785053"}, 
{"id": 39105,"ncpdp": "3503679","pharmacy_name": "GATEWAY HEALTHMART PHARMACY SO","address1": "835 S WASHINGTON ST","address2": "SUITE 2","city": "BISMARCK","state": "ND","zip": "58504","zip+4": "0000","phone": "7012231656","NPI": "     1205927571"}, 
{"id": 39106,"ncpdp": "3503720","pharmacy_name": "MEDICAP PHARMACY #8158","address1": "1395 SOUTH COLUMBIA ROAD","address2": "SUITE C","city": "GRAND FORKS","state": "ND","zip": "58201","zip+4": "0000","phone": "7017461800","NPI": "     1093841496"}, 
{"id": 39107,"ncpdp": "3503770","pharmacy_name": "HEALTH CENTER PHARMACY","address1": "1401 13TH AVE W","address2": "","city": "WEST FARGO","state": "ND","zip": "58078","zip+4": "0000","phone": "7013645800","NPI": "     1770626004"}, 
{"id": 39108,"ncpdp": "3503794","pharmacy_name": "YE OLDE MEDICINE SHOPPE INC","address1": "102 DIVISION AVE S","address2": "","city": "CAVALIER","state": "ND","zip": "58220","zip+4": "0000","phone": "7012653332","NPI": "     1407861040"}, 
{"id": 39109,"ncpdp": "3503807","pharmacy_name": "WHITE DRUG #45","address1": "310 FIRST AVENUE SOUTH","address2": "","city": "JAMESTOWN","state": "ND","zip": "58401","zip+4": "0000","phone": "7012511432","NPI": "     1588754428"}, 
{"id": 39110,"ncpdp": "3503821","pharmacy_name": "GATEWAY HEALTH MART PHARMACY M","address1": "500 BURLINGTON ST SE","address2": "","city": "MANDAN","state": "ND","zip": "58554","zip+4": "4281","phone": "7016671843","NPI": "     1497847776"}, 
{"id": 39111,"ncpdp": "3503857","pharmacy_name": "WHITE DRUG #47 DBA BELL DRUG #","address1": "323 FIFTH STREET","address2": "","city": "DEVILS LAKE","state": "ND","zip": "58301","zip+4": "0000","phone": "7016623022","NPI": "     1396834909"}, 
{"id": 39112,"ncpdp": "3503869","pharmacy_name": "WHITE DRUG #46","address1": "1100 13TH AVENUE EAST","address2": "","city": "WEST FARGO","state": "ND","zip": "58078","zip+4": "0000","phone": "7012815695","NPI": "     1033208640"}, 
{"id": 39113,"ncpdp": "3503958","pharmacy_name": "WHITE DRUG #50","address1": "107 SECOND STREET SE","address2": "","city": "RUGBY","state": "ND","zip": "58368","zip+4": "0000","phone": "7017765741","NPI": "     1205925815"}, 
{"id": 39114,"ncpdp": "3503972","pharmacy_name": "THRIFTY WHITE DRUG #52","address1": "712 38TH STREET NW","address2": "SUITE A","city": "FARGO","state": "ND","zip": "58102","zip+4": "0000","phone": "7018939217","NPI": "     1114016722"}, 
{"id": 39115,"ncpdp": "3503984","pharmacy_name": "WHITE DRUG #53","address1": "201 EAST 3RD AVENUE SOUTH","address2": "","city": "CAVALIER","state": "ND","zip": "58220","zip+4": "0000","phone": "7012654744","NPI": "     1730242728"}, 
{"id": 39116,"ncpdp": "3503996","pharmacy_name": "WHITE DRUG #55","address1": "112 SOUTH MAIN STREET","address2": "","city": "HETTINGER","state": "ND","zip": "58639","zip+4": "0000","phone": "7015672533","NPI": "     1396835237"}, 
{"id": 39117,"ncpdp": "3504049","pharmacy_name": "WHITE DRUG #57","address1": "108 CENTRAL AVENUE","address2": "","city": "MADDOCK","state": "ND","zip": "58348","zip+4": "0000","phone": "7014382567","NPI": "     1205926144"}, 
{"id": 39118,"ncpdp": "3504051","pharmacy_name": "WHITE DRUG #58","address1": "208 MAIN STREET","address2": "","city": "ROLETTE","state": "ND","zip": "58366","zip+4": "0000","phone": "7012463600","NPI": "     1568552404"}, 
{"id": 39119,"ncpdp": "3504075","pharmacy_name": "WHITE DRUG DBA VALLEY DRUG #59","address1": "239 2ND AVENUE NW","address2": "","city": "VALLEY CITY","state": "ND","zip": "58072","zip+4": "0000","phone": "7018451763","NPI": "     1023107638"}, 
{"id": 39120,"ncpdp": "3504099","pharmacy_name": "LARSEN SERVICE DRUG INC #2","address1": "334 MAIN STREET","address2": "","city": "NEW TOWN","state": "ND","zip": "58763","zip+4": "0000","phone": "7016272410","NPI": "     1093891095"}, 
{"id": 39121,"ncpdp": "3504102","pharmacy_name": "WHITE DRUG #62","address1": "115 MAIN STREET WEST","address2": "","city": "MOHALL","state": "ND","zip": "58761","zip+4": "0000","phone": "7017566000","NPI": "     1477643310"}, 
{"id": 39122,"ncpdp": "3504114","pharmacy_name": "WHITE DRUG #63","address1": "425 COLLEGE DRIVE SOUTH","address2": "SUITE 10","city": "DEVILS LAKE","state": "ND","zip": "58301","zip+4": "3537","phone": "7016626270","NPI": "     1386734226"}, 
{"id": 39123,"ncpdp": "3504126","pharmacy_name": "WHITE DRUG #60","address1": "148 SOUTH CENTRAL AVENUE","address2": "","city": "VALLEY CITY","state": "ND","zip": "58072","zip+4": "0000","phone": "7018451421","NPI": "     1194815035"}, 
{"id": 39124,"ncpdp": "3504138","pharmacy_name": "WHITE DRUG #61","address1": "706 38TH STREET NW UNITS D-E-F","address2": "","city": "FARGO","state": "ND","zip": "58102","zip+4": "0000","phone": "7018939050","NPI": "     1003906942"}, 
{"id": 39125,"ncpdp": "3504152","pharmacy_name": "ENDERLIN PHARMACY","address1": "308 RAILWAY ST","address2": "","city": "ENDERLIN","state": "ND","zip": "58027","zip+4": "0000","phone": "7014372464","NPI": "     1356453369"}, 
{"id": 39126,"ncpdp": "3504164","pharmacy_name": "WHITE DRUG #65","address1": "544 HILL AVENUE","address2": "","city": "GRAFTON","state": "ND","zip": "58237","zip+4": "0000","phone": "7013521760","NPI": "     1932298544"}, 
{"id": 39127,"ncpdp": "3504215","pharmacy_name": "PRAIRIE PHARMACY FA1","address1": "4731 13TH AVE SW","address2": "","city": "FARGO","state": "ND","zip": "58103","zip+4": "0000","phone": "7013730325","NPI": "     1881791721"}, 
{"id": 39128,"ncpdp": "3504265","pharmacy_name": "PEACE GARDEN PHARMACY","address1": "8 MAIN ST","address2": "","city": "DUNSEITH","state": "ND","zip": "58329","zip+4": "0729","phone": "7012445711","NPI": "     1922019686"}, 
{"id": 39129,"ncpdp": "3504277","pharmacy_name": "ARTHUR DRUG #553","address1": "340 MAIN ST","address2": "","city": "ARTHUR","state": "ND","zip": "58006","zip+4": "0000","phone": "7019678900","NPI": "     1982655049"}, 
{"id": 39130,"ncpdp": "3504289","pharmacy_name": "CVS PHARMACY #08611","address1": "1520 20TH AVE SW","address2": "","city": "MINOT","state": "ND","zip": "58701","zip+4": "0000","phone": "7018524068","NPI": "     1700828993"}, 
{"id": 39131,"ncpdp": "3504291","pharmacy_name": "CVS PHARMACY #08620","address1": "1950 32ND AVE S","address2": "","city": "GRAND FORKS","state": "ND","zip": "58201","zip+4": "0000","phone": "7017468643","NPI": "     1619919800"}, 
{"id": 39132,"ncpdp": "3504304","pharmacy_name": "CVS PHARMACY #08628","address1": "601 KIRKWOOD MA;;","address2": "","city": "BISMARCK","state": "ND","zip": "58504","zip+4": "0000","phone": "7012551335","NPI": "     1528000718"}, 
{"id": 39133,"ncpdp": "3504316","pharmacy_name": "CVS PHARMACY #08612","address1": "2401 13TH AVE SOUTH","address2": "","city": "FARGO","state": "ND","zip": "58103","zip+4": "0000","phone": "7012324872","NPI": "     1821039793"}, 
{"id": 39134,"ncpdp": "3504328","pharmacy_name": "CVS PHARMACY #08614","address1": "1225 E CALGARY AVENUE","address2": "","city": "BISMARCK","state": "ND","zip": "58503","zip+4": "0000","phone": "7012239323","NPI": "     1730120601"}, 
{"id": 39135,"ncpdp": "3504330","pharmacy_name": "CVS PHARMACY #08613","address1": "1321 19TH AVE NORTH","address2": "","city": "FARGO","state": "ND","zip": "58102","zip+4": "0000","phone": "7012322720","NPI": "     1649211517"}, 
{"id": 39136,"ncpdp": "3504354","pharmacy_name": "MEDICAL PHARMACY SOUTH","address1": "4151 45TH ST SO","address2": "","city": "FARGO","state": "ND","zip": "58104","zip+4": "0000","phone": "7012828075","NPI": "     1912954165"}, 
{"id": 39137,"ncpdp": "3504380","pharmacy_name": "GRAFTON DRUG","address1": "501 HILL AVE","address2": "","city": "GRAFTON","state": "ND","zip": "58237","zip+4": "0000","phone": "7013520831","NPI": "     1740228774"}, 
{"id": 39138,"ncpdp": "3504405","pharmacy_name": "WALLS HEALTH MART PHARMACY","address1": "1451 44TH AVE SOUTH","address2": "STE 101D","city": "GRAND FORKS","state": "ND","zip": "58201","zip+4": "0000","phone": "7017322900","NPI": "     1376632067"}, 
{"id": 39139,"ncpdp": "3504417","pharmacy_name": "WHITE DRUG #67","address1": "300 11TH STREET W","address2": "","city": "WILLISTON","state": "ND","zip": "58801","zip+4": "5159","phone": "7017743923","NPI": "     1629182605"}, 
{"id": 39140,"ncpdp": "3504429","pharmacy_name": "7-DAY CLINIC","address1": "4622 40TH AVE S","address2": "","city": "FARGO","state": "ND","zip": "58104","zip+4": "0000","phone": "7012326211","NPI": "     1417096652"}, 
{"id": 39141,"ncpdp": "3504431","pharmacy_name": "WHITE DRUG #66","address1": "109 W MAIN ST","address2": "","city": "ASHLEY","state": "ND","zip": "58413","zip+4": "0000","phone": "7012883355","NPI": "     1053475020"}, 
{"id": 39142,"ncpdp": "3504443","pharmacy_name": "THE RX CO","address1": "550 13TH AVE EAST","address2": "","city": "WEST FARGO","state": "ND","zip": "58078","zip+4": "0000","phone": "7012778492","NPI": "     1982826756"}, 
{"id": 39143,"ncpdp": "3504455","pharmacy_name": "WHITE DRUG #68","address1": "201 SOUTH UNIVERSITY DR","address2": "","city": "FARGO","state": "ND","zip": "58103","zip+4": "8299","phone": "7012393543","NPI": "     1730369711"}, 
{"id": 39144,"ncpdp": "3504467","pharmacy_name": "FRONTIER PHARMACY","address1": "3306 SHEYENNE ST","address2": "STE 218","city": "WEST FARGO","state": "ND","zip": "58078","zip+4": "0000","phone": "7013567455","NPI": "     1760664049"}, 
{"id": 39145,"ncpdp": "3504493","pharmacy_name": "INNOVIS HEALTH","address1": "3000 32ND AVE SW","address2": "","city": "FARGO","state": "ND","zip": "58104","zip+4": "0000","phone": "7013648000","NPI": "     1336318567"}, 
{"id": 39146,"ncpdp": "3504506","pharmacy_name": "TARAS THRIFTY WHITE LLC","address1": "610 MAIN AVE","address2": "","city": "OAKES","state": "ND","zip": "58474","zip+4": "0000","phone": "7017423824","NPI": "     1184892523"}, 
{"id": 39147,"ncpdp": "3504520","pharmacy_name": "BELCOURT DRUG INC","address1": "9838 43T AVE NE","address2": "4","city": "BELCOURT","state": "ND","zip": "58316","zip+4": "0000","phone": "7014770202","NPI": "     1790941342"}, 
{"id": 39148,"ncpdp": "3504570","pharmacy_name": "MEDICINE SHOPPE #1677","address1": "722 LINCOLN AVENUE","address2": "","city": "HARVEY","state": "ND","zip": "58341","zip+4": "0000","phone": "7013242295","NPI": "     1629222542"}, 
{"id": 39149,"ncpdp": "3504582","pharmacy_name": "HERITAGE PHARMACY GATEWAY MALL","address1": "2700 STATE ST","address2": "STE F13","city": "BISMARCK","state": "ND","zip": "58503","zip+4": "0000","phone": "7015306050","NPI": "     1326291238"}, 
{"id": 39150,"ncpdp": "3504619","pharmacy_name": "UNIT PAK","address1": "4153 12TH AVE. N.","address2": "","city": "FARGO","state": "ND","zip": "58102","zip+4": "0000","phone": "7013738500","NPI": "     1356570766"}, 
{"id": 39151,"ncpdp": "3504633","pharmacy_name": "ALTRU CLINIC PHARMACY INC","address1": "1000 S COLUMBIA RD","address2": "","city": "GRAND FORKS","state": "ND","zip": "58201","zip+4": "4032","phone": "7017724875","NPI": "     1326279548"}, 
