{"id": 29873,"ncpdp": "2783567","pharmacy_name": "ALPINE RIDGE PHARMACY","address1": "6475 HWY 93 S","address2": "","city": "WHITEFISH","state": "MT","zip": "59937","zip+4": "0000","phone": "4067557979","NPI": "     1659504363"}, 
{"id": 29874,"ncpdp": "2800034","pharmacy_name": "WALGREEN DRUG STORE #541","address1": "1301 O STREET","address2": "","city": "LINCOLN","state": "NE","zip": "68508","zip+4": "0000","phone": "4024352102","NPI": "     1538174578"}, 
{"id": 29875,"ncpdp": "2800046","pharmacy_name": "WALGREEN DRUG STORE #3182","address1": "7045 O STREET","address2": "","city": "LINCOLN","state": "NE","zip": "68510","zip+4": "0000","phone": "4024848111","NPI": "     1447265483"}, 
{"id": 29876,"ncpdp": "2800058","pharmacy_name": "WALGREEN DRUG STORE #5143","address1": "7151 CASS ST","address2": "","city": "OMAHA","state": "NE","zip": "68132","zip+4": "0000","phone": "4025588511","NPI": "     1356356398"}, 
{"id": 29877,"ncpdp": "2800072","pharmacy_name": "WALGREEN DRUG STORE #2855","address1": "6101 NW RADIAL","address2": "","city": "OMAHA","state": "NE","zip": "68104","zip+4": "0000","phone": "4025516044","NPI": "     1265447205"}, 
{"id": 29878,"ncpdp": "2800147","pharmacy_name": "WALGREEN DRUG STORE #7693","address1": "225 N SADDLE CREEK RD","address2": "","city": "OMAHA","state": "NE","zip": "68131","zip+4": "0000","phone": "4025511544","NPI": "     1083629026"}, 
{"id": 29879,"ncpdp": "2800161","pharmacy_name": "HEARTLAND MEDICAL AND PRESCRIP","address1": "11024 Q STREET","address2": "","city": "OMAHA","state": "NE","zip": "68510","zip+4": "0000","phone": "4023312661","NPI": "     1548230162"}, 
{"id": 29880,"ncpdp": "2800173","pharmacy_name": "WALGREEN DRUG STORE #4443","address1": "9001 W CENTER RD","address2": "","city": "OMAHA","state": "NE","zip": "68124","zip+4": "0000","phone": "4023938429","NPI": "     1174538110"}, 
{"id": 29881,"ncpdp": "2800185","pharmacy_name": "WALGREEN DRUG STORE #3269","address1": "705 N BURLINGTON AVE","address2": "","city": "HASTINGS","state": "NE","zip": "68901","zip+4": "0000","phone": "4024634551","NPI": "     1891700837"}, 
{"id": 29882,"ncpdp": "2800197","pharmacy_name": "WALGREEN DRUG STORE #3621","address1": "9001 BLONDO STREET","address2": "","city": "OMAHA","state": "NE","zip": "68114","zip+4": "0000","phone": "4023938019","NPI": "     1700891744"}, 
{"id": 29883,"ncpdp": "2800236","pharmacy_name": "WALGREEN DRUG STORE #3694","address1": "1802 GALVIN RD S","address2": "","city": "BELLEVUE","state": "NE","zip": "68005","zip+4": "0000","phone": "4022918404","NPI": "     1881605012"}, 
{"id": 29884,"ncpdp": "2800248","pharmacy_name": "WALGREEN DRUG STORE #7272","address1": "13155 W CENTER RD","address2": "","city": "OMAHA","state": "NE","zip": "68144","zip+4": "0000","phone": "4023349094","NPI": "     1619982659"}, 
{"id": 29885,"ncpdp": "2800298","pharmacy_name": "THIELE DRUG CO INC","address1": "304 BOX BUTTE AVE","address2": "","city": "ALLIANCE","state": "NE","zip": "69301","zip+4": "3342","phone": "3087624033","NPI": "     1386704120"}, 
{"id": 29886,"ncpdp": "2800325","pharmacy_name": "SHAVERS PHARMACY","address1": "508 NIOBRARA","address2": "","city": "HEMINGFORD","state": "NE","zip": "69348","zip+4": "0000","phone": "3084875212","NPI": "     1720161748"}, 
{"id": 29887,"ncpdp": "2800515","pharmacy_name": "MEDICINE CHEST CO #1","address1": "7328 MAPLE ST","address2": "","city": "OMAHA","state": "NE","zip": "68134","zip+4": "6896","phone": "4023912659","NPI": "     1194866582"}, 
{"id": 29888,"ncpdp": "2800541","pharmacy_name": "FARRELL PHARMACY","address1": "120 WEST B ST","address2": "","city": "MCCOOK","state": "NE","zip": "69001","zip+4": "0000","phone": "3083451781","NPI": "     1336173376"}, 
{"id": 29889,"ncpdp": "2800565","pharmacy_name": "KOHLLS PHARMACY #23","address1": "3427 S 84TH ST","address2": "","city": "OMAHA","state": "NE","zip": "68124","zip+4": "0000","phone": "4023931404","NPI": "     1104976232"}, 
{"id": 29890,"ncpdp": "2800577","pharmacy_name": "KOHLLS PHARMACY #21","address1": "2923 LEAVENWORTH ST","address2": "","city": "OMAHA","state": "NE","zip": "68105","zip+4": "0000","phone": "4023426547","NPI": "     1114077245"}, 
{"id": 29891,"ncpdp": "2800589","pharmacy_name": "KOHLLS PHARMACY #42","address1": "617 N 114TH ST","address2": "","city": "OMAHA","state": "NE","zip": "68154","zip+4": "0000","phone": "4024080012","NPI": "     1710037841"}, 
{"id": 29892,"ncpdp": "2800591","pharmacy_name": "KOHLLS PHARMACY #34","address1": "12739 Q ST","address2": "","city": "OMAHA","state": "NE","zip": "68137","zip+4": "0000","phone": "4028953101","NPI": "     1518017656"}, 
{"id": 29893,"ncpdp": "2800604","pharmacy_name": "KOHLLS RXMPSS #4","address1": "5110 L STREET","address2": "","city": "OMAHA","state": "NE","zip": "68117","zip+4": "0000","phone": "4027332000","NPI": "     1801946934"}, 
{"id": 29894,"ncpdp": "2800628","pharmacy_name": "GERING PHARMACY","address1": "1400 10TH STREET","address2": "","city": "GERING","state": "NE","zip": "69341","zip+4": "0000","phone": "3084362181","NPI": "     1063500684"}, 
{"id": 29895,"ncpdp": "2800642","pharmacy_name": "U SAVE PHARMACY INC","address1": "2105 S LOCUST ST","address2": "","city": "GRAND ISLAND","state": "NE","zip": "68801","zip+4": "0000","phone": "3083823784","NPI": "     1780605634"}, 
{"id": 29896,"ncpdp": "2800779","pharmacy_name": "SKAGWAY PHARMACY","address1": "620 W STATE ST","address2": "P O BOX 1647","city": "GRAND ISLAND","state": "NE","zip": "68801","zip+4": "0000","phone": "3083848228","NPI": "     1720120025"}, 
{"id": 29897,"ncpdp": "2800832","pharmacy_name": "KUBAT PHARMACY","address1": "4924 CENTER ST","address2": "","city": "OMAHA","state": "NE","zip": "68106","zip+4": "3296","phone": "4025588888","NPI": "     1326042342"}, 
{"id": 29898,"ncpdp": "2800856","pharmacy_name": "KOHLLS PHARMACY #25","address1": "5000 DODGE ST","address2": "","city": "OMAHA","state": "NE","zip": "68132","zip+4": "0000","phone": "4025538900","NPI": "     1821148958"}, 
{"id": 29899,"ncpdp": "2800907","pharmacy_name": "EDS REXALL","address1": "2701 S 10TH ST","address2": "","city": "OMAHA","state": "NE","zip": "68108","zip+4": "1697","phone": "4023421731","NPI": "     1407996895"}, 
{"id": 29900,"ncpdp": "2800921","pharmacy_name": "KEITHS DRIVE IN DRUG","address1": "500 N HASTINGS","address2": "","city": "HASTINGS","state": "NE","zip": "68901","zip+4": "5173","phone": "4024626101","NPI": "     1134231137"}, 
{"id": 29901,"ncpdp": "2801062","pharmacy_name": "MILLER PHARMACY NORTH","address1": "322 E 22ND STREET","address2": "","city": "FREMONT","state": "NE","zip": "68025","zip+4": "0000","phone": "4027215433","NPI": "     1154491462"}, 
{"id": 29902,"ncpdp": "2801098","pharmacy_name": "SAV RX PHARMACY","address1": "1612 N BELL","address2": "","city": "FREMONT","state": "NE","zip": "68025","zip+4": "0000","phone": "4027217634","NPI": "     1255485603"}, 
{"id": 29903,"ncpdp": "2801137","pharmacy_name": "MILLER PHARMACY INC","address1": "1900 E MILITARY","address2": "STE 220","city": "FREMONT","state": "NE","zip": "68025","zip+4": "5494","phone": "4027211100","NPI": "     1417968926"}, 
{"id": 29904,"ncpdp": "2801163","pharmacy_name": "SEIG PHARMACY","address1": "6655 SORENSEN PKWY","address2": "","city": "OMAHA","state": "NE","zip": "68152","zip+4": "0000","phone": "4028293282","NPI": "     1003839473"}, 
{"id": 29905,"ncpdp": "2801199","pharmacy_name": "BREHM DRUG","address1": "608 HOWARD AVE","address2": "","city": "SAINT PAUL","state": "NE","zip": "68873","zip+4": "2023","phone": "3087544611","NPI": "     1417904632"}, 
{"id": 29906,"ncpdp": "2801466","pharmacy_name": "TOOLEY DRUG INC","address1": "2615 13TH ST","address2": "","city": "COLUMBUS","state": "NE","zip": "68601","zip+4": "4984","phone": "4025647205","NPI": "     1861458085"}, 
{"id": 29907,"ncpdp": "2801517","pharmacy_name": "ABC DRUG","address1": "2202 CENTRAL AVE","address2": "","city": "KEARNEY","state": "NE","zip": "68847","zip+4": "0000","phone": "3082372178","NPI": "     1487794921"}, 
{"id": 29908,"ncpdp": "2801555","pharmacy_name": "SCRIBNER PHARMACY","address1": "416 MAIN ST","address2": "","city": "SCRIBNER","state": "NE","zip": "68057","zip+4": "0547","phone": "4026643133","NPI": "     1770697740"}, 
{"id": 29909,"ncpdp": "2801606","pharmacy_name": "LLOYDS DRUG MART","address1": "2600 W NORFOLK AVE","address2": "","city": "NORFOLK","state": "NE","zip": "68701","zip+4": "4496","phone": "4023713284","NPI": "     1730264714"}, 
{"id": 29910,"ncpdp": "2801632","pharmacy_name": "WRAGGE PHARMACY","address1": "332 S 13TH STREET","address2": "","city": "TEKAMAH","state": "NE","zip": "68061","zip+4": "0000","phone": "4023741400","NPI": "     1790886695"}, 
{"id": 29911,"ncpdp": "2801694","pharmacy_name": "WALGREEN DRUG STORE #515","address1": "2600 SOUTH 48TH STREET","address2": "","city": "LINCOLN","state": "NE","zip": "68506","zip+4": "0000","phone": "4024832831","NPI": "     1528073566"}, 
{"id": 29912,"ncpdp": "2801721","pharmacy_name": "WAGONER PHARMACY","address1": "2444 W FAIDLEY","address2": "","city": "GRAND ISLAND","state": "NE","zip": "68803","zip+4": "0000","phone": "3083821100","NPI": "     1700993359"}, 
{"id": 29913,"ncpdp": "2801745","pharmacy_name": "PANHANDLE COOP PHARMACY","address1": "401 S BELTLINE HWY W","address2": "","city": "SCOTTSBLUFF","state": "NE","zip": "69361","zip+4": "0000","phone": "3086323900","NPI": "     1255407094"}, 
{"id": 29914,"ncpdp": "2801808","pharmacy_name": "WELLS HEALTHMART DRUG","address1": "113 S 4TH ST","address2": "","city": "ALBION","state": "NE","zip": "68620","zip+4": "1215","phone": "4023952184","NPI": "     1235120874"}, 
{"id": 29915,"ncpdp": "2801810","pharmacy_name": "HAYS PHARMACY","address1": "706 W MAIN","address2": "","city": "ALMA","state": "NE","zip": "68920","zip+4": "0000","phone": "3089282022","NPI": "     1659474765"}, 
{"id": 29916,"ncpdp": "2801947","pharmacy_name": "MEDICINE SHOPPE #1742","address1": "601 COURT STREET","address2": "","city": "BEATRICE","state": "NE","zip": "68310","zip+4": "0000","phone": "4022232379","NPI": "     1043322043"}, 
{"id": 29917,"ncpdp": "2801959","pharmacy_name": "POLING DRUG","address1": "711 E COURT ST","address2": "","city": "BEATRICE","state": "NE","zip": "68310","zip+4": "3984","phone": "4022233529","NPI": "     1245344134"}, 
{"id": 29918,"ncpdp": "2802038","pharmacy_name": "RONS PHARMACY","address1": "537 E GAGE ST","address2": "","city": "BLUE HILL","state": "NE","zip": "68930","zip+4": "0307","phone": "4027563811","NPI": "     1437164068"}, 
{"id": 29919,"ncpdp": "2802090","pharmacy_name": "BURWELL PHARMACY","address1": "137 GRAND ST","address2": "PO BOX 520","city": "BURWELL","state": "NE","zip": "68823","zip+4": "9802","phone": "3083464747","NPI": "     1043375710"}, 
{"id": 29920,"ncpdp": "2802115","pharmacy_name": "RIGHT DRUG STORE","address1": "113 E KIMBALL","address2": "","city": "CALLAWAY","state": "NE","zip": "68825","zip+4": "0130","phone": "3088362219","NPI": "     1831173319"}, 
{"id": 29921,"ncpdp": "2802165","pharmacy_name": "PETERSEN DRUG","address1": "302 MAIN ST","address2": "","city": "CHADRON","state": "NE","zip": "69337","zip+4": "2358","phone": "3084322400","NPI": "     1154306165"}, 
{"id": 29922,"ncpdp": "2802266","pharmacy_name": "SERVICE DRUG STORE","address1": "133 E 8TH ST","address2": "","city": "COZAD","state": "NE","zip": "69130","zip+4": "1729","phone": "3087842238","NPI": "     1528281961"}, 
{"id": 29923,"ncpdp": "2802280","pharmacy_name": "MANIONS HEALTHMART PHARMACY","address1": "719 MAIN ST","address2": "","city": "CREIGHTON","state": "NE","zip": "68729","zip+4": "0085","phone": "4023583535","NPI": "     1336124320"}, 
{"id": 29924,"ncpdp": "2802533","pharmacy_name": "JOHNSON PHARMACY","address1": "151 MAPLE ST","address2": "","city": "FRIEND","state": "NE","zip": "68359","zip+4": "1030","phone": "4029472341","NPI": "     1093857823"}, 
{"id": 29925,"ncpdp": "2802634","pharmacy_name": "GRANT PHARMACY","address1": "218 CENTRAL AVE","address2": "","city": "GRANT","state": "NE","zip": "69140","zip+4": "0000","phone": "3083524511","NPI": "     1073648663"}, 
{"id": 29926,"ncpdp": "2802660","pharmacy_name": "STEFFEN DRUG","address1": "214 N BROADWAY","address2": "","city": "HARTINGTON","state": "NE","zip": "68739","zip+4": "0218","phone": "4022543549","NPI": "     1679636856"}, 
{"id": 29927,"ncpdp": "2802684","pharmacy_name": "BERTS PHARMACY","address1": "1021 W 14TH ST","address2": "","city": "HASTINGS","state": "NE","zip": "68901","zip+4": "3047","phone": "4024624466","NPI": "     1548281595"}, 
{"id": 29928,"ncpdp": "2802696","pharmacy_name": "BERTS PHARMACY","address1": "700 W 2ND ST","address2": "","city": "HASTINGS","state": "NE","zip": "68901","zip+4": "5103","phone": "4024624343","NPI": "     1326059833"}, 
{"id": 29929,"ncpdp": "2802711","pharmacy_name": "SUN MART PHARMACY #450","address1": "920 S BURLINGTON AVE","address2": "","city": "HASTINGS","state": "NE","zip": "68901","zip+4": "0000","phone": "4024637700","NPI": "     1124176490"}, 
{"id": 29930,"ncpdp": "2802761","pharmacy_name": "HENDERSON PHARMACY","address1": "1060 N MAIN ST","address2": "","city": "HENDERSON","state": "NE","zip": "68371","zip+4": "0711","phone": "4027234475","NPI": "     1881781557"}, 
{"id": 29931,"ncpdp": "2802785","pharmacy_name": "NOBLE DRUG","address1": "702 4TH AVE","address2": "","city": "HOLDREGE","state": "NE","zip": "68949","zip+4": "2292","phone": "3089956105","NPI": "     1497770382"}, 
{"id": 29932,"ncpdp": "2802848","pharmacy_name": "U SAVE PHARMACY","address1": "3611 2ND AVE","address2": "","city": "KEARNEY","state": "NE","zip": "68848","zip+4": "0000","phone": "3082341973","NPI": "     1376534461"}, 
{"id": 29933,"ncpdp": "2802874","pharmacy_name": "BEMIS DRUG","address1": "121 E 2ND ST","address2": "","city": "KIMBALL","state": "NE","zip": "69145","zip+4": "1208","phone": "3082353936","NPI": "     1720004674"}, 
{"id": 29934,"ncpdp": "2803054","pharmacy_name": "FOUR STAR DRUG","address1": "1265 S COTNER BLVD","address2": "","city": "LINCOLN","state": "NE","zip": "68510","zip+4": "4924","phone": "4024347730","NPI": "     1528131521"}, 
{"id": 29935,"ncpdp": "2803066","pharmacy_name": "FOUR STAR DRUG OF BETHANY","address1": "1340 N 66TH ST","address2": "","city": "LINCOLN","state": "NE","zip": "68505","zip+4": "1897","phone": "4024347701","NPI": "     1194898197"}, 
{"id": 29936,"ncpdp": "2803232","pharmacy_name": "STOCKWELL PHARMACY","address1": "3811 S 27TH ST","address2": "","city": "LINCOLN","state": "NE","zip": "68502","zip+4": "5700","phone": "4024238588","NPI": "     1801919105"}, 
{"id": 29937,"ncpdp": "2803244","pharmacy_name": "UNIVERSITY HEALTH CENTER PHCY","address1": "15TH AND U STS","address2": "","city": "LINCOLN","state": "NE","zip": "68588","zip+4": "0618","phone": "4024727457","NPI": "     1831230036"}, 
{"id": 29938,"ncpdp": "2803282","pharmacy_name": "WAGEY DRUG COMPANY INC","address1": "800 N 27TH ST","address2": "","city": "LINCOLN","state": "NE","zip": "68503","zip+4": "2599","phone": "4024763341","NPI": "     1477666386"}, 
{"id": 29939,"ncpdp": "2803422","pharmacy_name": "LT PEDLEY DRUG","address1": "419 N COLORADO","address2": "","city": "MINDEN","state": "NE","zip": "68959","zip+4": "0000","phone": "3088322815","NPI": "     1346323946"}, 
{"id": 29940,"ncpdp": "2803460","pharmacy_name": "MOSER\'S U SAVE PHARMACY","address1": "824 CENTRAL AVE","address2": "","city": "NEBRASKA CITY","state": "NE","zip": "68410","zip+4": "0000","phone": "4028733397","NPI": "     1427002914"}, 
{"id": 29941,"ncpdp": "2803509","pharmacy_name": "WANEK PHARMACY","address1": "410 MAINE STREET","address2": "","city": "NELIGH","state": "NE","zip": "68756","zip+4": "0000","phone": "4028875426","NPI": "     1558374140"}, 
{"id": 29942,"ncpdp": "2803648","pharmacy_name": "ONEILL FAMILY PHARMACY","address1": "317 E DOUGLAS ST","address2": "","city": "ONEILL","state": "NE","zip": "68763","zip+4": "1829","phone": "4023362660","NPI": "     1568557585"}, 
{"id": 29943,"ncpdp": "2803650","pharmacy_name": "CORNER DRUG","address1": "301 N OAKLAND AVENUE","address2": "","city": "OAKLAND","state": "NE","zip": "68045","zip+4": "0000","phone": "4026855883","NPI": "     1285739136"}, 
{"id": 29944,"ncpdp": "2803674","pharmacy_name": "U SAVE PHARMACY","address1": "23 N SPRUCE ST","address2": "","city": "OGALLALA","state": "NE","zip": "69153","zip+4": "0000","phone": "3082842242","NPI": "     1417048083"}, 
{"id": 29945,"ncpdp": "2803763","pharmacy_name": "CREIGHTON UNIVERSITY MED CTR C","address1": "601 N 30TH ST","address2": "CUMC CLINIC PHARMACY","city": "OMAHA","state": "NE","zip": "68131","zip+4": "2137","phone": "4024494560","NPI": "     1477547347"}, 
{"id": 29946,"ncpdp": "2803927","pharmacy_name": "THE NEBRASKA MED CENTER CLINIC","address1": "989200 NEBRASKA MEDICAL CTR","address2": "","city": "OMAHA","state": "NE","zip": "68198","zip+4": "9200","phone": "4025595215","NPI": "     1942368352"}, 
{"id": 29947,"ncpdp": "2804068","pharmacy_name": "PETES PHARMACY","address1": "643 G ST","address2": "","city": "PAWNEE CITY","state": "NE","zip": "68420","zip+4": "0072","phone": "4028522322","NPI": "     1174606198"}, 
{"id": 29948,"ncpdp": "2804082","pharmacy_name": "THE APOTHECARY SHOP","address1": "100 VALLEYVIEW DR","address2": "","city": "PENDER","state": "NE","zip": "68047","zip+4": "0139","phone": "4023853350","NPI": "     1902995103"}, 
{"id": 29949,"ncpdp": "2804119","pharmacy_name": "PLAINVIEW PHARMACY","address1": "504 W LOCUST","address2": "","city": "PLAINVIEW","state": "NE","zip": "68769","zip+4": "0129","phone": "4025824202","NPI": "     1992800114"}, 
{"id": 29950,"ncpdp": "2804121","pharmacy_name": "HERITAGE PHARMACY","address1": "517 MAIN ST","address2": "","city": "PLATTSMOUTH","state": "NE","zip": "68048","zip+4": "1992","phone": "4022964455","NPI": "     1902946239"}, 
{"id": 29951,"ncpdp": "2804133","pharmacy_name": "KELLER PHARMACY #1433","address1": "119 E 3RD ST","address2": "","city": "PONCA","state": "NE","zip": "68770","zip+4": "0365","phone": "4027552216","NPI": "     1861502411"}, 
{"id": 29952,"ncpdp": "2804171","pharmacy_name": "SVANDA PHARMACY","address1": "314 GRAND AVE","address2": "","city": "RAVENNA","state": "NE","zip": "68869","zip+4": "1393","phone": "3084523672","NPI": "     1033151329"}, 
{"id": 29953,"ncpdp": "2804234","pharmacy_name": "CUNNINGHAM DRUG","address1": "220 E 12TH ST","address2": "","city": "SCHUYLER","state": "NE","zip": "68661","zip+4": "1906","phone": "4023522611","NPI": "     1710073895"}, 
{"id": 29954,"ncpdp": "2804309","pharmacy_name": "WILSON AND TOBIN DRUG","address1": "1000 ILLINOIS","address2": "","city": "SIDNEY","state": "NE","zip": "69162","zip+4": "0000","phone": "3082544553","NPI": "     1053309518"}, 
{"id": 29955,"ncpdp": "2804311","pharmacy_name": "WESTERN DRUG #0936","address1": "806 ILLINIOS","address2": "","city": "SIDNEY","state": "NE","zip": "69162","zip+4": "0000","phone": "3082542032","NPI": "     1861585200"}, 
{"id": 29956,"ncpdp": "2804359","pharmacy_name": "SUPERIOR PHARMACY","address1": "348 N CENTRAL AVE","address2": "","city": "SUPERIOR","state": "NE","zip": "68978","zip+4": "0000","phone": "4028794234","NPI": "     1811084023"}, 
{"id": 29957,"ncpdp": "2804385","pharmacy_name": "SYRACUSE TOWN AND COUNTRY PHRM","address1": "448 5TH ST","address2": "","city": "SYRACUSE","state": "NE","zip": "68446","zip+4": "0220","phone": "4022692001","NPI": "     1285695478"}, 
{"id": 29958,"ncpdp": "2804400","pharmacy_name": "CHIEF DRUG","address1": "123 SOUTH 3RD ST","address2": "","city": "TECUMSEH","state": "NE","zip": "68450","zip+4": "0000","phone": "4023353375","NPI": "     1609942234"}, 
{"id": 29959,"ncpdp": "2804424","pharmacy_name": "HOFMANN PHARMACY","address1": "103 E 2ND STREET","address2": "","city": "TILDEN","state": "NE","zip": "68781","zip+4": "0190","phone": "4023685385","NPI": "     1457396319"}, 
{"id": 29960,"ncpdp": "2804474","pharmacy_name": "WAHOO PHARMACY AND GIFTS","address1": "526 N LINDEN ST","address2": "","city": "WAHOO","state": "NE","zip": "68066","zip+4": "0000","phone": "4024434167","NPI": "     1083797005"}, 
{"id": 29961,"ncpdp": "2804498","pharmacy_name": "FOUR STAR DRUG","address1": "13851 GUILDFORD STREET","address2": "SUITE D","city": "WAVERLY","state": "NE","zip": "68462","zip+4": "0000","phone": "4027862222","NPI": "     1487727293"}, 
{"id": 29962,"ncpdp": "2804513","pharmacy_name": "U-SAVE PHARMACY","address1": "216 E 7TH ST","address2": "","city": "WAYNE","state": "NE","zip": "68787","zip+4": "0000","phone": "4023752922","NPI": "     1619929049"}, 
{"id": 29963,"ncpdp": "2804551","pharmacy_name": "BARNAS DRUG INC","address1": "124 W 3RD ST","address2": "","city": "WILBER","state": "NE","zip": "68465","zip+4": "0547","phone": "4028212834","NPI": "     1992887780"}, 
{"id": 29964,"ncpdp": "2804727","pharmacy_name": "LA VISTA PHARMACY","address1": "7101 S 84TH ST","address2": "","city": "LA VISTA","state": "NE","zip": "68128","zip+4": "2177","phone": "4025922500","NPI": "     1326104936"}, 
{"id": 29965,"ncpdp": "2804741","pharmacy_name": "REDLERS PROFESSIONAL PHARMACY","address1": "1010 W 29TH ST","address2": "STE 208","city": "S SIOUX CITY","state": "NE","zip": "68776","zip+4": "0000","phone": "4024945542","NPI": "     1790885770"}, 
{"id": 29966,"ncpdp": "2804816","pharmacy_name": "BEATRICE COMMUNITY HOSP PHCY","address1": "1110 N 10TH ST","address2": "","city": "BEATRICE","state": "NE","zip": "68310","zip+4": "2039","phone": "4022237314","NPI": "     1184642894"}, 
{"id": 29967,"ncpdp": "2804979","pharmacy_name": "ALLISON PHARMACY","address1": "1118 J ST","address2": "","city": "AUBURN","state": "NE","zip": "68305","zip+4": "1531","phone": "4022744315","NPI": "     1801978697"}, 
{"id": 29968,"ncpdp": "2805022","pharmacy_name": "STEIER PHARMACY","address1": "6828 N 72ND ST","address2": "STE 2160","city": "OMAHA","state": "NE","zip": "68122","zip+4": "0000","phone": "4025723553","NPI": "     1811053184"}, 
{"id": 29969,"ncpdp": "2805060","pharmacy_name": "RX EXPRESS PHARMACY","address1": "402 N JEFFERS ST","address2": "","city": "NORTH PLATTE","state": "NE","zip": "69101","zip+4": "0000","phone": "3085327010","NPI": "     1962594044"}, 
{"id": 29970,"ncpdp": "2805147","pharmacy_name": "HASSELBALCH PHARMACY","address1": "143 S 3RD ST","address2": "","city": "TECUMSEH","state": "NE","zip": "68450","zip+4": "0537","phone": "4023353303","NPI": "     1992889208"}, 
{"id": 29971,"ncpdp": "2809587","pharmacy_name": "SPRINGFIELD DRUG #3374","address1": "205 MAIN ST","address2": "PO BOX 130","city": "SPRINGFIELD","state": "NE","zip": "68059","zip+4": "0130","phone": "4022532000","NPI": "     1386632891"}, 
{"id": 29972,"ncpdp": "2809599","pharmacy_name": "BERGAN MERCY OUTPATIENT PHARMA","address1": "7710 MERCY RD","address2": "STE 110","city": "OMAHA","state": "NE","zip": "68124","zip+4": "2346","phone": "4023986781","NPI": "     1558457440"}, 
{"id": 29973,"ncpdp": "2809688","pharmacy_name": "GOTHENBURG DISCOUNT PHARMACY","address1": "902 AVENUE D","address2": "","city": "GOTHENBURG","state": "NE","zip": "69138","zip+4": "0000","phone": "3085377155","NPI": "     1740291558"}, 
{"id": 29974,"ncpdp": "2809690","pharmacy_name": "U SAVE PHARMACY","address1": "211 W LEOTA ST","address2": "","city": "NORTH PLATTE","state": "NE","zip": "69101","zip+4": "6503","phone": "3085320310","NPI": "     1053403139"}, 
{"id": 29975,"ncpdp": "2809777","pharmacy_name": "U SAVE PHARMACY LEX","address1": "603 N WASHINGTON","address2": "","city": "LEXINGTON","state": "NE","zip": "68850","zip+4": "0000","phone": "3083246325","NPI": "     1588775837"}, 
{"id": 29976,"ncpdp": "2809854","pharmacy_name": "SUPER SAVER PHARMACY #20","address1": "5710 S 144TH ST","address2": "","city": "OMAHA","state": "NE","zip": "68137","zip+4": "0000","phone": "4028955644","NPI": "     1801903935"}, 
{"id": 29977,"ncpdp": "2809878","pharmacy_name": "JIMS U SAVE PHARMACY","address1": "219 Q STREET","address2": "","city": "AURORA","state": "NE","zip": "68818","zip+4": "0000","phone": "4026943187","NPI": "     1578571709"}, 
{"id": 29978,"ncpdp": "2809892","pharmacy_name": "KMART PHARMACY #3907","address1": "3535 W 13TH STREET","address2": "","city": "GRAND ISLAND","state": "NE","zip": "68803","zip+4": "0000","phone": "3083811240","NPI": "     1891726923"}, 
{"id": 29979,"ncpdp": "2809929","pharmacy_name": "KMART PHARMACY #7024","address1": "802 E 27TH STREET","address2": "","city": "SCOTTS BLUFF","state": "NE","zip": "69361","zip+4": "0000","phone": "3086323822","NPI": "     1700817830"}, 
{"id": 29980,"ncpdp": "2810097","pharmacy_name": "KMART PHARMACY #4130","address1": "5000 L STREET","address2": "","city": "OMAHA","state": "NE","zip": "68117","zip+4": "0000","phone": "4027336935","NPI": "     1619908746"}, 
{"id": 29981,"ncpdp": "2810112","pharmacy_name": "WALGREEN DRUG STORE #3467","address1": "1515 W 2ND ST","address2": "","city": "GRAND ISLAND","state": "NE","zip": "68801","zip+4": "0000","phone": "3083844202","NPI": "     1437164472"}, 
{"id": 29982,"ncpdp": "2810136","pharmacy_name": "NORMS U SAVE PHARMACY","address1": "1414 16TH ST","address2": "","city": "CENTRAL CITY","state": "NE","zip": "68826","zip+4": "1812","phone": "3089463859","NPI": "     1710068572"}, 
{"id": 29983,"ncpdp": "2810249","pharmacy_name": "WEAVER PHARMCY","address1": "1014 G ST","address2": "","city": "GENEVA","state": "NE","zip": "68361","zip+4": "0000","phone": "4027594433","NPI": "     1750306619"}, 
{"id": 29984,"ncpdp": "2810364","pharmacy_name": "KEITHS MEDICAL PARK PHARMACY","address1": "2115 N KANSAS AVE","address2": "","city": "HASTINGS","state": "NE","zip": "68901","zip+4": "2615","phone": "4024630515","NPI": "     1952413957"}, 
{"id": 29985,"ncpdp": "2810376","pharmacy_name": "VILLAGE PHARMACY INC","address1": "300 S 1ST AVE","address2": "","city": "HASTINGS","state": "NE","zip": "68901","zip+4": "6499","phone": "4024632441","NPI": "     1124186242"}, 
{"id": 29986,"ncpdp": "2810390","pharmacy_name": "SAFEWAY #0556","address1": "601 BROADWAY","address2": "","city": "SCOTTSBLUFF","state": "NE","zip": "69361","zip+4": "0000","phone": "3086351444","NPI": "     1003845025"}, 
{"id": 29987,"ncpdp": "2810439","pharmacy_name": "WALGREEN DRUG STORE #4754","address1": "8380 HARRISON ST","address2": "","city": "LA VISTA","state": "NE","zip": "68128","zip+4": "0000","phone": "4025927970","NPI": "     1346255387"}, 
{"id": 29988,"ncpdp": "2810489","pharmacy_name": "WALGREEN DRUG STORE #5540","address1": "6905 S 36TH ST","address2": "","city": "BELLEVUE","state": "NE","zip": "68147","zip+4": "0000","phone": "4027347517","NPI": "     1255346292"}, 
{"id": 29989,"ncpdp": "2810491","pharmacy_name": "WALGREEN DRUG STORE #6936","address1": "4310 AMES AVE","address2": "","city": "OMAHA","state": "NE","zip": "68111","zip+4": "0000","phone": "4024533400","NPI": "     1164437109"}, 
{"id": 29990,"ncpdp": "2810554","pharmacy_name": "KMART PHARMACY #7493","address1": "5808 S 144TH STREET","address2": "","city": "OMAHA","state": "NE","zip": "68137","zip+4": "0000","phone": "4028957220","NPI": "     1528099652"}, 
{"id": 29991,"ncpdp": "2810566","pharmacy_name": "KMART PHARMACY #7579","address1": "13450 MAPLE ROAD","address2": "","city": "OMAHA","state": "NE","zip": "68164","zip+4": "0000","phone": "4024922605","NPI": "     1437180569"}, 
{"id": 29992,"ncpdp": "2810718","pharmacy_name": "GERIMED INC","address1": "7915 N 30TH ST","address2": "","city": "OMAHA","state": "NE","zip": "68112","zip+4": "2444","phone": "4028276080","NPI": "     1437158235"}, 
{"id": 29993,"ncpdp": "2810720","pharmacy_name": "DEPOT DRUG","address1": "1400 DOUGLAS ST","address2": "STOP 0050","city": "OMAHA","state": "NE","zip": "68179","zip+4": "0000","phone": "4025443740","NPI": "     1962509893"}, 
{"id": 29994,"ncpdp": "2810732","pharmacy_name": "LOUISVILLE DRUG INC","address1": "213 MAIN ST","address2": "","city": "LOUISVILLE","state": "NE","zip": "68037","zip+4": "0339","phone": "4022343025","NPI": "     1306974787"}, 
{"id": 29995,"ncpdp": "2810833","pharmacy_name": "U SAVE PHARMACY AND MEDICAL SU","address1": "902 N HWY 83","address2": "","city": "MCCOOK","state": "NE","zip": "69001","zip+4": "0944","phone": "3083455670","NPI": "     1427133875"}, 
{"id": 29996,"ncpdp": "2810845","pharmacy_name": "MAIN ST APOTHECARY","address1": "201 E 2ND ST","address2": "","city": "LAUREL","state": "NE","zip": "68745","zip+4": "0515","phone": "4022563511","NPI": "     1912949793"}, 
{"id": 29997,"ncpdp": "2810910","pharmacy_name": "HY VEE PHARMACY #1465","address1": "5150 CENTER","address2": "","city": "OMAHA","state": "NE","zip": "68106","zip+4": "0000","phone": "4025534143","NPI": "     1720023187"}, 
{"id": 29998,"ncpdp": "2810922","pharmacy_name": "THE PHARMACY","address1": "1221 N COTNER BLVD","address2": "STE 3","city": "LINCOLN","state": "NE","zip": "68505","zip+4": "1837","phone": "4024667283","NPI": "     1558328997"}, 
{"id": 29999,"ncpdp": "2810946","pharmacy_name": "CLABAUGH PHARMACY INC","address1": "501 COURT ST","address2": "","city": "BEATRICE","state": "NE","zip": "68310","zip+4": "3989","phone": "4022233591","NPI": "     1699879650"}, 
{"id": 30000,"ncpdp": "2811051","pharmacy_name": "VALLEY PHARMACY","address1": "123 E GARDINER ST","address2": "","city": "VALLEY","state": "NE","zip": "68064","zip+4": "0630","phone": "4023592284","NPI": "     1396886636"}, 
{"id": 30001,"ncpdp": "2811063","pharmacy_name": "HY VEE PHARMACY 2 #1386","address1": "1601 N 84TH STREET","address2": "","city": "LINCOLN","state": "NE","zip": "68505","zip+4": "0000","phone": "4024675157","NPI": "     1700821139"}, 
{"id": 30002,"ncpdp": "2811138","pharmacy_name": "SHOPKO PHARMACY #38","address1": "2208 N WEBB RD","address2": "","city": "GRAND ISLAND","state": "NE","zip": "68803","zip+4": "1739","phone": "3083826744","NPI": "     1790736072"}, 
{"id": 30003,"ncpdp": "2811140","pharmacy_name": "SHOPKO PHARMACY #39","address1": "4200 S 27TH ST","address2": "","city": "LINCOLN","state": "NE","zip": "68502","zip+4": "5858","phone": "4024212444","NPI": "     1093766362"}, 
{"id": 30004,"ncpdp": "2811188","pharmacy_name": "WALGREEN DRUG STORE #6962","address1": "3121 S 24TH ST","address2": "","city": "OMAHA","state": "NE","zip": "68108","zip+4": "0000","phone": "4023455041","NPI": "     1073528014"}, 
{"id": 30005,"ncpdp": "2811215","pharmacy_name": "GOOD LIFE PHARMACY","address1": "125 S 16TH ST","address2": "","city": "ORD","state": "NE","zip": "68862","zip+4": "0000","phone": "3087283295","NPI": "     1043319114"}, 
{"id": 30006,"ncpdp": "2811253","pharmacy_name": "LAKE CREST PHARMACY","address1": "200 LEVI LANE","address2": "STE 101","city": "ADAMS","state": "NE","zip": "68301","zip+4": "9801","phone": "4029887145","NPI": "     1144459058"}, 
{"id": 30007,"ncpdp": "2811304","pharmacy_name": "WALGREEN DRUG STORE #4088","address1": "2502 N 48TH","address2": "","city": "LINCOLN","state": "NE","zip": "68504","zip+4": "0000","phone": "4024661404","NPI": "     1982619920"}, 
{"id": 30008,"ncpdp": "2811330","pharmacy_name": "PAC N SAVE DISCOUNT PHARMACY","address1": "1519 W HWY 34","address2": "STE 1","city": "SEWARD","state": "NE","zip": "68434","zip+4": "0000","phone": "4026432918","NPI": "     1588777411"}, 
{"id": 30009,"ncpdp": "2811532","pharmacy_name": "IMMANUALHOSPITAL PHARMACY","address1": "6901 N 72ND ST","address2": "","city": "OMAHA","state": "NE","zip": "68122","zip+4": "1799","phone": "4025722300","NPI": "     1134250046"}, 
{"id": 30010,"ncpdp": "2812053","pharmacy_name": "VERDIGRE PHARMACY","address1": "403 JAMES ST","address2": "","city": "VERDIGRE","state": "NE","zip": "68783","zip+4": "0000","phone": "4026682218","NPI": "     1417977331"}, 
{"id": 30011,"ncpdp": "2812192","pharmacy_name": "SHOPKO PHARMACY #48","address1": "2005 KRENZIEN DR","address2": "","city": "NORFOLK","state": "NE","zip": "68701","zip+4": "4601","phone": "4023794380","NPI": "     1346291705"}, 
{"id": 30012,"ncpdp": "2812205","pharmacy_name": "SHOPKO PHARMACY #44","address1": "3020 S 84TH ST","address2": "","city": "OMAHA","state": "NE","zip": "68124","zip+4": "3215","phone": "4023916299","NPI": "     1053362400"}, 
{"id": 30013,"ncpdp": "2812356","pharmacy_name": "WAL-MART PHARMACY #100645","address1": "2400 PASEWALK AVE","address2": "","city": "NORFOLK","state": "NE","zip": "68701","zip+4": "0000","phone": "4023716232","NPI": "     1033136379"}, 
{"id": 30014,"ncpdp": "2812368","pharmacy_name": "SHOPKO PHARMACY #45","address1": "601 GALVIN RD S","address2": "","city": "BELLEVUE","state": "NE","zip": "68005","zip+4": "2249","phone": "4022931845","NPI": "     1740231109"}, 
{"id": 30015,"ncpdp": "2812370","pharmacy_name": "SHOPKO PHARMACY #46","address1": "5646 N 90TH ST","address2": "","city": "OMAHA","state": "NE","zip": "68134","zip+4": "1808","phone": "4025721662","NPI": "     1538110986"}, 
{"id": 30016,"ncpdp": "2812382","pharmacy_name": "SHOPKO PHARMACY #47","address1": "100 S 66TH ST","address2": "","city": "LINCOLN","state": "NE","zip": "68510","zip+4": "2301","phone": "4024897148","NPI": "     1679524037"}, 
{"id": 30017,"ncpdp": "2812419","pharmacy_name": "CHARLIES U SAVE PHARMACY","address1": "2029 LINCOLN AVE","address2": "","city": "YORK","state": "NE","zip": "68467","zip+4": "1025","phone": "4023624429","NPI": "     1669493177"}, 
{"id": 30018,"ncpdp": "2812433","pharmacy_name": "WALGREEN DRUG STORE #3716","address1": "2ND AVE AND HIGHWAY 30","address2": "","city": "KEARNEY","state": "NE","zip": "68847","zip+4": "0000","phone": "3082346631","NPI": "     1699786822"}, 
{"id": 30019,"ncpdp": "2812508","pharmacy_name": "WAL-MART PHARMACY #100637","address1": "200 FRONTIER STREET","address2": "","city": "LEXINGTON","state": "NE","zip": "68850","zip+4": "0000","phone": "3083247437","NPI": "     1942227285"}, 
{"id": 30020,"ncpdp": "2812546","pharmacy_name": "WAL-MART PHARMACY #100776","address1": "3010 E 23RD AVE N","address2": "","city": "FREMONT","state": "NE","zip": "68025","zip+4": "0000","phone": "4027278772","NPI": "     1346267440"}, 
{"id": 30021,"ncpdp": "2812558","pharmacy_name": "WAL-MART PHARMACY #100774","address1": "818 EAST 23RD ST.","address2": "","city": "COLUMBUS","state": "NE","zip": "68601","zip+4": "0000","phone": "4025634571","NPI": "     1255358354"}, 
{"id": 30022,"ncpdp": "2812635","pharmacy_name": "SA RX HINKY DINKY PHARMACY","address1": "2145 S 17TH ST","address2": "","city": "LINCOLN","state": "NE","zip": "68502","zip+4": "3711","phone": "4024351090","NPI": "     1528127446"}, 
{"id": 30023,"ncpdp": "2812712","pharmacy_name": "WALGREEN DRUG STORE #1430","address1": "1701 SOUTH","address2": "","city": "LINCOLN","state": "NE","zip": "68502","zip+4": "0000","phone": "4024352135","NPI": "     1891700845"}, 
{"id": 30024,"ncpdp": "2812736","pharmacy_name": "WALGREEN DRUG STORE #12115","address1": "2320 23RD AVE","address2": "","city": "COLUMBUS","state": "NE","zip": "68601","zip+4": "0000","phone": "4025633586","NPI": "     1700891751"}, 
{"id": 30025,"ncpdp": "2812748","pharmacy_name": "SHOPKO PHARMACY #53","address1": "510 E PHILIP AVE","address2": "","city": "NORTH PLATTE","state": "NE","zip": "69101","zip+4": "5538","phone": "3085347353","NPI": "     1992756084"}, 
{"id": 30026,"ncpdp": "2812750","pharmacy_name": "WAL-MART PHARMACY #100790","address1": "1902 WEST B","address2": "","city": "MCCOOK","state": "NE","zip": "69001","zip+4": "0000","phone": "3083457024","NPI": "     1164449260"}, 
{"id": 30027,"ncpdp": "2812786","pharmacy_name": "WESTFIELD PHARMACY","address1": "1845 WEST A ST","address2": "","city": "NORTH PLATTE","state": "NE","zip": "69101","zip+4": "0000","phone": "3085325539","NPI": "     1104914720"}, 
{"id": 30028,"ncpdp": "2812798","pharmacy_name": "HY VEE PHARMACY 4 #1388","address1": "6001 VILLAGE DRIVE","address2": "","city": "LINCOLN","state": "NE","zip": "68516","zip+4": "0000","phone": "4024211040","NPI": "     1467497842"}, 
{"id": 30029,"ncpdp": "2812813","pharmacy_name": "SHOPKO PHARMACY #56","address1": "14445 W CENTER RD","address2": "","city": "OMAHA","state": "NE","zip": "68144","zip+4": "5401","phone": "4023336930","NPI": "     1548211741"}, 
{"id": 30030,"ncpdp": "2812837","pharmacy_name": "ARAPAHOE PHARMACY","address1": "507 NEBRASKA AVE","address2": "","city": "ARAPAHOE","state": "NE","zip": "68922","zip+4": "0000","phone": "3089627895","NPI": "     1114004504"}, 
{"id": 30031,"ncpdp": "2812849","pharmacy_name": "E STREET DISCOUNT PHCY","address1": "470 E ST","address2": "","city": "DAVID CITY","state": "NE","zip": "68632","zip+4": "1637","phone": "4023673122","NPI": "     1235140740"}, 
{"id": 30032,"ncpdp": "2812887","pharmacy_name": "WALGREEN DRUG STORE #4974","address1": "5038 CENTER ST","address2": "","city": "OMAHA","state": "NE","zip": "68106","zip+4": "0000","phone": "4025516040","NPI": "     1619982667"}, 
{"id": 30033,"ncpdp": "2812899","pharmacy_name": "WAL-MART PHARMACY #100867","address1": "3322 AVENUE","address2": "","city": "SCOTTS BLUFF","state": "NE","zip": "69361","zip+4": "0000","phone": "3086323767","NPI": "     1073530176"}, 
{"id": 30034,"ncpdp": "2812914","pharmacy_name": "WAL-MART PHARMACY #100885","address1": "1326 280TH ROAD","address2": "","city": "SEWARD","state": "NE","zip": "68434","zip+4": "0000","phone": "4026436611","NPI": "     1982621082"}, 
{"id": 30035,"ncpdp": "2813017","pharmacy_name": "WAL-MART PHARMACY #100598","address1": "5411 N. SECOND AVENUE","address2": "","city": "KEARNEY","state": "NE","zip": "68847","zip+4": "0000","phone": "3082346681","NPI": "     1790702892"}, 
{"id": 30036,"ncpdp": "2813029","pharmacy_name": "DELANEY PHARMACY","address1": "312 BROADWAY","address2": "","city": "FULLERTON","state": "NE","zip": "68638","zip+4": "0000","phone": "3085362641","NPI": "     1992836357"}, 
{"id": 30037,"ncpdp": "2813031","pharmacy_name": "HAEBERLE\'S GRAND CENTRAL PHARM","address1": "7 W 25TH ST","address2": "","city": "KEARNEY","state": "NE","zip": "68847","zip+4": "4432","phone": "3082372545","NPI": "     1184650814"}, 
{"id": 30038,"ncpdp": "2813156","pharmacy_name": "MIKES U SAVE PHARMACY","address1": "1317 HILL ST","address2": "","city": "HOLDREGE","state": "NE","zip": "68949","zip+4": "0000","phone": "3089954401","NPI": "     1730263377"}, 
{"id": 30039,"ncpdp": "2813221","pharmacy_name": "SPENCER PHARMACY","address1": "211 N THAYER ST","address2": "","city": "SPENCER","state": "NE","zip": "68777","zip+4": "0000","phone": "4025890062","NPI": "     1992725816"}, 
{"id": 30040,"ncpdp": "2813233","pharmacy_name": "KOHLLS PHARMACY #27","address1": "1413 S WASHINGTON","address2": "","city": "PAPILLION","state": "NE","zip": "68046","zip+4": "0000","phone": "4023318632","NPI": "     1730239864"}, 
{"id": 30041,"ncpdp": "2813295","pharmacy_name": "WALGREEN DRUG STORE #09899","address1": "1525 E 23 ST","address2": "","city": "FREMONT","state": "NE","zip": "68025","zip+4": "0000","phone": "4027218872","NPI": "     1548207996"}, 
{"id": 30042,"ncpdp": "2813358","pharmacy_name": "WALGREEN DRUG STORE #1738","address1": "5244 S 136TH ST","address2": "","city": "OMAHA","state": "NE","zip": "68137","zip+4": "0000","phone": "4028951202","NPI": "     1528073574"}, 
{"id": 30043,"ncpdp": "2813360","pharmacy_name": "ASHLAND PHARMACY INC","address1": "1401 SILVER ST","address2": "","city": "ASHLAND","state": "NE","zip": "68003","zip+4": "0000","phone": "4029443303","NPI": "     1003997388"}, 
{"id": 30044,"ncpdp": "2813384","pharmacy_name": "HY VEE PHARMACY 7 #1468","address1": "3505 L STREET","address2": "","city": "OMAHA","state": "NE","zip": "68107","zip+4": "0000","phone": "4027319971","NPI": "     1972548030"}, 
{"id": 30045,"ncpdp": "2813423","pharmacy_name": "BAILEY DRUG INC","address1": "260 N STATE ST","address2": "","city": "OSCEOLA","state": "NE","zip": "68651","zip+4": "0000","phone": "4027472441","NPI": "     1427113356"}, 
{"id": 30046,"ncpdp": "2813461","pharmacy_name": "SUPER SAVER PHARMACY # #9","address1": "2662 CORNHUSKER HWY","address2": "","city": "LINCOLN","state": "NE","zip": "68521","zip+4": "0000","phone": "4024667775","NPI": "     1154437838"}, 
{"id": 30047,"ncpdp": "2813473","pharmacy_name": "HY VEE PHARMACY 8 #1471","address1": "747 NORTH 132ND STREET","address2": "","city": "OMAHA","state": "NE","zip": "68154","zip+4": "0000","phone": "4024933110","NPI": "     1942245097"}, 
{"id": 30048,"ncpdp": "2813512","pharmacy_name": "DAVID CITY DISCOUNT PHARMACY","address1": "422 5TH ST","address2": "","city": "DAVID CITY","state": "NE","zip": "68632","zip+4": "0000","phone": "4023673068","NPI": "     1518972157"}, 
{"id": 30049,"ncpdp": "2813548","pharmacy_name": "WAL-MART PHARMACY #101326","address1": "2250 NO. DIERS AVE","address2": "","city": "GRAND ISLAND","state": "NE","zip": "68803","zip+4": "0000","phone": "3083810337","NPI": "     1609893700"}, 
{"id": 30050,"ncpdp": "2813550","pharmacy_name": "OSMOND PHARMACY","address1": "322 STATE STREET","address2": "STATE ST","city": "OSMOND","state": "NE","zip": "68765","zip+4": "0462","phone": "4027483708","NPI": "     1285710913"}, 
{"id": 30051,"ncpdp": "2813574","pharmacy_name": "PAMIDA PHARMACY #309","address1": "1300 STONE ST","address2": "","city": "FALLS CITY","state": "NE","zip": "68355","zip+4": "2657","phone": "4022455282","NPI": "     1376596940"}, 
{"id": 30052,"ncpdp": "2813586","pharmacy_name": "WAL-MART PHARMACY #101332","address1": "1601 CORNHUSKERS DRIVE","address2": "","city": "SOUTH SIOUX CITY","state": "NE","zip": "68776","zip+4": "0000","phone": "4024948850","NPI": "     1518984616"}, 
{"id": 30053,"ncpdp": "2813598","pharmacy_name": "WALGREEN DRUG STORE #10502","address1": "1030 W 21ST ST","address2": "","city": "S SIOUX CITY","state": "NE","zip": "68776","zip+4": "2661","phone": "4024948827","NPI": "     1275548224"}, 
{"id": 30054,"ncpdp": "2813625","pharmacy_name": "MEDICINE MAN PHARMACY","address1": "715 N 132ND ST","address2": "","city": "OMAHA","state": "NE","zip": "68154","zip+4": "4000","phone": "4024969757","NPI": "     1851448898"}, 
{"id": 30055,"ncpdp": "2813637","pharmacy_name": "HY VEE PHARMACY 6 #1535","address1": "9707 Q STREET","address2": "","city": "OMAHA","state": "NE","zip": "68127","zip+4": "0000","phone": "4023393054","NPI": "     1598700643"}, 
{"id": 30056,"ncpdp": "2813651","pharmacy_name": "WAL-MART PHARMACY #100350","address1": "101 EAST DAVID DRIVE","address2": "","city": "YORK","state": "NE","zip": "68467","zip+4": "0000","phone": "4023622092","NPI": "     1427075522"}, 
{"id": 30057,"ncpdp": "2813663","pharmacy_name": "PAMIDA PHARMACY #318","address1": "211 S 23RD ST","address2": "","city": "PLATTSMOUTH","state": "NE","zip": "68048","zip+4": "2903","phone": "4022966256","NPI": "     1649222654"}, 
{"id": 30058,"ncpdp": "2813687","pharmacy_name": "OMNICARE OF NEBRASKA","address1": "10004 S 152ND ST","address2": "","city": "OMAHA","state": "NE","zip": "68138","zip+4": "3862","phone": "4028963636","NPI": "     1184736431"}, 
{"id": 30059,"ncpdp": "2813702","pharmacy_name": "U SAVE PHARMACY","address1": "2220 J STREET","address2": "","city": "AUBURN","state": "NE","zip": "68305","zip+4": "0000","phone": "4022744186","NPI": "     1992726640"}, 
{"id": 30060,"ncpdp": "2813726","pharmacy_name": "CURASCRIPT SP SPECIALTY PHARMA","address1": "10841 Q STREET","address2": "STE 102","city": "OMAHA","state": "NE","zip": "68137","zip+4": "0000","phone": "4023393933","NPI": "     1396834081"}, 
{"id": 30061,"ncpdp": "2813790","pharmacy_name": "KMART PHARMACY #3814","address1": "4700 SECOND AVE","address2": "","city": "KEARNEY","state": "NE","zip": "68848","zip+4": "0000","phone": "3082342399","NPI": "     1346271475"}, 
{"id": 30062,"ncpdp": "2813803","pharmacy_name": "WAL-MART PHARMACY #101460","address1": "3803 OSBORNE DRIVE WEST","address2": "","city": "HASTINGS","state": "NE","zip": "68901","zip+4": "0000","phone": "4024626100","NPI": "     1336166438"}, 
{"id": 30063,"ncpdp": "2813877","pharmacy_name": "WAL-MART PHARMACY #101585","address1": "1401 SOUTH DEWEY ST.","address2": "","city": "NORTH PLATTE","state": "NE","zip": "69101","zip+4": "0000","phone": "3085325830","NPI": "     1245257344"}, 
{"id": 30064,"ncpdp": "2813889","pharmacy_name": "SEWARD FAMILY PHARMACY","address1": "250 N COLUMBIA AVE","address2": "","city": "SEWARD","state": "NE","zip": "68434","zip+4": "0000","phone": "4026464607","NPI": "     1851461636"}, 
{"id": 30065,"ncpdp": "2813904","pharmacy_name": "SONNYS PHARMACY","address1": "310 N MAIN","address2": "","city": "BRIDGEPORT","state": "NE","zip": "69336","zip+4": "0000","phone": "3082620580","NPI": "     1619022365"}, 
{"id": 30066,"ncpdp": "2813916","pharmacy_name": "WAL-MART PHARMACY #101637","address1": "6304 NORTH 99TH STREET","address2": "","city": "OMAHA","state": "NE","zip": "68122","zip+4": "0000","phone": "4024929349","NPI": "     1154348258"}, 
{"id": 30067,"ncpdp": "2813928","pharmacy_name": "DEINES PHARMACY","address1": "910 E COURT ST","address2": "","city": "BEATRICE","state": "NE","zip": "68310","zip+4": "0000","phone": "4022234779","NPI": "     1487654828"}, 
{"id": 30068,"ncpdp": "2813942","pharmacy_name": "SKAGWAY PHARMACY #2","address1": "1607 S LOCUST ST","address2": "","city": "GRAND ISLAND","state": "NE","zip": "68801","zip+4": "0000","phone": "3083849120","NPI": "     1679615819"}, 
{"id": 30069,"ncpdp": "2813954","pharmacy_name": "KENS U SAVE PHARMACY","address1": "1302 LINDEN AVE","address2": "","city": "CRETE","state": "NE","zip": "68333","zip+4": "2257","phone": "4028263784","NPI": "     1831283316"}, 
{"id": 30070,"ncpdp": "2813978","pharmacy_name": "HY VEE PHARMACY 4 #1467","address1": "10808 FORT STREET","address2": "","city": "OMAHA","state": "NE","zip": "68164","zip+4": "0000","phone": "4024932323","NPI": "     1881639938"}, 
{"id": 30071,"ncpdp": "2813980","pharmacy_name": "WAL-MART PHARMACY #101671","address1": "8525 S. 71ST ST. PLAZA","address2": "","city": "PAPILLION","state": "NE","zip": "68133","zip+4": "0000","phone": "4025978982","NPI": "     1063439164"}, 
{"id": 30072,"ncpdp": "2813992","pharmacy_name": "RUSS PHARMACY #1","address1": "1709 WASHINGTON ST","address2": "","city": "LINCOLN","state": "NE","zip": "68502","zip+4": "0000","phone": "4024742102","NPI": "     1043324478"}, 
{"id": 30073,"ncpdp": "2814110","pharmacy_name": "WESTERN DRUG OF CHAPPELL","address1": "650 2ND ST","address2": "","city": "CHAPPELL","state": "NE","zip": "69129","zip+4": "0000","phone": "3088742200","NPI": "     1598800450"}, 
{"id": 30074,"ncpdp": "2814146","pharmacy_name": "WALGREEN DRUG STORE #2845","address1": "5701 VILLAGE DRIVE","address2": "","city": "LINCOLN","state": "NE","zip": "68516","zip+4": "0000","phone": "4024217116","NPI": "     1184639130"}, 
{"id": 30075,"ncpdp": "2814184","pharmacy_name": "PRIEFERT PHARMACY","address1": "428 LINCOLN ST","address2": "","city": "HEBRON","state": "NE","zip": "68370","zip+4": "1526","phone": "4027686319","NPI": "     1629157284"}, 
{"id": 30076,"ncpdp": "2814209","pharmacy_name": "BOBS U SAVE PHARMACY","address1": "2759 33RD AVE","address2": "","city": "COLUMBUS","state": "NE","zip": "68601","zip+4": "0000","phone": "4025642883","NPI": "     1114079282"}, 
{"id": 30077,"ncpdp": "2814211","pharmacy_name": "YUNGDAHLS APOTHECARY","address1": "313 COMMERCIAL ST","address2": "","city": "STROMSBURG","state": "NE","zip": "68666","zip+4": "0774","phone": "4027642827","NPI": "     1821103383"}, 
{"id": 30078,"ncpdp": "2814235","pharmacy_name": "NATIONAL PHARMACY","address1": "3306 A STREET","address2": "","city": "LINCOLN","state": "NE","zip": "68510","zip+4": "4512","phone": "4024766231","NPI": "     1417027590"}, 
{"id": 30079,"ncpdp": "2814259","pharmacy_name": "WAL-MART PHARMACY #101943","address1": "4700 N 27TH STREET","address2": "","city": "LINCOLN","state": "NE","zip": "68521","zip+4": "0000","phone": "4024384381","NPI": "     1972520070"}, 
{"id": 30080,"ncpdp": "2814261","pharmacy_name": "ELGIN PHARMACY","address1": "112 S SECOND ST","address2": "PO BOX 429","city": "ELGIN","state": "NE","zip": "68636","zip+4": "0000","phone": "4028435555","NPI": "     1376552851"}, 
{"id": 30081,"ncpdp": "2814285","pharmacy_name": "WALGREEN DRUG STORE #5736","address1": "815 N 27TH ST","address2": "","city": "LINCOLN","state": "NE","zip": "68503","zip+4": "0000","phone": "4024355050","NPI": "     1992710941"}, 
{"id": 30082,"ncpdp": "2814300","pharmacy_name": "TOMS REXALL DRUG","address1": "124 N MAIN ST","address2": "","city": "WEST POINT","state": "NE","zip": "68788","zip+4": "1498","phone": "4023722108","NPI": "     1770695777"}, 
{"id": 30083,"ncpdp": "2814312","pharmacy_name": "ST FRANCES MEDICAL CTR PHCY","address1": "2620 W FAIDLEY AVE","address2": "","city": "GRAND ISLAND","state": "NE","zip": "68803","zip+4": "0000","phone": "3083895569","NPI": "     1265449201"}, 
{"id": 30084,"ncpdp": "2814350","pharmacy_name": "HY VEE PHARMACY 2 #1466","address1": "3405 OAK VIEW DRIVE","address2": "","city": "OMAHA","state": "NE","zip": "68144","zip+4": "0000","phone": "4026970928","NPI": "     1336184712"}, 
{"id": 30085,"ncpdp": "2814362","pharmacy_name": "WAL-MART PHARMACY #100418","address1": "2831 HWY 15","address2": "","city": "FAIRBURY","state": "NE","zip": "68352","zip+4": "0000","phone": "4027293755","NPI": "     1881611986"}, 
{"id": 30086,"ncpdp": "2814386","pharmacy_name": "CAMPBELL DRUG","address1": "311 MAIN ST","address2": "","city": "OSHKOSH","state": "NE","zip": "69154","zip+4": "0000","phone": "3087723333","NPI": "     1528064540"}, 
{"id": 30087,"ncpdp": "2814437","pharmacy_name": "TARGET PHARMACY #2383","address1": "12500 K PLAZA","address2": "","city": "OMAHA","state": "NE","zip": "68137","zip+4": "2207","phone": "4022012660","NPI": "     1306868005"}, 
{"id": 30088,"ncpdp": "2814526","pharmacy_name": "WALGREEN DRUG STORE #3186","address1": "3701 NORTH 132ND ST","address2": "","city": "OMAHA","state": "NE","zip": "68164","zip+4": "0000","phone": "4024310651","NPI": "     1801801857"}, 
{"id": 30089,"ncpdp": "2814552","pharmacy_name": "TARGET PHARMACY #0530","address1": "4001 NORTH 132ND ST","address2": "","city": "OMAHA","state": "NE","zip": "68164","zip+4": "0000","phone": "4024319161","NPI": "     1215959911"}, 
{"id": 30090,"ncpdp": "2814627","pharmacy_name": "WALGREEN DRUG STORE #3202","address1": "7202 NORTH 30TH ST","address2": "","city": "OMAHA","state": "NE","zip": "68112","zip+4": "0000","phone": "4024575612","NPI": "     1710992763"}, 
{"id": 30091,"ncpdp": "2814641","pharmacy_name": "CORAM SPECIALTY INFUSION SERVI","address1": "2324 36 S 156TH CIRCLE","address2": "","city": "OMAHA","state": "NE","zip": "68130","zip+4": "0000","phone": "4023305482","NPI": "     1326093899"}, 
{"id": 30092,"ncpdp": "2814665","pharmacy_name": "NEBRASKA MED CTR SUMMIT PLAZA","address1": "3604 SUMMIT PLAZA DR","address2": "","city": "BELLEVUE","state": "NE","zip": "68123","zip+4": "0000","phone": "4025951156","NPI": "     1467529727"}, 
{"id": 30093,"ncpdp": "2814689","pharmacy_name": "PAMIDA PHARMACY #350","address1": "150 S 1ST ST","address2": "","city": "BLAIR","state": "NE","zip": "68008","zip+4": "2540","phone": "4024269189","NPI": "     1063465854"}, 
{"id": 30094,"ncpdp": "2814704","pharmacy_name": "PAMIDA PHARMACY #351","address1": "100 TEXAS TRAIL DR","address2": "","city": "OGALLALA","state": "NE","zip": "69153","zip+4": "3035","phone": "3082848111","NPI": "     1508818519"}, 
{"id": 30095,"ncpdp": "2814766","pharmacy_name": "TARGET PHARMACY #0532","address1": "718 NORTH WASHINGTON","address2": "","city": "PAPILLION","state": "NE","zip": "68046","zip+4": "0000","phone": "4025979499","NPI": "     1124040829"}, 
{"id": 30096,"ncpdp": "2814778","pharmacy_name": "U SAVE PHARMACY","address1": "3224 W 13TH ST","address2": "","city": "GRAND ISLAND","state": "NE","zip": "68803","zip+4": "0000","phone": "3083849010","NPI": "     1992897052"}, 
{"id": 30097,"ncpdp": "2814805","pharmacy_name": "TARGET PHARMACY #2125","address1": "7200 DODGE ST","address2": "","city": "OMAHA","state": "NE","zip": "68114","zip+4": "0000","phone": "4023908881","NPI": "     1003858291"}, 
{"id": 30098,"ncpdp": "2814879","pharmacy_name": "ALEGENT HEALTH LAKESIDE PHARMA","address1": "16909 LAKESIDE HILLS CT","address2": "STE 107","city": "OMAHA","state": "NE","zip": "68130","zip+4": "2325","phone": "4027585006","NPI": "     1780753632"}, 
{"id": 30099,"ncpdp": "2814893","pharmacy_name": "HY VEE PHARMACY 3 #1387","address1": "5020 N 27TH STREET","address2": "","city": "LINCOLN","state": "NE","zip": "68521","zip+4": "0000","phone": "4024775099","NPI": "     1962447318"}, 
{"id": 30100,"ncpdp": "2814906","pharmacy_name": "ELMWOOD PHARMACY","address1": "808 SO 52ND","address2": "","city": "OMAHA","state": "NE","zip": "68106","zip+4": "0000","phone": "4025515200","NPI": "     1295771657"}, 
{"id": 30101,"ncpdp": "2814932","pharmacy_name": "MCKINNEYS PHARMACY","address1": "215 ENTERPRISE DR","address2": "","city": "GRETNA","state": "NE","zip": "68028","zip+4": "0688","phone": "4023325167","NPI": "     1598834442"}, 
{"id": 30102,"ncpdp": "2815009","pharmacy_name": "SUN MART PHARMACY #025","address1": "1340 WEST O STREET","address2": "","city": "LINCOLN","state": "NE","zip": "68528","zip+4": "0000","phone": "4024769833","NPI": "     1851449128"}, 
{"id": 30103,"ncpdp": "2815035","pharmacy_name": "DIABETES SUPPLY CENTER OF THE","address1": "2910 S 84TH ST","address2": "","city": "OMAHA","state": "NE","zip": "68124","zip+4": "0000","phone": "4023998444","NPI": "     1992713481"}, 
{"id": 30104,"ncpdp": "2815047","pharmacy_name": "HY VEE PHARMACY #1460","address1": "120 E NORFOLK","address2": "","city": "NORFOLK","state": "NE","zip": "68701","zip+4": "0000","phone": "4023710610","NPI": "     1184669590"}, 
{"id": 30105,"ncpdp": "2815059","pharmacy_name": "HY VEE PHARMACY 2 #1461","address1": "2107 TAYLOR AVENUE","address2": "","city": "NORFOLK","state": "NE","zip": "68701","zip+4": "0000","phone": "4023711300","NPI": "     1760410039"}, 
{"id": 30106,"ncpdp": "2815061","pharmacy_name": "HY VEE PHARMACY 5 #1470","address1": "7910 CASS STREET","address2": "","city": "OMAHA","state": "NE","zip": "68114","zip+4": "0000","phone": "4023848767","NPI": "     1881639268"}, 
{"id": 30107,"ncpdp": "2815097","pharmacy_name": "RUSS\'S PHARMACY #16","address1": "4400 SOUTH 33RD STREET COURT","address2": "","city": "LINCOLN","state": "NE","zip": "68516","zip+4": "0000","phone": "4024211333","NPI": "     1164539565"}, 
{"id": 30108,"ncpdp": "2815100","pharmacy_name": "HEALTH MART PHARMACY #1510","address1": "1510 HARLAN DR","address2": "","city": "BELLEVUE","state": "NE","zip": "68005","zip+4": "0000","phone": "4026571793","NPI": "     1821139551"}, 
{"id": 30109,"ncpdp": "2815148","pharmacy_name": "GOOD LIFE LONG TERM CARE","address1": "127 S 16TH ST","address2": "","city": "ORD","state": "NE","zip": "68862","zip+4": "0000","phone": "3087283295","NPI": "     1447359559"}, 
{"id": 30110,"ncpdp": "2815174","pharmacy_name": "GOOD LIFE PHARMACY","address1": "727 O ST","address2": "","city": "LOUP CITY","state": "NE","zip": "68853","zip+4": "0000","phone": "3087451614","NPI": "     1912091091"}, 
{"id": 30111,"ncpdp": "2815186","pharmacy_name": "WAL-MART PHARMACY #102579","address1": "510 LINDEN STREET","address2": "","city": "CHADRON","state": "NE","zip": "69337","zip+4": "0000","phone": "3084326995","NPI": "     1699792796"}, 
{"id": 30112,"ncpdp": "2815201","pharmacy_name": "TOOLEY DRUG INC CLINICAL PHARM","address1": "4508 38TH ST","address2": "STE 160","city": "COLUMBUS","state": "NE","zip": "68601","zip+4": "0000","phone": "4025628627","NPI": "     1205049418"}, 
{"id": 30113,"ncpdp": "2815213","pharmacy_name": "RUSS\'S PHARMACY # #15","address1": "2840 S 70TH ST","address2": "","city": "LINCOLN","state": "NE","zip": "68506","zip+4": "0000","phone": "4024896085","NPI": "     1649387036"}, 
{"id": 30114,"ncpdp": "2815237","pharmacy_name": "BENKELMAN PHARMACY","address1": "509 S CHIEF","address2": "","city": "BENKELMAN","state": "NE","zip": "69021","zip+4": "0000","phone": "3084232759","NPI": "     1790890739"}, 
{"id": 30115,"ncpdp": "2815251","pharmacy_name": "HEALTH MART PHARMACY #8005","address1": "8005 BLONDO ST","address2": "","city": "OMAHA","state": "NE","zip": "68134","zip+4": "0000","phone": "4026571793","NPI": "     1932242609"}, 
{"id": 30116,"ncpdp": "2815263","pharmacy_name": "HY VEE DRUGSTORE #7062","address1": "8404 N 30TH STREET","address2": "","city": "OMAHA","state": "NE","zip": "68112","zip+4": "0000","phone": "4024518842","NPI": "     1477597789"}, 
{"id": 30117,"ncpdp": "2815275","pharmacy_name": "PAMIDA PHARMACY #372","address1": "312 FLACK AVE","address2": "","city": "ALLIANCE","state": "NE","zip": "69301","zip+4": "3542","phone": "3087624451","NPI": "     1255384863"}, 
{"id": 30118,"ncpdp": "2815338","pharmacy_name": "AMBER PHARMACY","address1": "10004 S 152ND ST","address2": "STE A","city": "OMAHA","state": "NE","zip": "68138","zip+4": "0000","phone": "4028965000","NPI": "     1770586349"}, 
{"id": 30119,"ncpdp": "2815376","pharmacy_name": "PAMIDA PHARMACY #376","address1": "1738 S 11TH ST","address2": "","city": "NEBRASKA CITY","state": "NE","zip": "68410","zip+4": "3471","phone": "4028735565","NPI": "     1427001031"}, 
{"id": 30120,"ncpdp": "2815388","pharmacy_name": "HY VEE PHARMACY 5 #1390","address1": "7151 STACY LANE","address2": "","city": "LINCOLN","state": "NE","zip": "68516","zip+4": "0000","phone": "4024890588","NPI": "     1457389819"}, 
{"id": 30121,"ncpdp": "2815390","pharmacy_name": "FAMCARE PHARMACY","address1": "450 E 23RD ST","address2": "","city": "FREMONT","state": "NE","zip": "68025","zip+4": "2303","phone": "4027273820","NPI": "     1568521466"}, 
{"id": 30122,"ncpdp": "2815403","pharmacy_name": "WALGREEN DRUG STORE #4531","address1": "1300 NORFOLK AVE","address2": "","city": "NORFOLK","state": "NE","zip": "68701","zip+4": "0000","phone": "4023718055","NPI": "     1629083670"}, 
{"id": 30123,"ncpdp": "2815453","pharmacy_name": "SAFEWAY #0557","address1": "611 N SPRUCE ST","address2": "","city": "OGALLALA","state": "NE","zip": "69153","zip+4": "0000","phone": "3082843670","NPI": "     1912936931"}, 
{"id": 30124,"ncpdp": "2815489","pharmacy_name": "QUANTUM MED PHARMACY","address1": "3744 S 132ND ST","address2": "","city": "OMAHA","state": "NE","zip": "68144","zip+4": "0000","phone": "4023394036","NPI": "     1144231655"}, 
{"id": 30125,"ncpdp": "2815504","pharmacy_name": "WALGREEN DRUG STORE #4772","address1": "3005 LAKE ST","address2": "","city": "OMAHA","state": "NE","zip": "68110","zip+4": "0000","phone": "4024517120","NPI": "     1093722027"}, 
{"id": 30126,"ncpdp": "2815528","pharmacy_name": "SUPER SAVERS PHARMACY #18","address1": "3318 23RD ST","address2": "","city": "COLUMBUS","state": "NE","zip": "68601","zip+4": "0000","phone": "4025633349","NPI": "     1184731408"}, 
{"id": 30127,"ncpdp": "2815542","pharmacy_name": "SAFEWAY #2555","address1": "1930 ILLINOIS ST","address2": "","city": "SIDNEY","state": "NE","zip": "69162","zip+4": "0000","phone": "3082544531","NPI": "     1821027848"}, 
{"id": 30128,"ncpdp": "2815554","pharmacy_name": "NATIONAL LTC PHARMACY SERVICES","address1": "6891 6891 A STREET","address2": "STE 105","city": "LINCOLN","state": "NE","zip": "68510","zip+4": "0000","phone": "4024898676","NPI": "     1760408637"}, 
{"id": 30129,"ncpdp": "2815566","pharmacy_name": "LOUDERBACK DRUG","address1": "201 S MAIN ST","address2": "","city": "MADISON","state": "NE","zip": "68748","zip+4": "0000","phone": "4024542525","NPI": "     1497869465"}, 
{"id": 30130,"ncpdp": "2815578","pharmacy_name": "HY VEE PHARMACY 3 #1469","address1": "8809 W CENTER ROAD","address2": "","city": "OMAHA","state": "NE","zip": "68124","zip+4": "0000","phone": "4023849085","NPI": "     1972548352"}, 
{"id": 30131,"ncpdp": "2815605","pharmacy_name": "WALGREEN DRUG STORE #4753","address1": "1404 SUPERIOR","address2": "","city": "LINCOLN","state": "NE","zip": "68521","zip+4": "0000","phone": "4024772121","NPI": "     1538174586"}, 
{"id": 30132,"ncpdp": "2815643","pharmacy_name": "ALEGENT HEALTH BELLEVUE HEALTH","address1": "3308 SAMSON WAY","address2": "STE 106","city": "BELLEVUE","state": "NE","zip": "68123","zip+4": "0000","phone": "4022915076","NPI": "     1083700959"}, 
{"id": 30133,"ncpdp": "2815655","pharmacy_name": "ALEGENT HEALTH PAPILLION PHARM","address1": "11109 S 84TH ST STE 1841","address2": "","city": "PAPILLION","state": "NE","zip": "68046","zip+4": "0000","phone": "4028274200","NPI": "     1790871655"}, 
{"id": 30134,"ncpdp": "2815667","pharmacy_name": "HY VEE PHARMACY #1078","address1": "2268 33RD AVENUE","address2": "","city": "COLUMBUS","state": "NE","zip": "68601","zip+4": "0000","phone": "4025627668","NPI": "     1629013180"}, 
{"id": 30135,"ncpdp": "2815693","pharmacy_name": "SUPER SAVER PHARMACY #17","address1": "2525 PINE LAKE ROAD","address2": "","city": "LINCOLN","state": "NE","zip": "68512","zip+4": "0000","phone": "4024208268","NPI": "     1184731499"}, 
{"id": 30136,"ncpdp": "2815732","pharmacy_name": "ALEGENT HEALTH PHARMACY FLOREN","address1": "8613 N 30TH ST","address2": "","city": "OMAHA","state": "NE","zip": "68112","zip+4": "0000","phone": "4024512125","NPI": "     1023104999"}, 
{"id": 30137,"ncpdp": "2815744","pharmacy_name": "WAL-MART PHARMACY #102784","address1": "3620 NORTH 6TH STREET","address2": "","city": "BEATRICE","state": "NE","zip": "68310","zip+4": "0000","phone": "4022284594","NPI": "     1508883604"}, 
{"id": 30138,"ncpdp": "2815756","pharmacy_name": "HEALTH MART PHARMACY #238","address1": "238 S 8TH ST","address2": "","city": "BLAIR","state": "NE","zip": "68008","zip+4": "0000","phone": "4026571793","NPI": "     1841333515"}, 
{"id": 30139,"ncpdp": "2815768","pharmacy_name": "WALGREEN DRUG STORE #5360","address1": "5062 S 155TH ST","address2": "","city": "OMAHA","state": "NE","zip": "68137","zip+4": "0000","phone": "4028616999","NPI": "     1386650752"}, 
{"id": 30140,"ncpdp": "2815770","pharmacy_name": "WALGREEN DRUG STORE #5190","address1": "2323 L STREET","address2": "","city": "OMAHA","state": "NE","zip": "68107","zip+4": "1847","phone": "4027388051","NPI": "     1447265491"}, 
{"id": 30141,"ncpdp": "2815794","pharmacy_name": "SHOPKO PHARMACY #172","address1": "3400 N 27TH ST","address2": "","city": "LINCOLN","state": "NE","zip": "68521","zip+4": "1314","phone": "4024655588","NPI": "     1033160312"}, 
{"id": 30142,"ncpdp": "2815821","pharmacy_name": "SAFEWAY #2563","address1": "230 MOREHEAD STREET","address2": "","city": "CHADRON","state": "NE","zip": "69337","zip+4": "0000","phone": "3084322070","NPI": "     1730118753"}, 
{"id": 30143,"ncpdp": "2815871","pharmacy_name": "SHOPKO PHARMACY #175","address1": "6845 S 27TH ST","address2": "","city": "LINCOLN","state": "NE","zip": "68512","zip+4": "4823","phone": "4024201199","NPI": "     1023069309"}, 
{"id": 30144,"ncpdp": "2815908","pharmacy_name": "WALGREEN DRUG STORE #5874","address1": "2630 PINE LAKE RD","address2": "","city": "LINCOLN","state": "NE","zip": "68512","zip+4": "0000","phone": "4024211155","NPI": "     1356356307"}, 
{"id": 30145,"ncpdp": "2815910","pharmacy_name": "WALGREEN DRUG STORE #5059","address1": "10725 FORT ST","address2": "","city": "OMAHA","state": "NE","zip": "68134","zip+4": "0000","phone": "4024964355","NPI": "     1902813934"}, 
{"id": 30146,"ncpdp": "2815934","pharmacy_name": "WALGREEN DRUG STORE #5966","address1": "2605 S 171ST ST","address2": "","city": "OMAHA","state": "NE","zip": "68130","zip+4": "0000","phone": "4026970316","NPI": "     1265447213"}, 
{"id": 30147,"ncpdp": "2815958","pharmacy_name": "PAMIDA PHARMACY #836","address1": "2410 DAHLKE AVE","address2": "","city": "AUBURN","state": "NE","zip": "68305","zip+4": "3025","phone": "4022742434","NPI": "     1730131830"}, 
{"id": 30148,"ncpdp": "2815960","pharmacy_name": "WAL-MART PHARMACY #102847","address1": "10504 SOUTH 15TH STREET","address2": "","city": "BELLEVUE","state": "NE","zip": "68123","zip+4": "0000","phone": "402292463","NPI": "     1417974510"}, 
{"id": 30149,"ncpdp": "2815972","pharmacy_name": "TARGET PHARMACY #1777","address1": "17810 WEST CENTER","address2": "","city": "OMAHA","state": "NE","zip": "68130","zip+4": "0000","phone": "4026974876","NPI": "     1033131735"}, 
{"id": 30150,"ncpdp": "2816001","pharmacy_name": "BAKERS PHARMACY #615311","address1": "5555 N 90TH ST","address2": "","city": "OMAHA","state": "NE","zip": "68134","zip+4": "0000","phone": "4025730947","NPI": "     1720028541"}, 
{"id": 30151,"ncpdp": "2816013","pharmacy_name": "BAKERS PHARMACY #615312","address1": "5222 S 136TH ST","address2": "","city": "OMAHA","state": "NE","zip": "68137","zip+4": "0000","phone": "4028950670","NPI": "     1639119456"}, 
{"id": 30152,"ncpdp": "2816037","pharmacy_name": "BAKERS PHARMACY #615315","address1": "13250 W MAPLE RD","address2": "","city": "OMAHA","state": "NE","zip": "68164","zip+4": "0000","phone": "4029658339","NPI": "     1174564520"}, 
{"id": 30153,"ncpdp": "2816049","pharmacy_name": "BAKERS PHARMACY #615316","address1": "7312 N 30TH ST","address2": "","city": "OMAHA","state": "NE","zip": "68112","zip+4": "0000","phone": "4024513980","NPI": "     1083655435"}, 
{"id": 30154,"ncpdp": "2816051","pharmacy_name": "BAKERS PHARMACY #615319","address1": "888 SADDLECREEK RD","address2": "","city": "OMAHA","state": "NE","zip": "68106","zip+4": "0000","phone": "4025565600","NPI": "     1376583161"}, 
{"id": 30155,"ncpdp": "2816063","pharmacy_name": "BAKERS PHARMACY #615320","address1": "17370 LAKESIDE HILLS PLAZA","address2": "","city": "OMAHA","state": "NE","zip": "68130","zip+4": "0000","phone": "4023335351","NPI": "     1285674077"}, 
{"id": 30156,"ncpdp": "2816075","pharmacy_name": "BAKERS PHARMACY #615321","address1": "505 N 155TH PLAZA","address2": "","city": "OMAHA","state": "NE","zip": "68154","zip+4": "0000","phone": "4029640888","NPI": "     1700950227"}, 
{"id": 30157,"ncpdp": "2816087","pharmacy_name": "BAKERS PHARMACY #615323","address1": "1531 N BELL ST","address2": "","city": "FREMONT","state": "NE","zip": "68025","zip+4": "0000","phone": "4027271995","NPI": "     1891736245"}, 
{"id": 30158,"ncpdp": "2816099","pharmacy_name": "WAL-MART PHARMACY #103267","address1": "18201 WRIGHT ST.","address2": "","city": "OMAHA","state": "NE","zip": "68130","zip+4": "0000","phone": "4023303650","NPI": "     1326065426"}, 
{"id": 30159,"ncpdp": "2816114","pharmacy_name": "MILFORD VALU RITE PHARMACY","address1": "610 1ST ST","address2": "","city": "MILFORD","state": "NE","zip": "68405","zip+4": "0000","phone": "4027612222","NPI": "     1386729515"}, 
{"id": 30160,"ncpdp": "2816126","pharmacy_name": "GOOD LIFE PHARMACY","address1": "124 S 4TH ST","address2": "","city": "ALBION","state": "NE","zip": "68620","zip+4": "0000","phone": "4023953353","NPI": "     1770682924"}, 
{"id": 30161,"ncpdp": "2816138","pharmacy_name": "PAMIDA PHARMACY #202","address1": "930 MAIN AVE","address2": "","city": "CRETE","state": "NE","zip": "68333","zip+4": "2254","phone": "4028262996","NPI": "     1841243490"}, 
{"id": 30162,"ncpdp": "2816140","pharmacy_name": "SAMS PHARMACY #106413","address1": "4900 NORTH 27TH STREET","address2": "","city": "LINCOLN","state": "NE","zip": "68521","zip+4": "0000","phone": "4024383015","NPI": "     1235156332"}, 
{"id": 30163,"ncpdp": "2816152","pharmacy_name": "HY VEE PHARMACY #1620","address1": "2501 CORNHUSKER PLAZA","address2": "","city": "SOUTH SIOUX CITY","state": "NE","zip": "68776","zip+4": "0000","phone": "4024943021","NPI": "     1083650964"}, 
{"id": 30164,"ncpdp": "2816164","pharmacy_name": "RUSS\'S PHARMACY # #21","address1": "1550 S CODDINGTON","address2": "","city": "LINCOLN","state": "NE","zip": "68522","zip+4": "0000","phone": "4024358241","NPI": "     1275640203"}, 
{"id": 30165,"ncpdp": "2816188","pharmacy_name": "BAKERS PHARMACY #615318","address1": "801 GALVIN RD","address2": "","city": "BELLEVUE","state": "NE","zip": "68005","zip+4": "0000","phone": "4022920331","NPI": "     1003857871"}, 
{"id": 30166,"ncpdp": "2816190","pharmacy_name": "PAMIDA PHARMACY #238","address1": "518 S LINCOLN AVE","address2": "","city": "YORK","state": "NE","zip": "68467","zip+4": "4212","phone": "4023624131","NPI": "     1568415131"}, 
{"id": 30167,"ncpdp": "2816203","pharmacy_name": "WALGREEN DRUG STORE #6884","address1": "4000 S 70TH ST","address2": "","city": "LINCOLN","state": "NE","zip": "68506","zip+4": "0000","phone": "4024899992","NPI": "     1811904840"}, 
{"id": 30168,"ncpdp": "2816227","pharmacy_name": "BARR PHARMACY","address1": "1651 WASHINGTON ST","address2": "","city": "BLAIR","state": "NE","zip": "68008","zip+4": "0000","phone": "4024262187","NPI": "     1306909668"}, 
{"id": 30169,"ncpdp": "2816253","pharmacy_name": "MARKS PHARMACY CAMBRIDGE","address1": "624 PATTERSON ST","address2": "","city": "CAMBRIDGE","state": "NE","zip": "69022","zip+4": "0017","phone": "3086973400","NPI": "     1447280136"}, 
{"id": 30170,"ncpdp": "2816289","pharmacy_name": "VALLEY LONG TERM CARE PHARMACY","address1": "123 E GARDINER ST","address2": "","city": "VALLEY","state": "NE","zip": "68064","zip+4": "0000","phone": "4023592284","NPI": "     1710028097"}, 
{"id": 30171,"ncpdp": "2816392","pharmacy_name": "HEARTLAND LTC PHARMACY SERVICE","address1": "11028 Q STREET","address2": "","city": "OMAHA","state": "NE","zip": "68510","zip+4": "0000","phone": "4023312661","NPI": "     1194705657"}, 
{"id": 30172,"ncpdp": "2816405","pharmacy_name": "TARGET PHARMACY #0217","address1": "333 NORTH 48TH STREET","address2": "","city": "LINCOLN","state": "NE","zip": "68504","zip+4": "0000","phone": "4024648066","NPI": "     1851313555"}, 
{"id": 30173,"ncpdp": "2816417","pharmacy_name": "WALGREEN DRUG STORE #5741","address1": "3001 DODGE ST","address2": "","city": "OMAHA","state": "NE","zip": "68131","zip+4": "0000","phone": "4023424445","NPI": "     1265449292"}, 
{"id": 30174,"ncpdp": "2816431","pharmacy_name": "HOPE PHARMACY","address1": "4920 S 30TH ST","address2": "STE 105","city": "OMAHA","state": "NE","zip": "68107","zip+4": "0000","phone": "4025025832","NPI": "     1902837917"}, 
{"id": 30175,"ncpdp": "2816506","pharmacy_name": "TARGET PHARMACY #1537","address1": "3808 TWIN CREEK DRIVE","address2": "","city": "BELLEVUE","state": "NE","zip": "68123","zip+4": "0000","phone": "4022916779","NPI": "     1760404461"}, 
{"id": 30176,"ncpdp": "2816518","pharmacy_name": "WALGREEN DRUG STORE #7383","address1": "205 W 27TH ST","address2": "","city": "SCOTTSBLUFF","state": "NE","zip": "69361","zip+4": "0000","phone": "3086352192","NPI": "     1174538128"}, 
{"id": 30177,"ncpdp": "2816520","pharmacy_name": "WALGREEN DRUG STORE #7563","address1": "8989 W DODGE RD","address2": "","city": "OMAHA","state": "NE","zip": "68114","zip+4": "0000","phone": "4023937799","NPI": "     1083629034"}, 
{"id": 30178,"ncpdp": "2816532","pharmacy_name": "WAL-MART PHARMACY #103278","address1": "8700 ANDERMATT DRIVE","address2": "","city": "LINCOLN","state": "NE","zip": "68526","zip+4": "0000","phone": "4024846342","NPI": "     1144247248"}, 
{"id": 30179,"ncpdp": "2816568","pharmacy_name": "WALGREEN DRUG STORE #6802","address1": "15525 SPAULDING PLAZA","address2": "","city": "OMAHA","state": "NE","zip": "68116","zip+4": "0000","phone": "4024081075","NPI": "     1992710958"}, 
{"id": 30180,"ncpdp": "2816570","pharmacy_name": "PAMIDA PHARMACY #155","address1": "HWY 8 E AND NOREN ST","address2": "","city": "SUPERIOR","state": "NE","zip": "68978","zip+4": "0006","phone": "4028794811","NPI": "     1154374940"}, 
{"id": 30181,"ncpdp": "2816582","pharmacy_name": "PAMIDA PHARMACY #165","address1": "615 DEARBORN ST","address2": "","city": "WAYNE","state": "NE","zip": "68787","zip+4": "2244","phone": "4023752079","NPI": "     1750333134"}, 
{"id": 30182,"ncpdp": "2816594","pharmacy_name": "SUPER SAVER PHARMACY # #4","address1": "233 N 48TH ST","address2": "","city": "LINCOLN","state": "NE","zip": "68504","zip+4": "0000","phone": "4024648822","NPI": "     1952417602"}, 
{"id": 30183,"ncpdp": "2816633","pharmacy_name": "HY VEE PHARMACY 9 #1472","address1": "17810 WELCH PLAZA","address2": "","city": "OMAHA","state": "NE","zip": "68135","zip+4": "0000","phone": "4028910600","NPI": "     1164467585"}, 
{"id": 30184,"ncpdp": "2816645","pharmacy_name": "MEDICAP PHARMACY #8342","address1": "2706 2ND AVE","address2": "STE A","city": "KEARNEY","state": "NE","zip": "68845","zip+4": "0000","phone": "3082348056","NPI": "     1235223645"}, 
{"id": 30185,"ncpdp": "2816657","pharmacy_name": "RUFFNER PHARMACY","address1": "506 CHICAGO AVE","address2": "","city": "PLATTSMOUTH","state": "NE","zip": "68048","zip+4": "0000","phone": "4022966900","NPI": "     1952316564"}, 
{"id": 30186,"ncpdp": "2816671","pharmacy_name": "WAL-MART PHARMACY #105170","address1": "3001 SILVERBERG DRIVE","address2": "","city": "SIDNEY","state": "NE","zip": "69162","zip+4": "0000","phone": "3082549149","NPI": "     1053338152"}, 
{"id": 30187,"ncpdp": "2816683","pharmacy_name": "ROCK COUNTY CLINIC PHARMACY","address1": "801 S STATE ST","address2": "","city": "BASSETT","state": "NE","zip": "68714","zip+4": "0000","phone": "4026842906","NPI": "     1720084668"}, 
{"id": 30188,"ncpdp": "2816710","pharmacy_name": "GRETNA DRUG","address1": "820 VILLAGE SQUARE","address2": "","city": "GRETNA","state": "NE","zip": "68028","zip+4": "0000","phone": "4023325990","NPI": "     1457435711"}, 
{"id": 30189,"ncpdp": "2816722","pharmacy_name": "MILLER PHARMACY SPECIALTIES","address1": "1900 E MILITARY","address2": "STE 216","city": "FREMONT","state": "NE","zip": "68025","zip+4": "0000","phone": "4027211177","NPI": "     1700899432"}, 
{"id": 30190,"ncpdp": "2816734","pharmacy_name": "SAMS PHARMACY #108146","address1": "13130 L STREET","address2": "","city": "OMAHA","state": "NE","zip": "68137","zip+4": "0000","phone": "4023343496","NPI": "     1962429068"}, 
{"id": 30191,"ncpdp": "2816746","pharmacy_name": "WAL-MART PHARMACY #105361","address1": "12850 L STREET","address2": "","city": "OMAHA","state": "NE","zip": "68137","zip+4": "0000","phone": "4026971742","NPI": "     1871510974"}, 
{"id": 30192,"ncpdp": "2816758","pharmacy_name": "HEALTH MART PHARMACY #14444","address1": "14444 W CENTER RD","address2": "","city": "OMAHA","state": "NE","zip": "68144","zip+4": "3217","phone": "4023341036","NPI": "     1750424420"}, 
{"id": 30193,"ncpdp": "2816784","pharmacy_name": "HEALTH MART PHARMACY #820","address1": "820 N SADDLE CREEK RD","address2": "","city": "OMAHA","state": "NE","zip": "68132","zip+4": "2520","phone": "4025569313","NPI": "     1013050780"}, 
{"id": 30194,"ncpdp": "2816809","pharmacy_name": "U-SAVE PHARMACY #511","address1": "5011 S 108TH ST","address2": "","city": "OMAHA","state": "NE","zip": "68137","zip+4": "0000","phone": "4029333311","NPI": "     1093765794"}, 
{"id": 30195,"ncpdp": "2816811","pharmacy_name": "U SAVE PHARMACY MAPLE","address1": "3003 N 108TH ST","address2": "","city": "OMAHA","state": "NE","zip": "68164","zip+4": "3759","phone": "4024933952","NPI": "     1265482210"}, 
{"id": 30196,"ncpdp": "2816823","pharmacy_name": "HY VEE PHARMACY #1185","address1": "840 EAST 23RD STREET","address2": "","city": "FREMONT","state": "NE","zip": "68025","zip+4": "0000","phone": "4027532460","NPI": "     1841235363"}, 
{"id": 30197,"ncpdp": "2816835","pharmacy_name": "BAKERS PHARMACY #615301","address1": "4405 N 72ND ST","address2": "","city": "OMAHA","state": "NE","zip": "68134","zip+4": "0000","phone": "4025713122","NPI": "     1114968013"}, 
{"id": 30198,"ncpdp": "2816847","pharmacy_name": "BAKERS PHARMACY #615302","address1": "12025 W CENTER RD","address2": "","city": "OMAHA","state": "NE","zip": "68144","zip+4": "0000","phone": "4023336500","NPI": "     1548200363"}, 
{"id": 30199,"ncpdp": "2816859","pharmacy_name": "BAKERS PHARMACY #615300","address1": "3614 TWIN CREEK DR","address2": "","city": "BELLEVUE","state": "NE","zip": "68123","zip+4": "0000","phone": "4022923580","NPI": "     1457391278"}, 
{"id": 30200,"ncpdp": "2816885","pharmacy_name": "NEBRASKA LONG TERM CARE LLC","address1": "910 COURT ST","address2": "STE D","city": "BEATRICE","state": "NE","zip": "68310","zip+4": "0000","phone": "4022234779","NPI": "     1881605566"}, 
{"id": 30201,"ncpdp": "2816897","pharmacy_name": "WALGREEN DRUG STORE #2472","address1": "18040 R PLAZA","address2": "","city": "OMAHA","state": "NE","zip": "68135","zip+4": "0000","phone": "4024082339","NPI": "     1801801865"}, 
{"id": 30202,"ncpdp": "2816900","pharmacy_name": "PAMIDA PHARMACY #237","address1": "404 E HWY 20","address2": "","city": "ONEILL","state": "NE","zip": "68763","zip+4": "0000","phone": "4023362000","NPI": "     1255384806"}, 
{"id": 30203,"ncpdp": "2816936","pharmacy_name": "MEDICAP #8364","address1": "2555 KENSINGTON DRIVE","address2": "","city": "LINCOLN","state": "NE","zip": "68521","zip+4": "0000","phone": "4024354800","NPI": "     1497867493"}, 
{"id": 30204,"ncpdp": "2816948","pharmacy_name": "NEIN PHARMACY","address1": "1013 MAIN ST","address2": "","city": "BRIDGEPORT","state": "NE","zip": "69336","zip+4": "0000","phone": "3082621070","NPI": "     1497816680"}, 
{"id": 30205,"ncpdp": "2816950","pharmacy_name": "HY VEE PHARMACY 10 #1474","address1": "3410 NORTH 156TH STREET","address2": "","city": "OMAHA","state": "NE","zip": "68116","zip+4": "0000","phone": "4024456109","NPI": "     1356378392"}, 
{"id": 30206,"ncpdp": "2816974","pharmacy_name": "WALGREEN DRUG STORE #1162","address1": "8300 NORTHERN LIGHTS DR","address2": "","city": "LINCOLN","state": "NE","zip": "68505","zip+4": "0000","phone": "4024648300","NPI": "     1710992771"}, 
{"id": 30207,"ncpdp": "2816986","pharmacy_name": "PAMIDA PHARMACY #81","address1": "1533 BURLINGTON ST","address2": "","city": "HOLDREGE","state": "NE","zip": "68949","zip+4": "1309","phone": "3089952075","NPI": "     1851343974"}, 
{"id": 30208,"ncpdp": "2816998","pharmacy_name": "PAMIDA PHARMACY #179","address1": "123 N 24TH ST","address2": "","city": "BEATRICE","state": "NE","zip": "68310","zip+4": "3426","phone": "4022232240","NPI": "     1427001098"}, 
{"id": 30209,"ncpdp": "2817003","pharmacy_name": "PAMIDA PHARMACY #233","address1": "2353 SOUTH E","address2": "","city": "BROKEN BOW","state": "NE","zip": "68822","zip+4": "0000","phone": "3088726818","NPI": "     1174576763"}, 
{"id": 30210,"ncpdp": "2817015","pharmacy_name": "PAMIDA PHARMACY #234","address1": "500 W PLAZA DR","address2": "","city": "WEST POINT","state": "NE","zip": "68788","zip+4": "1835","phone": "4023725655","NPI": "     1619921343"}, 
{"id": 30211,"ncpdp": "2817041","pharmacy_name": "U SAVE PHARMACY","address1": "16869 AUDREY ST","address2": "","city": "OMAHA","state": "NE","zip": "68136","zip+4": "0000","phone": "4029342744","NPI": "     1356391221"}, 
{"id": 30212,"ncpdp": "2817077","pharmacy_name": "VARNEY HEALTH MART","address1": "744 SOUTH E ST","address2": "","city": "BROKEN BOW","state": "NE","zip": "68822","zip+4": "0070","phone": "3088722321","NPI": "     1841205291"}, 
{"id": 30213,"ncpdp": "2817089","pharmacy_name": "WAL-MART PHARMACY #103395","address1": "3501 SOUTH LOCUST STREET","address2": "","city": "GRAND ISLAND","state": "NE","zip": "68801","zip+4": "0000","phone": "3083815859","NPI": "     1780601880"}, 
{"id": 30214,"ncpdp": "2817091","pharmacy_name": "CROSIER PARK PHARMACY","address1": "405 EAST 14TH STREET","address2": "","city": "HASTINGS","state": "NE","zip": "68901","zip+4": "0000","phone": "4024624600","NPI": "     1174520332"}, 
{"id": 30215,"ncpdp": "2817116","pharmacy_name": "WAL-MART PHARMACY #105141","address1": "16960 WEST MAPLE ROAD","address2": "","city": "OMAHA","state": "NE","zip": "68116","zip+4": "0000","phone": "4022899276","NPI": "     1598782690"}, 
{"id": 30216,"ncpdp": "2817130","pharmacy_name": "MIDWEST LTC PHARMACY","address1": "3003 FRONTAGE ROAD","address2": "STE 2","city": "GRAND ISLAND","state": "NE","zip": "68803","zip+4": "0000","phone": "3083980538","NPI": "     1407069297"}, 
{"id": 30217,"ncpdp": "2817154","pharmacy_name": "U SAVE PHCY NORFOLK PHARMACY","address1": "1001 W BENJAMIN AVE","address2": "","city": "NORFOLK","state": "NE","zip": "68701","zip+4": "0000","phone": "4023798728","NPI": "     1215049218"}, 
{"id": 30218,"ncpdp": "2817192","pharmacy_name": "CVS PHARMACY #08626","address1": "130 B N 66TH ST","address2": "","city": "LINCOLN","state": "NE","zip": "68505","zip+4": "0000","phone": "4024675342","NPI": "     1053355420"}, 
{"id": 30219,"ncpdp": "2817205","pharmacy_name": "CVS PHARMACY #08616","address1": "5500 SOUTH 56TH ST","address2": "","city": "LINCOLN","state": "NE","zip": "68516","zip+4": "0000","phone": "4024233839","NPI": "     1962446336"}, 
{"id": 30220,"ncpdp": "2817217","pharmacy_name": "CVS PHARMACY #08615","address1": "1401 SUPERIOR STREET","address2": "","city": "LINCOLN","state": "NE","zip": "68521","zip+4": "0000","phone": "4024779200","NPI": "     1871537241"}, 
{"id": 30221,"ncpdp": "2817229","pharmacy_name": "CVS PHARMACY #08610","address1": "2711 S 48TH STREET","address2": "","city": "LINCOLN","state": "NE","zip": "68506","zip+4": "0000","phone": "4024845777","NPI": "     1780628156"}, 
{"id": 30222,"ncpdp": "2817231","pharmacy_name": "TARGET PHARMACY #2010","address1": "6636 N 73RD PLAZA","address2": "","city": "OMAHA","state": "NE","zip": "68122","zip+4": "0000","phone": "4025732221","NPI": "     1467494658"}, 
{"id": 30223,"ncpdp": "2817255","pharmacy_name": "LINCOLN NEIGHBORHOOD PHARMACY","address1": "6811 O ST","address2": "","city": "LINCOLN","state": "NE","zip": "68510","zip+4": "0000","phone": "4024641150","NPI": "     1255381968"}, 
{"id": 30224,"ncpdp": "2817279","pharmacy_name": "TARGET PHARMACY #0857","address1": "4800 3ROAD AVE","address2": "","city": "KEARNEY","state": "NE","zip": "68845","zip+4": "0000","phone": "3082372002","NPI": "     1386726529"}, 
{"id": 30225,"ncpdp": "2817306","pharmacy_name": "WALGREEN DRUG STORE #10437","address1": "5225 N 90TH ST","address2": "","city": "OMAHA","state": "NE","zip": "68134","zip+4": "0000","phone": "9103250038","NPI": "     1649352097"}, 
{"id": 30226,"ncpdp": "2817318","pharmacy_name": "KUBAT PHARMACY","address1": "2401 N ST","address2": "","city": "OMAHA","state": "NE","zip": "68107","zip+4": "0000","phone": "4027314333","NPI": "     1851400824"}, 
{"id": 30227,"ncpdp": "2817320","pharmacy_name": "MEDWELL RX","address1": "11134 Q ST","address2": "","city": "OMAHA","state": "NE","zip": "68137","zip+4": "0000","phone": "4025925244","NPI": "     1104982404"}, 
{"id": 30228,"ncpdp": "2817332","pharmacy_name": "WALGREEN DRUG STORE #10408","address1": "4811 O ST","address2": "","city": "LINCOLN","state": "NE","zip": "68528","zip+4": "9143","phone": "4024892232","NPI": "     1487727384"}, 
{"id": 30229,"ncpdp": "2817344","pharmacy_name": "WAL-MART PHARMACY #104209","address1": "2101 S. 11TH STREET","address2": "","city": "NEBRASKA CITY","state": "NE","zip": "68410","zip+4": "0000","phone": "4028749093","NPI": "     1649335076"}, 
{"id": 30230,"ncpdp": "2817382","pharmacy_name": "HY VEE PHARMACY #1514","address1": "111650 S 73RD ST","address2": "","city": "PAPILLION","state": "NE","zip": "68046","zip+4": "0000","phone": "4025975056","NPI": "     1467679563"}, 
{"id": 30231,"ncpdp": "2817394","pharmacy_name": "WALGREEN DRUG STORE #11089","address1": "5500 RED ROCK LN","address2": "","city": "LINCOLN","state": "NE","zip": "68516","zip+4": "6512","phone": "4024212122","NPI": "     1790994879"}, 
{"id": 30232,"ncpdp": "2817407","pharmacy_name": "COMMUNITY PHARMACY SERVICES","address1": "20584 HWY 370","address2": "","city": "GRETNA","state": "NE","zip": "68028","zip+4": "0000","phone": "4022890431","NPI": "     1063624328"}, 
{"id": 30233,"ncpdp": "2817421","pharmacy_name": "WAL-MART PHARMACY #104322","address1": "1800 EAST 29TH STREET","address2": "","city": "CRETE","state": "NE","zip": "68333","zip+4": "0000","phone": "4028261032","NPI": "     1831307750"}, 
{"id": 30234,"ncpdp": "2817433","pharmacy_name": "TARGET PHARMACY #2303","address1": "8201 S 40TH ST","address2": "","city": "LINCOLN","state": "NE","zip": "68516","zip+4": "0000","phone": "4024203541","NPI": "     1750599296"}, 
{"id": 30235,"ncpdp": "2817445","pharmacy_name": "CRAWFORD PHARMACY","address1": "312 SECOND ST","address2": "","city": "CRAWFORD","state": "NE","zip": "69339","zip+4": "0000","phone": "3086651395","NPI": "     1669663134"}, 
{"id": 30236,"ncpdp": "2817457","pharmacy_name": "WALGREENS DRUG STORE #10892","address1": "533 S LINCOLN AVE","address2": "","city": "YORK","state": "NE","zip": "68467","zip+4": "4211","phone": "4023621280","NPI": "     1346431285"}, 
{"id": 30237,"ncpdp": "2817469","pharmacy_name": "WALGREENS DRUG STORE #11204","address1": "20201 MANDERSON ST","address2": "","city": "OMAHA","state": "NE","zip": "68022","zip+4": "0000","phone": "4022890520","NPI": "     1568654135"}, 
{"id": 30238,"ncpdp": "2817471","pharmacy_name": "TARGET PHARMACY #2326","address1": "16959 EVANS PLAZA","address2": "","city": "OMAHA","state": "NE","zip": "68116","zip+4": "0000","phone": "4029701000","NPI": "     1225222110"}, 
{"id": 30239,"ncpdp": "2817483","pharmacy_name": "PAMIDA PHARMACY #656","address1": "1511 EAST 4TH","address2": "","city": "ANISWORTH","state": "NE","zip": "69210","zip+4": "0000","phone": "4023871533","NPI": "     1295921435"}, 
{"id": 30240,"ncpdp": "2817495","pharmacy_name": "SUTTON PHARMACY INC","address1": "210 N SAUNDERS","address2": "","city": "SUTTON","state": "NE","zip": "68979","zip+4": "0000","phone": "4027734300","NPI": "     1649467036"}, 
{"id": 30241,"ncpdp": "2817508","pharmacy_name": "WALGREEN DRUG STORE #11205","address1": "6005 N 72ND ST","address2": "","city": "OMAHA","state": "NE","zip": "68134","zip+4": "2300","phone": "4022012729","NPI": "     1538355805"}, 
{"id": 30242,"ncpdp": "2817510","pharmacy_name": "COSTCO PHARMACY #1012","address1": "12300 W DODGE RD","address2": "","city": "OMAHA","state": "NE","zip": "68154","zip+4": "0000","phone": "4029523249","NPI": "     1124211206"}, 
{"id": 30243,"ncpdp": "2817522","pharmacy_name": "EXTENDCARE THE PHARMACY","address1": "1221 NORTH COTNER BLVD","address2": "STE 3","city": "LINCOLN","state": "NE","zip": "68505","zip+4": "0000","phone": "4024666083","NPI": "     1538348842"}, 
{"id": 30244,"ncpdp": "2817534","pharmacy_name": "PAMIDA PHARMACY #665","address1": "272 N MAIN","address2": "","city": "VALENTINE","state": "NE","zip": "69201","zip+4": "0000","phone": "4023763531","NPI": "     1053590588"}, 
{"id": 30245,"ncpdp": "2817546","pharmacy_name": "URBAN CLINIC PHARMACY INC","address1": "1760 COUNTY RD J","address2": "","city": "WAHOO","state": "NE","zip": "68066","zip+4": "0000","phone": "4024431630","NPI": "     1578742466"}, 
{"id": 30246,"ncpdp": "2817558","pharmacy_name": "KUBAT PHARMACY INC","address1": "350 WEST 23 STREET","address2": "","city": "FREMONT","state": "NE","zip": "68025","zip+4": "0000","phone": "4027274044","NPI": "     1265628259"}, 
{"id": 30247,"ncpdp": "2817560","pharmacy_name": "HY VEE PHARMACY #1221","address1": "115 WILMAR AVE","address2": "","city": "GRAND ISLAND","state": "NE","zip": "68803","zip+4": "0000","phone": "3083810328","NPI": "     1770768947"}, 
{"id": 30248,"ncpdp": "2817596","pharmacy_name": "FAMILY THRIFT CENTER #452","address1": "2817 AVE B","address2": "","city": "SCOTTSBLUFF","state": "NE","zip": "69361","zip+4": "0000","phone": "3086328605","NPI": "     1053580779"}, 
{"id": 30249,"ncpdp": "2817609","pharmacy_name": "WALGREEN DRUG STORE #11203","address1": "17909 BURKE ST","address2": "","city": "OMAHA","state": "NE","zip": "68118","zip+4": "0000","phone": "4022890808","NPI": "     1063682045"}, 
{"id": 30250,"ncpdp": "2817611","pharmacy_name": "AFFINITY BIOTECH INC","address1": "1810 N 203RD ST","address2": "","city": "OMAHA","state": "NE","zip": "68022","zip+4": "2885","phone": "4022890189","NPI": "     1427227792"}, 
{"id": 30251,"ncpdp": "2817623","pharmacy_name": "PAMIDA PHARMACY #655","address1": "718 4TH STREET","address2": "","city": "GOTHENBURG","state": "NE","zip": "69138","zip+4": "0000","phone": "3085378780","NPI": "     1215108758"}, 
{"id": 30252,"ncpdp": "2817647","pharmacy_name": "WALGREEN DRUG STORE #11957","address1": "1260 WASHINGTON ST","address2": "","city": "BLAIR","state": "NE","zip": "68008","zip+4": "0000","phone": "4025338444","NPI": "     1275796807"}, 
{"id": 30253,"ncpdp": "2817659","pharmacy_name": "HY VEE PHARMACY #1385","address1": "5010 O STREET","address2": "","city": "LINCOLN","state": "NE","zip": "68510","zip+4": "0000","phone": "4024650413","NPI": "     1306092242"}, 
{"id": 30254,"ncpdp": "2817661","pharmacy_name": "SOUTHEAST NEBRASKA CANCER CENT","address1": "201 S 68TH ST","address2": "","city": "LINCOLN","state": "NE","zip": "68510","zip+4": "0000","phone": "4023277340","NPI": "     1437111408"}, 
{"id": 30255,"ncpdp": "2817673","pharmacy_name": "WALGREENS #11356","address1": "11343 S 96TH ST","address2": "","city": "PAPILLION","state": "NE","zip": "68046","zip+4": "4280","phone": "4024080761","NPI": "     1093971301"}, 
{"id": 30256,"ncpdp": "2817685","pharmacy_name": "ROCKBROOK HEALTH MART PHAR","address1": "10913 PRAIRIE BROOK RD","address2": "","city": "OMAHA","state": "NE","zip": "68144","zip+4": "0000","phone": "4029326077","NPI": "     1326295478"}, 
{"id": 30257,"ncpdp": "2817697","pharmacy_name": "WAL-MART PHARMACY #4358","address1": "1606 SOUTH 72ND STREET","address2": "","city": "OMAHA","state": "NE","zip": "68124","zip+4": "0000","phone": "4023939560","NPI": "     1609023423"}, 
{"id": 30258,"ncpdp": "2817700","pharmacy_name": "WAL-MART PHARMACY #3823","address1": "3400 NORTH 85TH STREET","address2": "","city": "LINCOLN","state": "NE","zip": "68507","zip+4": "0000","phone": "4024660447","NPI": "     1881841609"}, 
{"id": 30259,"ncpdp": "2817712","pharmacy_name": "U SAVE PHARMACY","address1": "20330 VETERANS DR","address2": "STE 7","city": "ELKHORN","state": "NE","zip": "68022","zip+4": "0000","phone": "4022892576","NPI": "     1821247552"}, 
{"id": 30260,"ncpdp": "2817724","pharmacy_name": "SUN MART PHARMACY #765","address1": "3920 2ND AVENUE","address2": "","city": "KEARNEY","state": "NE","zip": "68847","zip+4": "2485","phone": "3082346086","NPI": "     1831341544"}, 
{"id": 30261,"ncpdp": "2817736","pharmacy_name": "HILLTOP DRUGS ETC INC","address1": "108 E 11TH STREET","address2": "","city": "NELIGH","state": "NE","zip": "68756","zip+4": "0000","phone": "4028875551","NPI": "     1306099684"}, 
{"id": 30262,"ncpdp": "2817750","pharmacy_name": "NO FRILLS PHARMACY #14","address1": "7402 NORTH 30TH STREET","address2": "","city": "OMAHA","state": "NE","zip": "68112","zip+4": "0000","phone": "4024081044","NPI": "     1770729675"}, 
{"id": 30263,"ncpdp": "2817762","pharmacy_name": "NO FRILLS PHARMACY #18","address1": "3026 SOUTH 24TH STREET","address2": "","city": "OMAHA","state": "NE","zip": "68108","zip+4": "0000","phone": "4023418627","NPI": "     1124264031"}, 
{"id": 30264,"ncpdp": "2817774","pharmacy_name": "NO FRILLS PHARMACY #8","address1": "3548 Q STREET","address2": "","city": "OMAHA","state": "NE","zip": "68107","zip+4": "0000","phone": "4027333561","NPI": "     1336385236"}, 
{"id": 30265,"ncpdp": "2817786","pharmacy_name": "HEARTLAND PHARMACY AT NORTH PL","address1": "3700 W PHILLIPS AT THE ATRIUM","address2": "","city": "NORTH PLATTE","state": "NE","zip": "69101","zip+4": "0000","phone": "3085344029","NPI": "     1871731380"}, 
{"id": 30266,"ncpdp": "2817798","pharmacy_name": "GENEOA COMMUNITY PHARMACY #1","address1": "508 WILLARD AVE.","address2": "","city": "GENEOA","state": "NE","zip": "68640","zip+4": "0000","phone": "4029932400","NPI": "     1902045479"}, 
{"id": 30267,"ncpdp": "2817801","pharmacy_name": "WALGREENS #12538","address1": "1230 N WEBB ST","address2": "","city": "GRAND ISLAND","state": "NE","zip": "68803","zip+4": "0000","phone": "3083842626","NPI": "     1033345046"}, 
{"id": 30268,"ncpdp": "2817813","pharmacy_name": "NO FRILLS PHARMACY #17","address1": "1230 N WASHINGTON ST","address2": "","city": "PAPILLION","state": "NE","zip": "68046","zip+4": "0000","phone": "4023392858","NPI": "     1740416759"}, 
{"id": 30269,"ncpdp": "2817825","pharmacy_name": "NO FRILLS PHARMACY #19","address1": "4240 S 50TH STREET","address2": "","city": "OMAHA","state": "NE","zip": "68117","zip+4": "0000","phone": "4027332260","NPI": "     1083840078"}, 
{"id": 30270,"ncpdp": "2817837","pharmacy_name": "WALGREENS #11355","address1": "9512 S 71ST PLAZA","address2": "","city": "PAPILLION","state": "NE","zip": "68133","zip+4": "0000","phone": "4024081086","NPI": "     1508095720"}, 
{"id": 30271,"ncpdp": "2817851","pharmacy_name": "NO FRILLS PHARMACY # #21","address1": "13215 W CENTER RD","address2": "","city": "OMAHA","state": "NE","zip": "68144","zip+4": "3466","phone": "4023300270","NPI": "     1265665574"}, 