{"id": 30736,"ncpdp": "3000015","pharmacy_name": "BANNON PHARMACY INC","address1": "109 PLEASANT ST","address2": "","city": "CLAREMONT","state": "NH","zip": "03743","zip+4": "2631","phone": "6035427722","NPI": "     1942308978"}, 
{"id": 30737,"ncpdp": "3000077","pharmacy_name": "EASTMANS PHARMACY","address1": "22 S MAIN ST","address2": "","city": "HANOVER","state": "NH","zip": "03755","zip+4": "0000","phone": "6036434112","NPI": "     1043359458"}, 
{"id": 30738,"ncpdp": "3000231","pharmacy_name": "PENACOOK PHARMACY LLC","address1": "305 VILLAGE ST","address2": "","city": "PENACOOK","state": "NH","zip": "03303","zip+4": "4822","phone": "6037536391","NPI": "     1588742092"}, 
{"id": 30739,"ncpdp": "3000306","pharmacy_name": "RICES PHARMACY INC","address1": "59 MAIN ST","address2": "","city": "NASHUA","state": "NH","zip": "03064","zip+4": "0000","phone": "6038825153","NPI": "     1588727408"}, 
{"id": 30740,"ncpdp": "3000356","pharmacy_name": "KENS PHARMACY INC","address1": "36 ELM ST","address2": "","city": "MANCHESTER","state": "NH","zip": "03101","zip+4": "0000","phone": "6036232813","NPI": "     1346353976"}, 
{"id": 30741,"ncpdp": "3000457","pharmacy_name": "CARE PHARMACY","address1": "8 SOMERSWORTH PLZ","address2": "","city": "SOMERSWORTH","state": "NH","zip": "03878","zip+4": "0000","phone": "6036923227","NPI": "     1174609408"}, 
{"id": 30742,"ncpdp": "3000546","pharmacy_name": "MODERN PHARMACY","address1": "5 CLINTON ST","address2": "","city": "CONCORD","state": "NH","zip": "03301","zip+4": "2303","phone": "6032243715","NPI": "     1912043829"}, 
{"id": 30743,"ncpdp": "3000952","pharmacy_name": "WINGATES PHARMACY INC","address1": "129 MAIN ST","address2": "","city": "NASHUA","state": "NH","zip": "03060","zip+4": "2718","phone": "6038829733","NPI": "     1801993928"}, 
{"id": 30744,"ncpdp": "3001043","pharmacy_name": "COLONIAL PHARMACY","address1": "247 NEWPORT RD","address2": "","city": "NEW LONDON","state": "NH","zip": "03257","zip+4": "0010","phone": "6035262233","NPI": "     1043380470"}, 
{"id": 30745,"ncpdp": "3001079","pharmacy_name": "HALLS PHARMACY","address1": "33 S MAIN ST","address2": "","city": "WOLFEBORO","state": "NH","zip": "03894","zip+4": "0000","phone": "6035692374","NPI": "     1750481743"}, 
{"id": 30746,"ncpdp": "3001120","pharmacy_name": "OLIVER DRUG","address1": "19 AVERY ST","address2": "","city": "PLYMOUTH","state": "NH","zip": "03264","zip+4": "1122","phone": "6035361086","NPI": "     1831194083"}, 
{"id": 30747,"ncpdp": "3001295","pharmacy_name": "HENNIKER PHARMACY","address1": "PROCTOR SQUARE","address2": "","city": "HENNIKER","state": "NH","zip": "03242","zip+4": "0000","phone": "6034283456","NPI": "     1659423770"}, 
{"id": 30748,"ncpdp": "3001675","pharmacy_name": "CVS PHARMACY #01175","address1": "77 DERRY RD HUDSON MALL","address2": "","city": "HUDSON","state": "NH","zip": "03051","zip+4": "0000","phone": "6038822301","NPI": "     1295835635"}, 
{"id": 30749,"ncpdp": "3002033","pharmacy_name": "DICK HALLS HOUSE PHCY","address1": "5 ROPE FERRY ROAD","address2": "","city": "HANOVER","state": "NH","zip": "03755","zip+4": "1477","phone": "6036509456","NPI": "     1689705931"}, 
{"id": 30750,"ncpdp": "3002350","pharmacy_name": "CVS PHARMACY #00181","address1": "4 PLAISTOW RD","address2": "","city": "PLAISTOW","state": "NH","zip": "03865","zip+4": "0000","phone": "6033825885","NPI": "     1104926542"}, 
{"id": 30751,"ncpdp": "3002386","pharmacy_name": "THE MEDICINE STORE","address1": "74 S MAIN ST","address2": "","city": "CONCORD","state": "NH","zip": "03301","zip+4": "0000","phone": "6032252747","NPI": "     1023173689"}, 
{"id": 30752,"ncpdp": "3002413","pharmacy_name": "CARE PHARMACY OF ROCHESTER","address1": "161 S MAIN ST","address2": "","city": "ROCHESTER","state": "NH","zip": "03867","zip+4": "3128","phone": "6033326200","NPI": "     1992809503"}, 
{"id": 30753,"ncpdp": "3002449","pharmacy_name": "CVS PHARMACY #00221","address1": "96 DANIEL WEBSTER HWY UNIT 17","address2": "","city": "BELMONT","state": "NH","zip": "03220","zip+4": "0000","phone": "6035281113","NPI": "     1376642686"}, 
{"id": 30754,"ncpdp": "3002552","pharmacy_name": "COLONIAL VILLAGE","address1": "54 PARK AVE PLAZA","address2": "","city": "CONTOOCOOK","state": "NH","zip": "03229","zip+4": "0338","phone": "6037464600","NPI": "     1306822077"}, 
{"id": 30755,"ncpdp": "3002564","pharmacy_name": "HANNAFORD FOOD AND DRUG #317","address1": "26 LILAC MALL","address2": "NUMBER 2","city": "ROCHESTER","state": "NH","zip": "03867","zip+4": "0000","phone": "6033329401","NPI": "     1609984087"}, 
{"id": 30756,"ncpdp": "3002639","pharmacy_name": "RITE AID PHARMACY #00190","address1": "951 CENTRAL STREET","address2": "","city": "FRANKLIN","state": "NH","zip": "03235","zip+4": "2028","phone": "6039346862","NPI": "     1831208230"}, 
{"id": 30757,"ncpdp": "3002730","pharmacy_name": "RITE AID PHARMACY #01070","address1": "416 DANIEL WEBSTER HIGHWAY","address2": "","city": "MERRIMACK","state": "NH","zip": "03054","zip+4": "4125","phone": "6034244833","NPI": "     1568571966"}, 
{"id": 30758,"ncpdp": "3002829","pharmacy_name": "RITE AID PHARMACY #01095","address1": "577 MAST ROAD","address2": "","city": "GOFFSTOWN","state": "NH","zip": "03102","zip+4": "0000","phone": "6036233290","NPI": "     1477662872"}, 
{"id": 30759,"ncpdp": "3002944","pharmacy_name": "CVS PHARMACY #00593","address1": "48 E BROADWAY","address2": "","city": "DERRY","state": "NH","zip": "03038","zip+4": "0000","phone": "6034342600","NPI": "     1285733592"}, 
{"id": 30760,"ncpdp": "3002982","pharmacy_name": "CVS PHARMACY #00647","address1": "RTE 12A UPPER VALLEY PLZ","address2": "","city": "WEST LEBANON","state": "NH","zip": "03784","zip+4": "0000","phone": "6032988350","NPI": "     1477637064"}, 
{"id": 30761,"ncpdp": "3003009","pharmacy_name": "CVS PHARMACY #00650","address1": "1351 WHITE MOUNTAIN HWY NWAY S","address2": "","city": "NORTH CONWAY","state": "NH","zip": "03860","zip+4": "0000","phone": "6033566916","NPI": "     1386728970"}, 
{"id": 30762,"ncpdp": "3003059","pharmacy_name": "RITE AID PHARMACY #01295","address1": "51 SOUTH MAIN STREET","address2": "","city": "NEWPORT","state": "NH","zip": "03773","zip+4": "1810","phone": "6038635766","NPI": "     1386753788"}, 
{"id": 30763,"ncpdp": "3003085","pharmacy_name": "MEDICINE WORLD INC","address1": "262 MAIN DUNSTABLE RD","address2": "","city": "NASHUA","state": "NH","zip": "03062","zip+4": "1914","phone": "6038819500","NPI": "     1942395934"}, 
{"id": 30764,"ncpdp": "3003150","pharmacy_name": "RITE AID PHARMACY #01327","address1": "910 ROUTE 16","address2": "","city": "OSSIPEE","state": "NH","zip": "03864","zip+4": "7171","phone": "6035394822","NPI": "     1194834598"}, 
{"id": 30765,"ncpdp": "3003198","pharmacy_name": "CVS PHARMACY #00694","address1": "44 52 N MAIN ST","address2": "","city": "CONCORD","state": "NH","zip": "03301","zip+4": "0000","phone": "6032259300","NPI": "     1194809780"}, 
{"id": 30766,"ncpdp": "3003225","pharmacy_name": "RITE AID PHARMACY #00406","address1": "86 ELM STREET","address2": "","city": "MILFORD","state": "NH","zip": "03055","zip+4": "4714","phone": "6032499901","NPI": "     1003925405"}, 
{"id": 30767,"ncpdp": "3003237","pharmacy_name": "CVS PHARMACY #00723","address1": "633 AMHERST ST","address2": "","city": "NASHAU","state": "NH","zip": "03063","zip+4": "0000","phone": "6038806861","NPI": "     1245313501"}, 
{"id": 30768,"ncpdp": "3003251","pharmacy_name": "RITE AID PHARMACY #01397","address1": "53 CHURCH STREET","address2": "","city": "KINGSTON","state": "NH","zip": "03848","zip+4": "0036","phone": "6036423191","NPI": "     1912016312"}, 
{"id": 30769,"ncpdp": "3003287","pharmacy_name": "CVS PHARMACY #00639","address1": "240 242 MAIN ST","address2": "","city": "NASHUA","state": "NH","zip": "03060","zip+4": "0000","phone": "6038861786","NPI": "     1154404416"}, 
{"id": 30770,"ncpdp": "3003314","pharmacy_name": "CVS PHARMACY #00200","address1": "788 SOUTH WILLOW ST","address2": "","city": "MANCHESTER","state": "NH","zip": "03103","zip+4": "0000","phone": "6036684637","NPI": "     1063595320"}, 
{"id": 30771,"ncpdp": "3003326","pharmacy_name": "CVS PHARMACY #00741","address1": "66 SOUTH RIVER RD","address2": "","city": "BEDFORD","state": "NH","zip": "03110","zip+4": "0000","phone": "6036696187","NPI": "     1649354234"}, 
{"id": 30772,"ncpdp": "3003352","pharmacy_name": "HANNAFORD FOOD AND DRUG #373","address1": "833 CENTRAL AVE","address2": "","city": "DOVER","state": "NH","zip": "03820","zip+4": "0000","phone": "6037499361","NPI": "     1518075993"}, 
{"id": 30773,"ncpdp": "3003439","pharmacy_name": "CVS PHARMACY #00640","address1": "268 WEST ST","address2": "","city": "KEENE","state": "NH","zip": "03431","zip+4": "0000","phone": "6033572840","NPI": "     1972686236"}, 
{"id": 30774,"ncpdp": "3003453","pharmacy_name": "CARE PHARMACY OF EPSOM","address1": "1912 DOVER","address2": "EPSON TRAFFIC CIRCLE","city": "EPSOM","state": "NH","zip": "03234","zip+4": "0389","phone": "6037369308","NPI": "     1629154950"}, 
{"id": 30775,"ncpdp": "3003580","pharmacy_name": "HOWES PHARMACY","address1": "39 MAIN STREET","address2": "","city": "GOFFSTOWN","state": "NH","zip": "03045","zip+4": "1748","phone": "6034974771","NPI": "     1871690701"}, 
{"id": 30776,"ncpdp": "3003718","pharmacy_name": "RITE AID PHARMACY #01653","address1": "14 PETERBOROUGH STREET","address2": "","city": "JAFFREY","state": "NH","zip": "03452","zip+4": "5857","phone": "6035326955","NPI": "     1821107228"}, 
{"id": 30777,"ncpdp": "3003857","pharmacy_name": "HOLLIS PHARMACY","address1": "6 ASH ST","address2": "","city": "HOLLIS","state": "NH","zip": "03049","zip+4": "0357","phone": "6034657100","NPI": "     1417970153"}, 
{"id": 30778,"ncpdp": "3003883","pharmacy_name": "WALGREEN DRUG STORE #3154","address1": "440 WEST ST","address2": "","city": "KEENE","state": "NH","zip": "03431","zip+4": "0000","phone": "6033571000","NPI": "     1285649269"}, 
{"id": 30779,"ncpdp": "3003946","pharmacy_name": "FAMILY PHARMACY PROF ASSOC","address1": "505 US ROUTE 4","address2": "","city": "ENFIELD","state": "NH","zip": "03748","zip+4": "0777","phone": "6036325720","NPI": "     1629086996"}, 
{"id": 30780,"ncpdp": "3004025","pharmacy_name": "CVS PHARMACY #00902","address1": "456 DANIEL WEBSTER HWY","address2": "","city": "MERRIMACK","state": "NH","zip": "03054","zip+4": "0000","phone": "6034241120","NPI": "     1881777142"}, 
{"id": 30781,"ncpdp": "3004063","pharmacy_name": "CVS PHARMACY #01003","address1": "214 DANIEL WEBSTER HWY","address2": "","city": "NASHUA","state": "NH","zip": "03060","zip+4": "0000","phone": "6038884354","NPI": "     1699858951"}, 
{"id": 30782,"ncpdp": "3004075","pharmacy_name": "CVS PHARMACY #01004","address1": "517 SOUTH BROADWAY","address2": "","city": "SALEM","state": "NH","zip": "03079","zip+4": "0000","phone": "6038985983","NPI": "     1235212598"}, 
{"id": 30783,"ncpdp": "3004152","pharmacy_name": "HANNAFORD FOOD AND DRUG #319","address1": "630 LAFAYETTE RD","address2": "","city": "HAMPTON","state": "NH","zip": "03842","zip+4": "0000","phone": "6039263344","NPI": "     1427166800"}, 
{"id": 30784,"ncpdp": "3004164","pharmacy_name": "DANS PHARMACY","address1": "436 CENTRAL ST","address2": "","city": "FRANKLIN","state": "NH","zip": "03235","zip+4": "1630","phone": "6039342550","NPI": "     1578581401"}, 
{"id": 30785,"ncpdp": "3004328","pharmacy_name": "THE PRESCRIPTION CENTER","address1": "125 N MAIN ST","address2": "","city": "CONCORD","state": "NH","zip": "03301","zip+4": "4921","phone": "6032249591","NPI": "     1659377133"}, 
{"id": 30786,"ncpdp": "3004354","pharmacy_name": "HANNAFORD FOOD AND DRUG #120","address1": "2 FREETOWN RD","address2": "","city": "RAYMOND","state": "NH","zip": "03077","zip+4": "0000","phone": "6038950011","NPI": "     1336257716"}, 
{"id": 30787,"ncpdp": "3004417","pharmacy_name": "MEDICINE SHOPPE #0585","address1": "15 ERMER ROAD","address2": "SUITES 109 AND 109A","city": "SALEM","state": "NH","zip": "03079","zip+4": "0000","phone": "6038934930","NPI": "     1851403851"}, 
{"id": 30788,"ncpdp": "3004493","pharmacy_name": "WALGREEN DRUG STORE #09178","address1": "131 NASHUA RD","address2": "","city": "LONDONDERRY","state": "NH","zip": "03053","zip+4": "3604","phone": "6034325897","NPI": "     1093720070"}, 
{"id": 30789,"ncpdp": "3004506","pharmacy_name": "WALGREEN DRUG STORE #2566","address1": "167 BROADWAY","address2": "","city": "SALEM","state": "NH","zip": "03079","zip+4": "0000","phone": "6038935569","NPI": "     1902811987"}, 
{"id": 30790,"ncpdp": "3004518","pharmacy_name": "WALGREEN DRUG STORE #9447","address1": "550 AMHERST","address2": "","city": "NASHUA","state": "NH","zip": "03063","zip+4": "0000","phone": "6035956365","NPI": "     1811902893"}, 
{"id": 30791,"ncpdp": "3004520","pharmacy_name": "WALGREEN DRUG STORE #11505","address1": "217 DANIEL WEBSTER HWY","address2": "","city": "NASHUA","state": "NH","zip": "03060","zip+4": "5503","phone": "6038912907","NPI": "     1720093701"}, 
{"id": 30792,"ncpdp": "3004544","pharmacy_name": "HANNAFORD FOOD AND DRUG #178","address1": "859 HANOVER ST","address2": "","city": "MANCHESTER","state": "NH","zip": "03104","zip+4": "0000","phone": "6036274354","NPI": "     1245348622"}, 
{"id": 30793,"ncpdp": "3004556","pharmacy_name": "HANNAFORD FOOD AND DRUG #177","address1": "79 BICENTENNIAL DR","address2": "","city": "MANCHESTER","state": "NH","zip": "03104","zip+4": "0000","phone": "6036442204","NPI": "     1578671822"}, 
{"id": 30794,"ncpdp": "3004570","pharmacy_name": "HANNAFORD FOOD AND DRUG #181","address1": "5 COLBY COURT","address2": "","city": "BEDFORD","state": "NH","zip": "03110","zip+4": "6426","phone": "6036222320","NPI": "     1154439537"}, 
{"id": 30795,"ncpdp": "3004671","pharmacy_name": "HANNAFORD FOOD AND DRUG #248","address1": "HATCH PLAZA RTE 25","address2": "","city": "PLYMOUTH","state": "NH","zip": "03264","zip+4": "0000","phone": "6035363233","NPI": "     1982784062"}, 
{"id": 30796,"ncpdp": "3004708","pharmacy_name": "CVS PHARMACY #00863","address1": "1371 LAKE SHORE RD","address2": "","city": "GILFORD","state": "NH","zip": "03249","zip+4": "0000","phone": "6035242460","NPI": "     1144303405"}, 
{"id": 30797,"ncpdp": "3004710","pharmacy_name": "OMNICARE OF NEW HAMPSHIRE","address1": "23 SOUTH PERIMETER RD","address2": "","city": "LONDONDERRY","state": "NH","zip": "03053","zip+4": "0000","phone": "6036256406","NPI": "     1477646982"}, 
{"id": 30798,"ncpdp": "3004722","pharmacy_name": "DARTMOUTH HITCHCOCK PHCY","address1": "1 MEDICAL CENTER DR","address2": "","city": "LEBANON","state": "NH","zip": "03756","zip+4": "0002","phone": "6036533788","NPI": "     1821150806"}, 
{"id": 30799,"ncpdp": "3004734","pharmacy_name": "HANNAFORD FOOD AND DRUG #352","address1": "MOUNTAIN VALLEY MALL RT 16","address2": "","city": "NO CONWAY","state": "NH","zip": "03860","zip+4": "0000","phone": "6033566361","NPI": "     1689756181"}, 
{"id": 30800,"ncpdp": "3004746","pharmacy_name": "WAL-MART PHARMACY #101749","address1": "59 WALTONS WAY","address2": "","city": "SOMERSWORTH","state": "NH","zip": "03878","zip+4": "0000","phone": "6036927258","NPI": "     1962429076"}, 
{"id": 30801,"ncpdp": "3004758","pharmacy_name": "WAL-MART PHARMACY #101753","address1": "30 MANCHESTER ROAD","address2": "","city": "DERRY","state": "NH","zip": "03038","zip+4": "0000","phone": "6034344898","NPI": "     1871510982"}, 
{"id": 30802,"ncpdp": "3004760","pharmacy_name": "WAL-MART PHARMACY #101762","address1": "270 LAFAYETTE ROAD","address2": "","city": "SEABROOK","state": "NH","zip": "03874","zip+4": "0000","phone": "6034742514","NPI": "     1780601898"}, 
{"id": 30803,"ncpdp": "3004796","pharmacy_name": "COSTCO PHARMACY #307","address1": "311 DANIEL WEBSTER HIGHWAY","address2": "","city": "NASHUA","state": "NH","zip": "03060","zip+4": "0000","phone": "6038880514","NPI": "     1275643892"}, 
{"id": 30804,"ncpdp": "3004809","pharmacy_name": "HANNAFORD FOOD AND DRUG #164","address1": "201 JOHN DEVINE DR","address2": "","city": "MANCHESTER","state": "NH","zip": "03103","zip+4": "0000","phone": "6036261233","NPI": "     1063520443"}, 
{"id": 30805,"ncpdp": "3004811","pharmacy_name": "WAL-MART PHARMACY #101796","address1": "85 ROUTE 101A","address2": "","city": "AMHERST","state": "NH","zip": "03031","zip+4": "0000","phone": "6036722021","NPI": "     1629095740"}, 
{"id": 30806,"ncpdp": "3004823","pharmacy_name": "HANNAFORD FOOD AND DRUG #311","address1": "605 MAST ROAD","address2": "","city": "MANCHESTER","state": "NH","zip": "03102","zip+4": "0000","phone": "6036264366","NPI": "     1972611358"}, 
{"id": 30807,"ncpdp": "3004859","pharmacy_name": "RITE AID PHARMACY #03304","address1": "75 PORTSMOUTH AVENUE","address2": "","city": "EXETER","state": "NH","zip": "03833","zip+4": "0000","phone": "6037780553","NPI": "     1558470955"}, 
{"id": 30808,"ncpdp": "3004861","pharmacy_name": "RITE AID PHARMACY #03310","address1": "59 ROCKINGHAM ST","address2": "","city": "DERRY","state": "NH","zip": "03038","zip+4": "2119","phone": "6034322505","NPI": "     1467561860"}, 
{"id": 30809,"ncpdp": "3004873","pharmacy_name": "RITE AID PHARMACY #03282","address1": "72 LAFAYETTE ROAD","address2": "72 LAFAYETTE ROAD","city": "NORTH HAMPTON","state": "NH","zip": "03862","zip+4": "2407","phone": "6039645105","NPI": "     1376652776"}, 
{"id": 30810,"ncpdp": "3004885","pharmacy_name": "RITE AID PHARMACY #03288","address1": "3 FREETOWN ROAD","address2": "","city": "RAYMOND","state": "NH","zip": "03077","zip+4": "2346","phone": "6038950657","NPI": "     1285743682"}, 
{"id": 30811,"ncpdp": "3004900","pharmacy_name": "HANNAFORD FOOD AND DRUG #318","address1": "952 CENTRAL STREET ROUTE 3","address2": "","city": "FRANKLIN","state": "NH","zip": "03235","zip+4": "0000","phone": "6039342812","NPI": "     1881702264"}, 
{"id": 30812,"ncpdp": "3004948","pharmacy_name": "WAL-MART PHARMACY #101907","address1": "18 GEORGES FIELD","address2": "","city": "HINSDALE","state": "NH","zip": "03451","zip+4": "0000","phone": "6032566763","NPI": "     1538186655"}, 
{"id": 30813,"ncpdp": "3004950","pharmacy_name": "WAL-MART PHARMACY #101930","address1": "58 PLAISTOW ROAD","address2": "","city": "PLAISTOW","state": "NH","zip": "03865","zip+4": "0000","phone": "6033822844","NPI": "     1447277561"}, 
{"id": 30814,"ncpdp": "3004974","pharmacy_name": "WAL-MART PHARMACY #101785","address1": "254 LOWELL ROAD","address2": "","city": "HUDSON","state": "NH","zip": "03051","zip+4": "0000","phone": "6035984638","NPI": "     1356368476"}, 
{"id": 30815,"ncpdp": "3005041","pharmacy_name": "WAL-MART PHARMACY #101975","address1": "14 BOWEN STREET","address2": "","city": "CLAREMONT","state": "NH","zip": "03743","zip+4": "0000","phone": "6035423325","NPI": "     1265459382"}, 
{"id": 30816,"ncpdp": "3005077","pharmacy_name": "WAL-MART PHARMACY #102055","address1": "344 LOUDON ROAD","address2": "","city": "CONCORD","state": "NH","zip": "03301","zip+4": "0000","phone": "6032269327","NPI": "     1174540298"}, 
{"id": 30817,"ncpdp": "3005116","pharmacy_name": "RITE AID PHARMACY #03482","address1": "145 AMHERST STREET","address2": "","city": "NASHUA","state": "NH","zip": "03063","zip+4": "1301","phone": "6035989450","NPI": "     1902915309"}, 
{"id": 30818,"ncpdp": "3005142","pharmacy_name": "WAL-MART PHARMACY #102057","address1": "750 US HWY 202","address2": "","city": "RINDGE","state": "NH","zip": "03461","zip+4": "0000","phone": "6038996965","NPI": "     1225056989"}, 
{"id": 30819,"ncpdp": "3005154","pharmacy_name": "RITE AID PHARMACY #03589","address1": "829 NH ROUTE 11","address2": "","city": "FARMINGTON","state": "NH","zip": "03835","zip+4": "3661","phone": "6037552440","NPI": "     1811006216"}, 
{"id": 30820,"ncpdp": "3005178","pharmacy_name": "FOX RUN PHY/MARTINS PT HLTHCRE","address1": "161 CORPORATE DR","address2": "","city": "PORTSMOUTH","state": "NH","zip": "03801","zip+4": "0000","phone": "8002225154","NPI": "     1679533582"}, 
{"id": 30821,"ncpdp": "3005180","pharmacy_name": "WALGREEN DRUG STORE #3103","address1": "48 PORTSMOUTH AVE","address2": "","city": "EXETER","state": "NH","zip": "03833","zip+4": "0000","phone": "6037723442","NPI": "     1639184617"}, 
{"id": 30822,"ncpdp": "3005192","pharmacy_name": "CVS PHARMACY #00500","address1": "ONE WEST RD","address2": "","city": "STRATHAM","state": "NH","zip": "03885","zip+4": "0000","phone": "6037723768","NPI": "     1720162316"}, 
{"id": 30823,"ncpdp": "3005205","pharmacy_name": "CVS PHARMACY #00503","address1": "628 LAFAYETTE RD","address2": "","city": "SEABROOK","state": "NH","zip": "03874","zip+4": "0000","phone": "6034749511","NPI": "     1053494310"}, 
{"id": 30824,"ncpdp": "3005229","pharmacy_name": "WALGREEN DRUG STORE #3174","address1": "620 LAFAYETTE","address2": "","city": "HAMPTON","state": "NH","zip": "03842","zip+4": "0000","phone": "6039291248","NPI": "     1548275522"}, 
{"id": 30825,"ncpdp": "3005243","pharmacy_name": "WAL-MART PHARMACY #102130","address1": "2460 LAFAYETTE ROAD","address2": "","city": "PORTSMOUTH","state": "NH","zip": "03801","zip+4": "0000","phone": "6034336129","NPI": "     1083631105"}, 
{"id": 30826,"ncpdp": "3005267","pharmacy_name": "RITE AID PHARMACY #04127","address1": "177 MAIN STREET","address2": "","city": "LANCASTER","state": "NH","zip": "03584","zip+4": "1722","phone": "6037882433","NPI": "     1639288038"}, 
{"id": 30827,"ncpdp": "3005279","pharmacy_name": "RITE AID PHARMACY #04138","address1": "91 MAIN STREET","address2": "","city": "COLEBROOK","state": "NH","zip": "03576","zip+4": "1222","phone": "6032378388","NPI": "     1548379944"}, 
{"id": 30828,"ncpdp": "3005281","pharmacy_name": "RITE AID PHARMACY #04139","address1": "1623 WHITE MOUNTAIN HIGHWAY","address2": "","city": "NORTH CONWAY","state": "NH","zip": "03860","zip+4": "5157","phone": "6033565512","NPI": "     1457460859"}, 
{"id": 30829,"ncpdp": "3005293","pharmacy_name": "RITE AID PHARMACY #04144","address1": "341 HIGH STREET","address2": "","city": "SOMERSWORTH","state": "NH","zip": "03878","zip+4": "1415","phone": "6036923161","NPI": "     1366551764"}, 
{"id": 30830,"ncpdp": "3005318","pharmacy_name": "RITE AID PHARMACY #04182","address1": "118 136 MEADOW STREET","address2": "","city": "LITTLETON","state": "NH","zip": "03561","zip+4": "4026","phone": "6034442244","NPI": "     1275642670"}, 
{"id": 30831,"ncpdp": "3005320","pharmacy_name": "RITE AID PHARMACY #04155","address1": "6 SOUTH MAIN STREET","address2": "","city": "PLYMOUTH","state": "NH","zip": "03264","zip+4": "1440","phone": "6035364377","NPI": "     1801905203"}, 
{"id": 30832,"ncpdp": "3005332","pharmacy_name": "RITE AID PHARMACY #04156","address1": "ROUTE 112 MAIN STREET","address2": "","city": "LINCOLN","state": "NH","zip": "03251","zip+4": "0538","phone": "6037455660","NPI": "     1710088257"}, 
{"id": 30833,"ncpdp": "3005344","pharmacy_name": "RITE AID PHARMACY #04157","address1": "GORHAM PLAZA","address2": "167 MAIN STREET","city": "GORHAM","state": "NH","zip": "03581","zip+4": "1637","phone": "6034665636","NPI": "     1114036522"}, 
{"id": 30834,"ncpdp": "3005368","pharmacy_name": "RITE AID PHARMACY #04163","address1": "315 WEST MAIN STREET","address2": "","city": "HILLSBORO","state": "NH","zip": "03244","zip+4": "5234","phone": "6034645678","NPI": "     1023127438"}, 
{"id": 30835,"ncpdp": "3005382","pharmacy_name": "RITE AID PHARMACY #04165","address1": "800 ISLINGTON STREET UNIT 1","address2": "","city": "PORTSMOUTH","state": "NH","zip": "03801","zip+4": "4272","phone": "6034362214","NPI": "     1841309259"}, 
{"id": 30836,"ncpdp": "3005394","pharmacy_name": "RITE AID PHARMACY #04166","address1": "360 SUMMER STREET","address2": "","city": "BRISTOL","state": "NH","zip": "03222","zip+4": "3213","phone": "6037442652","NPI": "     1750490165"}, 
{"id": 30837,"ncpdp": "3005407","pharmacy_name": "RITE AID PHARMACY #10288","address1": "71 73 PLEASANT STREET","address2": "","city": "CLAREMONT","state": "NH","zip": "03743","zip+4": "2607","phone": "6035430153","NPI": "     1447359716"}, 
{"id": 30838,"ncpdp": "3005419","pharmacy_name": "RITE AID PHARMACY #10292","address1": "679 CENTRAL AVENUE","address2": "","city": "DOVER","state": "NH","zip": "03820","zip+4": "3402","phone": "6037425313","NPI": "     1356440622"}, 
{"id": 30839,"ncpdp": "3005421","pharmacy_name": "RITE AID PHARMACY #10295","address1": "5 MILL ROAD","address2": "UNIT G","city": "DURHAM","state": "NH","zip": "03824","zip+4": "3046","phone": "6038685221","NPI": "     1265531537"}, 
{"id": 30840,"ncpdp": "3005433","pharmacy_name": "RITE AID PHARMACY #10296","address1": "356 LAYFAYETTE ROAD ROUTE 1","address2": "","city": "HAMPTON","state": "NH","zip": "03842","zip+4": "2222","phone": "6039290168","NPI": "     1174622443"}, 
{"id": 30841,"ncpdp": "3005445","pharmacy_name": "RITE AID PHARMACY #10284","address1": "348 WINCHESTER STREET","address2": "","city": "KEENE","state": "NH","zip": "03431","zip+4": "3936","phone": "6033526969","NPI": "     1083713358"}, 
{"id": 30842,"ncpdp": "3005457","pharmacy_name": "RITE AID PHARMACY #10276","address1": "53 HOOKSETT ROAD","address2": "","city": "MANCHESTER","state": "NH","zip": "03104","zip+4": "2601","phone": "6036231135","NPI": "     1891894168"}, 
{"id": 30843,"ncpdp": "3005469","pharmacy_name": "RITE AID PHARMACY #10281","address1": "38 NH ROUTE 25","address2": "","city": "MEREDITH","state": "NH","zip": "03253","zip+4": "6335","phone": "6032794551","NPI": "     1679661094"}, 
{"id": 30844,"ncpdp": "3005471","pharmacy_name": "RITE AID PHARMACY #10269","address1": "15 MOUNT VERNON STREET","address2": "","city": "MILFORD","state": "NH","zip": "03055","zip+4": "4230","phone": "6036730224","NPI": "     1700985074"}, 
{"id": 30845,"ncpdp": "3005508","pharmacy_name": "RITE AID PHARMACY #10299","address1": "190 WAKEFIELD STREET","address2": "","city": "ROCHESTER","state": "NH","zip": "03867","zip+4": "1304","phone": "6033323800","NPI": "     1093814378"}, 
{"id": 30846,"ncpdp": "3005510","pharmacy_name": "RITE AID PHARMACY #10289","address1": "10 BENNING STREET","address2": "","city": "WEST LEBANON","state": "NH","zip": "03784","zip+4": "3402","phone": "6032987828","NPI": "     1902905284"}, 
{"id": 30847,"ncpdp": "3005522","pharmacy_name": "CVS PHARMACY #00846","address1": "674 ISLINGTON ST","address2": "","city": "PORTSMOUTH","state": "NH","zip": "03801","zip+4": "0000","phone": "6034310234","NPI": "     1962585224"}, 
{"id": 30848,"ncpdp": "3005534","pharmacy_name": "RITE AID PHARMACY #03744","address1": "50 SOUTH MAIN STREET","address2": "","city": "WOLFEBORO","state": "NH","zip": "03894","zip+4": "4326","phone": "6035693348","NPI": "     1669581070"}, 
{"id": 30849,"ncpdp": "3005546","pharmacy_name": "WAL-MART PHARMACY #102142","address1": "300-344 NORTH BROADWAY","address2": "","city": "SALEM","state": "NH","zip": "03079","zip+4": "0000","phone": "6038946128","NPI": "     1134147895"}, 
{"id": 30850,"ncpdp": "3005558","pharmacy_name": "WAL-MART PHARMACY #102246","address1": "17 COLBY COURT","address2": "","city": "BEDFORD","state": "NH","zip": "03110","zip+4": "0000","phone": "6036269799","NPI": "     1891712915"}, 
{"id": 30851,"ncpdp": "3005584","pharmacy_name": "WAL-MART PHARMACY #102369","address1": "39 E MAIN I 93 EXIT 20","address2": "","city": "TILTON","state": "NH","zip": "03276","zip+4": "0000","phone": "6032863480","NPI": "     1043238702"}, 
{"id": 30852,"ncpdp": "3005611","pharmacy_name": "HANNAFORD FOOD AND DRUG #186","address1": "175 COLISEUM AVE","address2": "","city": "NASHUA","state": "NH","zip": "03063","zip+4": "0000","phone": "6038896663","NPI": "     1508974981"}, 
{"id": 30853,"ncpdp": "3005659","pharmacy_name": "CARE PHARMACY OF DOVER","address1": "118 CENTRAL AVE","address2": "","city": "DOVER","state": "NH","zip": "03820","zip+4": "0000","phone": "6037423995","NPI": "     1801990411"}, 
{"id": 30854,"ncpdp": "3005661","pharmacy_name": "RITE AID PHARMACY #10285","address1": "19 WILTON ROAD","address2": "","city": "PETERBOROUGH","state": "NH","zip": "03458","zip+4": "1799","phone": "6039243632","NPI": "     1811096191"}, 
{"id": 30855,"ncpdp": "3005697","pharmacy_name": "WALGREEN DRUG STORE #3520","address1": "104 S MAIN","address2": "","city": "ROCHESTER","state": "NH","zip": "03867","zip+4": "0000","phone": "6033329755","NPI": "     1457366437"}, 
{"id": 30856,"ncpdp": "3005700","pharmacy_name": "RITE AID PHARMACY #04282","address1": "92 SOUTH STREET","address2": "","city": "CONCORD","state": "NH","zip": "03301","zip+4": "2826","phone": "6032288400","NPI": "     1578672986"}, 
{"id": 30857,"ncpdp": "3005786","pharmacy_name": "RITE AID PHARMACY #10287","address1": "200 PLEASANT STREET","address2": "","city": "BERLIN","state": "NH","zip": "03570","zip+4": "2004","phone": "6037523951","NPI": "     1720187008"}, 
{"id": 30858,"ncpdp": "3005798","pharmacy_name": "WALGREEN DRUG STORE #3900","address1": "227 S MAIN","address2": "","city": "MANCHESTER","state": "NH","zip": "03102","zip+4": "0000","phone": "6036668521","NPI": "     1366457343"}, 
{"id": 30859,"ncpdp": "3005801","pharmacy_name": "WAL-MART PHARMACY #102330","address1": "116 FARMINGTON ROAD","address2": "","city": "ROCHESTER","state": "NH","zip": "03867","zip+4": "0000","phone": "6033325540","NPI": "     1700803822"}, 
{"id": 30860,"ncpdp": "3005849","pharmacy_name": "KMART PHARMACY #7048","address1": "RTE 12 A","address2": "","city": "WEST LEBANON","state": "NH","zip": "03784","zip+4": "0000","phone": "6032988086","NPI": "     1154352284"}, 
{"id": 30861,"ncpdp": "3005851","pharmacy_name": "MWV PHARMACY","address1": "3073 WHITE MTN HIGHWAY","address2": "","city": "NORTH CONWAY","state": "NH","zip": "03860","zip+4": "0000","phone": "6033560232","NPI": "     1235131798"}, 
{"id": 30862,"ncpdp": "3005863","pharmacy_name": "RITE AID PHARMACY #04741","address1": "1631 ELM STREET","address2": "","city": "MANCHESTER","state": "NH","zip": "03101","zip+4": "1218","phone": "6036234393","NPI": "     1487763892"}, 
{"id": 30863,"ncpdp": "3005899","pharmacy_name": "OSCO PHARMACY #7510","address1": "213 DANIEL WEBSTER HWY","address2": "","city": "NASHUA","state": "NH","zip": "03060","zip+4": "0000","phone": "6038880061","NPI": "     1235185851"}, 
{"id": 30864,"ncpdp": "3005902","pharmacy_name": "CVS PHARMACY #02257","address1": "271 MAMMOTH RD","address2": "","city": "MANCHESTER","state": "NH","zip": "03109","zip+4": "0000","phone": "6036233995","NPI": "     1871676130"}, 
{"id": 30865,"ncpdp": "3005938","pharmacy_name": "WAL-MART PHARMACY #102639","address1": "1458 LAKE SHORE ROAD","address2": "","city": "GILFORD","state": "NH","zip": "03249","zip+4": "0000","phone": "6035288055","NPI": "     1619994738"}, 
{"id": 30866,"ncpdp": "3005940","pharmacy_name": "RITE AID PHARMACY #04993","address1": "46 ALLENSTOWN ROAD","address2": "","city": "ALLENSTOWN","state": "NH","zip": "03275","zip+4": "1809","phone": "6034855935","NPI": "     1104935519"}, 
{"id": 30867,"ncpdp": "3005964","pharmacy_name": "HANNAFORD FOOD AND DRUG #180","address1": "233 ROUTE 202","address2": "","city": "RINDGE","state": "NH","zip": "03461","zip+4": "0000","phone": "6038992115","NPI": "     1417065897"}, 
{"id": 30868,"ncpdp": "3005976","pharmacy_name": "RITE AID PHARMACY #04794","address1": "41 CARROLL STREET","address2": "","city": "PITTSFIELD","state": "NH","zip": "03263","zip+4": "3301","phone": "6034358353","NPI": "     1013026426"}, 
{"id": 30869,"ncpdp": "3006017","pharmacy_name": "WAL-MART PHARMACY #102634","address1": "561 MAIN STREET","address2": "","city": "GORHAM","state": "NH","zip": "03581","zip+4": "0000","phone": "6037527330","NPI": "     1528085644"}, 
{"id": 30870,"ncpdp": "3006029","pharmacy_name": "RITE AID PHARMACY #04800","address1": "10 MAIN STREET","address2": "","city": "WINCHESTER","state": "NH","zip": "03470","zip+4": "0006","phone": "6032396000","NPI": "     1831208248"}, 
{"id": 30871,"ncpdp": "3006031","pharmacy_name": "RITE AID PHARMACY #04871","address1": "4976 DARTMOUTH COLLEGE HIGHWAY","address2": "","city": "WOODSVILLE","state": "NH","zip": "03785","zip+4": "1413","phone": "6037473300","NPI": "     1659480069"}, 
{"id": 30872,"ncpdp": "3006043","pharmacy_name": "KMART PHARMACY #3630","address1": "375 AMHERST STREET BLDG 1","address2": "","city": "NASHUA","state": "NH","zip": "03063","zip+4": "0000","phone": "6035790615","NPI": "     1063443190"}, 
{"id": 30873,"ncpdp": "3006067","pharmacy_name": "AZAR A KORBEY MD","address1": "22 MAIN STREET","address2": "","city": "SALEM","state": "NH","zip": "03079","zip+4": "0000","phone": "6038937905","NPI": "     1366525693"}, 
{"id": 30874,"ncpdp": "3006079","pharmacy_name": "WAL-MART PHARMACY #102681","address1": "615 MEADOW STREET","address2": "","city": "LITTLETON","state": "NH","zip": "03561","zip+4": "0000","phone": "6034446400","NPI": "     1437176559"}, 
{"id": 30875,"ncpdp": "3006081","pharmacy_name": "RITE AID PHARMACY #04961","address1": "48 ATWOOD ROAD","address2": "","city": "PELHAM","state": "NH","zip": "03076","zip+4": "3715","phone": "6036357996","NPI": "     1568571974"}, 
{"id": 30876,"ncpdp": "3006093","pharmacy_name": "WALGREEN DRUG STORE #4689","address1": "606 VALLEY STREET","address2": "","city": "MANCHESTER","state": "NH","zip": "03103","zip+4": "0000","phone": "6036683895","NPI": "     1275548257"}, 
{"id": 30877,"ncpdp": "3006106","pharmacy_name": "WAL-MART PHARMACY #102138","address1": "285 PLAINFIELD ROAD","address2": "","city": "WEST LEBANON","state": "NH","zip": "03784","zip+4": "0000","phone": "6032985060","NPI": "     1346267465"}, 
{"id": 30878,"ncpdp": "3006182","pharmacy_name": "RITE AID PHARMACY #10272","address1": "142 MAIN STREET","address2": "","city": "SALEM","state": "NH","zip": "03079","zip+4": "3106","phone": "6038944693","NPI": "     1548369820"}, 
{"id": 30879,"ncpdp": "3006207","pharmacy_name": "RITE AID PHARMACY #10282","address1": "165 NORTH STATE STREET","address2": "","city": "CONCORD","state": "NH","zip": "03301","zip+4": "5015","phone": "6032236718","NPI": "     1457450736"}, 
{"id": 30880,"ncpdp": "3006219","pharmacy_name": "RITE AID PHARMACY #10297","address1": "73 EXETER ROAD","address2": "","city": "NEWMARKET","state": "NH","zip": "03857","zip+4": "1907","phone": "6036597690","NPI": "     1366541641"}, 
{"id": 30881,"ncpdp": "3006221","pharmacy_name": "TARGET PHARMACY #1186","address1": "203219 SOUTH BROADWAY","address2": "","city": "SALEM","state": "NH","zip": "03079","zip+4": "0000","phone": "6038700083","NPI": "     1457374753"}, 
{"id": 30882,"ncpdp": "3006245","pharmacy_name": "TARGET PHARMACY #1227","address1": "80 D AMANTE DRIVE","address2": "","city": "CONCORD","state": "NH","zip": "03301","zip+4": "0000","phone": "6032270816","NPI": "     1134141732"}, 
{"id": 30883,"ncpdp": "3006257","pharmacy_name": "TARGET PHARMACY #1228","address1": "310 DANIEL WEBSTER HWY STE 101","address2": "","city": "NASHUA","state": "NH","zip": "03060","zip+4": "0000","phone": "6038914869","NPI": "     1043232648"}, 
{"id": 30884,"ncpdp": "3006269","pharmacy_name": "HANNAFORD FOOD AND DRUG #159","address1": "AMES PLAZA ROUTE 16","address2": "","city": "OSSIPEE","state": "NH","zip": "03864","zip+4": "0000","phone": "6035393898","NPI": "     1144302621"}, 
{"id": 30885,"ncpdp": "3006271","pharmacy_name": "WAL-MART PHARMACY #102140","address1": "46 NORTH SOUTH ROAD","address2": "","city": "NORTH CONWAY","state": "NH","zip": "03860","zip+4": "0000","phone": "6033563170","NPI": "     1952329617"}, 
{"id": 30886,"ncpdp": "3006283","pharmacy_name": "PRICE CHOPPER PHARMACY #167","address1": "285 PLAINFIELD RD","address2": "","city": "WEST LEBANON","state": "NH","zip": "03784","zip+4": "0000","phone": "6032989680","NPI": "     1063525020"}, 
{"id": 30887,"ncpdp": "3006295","pharmacy_name": "OSCO PHARMACY #7503","address1": "1150 EASTMAN RD","address2": "","city": "CENTER CONWAY","state": "NH","zip": "03813","zip+4": "0000","phone": "6033565888","NPI": "     1982651444"}, 
{"id": 30888,"ncpdp": "3006310","pharmacy_name": "CVS PHARMACY #02420","address1": "177 MAMMOUTH RD","address2": "","city": "LONDONDERRY","state": "NH","zip": "03053","zip+4": "0000","phone": "6034322657","NPI": "     1780767046"}, 
{"id": 30889,"ncpdp": "3006346","pharmacy_name": "OSCO PHARMACY #7502","address1": "1400 LAKESHORE DR","address2": "","city": "GILFORD","state": "NH","zip": "03249","zip+4": "0000","phone": "6035245240","NPI": "     1881640431"}, 
{"id": 30890,"ncpdp": "3006384","pharmacy_name": "OSCO PHARMACY #7483","address1": "55 CRYSTAL AVE","address2": "","city": "DERRY","state": "NH","zip": "03038","zip+4": "0000","phone": "6034379654","NPI": "     1699721241"}, 
{"id": 30891,"ncpdp": "3006409","pharmacy_name": "ST JOSEPH HEALTHCARE RETAIL PH","address1": "172 KINSLEY ST","address2": "","city": "NASHUA","state": "NH","zip": "03060","zip+4": "0000","phone": "6035953090","NPI": "     1134235443"}, 
{"id": 30892,"ncpdp": "3006411","pharmacy_name": "OSCO PHARMACY #7498","address1": "75 LACONIA RD","address2": "","city": "TILTON","state": "NH","zip": "03276","zip+4": "0000","phone": "6032867305","NPI": "     1144276767"}, 
{"id": 30893,"ncpdp": "3006459","pharmacy_name": "WAL-MART PHARMACY #102398","address1": "2200 WOODBURY AVE","address2": "","city": "NEWINGTON","state": "NH","zip": "03801","zip+4": "0000","phone": "6034304427","NPI": "     1295754208"}, 
{"id": 30894,"ncpdp": "3006461","pharmacy_name": "WAL-MART PHARMACY #102399","address1": "300 KELLER ST","address2": "","city": "MANCHESTER","state": "NH","zip": "03103","zip+4": "0000","phone": "6036219922","NPI": "     1255358370"}, 
{"id": 30895,"ncpdp": "3006497","pharmacy_name": "OSCO PHARMACY #7501","address1": "751 MEADOW ST","address2": "","city": "LITTLETON","state": "NH","zip": "03561","zip+4": "0000","phone": "6034446673","NPI": "     1053367672"}, 
{"id": 30896,"ncpdp": "3006574","pharmacy_name": "OSCO PHARMACY #7511","address1": "246 LOUDON RD","address2": "","city": "CONCORD","state": "NH","zip": "03301","zip+4": "0000","phone": "6032282279","NPI": "     1730135096"}, 
{"id": 30897,"ncpdp": "3006586","pharmacy_name": "RITE AID PHARMACY #10283","address1": "24 FORT EDDY PLAZA","address2": "","city": "CONCORD","state": "NH","zip": "03301","zip+4": "7404","phone": "6032247783","NPI": "     1275633612"}, 
{"id": 30898,"ncpdp": "3006598","pharmacy_name": "RITE AID PHARMACY #10293","address1": "865 CENTRAL AVENUE","address2": "","city": "DOVER","state": "NH","zip": "03820","zip+4": "2506","phone": "6037496110","NPI": "     1184724528"}, 
{"id": 30899,"ncpdp": "3006601","pharmacy_name": "RITE AID PHARMACY #10280","address1": "288 UNION AVENUE","address2": "","city": "LACONIA","state": "NH","zip": "03246","zip+4": "3115","phone": "6035281700","NPI": "     1275632556"}, 
{"id": 30900,"ncpdp": "3006613","pharmacy_name": "RITE AID PHARMACY #10273","address1": "53 SOUTH BROADWAY","address2": "","city": "SALEM","state": "NH","zip": "03079","zip+4": "3022","phone": "6038709494","NPI": "     1992805337"}, 
{"id": 30901,"ncpdp": "3006625","pharmacy_name": "RITE AID PHARMACY #10279","address1": "1 SOUTH RIVER ROAD","address2": "","city": "BEDFORD","state": "NH","zip": "03110","zip+4": "6712","phone": "6036441275","NPI": "     1184723462"}, 
{"id": 30902,"ncpdp": "3006637","pharmacy_name": "RITE AID PHARMACY #10294","address1": "58 CALEF HIGHWAY","address2": "","city": "LEE","state": "NH","zip": "03824","zip+4": "6701","phone": "6038686404","NPI": "     1801996244"}, 
{"id": 30903,"ncpdp": "3006649","pharmacy_name": "RITE AID PHARMACY #10277","address1": "1285 HOOKSETT ROAD","address2": "","city": "HOOKSETT","state": "NH","zip": "03106","zip+4": "1843","phone": "6036684705","NPI": "     1992804272"}, 
{"id": 30904,"ncpdp": "3006651","pharmacy_name": "RITE AID PHARMACY #10298","address1": "34 PLAISTOW ROAD","address2": "","city": "PLAISTOW","state": "NH","zip": "03865","zip+4": "2804","phone": "6033829217","NPI": "     1447359724"}, 
{"id": 30905,"ncpdp": "3006663","pharmacy_name": "RITE AID PHARMACY #10264","address1": "20 CRYSTAL AVENUE","address2": "","city": "DERRY","state": "NH","zip": "03038","zip+4": "2412","phone": "6034379799","NPI": "     1356440630"}, 
{"id": 30906,"ncpdp": "3006675","pharmacy_name": "RITE AID PHARMACY #10301","address1": "28 PORTSMOUTH AVENUE","address2": "","city": "STRATHAM","state": "NH","zip": "03885","zip+4": "2550","phone": "6037720749","NPI": "     1265531545"}, 
{"id": 30907,"ncpdp": "3006687","pharmacy_name": "RITE AID PHARMACY #10268","address1": "614 NASHUA STREET","address2": "","city": "MILFORD","state": "NH","zip": "03055","zip+4": "4943","phone": "6036727602","NPI": "     1710087150"}, 
{"id": 30908,"ncpdp": "3006699","pharmacy_name": "RITE AID PHARMACY #10300","address1": "104 MILTON ROAD","address2": "","city": "ROCHESTER","state": "NH","zip": "03867","zip+4": "8615","phone": "6033357851","NPI": "     1174622450"}, 
{"id": 30909,"ncpdp": "3006702","pharmacy_name": "RITE AID PHARMACY #10275","address1": "ONE WILLOW STREET","address2": "","city": "MANCHESTER","state": "NH","zip": "03103","zip+4": "6321","phone": "6036235773","NPI": "     1083713366"}, 
{"id": 30910,"ncpdp": "3006714","pharmacy_name": "RITE AID PHARMACY #10290","address1": "1500 LAFAYETTE ROAD","address2": "","city": "PORTSMOUTH","state": "NH","zip": "03801","zip+4": "5649","phone": "6034307595","NPI": "     1891894176"}, 
{"id": 30911,"ncpdp": "3006726","pharmacy_name": "RITE AID PHARMACY #10266","address1": "212 LOWELL ROAD","address2": "","city": "HUDSON","state": "NH","zip": "03051","zip+4": "4936","phone": "6038801717","NPI": "     1700985082"}, 
{"id": 30912,"ncpdp": "3006738","pharmacy_name": "RITE AID PHARMACY #10278","address1": "270 MAMMOTH ROAD","address2": "","city": "MANCHESTER","state": "NH","zip": "03109","zip+4": "4125","phone": "6036451146","NPI": "     1619076999"}, 
{"id": 30913,"ncpdp": "3006740","pharmacy_name": "RITE AID PHARMACY #10291","address1": "1303 WOODBURY AVENUE","address2": "","city": "PORTSMOUTH","state": "NH","zip": "03801","zip+4": "3210","phone": "6034311580","NPI": "     1629178066"}, 
{"id": 30914,"ncpdp": "3006752","pharmacy_name": "RITE AID PHARMACY #10274","address1": "122 MCGREGOR STREET","address2": "","city": "MANCHESTER","state": "NH","zip": "03103","zip+4": "3746","phone": "6036273822","NPI": "     1528167806"}, 
{"id": 30915,"ncpdp": "3006764","pharmacy_name": "RITE AID PHARMACY #10270","address1": "331 MAIN STREET","address2": "","city": "NASHUA","state": "NH","zip": "03060","zip+4": "4601","phone": "6038869210","NPI": "     1437258712"}, 
{"id": 30916,"ncpdp": "3006776","pharmacy_name": "RITE AID PHARMACY #10267","address1": "123 NASHUA ROAD","address2": "","city": "LONDONDERRY","state": "NH","zip": "03053","zip+4": "3453","phone": "6034378100","NPI": "     1346349628"}, 
{"id": 30917,"ncpdp": "3006815","pharmacy_name": "SAMS PHARMACY #106337","address1": "11 BATCHELDER ROAD","address2": "","city": "SEABROOK","state": "NH","zip": "03874","zip+4": "0000","phone": "6034749827","NPI": "     1164449286"}, 
{"id": 30918,"ncpdp": "3006827","pharmacy_name": "OSCO PHARMACY #7487","address1": "553 MAST RD","address2": "","city": "GOFFTOWN","state": "NH","zip": "03045","zip+4": "0000","phone": "6036686761","NPI": "     1417903063"}, 
{"id": 30919,"ncpdp": "3006839","pharmacy_name": "WAL-MART PHARMACY #102758","address1": "683 TENNEY MOUNTAIN HIGHWAY","address2": "","city": "PLYMOUTH","state": "NH","zip": "03264","zip+4": "0000","phone": "6035365350","NPI": "     1073530192"}, 
{"id": 30920,"ncpdp": "3006841","pharmacy_name": "HANNAFORD FOOD AND DRUG #160","address1": "174 FIRST NH TURNPIKE","address2": "","city": "NORTHWOOD","state": "NH","zip": "03261","zip+4": "0000","phone": "6039428891","NPI": "     1326156704"}, 
{"id": 30921,"ncpdp": "3006865","pharmacy_name": "TARGET PHARMACY #1520","address1": "100 QUALITY DRIVE","address2": "","city": "HOOKSETT","state": "NH","zip": "03106","zip+4": "0000","phone": "6036210672","NPI": "     1952323552"}, 
{"id": 30922,"ncpdp": "3006877","pharmacy_name": "OSCO PHARMACY #7513","address1": "300 MAIN ST","address2": "","city": "NASHUA","state": "NH","zip": "03060","zip+4": "0000","phone": "6035795445","NPI": "     1306884556"}, 
{"id": 30923,"ncpdp": "3006889","pharmacy_name": "OSCO PHARMACY #7505","address1": "570 DANIEL WEBSTER HWY","address2": "","city": "MERRIMACK","state": "NH","zip": "03054","zip+4": "0000","phone": "6034244519","NPI": "     1235185885"}, 
{"id": 30924,"ncpdp": "3006916","pharmacy_name": "TARGET PHARMACY #1532","address1": "600 AMHERST ST","address2": "","city": "NASHUA","state": "NH","zip": "03063","zip+4": "0000","phone": "6033240040","NPI": "     1861414468"}, 
{"id": 30925,"ncpdp": "3006930","pharmacy_name": "SAMS PHARMACY #106352","address1": "7 WALMART BLVD","address2": "","city": "HUDSON","state": "NH","zip": "03051","zip+4": "0000","phone": "6035986533","NPI": "     1982621009"}, 
{"id": 30926,"ncpdp": "3006954","pharmacy_name": "OSCO PHARMACY #7504","address1": "375 S WILLOW ST","address2": "","city": "MANCHESTER","state": "NH","zip": "03103","zip+4": "0000","phone": "6036272564","NPI": "     1467408724"}, 
{"id": 30927,"ncpdp": "3006966","pharmacy_name": "OSCO PHARMACY #7514","address1": "276 W MAIN ST","address2": "","city": "HILLSBOROUGH","state": "NH","zip": "03244","zip+4": "0000","phone": "6034644133","NPI": "     1376599639"}, 
{"id": 30928,"ncpdp": "3006978","pharmacy_name": "WAL-MART PHARMACY #103535","address1": "35 FRESH RIVER ROAD","address2": "","city": "EPPING","state": "NH","zip": "03042","zip+4": "0000","phone": "6036795942","NPI": "     1790702819"}, 
{"id": 30929,"ncpdp": "3006992","pharmacy_name": "OSCO PHARMACY #7484","address1": "RT 102 OLD ORCHARD VIEW DR","address2": "","city": "LONDONDERRY","state": "NH","zip": "03053","zip+4": "0000","phone": "6034376933","NPI": "     1285680546"}, 
{"id": 30930,"ncpdp": "3007007","pharmacy_name": "THE PRESCRIPTION CENTER","address1": "246 PLEASANT ST","address2": "STE 100","city": "CONCORD","state": "NH","zip": "03301","zip+4": "0000","phone": "6032264848","NPI": "     1639175110"}, 
{"id": 30931,"ncpdp": "3007033","pharmacy_name": "APOTHECARY EXPRESS","address1": "121 LOUDON RD","address2": "","city": "CONCORD","state": "NH","zip": "03301","zip+4": "0000","phone": "6032236600","NPI": "     1700930690"}, 
{"id": 30932,"ncpdp": "3007057","pharmacy_name": "CVS PHARMACY #05938","address1": "79 S MAIN ST","address2": "","city": "HANOVER","state": "NH","zip": "03755","zip+4": "0000","phone": "6036433178","NPI": "     1598848855"}, 
{"id": 30933,"ncpdp": "3007083","pharmacy_name": "HANNAFORD FOOD AND DRUG #163","address1": "481 WEST STREET","address2": "","city": "KEENE","state": "NH","zip": "03431","zip+4": "0000","phone": "6033570423","NPI": "     1235247610"}, 
{"id": 30934,"ncpdp": "3007095","pharmacy_name": "NORTHEAST PHARMACY SERVICES","address1": "125 NORTH MAIN ST","address2": "","city": "CONCORD","state": "NH","zip": "03301","zip+4": "0000","phone": "6032243609","NPI": "     1144321357"}, 
{"id": 30935,"ncpdp": "3060554","pharmacy_name": "HANNAFORD FOOD AND DRUG #190","address1": "305 SANDOWN RD","address2": "","city": "E HAMPSTEAD","state": "NH","zip": "03826","zip+4": "0000","phone": "6033290187","NPI": "     1144338526"}, 
{"id": 30936,"ncpdp": "3060566","pharmacy_name": "OSCO PHARMACY #7621","address1": "100 SHAWS LN","address2": "","city": "STRATHAM","state": "NH","zip": "03885","zip+4": "0000","phone": "6037735992","NPI": "     1093761355"}, 
{"id": 30937,"ncpdp": "3060578","pharmacy_name": "THE PRESCRIPTION CENTER","address1": "60 COMMERCIAL ST","address2": "STE 103","city": "CONCORD","state": "NH","zip": "03301","zip+4": "0000","phone": "6034150100","NPI": "     1598761637"}, 
{"id": 30938,"ncpdp": "3060580","pharmacy_name": "RITE AID PHARMACY #10265","address1": "71 LOWELL ROAD","address2": "","city": "HUDSON","state": "NH","zip": "03051","zip+4": "4866","phone": "6038826335","NPI": "     1538269972"}, 
{"id": 30939,"ncpdp": "3060592","pharmacy_name": "WALGREEN DRUG STORE #9320","address1": "258 WALLACE RD","address2": "","city": "BEDFORD","state": "NH","zip": "03110","zip+4": "0000","phone": "6034725829","NPI": "     1184639163"}, 
{"id": 30940,"ncpdp": "3060605","pharmacy_name": "HANNAFORD FOOD AND DRUG #185","address1": "6 HAMPTON DRIVE","address2": "","city": "LONDONDERRY","state": "NH","zip": "03053","zip+4": "0000","phone": "6034210921","NPI": "     1053429431"}, 
{"id": 30941,"ncpdp": "3060617","pharmacy_name": "HANNAFORD FOOD AND DRUG #016","address1": "35 MANCHESTER RD RTE 28","address2": "","city": "DERRY","state": "NH","zip": "03038","zip+4": "0000","phone": "6034212596","NPI": "     1962510347"}, 
{"id": 30942,"ncpdp": "3060631","pharmacy_name": "TARGET PHARMACY #2009","address1": "220 S RIVER RD","address2": "","city": "BEDFORD","state": "NH","zip": "03110","zip+4": "0000","phone": "6032630062","NPI": "     1770505372"}, 
{"id": 30943,"ncpdp": "3060655","pharmacy_name": "WALGREEN DRUG STORE #9250","address1": "12 MAIN ST","address2": "","city": "EPPING","state": "NH","zip": "03042","zip+4": "0000","phone": "6036795265","NPI": "     1992710974"}, 
{"id": 30944,"ncpdp": "3060679","pharmacy_name": "WALGREEN DRUG STORE #9177","address1": "3 AIRPORT RD","address2": "","city": "WEST LEBANON","state": "NH","zip": "03784","zip+4": "0000","phone": "6032985391","NPI": "     1801801881"}, 
{"id": 30945,"ncpdp": "3060681","pharmacy_name": "OSCO PHARMACY #7686","address1": "43 INDIAN ROCK RD","address2": "","city": "WINDHAM","state": "NH","zip": "03087","zip+4": "0000","phone": "6034373481","NPI": "     1902852262"}, 
{"id": 30946,"ncpdp": "3060720","pharmacy_name": "PRICE CHOPPER PHARMACY #208","address1": "16 ASHBROOK RD","address2": "","city": "KEENE","state": "NH","zip": "03431","zip+4": "0000","phone": "6033522469","NPI": "     1164536421"}, 
{"id": 30947,"ncpdp": "3060732","pharmacy_name": "HANNAFORD FOOD AND DRUG #315","address1": "290 NORTH MAIN STREET","address2": "","city": "ROCHESTER","state": "NH","zip": "03867","zip+4": "0000","phone": "6033329264","NPI": "     1487762738"}, 
{"id": 30948,"ncpdp": "3060744","pharmacy_name": "TARGET PHARMACY #2120","address1": "46 ASH BROOK RD","address2": "","city": "KEENE","state": "NH","zip": "03431","zip+4": "0000","phone": "6033542165","NPI": "     1689696288"}, 
{"id": 30949,"ncpdp": "3060756","pharmacy_name": "OSCO PHARMACY #7678","address1": "7 CONTINENTAL BLVD","address2": "","city": "MERRIMACK","state": "NH","zip": "03054","zip+4": "0000","phone": "6034290759","NPI": "     1306884325"}, 
{"id": 30950,"ncpdp": "3060768","pharmacy_name": "HANNAFORD FOOD AND DRUG #247","address1": "80 WOLFBONO HWY","address2": "","city": "ALTON","state": "NH","zip": "03809","zip+4": "0000","phone": "6038755300","NPI": "     1356421424"}, 
{"id": 30951,"ncpdp": "3060770","pharmacy_name": "WALGREEN DRUG STORE #09613","address1": "283 MAIN ST","address2": "","city": "NASHAU","state": "NH","zip": "03060","zip+4": "2937","phone": "6038896124","NPI": "     1326144593"}, 
{"id": 30952,"ncpdp": "3060794","pharmacy_name": "OSCO PHARMACY #7486","address1": "1328 HOOKSETT RD","address2": "","city": "HOOKSETT","state": "NH","zip": "03106","zip+4": "0000","phone": "6035189972","NPI": "     1396766754"}, 
{"id": 30953,"ncpdp": "3060807","pharmacy_name": "WALGREEN DRUG STORE #10410","address1": "274 DELLS RD","address2": "","city": "LITTLTON","state": "NH","zip": "03561","zip+4": "3513","phone": "6034444193","NPI": "     1164503942"}, 
{"id": 30954,"ncpdp": "3060819","pharmacy_name": "TARGET PHARMACY #2182","address1": "11 ANDREWS ROAD","address2": "","city": "SOMERSWORTH","state": "NH","zip": "03878","zip+4": "0000","phone": "6036926751","NPI": "     1467534602"}, 
{"id": 30955,"ncpdp": "3060821","pharmacy_name": "NASHUA MEDICAL GROUP PHARMACY","address1": "173 DANIEL WEBSTER HWY","address2": "","city": "NASHUA","state": "NH","zip": "03060","zip+4": "0000","phone": "6038914439","NPI": "     1174621189"}, 
{"id": 30956,"ncpdp": "3060845","pharmacy_name": "WALGREEN DRUG STORE #09970","address1": "1298 HOOKSETT RD","address2": "","city": "HOOKSETT","state": "NH","zip": "03106","zip+4": "1842","phone": "6036472846","NPI": "     1861562720"}, 
{"id": 30957,"ncpdp": "3060857","pharmacy_name": "LAPERLES PHARMACY","address1": "64 TROOPER LESLIE LORD MEM HWY","address2": "","city": "COLEBROOK","state": "NH","zip": "03576","zip+4": "0000","phone": "6032375033","NPI": "     1790858934"}, 
{"id": 30958,"ncpdp": "3060869","pharmacy_name": "WALGREEN DRUG STORE #10378","address1": "288 SANDOWN RD","address2": "","city": "HAMPSTEAD","state": "NH","zip": "03826","zip+4": "2409","phone": "6033299521","NPI": "     1568682367"}, 
{"id": 30959,"ncpdp": "3060871","pharmacy_name": "CVS PHARMACY #00442","address1": "10 WHITEHALL RD","address2": "","city": "HOOKSETT","state": "NH","zip": "03106","zip+4": "0000","phone": "6036272496","NPI": "     1033230479"}, 
{"id": 30960,"ncpdp": "3060883","pharmacy_name": "WALGREEN DRUG STORE #10108","address1": "17 CRYSTAL AVE","address2": "","city": "DERRY","state": "NH","zip": "03038","zip+4": "2415","phone": "6034341853","NPI": "     1639384894"}, 
{"id": 30961,"ncpdp": "3060910","pharmacy_name": "WALGREENS DRUG STORE #11983","address1": "99 BRIDGE STREET","address2": "","city": "PELHAM","state": "NH","zip": "03076","zip+4": "0000","phone": "6036359153","NPI": "     1740490143"}, 
{"id": 30962,"ncpdp": "3060922","pharmacy_name": "WALGREENS DRUG STORE #11985","address1": "14 PINNACLE LANE","address2": "","city": "WALPOLE","state": "NH","zip": "03608","zip+4": "9801","phone": "6034451900","NPI": "     1295945962"}, 
{"id": 30963,"ncpdp": "3060946","pharmacy_name": "WALGREENS DRUG STORE #10780","address1": "1 GLENWOOD AVE","address2": "","city": "DOVER","state": "NH","zip": "03820","zip+4": "2406","phone": "6037494136","NPI": "     1083807432"}, 
{"id": 30964,"ncpdp": "3060960","pharmacy_name": "HANNAFORD SUPERMARKETS AND PHA","address1": "30 GRAPEVINE DRIVE","address2": "","city": "DROVER","state": "NH","zip": "03820","zip+4": "0000","phone": "6037492374","NPI": "     1316133929"}, 
{"id": 30965,"ncpdp": "3060972","pharmacy_name": "WALGREEN DRUG STORE #09646","address1": "615 DANIEL WEBSTER HWY","address2": "","city": "MERRIMACK","state": "NH","zip": "03054","zip+4": "2754","phone": "6034239330","NPI": "     1285821140"}, 
{"id": 30966,"ncpdp": "3060984","pharmacy_name": "CVS PHARMACY #07932","address1": "432 S MAIN STREET","address2": "","city": "MANCHESTER","state": "NH","zip": "03102","zip+4": "0000","phone": "6036233532","NPI": "     1144417288"}, 
{"id": 30967,"ncpdp": "3061001","pharmacy_name": "WALGREEN DRUG STORE #10462","address1": "571 NASHUA ST","address2": "","city": "MILFORD","state": "NH","zip": "03055","zip+4": "0000","phone": "6036734341","NPI": "     1811178882"}, 
{"id": 30968,"ncpdp": "3061049","pharmacy_name": "QOL MEDS #140","address1": "10 TSIENNETO RD","address2": "","city": "DERRY","state": "NH","zip": "03038","zip+4": "0000","phone": "6039650255","NPI": "     1801074166"}, 
{"id": 30969,"ncpdp": "3061051","pharmacy_name": "WAL-MART PHARMACY #4389","address1": "4901 DARTMOUTH COLLEGE HWY","address2": "","city": "WOODSVILLE","state": "NH","zip": "03785","zip+4": "0000","phone": "6037478250","NPI": "     1710163159"}, 
{"id": 30970,"ncpdp": "3061063","pharmacy_name": "CVS PHARMACY #00841","address1": "4 HALL STREET","address2": "","city": "CONCORD","state": "NH","zip": "03301","zip+4": "0000","phone": "6032243189","NPI": "     1194998674"}, 
{"id": 30971,"ncpdp": "3061087","pharmacy_name": "WALGREEN DRUG STORE #10609","address1": "1498 WHITE MOUNTAIN HWY","address2": "","city": "NORTH CONWAY","state": "NH","zip": "03860","zip+4": "0000","phone": "6033568031","NPI": "     1902073323"}, 
{"id": 30972,"ncpdp": "3061099","pharmacy_name": "WALGREEN DRUG STORE #11376","address1": "142 LOUDON RD","address2": "","city": "CONCORD","state": "NH","zip": "03301","zip+4": "5637","phone": "6032231890","NPI": "     1982864534"}, 
{"id": 30973,"ncpdp": "3061102","pharmacy_name": "WALGREENS #10887","address1": "4 SANBORN RD","address2": "","city": "TILTON","state": "NH","zip": "03276","zip+4": "5725","phone": "6032861932","NPI": "     1528223674"}, 
{"id": 30974,"ncpdp": "3061114","pharmacy_name": "WALGREENS #11225","address1": "53 EPPING ST","address2": "","city": "RAYMOND","state": "NH","zip": "03077","zip+4": "0000","phone": "6038959842","NPI": "     1851547376"}, 
{"id": 30975,"ncpdp": "3061126","pharmacy_name": "CVS PHARMACY #03063","address1": "125 DUBLIN AVE","address2": "","city": "PETERBOROUGH","state": "NH","zip": "03458","zip+4": "0000","phone": "6039246397","NPI": "     1407005150"}, 
{"id": 30976,"ncpdp": "3061138","pharmacy_name": "HANNAFORD SUPERMARKET AND PHAR","address1": "4 JENKINS RD","address2": "","city": "BEDFORD","state": "NH","zip": "03110","zip+4": "0000","phone": "6034722627","NPI": "     1093964983"}, 
{"id": 30977,"ncpdp": "3061140","pharmacy_name": "PRICE CHOPPER PHARMACY #227","address1": "370 MIRACLE MILE ROAD","address2": "","city": "LEBANON","state": "NH","zip": "03866","zip+4": "0000","phone": "6034483753","NPI": "     1144475773"}, 
{"id": 30978,"ncpdp": "3061152","pharmacy_name": "WALGREENS #11554","address1": "90 DERRY ST","address2": "","city": "HUDSON","state": "NH","zip": "03051","zip+4": "3754","phone": "9038800248","NPI": "     1821234212"}, 
{"id": 30979,"ncpdp": "3061164","pharmacy_name": "TARGET PHARMACY #2530","address1": "1450 GREENLAND RD STE 1","address2": "","city": "GREENLAND","state": "NH","zip": "03840","zip+4": "2438","phone": "6035011471","NPI": "     1104051226"}, 
{"id": 30980,"ncpdp": "3061176","pharmacy_name": "HANNAFORD FOOD & DRUG #329","address1": "73 FORT EDDY RD","address2": "","city": "CONCORD","state": "NH","zip": "03301","zip+4": "0000","phone": "6032282121","NPI": "     1437392420"}, 
{"id": 30981,"ncpdp": "3061190","pharmacy_name": "CVS PHARMACY #07391","address1": "861 CENTRAL ST","address2": "","city": "FRANKLIN","state": "NH","zip": "03235","zip+4": "2026","phone": "6039340225","NPI": "     1316175821"}, 
{"id": 30982,"ncpdp": "3061203","pharmacy_name": "CVS PHARMACY #06596","address1": "321A LAFAYETTE RD","address2": "","city": "HAMPTON","state": "NH","zip": "03842","zip+4": "2108","phone": "6039262885","NPI": "     1376774554"}, 
{"id": 30983,"ncpdp": "3061215","pharmacy_name": "CVS PHARMACY #08931","address1": "220 UNION AVE","address2": "","city": "LACONIA","state": "NH","zip": "03246","zip+4": "3103","phone": "6035270173","NPI": "     1477785533"}, 
{"id": 30984,"ncpdp": "3061227","pharmacy_name": "FISHERVILLE PHARMACY","address1": "219 FISHERVILLE RD","address2": "","city": "PENACOOK","state": "NH","zip": "03303","zip+4": "2074","phone": "6035650210","NPI": "     1184853723"}, 
{"id": 30985,"ncpdp": "3061239","pharmacy_name": "WALGREENS #10409","address1": "45 COURT ST","address2": "","city": "LACONIA","state": "NH","zip": "03246","zip+4": "3634","phone": "6035245550","NPI": "     1194958652"}, 
{"id": 30986,"ncpdp": "3061241","pharmacy_name": "SUGAR RIVER PHARMACY","address1": "46 JOHN STARK HWY","address2": "SUGAR RIVER PLAZA","city": "NEWPORT","state": "NH","zip": "03773","zip+4": "1811","phone": "6038634111","NPI": "     1225363229"}, 
{"id": 30987,"ncpdp": "3061253","pharmacy_name": "WALGREENS #10642","address1": "91 CALEF HWY","address2": "","city": "LEE","state": "NH","zip": "03861","zip+4": "6703","phone": "6038681783","NPI": "     1396070033"}, 