{"id": 32823,"ncpdp": "3200021","pharmacy_name": "CJS PILL BOX","address1": "109 W 4TH ST","address2": "","city": "PORTALES","state": "NM","zip": "88130","zip+4": "6369","phone": "5753564422","NPI": "     1306997424"}, 
{"id": 32824,"ncpdp": "3200057","pharmacy_name": "WALGREEN DRUG STORE #6587","address1": "9700 MENAUL BLVD NE","address2": "","city": "ALBUQUERQUE","state": "NM","zip": "87112","zip+4": "0000","phone": "5052960707","NPI": "     1336154228"}, 
{"id": 32825,"ncpdp": "3200069","pharmacy_name": "WALGREEN DRUG STORE #3997","address1": "2105 CENTRAL AVENUE NW","address2": "","city": "ALBUQUERQUE","state": "NM","zip": "87104","zip+4": "0000","phone": "5052422644","NPI": "     1811902711"}, 
{"id": 32826,"ncpdp": "3200083","pharmacy_name": "WALGREEN DRUG STORE #3035","address1": "6201 CENTRAL AVE","address2": "","city": "ALBUQUERQUE","state": "NM","zip": "87108","zip+4": "0000","phone": "5052555511","NPI": "     1720093628"}, 
{"id": 32827,"ncpdp": "3200095","pharmacy_name": "WALGREEN DRUG STORE #5997","address1": "2625 SAN PEDRO DR NE","address2": "","city": "ALBUQUERQUE","state": "NM","zip": "87110","zip+4": "0000","phone": "5058835128","NPI": "     1639184534"}, 
{"id": 32828,"ncpdp": "3200108","pharmacy_name": "WALGREEN DRUG STORE #2900","address1": "1096 ST FRANCIS DR","address2": "","city": "SANTA FE","state": "NM","zip": "87501","zip+4": "0000","phone": "5059824643","NPI": "     1548275449"}, 
{"id": 32829,"ncpdp": "3200146","pharmacy_name": "SAVON DRUGS #911","address1": "2801 A EUBANK BLVD","address2": "","city": "ALBUQUERQUE","state": "NM","zip": "87112","zip+4": "0000","phone": "5052941597","NPI": "     1174560502"}, 
{"id": 32830,"ncpdp": "3200211","pharmacy_name": "ADVANCED MEDICATION MANAGEMENT","address1": "2402 W PIERCE","address2": "STE 2B","city": "CARLSBAD","state": "NM","zip": "88220","zip+4": "0000","phone": "5758852979","NPI": "     1437170404"}, 
{"id": 32831,"ncpdp": "3200247","pharmacy_name": "WALGREEN DRUG STORE #4950","address1": "700 E 21ST STREET","address2": "","city": "CLOVIS","state": "NM","zip": "88101","zip+4": "3703","phone": "5057623815","NPI": "     1457366353"}, 
{"id": 32832,"ncpdp": "3200336","pharmacy_name": "RODEN SMITH PHARMACY","address1": "601 E LLANO ESTACADO BLVD","address2": "STE A","city": "CLOVIS","state": "NM","zip": "88101","zip+4": "0000","phone": "5057623848","NPI": "     1346455680"}, 
{"id": 32833,"ncpdp": "3200362","pharmacy_name": "MEDICINE SHOPPE #1565","address1": "1801 W 21ST","address2": "","city": "CLOVIS","state": "NM","zip": "88101","zip+4": "0000","phone": "5057624579","NPI": "     1821160615"}, 
{"id": 32834,"ncpdp": "3200401","pharmacy_name": "K REGENT DRUG #1","address1": "338 OSUNA RD NW","address2": "","city": "ALBUQUERQUE","state": "NM","zip": "87107","zip+4": "0000","phone": "5053453568","NPI": "     1811052244"}, 
{"id": 32835,"ncpdp": "3200540","pharmacy_name": "KELLEY PHARMACY","address1": "111 W HOBBS ST","address2": "","city": "ROSWELL","state": "NM","zip": "88203","zip+4": "0000","phone": "5056226000","NPI": "     1629145792"}, 
{"id": 32836,"ncpdp": "3200588","pharmacy_name": "DURAN CENTRAL PHARMACY INC","address1": "1815 CENTRAL AVE NW","address2": "","city": "ALBUQUERQUE","state": "NM","zip": "87104","zip+4": "1143","phone": "5052474141","NPI": "     1497825970"}, 
{"id": 32837,"ncpdp": "3200603","pharmacy_name": "WALGREEN DRUG STORE #23","address1": "5001 MONTGOMERY PLAZA","address2": "","city": "ALBUQUERQUE","state": "NM","zip": "87109","zip+4": "0000","phone": "5058815050","NPI": "     1366457269"}, 
{"id": 32838,"ncpdp": "3200627","pharmacy_name": "PHARMACY PLUS","address1": "407 W HWY 550","address2": "","city": "BERNALILLO","state": "NM","zip": "87004","zip+4": "0000","phone": "5058672336","NPI": "     1568545051"}, 
{"id": 32839,"ncpdp": "3200653","pharmacy_name": "DEL NORTE PHARMACY AND HOME ME","address1": "1691 GALISTEO","address2": "","city": "SANTA FE","state": "NM","zip": "87501","zip+4": "0000","phone": "5059889797","NPI": "     1164408720"}, 
{"id": 32840,"ncpdp": "3200792","pharmacy_name": "UNIVERSITY HOSP OP PHCY","address1": "1209 UNIVERSITY BLVD NE","address2": "","city": "ALBUQUERQUE","state": "NM","zip": "87106","zip+4": "2745","phone": "5052728674","NPI": "     1134165681"}, 
{"id": 32841,"ncpdp": "3201100","pharmacy_name": "THE MEDICINE CHEST #2","address1": "1123 CANDELARIA N W","address2": "","city": "ALBUQUERQUE","state": "NM","zip": "87107","zip+4": "0000","phone": "5053442335","NPI": "     1093851602"}, 
{"id": 32842,"ncpdp": "3201124","pharmacy_name": "HIGHLAND PHARMACY INC","address1": "717 ENCINO PLACE NE","address2": "","city": "ALBUQUERQUE","state": "NM","zip": "87102","zip+4": "2611","phone": "5052433777","NPI": "     1417945494"}, 
{"id": 32843,"ncpdp": "3201528","pharmacy_name": "VICTORS REGENT PHARMACY","address1": "1643 ISLETA BLVD SW","address2": "","city": "ALBUQUERQUE","state": "NM","zip": "87105","zip+4": "4633","phone": "5058771620","NPI": "     1942242516"}, 
{"id": 32844,"ncpdp": "3201617","pharmacy_name": "LOWELLS PHARMACY","address1": "612 N 13TH ST","address2": "STE A","city": "ARTESIA","state": "NM","zip": "88210","zip+4": "1167","phone": "5757466681","NPI": "     1609873900"}, 
{"id": 32845,"ncpdp": "3201667","pharmacy_name": "KARE DRUG AZTEC #2","address1": "100 LLANO ST","address2": "","city": "AZTEC","state": "NM","zip": "87410","zip+4": "0000","phone": "5053346411","NPI": "     1649262502"}, 
{"id": 32846,"ncpdp": "3201693","pharmacy_name": "BUCKLAND PHARMACY","address1": "600 DALIES AVE","address2": "","city": "BELEN","state": "NM","zip": "87002","zip+4": "0729","phone": "5058647434","NPI": "     1770643918"}, 
{"id": 32847,"ncpdp": "3201910","pharmacy_name": "CITY DRUG","address1": "7 MAIN ST","address2": "","city": "CLAYTON","state": "NM","zip": "88415","zip+4": "3037","phone": "5753749121","NPI": "     1740262260"}, 
{"id": 32848,"ncpdp": "3202479","pharmacy_name": "HOBBS DRUG","address1": "700 N TURNER ST","address2": "","city": "HOBBS","state": "NM","zip": "88240","zip+4": "8235","phone": "5753935111","NPI": "     1144327313"}, 
{"id": 32849,"ncpdp": "3202671","pharmacy_name": "REDE PHARMACY","address1": "2655 MISSOURI AVE","address2": "","city": "LAS CRUCES","state": "NM","zip": "88011","zip+4": "0000","phone": "5755227484","NPI": "     1154461341"}, 
{"id": 32850,"ncpdp": "3202734","pharmacy_name": "DEL NORTE PHARMACY AND HOME ME","address1": "602 UNIVERSITY DR","address2": "","city": "LAS VEGAS","state": "NM","zip": "87701","zip+4": "0000","phone": "5054256241","NPI": "     1912983578"}, 
{"id": 32851,"ncpdp": "3202859","pharmacy_name": "LOS ALAMOS MEDICAL CENTER OUTP","address1": "3917 WEST RD","address2": "","city": "LOS ALAMOS","state": "NM","zip": "87544","zip+4": "2222","phone": "5056619560","NPI": "     1821130626"}, 
{"id": 32852,"ncpdp": "3202873","pharmacy_name": "MICHAEL\'S PRESCRIPTION CORNER","address1": "123 W AVENUE A","address2": "","city": "LOVINGTON","state": "NM","zip": "88260","zip+4": "4211","phone": "5753962311","NPI": "     1649311374"}, 
{"id": 32853,"ncpdp": "3202885","pharmacy_name": "B AND J DRUG INC","address1": "102 SOUTH 1ST ST","address2": "","city": "LOVINGTON","state": "NM","zip": "88260","zip+4": "0000","phone": "5753962801","NPI": "     1720193428"}, 
{"id": 32854,"ncpdp": "3202948","pharmacy_name": "NOWELL PHARMACY","address1": "122 W ADAMS","address2": "","city": "LOVINGTON","state": "NM","zip": "88260","zip+4": "0000","phone": "5753964242","NPI": "     1568473114"}, 
{"id": 32855,"ncpdp": "3203279","pharmacy_name": "PRIMM DRUG","address1": "711 N UNION","address2": "","city": "ROSWELL","state": "NM","zip": "88201","zip+4": "3955","phone": "5056226571","NPI": "     1902021272"}, 
{"id": 32856,"ncpdp": "3203318","pharmacy_name": "THE MEDICINE SHOP","address1": "1010 S MAIN ST STE 1","address2": "","city": "ROSWELL","state": "NM","zip": "88203","zip+4": "0000","phone": "5756233900","NPI": "     1689677460"}, 
{"id": 32857,"ncpdp": "3203697","pharmacy_name": "SILVER REXALL DRUG INC","address1": "1308 SILVER HEIGHTS BLVD","address2": "","city": "SILVER CITY","state": "NM","zip": "88061","zip+4": "1128","phone": "5753881579","NPI": "     1619047552"}, 
{"id": 32858,"ncpdp": "3203748","pharmacy_name": "SPRINGER DRUGS","address1": "825 4TH STREET","address2": "","city": "SPRINGER","state": "NM","zip": "87747","zip+4": "0000","phone": "5054832356","NPI": "     1043393077"}, 
{"id": 32859,"ncpdp": "3203875","pharmacy_name": "WELLBORN PHARMACY","address1": "315 S 2ND STREET","address2": "","city": "TUCUMCARI","state": "NM","zip": "88401","zip+4": "0985","phone": "5754612784","NPI": "     1720140569"}, 
{"id": 32860,"ncpdp": "3203952","pharmacy_name": "MEDICAL ARTS PHARMACY INC","address1": "1301 10TH ST","address2": "","city": "ALAMOGORDO","state": "NM","zip": "88310","zip+4": "0000","phone": "5754375530","NPI": "     1730251521"}, 
{"id": 32861,"ncpdp": "3204067","pharmacy_name": "WALGREEN DRUG STORE #11360","address1": "11200 MONTGOMERY BLVD NE","address2": "","city": "ALBUQUERQUE","state": "NM","zip": "87111","zip+4": "0000","phone": "5052987477","NPI": "     1285641183"}, 
{"id": 32862,"ncpdp": "3204079","pharmacy_name": "WALGREEN DRUG STORE #18","address1": "2031 12TH STREET NW","address2": "","city": "ALBUQUERQUE","state": "NM","zip": "87102","zip+4": "0000","phone": "5052431356","NPI": "     1093722993"}, 
{"id": 32863,"ncpdp": "3204207","pharmacy_name": "SHARE N CARE PHARMACY AND MEDI","address1": "701 DALIES AVE","address2": "","city": "BELEN","state": "NM","zip": "87002","zip+4": "0000","phone": "5058647471","NPI": "     1497880470"}, 
{"id": 32864,"ncpdp": "3204219","pharmacy_name": "TRUST PHARMACY","address1": "1000 ROOSEVELT","address2": "","city": "GRANTS","state": "NM","zip": "87020","zip+4": "2118","phone": "5052873913","NPI": "     1407986680"}, 
{"id": 32865,"ncpdp": "3204283","pharmacy_name": "KARE PHARMACY #4","address1": "100 A N CHURCH ST","address2": "","city": "BLOOMFIELD","state": "NM","zip": "87413","zip+4": "5727","phone": "5056323324","NPI": "     1326159625"}, 
{"id": 32866,"ncpdp": "3204358","pharmacy_name": "NAMBE DRUGS INC","address1": "70 CITIES OF GOLD RD","address2": "","city": "SANTA FE","state": "NM","zip": "87506","zip+4": "0000","phone": "5054552256","NPI": "     1255461182"}, 
{"id": 32867,"ncpdp": "3204459","pharmacy_name": "LAS CLINICAS DEL NORTE","address1": "28 HIGHWAY 571","address2": "","city": "EL RITO","state": "NM","zip": "87530","zip+4": "0000","phone": "5755814728","NPI": "     1053314831"}, 
{"id": 32868,"ncpdp": "3204702","pharmacy_name": "PLAZA DRUGS","address1": "178 BRIDGE ST","address2": "","city": "LAS VEGAS","state": "NM","zip": "87701","zip+4": "3497","phone": "5054255221","NPI": "     1245392851"}, 
{"id": 32869,"ncpdp": "3205639","pharmacy_name": "DEL NORTE PHARMACY AND HOME ME","address1": "955 S SECOND ST","address2": "","city": "RATON","state": "NM","zip": "87740","zip+4": "0000","phone": "5054453131","NPI": "     1992781553"}, 
{"id": 32870,"ncpdp": "3205677","pharmacy_name": "WALGREEN DRUG STORE #4651","address1": "10236 COORS BYPASS","address2": "","city": "ALBUQUERQUE","state": "NM","zip": "87114","zip+4": "4088","phone": "5058980971","NPI": "     1902813801"}, 
{"id": 32871,"ncpdp": "3205689","pharmacy_name": "KMART PHARMACY #4136","address1": "2100 CARLISLE AVE NE","address2": "","city": "ALBUQUERQUE","state": "NM","zip": "87110","zip+4": "0000","phone": "5052653549","NPI": "     1992736037"}, 
{"id": 32872,"ncpdp": "3205730","pharmacy_name": "KMART PHARMACY #3301","address1": "1712 ST MICHAEL S DR","address2": "","city": "SANTA FE","state": "NM","zip": "87501","zip+4": "0000","phone": "5054717823","NPI": "     1801827944"}, 
{"id": 32873,"ncpdp": "3205742","pharmacy_name": "KMART PHARMACY #4400","address1": "4208 CENTRAL AVE SW","address2": "","city": "ALBUQUERQUE","state": "NM","zip": "87105","zip+4": "0000","phone": "5058366511","NPI": "     1710918859"}, 
{"id": 32874,"ncpdp": "3205831","pharmacy_name": "SOUTHWESTERN MEDICAL PHARMACY","address1": "2402 W PIERCE","address2": "ST 1A","city": "CARLSBAD","state": "NM","zip": "88220","zip+4": "3595","phone": "5758876611","NPI": "     1700810959"}, 
{"id": 32875,"ncpdp": "3205932","pharmacy_name": "UNITED DRUG #201","address1": "221 W HALL ST","address2": "","city": "HATCH","state": "NM","zip": "87937","zip+4": "0427","phone": "5752674943","NPI": "     1730287749"}, 
{"id": 32876,"ncpdp": "3205944","pharmacy_name": "FRASER MED CENTER PHARMACY","address1": "1676 HOSPITAL DR","address2": "","city": "SANTA FE","state": "NM","zip": "87505","zip+4": "0000","phone": "5059834359","NPI": "     1386655934"}, 
{"id": 32877,"ncpdp": "3205956","pharmacy_name": "KMART PHARMACY #3444","address1": "9500 MONTGOMERY BLVD NE","address2": "","city": "ALBUQUERQUE","state": "NM","zip": "87111","zip+4": "0000","phone": "5052997683","NPI": "     1629009766"}, 
{"id": 32878,"ncpdp": "3206011","pharmacy_name": "SAVON PHARMACY #928","address1": "11825 LOMAS BLVD NE","address2": "","city": "ALBUQUERQUE","state": "NM","zip": "87112","zip+4": "0000","phone": "5052939156","NPI": "     1255371621"}, 
{"id": 32879,"ncpdp": "3206023","pharmacy_name": "SAVON DRUGS #904","address1": "4950 MONTGOMERY NE","address2": "","city": "ALBUQUERQUE","state": "NM","zip": "87109","zip+4": "0000","phone": "5058838703","NPI": "     1124067509"}, 
{"id": 32880,"ncpdp": "3206047","pharmacy_name": "KMART PHARMACY #3058","address1": "1240 S EL PASEO RD","address2": "","city": "LAS CRUCES","state": "NM","zip": "88001","zip+4": "0000","phone": "5755238671","NPI": "     1538190673"}, 
{"id": 32881,"ncpdp": "3206061","pharmacy_name": "KMART PHARMACY #7016","address1": "2220 NORTH GRIMES ST","address2": "","city": "HOBBS","state": "NM","zip": "88240","zip+4": "0000","phone": "5053931576","NPI": "     1356372494"}, 
{"id": 32882,"ncpdp": "3206073","pharmacy_name": "KMART PHARMACY #7017","address1": "1705 S MAIN ST","address2": "","city": "ROSWELL","state": "NM","zip": "88203","zip+4": "1899","phone": "5056239001","NPI": "     1447281589"}, 
{"id": 32883,"ncpdp": "3206085","pharmacy_name": "KMART PHARMACY #7035","address1": "3000 EAST MAIN ST","address2": "","city": "FARMINGTON","state": "NM","zip": "87402","zip+4": "7698","phone": "5053270236","NPI": "     1265463301"}, 
{"id": 32884,"ncpdp": "3206198","pharmacy_name": "PINON FAMILY PHARMACY","address1": "2300 B E 30TH","address2": "SUITE 101","city": "FARMINGTON","state": "NM","zip": "87401","zip+4": "0000","phone": "5053274826","NPI": "     1578635199"}, 
{"id": 32885,"ncpdp": "3206249","pharmacy_name": "WALGREEN DRUG STORE #4047","address1": "101 COORS BLVD NW","address2": "","city": "ALBUQUERQUE","state": "NM","zip": "87121","zip+4": "0000","phone": "5058313137","NPI": "     1275548174"}, 
{"id": 32886,"ncpdp": "3206287","pharmacy_name": "THE MEDICINE SHOPPE #1801","address1": "820 E FLORIDA","address2": "","city": "DEMING","state": "NM","zip": "88030","zip+4": "0000","phone": "5055462731","NPI": "     1326142381"}, 
{"id": 32887,"ncpdp": "3206302","pharmacy_name": "SMITHS PHARMACY #409 #706409","address1": "600 EAST 20TH ST","address2": "","city": "FARMINGTON","state": "NM","zip": "87401","zip+4": "0000","phone": "5053251774","NPI": "     1093730616"}, 
{"id": 32888,"ncpdp": "3206390","pharmacy_name": "SAVON DRUGS #930","address1": "2402 N GRIMES","address2": "","city": "HOBBS","state": "NM","zip": "88240","zip+4": "0000","phone": "5753924503","NPI": "     1033158415"}, 
{"id": 32889,"ncpdp": "3206415","pharmacy_name": "SMITHS PHARMACY #413 #706413","address1": "1000 RIO RANCHO DR","address2": "","city": "RIO RANCHO","state": "NM","zip": "87124","zip+4": "0000","phone": "5058921866","NPI": "     1902821523"}, 
{"id": 32890,"ncpdp": "3206439","pharmacy_name": "WALGREEN DRUG STORE #7107","address1": "2300 E LOHMAN AVE","address2": "","city": "LAS CRUCES","state": "NM","zip": "88001","zip+4": "0000","phone": "5056478176","NPI": "     1811904717"}, 
{"id": 32891,"ncpdp": "3206528","pharmacy_name": "SMITHS PHARMACY #414 #706414","address1": "2580 HWY 47 & 49","address2": "","city": "LOS LUNAS","state": "NM","zip": "87031","zip+4": "0000","phone": "5058653310","NPI": "     1811912439"}, 
{"id": 32892,"ncpdp": "3206566","pharmacy_name": "BEST BUY DRUGS","address1": "1445 WYOMING BLVD NE","address2": "","city": "ALBUQUERQUE","state": "NM","zip": "87112","zip+4": "3849","phone": "5052994496","NPI": "     1245239185"}, 
{"id": 32893,"ncpdp": "3206681","pharmacy_name": "WALGREEN DRUG STORE #3366","address1": "3400 COORS BLVD NW","address2": "","city": "ALBUQUERQUE","state": "NM","zip": "87120","zip+4": "0000","phone": "5058363035","NPI": "     1184639080"}, 
{"id": 32894,"ncpdp": "3206720","pharmacy_name": "SMITHS PHARMACY #423 #706423","address1": "6125 4TH ST NW","address2": "","city": "ALBUQUERQUE","state": "NM","zip": "87107","zip+4": "0000","phone": "5053443509","NPI": "     1720003346"}, 
{"id": 32895,"ncpdp": "3206770","pharmacy_name": "WALGREEN DRUG STORE #1279","address1": "2950 CENTRALSE","address2": "","city": "ALBUQUERQUE","state": "NM","zip": "87106","zip+4": "0000","phone": "5052621743","NPI": "     1992710891"}, 
{"id": 32896,"ncpdp": "3206794","pharmacy_name": "WALGREEN DRUG STORE #5350","address1": "1835 N MAIN ST","address2": "","city": "ROSWELL","state": "NM","zip": "88201","zip+4": "5168","phone": "5056220433","NPI": "     1801801709"}, 
{"id": 32897,"ncpdp": "3206821","pharmacy_name": "SMITHS PHARMACY #571 #706571","address1": "1601 ARENAL SW","address2": "","city": "ALBUQUERQUE","state": "NM","zip": "87105","zip+4": "0000","phone": "5058774542","NPI": "     1639194251"}, 
{"id": 32898,"ncpdp": "3206833","pharmacy_name": "SMITHS PHARMACY #429 #706429","address1": "2620 CARLISLE NE","address2": "","city": "ALBUQUERQUE","state": "NM","zip": "87110","zip+4": "0000","phone": "5058840455","NPI": "     1548285166"}, 
{"id": 32899,"ncpdp": "3206871","pharmacy_name": "SAVON DRUGS #937","address1": "10131 COORS RD NW","address2": "","city": "ALBUQUERQUE","state": "NM","zip": "87114","zip+4": "0000","phone": "5058973961","NPI": "     1942249321"}, 
{"id": 32900,"ncpdp": "3206883","pharmacy_name": "PHILS PHARMACY","address1": "5510 LOMAS NE","address2": "","city": "ALBUQUERQUE","state": "NM","zip": "87110","zip+4": "0000","phone": "5052656868","NPI": "     1720143159"}, 
{"id": 32901,"ncpdp": "3207025","pharmacy_name": "WALGREEN DRUG STORE #9773","address1": "10300 CENTRAL AVE SE","address2": "","city": "ALBUQUERQUE","state": "NM","zip": "87123","zip+4": "0000","phone": "5052920915","NPI": "     1710992615"}, 
{"id": 32902,"ncpdp": "3207037","pharmacy_name": "WAL-MART PHARMACY #100824","address1": "8000 ACADEMY ROAD NE","address2": "","city": "ALBUQUERQUE","state": "NM","zip": "87111","zip+4": "0000","phone": "5058216008","NPI": "     1528085669"}, 
{"id": 32903,"ncpdp": "3207049","pharmacy_name": "WAL-MART PHARMACY #100831","address1": "301 SAN MATEO BLVD SE","address2": "","city": "ALBUQUERQUE","state": "NM","zip": "87108","zip+4": "0000","phone": "5052621915","NPI": "     1437176575"}, 
{"id": 32904,"ncpdp": "3207051","pharmacy_name": "WAL-MART PHARMACY #100835","address1": "400 EUBANK BLVD NE","address2": "","city": "ALBUQUERQUE","state": "NM","zip": "87123","zip+4": "0000","phone": "5052928035","NPI": "     1346267481"}, 
{"id": 32905,"ncpdp": "3207075","pharmacy_name": "WAL-MART PHARMACY #100829","address1": "3251 CERILLOS RD","address2": "","city": "SANTA FE","state": "NM","zip": "87505","zip+4": "0000","phone": "5054734261","NPI": "     1326066028"}, 
{"id": 32906,"ncpdp": "3207087","pharmacy_name": "WAL-MART PHARMACY #100850","address1": "2701 CARLISLE BLVD NE","address2": "","city": "ALBUQUERQUE","state": "NM","zip": "87110","zip+4": "0000","phone": "5058818496","NPI": "     1255358396"}, 
{"id": 32907,"ncpdp": "3207099","pharmacy_name": "WAL-MART PHARMACY #100826","address1": "4600 EAST MAIN","address2": "","city": "FARMINGTON","state": "NM","zip": "87402","zip+4": "0000","phone": "5053261197","NPI": "     1164449203"}, 
{"id": 32908,"ncpdp": "3207102","pharmacy_name": "SMITHS PHARMACY #432 #706432","address1": "31 SHERWOOD BLVD","address2": "","city": "WHITE ROCK","state": "NM","zip": "87544","zip+4": "0000","phone": "5056729457","NPI": "     1457376071"}, 
{"id": 32909,"ncpdp": "3207188","pharmacy_name": "WAL-MART PHARMACY #100806","address1": "571 S WALTON BLVD","address2": "","city": "LAS CRUCES","state": "NM","zip": "88001","zip+4": "0000","phone": "5755243501","NPI": "     1073530119"}, 
{"id": 32910,"ncpdp": "3207215","pharmacy_name": "NORTE VISTA PHARMACY","address1": "2420 N FOWLER ST","address2": "","city": "HOBBS","state": "NM","zip": "88240","zip+4": "2399","phone": "5053926516","NPI": "     1659425593"}, 
{"id": 32911,"ncpdp": "3207241","pharmacy_name": "WAL-MART PHARMACY #100821","address1": "3728 N PRINCE STREET","address2": "","city": "CLOVIS","state": "NM","zip": "88101","zip+4": "0000","phone": "5757692389","NPI": "     1982621025"}, 
{"id": 32912,"ncpdp": "3207265","pharmacy_name": "TAOS PHARMACY","address1": "622A PASEO DEL PUEBLO SUR","address2": "5401 NDCBU","city": "TAOS","state": "NM","zip": "87571","zip+4": "9998","phone": "5757583342","NPI": "     1336175074"}, 
{"id": 32913,"ncpdp": "3207289","pharmacy_name": "SMITHS PHARMACY #426 #706426","address1": "224 PASEO PUEBLO SUR","address2": "","city": "TAOS","state": "NM","zip": "87571","zip+4": "0000","phone": "5757584823","NPI": "     1366467987"}, 
{"id": 32914,"ncpdp": "3207354","pharmacy_name": "WALGREEN DRUG STORE #5157","address1": "1115 N RIVERSIDE DR","address2": "","city": "ESPANOLA","state": "NM","zip": "87532","zip+4": "2802","phone": "5057536993","NPI": "     1629083522"}, 
{"id": 32915,"ncpdp": "3207366","pharmacy_name": "WALGREEN DRUG STORE #7735","address1": "6605 4TH ST NW","address2": "","city": "LOS RANCHOS DE ALB","state": "NM","zip": "87107","zip+4": "0000","phone": "5053458491","NPI": "     1720095623"}, 
{"id": 32916,"ncpdp": "3207378","pharmacy_name": "WALGREEN DRUG STORE #4649","address1": "3501 LOMAS BLVD NE","address2": "","city": "ALBUQUERQUE","state": "NM","zip": "87106","zip+4": "0000","phone": "5052559004","NPI": "     1538174438"}, 
{"id": 32917,"ncpdp": "3207417","pharmacy_name": "WAL-MART PHARMACY #100868","address1": "2401 S CANAL ST","address2": "","city": "CARLSBAD","state": "NM","zip": "88220","zip+4": "0000","phone": "5758851029","NPI": "     1891712949"}, 
{"id": 32918,"ncpdp": "3207455","pharmacy_name": "WAL-MART PHARMACY #100873","address1": "926 PASEO DEL PUEBLO SUR","address2": "","city": "TAOS","state": "NM","zip": "87571","zip+4": "0000","phone": "5757582743","NPI": "     1528085677"}, 
{"id": 32919,"ncpdp": "3207467","pharmacy_name": "MOUNTAINAIR MEDS AND MORE LLC","address1": "111 W BROADWAY","address2": "PO BOX 969","city": "MOUNTAINAIR","state": "NM","zip": "87036","zip+4": "0000","phone": "5058470242","NPI": "     1578503488"}, 
{"id": 32920,"ncpdp": "3207479","pharmacy_name": "WAL-MART PHARMACY #100851","address1": "1800 W HWY 70","address2": "","city": "RUIDOSO DOWNS","state": "NM","zip": "88346","zip+4": "0000","phone": "5753785400","NPI": "     1437176583"}, 
{"id": 32921,"ncpdp": "3207493","pharmacy_name": "WAL-MART PHARMACY #100906","address1": "1650 WEST MALONEY AVE","address2": "","city": "GALLUP","state": "NM","zip": "87301","zip+4": "0000","phone": "5057223823","NPI": "     1346267499"}, 
{"id": 32922,"ncpdp": "3207556","pharmacy_name": "FAIRVIEW PHARMACY","address1": "734 N RIVERSIDE DR","address2": "STE A","city": "ESPANOLA","state": "NM","zip": "87532","zip+4": "0000","phone": "5057532209","NPI": "     1407907496"}, 
{"id": 32923,"ncpdp": "3207582","pharmacy_name": "WALGREEN DRUG STORE #4187","address1": "1941 SOUTHERN","address2": "","city": "RIO RANCHO","state": "NM","zip": "87124","zip+4": "0000","phone": "5058918996","NPI": "     1447265343"}, 
{"id": 32924,"ncpdp": "3207607","pharmacy_name": "SMITHS PHARMACY #446 #706446","address1": "6001 LOMAS NE","address2": "","city": "ALBUQUERQUE","state": "NM","zip": "87110","zip+4": "0000","phone": "5052667433","NPI": "     1881611408"}, 
{"id": 32925,"ncpdp": "3207645","pharmacy_name": "WALGREEN DRUG STORE #5923","address1": "13000 INDIAN SCHOOL RD","address2": "","city": "ALBUQUERQUE","state": "NM","zip": "87112","zip+4": "0000","phone": "5052980177","NPI": "     1437166337"}, 
{"id": 32926,"ncpdp": "3207669","pharmacy_name": "WAL-MART PHARMACY #100611","address1": "4500 A NORTH MAIN","address2": "","city": "ROSWELL","state": "NM","zip": "88201","zip+4": "0000","phone": "5756223812","NPI": "     1235157934"}, 
{"id": 32927,"ncpdp": "3207758","pharmacy_name": "PROFESSIONAL PHARMACY","address1": "275 CENTRAL AVE A","address2": "","city": "TULAROSA","state": "NM","zip": "88352","zip+4": "0000","phone": "5055852772","NPI": "     1902942519"}, 
{"id": 32928,"ncpdp": "3207760","pharmacy_name": "KMART PHARMACY #3682","address1": "1900 BATAAN MEMORIAL E","address2": "","city": "LAS CRUCES","state": "NM","zip": "88011","zip+4": "6011","phone": "5055228603","NPI": "     1174554216"}, 
{"id": 32929,"ncpdp": "3207796","pharmacy_name": "WAL-MART PHARMACY #101306","address1": "233 S NEW YORK AVE","address2": "","city": "ALAMOGORDO","state": "NM","zip": "88310","zip+4": "0000","phone": "5754345345","NPI": "     1164449211"}, 
{"id": 32930,"ncpdp": "3207811","pharmacy_name": "WAL-MART PHARMACY #100549","address1": "3800 LOVINGTON HWY","address2": "","city": "HOBBS","state": "NM","zip": "88240","zip+4": "0000","phone": "5754920310","NPI": "     1073530127"}, 
{"id": 32931,"ncpdp": "3207835","pharmacy_name": "SMITHS PHARMACY #439 #706439","address1": "4700 TRAMWAY NE","address2": "","city": "ALBUQUERQUE","state": "NM","zip": "87111","zip+4": "0000","phone": "5052925888","NPI": "     1275558892"}, 
{"id": 32932,"ncpdp": "3207861","pharmacy_name": "SAMS REGENT PHARMACY","address1": "7120 WYOMING NE","address2": "STE 7B","city": "ALBUQUERQUE","state": "NM","zip": "87109","zip+4": "4869","phone": "5053460533","NPI": "     1669579595"}, 
{"id": 32933,"ncpdp": "3207912","pharmacy_name": "KMART PHARMACY #9119","address1": "3201 N WHITE SAND BLVD","address2": "","city": "ALAMOGORDO","state": "NM","zip": "88310","zip+4": "0000","phone": "5054341324","NPI": "     1083645121"}, 
{"id": 32934,"ncpdp": "3207936","pharmacy_name": "WAL-MART PHARMACY #101357","address1": "2501 HWY 180 EAST","address2": "","city": "SILVER CITY","state": "NM","zip": "88061","zip+4": "0000","phone": "5753883113","NPI": "     1982621033"}, 
{"id": 32935,"ncpdp": "3207950","pharmacy_name": "WALGREEN DRUG STORE #2111","address1": "1625 RIO BRAVO SW STE 36","address2": "","city": "ALBUQUERQUE","state": "NM","zip": "87105","zip+4": "0000","phone": "5058773266","NPI": "     1356356257"}, 
{"id": 32936,"ncpdp": "3207962","pharmacy_name": "WAL-MART PHARMACY #101380","address1": "2609 7TH STREET","address2": "","city": "LAS VEGAS","state": "NM","zip": "87701","zip+4": "0000","phone": "5054255269","NPI": "     1790702843"}, 
{"id": 32937,"ncpdp": "3207974","pharmacy_name": "MEDICAP PHARMACY #8086","address1": "2801 RODEO ROAD STE A1","address2": "","city": "SANTA FE","state": "NM","zip": "87507","zip+4": "0000","phone": "5054716177","NPI": "     1881709822"}, 
{"id": 32938,"ncpdp": "3207986","pharmacy_name": "WAL-MART PHARMACY #101414","address1": "01 I 25 INTERCHANGE","address2": "","city": "BELEN","state": "NM","zip": "87002","zip+4": "0000","phone": "5058640270","NPI": "     1144248840"}, 
{"id": 32939,"ncpdp": "3207998","pharmacy_name": "WAL-MART PHARMACY #101397","address1": "10224 COORS BYPASSNW","address2": "","city": "ALBUQUERQUE","state": "NM","zip": "87114","zip+4": "0000","phone": "5058976935","NPI": "     1578581278"}, 
{"id": 32940,"ncpdp": "3208003","pharmacy_name": "SAVON DRUGS #938","address1": "7101 WYOMING BLVD NE","address2": "","city": "ALBUQUERQUE","state": "NM","zip": "87109","zip+4": "0000","phone": "5058211275","NPI": "     1164462537"}, 
{"id": 32941,"ncpdp": "3208015","pharmacy_name": "WALGREEN DRUG STORE #2250","address1": "1256 EL PASEO ROAD","address2": "","city": "LAS CRUCES","state": "NM","zip": "88001","zip+4": "0000","phone": "5755258713","NPI": "     1265447163"}, 
{"id": 32942,"ncpdp": "3208027","pharmacy_name": "KMART PHARMACY #3551","address1": "1640 RIO RANCHO DR","address2": "","city": "RIO RANCHO","state": "NM","zip": "87124","zip+4": "0000","phone": "5058926460","NPI": "     1891726931"}, 
{"id": 32943,"ncpdp": "3208041","pharmacy_name": "WALGREEN DRUG STORE #7930","address1": "1401 W PIERCE","address2": "","city": "CARLSBAD","state": "NM","zip": "88220","zip+4": "0000","phone": "5058870380","NPI": "     1174538078"}, 
{"id": 32944,"ncpdp": "3208053","pharmacy_name": "WALGREEN DRUG STORE #2349","address1": "1401 NORTH TURNER","address2": "","city": "HOBBS","state": "NM","zip": "88240","zip+4": "0000","phone": "5053932614","NPI": "     1083629984"}, 
{"id": 32945,"ncpdp": "3208089","pharmacy_name": "WALGREEN DRUG STORE #4911","address1": "6000 COORS BLVD NW","address2": "","city": "ALBUQUERQUE","state": "NM","zip": "87120","zip+4": "2702","phone": "5058991887","NPI": "     1346257243"}, 
{"id": 32946,"ncpdp": "3208091","pharmacy_name": "WALGREEN DRUG STORE #2425","address1": "620 MILLS AVENUE","address2": "","city": "LAS VEGAS","state": "NM","zip": "87701","zip+4": "0000","phone": "5054253303","NPI": "     1891700795"}, 
{"id": 32947,"ncpdp": "3208116","pharmacy_name": "WALGREEN DRUG STORE #1941","address1": "MAIN AND MCGAFFEY","address2": "","city": "ROSWELL","state": "NM","zip": "88203","zip+4": "0000","phone": "5056240702","NPI": "     1215948443"}, 
{"id": 32948,"ncpdp": "3208344","pharmacy_name": "FAMILY PHARMACY","address1": "1205 S SOLANO DR","address2": "","city": "LAS CRUCES","state": "NM","zip": "88001","zip+4": "0000","phone": "5055261599","NPI": "     1013946755"}, 
{"id": 32949,"ncpdp": "3208368","pharmacy_name": "WALGREEN DRUG STORE #6610","address1": "2500 MAIN ST","address2": "","city": "LOS LUNAS","state": "NM","zip": "87031","zip+4": "0000","phone": "5058657723","NPI": "     1700891603"}, 
{"id": 32950,"ncpdp": "3208394","pharmacy_name": "WALGREEN DRUG STORE #02400","address1": "955 N WHITE SANDS BLVD","address2": "","city": "ALAMOGORDO","state": "NM","zip": "88310","zip+4": "6925","phone": "5054344116","NPI": "     1093808511"}, 
{"id": 32951,"ncpdp": "3208419","pharmacy_name": "LAS CRUCES REXALL DRUG","address1": "2140 N MAIN ST","address2": "","city": "LAS CRUCES","state": "NM","zip": "88001","zip+4": "1194","phone": "5055242863","NPI": "     1467510891"}, 
{"id": 32952,"ncpdp": "3208445","pharmacy_name": "VILLAGE PHARMACY INC","address1": "1719 S AVE D","address2": "","city": "PORTALES","state": "NM","zip": "88130","zip+4": "0000","phone": "5053568555","NPI": "     1376676783"}, 
{"id": 32953,"ncpdp": "3208457","pharmacy_name": "WALGREEN DRUG STORE #9067","address1": "701 E 20TH ST","address2": "","city": "FARMINGTON","state": "NM","zip": "87401","zip+4": "0000","phone": "5053263340","NPI": "     1619982519"}, 
{"id": 32954,"ncpdp": "3208483","pharmacy_name": "WALGREEN DRUG STORE #5158","address1": "4051 SOUTHERN BLVD SE","address2": "","city": "RIO RANCHO","state": "NM","zip": "87124","zip+4": "2069","phone": "5058926650","NPI": "     1528073426"}, 
{"id": 32955,"ncpdp": "3208495","pharmacy_name": "WALGREEN DRUG STORE #9007","address1": "1870 E HWY 66","address2": "","city": "GALLUP","state": "NM","zip": "87301","zip+4": "0000","phone": "5057229772","NPI": "     1437164332"}, 
{"id": 32956,"ncpdp": "3208508","pharmacy_name": "SMITHS PHARMACY #427 #706427","address1": "200 TRAMWAY SE","address2": "","city": "ALBUQUERQUE","state": "NM","zip": "87123","zip+4": "0000","phone": "5052969751","NPI": "     1710902341"}, 
{"id": 32957,"ncpdp": "3208546","pharmacy_name": "KMART PHARMACY #9267","address1": "2307 WEST MAIN","address2": "","city": "ARTESIA","state": "NM","zip": "88210","zip+4": "0000","phone": "5057462791","NPI": "     1700817848"}, 
{"id": 32958,"ncpdp": "3208697","pharmacy_name": "LOWES MARKETPLACE PHARMACY #55","address1": "675 E 10TH ST","address2": "","city": "ALAMOGORDO","state": "NM","zip": "88310","zip+4": "0000","phone": "5754344130","NPI": "     1689734824"}, 
{"id": 32959,"ncpdp": "3208700","pharmacy_name": "ALBUQUERQUE PHARMACY","address1": "500 LOUISIANA BLVD NE","address2": "","city": "ALBUQUERQUE","state": "NM","zip": "87108","zip+4": "2067","phone": "5052625728","NPI": "     1982753232"}, 
{"id": 32960,"ncpdp": "3208724","pharmacy_name": "THE MEDICINE SHOPPE #1250","address1": "1123 POPE ST","address2": "","city": "SILVER CITY","state": "NM","zip": "88061","zip+4": "0000","phone": "5053881000","NPI": "     1235233297"}, 
{"id": 32961,"ncpdp": "3208736","pharmacy_name": "SMITHS PHARMACY #450 #706450","address1": "8040 ACADEMY RD NE","address2": "","city": "ALBUQUERQUE","state": "NM","zip": "87111","zip+4": "0000","phone": "5058234480","NPI": "     1699792218"}, 
{"id": 32962,"ncpdp": "3208837","pharmacy_name": "WALGREEN DRUG STORE #3367","address1": "8011 HARPER AVE NE","address2": "","city": "ALBUQUERQUE","state": "NM","zip": "87109","zip+4": "0000","phone": "5058583017","NPI": "     1346255247"}, 
{"id": 32963,"ncpdp": "3208887","pharmacy_name": "LONGS PHARMACY AND GIFTS","address1": "721 MECHEM","address2": "","city": "RUIDOSO","state": "NM","zip": "88345","zip+4": "6911","phone": "5052573882","NPI": "     1104938117"}, 
{"id": 32964,"ncpdp": "3208914","pharmacy_name": "KIVA PHARMACY INC","address1": "159 PASEO DE PERALTA","address2": "","city": "SANTA FE","state": "NM","zip": "87501","zip+4": "0000","phone": "5059829550","NPI": "     1750403762"}, 
{"id": 32965,"ncpdp": "3208940","pharmacy_name": "SAVON PHARMACY #914","address1": "1956 HWY 180 E","address2": "","city": "SILVER CITY","state": "NM","zip": "88062","zip+4": "0000","phone": "5753880133","NPI": "     1851330237"}, 
{"id": 32966,"ncpdp": "3208976","pharmacy_name": "CORAM SPECIALTY INFUSION SERVI","address1": "7400 WASHINGTON ST NE","address2": "","city": "ALBUQUERQUE","state": "NM","zip": "87109","zip+4": "0000","phone": "5057983500","NPI": "     1528070992"}, 
{"id": 32967,"ncpdp": "3208990","pharmacy_name": "SMITHS PHARMACY #448 #706448","address1": "8301 GOLF COURSE RD","address2": "","city": "ALBUQUERQUE","state": "NM","zip": "87120","zip+4": "0000","phone": "5058971321","NPI": "     1538184163"}, 
{"id": 32968,"ncpdp": "3209005","pharmacy_name": "MEDICAP #8153","address1": "THE AGORA","address2": "7 AVENIDA VISTA GRANDE, B8","city": "SANTA FE","state": "NM","zip": "87505","zip+4": "0000","phone": "5054668008","NPI": "     1912009259"}, 
{"id": 32969,"ncpdp": "3209029","pharmacy_name": "KMART PHARMACY #7755","address1": "1205 E PINE","address2": "","city": "DEMING","state": "NM","zip": "88030","zip+4": "0000","phone": "5055449008","NPI": "     1619908753"}, 
{"id": 32970,"ncpdp": "3209031","pharmacy_name": "MEDICINE SHOPPE #1387","address1": "1275 A S SECOND ST","address2": "","city": "RATON","state": "NM","zip": "87740","zip+4": "0000","phone": "5754450075","NPI": "     1487726006"}, 
{"id": 32971,"ncpdp": "3209106","pharmacy_name": "SAVON PHARMACY #922","address1": "6600 CENTRAL AVE SW","address2": "","city": "ALBUQUERQUE","state": "NM","zip": "87121","zip+4": "0000","phone": "5058314641","NPI": "     1760421143"}, 
{"id": 32972,"ncpdp": "3209118","pharmacy_name": "SAVON DRUGS #903","address1": "4300 RIDGECREST DR","address2": "","city": "RIO RANCHO","state": "NM","zip": "87124","zip+4": "0000","phone": "5058922262","NPI": "     1316984834"}, 
{"id": 32973,"ncpdp": "3209144","pharmacy_name": "LA CLINICA DE FAMILIA INC","address1": "18424 S HWY 28","address2": "","city": "SAN MIGUEL","state": "NM","zip": "88058","zip+4": "0000","phone": "5752334270","NPI": "     1467663278"}, 
{"id": 32974,"ncpdp": "3209156","pharmacy_name": "COSTCO PHARMACY #116","address1": "1420 RENAISSANCE BLVD","address2": "","city": "ALBUQUERQUE","state": "NM","zip": "87107","zip+4": "0000","phone": "5053427148","NPI": "     1255441879"}, 
{"id": 32975,"ncpdp": "3209168","pharmacy_name": "APRIA HEALTHCARE #072","address1": "4401 MCLEOD ROAD NE","address2": "SUITE C","city": "ALBUQUERQUE","state": "NM","zip": "87109","zip+4": "0000","phone": "8007728289","NPI": "     1437247269"}, 
{"id": 32976,"ncpdp": "3209170","pharmacy_name": "PHARMCARE HLTH SVCS","address1": "3807 ACADEMY PARKWAY SOUTH NE","address2": "","city": "ALBUQUERQUE","state": "NM","zip": "87109","zip+4": "0000","phone": "5053459299","NPI": "     1477554855"}, 
{"id": 32977,"ncpdp": "3209194","pharmacy_name": "SAVON PHARMACY #907","address1": "808 N CANAL","address2": "","city": "CARLSBAD","state": "NM","zip": "88220","zip+4": "0000","phone": "5758852165","NPI": "     1225075740"}, 
{"id": 32978,"ncpdp": "3209207","pharmacy_name": "SAVON PHARMACY #925","address1": "2551 E LOHMAN AVE","address2": "","city": "LAS CRUCES","state": "NM","zip": "88011","zip+4": "8233","phone": "5755219841","NPI": "     1437197514"}, 
{"id": 32979,"ncpdp": "3209221","pharmacy_name": "WALGREEN DRUG STORE #3934","address1": "3298 CERRILLOS ROAD","address2": "","city": "SANTA FE","state": "NM","zip": "87505","zip+4": "0000","phone": "5054743523","NPI": "     1255346151"}, 
{"id": 32980,"ncpdp": "3209322","pharmacy_name": "SAVON DRUGS #939","address1": "12201 ACADEMY RD N E","address2": "","city": "ALBUQUERQUE","state": "NM","zip": "87111","zip+4": "0000","phone": "5052759733","NPI": "     1134166655"}, 
{"id": 32981,"ncpdp": "3209346","pharmacy_name": "FAMILY INSTITUTIONAL PHARMACY","address1": "1801 W 21 ST SUITE B","address2": "","city": "CLOVIS","state": "NM","zip": "88101","zip+4": "0000","phone": "5057629621","NPI": "     1043341951"}, 
{"id": 32982,"ncpdp": "3209358","pharmacy_name": "WALGREEN DRUG STORE #4510","address1": "4221 E MAIN","address2": "","city": "FARMINGTON","state": "NM","zip": "87402","zip+4": "0000","phone": "5055642652","NPI": "     1710993118"}, 
{"id": 32983,"ncpdp": "3209360","pharmacy_name": "WALGREEN DRUG STORE #4421","address1": "3100 N MAIN","address2": "","city": "LAS CRUCES","state": "NM","zip": "88001","zip+4": "0000","phone": "5055259602","NPI": "     1578578621"}, 
{"id": 32984,"ncpdp": "3209447","pharmacy_name": "NCS HEALTHCARE OF ALBUQUERQUE","address1": "9019 WASHINGTON ST NE SUITE B1","address2": "","city": "ALBUQUERQUE","state": "NM","zip": "87113","zip+4": "0000","phone": "5053449759","NPI": "     1386679710"}, 
{"id": 32985,"ncpdp": "3209459","pharmacy_name": "SAVON PHARMACY #909","address1": "1285 EL PASEO RD","address2": "","city": "LAS CRUCES","state": "NM","zip": "88001","zip+4": "0000","phone": "5755411264","NPI": "     1346288420"}, 
{"id": 32986,"ncpdp": "3209461","pharmacy_name": "WAL-MART PHARMACY #102653","address1": "1604 EAST SPRUCE STREET","address2": "","city": "PORTALES","state": "NM","zip": "88130","zip+4": "0000","phone": "5753593435","NPI": "     1609893759"}, 
{"id": 32987,"ncpdp": "3209473","pharmacy_name": "WALGREEN DRUG STORE #4650","address1": "138 SUDDERTH","address2": "","city": "RUIDOSO","state": "NM","zip": "88345","zip+4": "0000","phone": "5052570054","NPI": "     1487669537"}, 
{"id": 32988,"ncpdp": "3209485","pharmacy_name": "SAVON PHARMACY #987","address1": "3001 S ST FRANCIS DR","address2": "","city": "SANTA FE","state": "NM","zip": "87501","zip+4": "0000","phone": "5059928638","NPI": "     1770520298"}, 
{"id": 32989,"ncpdp": "3209497","pharmacy_name": "ROUTE 66 PHARMACY #2","address1": "1128 HISTORIC RT 66 HWY","address2": "","city": "SANTA ROSA","state": "NM","zip": "88435","zip+4": "0000","phone": "5754725666","NPI": "     1982749453"}, 
{"id": 32990,"ncpdp": "3209500","pharmacy_name": "SAVON PHARMACY #986","address1": "3542 ZAFARANO DR","address2": "","city": "SANTA FE","state": "NM","zip": "87505","zip+4": "0000","phone": "5054712914","NPI": "     1689611105"}, 
{"id": 32991,"ncpdp": "3209536","pharmacy_name": "JEMEZ VALLEY MEDICAL CLINIC","address1": "8372 HWY 4","address2": "","city": "CANON","state": "NM","zip": "87025","zip+4": "0000","phone": "5052893291","NPI": "     1265511711"}, 
{"id": 32992,"ncpdp": "3209548","pharmacy_name": "OJO ENCINO NAVAJO CLINIC","address1": "2 OJO ENCINO CHAPTER RD","address2": "","city": "OJO ENCINO","state": "NM","zip": "87013","zip+4": "0000","phone": "5057312268","NPI": "     1023186707"}, 
{"id": 32993,"ncpdp": "3209550","pharmacy_name": "COUNSELOR NAVAJO CLINIC","address1": "9837 US HIGHWAY 550","address2": "","city": "COUNSELOR","state": "NM","zip": "87018","zip+4": "0000","phone": "5055684328","NPI": "     1396824223"}, 
{"id": 32994,"ncpdp": "3209562","pharmacy_name": "TORREON NAVAJO CLINIC","address1": "2500 STATE HWY 197","address2": "","city": "TORREON","state": "NM","zip": "87013","zip+4": "0000","phone": "5057312284","NPI": "     1609944800"}, 
{"id": 32995,"ncpdp": "3209574","pharmacy_name": "CUBA HEALTH CENTER","address1": "6349 US HWY 550","address2": "","city": "CUBA","state": "NM","zip": "87013","zip+4": "0000","phone": "5052893291","NPI": "     1669485975"}, 
{"id": 32996,"ncpdp": "3209586","pharmacy_name": "QUESTA HEALTH CENTER","address1": "2573 STATE HWY 522","address2": "","city": "QUESTA","state": "NM","zip": "87556","zip+4": "0000","phone": "5055860315","NPI": "     1588731582"}, 
{"id": 32997,"ncpdp": "3209601","pharmacy_name": "LAS CLINICAS DEL NORTE","address1": "35282 HIGHWAY 285","address2": "","city": "OJO CALIENTE","state": "NM","zip": "87549","zip+4": "0000","phone": "5055832191","NPI": "     1437379880"}, 
{"id": 32998,"ncpdp": "3209625","pharmacy_name": "PMS CATRON COUNTY CLINIC","address1": "ONE FOSTER LN","address2": "","city": "RESERVE","state": "NM","zip": "87830","zip+4": "0000","phone": "5055336456","NPI": "     1447339361"}, 
{"id": 32999,"ncpdp": "3209637","pharmacy_name": "FARMINGTON COMMUNITY HEALTH CE","address1": "1001 W BROADWAY","address2": "STE D","city": "FARMINGTON","state": "NM","zip": "87401","zip+4": "0000","phone": "5053274796","NPI": "     1952474744"}, 
{"id": 33000,"ncpdp": "3209649","pharmacy_name": "CARLSBAD FAMILY HEALTH CENTER","address1": "2013 SAN JOSE BLVD","address2": "","city": "CARLSBAD","state": "NM","zip": "88220","zip+4": "0000","phone": "5058872455","NPI": "     1295849933"}, 
{"id": 33001,"ncpdp": "3209651","pharmacy_name": "LOVING HEALTH CLINIC","address1": "602 S 4TH ST","address2": "","city": "LOVING","state": "NM","zip": "88256","zip+4": "0000","phone": "5057453573","NPI": "     1891874343"}, 
{"id": 33002,"ncpdp": "3209663","pharmacy_name": "ARTESIA HEALTH RESOURCES","address1": "1105 MEMORIAL DR","address2": "","city": "ARTESIA","state": "NM","zip": "88210","zip+4": "0000","phone": "5057469848","NPI": "     1841302395"}, 
{"id": 33003,"ncpdp": "3209675","pharmacy_name": "WESTERN NM MED GROUP GALLOP","address1": "610 N 5TH ST","address2": "","city": "GALLUP","state": "NM","zip": "87301","zip+4": "0000","phone": "5058633120","NPI": "     1972670305"}, 
{"id": 33004,"ncpdp": "3209687","pharmacy_name": "WESTERN NM MEDICAL GROUP GRANT","address1": "1217 BONITA ST","address2": "","city": "GRANTS","state": "NM","zip": "87020","zip+4": "0000","phone": "5052872958","NPI": "     1205902376"}, 
{"id": 33005,"ncpdp": "3209699","pharmacy_name": "WESTERN NM MEDICAL GROUP THORE","address1": "15 NAVARRE","address2": "","city": "THOREAU","state": "NM","zip": "87323","zip+4": "0000","phone": "5058627417","NPI": "     1831266311"}, 
{"id": 33006,"ncpdp": "3209776","pharmacy_name": "SACRAMENTO MOUNTAIN MEDICAL CE","address1": "74 JAMES CANYON HWY","address2": "","city": "CLOUDCROFT","state": "NM","zip": "88317","zip+4": "0000","phone": "5056822542","NPI": "     1326115338"}, 
{"id": 33007,"ncpdp": "3209790","pharmacy_name": "ESPERANZA FAMILY HEALTH CENTER","address1": "903 C N 5TH ST","address2": "","city": "ESTANCIA","state": "NM","zip": "87016","zip+4": "0000","phone": "5053842777","NPI": "     1912016734"}, 
{"id": 33008,"ncpdp": "3209803","pharmacy_name": "ORTIZ MOUNTAIN HEALTH CENTER","address1": "08A MAIN ST","address2": "","city": "CERRILLOS","state": "NM","zip": "87010","zip+4": "0000","phone": "5054706266","NPI": "     1811064827"}, 
{"id": 33009,"ncpdp": "3209839","pharmacy_name": "MOUNTAINAIR FAMILY HEALTH CENT","address1": "105 E PINON","address2": "","city": "MOUNTAINAIR","state": "NM","zip": "87036","zip+4": "0000","phone": "5058472271","NPI": "     1225117773"}, 
{"id": 33010,"ncpdp": "3209853","pharmacy_name": "RIO RANCHO FAMILY HLTH CTR","address1": "184 UNSER BLVD","address2": "","city": "RIO RANCHO","state": "NM","zip": "87124","zip+4": "0000","phone": "5058960929","NPI": "     1871505032"}, 
{"id": 33011,"ncpdp": "3209865","pharmacy_name": "TULAROSA MEDICAL CENTER","address1": "111 CENTRAL AVE","address2": "","city": "TULAROSA","state": "NM","zip": "88352","zip+4": "0000","phone": "5055851250","NPI": "     1427124601"}, 
{"id": 33012,"ncpdp": "3209891","pharmacy_name": "WAL-MART PHARMACY #102656","address1": "1610 N RIVERSIDE DRIVE","address2": "","city": "ESPANOLA","state": "NM","zip": "87532","zip+4": "0000","phone": "5057470427","NPI": "     1053339754"}, 
{"id": 33013,"ncpdp": "3209942","pharmacy_name": "WAL-MART PHARMACY #102652","address1": "1000 ROBERTS DRIVE","address2": "","city": "GRANTS","state": "NM","zip": "87020","zip+4": "0000","phone": "5052853378","NPI": "     1518984665"}, 
{"id": 33014,"ncpdp": "3209980","pharmacy_name": "TARGET PHARMACY #0625","address1": "9371 COORS ROAD NW","address2": "","city": "ALBUQUERQUE","state": "NM","zip": "87114","zip+4": "0000","phone": "5058997731","NPI": "     1699797217"}, 
{"id": 33015,"ncpdp": "3210008","pharmacy_name": "SAVON PHARMACY #990","address1": "1110 S MAIN ST","address2": "","city": "ROSWELL","state": "NM","zip": "88203","zip+4": "0000","phone": "5756227039","NPI": "     1679512057"}, 
{"id": 33016,"ncpdp": "3210022","pharmacy_name": "SMITHS PHARMACY #461 #706461","address1": "2308 CERRILLOS ROAD","address2": "","city": "SANTA FE","state": "NM","zip": "87501","zip+4": "0000","phone": "5054717874","NPI": "     1447275078"}, 
{"id": 33017,"ncpdp": "3210034","pharmacy_name": "READY PHARMACY","address1": "111 W LISA DR","address2": "","city": "CHAPARRAL","state": "NM","zip": "88081","zip+4": "0000","phone": "5758248211","NPI": "     1053361048"}, 
{"id": 33018,"ncpdp": "3210111","pharmacy_name": "SMITHS PHARMACY #424 #706424","address1": "02B HWY 344","address2": "","city": "EDGEWOOD","state": "NM","zip": "87015","zip+4": "0000","phone": "5052869040","NPI": "     1356366983"}, 
{"id": 33019,"ncpdp": "3210123","pharmacy_name": "SHARE \'N CARE PHARMACY","address1": "701 DALIES AVE","address2": "STE B","city": "BELEN","state": "NM","zip": "87002","zip+4": "0000","phone": "5058647471","NPI": "     1790790327"}, 
{"id": 33020,"ncpdp": "3210135","pharmacy_name": "SAVON PHARMACY #917","address1": "1625 RIO BRAVO BLVD S W","address2": "","city": "ALBUQUERQUE","state": "NM","zip": "87105","zip+4": "0000","phone": "5058772240","NPI": "     1588603963"}, 
{"id": 33021,"ncpdp": "3210147","pharmacy_name": "SAFEWAY #1438","address1": "415 N MAIN STREET","address2": "","city": "AZTEC","state": "NM","zip": "87410","zip+4": "0000","phone": "5053346261","NPI": "     1568498335"}, 
{"id": 33022,"ncpdp": "3210173","pharmacy_name": "WALGREEN DRUG STORE #5732","address1": "7850 ENCHANTED HILLS NE","address2": "","city": "RIO RANCHO","state": "NM","zip": "87124","zip+4": "0000","phone": "5057712771","NPI": "     1295740348"}, 
{"id": 33023,"ncpdp": "3210212","pharmacy_name": "SMITHS PHARMACY #459 #706459","address1": "8100 WYOMING NE SUITE A","address2": "","city": "ALBUQUERQUE","state": "NM","zip": "87109","zip+4": "0000","phone": "5058579783","NPI": "     1265457899"}, 
{"id": 33024,"ncpdp": "3210236","pharmacy_name": "WALGREEN DRUG STORE #5731","address1": "9500 GOLF COURSE RD NW","address2": "","city": "ALBUQUERQUE","state": "NM","zip": "87114","zip+4": "4270","phone": "5058979988","NPI": "     1104831254"}, 
{"id": 33025,"ncpdp": "3210301","pharmacy_name": "COSTCO PHARMACY #667","address1": "500 EUBANK BLVD SE","address2": "","city": "ALBUQUERQUE","state": "NM","zip": "87123","zip+4": "0000","phone": "5053326602","NPI": "     1164532784"}, 
{"id": 33026,"ncpdp": "3210313","pharmacy_name": "SAMS PHARMACY #104703","address1": "10600 COORS BLVD BYPASS NW","address2": "","city": "ALBUQUERQUE","state": "NM","zip": "87114","zip+4": "0000","phone": "5059220847","NPI": "     1962420661"}, 
{"id": 33027,"ncpdp": "3210349","pharmacy_name": "WALGREEN DRUG STORE #6121","address1": "8400 MONTGOMERY BLVD NE","address2": "","city": "ALBUQUERQUE","state": "NM","zip": "87111","zip+4": "0000","phone": "5055599131","NPI": "     1013922160"}, 
{"id": 33028,"ncpdp": "3210387","pharmacy_name": "SAN FELIPE HEALTH CLINIC PHARM","address1": "CEDAR ST 4","address2": "SAN FELIPE PUEBLO","city": "SAN FELIPE","state": "NM","zip": "87001","zip+4": "0000","phone": "5058672739","NPI": "     1467550475"}, 
{"id": 33029,"ncpdp": "3210414","pharmacy_name": "LOGAN FAMILY HEALTH CENTER","address1": "600 GALLEGOS ST","address2": "","city": "LOGAN","state": "NM","zip": "88426","zip+4": "0000","phone": "5054875488","NPI": "     1508972357"}, 
{"id": 33030,"ncpdp": "3210426","pharmacy_name": "MAGDALENA CLINIC","address1": "801 10TH ST","address2": "","city": "MAGDALENA","state": "NM","zip": "87825","zip+4": "0000","phone": "5058543161","NPI": "     1972682425"}, 
{"id": 33031,"ncpdp": "3210440","pharmacy_name": "SAMS PHARMACY #106672","address1": "300 EUBANK BLVD NE","address2": "","city": "ALBUQUERQUE","state": "NM","zip": "87123","zip+4": "0000","phone": "5052910998","NPI": "     1427075571"}, 
{"id": 33032,"ncpdp": "3210452","pharmacy_name": "MAY PHARMACY","address1": "7010 CENTRAL SE","address2": "STE B","city": "ALBUQUERQUE","state": "NM","zip": "87108","zip+4": "0000","phone": "5052556111","NPI": "     1194736744"}, 
{"id": 33033,"ncpdp": "3210476","pharmacy_name": "SMITHS PHARMACY #499 #706499","address1": "901 CALIFORNIA","address2": "","city": "SOCORRO","state": "NM","zip": "87801","zip+4": "0000","phone": "5758359495","NPI": "     1174548705"}, 
{"id": 33034,"ncpdp": "3210488","pharmacy_name": "SMITHS PHARMACY #498 #706498","address1": "111 COORS RD NW","address2": "","city": "ALBUQUERQUE","state": "NM","zip": "87121","zip+4": "0000","phone": "5058365322","NPI": "     1083639611"}, 
{"id": 33035,"ncpdp": "3210490","pharmacy_name": "SMITHS PHARMACY #497 #706497","address1": "535 CENTRAL AVE","address2": "","city": "LOS ALAMOS","state": "NM","zip": "87544","zip+4": "0000","phone": "5056624778","NPI": "     1508883125"}, 
{"id": 33036,"ncpdp": "3210503","pharmacy_name": "SMITHS PHARMACY #496 #706496","address1": "3701 CONSTITUTION NE","address2": "","city": "ALBUQUERQUE","state": "NM","zip": "87110","zip+4": "0000","phone": "5052569443","NPI": "     1417974031"}, 
{"id": 33037,"ncpdp": "3210515","pharmacy_name": "SMITHS PHARMACY #485 #706485","address1": "4016 LOUISIANA NE","address2": "","city": "ALBUQUERQUE","state": "NM","zip": "87110","zip+4": "0000","phone": "5058840307","NPI": "     1326065947"}, 
{"id": 33038,"ncpdp": "3210527","pharmacy_name": "SMITHS PHARMACY #494 #706494","address1": "5850 EUBANK NE","address2": "","city": "ALBUQUERQUE","state": "NM","zip": "87111","zip+4": "0000","phone": "5052997621","NPI": "     1235156852"}, 
{"id": 33039,"ncpdp": "3210539","pharmacy_name": "SMITHS PHARMACY #491 #706491","address1": "2110 PACHECO","address2": "","city": "SANTA FE","state": "NM","zip": "87501","zip+4": "0000","phone": "5054735563","NPI": "     1144247768"}, 
{"id": 33040,"ncpdp": "3210589","pharmacy_name": "SAFEWAY #2004","address1": "3540 E MAIN STREET","address2": "","city": "FARMINGTON","state": "NM","zip": "87401","zip+4": "0000","phone": "5055643086","NPI": "     1003852864"}, 
{"id": 33041,"ncpdp": "3210616","pharmacy_name": "LAWRENCE BROTHERS #1380","address1": "900 W 2ND ST","address2": "","city": "ROSWELL","state": "NM","zip": "88201","zip+4": "0000","phone": "5056221984","NPI": "     1750410536"}, 
{"id": 33042,"ncpdp": "3210628","pharmacy_name": "JOES PHARMACY","address1": "3646 HWY 47","address2": "","city": "PERALTA","state": "NM","zip": "87042","zip+4": "0000","phone": "5058693646","NPI": "     1427004449"}, 
{"id": 33043,"ncpdp": "3210630","pharmacy_name": "WAL-MART PHARMACY #102924","address1": "2550 COORS BLDV NW","address2": "","city": "ALBUQUERQUE","state": "NM","zip": "87120","zip+4": "0000","phone": "5053521880","NPI": "     1952329658"}, 
{"id": 33044,"ncpdp": "3210642","pharmacy_name": "SAMS PHARMACY #106347","address1": "4500 EAST MAIN","address2": "","city": "FARMINGTON","state": "NM","zip": "87402","zip+4": "0000","phone": "5053265384","NPI": "     1336166487"}, 
{"id": 33045,"ncpdp": "3210654","pharmacy_name": "WALGREEN DRUG STORE #6346","address1": "525 W ZIA ROAD","address2": "","city": "SANTA FE","state": "NM","zip": "87505","zip+4": "0000","phone": "5058200913","NPI": "     1922013077"}, 
{"id": 33046,"ncpdp": "3210666","pharmacy_name": "SAVON PHARMACY #927","address1": "600 N GUADALUPE ST","address2": "","city": "SANTA FE","state": "NM","zip": "87501","zip+4": "0000","phone": "5059824806","NPI": "     1396784773"}, 
{"id": 33047,"ncpdp": "3210743","pharmacy_name": "SAMS PHARMACY #104784","address1": "2711 NORTH TELSHOR BLVD","address2": "","city": "LAS CRUCES","state": "NM","zip": "88011","zip+4": "0000","phone": "5755217890","NPI": "     1245257393"}, 
{"id": 33048,"ncpdp": "3210755","pharmacy_name": "RX INNOVATIONS INC #1","address1": "7215 WASHINGTON ST NE","address2": "","city": "ALBUQUERQUE","state": "NM","zip": "87109","zip+4": "0000","phone": "5058814601","NPI": "     1891754750"}, 
{"id": 33049,"ncpdp": "3210767","pharmacy_name": "MAY PHARMACY","address1": "600 CENTRAL","address2": "","city": "MORIARITY","state": "NM","zip": "87035","zip+4": "0000","phone": "5058329988","NPI": "     1821190166"}, 
{"id": 33050,"ncpdp": "3210779","pharmacy_name": "WAL-MART PHARMACY #103596","address1": "2250 MAIN STREET NW","address2": "","city": "LOS LUNAS","state": "NM","zip": "87031","zip+4": "0000","phone": "5055654622","NPI": "     1154348209"}, 
{"id": 33051,"ncpdp": "3210781","pharmacy_name": "SAVON PHARMACY #919","address1": "2351 MAIN ST SE","address2": "","city": "LOS LUNAS","state": "NM","zip": "87031","zip+4": "0000","phone": "5058652089","NPI": "     1497792915"}, 
{"id": 33052,"ncpdp": "3210806","pharmacy_name": "WALGREEN DRUG STORE #7351","address1": "4700 4TH ST NW","address2": "","city": "ALBUQUERQUE","state": "NM","zip": "87107","zip+4": "0000","phone": "5053441371","NPI": "     1831104983"}, 
{"id": 33053,"ncpdp": "3210820","pharmacy_name": "WALGREEN DRUG STORE #7442","address1": "1201 UNSER BLVD SW","address2": "","city": "ALBUQUERQUE","state": "NM","zip": "87121","zip+4": "0000","phone": "5058310690","NPI": "     1740295898"}, 
{"id": 33054,"ncpdp": "3210844","pharmacy_name": "WAL-MART PHARMACY #105155","address1": "1550 SOUTH VALLEY DRIVE","address2": "","city": "LAS CRUCES","state": "NM","zip": "88005","zip+4": "0000","phone": "5755236844","NPI": "     1447277504"}, 
{"id": 33055,"ncpdp": "3210856","pharmacy_name": "WAL-MART PHARMACY #105166","address1": "1021 EAST PINE STREET","address2": "","city": "DEMING","state": "NM","zip": "88030","zip+4": "0000","phone": "5755466746","NPI": "     1356368419"}, 
{"id": 33056,"ncpdp": "3210868","pharmacy_name": "SAMS PHARMACY #106408","address1": "4201 RODEO ROAD","address2": "","city": "SANTA FE","state": "NM","zip": "87505","zip+4": "0000","phone": "5054710152","NPI": "     1265459325"}, 
{"id": 33057,"ncpdp": "3210870","pharmacy_name": "K & M LAB AND PHARMACY","address1": "5740 NIGHT WHISPER NW","address2": "STE 110","city": "ALBUQUERQUE","state": "NM","zip": "87114","zip+4": "0000","phone": "5058282348","NPI": "     1699880633"}, 
{"id": 33058,"ncpdp": "3210882","pharmacy_name": "QUAY COUNTY FAMILY HEALTH CENT","address1": "1302 E MAIN ST","address2": "","city": "TUCUMCARI","state": "NM","zip": "88401","zip+4": "0000","phone": "5054612200","NPI": "     1679649842"}, 
{"id": 33059,"ncpdp": "3210894","pharmacy_name": "WALGREEN DRUG STORE #7881","address1": "5 WALKER RD","address2": "","city": "EDGEWOOD","state": "NM","zip": "87015","zip+4": "0000","phone": "5052810178","NPI": "     1659386704"}, 
{"id": 33060,"ncpdp": "3210919","pharmacy_name": "WALGREEN DRUG STORE #2026","address1": "100 E HWY 550","address2": "","city": "BERNALILLO","state": "NM","zip": "87004","zip+4": "0000","phone": "5058675471","NPI": "     1568477610"}, 
{"id": 33061,"ncpdp": "3210945","pharmacy_name": "WALGREEN DRUG STORE #2053","address1": "6565 PARADISE BLVD NW","address2": "","city": "ALBUQUERQUE","state": "NM","zip": "87114","zip+4": "0000","phone": "5052170980","NPI": "     1922015965"}, 
{"id": 33062,"ncpdp": "3210957","pharmacy_name": "WALGREEN DRUG STORE #2050","address1": "315 N MAIN ST","address2": "","city": "BELEN","state": "NM","zip": "87002","zip+4": "0000","phone": "5058642083","NPI": "     1477568525"}, 
{"id": 33063,"ncpdp": "3210983","pharmacy_name": "LA TIENDA PHARMACY","address1": "1301 S CANAL","address2": "","city": "CARLSBAD","state": "NM","zip": "88220","zip+4": "0000","phone": "5756280637","NPI": "     1699711309"}, 
{"id": 33064,"ncpdp": "3210995","pharmacy_name": "WAL-MART PHARMACY #105492","address1": "700 NORTH 6TH STREET","address2": "","city": "SOCORRO","state": "NM","zip": "87801","zip+4": "0000","phone": "5758381426","NPI": "     1174540231"}, 
{"id": 33065,"ncpdp": "3211000","pharmacy_name": "PHARMACA INTEGRATIVE PHARMACY","address1": "530 W CORDOVA RD","address2": "STE B","city": "SANTA FE","state": "NM","zip": "87505","zip+4": "0000","phone": "5058207467","NPI": "     1114080439"}, 
{"id": 33066,"ncpdp": "3211024","pharmacy_name": "WALGREEN DRUG STORE #9213","address1": "1900 WYOMING BLVD NE","address2": "","city": "ALBUQUERQUE","state": "NM","zip": "87112","zip+4": "0000","phone": "5052171238","NPI": "     1386659431"}, 
{"id": 33067,"ncpdp": "3211048","pharmacy_name": "WAL-MART PHARMACY #105430","address1": "3500 COORS BLVD SW","address2": "","city": "ALBUQUERQUE","state": "NM","zip": "87105","zip+4": "0000","phone": "5058778987","NPI": "     1083631147"}, 
{"id": 33068,"ncpdp": "3211062","pharmacy_name": "WALGREEN DRUG STORE #9608","address1": "6250 PASEO DEL NORTE NE","address2": "","city": "ALBUQUERQUE","state": "NM","zip": "87113","zip+4": "0000","phone": "5052172389","NPI": "     1003821158"}, 
{"id": 33069,"ncpdp": "3211074","pharmacy_name": "WAL-MART PHARMACY #103427","address1": "604 NORTH 26TH STREET","address2": "","city": "ARTESIA","state": "NM","zip": "88210","zip+4": "0000","phone": "5757466137","NPI": "     1891712956"}, 
{"id": 33070,"ncpdp": "3211086","pharmacy_name": "SANTA FE COMMUNITY GUIDANCE CE","address1": "2960 RODEO PARK DR WEST","address2": "","city": "SANTA FE","state": "NM","zip": "87505","zip+4": "0000","phone": "5059869633","NPI": "     1124134028"}, 
{"id": 33071,"ncpdp": "3211101","pharmacy_name": "TARGET PHARMACY #2031","address1": "6100 PASEO DEL NORTE NE","address2": "","city": "ALBUQUERQUE","state": "NM","zip": "87113","zip+4": "0000","phone": "5053460136","NPI": "     1417979030"}, 
{"id": 33072,"ncpdp": "3211113","pharmacy_name": "WALGREEN DRUG STORE #7438","address1": "5850 EUBANK BLVD NE","address2": "","city": "ALBUQUERQUE","state": "NM","zip": "87111","zip+4": "0000","phone": "5052172815","NPI": "     1447266812"}, 
{"id": 33073,"ncpdp": "3211125","pharmacy_name": "DEMING HEALTH CENTER","address1": "205 E HEMLOCK ST","address2": "","city": "DEMING","state": "NM","zip": "88030","zip+4": "0000","phone": "5055464663","NPI": "     1780791293"}, 
{"id": 33074,"ncpdp": "3211137","pharmacy_name": "SOCORRO COMMUNITY HEALTH CNTR","address1": "1300 ENTERPRISE","address2": "","city": "SOCORRO","state": "NM","zip": "87801","zip+4": "0000","phone": "5058354444","NPI": "     1407898034"}, 
{"id": 33075,"ncpdp": "3211149","pharmacy_name": "SAMS PHARMACY #104938","address1": "1421 NORTH RENAISSANCE BLVD NE","address2": "","city": "ALBUQUERQUE","state": "NM","zip": "87107","zip+4": "0000","phone": "5053449129","NPI": "     1700803863"}, 
{"id": 33076,"ncpdp": "3211151","pharmacy_name": "WAL-MART PHARMACY #103317","address1": "8511 GOLF COURSE ROAD NW","address2": "","city": "ALBUQUERQUE","state": "NM","zip": "87114","zip+4": "0000","phone": "5057923683","NPI": "     1619994779"}, 
{"id": 33077,"ncpdp": "3211187","pharmacy_name": "TARGET PHARMACY #0356","address1": "8510 MONTGOMERY BLVD NE","address2": "","city": "ALBUQUERQUE","state": "NM","zip": "87111","zip+4": "0000","phone": "5053480066","NPI": "     1326060948"}, 
{"id": 33078,"ncpdp": "3211199","pharmacy_name": "PLAZA MEDICAL SVCS AND SUPPLY","address1": "1700 PLAZA ST STE D","address2": "","city": "LAS VEGAS","state": "NM","zip": "87701","zip+4": "0000","phone": "5054253325","NPI": "     1124033733"}, 
{"id": 33079,"ncpdp": "3211214","pharmacy_name": "WAL-MART PHARMACY #103732","address1": "901 UNSER BLVD SOUTHEAST","address2": "","city": "RIO RANCHO","state": "NM","zip": "87124","zip+4": "0000","phone": "5059629239","NPI": "     1528085685"}, 
{"id": 33080,"ncpdp": "3211226","pharmacy_name": "MAY PHARMACY","address1": "12129 N HWY 14","address2": "","city": "CEDAR CREST","state": "NM","zip": "87008","zip+4": "0000","phone": "5052816488","NPI": "     1356364343"}, 
{"id": 33081,"ncpdp": "3211238","pharmacy_name": "ALBUQUERQUE PHCY","address1": "500 LOUISANA BLVD","address2": "STE A","city": "ALBUQUERQUE","state": "NM","zip": "87108","zip+4": "0000","phone": "5052625739","NPI": "     1225059298"}, 
{"id": 33082,"ncpdp": "3211240","pharmacy_name": "WAL-MART PHARMACY #103428","address1": "1400 WEST MAIN STREET","address2": "","city": "FARMINGTON","state": "NM","zip": "87401","zip+4": "0000","phone": "5053272262","NPI": "     1437176591"}, 
{"id": 33083,"ncpdp": "3211252","pharmacy_name": "EL PASEO PHARMACY LLC","address1": "1605 EL PASEO RD","address2": "","city": "LAS CRUCES","state": "NM","zip": "88001","zip+4": "0000","phone": "5055411500","NPI": "     1770533440"}, 
{"id": 33084,"ncpdp": "3211264","pharmacy_name": "CVS PHARMACY #09263","address1": "511 W CORDOVA RD","address2": "","city": "SANTA FE","state": "NM","zip": "87505","zip+4": "1843","phone": "5059835546","NPI": "     1912948886"}, 
{"id": 33085,"ncpdp": "3211288","pharmacy_name": "CVS PHARMACY #09269","address1": "195 PASEO DE PERALTA","address2": "","city": "SANTA FE","state": "NM","zip": "87501","zip+4": "0000","phone": "5059828787","NPI": "     1083656276"}, 
{"id": 33086,"ncpdp": "3211303","pharmacy_name": "SAMS PHARMACY #104961","address1": "4400 NORTH MAIN STREET","address2": "","city": "ROSWELL","state": "NM","zip": "88201","zip+4": "0000","phone": "5756279866","NPI": "     1346267408"}, 
{"id": 33087,"ncpdp": "3211315","pharmacy_name": "MENAUL COMPOUNDING PHCY","address1": "11417 MENAUL BLVD NE","address2": "","city": "ALBUQUERQUE","state": "NM","zip": "87112","zip+4": "0000","phone": "5052911600","NPI": "     1073555330"}, 
{"id": 33088,"ncpdp": "3211339","pharmacy_name": "NEW MEXICO ONCOLOGY HEMATOLOGY","address1": "4901 LANG AVE NE","address2": "","city": "ALBUQUERQUE","state": "NM","zip": "87109","zip+4": "0000","phone": "5057963078","NPI": "     1164475232"}, 
{"id": 33089,"ncpdp": "3211341","pharmacy_name": "WAL-MART PHARMACY #103385","address1": "9600 SAGE ROAD SW","address2": "","city": "ALBUQUERQUE","state": "NM","zip": "87121","zip+4": "0000","phone": "5058314023","NPI": "     1942394085"}, 
{"id": 33090,"ncpdp": "3211353","pharmacy_name": "TARGET PHARMACY #0952","address1": "4900 E MAIN ST","address2": "","city": "FARMINGTON","state": "NM","zip": "87402","zip+4": "0000","phone": "5053273555","NPI": "     1699857060"}, 
{"id": 33091,"ncpdp": "3211365","pharmacy_name": "PHARMACA INTEGRATIVE PHARMACY","address1": "8910 HOLLY AVE NE","address2": "","city": "ALBUQUERQUE","state": "NM","zip": "87122","zip+4": "0000","phone": "5057960387","NPI": "     1518033141"}, 
{"id": 33092,"ncpdp": "3211404","pharmacy_name": "SAVON PHARMACY #908","address1": "13150 CENTRAL AVE SE","address2": "","city": "ALBUQUERQUE","state": "NM","zip": "87123","zip+4": "0000","phone": "5052922293","NPI": "     1629276027"}, 
{"id": 33093,"ncpdp": "3211416","pharmacy_name": "SAVON PHARMACY #912","address1": "3301 SOUTHERN BLVD SE","address2": "","city": "RIO RANCHO","state": "NM","zip": "87124","zip+4": "0000","phone": "5058910895","NPI": "     1427256825"}, 
{"id": 33094,"ncpdp": "3211428","pharmacy_name": "SAVON PHARMACY #920","address1": "710A PASEO DEL PUEBLO SUR","address2": "","city": "TAOS","state": "NM","zip": "87571","zip+4": "0000","phone": "5757581203","NPI": "     1720286156"}, 
{"id": 33095,"ncpdp": "3211430","pharmacy_name": "SAVON PHARMACY #924","address1": "8100 VENTURA ST NE","address2": "","city": "ALBUQUERQUE","state": "NM","zip": "87122","zip+4": "0000","phone": "5058228484","NPI": "     1922206358"}, 
{"id": 33096,"ncpdp": "3211442","pharmacy_name": "SAVON PHARMACY #905","address1": "2910 JUAN TABO BLVD NE","address2": "","city": "ALBUQUERQUE","state": "NM","zip": "87112","zip+4": "0000","phone": "5052998600","NPI": "     1306044730"}, 
{"id": 33097,"ncpdp": "3211454","pharmacy_name": "SAVON PHARMACY #923","address1": "7800 ENCHANTED HILLS BLVD NE","address2": "","city": "RIO RANCHO","state": "NM","zip": "87144","zip+4": "0000","phone": "5057718411","NPI": "     1073711404"}, 
{"id": 33098,"ncpdp": "3211466","pharmacy_name": "SAVON PHARMACY #915","address1": "6200 COORS BLVD NW","address2": "","city": "ALBUQUERQUE","state": "NM","zip": "87120","zip+4": "0000","phone": "5058985970","NPI": "     1912105313"}, 
{"id": 33099,"ncpdp": "3211478","pharmacy_name": "TARGET PHARMACY #0357","address1": "11120 LOMAS BLVD NE","address2": "","city": "ALBURQUERQUE","state": "NM","zip": "87112","zip+4": "0000","phone": "5052929110","NPI": "     1053505065"}, 
{"id": 33100,"ncpdp": "3211505","pharmacy_name": "COSTCO PHARMACY #1016","address1": "9955 COORS BYPASS NW","address2": "","city": "ALBUQUERQUE","state": "NM","zip": "87114","zip+4": "0000","phone": "5059227409","NPI": "     1710167754"}, 
{"id": 33101,"ncpdp": "3211517","pharmacy_name": "VIDA PHARMACY LLC","address1": "8500 JEFFERSON BLVD NE","address2": "STE D","city": "ALBUQUERQUE","state": "NM","zip": "87113","zip+4": "0000","phone": "5058561660","NPI": "     1609056035"}, 
{"id": 33102,"ncpdp": "3211529","pharmacy_name": "SMITHS PHARMACY #463 #706463","address1": "4800 MCMAHON BLVD NW","address2": "","city": "ALBUQUERQUE","state": "NM","zip": "87114","zip+4": "5010","phone": "5059224303","NPI": "     1063693943"}, 
{"id": 33103,"ncpdp": "3211543","pharmacy_name": "WALGREEN DRUG STORE #11959","address1": "5201 CENTRAL AVE NE","address2": "","city": "ALBUQUERQUE","state": "NM","zip": "87108","zip+4": "1328","phone": "5052179907","NPI": "     1043491681"}, 
{"id": 33104,"ncpdp": "3211555","pharmacy_name": "WALGREEN DRUG STORE #09715","address1": "2200 UNSER BLVD NW","address2": "","city": "ALBUQUERQUE","state": "NM","zip": "87120","zip+4": "0000","phone": "5052179940","NPI": "     1487836722"}, 
{"id": 33105,"ncpdp": "3211567","pharmacy_name": "WAL-MART PHARMACY #3731","address1": "460 NM HIGHWAY 528","address2": "","city": "BERNALILLO","state": "NM","zip": "87004","zip+4": "0000","phone": "5057714877","NPI": "     1992981310"}, 
{"id": 33106,"ncpdp": "3211579","pharmacy_name": "WAL-MART PHARMACY #4201","address1": "86 STATE ROAD 344","address2": "","city": "EDGEWOOD","state": "NM","zip": "87015","zip+4": "0000","phone": "5052863053","NPI": "     1477735108"}, 
{"id": 33107,"ncpdp": "3211593","pharmacy_name": "WALGREEN DRUG STORE #11361","address1": "1861 MAIN ST","address2": "","city": "LOS LUNAS","state": "NM","zip": "87031","zip+4": "0000","phone": "5058652933","NPI": "     1346413507"}, 
{"id": 33108,"ncpdp": "3211606","pharmacy_name": "WAL-MART PHARMACY #4341","address1": "2001 HR ASHBAUGH DR","address2": "","city": "TRUTH OR CONSEQUEN","state": "NM","zip": "87901","zip+4": "0000","phone": "5758940343","NPI": "     1295917920"}, 
{"id": 33109,"ncpdp": "3211632","pharmacy_name": "WALGREENS #11958","address1": "3632 MENAUL BLVD NE","address2": "","city": "ALBUQUERQUE","state": "NM","zip": "87110","zip+4": "0000","phone": "5052172551","NPI": "     1255589149"}, 
{"id": 33110,"ncpdp": "3211644","pharmacy_name": "ST CHRISTOPHER INC","address1": "801 ENCINO PLACE","address2": "A 16","city": "ALBUQUERQUE","state": "NM","zip": "87102","zip+4": "0000","phone": "5058211146","NPI": "     1902819550"}, 
{"id": 33111,"ncpdp": "3211668","pharmacy_name": "CARLOS A CADENA DPM","address1": "2800 DORAL COURT","address2": "STE A","city": "LAS CRUCES","state": "NM","zip": "88011","zip+4": "0000","phone": "5755210055","NPI": "     1679617229"}, 
{"id": 33112,"ncpdp": "3211670","pharmacy_name": "CARLOS J ESPARZA MD #1","address1": "801 ENCITO PLACE NE","address2": "STE F21","city": "ALBUQUERQUE","state": "NM","zip": "87102","zip+4": "0000","phone": "5052421711","NPI": "     1366469314"}, 
{"id": 33113,"ncpdp": "3211707","pharmacy_name": "BCA MEDICAL ASSOCIATES #1","address1": "813 NORTH WASHINGTON AVENUE","address2": "","city": "ROSWELL","state": "NM","zip": "88201","zip+4": "0000","phone": "5756222606","NPI": "     1568576056"}, 
{"id": 33114,"ncpdp": "3211719","pharmacy_name": "SOUTHWEST CARE CENTER","address1": "649 HARKLE RD","address2": "STE C","city": "SANTA FE","state": "NM","zip": "87505","zip+4": "0000","phone": "5059898200","NPI": "     1043457187"}, 
{"id": 33115,"ncpdp": "3211721","pharmacy_name": "ROLANDO CADENA DPM","address1": "2930 HILLRISE DRIVE","address2": "STE 4","city": "LAS CRUCES","state": "NM","zip": "88011","zip+4": "0000","phone": "5755223330","NPI": "     1497744288"}, 
{"id": 33116,"ncpdp": "3211733","pharmacy_name": "FIRST CARE CLINIC","address1": "3530 FOOTHILLS","address2": "STE N","city": "LAS CRUCES","state": "NM","zip": "88011","zip+4": "0000","phone": "5755326054","NPI": "     1740429737"}, 
{"id": 33117,"ncpdp": "3211745","pharmacy_name": "LOS LUNAS FAMILY PRACTICE","address1": "127 SANDOVAL ROAD","address2": "","city": "LOS LUNAS","state": "NM","zip": "87031","zip+4": "0000","phone": "5058653373","NPI": "     1194827535"}, 
{"id": 33118,"ncpdp": "3211757","pharmacy_name": "REBECCA J SHODEN MD","address1": "883 LEAD AVE SE","address2": "STE A","city": "AUBUQUERQUE","state": "NM","zip": "87102","zip+4": "0000","phone": "5052478820","NPI": "     1932269073"}, 
{"id": 33119,"ncpdp": "3211769","pharmacy_name": "SOUTHWEST WOMENS HEALTH","address1": "883 LEAD AVENUE SE","address2": "STE A","city": "ALBUQUERQUE","state": "NM","zip": "87102","zip+4": "0000","phone": "5058437131","NPI": "     1538229695"}, 
{"id": 33120,"ncpdp": "3211771","pharmacy_name": "UNMH PHARMACY AT SOUTH EAST HE","address1": "8200 CENTRAL AVE SE","address2": "SUITE 106","city": "ALBUQUERQUE","state": "NM","zip": "87108","zip+4": "0000","phone": "5052724563","NPI": "     1982849030"}, 
{"id": 33121,"ncpdp": "3211783","pharmacy_name": "CVS PHARMACY #08917","address1": "7847 TRAMWAY BLVD NE","address2": "","city": "ALBUQUERQUE","state": "NM","zip": "87122","zip+4": "2515","phone": "4017651500","NPI": "     1194969097"}, 
{"id": 33122,"ncpdp": "3211795","pharmacy_name": "CVS PHARMACY # #08916","address1": "3821 ELLISON DRIVE, NW","address2": "","city": "ALBUQUERQUE","state": "NM","zip": "87114","zip+4": "0000","phone": "5058999001","NPI": "     1598909848"}, 
{"id": 33123,"ncpdp": "3211808","pharmacy_name": "WALGREENS #10808","address1": "100 ROSEDALE RD","address2": "","city": "SILVER CITY","state": "NM","zip": "88061","zip+4": "8742","phone": "5755340053","NPI": "     1669616942"}, 
{"id": 33124,"ncpdp": "3211822","pharmacy_name": "CVS PHARMACY # #08918","address1": "4340 SAN MATEO BLVD NE","address2": "","city": "ALBUQUERQUE","state": "NM","zip": "87110","zip+4": "1234","phone": "5058840417","NPI": "     1639304850"}, 
{"id": 33125,"ncpdp": "3211858","pharmacy_name": "CVS PHARMACY # #08915","address1": "9640 MENAUL BLVD NE","address2": "","city": "ALBUQUERQUE","state": "NM","zip": "87112","zip+4": "2217","phone": "5052944167","NPI": "     1083844336"}, 
{"id": 33126,"ncpdp": "3211860","pharmacy_name": "WALGREENS #11458","address1": "3990 E LOHMAN AVE","address2": "","city": "LAS CRUCES","state": "NM","zip": "88011","zip+4": "8274","phone": "5755221457","NPI": "     1265662951"}, 
{"id": 33127,"ncpdp": "3211872","pharmacy_name": "LAWRENCE BROS. PHARMACY # #138","address1": "721 MECHEM DR","address2": "","city": "RUIDOSO","state": "NM","zip": "88345","zip+4": "6911","phone": "5756301081","NPI": "     1588895213"}, 
{"id": 33128,"ncpdp": "3211884","pharmacy_name": "WALGREENS #12407","address1": "10800 UNSER BLVD NW","address2": "","city": "ALBUQUERQUE","state": "NM","zip": "87114","zip+4": "0000","phone": "5052051849","NPI": "     1053542225"}, 
{"id": 33129,"ncpdp": "3211896","pharmacy_name": "WALGREENS #12004","address1": "8011 VENTURA NE","address2": "","city": "ALBUQUERQUE","state": "NM","zip": "87122","zip+4": "0000","phone": "5052172860","NPI": "     1093948754"}, 
{"id": 33130,"ncpdp": "3211909","pharmacy_name": "WALGREENS #12751","address1": "811 PASEO DEL PUEBLO SUR","address2": "","city": "TAOS","state": "NM","zip": "87571","zip+4": "6395","phone": "5757581704","NPI": "     1952534125"}, 
{"id": 59584,"ncpdp": "9000939","pharmacy_name": "PRESBYTERIAN MED SERVICES","address1": "PO BOX 2267","address2": "","city": "SANTA FE","state": "NM","zip": "87504","zip+4": "2267","phone": "8007531962","NPI": ""}, 
