{"id": 30272,"ncpdp": "2900389","pharmacy_name": "RALEYS #111","address1": "1125 W WINNEMUCCA BLVD","address2": "","city": "WINNEMUCCA","state": "NV","zip": "89445","zip+4": "0000","phone": "7756232548","NPI": "     1972613644"}, 
{"id": 30273,"ncpdp": "2900430","pharmacy_name": "MEADOW VALLEY PHCY","address1": "800 N SPRING ST","address2": "","city": "CALIENTE","state": "NV","zip": "89008","zip+4": "0000","phone": "7757263771","NPI": "     1891738951"}, 
{"id": 30274,"ncpdp": "2900579","pharmacy_name": "ECONOMY","address1": "696 AULTMAN ST","address2": "","city": "ELY","state": "NV","zip": "89301","zip+4": "1555","phone": "7752894929","NPI": "     1346380037"}, 
{"id": 30275,"ncpdp": "2900581","pharmacy_name": "STEPTOE DRUG INC","address1": "504 AULTMAN ST","address2": "","city": "ELY","state": "NV","zip": "89301","zip+4": "1553","phone": "7752892671","NPI": "     1225183445"}, 
{"id": 30276,"ncpdp": "2901026","pharmacy_name": "WHITE CROSS DRUG","address1": "1700 LAS VEGAS BLVD S","address2": "","city": "LAS VEGAS","state": "NV","zip": "89104","zip+4": "1302","phone": "7023821733","NPI": "     1447330360"}, 
{"id": 30277,"ncpdp": "2901127","pharmacy_name": "LINS SUPERMARKET PHARMACY #5","address1": "350 S MOAPA VALLEY BLVD","address2": "PO BOX 305","city": "OVERTON","state": "NV","zip": "89040","zip+4": "0000","phone": "7023972308","NPI": "     1295844306"}, 
{"id": 30278,"ncpdp": "2901177","pharmacy_name": "RALEYS #106","address1": "701 KEYSTONE AVENUE","address2": "","city": "RENO","state": "NV","zip": "89503","zip+4": "0000","phone": "7757470718","NPI": "     1508976275"}, 
{"id": 30279,"ncpdp": "2901191","pharmacy_name": "HALES 50 KIRMAN PHARMACY","address1": "50 KIRMAN ST","address2": "STE 102","city": "RENO","state": "NV","zip": "89502","zip+4": "1175","phone": "7753222171","NPI": "     1053322560"}, 
{"id": 30280,"ncpdp": "2901278","pharmacy_name": "RALEYS #104","address1": "4047 SOUTH VIRGINIA STREET","address2": "","city": "RENO","state": "NV","zip": "89502","zip+4": "0000","phone": "7758252476","NPI": "     1326158098"}, 
{"id": 30281,"ncpdp": "2901468","pharmacy_name": "REX DRUG CO","address1": "24 N MAIN ST","address2": "","city": "YERINGTON","state": "NV","zip": "89447","zip+4": "0814","phone": "7754632345","NPI": "     1609981646"}, 
{"id": 30282,"ncpdp": "2901533","pharmacy_name": "RALEYS #114","address1": "3701 SOUTH CARSON STREET","address2": "","city": "CARSON CITY","state": "NV","zip": "89701","zip+4": "0000","phone": "7758823116","NPI": "     1144330812"}, 
{"id": 30283,"ncpdp": "2901595","pharmacy_name": "DONS PHARMACY","address1": "501 RALSTON ST","address2": "","city": "RENO","state": "NV","zip": "89503","zip+4": "0000","phone": "7753292000","NPI": "     1487668760"}, 
{"id": 30284,"ncpdp": "2901812","pharmacy_name": "RALEYS #109","address1": "1363 HIGHWAY 395 NORTH","address2": "","city": "GARDNERVILLE","state": "NV","zip": "89410","zip+4": "0000","phone": "7757822226","NPI": "     1962512632"}, 
{"id": 30285,"ncpdp": "2901850","pharmacy_name": "RALEYS #103","address1": "1441 MAYBERRY DRIVE","address2": "","city": "RENO","state": "NV","zip": "89509","zip+4": "0000","phone": "7757863655","NPI": "     1134239809"}, 
{"id": 30286,"ncpdp": "2901898","pharmacy_name": "RALEYS #113","address1": "930 TAHOE BLVD","address2": "","city": "INCLINE VILLAGE","state": "NV","zip": "89450","zip+4": "0000","phone": "7758313111","NPI": "     1952411621"}, 
{"id": 30287,"ncpdp": "2902030","pharmacy_name": "PROFESSIONAL PHARMACY","address1": "6 STEPTOE CIR","address2": "","city": "ELY","state": "NV","zip": "89301","zip+4": "0000","phone": "7752893420","NPI": "     1891716866"}, 
{"id": 30288,"ncpdp": "2902080","pharmacy_name": "KMART PHARMACY #3095","address1": "2671 LAS VEGAS BLVD N","address2": "","city": "NORTH LAS VEGAS","state": "NV","zip": "89030","zip+4": "0000","phone": "7026493529","NPI": "     1255362380"}, 
{"id": 30289,"ncpdp": "2902129","pharmacy_name": "RALEYS #118","address1": "2103 WEST WILLIAMS AVENUE","address2": "","city": "FALLON","state": "NV","zip": "89406","zip+4": "0000","phone": "7754237111","NPI": "     1689784357"}, 
{"id": 30290,"ncpdp": "2902167","pharmacy_name": "SMITHS PHARMACY #377 #706377","address1": "850 SOUTH RANCHO DR","address2": "","city": "LAS VEGAS","state": "NV","zip": "89106","zip+4": "0000","phone": "7028787414","NPI": "     1144245762"}, 
{"id": 30291,"ncpdp": "2902232","pharmacy_name": "VONS #1963","address1": "1155 E TWAIN AVE","address2": "","city": "LAS VEGAS","state": "NV","zip": "89109","zip+4": "0000","phone": "7026961481","NPI": "     1548206170"}, 
{"id": 30292,"ncpdp": "2902256","pharmacy_name": "VONS #2194","address1": "390 SOUTH DECATUR BOULEVARD","address2": "","city": "LAS VEGAS","state": "NV","zip": "89107","zip+4": "0000","phone": "7028703511","NPI": "     1477599082"}, 
{"id": 30293,"ncpdp": "2902270","pharmacy_name": "SUN DRUGS","address1": "2410 E BONANZA","address2": "","city": "LAS VEGAS","state": "NV","zip": "89101","zip+4": "3421","phone": "7023821166","NPI": "     1306958301"}, 
{"id": 30294,"ncpdp": "2902333","pharmacy_name": "CVS PHARMACY # #09168","address1": "1119 CALIFORNIA AVE","address2": "","city": "RENO","state": "NV","zip": "89509","zip+4": "0000","phone": "7753230701","NPI": "     1689616419"}, 
{"id": 30295,"ncpdp": "2902410","pharmacy_name": "KMART PHARMACY #4369","address1": "2975 E SAHARA AVE","address2": "","city": "LAS VEGAS","state": "NV","zip": "89104","zip+4": "0000","phone": "7024578325","NPI": "     1164453296"}, 
{"id": 30296,"ncpdp": "2902460","pharmacy_name": "LONGS DRUG STORE #09170","address1": "2300 ODDIE BLVD","address2": "","city": "SPARKS","state": "NV","zip": "89431","zip+4": "0000","phone": "7753311242","NPI": "     1497797229"}, 
{"id": 30297,"ncpdp": "2902511","pharmacy_name": "UMC OUTPATIENT PHARMACY","address1": "1800 W CHARLESTON BLVD","address2": "","city": "LAS VEGAS","state": "NV","zip": "89102","zip+4": "0000","phone": "7023832041","NPI": "     1760517635"}, 
{"id": 30298,"ncpdp": "2902573","pharmacy_name": "BOB TUCKERS","address1": "805 E MAIN ST","address2": "","city": "FERNLEY","state": "NV","zip": "89408","zip+4": "0027","phone": "7755754435","NPI": "     1871504381"}, 
{"id": 30299,"ncpdp": "2902725","pharmacy_name": "MEDICINE SHOPPE #1413","address1": "1690 W WILLIAMS AVE","address2": "","city": "FALLON","state": "NV","zip": "89406","zip+4": "2600","phone": "7754233194","NPI": "     1124130125"}, 
{"id": 30300,"ncpdp": "2902802","pharmacy_name": "LONGS DRUG STORE #09191","address1": "5019 S MCCARRAN BLVD","address2": "","city": "RENO","state": "NV","zip": "89502","zip+4": "0000","phone": "7758260884","NPI": "     1083658421"}, 
{"id": 30301,"ncpdp": "2902826","pharmacy_name": "KMART PHARMACY #3592","address1": "5050 E BONANZA RD","address2": "","city": "LAS VEGAS","state": "NV","zip": "89110","zip+4": "0000","phone": "7024591003","NPI": "     1073544102"}, 
{"id": 30302,"ncpdp": "2902852","pharmacy_name": "CORAM SPECIALTY INFUSION SERVI","address1": "1951 RAMROD AVE STE 110","address2": "","city": "HENDERSON","state": "NV","zip": "89014","zip+4": "2401","phone": "7024534546","NPI": "     1881639755"}, 
{"id": 30303,"ncpdp": "2902888","pharmacy_name": "SMITHS PHARMACY #381 #706381","address1": "830 SOUTH BOULDER HIGHWAY","address2": "","city": "HENDERSON","state": "NV","zip": "89015","zip+4": "0000","phone": "7025656466","NPI": "     1053336677"}, 
{"id": 30304,"ncpdp": "2903094","pharmacy_name": "VILLAGE PHARMACY INC","address1": "898 TANAGER ST","address2": "","city": "INCLINE VILLAGE","state": "NV","zip": "89451","zip+4": "0000","phone": "7758311133","NPI": "     1114969649"}, 
{"id": 30305,"ncpdp": "2903119","pharmacy_name": "KMART PHARMACY #3857","address1": "732 SOUTH RACETRACK ROAD","address2": "","city": "HENDERSON","state": "NV","zip": "89015","zip+4": "0000","phone": "7025657446","NPI": "     1982635017"}, 
{"id": 30306,"ncpdp": "2903309","pharmacy_name": "SAFEWAY #2255","address1": "HWY 95 AND ARMORY","address2": "","city": "HAWTHORNE","state": "NV","zip": "89415","zip+4": "0000","phone": "7759453045","NPI": "     1225057250"}, 
{"id": 30307,"ncpdp": "2903361","pharmacy_name": "MEDCARE PHARMACY","address1": "1851 N CARSON ST","address2": "","city": "CARSON CITY","state": "NV","zip": "89701","zip+4": "0000","phone": "7758858881","NPI": "     1326118407"}, 
{"id": 30308,"ncpdp": "2903412","pharmacy_name": "RALEYS #115","address1": "1075 N HILL BLVD UNIT 270","address2": "","city": "RENO","state": "NV","zip": "89506","zip+4": "0000","phone": "7756778750","NPI": "     1851401525"}, 
{"id": 30309,"ncpdp": "2903436","pharmacy_name": "SCOLARIS 19 PHARMACY #119","address1": "200 LEMON VALLEY DRIVE","address2": "","city": "RENO","state": "NV","zip": "89506","zip+4": "0000","phone": "7759727900","NPI": "     1295745776"}, 
{"id": 30310,"ncpdp": "2903525","pharmacy_name": "SAK N SAVE 3 PHARMACY #103","address1": "2375 ODDIE BLVD","address2": "","city": "RENO","state": "NV","zip": "89512","zip+4": "0000","phone": "7753584337","NPI": "     1548211279"}, 
{"id": 30311,"ncpdp": "2903549","pharmacy_name": "SCOLARIS 5 PHARMACY #105","address1": "2100 HWY 50 EAST","address2": "","city": "CARSON CITY","state": "NV","zip": "89701","zip+4": "0000","phone": "7758830745","NPI": "     1861443475"}, 
{"id": 30312,"ncpdp": "2903551","pharmacy_name": "RALEYS #117","address1": "2511 MOUNTAIN CITY HWY","address2": "","city": "ELKO","state": "NV","zip": "89801","zip+4": "0000","phone": "7757382779","NPI": "     1023128790"}, 
{"id": 30313,"ncpdp": "2903652","pharmacy_name": "SCOLARIS 20 PHARMACY #120","address1": "8165 S VIRGINIA ST","address2": "","city": "RENO","state": "NV","zip": "89511","zip+4": "0000","phone": "7758517772","NPI": "     1023060043"}, 
{"id": 30314,"ncpdp": "2903676","pharmacy_name": "VONS #4196","address1": "3325 RUSSELL ROAD","address2": "","city": "LAS VEGAS","state": "NV","zip": "89120","zip+4": "0000","phone": "7024545521","NPI": "     1194761700"}, 
{"id": 30315,"ncpdp": "2903715","pharmacy_name": "SMITHS PHARMACY #354 #706354","address1": "3850 FLAMINGO RD","address2": "","city": "LAS VEGAS","state": "NV","zip": "89121","zip+4": "0000","phone": "7024515536","NPI": "     1962427583"}, 
{"id": 30316,"ncpdp": "2903727","pharmacy_name": "SMITHS PHARMACY #358 #706358","address1": "2540 MARYLAND PARKWAY","address2": "","city": "LAS VEGAS","state": "NV","zip": "89109","zip+4": "0000","phone": "7027910517","NPI": "     1871518498"}, 
{"id": 30317,"ncpdp": "2903789","pharmacy_name": "SMITHS PHARMACY #357 #706357","address1": "1255 BARING BLVD","address2": "","city": "SPARKS","state": "NV","zip": "89431","zip+4": "0000","phone": "7753596900","NPI": "     1780609305"}, 
{"id": 30318,"ncpdp": "2903791","pharmacy_name": "SMITHS PHARMACY #356 #706356","address1": "599 EAST WILLIAMS ST","address2": "","city": "CARSON CITY","state": "NV","zip": "89702","zip+4": "0000","phone": "7758859928","NPI": "     1861417487"}, 
{"id": 30319,"ncpdp": "2903804","pharmacy_name": "SMITHS PHARMACY #378 #706378","address1": "750 SOUTH MEADOWS PARKWAY","address2": "","city": "RENO","state": "NV","zip": "89521","zip+4": "0000","phone": "7758518060","NPI": "     1770508392"}, 
{"id": 30320,"ncpdp": "2903842","pharmacy_name": "SMITHS PHARMACY #351 #706351","address1": "6130 W TROPICANA","address2": "","city": "LAS VEGAS","state": "NV","zip": "89103","zip+4": "0000","phone": "7028716550","NPI": "     1689699209"}, 
{"id": 30321,"ncpdp": "2903854","pharmacy_name": "SMITHS PHARMACY #355 #706355","address1": "450 NORTH NELLIS","address2": "","city": "LAS VEGAS","state": "NV","zip": "89110","zip+4": "0000","phone": "7024520224","NPI": "     1497770010"}, 
{"id": 30322,"ncpdp": "2903929","pharmacy_name": "COSTCO PHARMACY #25","address1": "2200 HARVARD WAY","address2": "","city": "RENO","state": "NV","zip": "89502","zip+4": "0000","phone": "7756892211","NPI": "     1093825614"}, 
{"id": 30323,"ncpdp": "2903931","pharmacy_name": "KMART PHARMACY #3680","address1": "3760 EAST SUNSET ROAD","address2": "","city": "LAS VEGAS","state": "NV","zip": "89120","zip+4": "0000","phone": "7024584004","NPI": "     1790716827"}, 
{"id": 30324,"ncpdp": "2904147","pharmacy_name": "SAFEWAY #1210","address1": "5150 MAE ANNE AVENUE","address2": "","city": "RENO","state": "NV","zip": "89523","zip+4": "0000","phone": "7757469010","NPI": "     1003852617"}, 
{"id": 30325,"ncpdp": "2904185","pharmacy_name": "GREEN VALLEY DRUGS","address1": "1850 WHITNEY MESA","address2": "STE 180","city": "HENDERSON","state": "NV","zip": "89014","zip+4": "0000","phone": "7025642079","NPI": "     1467430736"}, 
{"id": 30326,"ncpdp": "2904197","pharmacy_name": "SMITHS PHARMACY #350 #706350","address1": "4600 EAST SUNSET BLVD","address2": "","city": "HENDERSON","state": "NV","zip": "89015","zip+4": "0000","phone": "7024510468","NPI": "     1306861927"}, 
{"id": 30327,"ncpdp": "2904325","pharmacy_name": "SMITHS PHARMACY #383 #706383","address1": "4440 NO RANCHO DR","address2": "","city": "LAS VEGAS","state": "NV","zip": "89130","zip+4": "0000","phone": "7026456200","NPI": "     1215952833"}, 
{"id": 30328,"ncpdp": "2904387","pharmacy_name": "RITE AID PHARMACY #06121","address1": "1329 US HIGHWAY 395 NORTH","address2": "CARSON VALLEY FAIR SHOPPING CE","city": "GARDNERVILLE","state": "NV","zip": "89410","zip+4": "5391","phone": "7022552720","NPI": "     1821107210"}, 
{"id": 30329,"ncpdp": "2904399","pharmacy_name": "FOOD4LESS PHARMACY #704794","address1": "2255 N LAS VEGAS BLVD","address2": "","city": "N. LAS VEGAS","state": "NV","zip": "89030","zip+4": "0000","phone": "7026421111","NPI": "     1114095015"}, 
{"id": 30330,"ncpdp": "2904402","pharmacy_name": "WAL-MART PHARMACY #101559","address1": "201 NORTH NELLIS BLVD","address2": "","city": "LAS VEGAS","state": "NV","zip": "89110","zip+4": "0000","phone": "7024528118","NPI": "     1407873508"}, 
{"id": 30331,"ncpdp": "2904426","pharmacy_name": "KMART PHARMACY #3719","address1": "4500 NORTH RANCHO DRIVE","address2": "","city": "LAS VEGAS","state": "NV","zip": "89130","zip+4": "0000","phone": "7026585981","NPI": "     1518998640"}, 
{"id": 30332,"ncpdp": "2904476","pharmacy_name": "WAL-MART PHARMACY #101584","address1": "3615 SOUTH RAINBOW ROAD","address2": "","city": "LAS VEGAS","state": "NV","zip": "89103","zip+4": "0000","phone": "7023676113","NPI": "     1316964414"}, 
{"id": 30333,"ncpdp": "2904488","pharmacy_name": "WAL-MART PHARMACY #101560","address1": "6005 EASTERN AVE","address2": "","city": "LAS VEGAS","state": "NV","zip": "89121","zip+4": "0000","phone": "7024510774","NPI": "     1225055320"}, 
{"id": 30334,"ncpdp": "2904553","pharmacy_name": "WAL-MART PHARMACY #101648","address1": "3770 SOUTH HIGHWAY 395","address2": "","city": "CARSON CITY","state": "NV","zip": "89705","zip+4": "0000","phone": "7752672461","NPI": "     1497773147"}, 
{"id": 30335,"ncpdp": "2904565","pharmacy_name": "SCOLARIS 24 PHARMACY #124","address1": "4788 CAUGHLIN PARKWAY","address2": "","city": "RENO","state": "NV","zip": "89509","zip+4": "0000","phone": "7758282377","NPI": "     1750391140"}, 
{"id": 30336,"ncpdp": "2904591","pharmacy_name": "PARTELL MEDICAL PHARMACY","address1": "5835 SOUTH EASTERN AVE","address2": "STE 101","city": "LAS VEGAS","state": "NV","zip": "89119","zip+4": "0000","phone": "7027913800","NPI": "     1336254374"}, 
{"id": 30337,"ncpdp": "2904604","pharmacy_name": "VONS #2198","address1": "4610 WEST SAHARA AVENUE","address2": "","city": "LAS VEGAS","state": "NV","zip": "89102","zip+4": "0000","phone": "7022589998","NPI": "     1023054889"}, 
{"id": 30338,"ncpdp": "2904642","pharmacy_name": "SCOLARIS 27 PHARMACY #127","address1": "1400 STATE ROUTE 95A NORTH","address2": "","city": "FERNLEY","state": "NV","zip": "89408","zip+4": "0000","phone": "7755755065","NPI": "     1568472967"}, 
{"id": 30339,"ncpdp": "2904666","pharmacy_name": "KMART PHARMACY #3894","address1": "2450 MOUNTAIN CITY HWY","address2": "","city": "ELKO","state": "NV","zip": "89801","zip+4": "0000","phone": "7757389422","NPI": "     1609807734"}, 
{"id": 30340,"ncpdp": "2904678","pharmacy_name": "COSTCO PHARMACY #673","address1": "791 MARKS STREET","address2": "","city": "HENDERSON","state": "NV","zip": "89014","zip+4": "0000","phone": "7023522030","NPI": "     1902916521"}, 
{"id": 30341,"ncpdp": "2904680","pharmacy_name": "SAFEWAY #2247","address1": "2035 N CARSON ST","address2": "","city": "CARSON CITY","state": "NV","zip": "89706","zip+4": "0000","phone": "7758822110","NPI": "     1932145794"}, 
{"id": 30342,"ncpdp": "2904717","pharmacy_name": "WASHOE TRIBAL HEALTH CLINIC #1","address1": "1559 WATASHEMU DR","address2": "","city": "GARDNERVILLE","state": "NV","zip": "89460","zip+4": "0000","phone": "7752654215","NPI": "     1447273438"}, 
{"id": 30343,"ncpdp": "2904781","pharmacy_name": "WAL-MART PHARMACY #101838","address1": "3041 NORTH RAINBOW BLVD","address2": "","city": "LAS VEGAS","state": "NV","zip": "89108","zip+4": "0000","phone": "7026567331","NPI": "     1134146236"}, 
{"id": 30344,"ncpdp": "2904806","pharmacy_name": "SMITHS PHARMACY #385 #706385","address1": "2211 NORTH RAMPART","address2": "","city": "LAS VEGAS","state": "NV","zip": "89128","zip+4": "0000","phone": "7022561984","NPI": "     1124043740"}, 
{"id": 30345,"ncpdp": "2904921","pharmacy_name": "SAVON PHARMACY #6059","address1": "5500 BOULDER HWY","address2": "","city": "LAS VEGAS","state": "NV","zip": "89122","zip+4": "0000","phone": "7024357339","NPI": "     1255387809"}, 
{"id": 30346,"ncpdp": "2904957","pharmacy_name": "SAVON PHARMACY #6043","address1": "2851 GREEN VALLEY PKWY","address2": "","city": "HENDERSON","state": "NV","zip": "89014","zip+4": "0000","phone": "7024359849","NPI": "     1982650537"}, 
{"id": 30347,"ncpdp": "2904969","pharmacy_name": "SAVON PHARMACY #6019","address1": "190 N BOULDER HWY","address2": "","city": "HENDERSON","state": "NV","zip": "89015","zip+4": "0000","phone": "7025657805","NPI": "     1477594968"}, 
{"id": 30348,"ncpdp": "2904983","pharmacy_name": "SAVON PHARMACY #6046","address1": "1001 S RAINBOW BLVD","address2": "","city": "LAS VEGAS","state": "NV","zip": "89102","zip+4": "0000","phone": "7028773575","NPI": "     1790731347"}, 
{"id": 30349,"ncpdp": "2905000","pharmacy_name": "COSTCO PHARMACY #35","address1": "222 S MARTIN LUTHER KING BLVD","address2": "","city": "LAS VEGAS","state": "NV","zip": "89106","zip+4": "0000","phone": "7023845781","NPI": "     1811007438"}, 
{"id": 30350,"ncpdp": "2905098","pharmacy_name": "VONS #2393","address1": "4854 W LONE MOUNTAIN ROAD","address2": "","city": "LAS VEGAS","state": "NV","zip": "89130","zip+4": "0000","phone": "7026561484","NPI": "     1619906641"}, 
{"id": 30351,"ncpdp": "2905163","pharmacy_name": "WAL-MART PHARMACY #102050","address1": "300 EAST LAKE MEAD DRIVE","address2": "","city": "HENDERSON","state": "NV","zip": "89015","zip+4": "0000","phone": "7025645776","NPI": "     1043237142"}, 
{"id": 30352,"ncpdp": "2905187","pharmacy_name": "VONS #2511","address1": "2667 EAST WINDMILL PARKWAY","address2": "","city": "HENDERSON","state": "NV","zip": "89014","zip+4": "0000","phone": "7023611157","NPI": "     1386680148"}, 
{"id": 30353,"ncpdp": "2905276","pharmacy_name": "WAL-MART PHARMACY #102106","address1": "2863 NORTHTOWNE LANE","address2": "","city": "RENO","state": "NV","zip": "89512","zip+4": "0000","phone": "7753598777","NPI": "     1952328056"}, 
{"id": 30354,"ncpdp": "2905315","pharmacy_name": "SMITHS PHARMACY #341 #706341","address1": "601 S HIGHWAY 160","address2": "","city": "PAHRUMP","state": "NV","zip": "89048","zip+4": "0000","phone": "7757272404","NPI": "     1033134655"}, 
{"id": 30355,"ncpdp": "2905341","pharmacy_name": "SMITHS PHARMACY #389 #706389","address1": "1341 NORTH HIGHWAY 395","address2": "","city": "GARDNERVILLE","state": "NV","zip": "89410","zip+4": "0000","phone": "7757820160","NPI": "     1942225560"}, 
{"id": 30356,"ncpdp": "2905442","pharmacy_name": "SMITHS PHARMACY #388 #706388","address1": "1740 MOUNTAIN CITY HIGHWAY","address2": "","city": "ELKO","state": "NV","zip": "89801","zip+4": "0000","phone": "7757771337","NPI": "     1851316475"}, 
{"id": 30357,"ncpdp": "2905531","pharmacy_name": "SCOLARIS 23 PHARMACY #123","address1": "1329 HIGHWAY 395 12","address2": "","city": "GARDNERVILLE","state": "NV","zip": "89410","zip+4": "0000","phone": "7757825530","NPI": "     1114937364"}, 
{"id": 30358,"ncpdp": "2905543","pharmacy_name": "WAL-MART PHARMACY #102402","address1": "2944 MOUNTAIN CITY HWY","address2": "","city": "ELKO","state": "NV","zip": "89801","zip+4": "0000","phone": "7757786783","NPI": "     1083631196"}, 
{"id": 30359,"ncpdp": "2905567","pharmacy_name": "SMITHS PHARMACY #371 #706371","address1": "8555 WEST SAHARA AVE","address2": "","city": "LAS VEGAS","state": "NV","zip": "89117","zip+4": "0000","phone": "7023418181","NPI": "     1760407381"}, 
{"id": 30360,"ncpdp": "2905606","pharmacy_name": "WAL-MART PHARMACY #102189","address1": "4855 KIETZKE LANE","address2": "","city": "RENO","state": "NV","zip": "89502","zip+4": "0000","phone": "7758291995","NPI": "     1023036787"}, 
{"id": 30361,"ncpdp": "2905682","pharmacy_name": "SCOLARIS 25 PHARMACY #125","address1": "176 GOLDFIELD AVENUE","address2": "","city": "YERINGTON","state": "NV","zip": "89447","zip+4": "0000","phone": "7754631933","NPI": "     1275543662"}, 
{"id": 30362,"ncpdp": "2905719","pharmacy_name": "WAL-MART PHARMACY #102453","address1": "2333 RENO HIGHWAY","address2": "","city": "FALLON","state": "NV","zip": "89406","zip+4": "0000","phone": "7754281710","NPI": "     1891712907"}, 
{"id": 30363,"ncpdp": "2905721","pharmacy_name": "ARLINGTON CLINICAL PHARMACY NO","address1": "6630 SOUTH MCCARRAN BLVD A1","address2": "","city": "RENO","state": "NV","zip": "89509","zip+4": "0000","phone": "7758288200","NPI": "     1043314743"}, 
{"id": 30364,"ncpdp": "2905745","pharmacy_name": "WALGREEN DRUG STORE #3845","address1": "2280 N LAS VEGAS BLVD","address2": "","city": "NORTH LAS VEGAS","state": "NV","zip": "89030","zip+4": "0000","phone": "7026491401","NPI": "     1629083688"}, 
{"id": 30365,"ncpdp": "2905771","pharmacy_name": "WALGREEN DRUG STORE #3841","address1": "6101 W LAKE MEAD","address2": "","city": "LAS VEGAS","state": "NV","zip": "89108","zip+4": "0000","phone": "7026482776","NPI": "     1538174594"}, 
{"id": 30366,"ncpdp": "2905783","pharmacy_name": "WALGREEN DRUG STORE #3843","address1": "2995 E FLAMINGO","address2": "","city": "LAS VEGAS","state": "NV","zip": "89121","zip+4": "0000","phone": "7027376545","NPI": "     1447265400"}, 
{"id": 30367,"ncpdp": "2905822","pharmacy_name": "SAFEWAY #1512","address1": "4823 KIETZKE LANE","address2": "","city": "RENO","state": "NV","zip": "89502","zip+4": "0000","phone": "7758232323","NPI": "     1659307429"}, 
{"id": 30368,"ncpdp": "2905834","pharmacy_name": "RALEYS #108","address1": "18144 WEDGE PARKWAY","address2": "","city": "RENO","state": "NV","zip": "89511","zip+4": "0000","phone": "7758508920","NPI": "     1013027788"}, 
{"id": 30369,"ncpdp": "2905846","pharmacy_name": "SMITHS PHARMACY #342 #706342","address1": "350 SANDHILL","address2": "","city": "MESQUITE","state": "NV","zip": "89024","zip+4": "0000","phone": "7023468656","NPI": "     1679598296"}, 
{"id": 30370,"ncpdp": "2905858","pharmacy_name": "WALGREEN DRUG STORE #3871","address1": "1701 NORTH GREEN VALLEY","address2": "","city": "HENDERSON","state": "NV","zip": "89014","zip+4": "0000","phone": "7028975882","NPI": "     1356356315"}, 
{"id": 30371,"ncpdp": "2905860","pharmacy_name": "CVS PHARMACY # #09964","address1": "170 LEMMON DR","address2": "","city": "RENO","state": "NV","zip": "89506","zip+4": "0000","phone": "7756774884","NPI": "     1609819499"}, 
{"id": 30372,"ncpdp": "2905884","pharmacy_name": "ARLINGTON CLINICAL INFUSIONS E","address1": "350 W SILVER ST 300","address2": "","city": "ELKO","state": "NV","zip": "89801","zip+4": "0000","phone": "7757789770","NPI": "     1326159047"}, 
{"id": 30373,"ncpdp": "2905909","pharmacy_name": "WALGREEN DRUG STORE #3915","address1": "6401 W CHARLESTON BLVD","address2": "","city": "LAS VEGAS","state": "NV","zip": "89102","zip+4": "0000","phone": "7022597007","NPI": "     1174538136"}, 
{"id": 30374,"ncpdp": "2905935","pharmacy_name": "APRIA HEALTHCARE INFUSION DEPT","address1": "3955 W MESA VISTA AVE","address2": "SUITE 1","city": "LAS VEGAS","state": "NV","zip": "89118","zip+4": "0000","phone": "8007434872","NPI": "     1801965017"}, 
{"id": 30375,"ncpdp": "2905947","pharmacy_name": "SCOLARIS 26 PHARMACY #126","address1": "1300 DISC DRIVE","address2": "","city": "SPARKS","state": "NV","zip": "89436","zip+4": "0000","phone": "7756265005","NPI": "     1508876996"}, 
{"id": 30376,"ncpdp": "2906076","pharmacy_name": "CVS PHARMACY #09965","address1": "9430 DEL WEBB BLVD","address2": "","city": "LAS VEGAS","state": "NV","zip": "89134","zip+4": "0000","phone": "7022552554","NPI": "     1215979042"}, 
{"id": 30377,"ncpdp": "2906090","pharmacy_name": "ARLINGTON CLINICAL INFUSIONS R","address1": "6630 SOUTH MCCARRAN BLVD B14","address2": "","city": "RENO","state": "NV","zip": "89509","zip+4": "0000","phone": "7758288200","NPI": "     1013021997"}, 
{"id": 30378,"ncpdp": "2906127","pharmacy_name": "SMITHS PHARMACY #348 #706348","address1": "1000 NO GREEN VALLEY PKWY","address2": "","city": "HENDERSON","state": "NV","zip": "89014","zip+4": "0000","phone": "7022600065","NPI": "     1588689103"}, 
{"id": 30379,"ncpdp": "2906139","pharmacy_name": "SMITHS PHARMACY #390 #706390","address1": "1855 WEST WENDOVER BLVD","address2": "","city": "WENDOVER","state": "NV","zip": "89883","zip+4": "0000","phone": "7756643197","NPI": "     1396760914"}, 
{"id": 30380,"ncpdp": "2906141","pharmacy_name": "MIKES PHARMACY","address1": "1007 N CURRY ST","address2": "","city": "CARSON CITY","state": "NV","zip": "89703","zip+4": "0000","phone": "7758411400","NPI": "     1821182700"}, 
{"id": 30381,"ncpdp": "2906165","pharmacy_name": "WALGREEN DRUG STORE #3844","address1": "5011 E SAHARA AVE","address2": "","city": "LAS VEGAS","state": "NV","zip": "89142","zip+4": "0000","phone": "7024325630","NPI": "     1083629042"}, 
{"id": 30382,"ncpdp": "2906189","pharmacy_name": "WALGREEN DRUG STORE #3873","address1": "6865 W TROPICANA AVE","address2": "","city": "LAS VEGAS","state": "NV","zip": "89103","zip+4": "0000","phone": "7028710907","NPI": "     1891700852"}, 
{"id": 30383,"ncpdp": "2906191","pharmacy_name": "WALGREEN DRUG STORE #3922","address1": "7599 W LAKE MEAD BLVD","address2": "","city": "LAS VEGAS","state": "NV","zip": "89128","zip+4": "0000","phone": "7023634133","NPI": "     1700891769"}, 
{"id": 30384,"ncpdp": "2906204","pharmacy_name": "WALGREEN DRUG STORE #4137","address1": "9415 DESERT INN","address2": "","city": "LAS VEGAS","state": "NV","zip": "89117","zip+4": "0000","phone": "7022338980","NPI": "     1619982675"}, 
{"id": 30385,"ncpdp": "2906228","pharmacy_name": "WALGREEN DRUG STORE #4197","address1": "8500 W CHEYENNE AVE","address2": "","city": "LAS VEGAS","state": "NV","zip": "89129","zip+4": "0000","phone": "7026557229","NPI": "     1528073582"}, 
{"id": 30386,"ncpdp": "2906242","pharmacy_name": "RESOURCE PHARMACY","address1": "5 CACTUS GARDEN DR BLDG B","address2": "","city": "HENDERSON","state": "NV","zip": "89014","zip+4": "0000","phone": "7024564229","NPI": "     1245332055"}, 
{"id": 30387,"ncpdp": "2906254","pharmacy_name": "WALGREEN DRUG STORE #4242","address1": "9420 W LAKE MEAD","address2": "","city": "LAS VEGAS","state": "NV","zip": "89134","zip+4": "0000","phone": "7023634125","NPI": "     1437164498"}, 
{"id": 30388,"ncpdp": "2906266","pharmacy_name": "WALGREEN DRUG STORE #4106","address1": "1101 S LAS VEGAS BOULEVARD","address2": "","city": "LAS VEGAS","state": "NV","zip": "89104","zip+4": "0000","phone": "7024716840","NPI": "     1346255304"}, 
{"id": 30389,"ncpdp": "2906280","pharmacy_name": "VONS #2390","address1": "475 EAST WINDMILL LANE","address2": "","city": "LAS VEGAS","state": "NV","zip": "89123","zip+4": "0000","phone": "7028967414","NPI": "     1528097557"}, 
{"id": 30390,"ncpdp": "2906305","pharmacy_name": "CVS PHARMACY #09974","address1": "3360 S MCCARRAN BLVD","address2": "","city": "RENO","state": "NV","zip": "89502","zip+4": "0000","phone": "7758250557","NPI": "     1265476618"}, 
{"id": 30391,"ncpdp": "2906367","pharmacy_name": "CAMPUS PHARMACY III","address1": "4000 E CHARLESTON BLVD","address2": "STE B130","city": "LAS VEGAS","state": "NV","zip": "89104","zip+4": "0000","phone": "7029684038","NPI": "     1083683874"}, 
{"id": 30392,"ncpdp": "2906379","pharmacy_name": "WALGREEN DRUG STORE #4086","address1": "4470 BONANZA RD","address2": "","city": "LAS VEGAS","state": "NV","zip": "89110","zip+4": "0000","phone": "7025318020","NPI": "     1255346219"}, 
{"id": 30393,"ncpdp": "2906444","pharmacy_name": "SAFEWAY #1537","address1": "212 ELKS POINT ROAD","address2": "","city": "ZEPHYR COVE","state": "NV","zip": "89448","zip+4": "0000","phone": "7755861088","NPI": "     1639181506"}, 
{"id": 30394,"ncpdp": "2906456","pharmacy_name": "WAL-MART PHARMACY #102592","address1": "1807 WEST CRAIG ROAD","address2": "","city": "NORTH LAS VEGAS","state": "NV","zip": "89032","zip+4": "0000","phone": "7026336532","NPI": "     1700803814"}, 
{"id": 30395,"ncpdp": "2906468","pharmacy_name": "WAL-MART PHARMACY #102617","address1": "3010 POTATO ROAD","address2": "","city": "WINNEMUCCA","state": "NV","zip": "89445","zip+4": "0000","phone": "7756253888","NPI": "     1619994720"}, 
{"id": 30396,"ncpdp": "2906470","pharmacy_name": "WAL-MART PHARMACY #102593","address1": "2310 E SERENE AVENUE","address2": "","city": "LAS VEGAS","state": "NV","zip": "89123","zip+4": "0000","phone": "7022707837","NPI": "     1528085636"}, 
{"id": 30397,"ncpdp": "2906482","pharmacy_name": "VONS #2395","address1": "1940 VILLAGE CENTER CIRCLE","address2": "","city": "LAS VEGAS","state": "NV","zip": "89134","zip+4": "0000","phone": "7022403788","NPI": "     1437188463"}, 
{"id": 30398,"ncpdp": "2906494","pharmacy_name": "COMMUNITY HEALTH PHARMACY","address1": "1802 N CARSON ST","address2": "STE 100","city": "CARSON CITY","state": "NV","zip": "89701","zip+4": "0000","phone": "7758877049","NPI": "     1366476210"}, 
{"id": 30399,"ncpdp": "2906507","pharmacy_name": "VONS #2392","address1": "7530 WEST LAKE MEAD BOULEVARD","address2": "","city": "LAS VEGAS","state": "NV","zip": "89128","zip+4": "0000","phone": "7022284742","NPI": "     1346279379"}, 
{"id": 30400,"ncpdp": "2906519","pharmacy_name": "WALGREEN DRUG STORE #4433","address1": "4895 BOULDER HWY","address2": "","city": "LAS VEGAS","state": "NV","zip": "89121","zip+4": "0000","phone": "7028988201","NPI": "     1154338192"}, 
{"id": 30401,"ncpdp": "2906569","pharmacy_name": "RALEYS #102","address1": "2895 NORTH MCCARRAN BLVD","address2": "","city": "SPARKS","state": "NV","zip": "89431","zip+4": "0000","phone": "7023538818","NPI": "     1740390418"}, 
{"id": 30402,"ncpdp": "2906595","pharmacy_name": "CVS PHARMACY #09967","address1": "1950 VILLAGE CENTER CIRCLE","address2": "","city": "LAS VEGAS","state": "NV","zip": "89134","zip+4": "0000","phone": "7023635292","NPI": "     1891739231"}, 
{"id": 30403,"ncpdp": "2906658","pharmacy_name": "WALGREEN DRUG STORE #3842","address1": "2389 E WINDMILL LANE","address2": "","city": "LAS VEGAS","state": "NV","zip": "89123","zip+4": "0000","phone": "7028379528","NPI": "     1164437125"}, 
{"id": 30404,"ncpdp": "2906672","pharmacy_name": "SMITHS PHARMACY #376 #706376","address1": "2385 E WINDMILL","address2": "","city": "LAS VEGAS","state": "NV","zip": "89123","zip+4": "0000","phone": "7028370821","NPI": "     1578588190"}, 
{"id": 30405,"ncpdp": "2906684","pharmacy_name": "SAVON PHARMACY #6093","address1": "1008 NEVADA HWY","address2": "","city": "BOULDER CITY","state": "NV","zip": "89005","zip+4": "0000","phone": "7022937592","NPI": "     1508812124"}, 
{"id": 30406,"ncpdp": "2906709","pharmacy_name": "WALGREEN DRUG STORE #4579","address1": "2400 E TROPICANA","address2": "","city": "LAS VEGAS","state": "NV","zip": "89121","zip+4": "0000","phone": "7024356284","NPI": "     1306853288"}, 
{"id": 30407,"ncpdp": "2906711","pharmacy_name": "UMC LIED PHARMACY","address1": "1524 PINTO LN","address2": "","city": "LAS VEGAS","state": "NV","zip": "89106","zip+4": "0000","phone": "7023832677","NPI": "     1891820775"}, 
{"id": 30408,"ncpdp": "2906824","pharmacy_name": "TARGET PHARMACY #1524","address1": "4155 S GRAND CANYON DR","address2": "","city": "LAS VEGAS","state": "NV","zip": "89147","zip+4": "0000","phone": "7022511450","NPI": "     1679595375"}, 
{"id": 30409,"ncpdp": "2906836","pharmacy_name": "CVS PHARMACY #05144","address1": "1425 W LAKE MEAD BLVD","address2": "","city": "LAS VEGAS","state": "NV","zip": "89106","zip+4": "0000","phone": "7026465031","NPI": "     1750480067"}, 
{"id": 30410,"ncpdp": "2906848","pharmacy_name": "NORTHERN NEVADA HOPES","address1": "580 W 5TH ST","address2": "STE 12A","city": "RENO","state": "NV","zip": "89503","zip+4": "0000","phone": "7753481306","NPI": "     1033206339"}, 
{"id": 30411,"ncpdp": "2906850","pharmacy_name": "CVS PHARMACY #05286","address1": "21 W HORIZON RIDGE PARKWAY","address2": "","city": "HENDERSON","state": "NV","zip": "89012","zip+4": "0000","phone": "7025665064","NPI": "     1669571972"}, 
{"id": 30412,"ncpdp": "2906862","pharmacy_name": "SMITHS PHARMACY #344 #706344","address1": "175 LEMMON DRIVE","address2": "","city": "RENO","state": "NV","zip": "89506","zip+4": "0000","phone": "7759713320","NPI": "     1487679007"}, 
{"id": 30413,"ncpdp": "2906874","pharmacy_name": "CVS PHARMACY #04786","address1": "2735 S MARYLAND PARKWAY","address2": "","city": "LAS VEGAS","state": "NV","zip": "89109","zip+4": "0000","phone": "7027327963","NPI": "     1023118460"}, 
{"id": 30414,"ncpdp": "2906886","pharmacy_name": "WALGREEN DRUG STORE #7499","address1": "495 FREMONT ST","address2": "","city": "LAS VEGAS","state": "NV","zip": "89101","zip+4": "0000","phone": "7023851053","NPI": "     1457366429"}, 
{"id": 30415,"ncpdp": "2906901","pharmacy_name": "WAL-MART PHARMACY #105070","address1": "5200 S FORT APACHE ROAD","address2": "","city": "LAS VEGAS","state": "NV","zip": "89148","zip+4": "0000","phone": "7023671003","NPI": "     1346267457"}, 
{"id": 30416,"ncpdp": "2906913","pharmacy_name": "WAL-MART PHARMACY #105101","address1": "300 SOUTH HIGHWAY 160","address2": "","city": "PAHRUMP","state": "NV","zip": "89048","zip+4": "0000","phone": "7755371412","NPI": "     1255358362"}, 
{"id": 30417,"ncpdp": "2906925","pharmacy_name": "VONS #1970","address1": "8540 WEST DESERT INN ROAD","address2": "","city": "LAS VEGAS","state": "NV","zip": "89117","zip+4": "0000","phone": "7022401784","NPI": "     1164451191"}, 
{"id": 30418,"ncpdp": "2906937","pharmacy_name": "SAFEWAY #2656","address1": "2858 VISTA BLVD","address2": "","city": "SPARKS","state": "NV","zip": "89434","zip+4": "0000","phone": "7753528475","NPI": "     1073542007"}, 
{"id": 30419,"ncpdp": "2906949","pharmacy_name": "LONGS DRUG STORE #09586","address1": "55 DAMONTE RANCH PKWY","address2": "","city": "RENO","state": "NV","zip": "89521","zip+4": "0000","phone": "7758529304","NPI": "     1881637643"}, 
{"id": 30420,"ncpdp": "2906951","pharmacy_name": "CVS PHARMACY #02930","address1": "4595 E FLAMINGO RD","address2": "","city": "LAS VEGAS","state": "NV","zip": "89121","zip+4": "0000","phone": "7024356974","NPI": "     1578662888"}, 
{"id": 30421,"ncpdp": "2906963","pharmacy_name": "CVS PHARMACY #04784","address1": "3270 S BUFFALO DRIVE","address2": "","city": "LAS VEGAS","state": "NV","zip": "89117","zip+4": "0000","phone": "7022563924","NPI": "     1487753794"}, 
{"id": 30422,"ncpdp": "2906975","pharmacy_name": "WALGREEN DRUG STORE #7450","address1": "4875 S FORT APACHE RD","address2": "","city": "LAS VEGAS","state": "NV","zip": "89147","zip+4": "0000","phone": "7028733514","NPI": "     1366457335"}, 
{"id": 30423,"ncpdp": "2906999","pharmacy_name": "TARGET PHARMACY #0680","address1": "605 STEPHANIE STREET","address2": "","city": "HENDERSON","state": "NV","zip": "89014","zip+4": "0000","phone": "7024510034","NPI": "     1841212545"}, 
{"id": 30424,"ncpdp": "2907004","pharmacy_name": "TARGET PHARMACY #0850","address1": "3550 SOUTH RAINBOW BLVD","address2": "","city": "LAS VEGAS","state": "NV","zip": "89014","zip+4": "0000","phone": "7022524600","NPI": "     1750303459"}, 
{"id": 30425,"ncpdp": "2907016","pharmacy_name": "WALGREEN DRUG STORE #6227","address1": "451 S DECATUR BLVD","address2": "","city": "LAS VEGAS","state": "NV","zip": "89107","zip+4": "0000","phone": "7028701296","NPI": "     1275548240"}, 
{"id": 30426,"ncpdp": "2907028","pharmacy_name": "FOOD4LESS PHARMACY #704791","address1": "3250 E FLAMINGO RD","address2": "","city": "LAS VEGAS","state": "NV","zip": "89121","zip+4": "0000","phone": "7024338375","NPI": "     1023186921"}, 
{"id": 30427,"ncpdp": "2907030","pharmacy_name": "CVS PHARMACY # #03948","address1": "2878 VISTA BLVD","address2": "","city": "SPARKS","state": "NV","zip": "89434","zip+4": "0000","phone": "7753569708","NPI": "     1790728566"}, 
{"id": 30428,"ncpdp": "2907042","pharmacy_name": "FOOD4LESS PHARMACY #704785","address1": "1301 S BOULDER HIGHWAY","address2": "","city": "HENDERSON","state": "NV","zip": "89015","zip+4": "0000","phone": "7025662014","NPI": "     1669540563"}, 
{"id": 30429,"ncpdp": "2907066","pharmacy_name": "SMITHS PHARMACY #370 #706370","address1": "3160 NORTH RAINBOW BLVD","address2": "","city": "LAS VEGAS","state": "NV","zip": "89108","zip+4": "0000","phone": "7026583870","NPI": "     1295750818"}, 
{"id": 30430,"ncpdp": "2907105","pharmacy_name": "SMITHS PHARMACY #364 #706364","address1": "10600 SOUTHERN HIGHLANDS PARKW","address2": "","city": "LAS VEGAS","state": "NV","zip": "89141","zip+4": "0000","phone": "7022540823","NPI": "     1104841725"}, 
{"id": 30431,"ncpdp": "2907129","pharmacy_name": "SCOLARIS 1 PHARMACY #101","address1": "950 HOLMAN WAY","address2": "","city": "SPARKS","state": "NV","zip": "89431","zip+4": "0000","phone": "7753581515","NPI": "     1104823517"}, 
{"id": 30432,"ncpdp": "2907131","pharmacy_name": "CVS PHARMACY #05792","address1": "2425 EAST DESERT INN RD","address2": "","city": "LAS VEGAS","state": "NV","zip": "89121","zip+4": "0000","phone": "7027340258","NPI": "     1932209376"}, 
{"id": 30433,"ncpdp": "2907179","pharmacy_name": "CVS PHARMACY #05043","address1": "9695 S MARYLAND PARKWAY","address2": "","city": "LAS VEGAS","state": "NV","zip": "89123","zip+4": "0000","phone": "7028961283","NPI": "     1841390283"}, 
{"id": 30434,"ncpdp": "2907181","pharmacy_name": "WAL-MART PHARMACY #103254","address1": "5260 WEST 7TH STREET","address2": "","city": "RENO","state": "NV","zip": "89523","zip+4": "0000","phone": "7756242080","NPI": "     1164449278"}, 
{"id": 30435,"ncpdp": "2907218","pharmacy_name": "WALGREEN DRUG STORE #7282","address1": "4835 S DURANGO DR","address2": "","city": "LAS VEGAS","state": "NV","zip": "89147","zip+4": "0000","phone": "7028761374","NPI": "     1215944194"}, 
{"id": 30436,"ncpdp": "2907220","pharmacy_name": "VONS #2614","address1": "7405 S DURANGO DR","address2": "","city": "LAS VEGAS","state": "NV","zip": "89113","zip+4": "0000","phone": "7024072524","NPI": "     1982633913"}, 
{"id": 30437,"ncpdp": "2907232","pharmacy_name": "SAVON PHARMACY #6021","address1": "10140 W FLAMINGO RD","address2": "","city": "LAS VEGAS","state": "NV","zip": "89147","zip+4": "0000","phone": "7025621832","NPI": "     1609822253"}, 
{"id": 30438,"ncpdp": "2907244","pharmacy_name": "CVS PHARMACY #05811","address1": "1990 W SUNSET RD","address2": "","city": "HENDERSON","state": "NV","zip": "89014","zip+4": "0000","phone": "7024540671","NPI": "     1740389055"}, 
{"id": 30439,"ncpdp": "2907256","pharmacy_name": "SCOLARIS 28 PHARMACY #128","address1": "6255 SHARLANDS AVENUE EAST","address2": "","city": "RENO","state": "NV","zip": "89523","zip+4": "0000","phone": "7757467311","NPI": "     1336159730"}, 
{"id": 30440,"ncpdp": "2907268","pharmacy_name": "WALGREEN DRUG STORE #7164","address1": "101 E LAKE MEAD PKWY","address2": "","city": "HENDERSON","state": "NV","zip": "89015","zip+4": "0000","phone": "7025661936","NPI": "     1184639155"}, 
{"id": 30441,"ncpdp": "2907282","pharmacy_name": "SMITHS PHARMACY #361 #706361","address1": "4700 WEST ANN ROAD","address2": "","city": "LAS VEGAS","state": "NV","zip": "89031","zip+4": "0000","phone": "7023957510","NPI": "     1013932631"}, 
{"id": 30442,"ncpdp": "2907294","pharmacy_name": "OLSENS CORNER DRUG STORE","address1": "147 S BRIDGE ST","address2": "","city": "WINNEMUCCA","state": "NV","zip": "89445","zip+4": "0000","phone": "7756252777","NPI": "     1740238948"}, 
{"id": 30443,"ncpdp": "2907307","pharmacy_name": "CVS PHARMACY #06717","address1": "60 N VALLE VERDE DRIVE","address2": "","city": "HENDERSON","state": "NV","zip": "89074","zip+4": "0000","phone": "7028980036","NPI": "     1659470961"}, 
{"id": 30444,"ncpdp": "2907319","pharmacy_name": "SPECTRUM PHARMACY SERVICES LLC","address1": "15 CACTUS GARDEN DR","address2": "BLDG C","city": "HENDERSON","state": "NV","zip": "89014","zip+4": "0000","phone": "7028532200","NPI": "     1740276278"}, 
{"id": 30445,"ncpdp": "2907321","pharmacy_name": "CVS PHARMACY #05113","address1": "7295 S RAINBOW BLVD","address2": "","city": "LAS VEGAS","state": "NV","zip": "89118","zip+4": "0000","phone": "7022700163","NPI": "     1568561876"}, 
{"id": 30446,"ncpdp": "2907333","pharmacy_name": "WALGREEN DRUG STORE #2662","address1": "12645 S VIRGINIA ST","address2": "","city": "RENO","state": "NV","zip": "89511","zip+4": "8973","phone": "7758539880","NPI": "     1992710966"}, 
{"id": 30447,"ncpdp": "2907345","pharmacy_name": "WALGREEN DRUG STORE #7841","address1": "10510 SOUTHERN HIGHLANDS PKWY","address2": "","city": "LAS VEGAS","state": "NV","zip": "89141","zip+4": "0000","phone": "7022601720","NPI": "     1801801873"}, 
{"id": 30448,"ncpdp": "2907357","pharmacy_name": "CVS PHARMACY #04495","address1": "5545 CAMINO AL NORTE","address2": "","city": "NORTH LAS VEGAS","state": "NV","zip": "89031","zip+4": "0000","phone": "7026492625","NPI": "     1750481198"}, 
{"id": 30449,"ncpdp": "2965400","pharmacy_name": "WALGREEN DRUG STORE #4854","address1": "4771 W CRAIG RD","address2": "","city": "NORTH LAS VEGAS","state": "NV","zip": "89030","zip+4": "0000","phone": "7026560200","NPI": "     1124035001"}, 
{"id": 30450,"ncpdp": "2966313","pharmacy_name": "WALGREEN DRUG STORE #4856","address1": "3400 BOULDER HWY","address2": "","city": "LAS VEGAS","state": "NV","zip": "89121","zip+4": "0000","phone": "7024326920","NPI": "     1033126917"}, 
{"id": 30451,"ncpdp": "2966642","pharmacy_name": "WALGREEN DRUG STORE #4788","address1": "1465 E WILLIAM ST","address2": "","city": "CARSON CITY","state": "NV","zip": "89701","zip+4": "0000","phone": "7758413900","NPI": "     1710992789"}, 
{"id": 30452,"ncpdp": "2966755","pharmacy_name": "WALGREEN DRUG STORE #3872","address1": "8633 W CHARLESTON BLVD","address2": "","city": "LAS VEGAS","state": "NV","zip": "89117","zip+4": "0000","phone": "7023839650","NPI": "     1942217823"}, 
{"id": 30453,"ncpdp": "2967226","pharmacy_name": "WALGREEN DRUG STORE #5015","address1": "9305 S EASTERN AVE","address2": "","city": "LAS VEGAS","state": "NV","zip": "89123","zip+4": "0000","phone": "7029149799","NPI": "     1851308738"}, 
{"id": 30454,"ncpdp": "2967442","pharmacy_name": "WALGREEN DRUG STORE #4855","address1": "6001 W CHEYENNE AVE","address2": "","city": "LAS VEGAS","state": "NV","zip": "89108","zip+4": "0000","phone": "7023960913","NPI": "     1760499644"}, 
{"id": 30455,"ncpdp": "2967555","pharmacy_name": "LONGS DRUG STORE #09981","address1": "3240 HIGHWAY 50 EAST","address2": "","city": "CARSON CITY","state": "NV","zip": "89701","zip+4": "0000","phone": "7758837011","NPI": "     1609819473"}, 
{"id": 30456,"ncpdp": "2968026","pharmacy_name": "SCOLARIS 15 PHARMACY #115","address1": "HWY 95 AND AIRFORCE RD","address2": "","city": "TONOPAH","state": "NV","zip": "89049","zip+4": "0000","phone": "7754826711","NPI": "     1336194018"}, 
{"id": 30457,"ncpdp": "2968355","pharmacy_name": "WALGREEN DRUG STORE #5013","address1": "2882 S MARYLAND PKWY","address2": "","city": "LAS VEGAS","state": "NV","zip": "89109","zip+4": "0000","phone": "7028662586","NPI": "     1629083696"}, 
{"id": 30458,"ncpdp": "2968800","pharmacy_name": "WALGREEN DRUG STORE #4763","address1": "3765 LAS VEGAS BLVD SOUTH","address2": "","city": "LAS VEGAS","state": "NV","zip": "89119","zip+4": "0000","phone": "7027399638","NPI": "     1679580559"}, 
{"id": 30459,"ncpdp": "2969155","pharmacy_name": "WALGREEN DRUG STORE #4789","address1": "3495 S VIRGINIA ST","address2": "","city": "RENO","state": "NV","zip": "89502","zip+4": "0000","phone": "7758240800","NPI": "     1538174503"}, 
{"id": 30460,"ncpdp": "2969268","pharmacy_name": "SMITHS PHARMACY #392 #706392","address1": "2200 HWY 50 E","address2": "","city": "DAYTON","state": "NV","zip": "89403","zip+4": "0000","phone": "7752460920","NPI": "     1922023548"}, 
{"id": 30461,"ncpdp": "2969371","pharmacy_name": "TARGET PHARMACY #0826","address1": "3210 N TENAYA WAY","address2": "","city": "LAS VEGAS","state": "NV","zip": "89129","zip+4": "0000","phone": "7023967840","NPI": "     1669494365"}, 
{"id": 30462,"ncpdp": "2970413","pharmacy_name": "WALGREEN DRUG STORE #5014","address1": "7845 W FLAMINGO RD","address2": "","city": "LAS VEGAS","state": "NV","zip": "89147","zip+4": "0000","phone": "7028711810","NPI": "     1588671465"}, 
{"id": 30463,"ncpdp": "2970968","pharmacy_name": "SMITHS PHARMACY #347 #706347","address1": "9851 W CHARLESTON BLVD","address2": "","city": "LAS VEGAS","state": "NV","zip": "89117","zip+4": "0000","phone": "7029461204","NPI": "     1427075043"}, 
{"id": 30464,"ncpdp": "2971542","pharmacy_name": "WALGREEN DRUG STORE #4755","address1": "3480 S JONES BLVD","address2": "","city": "LAS VEGAS","state": "NV","zip": "89146","zip+4": "6709","phone": "7028711155","NPI": "     1396752275"}, 
{"id": 30465,"ncpdp": "2971768","pharmacy_name": "WALGREEN DRUG STORE #5154","address1": "4905 W TROPICANA AVE","address2": "","city": "LAS VEGAS","state": "NV","zip": "89103","zip+4": "0000","phone": "7028890911","NPI": "     1205843182"}, 
{"id": 30466,"ncpdp": "2972013","pharmacy_name": "TARGET PHARMACY #1207","address1": "8750 WEST CHARLESTON BLVD","address2": "","city": "LAS VEGAS","state": "NV","zip": "89117","zip+4": "0000","phone": "7029332315","NPI": "     1578585279"}, 
{"id": 30467,"ncpdp": "2972126","pharmacy_name": "TARGET PHARMACY #1171","address1": "9725 S EASTERN AVENUE","address2": "","city": "LAS VEGAS","state": "NV","zip": "89123","zip+4": "0000","phone": "7029149715","NPI": "     1487676185"}, 
{"id": 30468,"ncpdp": "2972239","pharmacy_name": "RESOURCE PHARMACEUTICAL SVCS","address1": "9475 DOUBLE R BLVD","address2": "STE 8","city": "RENO","state": "NV","zip": "89521","zip+4": "0000","phone": "7758521940","NPI": "     1396847133"}, 
{"id": 30469,"ncpdp": "2972455","pharmacy_name": "BIOSCRIP PHARMACY #4031","address1": "901 S RANCHO DR","address2": "STE 20","city": "LAS VEGAS","state": "NV","zip": "89106","zip+4": "0000","phone": "7024717828","NPI": "     1760485692"}, 
{"id": 30470,"ncpdp": "2972897","pharmacy_name": "ONEPOINT PATIENT CARE","address1": "444 E WARM SPRINGS RD","address2": "STE 112","city": "LAS VEGAS","state": "NV","zip": "89119","zip+4": "0000","phone": "7028761616","NPI": "     1780771972"}, 
{"id": 30471,"ncpdp": "2974384","pharmacy_name": "SMITHS PHARMACY #346 #706346","address1": "10616 SOUTH EASTERN AVENUE","address2": "","city": "HENDERSON","state": "NV","zip": "89052","zip+4": "0000","phone": "7026148674","NPI": "     1740205368"}, 
{"id": 30472,"ncpdp": "2975297","pharmacy_name": "SMITHS PHARMACY #345 #706345","address1": "5564 CAMINO AL NORTE","address2": "","city": "NORTH LAS VEGAS","state": "NV","zip": "89031","zip+4": "0000","phone": "7023993186","NPI": "     1336164813"}, 
{"id": 30473,"ncpdp": "2976439","pharmacy_name": "TARGET PHARMACY #1243","address1": "2189 WEST CRAIG RD","address2": "","city": "N LAS VEGAS","state": "NV","zip": "89032","zip+4": "0000","phone": "7026481153","NPI": "     1396767992"}, 
{"id": 30474,"ncpdp": "2976542","pharmacy_name": "TARGET PHARMACY #0263","address1": "278 SOUTH DECATUR","address2": "","city": "LAS VEGAS","state": "NV","zip": "89107","zip+4": "0000","phone": "7028780400","NPI": "     1205858800"}, 
{"id": 30475,"ncpdp": "2976655","pharmacy_name": "WALGREEN DRUG STORE #5369","address1": "1500 S BOULDER HWY","address2": "","city": "HENDERSON","state": "NV","zip": "89015","zip+4": "0000","phone": "7025675400","NPI": "     1295742179"}, 
{"id": 30476,"ncpdp": "2976768","pharmacy_name": "GOLDEN HEALTH PHARMACY #12","address1": "247 BLUFFS AVE","address2": "BLDG 1","city": "ELKO","state": "NV","zip": "89801","zip+4": "0000","phone": "7757535393","NPI": "     1760525463"}, 
{"id": 30477,"ncpdp": "2976871","pharmacy_name": "WALGREEN DRUG STORE #4790","address1": "5082 E LAKE MEAD BLVD","address2": "","city": "LAS VEGAS","state": "NV","zip": "89115","zip+4": "0000","phone": "7025313014","NPI": "     1447265418"}, 
{"id": 30478,"ncpdp": "2977342","pharmacy_name": "KMART PHARMACY #9389","address1": "7501 W WASHINGTON","address2": "","city": "LAS VEGAS","state": "NV","zip": "89128","zip+4": "0000","phone": "7022551421","NPI": "     1336170463"}, 
{"id": 30479,"ncpdp": "2977455","pharmacy_name": "WALGREEN DRUG STORE #5646","address1": "770 S HWY 160","address2": "","city": "PAHRUMP","state": "NV","zip": "89048","zip+4": "0000","phone": "7757518388","NPI": "     1356356323"}, 
{"id": 30480,"ncpdp": "2977568","pharmacy_name": "WALGREEN DRUG STORE #5814","address1": "1445 W CRAIG","address2": "","city": "NORTH LAS VEGAS","state": "NV","zip": "89030","zip+4": "0000","phone": "7026493330","NPI": "     1104833086"}, 
{"id": 30481,"ncpdp": "2977784","pharmacy_name": "TARGET PHARMACY #0265","address1": "4001 SOUTH MARYLAND PARKWAY","address2": "","city": "LAS VEGAS","state": "NV","zip": "89119","zip+4": "0000","phone": "7027321840","NPI": "     1114949716"}, 
{"id": 30482,"ncpdp": "2978368","pharmacy_name": "WALGREEN DRUG STORE #5619","address1": "3030 LAS VEGAS BLVD N","address2": "","city": "LAS VEGAS","state": "NV","zip": "89030","zip+4": "0000","phone": "7026421901","NPI": "     1760498109"}, 
{"id": 30483,"ncpdp": "2978584","pharmacy_name": "SAMS PHARMACY #106261","address1": "1910 EAST SERENE","address2": "","city": "LAS VEGAS","state": "NV","zip": "89123","zip+4": "0000","phone": "7026143387","NPI": "     1073530184"}, 
{"id": 30484,"ncpdp": "2978813","pharmacy_name": "WAL-MART PHARMACY #102837","address1": "4350 NORTH NELLIS BLVD","address2": "","city": "LAS VEGAS","state": "NV","zip": "89115","zip+4": "0000","phone": "7026432023","NPI": "     1982621090"}, 
{"id": 30485,"ncpdp": "2979055","pharmacy_name": "VONS #1688","address1": "820 SOUTH RAMPART BLVD","address2": "","city": "LAS VEGAS","state": "NV","zip": "89145","zip+4": "0000","phone": "7029465333","NPI": "     1790714723"}, 
{"id": 30486,"ncpdp": "2979168","pharmacy_name": "WALGREEN DRUG STORE #5570","address1": "6650 E LAKE MEAD BLVD","address2": "","city": "LAS VEGAS","state": "NV","zip": "89156","zip+4": "0000","phone": "7024382258","NPI": "     1265447239"}, 
{"id": 30487,"ncpdp": "2979271","pharmacy_name": "WALGREEN DRUG STORE #6310","address1": "6820 W ANN","address2": "","city": "LAS VEGAS","state": "NV","zip": "89130","zip+4": "0000","phone": "7026453014","NPI": "     1174538144"}, 
{"id": 30488,"ncpdp": "2979384","pharmacy_name": "WALGREEN DRUG STORE #5311","address1": "1180 E FLAMINGO RD","address2": "","city": "LAS VEGAS","state": "NV","zip": "89119","zip+4": "0000","phone": "7028369095","NPI": "     1083629059"}, 
{"id": 30489,"ncpdp": "2979497","pharmacy_name": "WALGREEN DRUG STORE #6167","address1": "3025 LAS VEGAS BLVD SOUTH","address2": "","city": "LAS VEGAS","state": "NV","zip": "89109","zip+4": "0000","phone": "7028360818","NPI": "     1013924992"}, 
{"id": 30490,"ncpdp": "2979500","pharmacy_name": "SMITHS PHARMACY #394 #706394","address1": "9750 S MARYLAND PARKWAY","address2": "","city": "LAS VEGAS","state": "NV","zip": "89123","zip+4": "7119","phone": "7026171074","NPI": "     1336166958"}, 
{"id": 30491,"ncpdp": "2979839","pharmacy_name": "SAVON PHARMACY #6091","address1": "5881 E CHARLESTON BLVD","address2": "","city": "LAS VEGAS","state": "NV","zip": "89110","zip+4": "0000","phone": "7024571503","NPI": "     1518913169"}, 
{"id": 30492,"ncpdp": "2979942","pharmacy_name": "COSTCO PHARMACY #127","address1": "700 OLD CLEAR CREEK RD","address2": "","city": "CARSON CITY","state": "NV","zip": "89705","zip+4": "0000","phone": "7758812502","NPI": "     1720198344"}, 
{"id": 30493,"ncpdp": "2980084","pharmacy_name": "WALGREEN DRUG STORE #6311","address1": "3808 E TROPICANA AVE","address2": "","city": "LAS VEGAS","state": "NV","zip": "89121","zip+4": "0000","phone": "7025474448","NPI": "     1922015809"}, 
{"id": 30494,"ncpdp": "2980426","pharmacy_name": "SAMS PHARMACY #106257","address1": "8080 WEST TROPICAL PKWY","address2": "","city": "LAS VEGAS","state": "NV","zip": "89149","zip+4": "0000","phone": "7025157214","NPI": "     1790702801"}, 
{"id": 30495,"ncpdp": "2980539","pharmacy_name": "WAL-MART PHARMACY #102884","address1": "8060 WEST TROPICAL PKWY","address2": "","city": "LAS VEGAS","state": "NV","zip": "89149","zip+4": "0000","phone": "7028393625","NPI": "     1609893718"}, 
{"id": 30496,"ncpdp": "2980642","pharmacy_name": "WAL-MART PHARMACY #102838","address1": "540 MARKS STREET","address2": "","city": "HENDERSON","state": "NV","zip": "89014","zip+4": "0000","phone": "7025474904","NPI": "     1518984624"}, 
{"id": 30497,"ncpdp": "2981000","pharmacy_name": "SAVON PHARMACY #6002","address1": "201 S STEPHANIE ST","address2": "","city": "HENDERSON","state": "NV","zip": "89012","zip+4": "0000","phone": "7024070258","NPI": "     1427004076"}, 
{"id": 30498,"ncpdp": "2981113","pharmacy_name": "SAVON PHARMACY #6014","address1": "575 COLLEGE DR","address2": "","city": "HENDERSON","state": "NV","zip": "89015","zip+4": "0000","phone": "7025680259","NPI": "     1336195981"}, 
{"id": 30499,"ncpdp": "2981442","pharmacy_name": "WALGREEN DRUG STORE #6425","address1": "900 N RANCHO DR","address2": "","city": "LAS VEGAS","state": "NV","zip": "89106","zip+4": "0000","phone": "7026462604","NPI": "     1891700860"}, 
{"id": 30500,"ncpdp": "2982242","pharmacy_name": "SAVON PHARMACY #6062","address1": "2885 E DESERT INN","address2": "","city": "LAS VEGAS","state": "NV","zip": "89121","zip+4": "0000","phone": "7027962952","NPI": "     1245286897"}, 
{"id": 30501,"ncpdp": "2982468","pharmacy_name": "WALGREEN DRUG STORE #6545","address1": "11001 S EASTERN AVE","address2": "","city": "HENDERSON","state": "NV","zip": "89052","zip+4": "0000","phone": "7029488350","NPI": "     1700891777"}, 
{"id": 30502,"ncpdp": "2982571","pharmacy_name": "WALGREEN DRUG STORE #6424","address1": "1360 W HORIZON RIDGE PKWY","address2": "","city": "HENDERSON","state": "NV","zip": "89012","zip+4": "0000","phone": "7025689043","NPI": "     1619982683"}, 
{"id": 30503,"ncpdp": "2982684","pharmacy_name": "VONS #1795","address1": "2511 ANTHEM VILLAGE DRIVE","address2": "","city": "HENDERSON","state": "NV","zip": "89052","zip+4": "0000","phone": "7026174526","NPI": "     1194761957"}, 
{"id": 30504,"ncpdp": "2982797","pharmacy_name": "SAVON PHARMACY #6061","address1": "4850 W CRAIG RD","address2": "","city": "LAS VEGAS","state": "NV","zip": "89130","zip+4": "0000","phone": "7025151466","NPI": "     1154377703"}, 
{"id": 30505,"ncpdp": "2982800","pharmacy_name": "WALGREEN DRUG STORE #5862","address1": "401 N ARROYO GRANDE BLVD","address2": "","city": "HENDERSON","state": "NV","zip": "89014","zip+4": "0000","phone": "7024363472","NPI": "     1528073590"}, 
{"id": 30506,"ncpdp": "2982913","pharmacy_name": "EMERALD PHARMACY","address1": "500 S MARTIN LUTHER KING BLVD","address2": "","city": "LAS VEGAS","state": "NV","zip": "89106","zip+4": "0000","phone": "7026786776","NPI": "     1942341896"}, 
{"id": 30507,"ncpdp": "2983042","pharmacy_name": "KMART PHARMACY #9819","address1": "10405 SOUTH EASTERN AVENUE","address2": "","city": "HENDERSON","state": "NV","zip": "89052","zip+4": "0000","phone": "7024079011","NPI": "     1245261379"}, 
{"id": 30508,"ncpdp": "2983268","pharmacy_name": "SAMS PHARMACY #106382","address1": "7175 SPRING MOUNTAIN ROAD","address2": "","city": "LAS VEGAS","state": "NV","zip": "89117","zip+4": "0000","phone": "7022471129","NPI": "     1427075530"}, 
{"id": 30509,"ncpdp": "2983371","pharmacy_name": "WAL-MART PHARMACY #103277","address1": "155 DAMONTE RANCH PKWY","address2": "","city": "RENO","state": "NV","zip": "89511","zip+4": "0000","phone": "7758536406","NPI": "     1336166446"}, 
{"id": 30510,"ncpdp": "2983484","pharmacy_name": "EVERGREEN DRUGS INC","address1": "10001 S EASTERN AVE","address2": "STE 105","city": "HENDERSON","state": "NV","zip": "89052","zip+4": "0000","phone": "7022691354","NPI": "     1396857421"}, 
{"id": 30511,"ncpdp": "2983597","pharmacy_name": "COSTCO PHARMACY #685","address1": "801 SOUTH PAVILION DRIVE","address2": "","city": "LAS VEGAS","state": "NV","zip": "89144","zip+4": "0000","phone": "7023522055","NPI": "     1457461071"}, 
{"id": 30512,"ncpdp": "2983600","pharmacy_name": "SMITHS PHARMACY #396 #706396","address1": "9350 WEST FLAMINGO RD","address2": "","city": "LAS VEGAS","state": "NV","zip": "89147","zip+4": "0000","phone": "7022407055","NPI": "     1659396273"}, 
{"id": 30513,"ncpdp": "2983713","pharmacy_name": "SAVON PHARMACY #6016","address1": "10250 W CHARLESTON BLVD","address2": "","city": "LAS VEGAS","state": "NV","zip": "89135","zip+4": "0000","phone": "7028387548","NPI": "     1063468619"}, 
{"id": 30514,"ncpdp": "2983826","pharmacy_name": "TARGET PHARMACY #1363","address1": "6845 SIERRA CENTER PKWY","address2": "","city": "RENO","state": "NV","zip": "89511","zip+4": "0000","phone": "7758538916","NPI": "     1023030624"}, 
{"id": 30515,"ncpdp": "2983939","pharmacy_name": "SAMS PHARMACY #108177","address1": "5101 S PECOS ROAD","address2": "","city": "LAS VEGAS","state": "NV","zip": "89120","zip+4": "0000","phone": "7024566171","NPI": "     1245257351"}, 
{"id": 30516,"ncpdp": "2984171","pharmacy_name": "CVS PHARMACY #02955","address1": "3290 S FORT APACHE RD","address2": "","city": "LAS VEGAS","state": "NV","zip": "89117","zip+4": "0000","phone": "7022542598","NPI": "     1477652782"}, 
{"id": 30517,"ncpdp": "2984284","pharmacy_name": "CVS PHARMACY #02929","address1": "7190 W CRAIG RD","address2": "","city": "LAS VEGAS","state": "NV","zip": "89129","zip+4": "0000","phone": "7026457495","NPI": "     1386743698"}, 
{"id": 30518,"ncpdp": "2984400","pharmacy_name": "SAVON PHARMACY #6004","address1": "4055 S DURANGO DR","address2": "","city": "LAS VEGAS","state": "NV","zip": "89147","zip+4": "0000","phone": "7028699503","NPI": "     1578501722"}, 
{"id": 30519,"ncpdp": "2984626","pharmacy_name": "SMITHS PHARMACY #399 #706399","address1": "4840 W DESERT INN ROAD","address2": "","city": "LAS VEGAS","state": "NV","zip": "89102","zip+4": "0000","phone": "7022481854","NPI": "     1568487189"}, 
{"id": 30520,"ncpdp": "2984842","pharmacy_name": "CVS PHARMACY #02990","address1": "6391 W LAKE MEAD BLVD","address2": "","city": "LAS VEGAS","state": "NV","zip": "89108","zip+4": "0000","phone": "7026463574","NPI": "     1669572004"}, 
{"id": 30521,"ncpdp": "2984955","pharmacy_name": "CVS PHARMACY #09548","address1": "2501 ANTHEM VILLAGE DR","address2": "","city": "HENDERSON","state": "NV","zip": "89052","zip+4": "0000","phone": "7029904613","NPI": "     1265475057"}, 
{"id": 30522,"ncpdp": "2985084","pharmacy_name": "SAVON PHARMACY #6009","address1": "8410 FARM RD","address2": "","city": "LAS VEGAS","state": "NV","zip": "89131","zip+4": "0000","phone": "7026586669","NPI": "     1972559524"}, 
{"id": 30523,"ncpdp": "2985197","pharmacy_name": "CVS PHARMACY #02928","address1": "1825 EAST WARM SPRINGS RD","address2": "","city": "LAS VEGAS","state": "NV","zip": "89119","zip+4": "0000","phone": "7023616581","NPI": "     1194824409"}, 
{"id": 30524,"ncpdp": "2985200","pharmacy_name": "CVS PHARMACY #03172","address1": "4391 E WASHINGTON AVE","address2": "","city": "LAS VEGAS","state": "NV","zip": "89110","zip+4": "0000","phone": "7024522937","NPI": "     1003915315"}, 
{"id": 30525,"ncpdp": "2985313","pharmacy_name": "SUNRISE MEDICAL PHCY","address1": "3006 S MARYLAND PKWY","address2": "STE 101","city": "LAS VEGAS","state": "NV","zip": "89109","zip+4": "0000","phone": "7027322334","NPI": "     1154429496"}, 
{"id": 30526,"ncpdp": "2985426","pharmacy_name": "SAVON PHARMACY #6018","address1": "7151 W CRAIG RD","address2": "","city": "LAS VEGAS","state": "NV","zip": "89129","zip+4": "0000","phone": "7028399256","NPI": "     1417903030"}, 
{"id": 30527,"ncpdp": "2985539","pharmacy_name": "WAL-MART PHARMACY #103473","address1": "4505 WEST CHARLESTON BLVD","address2": "","city": "LAS VEGAS","state": "NV","zip": "89102","zip+4": "0000","phone": "7022585075","NPI": "     1154348266"}, 
{"id": 30528,"ncpdp": "2986000","pharmacy_name": "WALGREEN DRUG STORE #5295","address1": "750 N VIRGINIA ST","address2": "","city": "RENO","state": "NV","zip": "89501","zip+4": "0000","phone": "7753378700","NPI": "     1437164407"}, 
{"id": 30529,"ncpdp": "2986339","pharmacy_name": "TARGET PHARMACY #1462","address1": "6480 SKY POINTE DRIVE","address2": "","city": "LAS VEGAS","state": "NV","zip": "89131","zip+4": "0000","phone": "7026564791","NPI": "     1225050826"}, 
{"id": 30530,"ncpdp": "2986771","pharmacy_name": "CVS PHARMACY #02948","address1": "630 S GREEN VALLEY PKWY","address2": "","city": "HENDERSON","state": "NV","zip": "89052","zip+4": "0000","phone": "7026148652","NPI": "     1912006222"}, 
{"id": 30531,"ncpdp": "2986884","pharmacy_name": "WALGREEN DRUG STORE #7032","address1": "2451 HAMPTON RD","address2": "","city": "HENDERSON","state": "NV","zip": "89052","zip+4": "0000","phone": "7026144676","NPI": "     1750398657"}, 
{"id": 30532,"ncpdp": "2986997","pharmacy_name": "WALGREEN DRUG STORE #6615","address1": "601 S GREEN VALLEY PARKWAY","address2": "","city": "HENDERSON","state": "NV","zip": "89052","zip+4": "0000","phone": "7028961589","NPI": "     1669489563"}, 
{"id": 30533,"ncpdp": "2987026","pharmacy_name": "CVS PHARMACY #02989","address1": "4755 W ANN RD","address2": "","city": "NORTH LAS VEGAS","state": "NV","zip": "89052","zip+4": "0000","phone": "7026451360","NPI": "     1578663910"}, 
{"id": 30534,"ncpdp": "2987139","pharmacy_name": "SAMS PHARMACY #104768","address1": "4835 KIETZKE LANE","address2": "","city": "RENO","state": "NV","zip": "89509","zip+4": "0000","phone": "7758297922","NPI": "     1063439172"}, 
{"id": 30535,"ncpdp": "2987242","pharmacy_name": "CVS PHARMACY #03210","address1": "3758 LAS VEGAS BLVD S","address2": "","city": "LAS VEGAS","state": "NV","zip": "89109","zip+4": "0000","phone": "7022629284","NPI": "     1821197138"}, 
{"id": 30536,"ncpdp": "2987468","pharmacy_name": "SMITHS PHARMACY #366 #706366","address1": "55 S VALLE VERDE DRIVE","address2": "","city": "LAS VEGAS","state": "NV","zip": "89012","zip+4": "0000","phone": "7028376117","NPI": "     1477578094"}, 
{"id": 30537,"ncpdp": "2987571","pharmacy_name": "SMITHS PHARMACY #372 #706372","address1": "1421 N JONES BLVD","address2": "","city": "LAS VEGAS","state": "NV","zip": "89108","zip+4": "0000","phone": "7026316745","NPI": "     1245257864"}, 
{"id": 30538,"ncpdp": "2987684","pharmacy_name": "SMITHS PHARMACY #365 #706365","address1": "6150 W FLAMINGO ROAD","address2": "","city": "LAS VEGAS","state": "NV","zip": "89103","zip+4": "0000","phone": "7028768753","NPI": "     1154348779"}, 
{"id": 30539,"ncpdp": "2987797","pharmacy_name": "SMITHS PHARMACY #363 #706363","address1": "4015 S BUFFALO DRIVE","address2": "","city": "LAS VEGAS","state": "NV","zip": "89147","zip+4": "0000","phone": "7028763215","NPI": "     1063439685"}, 
{"id": 30540,"ncpdp": "2987800","pharmacy_name": "FOOD4LESS PHARMACY #704515","address1": "3864 W SAHARA AVE","address2": "","city": "LAS VEGAS","state": "NV","zip": "89102","zip+4": "0000","phone": "7028714100","NPI": "     1932277837"}, 
{"id": 30541,"ncpdp": "2988042","pharmacy_name": "FOOD4LESS PHARMACY #704509","address1": "260 E LAKE MEAD DR","address2": "","city": "HENDERSON","state": "NV","zip": "89015","zip+4": "0000","phone": "7025589277","NPI": "     1790853521"}, 
{"id": 30542,"ncpdp": "2988484","pharmacy_name": "VONS #2613","address1": "6450 SKY POINTE DR","address2": "","city": "LAS VEGAS","state": "NV","zip": "89131","zip+4": "0000","phone": "7025151821","NPI": "     1609805639"}, 
{"id": 30543,"ncpdp": "2988749","pharmacy_name": "CVS PHARMACY #06867","address1": "4490 PARADISE RD","address2": "","city": "LAS VEGAS","state": "NV","zip": "89169","zip+4": "6573","phone": "7026967126","NPI": "     1730288044"}, 
{"id": 30544,"ncpdp": "2988751","pharmacy_name": "RALEYS #105","address1": "1630 ROBB DRIVE","address2": "","city": "RENO","state": "NV","zip": "89523","zip+4": "0000","phone": "7757466404","NPI": "     1912017682"}, 
{"id": 30545,"ncpdp": "2988763","pharmacy_name": "WAL-MART PHARMACY #105258","address1": "5850 WEST CRAIG ROAD","address2": "","city": "LAS VEGAS","state": "NV","zip": "89130","zip+4": "0000","phone": "7023951240","NPI": "     1972520088"}, 
{"id": 30546,"ncpdp": "2988775","pharmacy_name": "WAL-MART PHARMACY #105259","address1": "6151 WEST LAKE MEAD BLVD","address2": "","city": "LAS VEGAS","state": "NV","zip": "89108","zip+4": "0000","phone": "7026312040","NPI": "     1760401772"}, 
{"id": 30547,"ncpdp": "2988787","pharmacy_name": "WAL-MART PHARMACY #105269","address1": "490 EAST SILVERADO RANCH BLVD","address2": "","city": "LAS VEGAS","state": "NV","zip": "89123","zip+4": "0000","phone": "7022634270","NPI": "     1679592687"}, 
{"id": 30548,"ncpdp": "2988799","pharmacy_name": "WAL-MART PHARMACY #105306","address1": "5545 SIMMONS STREET","address2": "","city": "NORTH LAS VEGAS","state": "NV","zip": "89031","zip+4": "0000","phone": "7026462650","NPI": "     1881611994"}, 
{"id": 30549,"ncpdp": "2988814","pharmacy_name": "WALGREEN DRUG STORE #2474","address1": "3000 VISTA BLVD","address2": "","city": "SPARKS","state": "NV","zip": "89436","zip+4": "0000","phone": "7753597000","NPI": "     1467467449"}, 
{"id": 30550,"ncpdp": "2988840","pharmacy_name": "WALGREEN DRUG STORE #7864","address1": "7755 N DURANGO DR","address2": "","city": "LAS VEGAS","state": "NV","zip": "89131","zip+4": "0000","phone": "7023965686","NPI": "     1376558353"}, 
{"id": 30551,"ncpdp": "2988941","pharmacy_name": "MOUNTAIN VIEW PHARMACY","address1": "3150 N TENAYA WAY","address2": "STE 170","city": "LAS VEGAS","state": "NV","zip": "89128","zip+4": "0000","phone": "7023605310","NPI": "     1801962907"}, 
{"id": 30552,"ncpdp": "2989018","pharmacy_name": "SAVON PHARMACY #6005","address1": "3010 W ANN RD","address2": "","city": "NORTH LAS VEGAS","state": "NV","zip": "89031","zip+4": "0000","phone": "7026563425","NPI": "     1326094947"}, 
{"id": 30553,"ncpdp": "2989032","pharmacy_name": "SPECTRUM PHARMACY SERVICES","address1": "4690 LONGLEY LN","address2": "BLDG A 39","city": "RENO","state": "NV","zip": "89502","zip+4": "0000","phone": "7758256117","NPI": "     1730220468"}, 
{"id": 30554,"ncpdp": "2989044","pharmacy_name": "SMITHS PHARMACY #349 #706349","address1": "10100 WEST TROPICANA AVENUE","address2": "","city": "LAS VEGAS","state": "NV","zip": "89147","zip+4": "0000","phone": "7022207911","NPI": "     1972520591"}, 
{"id": 30555,"ncpdp": "2989070","pharmacy_name": "WALGREEN DRUG STORE #5479","address1": "385 E SILVERADO RANCH BLVD","address2": "","city": "LAS VEGAS","state": "NV","zip": "89123","zip+4": "0000","phone": "7026173227","NPI": "     1376550277"}, 
{"id": 30556,"ncpdp": "2989107","pharmacy_name": "CVS PHARMACY #05942","address1": "7285 SOUTH DURANGO DRIVE","address2": "","city": "LAS VEGAS","state": "NV","zip": "89113","zip+4": "0000","phone": "7024072933","NPI": "     1649379959"}, 
{"id": 30557,"ncpdp": "2989133","pharmacy_name": "WAL-MART PHARMACY #103354","address1": "1401 AMERICAN PACIFIC DRIVE","address2": "","city": "HENDERSON","state": "NV","zip": "89074","zip+4": "0000","phone": "7025642960","NPI": "     1699792705"}, 
{"id": 30558,"ncpdp": "2989169","pharmacy_name": "CVS PHARMACY #05068","address1": "9405 WEST RUSSELL RD","address2": "","city": "LAS VEGAS","state": "NV","zip": "89148","zip+4": "0000","phone": "7022627854","NPI": "     1558460865"}, 
{"id": 30559,"ncpdp": "2989183","pharmacy_name": "CARE N HOME INC","address1": "3050 E DESERT INN RD STE 124","address2": "","city": "LAS VEGAS","state": "NV","zip": "89121","zip+4": "0000","phone": "7026672105","NPI": "     1972603827"}, 
{"id": 30560,"ncpdp": "2989195","pharmacy_name": "WAL-MART PHARMACY #105423","address1": "6570 EAST LAKE MEAD BLVD","address2": "","city": "LAS VEGAS","state": "NV","zip": "89156","zip+4": "0000","phone": "7024372554","NPI": "     1740409275"}, 
{"id": 30561,"ncpdp": "2989208","pharmacy_name": "WAL-MART PHARMACY #103408","address1": "3200 MARKET STREET","address2": "","city": "CARSON CITY","state": "NV","zip": "89706","zip+4": "0000","phone": "7758836535","NPI": "     1417974528"}, 
{"id": 30562,"ncpdp": "2989210","pharmacy_name": "CVS PHARMACY #07252","address1": "3655 W CRAIG RD","address2": "","city": "NORTH LAS VEGAS","state": "NV","zip": "89032","zip+4": "0000","phone": "7026381295","NPI": "     1467551770"}, 
{"id": 30563,"ncpdp": "2989234","pharmacy_name": "COSTCO PHARMACY #737","address1": "6555 N DECATUR BLVD","address2": "","city": "LAS VEGAS","state": "NV","zip": "89131","zip+4": "0000","phone": "7024152328","NPI": "     1366552986"}, 
{"id": 30564,"ncpdp": "2989258","pharmacy_name": "SMITHS PHARMACY #332 #706332","address1": "7130 N DURANGO DRIVE","address2": "","city": "LAS VEGAS","state": "NV","zip": "89149","zip+4": "0000","phone": "7026472799","NPI": "     1477638591"}, 
{"id": 30565,"ncpdp": "2989272","pharmacy_name": "CEDAR PHARMACY","address1": "8955 S PECOS RD 1B","address2": "","city": "HENDERSON","state": "NV","zip": "89074","zip+4": "0000","phone": "7024360016","NPI": "     1982619573"}, 
{"id": 30566,"ncpdp": "2989284","pharmacy_name": "WAL-MART PHARMACY #103655","address1": "10440 WEST CHEYENNE AVENUE","address2": "","city": "LAS VEGAS","state": "NV","zip": "89129","zip+4": "0000","phone": "7022336085","NPI": "     1326065434"}, 
{"id": 30567,"ncpdp": "2989296","pharmacy_name": "APOTHECARY SHOP OF LAS VEGAS I","address1": "10050 BANBURRY CROSS DR","address2": "STE 110","city": "LAS VEGAS","state": "NV","zip": "89144","zip+4": "0000","phone": "7025622294","NPI": "     1194798447"}, 
{"id": 30568,"ncpdp": "2989309","pharmacy_name": "WAL-MART PHARMACY #103729","address1": "5065 PYRAMID LAKE ROAD","address2": "","city": "SPARKS","state": "NV","zip": "89436","zip+4": "0000","phone": "7754259331","NPI": "     1235156340"}, 
{"id": 30569,"ncpdp": "2989335","pharmacy_name": "WALGREEN DRUG STORE #02658","address1": "10370 N MCCARRAN BLVD","address2": "","city": "RENO","state": "NV","zip": "89503","zip+4": "6848","phone": "7757464809","NPI": "     1801842828"}, 
{"id": 30570,"ncpdp": "2989347","pharmacy_name": "VICTORY PHARMACY","address1": "4161 S EASTERN AVE","address2": "STE A3","city": "LAS VEGAS","state": "NV","zip": "89119","zip+4": "0000","phone": "7028939361","NPI": "     1780620658"}, 
{"id": 30571,"ncpdp": "2989359","pharmacy_name": "WALGREEN DRUG STORE #9581","address1": "2020 RENO HWY","address2": "","city": "FALLON","state": "NV","zip": "89406","zip+4": "0000","phone": "7754286409","NPI": "     1598713893"}, 
{"id": 30572,"ncpdp": "2989361","pharmacy_name": "WALGREEN DRUG STORE #02598","address1": "7685 S RAINBOW BLVD","address2": "","city": "LAS VEGAS","state": "NV","zip": "89139","zip+4": "5477","phone": "7026143094","NPI": "     1285677807"}, 
{"id": 30573,"ncpdp": "2989373","pharmacy_name": "WALGREEN DRUG STORE #02590","address1": "6435 ALIANTE PKWY","address2": "","city": "N LAS VEGAS","state": "NV","zip": "89084","zip+4": "0000","phone": "7026576508","NPI": "     1487693040"}, 
{"id": 30574,"ncpdp": "2989385","pharmacy_name": "WAL-MART PHARMACY #103847","address1": "1120 WEST PIONEER BLVD","address2": "","city": "MESQUITE","state": "NV","zip": "89027","zip+4": "0000","phone": "7023460408","NPI": "     1144247255"}, 
{"id": 30575,"ncpdp": "2989400","pharmacy_name": "VONS #2615","address1": "45 E HORIZON RIDGE PARKWAY","address2": "","city": "HENDERSON","state": "NV","zip": "89015","zip+4": "0000","phone": "7025641425","NPI": "     1518996545"}, 
{"id": 30576,"ncpdp": "2989412","pharmacy_name": "WELCOME PHARMACY","address1": "5115 SPRING MOUNTAIN RD STE 11","address2": "","city": "LAS VEGAS","state": "NV","zip": "89146","zip+4": "0000","phone": "7022539818","NPI": "     1346255973"}, 
{"id": 30577,"ncpdp": "2989424","pharmacy_name": "SMITHS PHARMACY #334 #706334","address1": "2255 EAST CENTENNIAL PARKWAY","address2": "","city": "LAS VEGAS","state": "NV","zip": "89081","zip+4": "0000","phone": "7026336222","NPI": "     1285659805"}, 
{"id": 30578,"ncpdp": "2989436","pharmacy_name": "LAMS PHARMACY","address1": "2202 W CHARLESTON BLVD","address2": "STE 13","city": "LAS VEGAS","state": "NV","zip": "89102","zip+4": "2232","phone": "7023843784","NPI": "     1548215593"}, 
{"id": 30579,"ncpdp": "2989448","pharmacy_name": "FLYING DIAMOND PHARMACY","address1": "7350 W 4TH ST","address2": "","city": "RENO","state": "NV","zip": "89523","zip+4": "0000","phone": "7757871144","NPI": "     1174578124"}, 
{"id": 30580,"ncpdp": "2989462","pharmacy_name": "CVS PHARMACY #08792","address1": "680 N MC CARREN","address2": "","city": "SPARKS","state": "NV","zip": "89431","zip+4": "0000","phone": "7753596808","NPI": "     1851334148"}, 
{"id": 30581,"ncpdp": "2989474","pharmacy_name": "CVS PHARMACY #08793","address1": "285 E PLUMB LN","address2": "","city": "RENO","state": "NV","zip": "89502","zip+4": "0000","phone": "7757861884","NPI": "     1598709966"}, 
{"id": 30582,"ncpdp": "2989486","pharmacy_name": "CVS PHARMACY #08788","address1": "1812 E CHARLESTON","address2": "","city": "LAS VEGAS","state": "NV","zip": "89104","zip+4": "0000","phone": "7023845047","NPI": "     1407890874"}, 
{"id": 30583,"ncpdp": "2989498","pharmacy_name": "CVS PHARMACY #08806","address1": "1250W 7TH ST","address2": "","city": "RENO","state": "NV","zip": "89503","zip+4": "0000","phone": "7757476658","NPI": "     1093759342"}, 
{"id": 30584,"ncpdp": "2989501","pharmacy_name": "CVS PHARMACY #08808","address1": "2011 E LAKE MEAD BLVD","address2": "","city": "NORTH LAS VEGAS","state": "NV","zip": "89030","zip+4": "0000","phone": "7026429780","NPI": "     1417993569"}, 
{"id": 30585,"ncpdp": "2989513","pharmacy_name": "CVS PHARMACY #08801","address1": "550 W IDAHO ST","address2": "","city": "ELKO","state": "NV","zip": "89801","zip+4": "0000","phone": "7757387177","NPI": "     1265473169"}, 
{"id": 30586,"ncpdp": "2989525","pharmacy_name": "CVS PHARMACY #08779","address1": "220 FAIRVIEW LANE","address2": "","city": "CARSON CITY","state": "NV","zip": "89701","zip+4": "0000","phone": "7758871000","NPI": "     1902840259"}, 
{"id": 30587,"ncpdp": "2989537","pharmacy_name": "CVS PHARMACY #08785","address1": "268 N JONES BLVD","address2": "","city": "LAS VEGAS","state": "NV","zip": "89107","zip+4": "0000","phone": "7028709159","NPI": "     1811931165"}, 
{"id": 30588,"ncpdp": "2989549","pharmacy_name": "CVS PHARMACY #08790","address1": "3550 W SAHARA AVE","address2": "","city": "LAS VEGAS","state": "NV","zip": "89102","zip+4": "0000","phone": "7028737171","NPI": "     1326084476"}, 
{"id": 30589,"ncpdp": "2989551","pharmacy_name": "CVS PHARMACY #08799","address1": "1360 E FLAMINGO","address2": "","city": "LAS VEGAS","state": "NV","zip": "89119","zip+4": "0000","phone": "7027315373","NPI": "     1174564074"}, 
{"id": 30590,"ncpdp": "2989563","pharmacy_name": "CVS PHARMACY #08809","address1": "4014 S RAINBOW","address2": "","city": "LAS VEGAS","state": "NV","zip": "89103","zip+4": "0000","phone": "7028735917","NPI": "     1083655989"}, 
{"id": 30591,"ncpdp": "2989575","pharmacy_name": "CVS PHARMACY #08819","address1": "4800 W CHARLESTON BLVD","address2": "","city": "LAS VEGAS","state": "NV","zip": "89146","zip+4": "0000","phone": "7028779026","NPI": "     1891736799"}, 
{"id": 30592,"ncpdp": "2989587","pharmacy_name": "CVS PHARMACY #08812","address1": "9100 W SAHARA","address2": "","city": "LAS VEGAS","state": "NV","zip": "89117","zip+4": "0000","phone": "7022546065","NPI": "     1235175381"}, 
{"id": 30593,"ncpdp": "2989599","pharmacy_name": "CVS PHARMACY #08803","address1": "2855 S NELLIS BLVD","address2": "","city": "LAS VEGAS","state": "NV","zip": "89121","zip+4": "0000","phone": "7024314193","NPI": "     1720022072"}, 
{"id": 30594,"ncpdp": "2989602","pharmacy_name": "CVS PHARMACY #08813","address1": "800 BUCHANAN BLVD","address2": "","city": "BOULDER CITY","state": "NV","zip": "89005","zip+4": "0000","phone": "7022936705","NPI": "     1639113988"}, 
{"id": 30595,"ncpdp": "2989614","pharmacy_name": "CVS PHARMACY #08824","address1": "4411 E BONANZA RD","address2": "","city": "LAS VEGAS","state": "NV","zip": "89110","zip+4": "0000","phone": "7024525652","NPI": "     1548204894"}, 
{"id": 30596,"ncpdp": "2989638","pharmacy_name": "CVS PHARMACY #08827","address1": "6100 SPRING MOUNTAIN ROAD","address2": "","city": "LAS VEGAS","state": "NV","zip": "89146","zip+4": "0000","phone": "7023645232","NPI": "     1144266297"}, 
{"id": 30597,"ncpdp": "2989664","pharmacy_name": "CVS PHARMACY #08796","address1": "7251 S EASTERN","address2": "","city": "LAS VEGAS","state": "NV","zip": "89119","zip+4": "0000","phone": "7028969133","NPI": "     1053357103"}, 
{"id": 30598,"ncpdp": "2989676","pharmacy_name": "CVS PHARMACY #08821","address1": "8320 W CHEYENNE AVE","address2": "","city": "LAS VEGAS","state": "NV","zip": "89129","zip+4": "0000","phone": "7026581229","NPI": "     1265476519"}, 
{"id": 30599,"ncpdp": "2989688","pharmacy_name": "CVS PHARMACY #08798","address1": "5985 W TROPICANA RD","address2": "","city": "LAS VEGAS","state": "NV","zip": "89103","zip+4": "0000","phone": "7022520031","NPI": "     1962448019"}, 
{"id": 30600,"ncpdp": "2989690","pharmacy_name": "CVS PHARMACY #08804","address1": "1408 W CRAIG RD","address2": "","city": "LAS VEGAS","state": "NV","zip": "89032","zip+4": "0000","phone": "7026422680","NPI": "     1174567424"}, 
{"id": 30601,"ncpdp": "2989703","pharmacy_name": "CVS PHARMACY #08822","address1": "2594 WIGWAM PKWY","address2": "","city": "HENDERSON","state": "NV","zip": "89074","zip+4": "0000","phone": "7022600291","NPI": "     1083658330"}, 
{"id": 30602,"ncpdp": "2989715","pharmacy_name": "CVS PHARMACY #08787","address1": "1551 W SUNSET BLVD","address2": "","city": "HENDERSON","state": "NV","zip": "89014","zip+4": "0000","phone": "7024336536","NPI": "     1891739140"}, 
{"id": 30603,"ncpdp": "2989727","pharmacy_name": "CVS PHARMACY #08791","address1": "8580 W CHARLESTON BLVD","address2": "","city": "LAS VEGAS","state": "NV","zip": "89117","zip+4": "0000","phone": "7023638868","NPI": "     1831134832"}, 
{"id": 30604,"ncpdp": "2989739","pharmacy_name": "CVS PHARMACY #08789","address1": "100 S HWY 160","address2": "","city": "PAHRUMP","state": "NV","zip": "89048","zip+4": "0000","phone": "7757275566","NPI": "     1295776169"}, 
{"id": 30605,"ncpdp": "2989741","pharmacy_name": "CVS PHARMACY #08800","address1": "6705 E LAKE MEAD BLVD","address2": "","city": "LAS VEGAS","state": "NV","zip": "89156","zip+4": "0000","phone": "7025470220","NPI": "     1104867076"}, 
{"id": 30606,"ncpdp": "2989753","pharmacy_name": "CVS PHARMACY #08805","address1": "3810 E SUNSET RD","address2": "","city": "LAS VEGAS","state": "NV","zip": "89120","zip+4": "0000","phone": "7024503299","NPI": "     1447292636"}, 
{"id": 30607,"ncpdp": "2989765","pharmacy_name": "CVS PHARMACY #08795","address1": "2662 W HORIZON RIDGE PKWY","address2": "","city": "HENDERSON","state": "NV","zip": "89052","zip+4": "0000","phone": "7026169660","NPI": "     1013958982"}, 
{"id": 30608,"ncpdp": "2989777","pharmacy_name": "CVS PHARMACY #08794","address1": "1600 N BUFFALO DRIVE","address2": "","city": "LAS VEGAS","state": "NV","zip": "89128","zip+4": "0000","phone": "7028045511","NPI": "     1922049899"}, 
{"id": 30609,"ncpdp": "2989789","pharmacy_name": "CVS PHARMACY #08807","address1": "5681 BOULDER HIGHWAY","address2": "","city": "LAS VEGAS","state": "NV","zip": "89122","zip+4": "0000","phone": "7024344933","NPI": "     1831130707"}, 
{"id": 30610,"ncpdp": "2989791","pharmacy_name": "CVS PHARMACY #08782","address1": "7007 WEST ANN ROAD","address2": "","city": "LAS VEGAS","state": "NV","zip": "89130","zip+4": "0000","phone": "7023968947","NPI": "     1740221613"}, 
{"id": 30611,"ncpdp": "2989804","pharmacy_name": "CVS PHARMACY #08811","address1": "2100 WEST CHARLESTON","address2": "","city": "LAS VEGAS","state": "NV","zip": "89102","zip+4": "0000","phone": "7024740259","NPI": "     1659312528"}, 
{"id": 30612,"ncpdp": "2989828","pharmacy_name": "CVS PHARMACY #08814","address1": "2525 S BUFFALO DR","address2": "","city": "LAS VEGAS","state": "NV","zip": "89117","zip+4": "0000","phone": "7022565521","NPI": "     1356383541"}, 
{"id": 30613,"ncpdp": "2989830","pharmacy_name": "CVS PHARMACY #08784","address1": "8116 S LAS VEGAS BLVD","address2": "","city": "LAS VEGAS","state": "NV","zip": "89123","zip+4": "0000","phone": "7024077063","NPI": "     1265474456"}, 
{"id": 30614,"ncpdp": "2989842","pharmacy_name": "CVS PHARMACY #08780","address1": "10400 WEST CHARLESTON BLVD","address2": "","city": "LAS VEGAS","state": "NV","zip": "89135","zip+4": "0000","phone": "7025623169","NPI": "     1477594349"}, 
{"id": 30615,"ncpdp": "2989854","pharmacy_name": "CVS PHARMACY #08778","address1": "3485 EAST OWENS AVE","address2": "","city": "NORTH LAS VEGAS","state": "NV","zip": "89030","zip+4": "0000","phone": "7026493107","NPI": "     1386685253"}, 
{"id": 30616,"ncpdp": "2989892","pharmacy_name": "BURKES DRUG GREENBRAE","address1": "544 GREENBRAE DRIVE","address2": "","city": "APARKS","state": "NV","zip": "89431","zip+4": "0000","phone": "7753563500","NPI": "     1164478830"}, 
{"id": 30617,"ncpdp": "2989905","pharmacy_name": "WAL-MART PHARMACY #103356","address1": "7445 SOUTH EASTERN AVE","address2": "","city": "LAS VEGAS","state": "NV","zip": "89123","zip+4": "0000","phone": "7024075513","NPI": "     1295777043"}, 
{"id": 30618,"ncpdp": "2989917","pharmacy_name": "WAL-MART PHARMACY #103788","address1": "6310 WEST CHARLESTON BLVD","address2": "","city": "LAS VEGAS","state": "NV","zip": "89146","zip+4": "0000","phone": "7028707271","NPI": "     1962444190"}, 
{"id": 30619,"ncpdp": "2989929","pharmacy_name": "CVS PHARMACY #07251","address1": "7285 ALIANTE PARKWAY","address2": "","city": "NORTH LAS VEGAS","state": "NV","zip": "89084","zip+4": "0000","phone": "7026420641","NPI": "     1487754826"}, 
{"id": 30620,"ncpdp": "2989931","pharmacy_name": "SMITHS PHARMACY #338 #706338","address1": "6855 ALIANTE PARKWAY","address2": "","city": "NORTH LAS VEGAS","state": "NV","zip": "89084","zip+4": "0000","phone": "7026426062","NPI": "     1417023359"}, 
{"id": 30621,"ncpdp": "2989943","pharmacy_name": "WAL-MART PHARMACY #103355","address1": "1400 SOUTH LAMB BLVD","address2": "","city": "LAS VEGAS","state": "NV","zip": "89104","zip+4": "0000","phone": "7024315004","NPI": "     1053338160"}, 
{"id": 30622,"ncpdp": "2989981","pharmacy_name": "SOLUTIONS SPECIALTY PHCY #1","address1": "301 N PECOS RD","address2": "STE D","city": "HENDERSON","state": "NV","zip": "89074","zip+4": "0000","phone": "7027923777","NPI": "     1720099369"}, 
{"id": 30623,"ncpdp": "2990035","pharmacy_name": "COSTCO PHARMACY #646","address1": "4810 GALLERIA PHARMACY","address2": "","city": "SPARKS","state": "NV","zip": "89436","zip+4": "0000","phone": "7753564409","NPI": "     1588758833"}, 
{"id": 30624,"ncpdp": "2990061","pharmacy_name": "WAL-MART PHARMACY #103351","address1": "6464 NORTH DECATUR BLVD","address2": "","city": "NORTH LAS VEGAS","state": "NV","zip": "89084","zip+4": "0000","phone": "7025157181","NPI": "     1235223397"}, 
{"id": 30625,"ncpdp": "2990073","pharmacy_name": "TARGET PHARMACY #2164","address1": "4100 BLUE DIAMOND ROAD","address2": "","city": "LAS VEGAS","state": "NV","zip": "89139","zip+4": "0000","phone": "7022668050","NPI": "     1821170069"}, 
{"id": 30626,"ncpdp": "2990100","pharmacy_name": "CVS PHARMACY #09770","address1": "2830 BICENTENNIAL PARKWAY","address2": "","city": "HENDERSON","state": "NV","zip": "89052","zip+4": "0000","phone": "7022608419","NPI": "     1750465373"}, 
{"id": 30627,"ncpdp": "2990112","pharmacy_name": "SAVON PHARMACY #6076","address1": "7350 S RAINBOW BLVD","address2": "","city": "LAS VEGAS","state": "NV","zip": "89139","zip+4": "0000","phone": "7027391508","NPI": "     1972693687"}, 
{"id": 30628,"ncpdp": "2990148","pharmacy_name": "LIBERTY HEALTHCARE PHARMACY OF","address1": "6225 ANNIE OAKLEY DRIVE","address2": "SUITE 100","city": "LAS VEGAS","state": "NV","zip": "89120","zip+4": "0000","phone": "8004913276","NPI": "     1023193406"}, 
{"id": 30629,"ncpdp": "2990174","pharmacy_name": "WALGREEN DRUG STORE #09902","address1": "292 LOS ALTOS","address2": "","city": "SPARKS","state": "NV","zip": "89436","zip+4": "7708","phone": "7753540104","NPI": "     1235284548"}, 
{"id": 30630,"ncpdp": "2990186","pharmacy_name": "WAL-MART PHARMACY #103350","address1": "5198 BOULDER HIGHWAY","address2": "","city": "LAS VEGAS","state": "NV","zip": "89122","zip+4": "0000","phone": "7024341915","NPI": "     1427113497"}, 
{"id": 30631,"ncpdp": "2990237","pharmacy_name": "SAVE MART PHARMACY #550","address1": "3325 HWY 50 EAST","address2": "","city": "CARSON CITY","state": "NV","zip": "89701","zip+4": "0000","phone": "7758859530","NPI": "     1891830790"}, 
{"id": 30632,"ncpdp": "2990249","pharmacy_name": "SAVE MART PHARMACY #551","address1": "4348 S CARSON ST","address2": "","city": "CARSON CITY","state": "NV","zip": "89701","zip+4": "0000","phone": "7758831833","NPI": "     1902940075"}, 
{"id": 30633,"ncpdp": "2990251","pharmacy_name": "SAVE MART PHARMACY #552","address1": "3620 N CARSON ST","address2": "","city": "CARSON CITY","state": "NV","zip": "89706","zip+4": "0000","phone": "7758414436","NPI": "     1811031982"}, 
{"id": 30634,"ncpdp": "2990263","pharmacy_name": "SAVE MART PHARMACY #553","address1": "525 KEYSTONE AVE","address2": "","city": "RENO","state": "NV","zip": "89503","zip+4": "0000","phone": "7753292981","NPI": "     1720122898"}, 
{"id": 30635,"ncpdp": "2990275","pharmacy_name": "SAVE MART PHARMACY #554","address1": "4995 KIETZKE LN","address2": "","city": "RENO","state": "NV","zip": "89509","zip+4": "0000","phone": "7758253322","NPI": "     1639213705"}, 
{"id": 30636,"ncpdp": "2990287","pharmacy_name": "SAVE MART PHARMACY #555","address1": "10500 N MCCARRAN","address2": "","city": "RENO","state": "NV","zip": "89503","zip+4": "0000","phone": "7757465717","NPI": "     1588709463"}, 
{"id": 30637,"ncpdp": "2990299","pharmacy_name": "SAVE MART PHARMACY #556","address1": "195 W PLUMB LN","address2": "","city": "RENO","state": "NV","zip": "89509","zip+4": "0000","phone": "7757862970","NPI": "     1730224619"}, 
{"id": 30638,"ncpdp": "2990302","pharmacy_name": "SAVE MART PHARMACY #558","address1": "565 E PRATER WAY","address2": "","city": "SPARKS","state": "NV","zip": "89431","zip+4": "0000","phone": "7753599069","NPI": "     1548304611"}, 
{"id": 30639,"ncpdp": "2990314","pharmacy_name": "SAVE MART PHARMACY #559","address1": "9750 PYRAMID LAKES HWY","address2": "","city": "SPARKS","state": "NV","zip": "89436","zip+4": "0000","phone": "7754252727","NPI": "     1457495525"}, 
{"id": 30640,"ncpdp": "2990326","pharmacy_name": "VONS PHARMACY #2391","address1": "1031 NEVADA HWY","address2": "","city": "BOULDER CITY","state": "NV","zip": "89005","zip+4": "0000","phone": "7022936347","NPI": "     1376760470"}, 
{"id": 30641,"ncpdp": "2990338","pharmacy_name": "WAL-MART PHARMACY #103728","address1": "3950 WEST LAKE MEAD BLVD","address2": "","city": "NORTH LAS VEGAS","state": "NV","zip": "89032","zip+4": "0000","phone": "7026316806","NPI": "     1215061031"}, 
{"id": 30642,"ncpdp": "2990340","pharmacy_name": "SMITHS PHARMACY #311 #706311","address1": "8050 SOUTH RAINBOW BLVD","address2": "","city": "LAS VEGAS","state": "NV","zip": "89139","zip+4": "0000","phone": "7022947202","NPI": "     1437286168"}, 
{"id": 30643,"ncpdp": "2990352","pharmacy_name": "WALGREEN DRUG STORE #09864","address1": "1342 N HWY 395","address2": "","city": "GARNDERVILLE","state": "NV","zip": "89410","zip+4": "0000","phone": "7757820537","NPI": "     1841319613"}, 
{"id": 30644,"ncpdp": "2990388","pharmacy_name": "NEVADA CANCER CENTER","address1": "2851 N TENAYA WAY","address2": "STE 101","city": "LAS VEGAS","state": "NV","zip": "89128","zip+4": "0000","phone": "7027357154","NPI": "     1164541512"}, 
{"id": 30645,"ncpdp": "2990403","pharmacy_name": "HUNTRIDGE DRUG","address1": "1144 EAST CHARLESTON STREET","address2": "","city": "LAS VEGAS","state": "NV","zip": "89104","zip+4": "1558","phone": "7023827373","NPI": "     1285851386"}, 
{"id": 30646,"ncpdp": "2990427","pharmacy_name": "CVS PHARMACY #09838","address1": "5485 SUN VALLEY BLVD","address2": "","city": "SUN VALLEY","state": "NV","zip": "89433","zip+4": "0000","phone": "7756741544","NPI": "     1548472012"}, 
{"id": 30647,"ncpdp": "2990441","pharmacy_name": "LONGS DRUG STORE #09840","address1": "8005 S VIRGINIA ST","address2": "","city": "RENO","state": "NV","zip": "89511","zip+4": "0000","phone": "7758537555","NPI": "     1154535888"}, 
{"id": 30648,"ncpdp": "2990453","pharmacy_name": "CVS PHARMACY #09841","address1": "1695 ROBB DR","address2": "","city": "RENO","state": "NV","zip": "89523","zip+4": "0000","phone": "7757465600","NPI": "     1952515686"}, 
{"id": 30649,"ncpdp": "2990465","pharmacy_name": "CVS PHARMACY # #09842","address1": "1980 N CARSON ST","address2": "","city": "CARSON CITY","state": "NV","zip": "89701","zip+4": "0000","phone": "7758822299","NPI": "     1861606592"}, 
{"id": 30650,"ncpdp": "2990477","pharmacy_name": "CVS PHARMACY #09843","address1": "461 W WILLIAMS AVE","address2": "","city": "FALLON","state": "NV","zip": "89406","zip+4": "0000","phone": "7758673700","NPI": "     1841404571"}, 
{"id": 30651,"ncpdp": "2990491","pharmacy_name": "RYANS PHARMACY INC","address1": "150 E HARMON AVE","address2": "","city": "LAS VEGAS","state": "NV","zip": "89109","zip+4": "0000","phone": "7026500445","NPI": "     1104037548"}, 
{"id": 30652,"ncpdp": "2990530","pharmacy_name": "SAVON PHARMACY #6060","address1": "11720 W CHARLESTON BLVD","address2": "","city": "LAS VEGAS","state": "NV","zip": "89138","zip+4": "0000","phone": "7023633306","NPI": "     1205036134"}, 
{"id": 30653,"ncpdp": "2990542","pharmacy_name": "WALGREENS DRUG STORE #11444","address1": "611 MALL RING CIRCLE","address2": "","city": "HENDERSON","state": "NV","zip": "89014","zip+4": "6619","phone": "7024330144","NPI": "     1942490693"}, 
{"id": 30654,"ncpdp": "2990554","pharmacy_name": "WALGREENS DRUG STORE #11446","address1": "6450 S VIRGINIA ST","address2": "","city": "RENO","state": "NV","zip": "89511","zip+4": "1103","phone": "7758526816","NPI": "     1174713192"}, 
{"id": 30655,"ncpdp": "2990605","pharmacy_name": "CVS PHARMACY #06059","address1": "2700 S LAS VEGAS BLVD","address2": "100","city": "LAS VEGAS","state": "NV","zip": "89109","zip+4": "0000","phone": "7023690645","NPI": "     1659561900"}, 
{"id": 30656,"ncpdp": "2990617","pharmacy_name": "WAL-MART PHARMACY #104339","address1": "5940 LOSEE ROAD","address2": "","city": "N LAS VEGAS","state": "NV","zip": "89081","zip+4": "0000","phone": "7026399002","NPI": "     1902006778"}, 
{"id": 30657,"ncpdp": "2990629","pharmacy_name": "FARMACIA DEL PUEBLO","address1": "2123 CIVIC CENTER DRIVE","address2": "","city": "NORTH LAS VEGAS","state": "NV","zip": "89030","zip+4": "0000","phone": "7023999477","NPI": "     1083807069"}, 
{"id": 30658,"ncpdp": "2990643","pharmacy_name": "CNS SCRIPS LLC","address1": "3871 S VALLEY VIEW BLVD","address2": "STE 75","city": "LAS VEGAS","state": "NV","zip": "89103","zip+4": "0000","phone": "7027314800","NPI": "     1205029220"}, 
{"id": 30659,"ncpdp": "2990655","pharmacy_name": "THE PILL BOX","address1": "568 W SPRING VALLEY COURT","address2": "","city": "SPRING CREEK","state": "NV","zip": "89815","zip+4": "0000","phone": "7757783784","NPI": "     1346432168"}, 
{"id": 30660,"ncpdp": "2990679","pharmacy_name": "WELLCARE PHARMACY","address1": "3890 S MARYLAND PKWY","address2": "STE F","city": "LAS VEGAS","state": "NV","zip": "89119","zip+4": "0000","phone": "7024323832","NPI": "     1437348018"}, 
{"id": 30661,"ncpdp": "2990693","pharmacy_name": "VALLEY HOSPITAL MEDICAL CENTER","address1": "620 SHADOW LN","address2": "","city": "LAS VEGAS","state": "NV","zip": "89106","zip+4": "0000","phone": "7023884683","NPI": "     1538348826"}, 
{"id": 30662,"ncpdp": "2990718","pharmacy_name": "ASSURED PHARMACY","address1": "801 S RANCHO DRIVE","address2": "STE E3A","city": "LAS VEGAS","state": "NV","zip": "89106","zip+4": "0000","phone": "9492229971","NPI": "     1104009182"}, 
{"id": 30663,"ncpdp": "2990720","pharmacy_name": "SAMS PHARMACY #104974","address1": "2650 EAST CRAIG RD","address2": "","city": "LAS VEGAS","state": "NV","zip": "89030","zip+4": "0000","phone": "7023992240","NPI": "     1487833943"}, 
{"id": 30664,"ncpdp": "2990744","pharmacy_name": "WALGREEN DRUG STORE #10783","address1": "6495 N DECATUR BLVD","address2": "","city": "LAS VEGAS","state": "NV","zip": "89131","zip+4": "2960","phone": "7023954230","NPI": "     1134302268"}, 
{"id": 30665,"ncpdp": "2990756","pharmacy_name": "WALGREEN DRUG STORE #11445","address1": "4580 W SAHARA AVE","address2": "","city": "LAS VEGAS","state": "NV","zip": "89102","zip+4": "3795","phone": "7022580840","NPI": "     1194909762"}, 
{"id": 30666,"ncpdp": "2990782","pharmacy_name": "BERMAN PITMAN AND WESELY DISPE","address1": "605 SIERRA ROSE DR","address2": "STE 4","city": "RENO","state": "NV","zip": "89511","zip+4": "0000","phone": "7756895410","NPI": "     1942310990"}, 
{"id": 30667,"ncpdp": "2990819","pharmacy_name": "WAL-MART PHARMACY #4356","address1": "7200 ARROYO CROSSING PARKWAY","address2": "","city": "LAS VEGAS","state": "NV","zip": "89118","zip+4": "0000","phone": "7022702523","NPI": "     1386826022"}, 
{"id": 30668,"ncpdp": "2990821","pharmacy_name": "WAL-MART PHARMACY #4370","address1": "1550 EAST NEWLANDS DRIVE","address2": "","city": "FERNLEY","state": "NV","zip": "89408","zip+4": "0000","phone": "7755754832","NPI": "     1942486329"}, 
{"id": 30669,"ncpdp": "2990833","pharmacy_name": "SAMS PHARMACY #4983","address1": "7100 WEST ARROYO CROSSING PARK","address2": "","city": "LAS VEGAS","state": "NV","zip": "89113","zip+4": "0000","phone": "7022609003","NPI": "     1003092438"}, 
{"id": 30670,"ncpdp": "2990857","pharmacy_name": "LONGS DRUG STORE #07949","address1": "75 PRINGLE WAY STE 103","address2": "","city": "RENO","state": "NV","zip": "89502","zip+4": "0000","phone": "7753298900","NPI": "     1588832968"}, 
{"id": 30671,"ncpdp": "2990869","pharmacy_name": "CVS PHARMACY #00082","address1": "6432 LOSEE RD","address2": "","city": "N LAS VEGAS","state": "NV","zip": "89086","zip+4": "0000","phone": "7023994776","NPI": "     1811166283"}, 
{"id": 30672,"ncpdp": "2990871","pharmacy_name": "LAS VEGAS CANCER CENTER","address1": "2904 W HORIZON RIDGE PKWY","address2": "STE 200","city": "HENDERSON","state": "NV","zip": "89052","zip+4": "0000","phone": "7024717779","NPI": "     1619194768"}, 
{"id": 30673,"ncpdp": "2990895","pharmacy_name": "SAVON PHARMACY #6090","address1": "7075 WEST ANN ROAD","address2": "","city": "LAS VEGAS","state": "NV","zip": "89130","zip+4": "0000","phone": "7023956912","NPI": "     1124299516"}, 
{"id": 30674,"ncpdp": "2990960","pharmacy_name": "WALGREEN DRUG STORE #12646","address1": "329 N SANDHILL BLVD","address2": "","city": "MESQUITE","state": "NV","zip": "89027","zip+4": "0000","phone": "7023461416","NPI": "     1184896185"}, 
{"id": 30675,"ncpdp": "2990972","pharmacy_name": "WALGREEN DRUG STORE #10782","address1": "5610 CENTENNIAL CENTER BLVD","address2": "","city": "LAS VEGAS","state": "NV","zip": "89149","zip+4": "0000","phone": "7023953282","NPI": "     1245402916"}, 
{"id": 30676,"ncpdp": "2990984","pharmacy_name": "CVS PHARMACY #00121","address1": "1402 E LAKE MEAD PKWY","address2": "","city": "HENDERSON","state": "NV","zip": "89015","zip+4": "0000","phone": "7025885101","NPI": "     1942473509"}, 
{"id": 30677,"ncpdp": "2991001","pharmacy_name": "WALGREEN DRUG STORE #10215","address1": "8595 W WARM SPRINGS","address2": "","city": "LAS VEGAS","state": "NV","zip": "89113","zip+4": "0000","phone": "7022626456","NPI": "     1174797641"}, 
{"id": 30678,"ncpdp": "2991013","pharmacy_name": "SAV ON PHARMACY #6032","address1": "4800 BLUE DIAMOND RD","address2": "","city": "LAS VEGAS","state": "NV","zip": "89139","zip+4": "0000","phone": "7022604594","NPI": "     1487820973"}, 
{"id": 30679,"ncpdp": "2991025","pharmacy_name": "WALGREEN DRUG STORE #10190","address1": "565 E CENTENNIAL PARKWAY","address2": "","city": "NORTH LAS VEGAS","state": "NV","zip": "89104","zip+4": "0000","phone": "7023993405","NPI": "     1013183045"}, 
{"id": 30680,"ncpdp": "2991075","pharmacy_name": "TARGET PHARMACY #2404","address1": "350 W LAKE MEAD PKWY","address2": "","city": "HENDERSON","state": "NV","zip": "89015","zip+4": "7088","phone": "7022161901","NPI": "     1346401437"}, 
{"id": 30681,"ncpdp": "2991099","pharmacy_name": "WOLFSON AND WOLFSON LLP","address1": "6803 W TROPICANA","address2": "STE 100","city": "LAS VEGAS","state": "NV","zip": "89103","zip+4": "0000","phone": "7024522525","NPI": "     1376635045"}, 
{"id": 30682,"ncpdp": "2991114","pharmacy_name": "SPRING VALLEY PHARMACY #01","address1": "2725 S JONES BLVD","address2": "STE 101","city": "LAS VEGAS","state": "NV","zip": "89146","zip+4": "0000","phone": "7022484119","NPI": "     1568637783"}, 
{"id": 30683,"ncpdp": "2991126","pharmacy_name": "EASTERN SIERRA MEDICAL GROUP","address1": "25 MCCABE DRIVE","address2": "","city": "RENO","state": "NV","zip": "89511","zip+4": "0000","phone": "7758268100","NPI": "     1144208109"}, 
{"id": 30684,"ncpdp": "2991138","pharmacy_name": "DIAGNOSTIC CENTER OF MEDICINE","address1": "3012 S DURANGO DR","address2": "STE 1","city": "LAS VEGAS","state": "NV","zip": "89117","zip+4": "0000","phone": "7023660640","NPI": "     1922043900"}, 
{"id": 30685,"ncpdp": "2991140","pharmacy_name": "TARGET PHARMACY #2472","address1": "1550 E LINCOLN WAY","address2": "","city": "SPARKS","state": "NV","zip": "89434","zip+4": "8989","phone": "7753321004","NPI": "     1447408448"}, 
{"id": 30686,"ncpdp": "2991164","pharmacy_name": "WAL-MART PHARMACY #4557","address1": "3075 EAST  TROPICANA","address2": "","city": "LAS VEGAS","state": "NV","zip": "89121","zip+4": "0000","phone": "7024334267","NPI": "     1588811301"}, 
{"id": 30687,"ncpdp": "2991176","pharmacy_name": "A PHARMACY","address1": "2820 W CHARLESTON BLVD","address2": "STE A-8","city": "LAS VEGAS","state": "NV","zip": "89102","zip+4": "0000","phone": "7026461100","NPI": "     1205098092"}, 
{"id": 30688,"ncpdp": "2991203","pharmacy_name": "DIAGNOSTIC CENTER OF MEDICINE","address1": "5380 S RAINBOW BLVD","address2": "STE 120","city": "LAS VEGAS","state": "NV","zip": "89118","zip+4": "0000","phone": "7022333444","NPI": "     1134377153"}, 
{"id": 30689,"ncpdp": "2991215","pharmacy_name": "DIAGNOSTIC CENTER OF MEDICINE","address1": "861 CORONADO CENTER DR","address2": "STE 100","city": "HENDERSON","state": "NV","zip": "89052","zip+4": "0000","phone": "7024541322","NPI": "     1619126257"}, 
{"id": 30690,"ncpdp": "2991289","pharmacy_name": "NEVADA HEART AND VASCULAR CENT","address1": "500 EAST WINDMILL LANE","address2": "STE 140","city": "LAS VEGAS","state": "NV","zip": "89123","zip+4": "0000","phone": "7022406482","NPI": "     1851541791"}, 
{"id": 30691,"ncpdp": "2991291","pharmacy_name": "NEVADA HEART AND VASCULAR CENT","address1": "1820 EAST DESERT INN","address2": "STE A","city": "LAS VEGAS","state": "NV","zip": "89109","zip+4": "0000","phone": "7022406482","NPI": "     1124278064"}, 
{"id": 30692,"ncpdp": "2991304","pharmacy_name": "NEVADA HEART AND VASCULAR CENT","address1": "7455 WEST WASHINGTON","address2": "STE 300","city": "LAS VEGAS","state": "NV","zip": "89128","zip+4": "0000","phone": "7022406482","NPI": "     1659387934"}, 
{"id": 30693,"ncpdp": "2991316","pharmacy_name": "RALEY\'S PHARMACY # #110","address1": "2389 WINGFIELD HILLS ROAD","address2": "","city": "SPARKS","state": "NV","zip": "89436","zip+4": "0000","phone": "7756267720","NPI": "     1609027663"}, 
{"id": 30694,"ncpdp": "2991328","pharmacy_name": "NEVADA WOMENS CARE","address1": "1701 N GREEN VALLEY PARKWAY","address2": "STE 3B","city": "HENDERSON","state": "NV","zip": "89074","zip+4": "0000","phone": "7027373200","NPI": "     1508841800"}, 
{"id": 30695,"ncpdp": "2991342","pharmacy_name": "CVS PHARMACY #04691","address1": "5151 SPARKS BLVD","address2": "","city": "SPARKS","state": "NV","zip": "89436","zip+4": "0000","phone": "7756267445","NPI": "     1063665271"}, 
{"id": 30696,"ncpdp": "2991354","pharmacy_name": "PARKWAY URGENT CARE GENESIS ME","address1": "100 NORTH GREEN VALLEY PARKWAY","address2": "STE 110","city": "HENDERSON","state": "NV","zip": "89074","zip+4": "0000","phone": "7024367700","NPI": "     1699988055"}, 
{"id": 30697,"ncpdp": "2991366","pharmacy_name": "SIERRA COMPOUNDING PHARMACY","address1": "8040 S VIRGINIA ST","address2": "3","city": "RENO","state": "NV","zip": "89511","zip+4": "0000","phone": "7758533500","NPI": "     1912155094"}, 
{"id": 30698,"ncpdp": "2991392","pharmacy_name": "WALGREENS # #07842","address1": "3339 LAS VEGAS BLVD SOUTH","address2": "","city": "LAS VEGAS","state": "NV","zip": "89109","zip+4": "0000","phone": "7023698166","NPI": "     1902050743"}, 
{"id": 30699,"ncpdp": "2991405","pharmacy_name": "WALGREENS # #11899","address1": "6485 S FORT APACHE RD","address2": "","city": "LAS VEGAS","state": "NV","zip": "89148","zip+4": "0000","phone": "7022621247","NPI": "     1336393164"}, 
{"id": 30700,"ncpdp": "2991417","pharmacy_name": "WALGREENS # #11206","address1": "8582 BLUE DIAMOND RD","address2": "","city": "LAS VEGAS","state": "NV","zip": "89178","zip+4": "0000","phone": "7022600135","NPI": "     1245484070"}, 
{"id": 30701,"ncpdp": "2991429","pharmacy_name": "INTERNAL MEDICINE OF SPRING VA","address1": "5380 SOUTH RAINBOW BLVD","address2": "STE 218","city": "LAS VEGAS","state": "NV","zip": "89118","zip+4": "0000","phone": "7023195900","NPI": "     1245310127"}, 
{"id": 30702,"ncpdp": "2991443","pharmacy_name": "FAMILY DOCTORS OF GREEN VALLEY","address1": "8475 SOUTH EASTERN AVE","address2": "SUITE 204","city": "LAS VEGAS","state": "NV","zip": "89123","zip+4": "0000","phone": "7026169471","NPI": "     1437258274"}, 
{"id": 30703,"ncpdp": "2991455","pharmacy_name": "CHILDRENS URGENT CARE","address1": "1600 WEST SUNSET ROAD","address2": "","city": "HENDERSON","state": "NV","zip": "89014","zip+4": "0000","phone": "7028986400","NPI": "     1043397797"}, 
{"id": 30704,"ncpdp": "2991479","pharmacy_name": "PROCARE MEDICAL CENTER","address1": "6870 SOUTH RAINBOW BLVD","address2": "106 &107","city": "LAS VEGAS","state": "NV","zip": "89118","zip+4": "0000","phone": "7023966000","NPI": "     1366618019"}, 
{"id": 30705,"ncpdp": "2991493","pharmacy_name": "CENTENNIAL HILLS OB GYN","address1": "1815 EAST LAKE MEAD BLVD","address2": "STE 314","city": "N LAS VEGAS","state": "NV","zip": "89030","zip+4": "0000","phone": "7026490002","NPI": "     1376509182"}, 
{"id": 30706,"ncpdp": "2991506","pharmacy_name": "CHILDRENS URGENT CARE BUFFALO","address1": "3424 NORTH BUFFALO","address2": "","city": "LAS VEGAS","state": "NV","zip": "89129","zip+4": "0000","phone": "7022330174","NPI": "     1750422481"}, 
{"id": 30707,"ncpdp": "2991518","pharmacy_name": "SANS PAIN CLINIC","address1": "6850 N DURANGO DRIVE","address2": "STE 214","city": "LAS VEGAS","state": "NV","zip": "89149","zip+4": "0000","phone": "7023627246","NPI": "     1952389074"}, 
{"id": 30708,"ncpdp": "2991532","pharmacy_name": "TARGET PHARMACY #2497","address1": "7090 N 5TH ST","address2": "","city": "N LAS VEGAS","state": "NV","zip": "89084","zip+4": "0000","phone": "7022164502","NPI": "     1033356415"}, 
{"id": 30709,"ncpdp": "2991544","pharmacy_name": "WALGREENS #11227","address1": "2299 ODDIE BLVD","address2": "","city": "SPARKS","state": "NV","zip": "89431","zip+4": "7573","phone": "7753584721","NPI": "     1083850549"}, 
{"id": 30710,"ncpdp": "2991556","pharmacy_name": "M PHARMACY","address1": "12300 LAS VEGAS BLVD S","address2": "","city": "HENDERSON","state": "NV","zip": "89044","zip+4": "0000","phone": "7027971900","NPI": "     1710125091"}, 
{"id": 30711,"ncpdp": "2991568","pharmacy_name": "CVS PHARMACY #00157","address1": "2890 NORTHTOWNE LANE","address2": "","city": "RENO","state": "NV","zip": "89512","zip+4": "0000","phone": "7753584238","NPI": "     1477790012"}, 
{"id": 30712,"ncpdp": "2991570","pharmacy_name": "CLINICA MEDICA DEL PUEBLO","address1": "2832 E LAKE MEAD","address2": "STE E","city": "LAS VEGAS","state": "NV","zip": "89030","zip+4": "0000","phone": "7026495155","NPI": "     1902912488"}, 
{"id": 30713,"ncpdp": "2991582","pharmacy_name": "LIFEFIRST PHARMACY","address1": "4060 N. MARTIN LUTHER KING BLV","address2": "SUITE 101A","city": "N. LAS VEGAS","state": "NV","zip": "89032","zip+4": "0000","phone": "7026465433","NPI": "     1760621155"}, 
{"id": 30714,"ncpdp": "2991594","pharmacy_name": "REDROCK MEDICAL GROUP","address1": "5701 W CHARLESTON BLVD","address2": "STE 100","city": "LAS VEGAS","state": "NV","zip": "89146","zip+4": "0000","phone": "7028779514","NPI": "     1912995309"}, 
{"id": 30715,"ncpdp": "2991619","pharmacy_name": "ROBERT VANCE DO","address1": "8440 W LAKE MEAD BLVD","address2": "STE 210","city": "LAS VEGAS","state": "NV","zip": "89128","zip+4": "0000","phone": "7022560121","NPI": "     1245375039"}, 
{"id": 30716,"ncpdp": "2991621","pharmacy_name": "RX DISCOUNT PHARMACY #5","address1": "4079 SPRING MOUNTAIN RD","address2": "","city": "LAS VEGAS","state": "NV","zip": "89102","zip+4": "0000","phone": "7028762273","NPI": "     1457590580"}, 
{"id": 30717,"ncpdp": "2991657","pharmacy_name": "CVS PHARMACY # #01507","address1": "2935 S. HOLLYWOOD BLVD","address2": "","city": "LAS VEGAS","state": "NV","zip": "89122","zip+4": "0000","phone": "7022072367","NPI": "     1205076957"}, 
{"id": 30718,"ncpdp": "2991669","pharmacy_name": "WELLCARE PHARMACY-DECATUR","address1": "542 S. DECATUR BLVD.","address2": "","city": "LAS VEGAS","state": "NV","zip": "89107","zip+4": "0000","phone": "7022580235","NPI": "     1043450380"}, 
{"id": 30719,"ncpdp": "2991671","pharmacy_name": "DRUG PLUS PHARMACY","address1": "2451 W HORIZON RIDGE PKWY","address2": "STE 110","city": "HENDERSON","state": "NV","zip": "89052","zip+4": "0000","phone": "7028348152","NPI": "     1164661914"}, 
{"id": 30720,"ncpdp": "2991683","pharmacy_name": "CROVETTI ORTHOPAEDICS","address1": "2779 W HORIZON RIDGE","address2": "STE 200","city": "HENDERSON","state": "NV","zip": "89052","zip+4": "0000","phone": "7029902290","NPI": "     1487788873"}, 
{"id": 30721,"ncpdp": "2991708","pharmacy_name": "APOTHECARY SHOP OF LAS VEGAS I","address1": "701 SHADOW LN","address2": "STE 110","city": "LAS VEGAS","state": "NV","zip": "89106","zip+4": "0000","phone": "7023824176","NPI": "     1629219290"}, 
{"id": 30722,"ncpdp": "2991746","pharmacy_name": "CATHAY MEDICAL","address1": "5300 W SPRING MOUNTAIN ROAD","address2": "STE 112","city": "LAS VEGAS","state": "NV","zip": "89146","zip+4": "0000","phone": "7023626373","NPI": "     1720151350"}, 
{"id": 30723,"ncpdp": "2991758","pharmacy_name": "VISTA MEDICAL ASSOCIATES","address1": "1905 MCDANIEL","address2": "STE 105","city": "NORTH LAS VEGAS","state": "NV","zip": "89030","zip+4": "0000","phone": "7026573773","NPI": "     1962403121"}, 
{"id": 30724,"ncpdp": "2991760","pharmacy_name": "STERLING MEDICAL GROUP","address1": "4415 W FLAMINGO ROAD","address2": "","city": "LAS VEGAS","state": "NV","zip": "89103","zip+4": "0000","phone": "7022207700","NPI": "     1972684629"}, 
{"id": 30725,"ncpdp": "2991772","pharmacy_name": "WALGREENS #12641","address1": "9300 W SAHARA AVE","address2": "","city": "LAS VEGAS","state": "NV","zip": "89117","zip+4": "5351","phone": "7022282480","NPI": "     1467694752"}, 
{"id": 30726,"ncpdp": "2991784","pharmacy_name": "FAMILY PHARMACY","address1": "1360 E HIGHWAY 372 # 15","address2": "","city": "PAHRUMP","state": "NV","zip": "89048","zip+4": "0000","phone": "7757511144","NPI": "     1730322439"}, 
{"id": 30727,"ncpdp": "2991811","pharmacy_name": "CLINICA MEDICA DEL PUEBLO #2","address1": "220 NORTH LAMB BLVD","address2": "","city": "LAS VEGAS","state": "NV","zip": "89110","zip+4": "0000","phone": "7024592401","NPI": "     1619110350"}, 
{"id": 30728,"ncpdp": "2991835","pharmacy_name": "TARGET PHARMACY #2569","address1": "6371 N DECATUR BLVD","address2": "","city": "LAS VEGAS","state": "NV","zip": "89130","zip+4": "8001","phone": "7025158541","NPI": "     1295960318"}, 
{"id": 30729,"ncpdp": "2991897","pharmacy_name": "WALGREENS #11226","address1": "305 LEMMON DR","address2": "","city": "RENO","state": "NV","zip": "89506","zip+4": "6746","phone": "7756776874","NPI": "     1740416064"}, 
{"id": 30730,"ncpdp": "2991924","pharmacy_name": "NEVADA CANCER CENTER","address1": "8285 W ARBY AVENUE","address2": "STE 100B","city": "LAS VEGAS","state": "NV","zip": "89113","zip+4": "0000","phone": "7027357154","NPI": "     1326261298"}, 
{"id": 30731,"ncpdp": "2991936","pharmacy_name": "TENDERCARE PEDIATRICS","address1": "2810 S JONES BLVD","address2": "STE 1","city": "LAS VEGAS","state": "NV","zip": "89146","zip+4": "0000","phone": "7028731899","NPI": "     1235133224"}, 
{"id": 30732,"ncpdp": "2991948","pharmacy_name": "CVS PHARMACY # #06625","address1": "1081 STEAMBOAT PKWY","address2": "","city": "RENO","state": "NV","zip": "89521","zip+4": "0000","phone": "7758522111","NPI": "     1508095118"}, 
{"id": 30733,"ncpdp": "2991962","pharmacy_name": "ABC PHARMACY","address1": "3050 E BONANZA RD STE 140","address2": "","city": "LAS VEGAS","state": "NV","zip": "89101","zip+4": "3706","phone": "7025418000","NPI": "     1982834131"}, 
{"id": 30734,"ncpdp": "2991974","pharmacy_name": "SIERRA NEVADA ENT ASSOCIAT","address1": "2874 N. CARSON ST.","address2": "SUITE 220","city": "CARSON CITY","state": "NV","zip": "89706","zip+4": "0000","phone": "7758837666","NPI": "     1710075437"}, 
{"id": 30735,"ncpdp": "2991998","pharmacy_name": "TARGET PHARMACY #2568","address1": "695 S GREEN VALLEY PKWY","address2": "","city": "HENDERSON","state": "NV","zip": "89052","zip+4": "0404","phone": "7022167101","NPI": "     1114159845"}, 
{"id": 59644,"ncpdp": "9500623","pharmacy_name": "UMC DEPT OF PHARMACY SERVICES","address1": "1800 WEST CHARLESTON BLVD","address2": "","city": "LAS VEGAS","state": "NV","zip": "89102","zip+4": "0000","phone": "7023832606","NPI": ""}, 
{"id": 59515,"ncpdp": "9000522","pharmacy_name": "SCOLARI\'S FOOD AND DRUG CO","address1": "255 S MCCARRAN BLVD","address2": "","city": "SPARKS","state": "NV","zip": "89431","zip+4": "0000","phone": "7753562558","NPI": ""}, 
