{"id": 41445,"ncpdp": "3700057","pharmacy_name": "MAYS #36","address1": "6160 SOUTH YALE","address2": "","city": "TULSA","state": "OK","zip": "74136","zip+4": "0000","phone": "9184927400","NPI": "     1013091156"}, 
{"id": 41446,"ncpdp": "3700069","pharmacy_name": "WALGREEN DRUG STORE #5421","address1": "1438 N LEWIS AVE","address2": "","city": "TULSA","state": "OK","zip": "74110","zip+4": "0000","phone": "9185837591","NPI": "     1326053380"}, 
{"id": 41447,"ncpdp": "3700273","pharmacy_name": "T ROY BARNES DRUGRY #4","address1": "3404 S YALE AVE","address2": "","city": "TULSA","state": "OK","zip": "74135","zip+4": "8016","phone": "9187436623","NPI": "     1316030745"}, 
{"id": 41448,"ncpdp": "3700285","pharmacy_name": "QUALITY CARE PHARMACY #2","address1": "3414 S YALE","address2": "STE F","city": "TULSA","state": "OK","zip": "74135","zip+4": "0000","phone": "9187494200","NPI": "     1225121650"}, 
{"id": 41449,"ncpdp": "3700413","pharmacy_name": "MEDX #3","address1": "5234 NORTH PEORIA AVE","address2": "","city": "TULSA","state": "OK","zip": "74126","zip+4": "0000","phone": "9184251341","NPI": "     1831273978"}, 
{"id": 41450,"ncpdp": "3700425","pharmacy_name": "MEDX #4","address1": "4423 SOUTHWEST BLVD","address2": "","city": "TULSA","state": "OK","zip": "74107","zip+4": "6472","phone": "9184463541","NPI": "     1740364884"}, 
{"id": 41451,"ncpdp": "3700449","pharmacy_name": "MEDX #7","address1": "1515 NORTH HARVARD AVE","address2": "","city": "TULSA","state": "OK","zip": "74115","zip+4": "0000","phone": "9188343366","NPI": "     1659455798"}, 
{"id": 41452,"ncpdp": "3700463","pharmacy_name": "DRUG WAREHOUSE #1","address1": "11331 E 31ST ST","address2": "","city": "TULSA","state": "OK","zip": "74145","zip+4": "0000","phone": "9186274142","NPI": "     1568546604"}, 
{"id": 41453,"ncpdp": "3700487","pharmacy_name": "JOHNS DRUG STORE","address1": "201 E ROGERS BLVD AND A ST","address2": "","city": "SKIATOOK","state": "OK","zip": "74070","zip+4": "0000","phone": "9183961636","NPI": "     1073658316"}, 
{"id": 41454,"ncpdp": "3700499","pharmacy_name": "PALACE DRUG STORE","address1": "301 N BROADWAY ST","address2": "","city": "CLEVELAND","state": "OK","zip": "74020","zip+4": "3421","phone": "9183582524","NPI": "     1922142736"}, 
{"id": 41455,"ncpdp": "3700590","pharmacy_name": "KENDALL DRUG","address1": "222 E ROGERS","address2": "","city": "SKIATOOK","state": "OK","zip": "74070","zip+4": "1250","phone": "9183962411","NPI": "     1023102431"}, 
{"id": 41456,"ncpdp": "3700677","pharmacy_name": "REASORS PHARMACY #9","address1": "11815 E 86TH ST N","address2": "","city": "OWASSO","state": "OK","zip": "74055","zip+4": "0000","phone": "9182723030","NPI": "     1972679637"}, 
{"id": 41457,"ncpdp": "3700689","pharmacy_name": "COLLINSVILLE FAMILY PHARMACY","address1": "1205 W MAIN ST","address2": "","city": "COLLINSVILLE","state": "OK","zip": "74021","zip+4": "3114","phone": "9183712547","NPI": "     1336185222"}, 
{"id": 41458,"ncpdp": "3700691","pharmacy_name": "HEALTH CENTER PHARMACY","address1": "113 E BLUE STARR DRIVE","address2": "","city": "CLAREMORE","state": "OK","zip": "74017","zip+4": "0000","phone": "9183411236","NPI": "     1720001720"}, 
{"id": 41459,"ncpdp": "3700843","pharmacy_name": "BLACK DRUG","address1": "412 E MAIN ST","address2": "","city": "LOCUST GROVE","state": "OK","zip": "74352","zip+4": "0000","phone": "9184795223","NPI": "     1952452955"}, 
{"id": 41460,"ncpdp": "3701198","pharmacy_name": "OSBORN DRUGS INC","address1": "11 W CENTRAL","address2": "PO BOX 31","city": "MIAMI","state": "OK","zip": "74355","zip+4": "0000","phone": "9185424444","NPI": "     1568413128"}, 
{"id": 41461,"ncpdp": "3701201","pharmacy_name": "GROVE DRIVE-IN PHARMACY","address1": "1027 S MAIN","address2": "","city": "GROVE","state": "OK","zip": "74344","zip+4": "0000","phone": "9187862268","NPI": "     1053404293"}, 
{"id": 41462,"ncpdp": "3701263","pharmacy_name": "PLYMOUTH DRUG COMPANY","address1": "25 SOUTH PARK","address2": "","city": "SAPULPA","state": "OK","zip": "74066","zip+4": "0000","phone": "9182243883","NPI": "     1184743668"}, 
{"id": 41463,"ncpdp": "3701275","pharmacy_name": "V AND V DRUG","address1": "201 N SCRAPER ST","address2": "","city": "VINITA","state": "OK","zip": "74301","zip+4": "3209","phone": "9182562541","NPI": "     1407938202"}, 
{"id": 41464,"ncpdp": "3701287","pharmacy_name": "MEDX #11","address1": "1714 UTICA SQUARE","address2": "","city": "TULSA","state": "OK","zip": "74114","zip+4": "0000","phone": "9187439968","NPI": "     1477637510"}, 
{"id": 41465,"ncpdp": "3701314","pharmacy_name": "T ROY BARNES DRUGRY #5","address1": "9757 E 31ST ST","address2": "","city": "TULSA","state": "OK","zip": "74146","zip+4": "1222","phone": "9186223213","NPI": "     1447335732"}, 
{"id": 41466,"ncpdp": "3701403","pharmacy_name": "SAFFA COMPOUNDING PHARMACY","address1": "8002 S SHERIDAN","address2": "","city": "TULSA","state": "OK","zip": "74133","zip+4": "8945","phone": "9184924242","NPI": "     1598766263"}, 
{"id": 41467,"ncpdp": "3701453","pharmacy_name": "HENRYETTA DRUGS","address1": "623 W MAIN ST","address2": "","city": "HENRYETTA","state": "OK","zip": "74437","zip+4": "4242","phone": "9186523361","NPI": "     1811995301"}, 
{"id": 41468,"ncpdp": "3701489","pharmacy_name": "WILSON PHARMACY","address1": "7128 E RENO","address2": "STE A","city": "MIDWEST CITY","state": "OK","zip": "73110","zip+4": "0000","phone": "4057373464","NPI": "     1669576625"}, 
{"id": 41469,"ncpdp": "3701516","pharmacy_name": "EXCHANGE PHARMACY","address1": "2300 EXCHANGE","address2": "","city": "OKLAHOMA CITY","state": "OK","zip": "73108","zip+4": "2436","phone": "4052354242","NPI": "     1467661413"}, 
{"id": 41470,"ncpdp": "3701617","pharmacy_name": "LASSITER DRUG #4","address1": "3252 SE 29TH ST","address2": "","city": "DEL CITY","state": "OK","zip": "73115","zip+4": "0000","phone": "4056770549","NPI": "     1538266796"}, 
{"id": 41471,"ncpdp": "3701720","pharmacy_name": "PARKVIEW PHARMACY #434162","address1": "115 MEDICAL DR","address2": "","city": "GUYMON","state": "OK","zip": "73942","zip+4": "3698","phone": "5803387565","NPI": "     1063591436"}, 
{"id": 41472,"ncpdp": "3701794","pharmacy_name": "RTS FAMILY DISCOUNT PHARMACY","address1": "310 FAIRVIEW","address2": "","city": "PONCA CITY","state": "OK","zip": "74601","zip+4": "0000","phone": "5807626335","NPI": "     1316029119"}, 
{"id": 41473,"ncpdp": "3701833","pharmacy_name": "CLINIC PHARMACY","address1": "1210 N LELIA","address2": "","city": "GUYMON","state": "OK","zip": "73942","zip+4": "3640","phone": "5803383339","NPI": "     1508945486"}, 
{"id": 41474,"ncpdp": "3701845","pharmacy_name": "RELIABLE DISCOUNT PHARMACY INC","address1": "5900 S PENNSYLVANIA STE A","address2": "","city": "OKLAHOMA CITY","state": "OK","zip": "73119","zip+4": "7098","phone": "4056816631","NPI": "     1134212566"}, 
{"id": 41475,"ncpdp": "3701871","pharmacy_name": "BETHANY UNITED DRUG COMPANY","address1": "6736 NW 39TH EXPY","address2": "","city": "BETHANY","state": "OK","zip": "73008","zip+4": "2647","phone": "4057892126","NPI": "     1962559583"}, 
{"id": 41476,"ncpdp": "3701922","pharmacy_name": "RX PRESCRIPTION SHOP #1","address1": "6517 S WESTERN AVE","address2": "","city": "OKLAHOMA CITY","state": "OK","zip": "73139","zip+4": "1705","phone": "4056341415","NPI": "     1265598536"}, 
{"id": 41477,"ncpdp": "3702063","pharmacy_name": "REASORS PHARMACY #20","address1": "446 SOUTH ELM","address2": "","city": "JENKS","state": "OK","zip": "74037","zip+4": "0000","phone": "9182992684","NPI": "     1881760544"}, 
{"id": 41478,"ncpdp": "3702176","pharmacy_name": "CONRAD MARR DRUG","address1": "2600 N MUSTANG RD","address2": "","city": "YUKON","state": "OK","zip": "73099","zip+4": "1801","phone": "4053542582","NPI": "     1225148547"}, 
{"id": 41479,"ncpdp": "3702227","pharmacy_name": "UNITED DISCOUNT PHARMACY #2","address1": "5420 N PORTLAND","address2": "","city": "OKLAHOMA CITY","state": "OK","zip": "73112","zip+4": "2072","phone": "4059476828","NPI": "     1598840670"}, 
{"id": 41480,"ncpdp": "3702265","pharmacy_name": "BARRETT DRUG CENTER","address1": "410 W EDMOND RD","address2": "","city": "EDMOND","state": "OK","zip": "73003","zip+4": "0000","phone": "4053411505","NPI": "     1225110026"}, 
{"id": 41481,"ncpdp": "3702328","pharmacy_name": "NEWCASTLE DRUG COMPANY","address1": "1021 N MAIN ST","address2": "","city": "NEWCASTLE","state": "OK","zip": "73065","zip+4": "4122","phone": "4053874386","NPI": "     1396800835"}, 
{"id": 41482,"ncpdp": "3702342","pharmacy_name": "CVS PHARMACY #05959","address1": "900 SW 44TH ST","address2": "","city": "OKLAHOMA CITY","state": "OK","zip": "73109","zip+4": "0000","phone": "4056821651","NPI": "     1326142159"}, 
{"id": 41483,"ncpdp": "3702392","pharmacy_name": "FREELAND BROWN PHARMACY INC","address1": "4112 S PEORIA","address2": "","city": "TULSA","state": "OK","zip": "74105","zip+4": "4579","phone": "9187434491","NPI": "     1710910237"}, 
{"id": 41484,"ncpdp": "3702443","pharmacy_name": "CVS PHARMACY # #06003","address1": "4026 N MACARTHUR BLVD","address2": "","city": "WARR ACRES","state": "OK","zip": "73122","zip+4": "0000","phone": "4057890101","NPI": "     1235233065"}, 
{"id": 41485,"ncpdp": "3702455","pharmacy_name": "CVS PHARMACY # #06004","address1": "9401 N PENNSYLVANIA PL","address2": "","city": "THE VILLAGE","state": "OK","zip": "73120","zip+4": "0000","phone": "4057513553","NPI": "     1053415885"}, 
{"id": 41486,"ncpdp": "3702467","pharmacy_name": "CVS PHARMACY # #06006","address1": "6951 SE 15TH ST","address2": "","city": "MIDWEST CITY","state": "OK","zip": "73110","zip+4": "0000","phone": "4057377886","NPI": "     1962506790"}, 
{"id": 41487,"ncpdp": "3702479","pharmacy_name": "CVS PHARMACY # #06010","address1": "2412 N CLASSEN BLVD","address2": "","city": "OKLAHOMA CITY","state": "OK","zip": "73106","zip+4": "0000","phone": "4055210996","NPI": "     1780788513"}, 
{"id": 41488,"ncpdp": "3702481","pharmacy_name": "UNITED PHARMACY","address1": "901 S CORNWELL","address2": "","city": "YUKON","state": "OK","zip": "73099","zip+4": "0000","phone": "4053545233","NPI": "     1043380124"}, 
{"id": 41489,"ncpdp": "3702544","pharmacy_name": "CLINIC PHARMACY","address1": "120 N BRYANT","address2": "","city": "EDMOND","state": "OK","zip": "73034","zip+4": "6303","phone": "4053418490","NPI": "     1982742979"}, 
{"id": 41490,"ncpdp": "3702594","pharmacy_name": "BESTYET PHARMACY","address1": "600 W STRUTHERS","address2": "","city": "SEMINOLE","state": "OK","zip": "74818","zip+4": "0991","phone": "4053824130","NPI": "     1174689442"}, 
{"id": 41491,"ncpdp": "3702607","pharmacy_name": "CVS PHARMACY # #06009","address1": "5025 N MAY AVE","address2": "","city": "OKLAHOMA CITY","state": "OK","zip": "73112","zip+4": "0000","phone": "4059476743","NPI": "     1407950231"}, 
{"id": 41492,"ncpdp": "3702621","pharmacy_name": "RUKES DISCOUNT PHARMACY INC","address1": "108 S ROCK ISLAND","address2": "","city": "EL RENO","state": "OK","zip": "73036","zip+4": "0000","phone": "4052625590","NPI": "     1629157391"}, 
{"id": 41493,"ncpdp": "3702784","pharmacy_name": "BEGGS PHARMACY","address1": "200 S ADAIR ST","address2": "","city": "PRYOR","state": "OK","zip": "74361","zip+4": "0000","phone": "9188253059","NPI": "     1265594279"}, 
{"id": 41494,"ncpdp": "3702823","pharmacy_name": "V AND V DRUG","address1": "453 S MAIN","address2": "","city": "JAY","state": "OK","zip": "74346","zip+4": "0449","phone": "9182534519","NPI": "     1245314988"}, 
{"id": 41495,"ncpdp": "3702873","pharmacy_name": "CANADIAN VALLEY PHARMACY","address1": "2005 PARKVIEW DR","address2": "STE 3","city": "EL RENO","state": "OK","zip": "73036","zip+4": "2107","phone": "4052624154","NPI": "     1265442164"}, 
{"id": 41496,"ncpdp": "3702885","pharmacy_name": "LEWIS PHARMACY","address1": "219 E JOSEPHINE","address2": "","city": "FREDERICK","state": "OK","zip": "73542","zip+4": "0000","phone": "5803357575","NPI": "     1356456156"}, 
{"id": 41497,"ncpdp": "3702900","pharmacy_name": "HOSPITAL DISCOUNT PHARMACY","address1": "104 S BRYANT","address2": "","city": "EDMOND","state": "OK","zip": "73034","zip+4": "6327","phone": "4053481677","NPI": "     1790823789"}, 
{"id": 41498,"ncpdp": "3702948","pharmacy_name": "DISHMANS PHARMACY","address1": "1310 SW LEE BLVD","address2": "","city": "LAWTON","state": "OK","zip": "73501","zip+4": "0000","phone": "5803538560","NPI": "     1598763005"}, 
{"id": 41499,"ncpdp": "3702950","pharmacy_name": "OWL DRUG STORE INC","address1": "115 S MAIN ST","address2": "","city": "WAGONER","state": "OK","zip": "74467","zip+4": "5220","phone": "9184852722","NPI": "     1396753786"}, 
{"id": 41500,"ncpdp": "3702974","pharmacy_name": "CREST RX PHARMACY","address1": "249 N DOUGLAS BLVD","address2": "","city": "MIDWEST CITY","state": "OK","zip": "73130","zip+4": "0000","phone": "4057414411","NPI": "     1043303472"}, 
{"id": 41501,"ncpdp": "3702998","pharmacy_name": "SOONER PHARMACY","address1": "1811 W LINDSAY STREET","address2": "","city": "NORMAN","state": "OK","zip": "73069","zip+4": "4307","phone": "4053296001","NPI": "     1134201932"}, 
{"id": 41502,"ncpdp": "3703128","pharmacy_name": "SOONER PHARMACY","address1": "815 W BROADWAY ST","address2": "","city": "SULPHUR","state": "OK","zip": "73086","zip+4": "0579","phone": "5806222208","NPI": "     1699858134"}, 
{"id": 41503,"ncpdp": "3703130","pharmacy_name": "LIBERTY DRUG INC","address1": "315 CHICKASHA AVE","address2": "","city": "CHICKASHA","state": "OK","zip": "73018","zip+4": "0000","phone": "4052241204","NPI": "     1477631984"}, 
{"id": 41504,"ncpdp": "3703205","pharmacy_name": "ECK DRUG CO INC","address1": "322 W MAIN ST","address2": "","city": "HEALDTON","state": "OK","zip": "73438","zip+4": "0460","phone": "5802291141","NPI": "     1952494387"}, 
{"id": 41505,"ncpdp": "3703229","pharmacy_name": "COUCH PHARMACY ON SHERIDAN","address1": "444 S SHERIDAN RD","address2": "","city": "TULSA","state": "OK","zip": "74112","zip+4": "1716","phone": "9188359577","NPI": "     1538248208"}, 
{"id": 41506,"ncpdp": "3703231","pharmacy_name": "SAPULPA DRIVE IN PHARMACY INC","address1": "1029 E CLEVELAND AVE","address2": "","city": "SAPULPA","state": "OK","zip": "74066","zip+4": "4516","phone": "9182246558","NPI": "     1912016148"}, 
{"id": 41507,"ncpdp": "3703243","pharmacy_name": "LARRYS HEALTHMART PHARMACY","address1": "1012 W 2ND ST","address2": "","city": "SULPHUR","state": "OK","zip": "73086","zip+4": "0000","phone": "5806223131","NPI": "     1285645184"}, 
{"id": 41508,"ncpdp": "3703306","pharmacy_name": "DICUS PHARMACY","address1": "312 W 12TH ST","address2": "","city": "ADA","state": "OK","zip": "74820","zip+4": "6497","phone": "5803328888","NPI": "     1336257146"}, 
{"id": 41509,"ncpdp": "3703320","pharmacy_name": "WAL-MART PHARMACY #100231","address1": "1419 N COUNTRY CLUB RD","address2": "","city": "ADA","state": "OK","zip": "74820","zip+4": "0000","phone": "5803324755","NPI": "     1679590772"}, 
{"id": 41510,"ncpdp": "3703433","pharmacy_name": "BUNKER HILL PHARMACY","address1": "1600 N MAIN","address2": "","city": "ALTUS","state": "OK","zip": "73521","zip+4": "2196","phone": "5804827530","NPI": "     1861585291"}, 
{"id": 41511,"ncpdp": "3703495","pharmacy_name": "UNITED DISCOUNT DRUG","address1": "600 E BROADWAY ST","address2": "","city": "ALTUS","state": "OK","zip": "73521","zip+4": "5594","phone": "5804770800","NPI": "     1952483752"}, 
{"id": 41512,"ncpdp": "3703712","pharmacy_name": "T AND M PHARMACY","address1": "423 12TH AVE NW","address2": "","city": "ARDMORE","state": "OK","zip": "73401","zip+4": "5700","phone": "5802230671","NPI": "     1295828630"}, 
{"id": 41513,"ncpdp": "3703875","pharmacy_name": "WAL-MART PHARMACY #100041","address1": "4000 GREEN COUNTRY RD","address2": "","city": "BARTLESVILLE","state": "OK","zip": "74006","zip+4": "0000","phone": "9183336910","NPI": "     1497772503"}, 
{"id": 41514,"ncpdp": "3703899","pharmacy_name": "DONS PHARMACY","address1": "6801 NW 39TH EXPY","address2": "","city": "BETHANY","state": "OK","zip": "73008","zip+4": "2599","phone": "4057892453","NPI": "     1083770358"}, 
{"id": 41515,"ncpdp": "3703902","pharmacy_name": "WESTERN OAKS PHARMACY","address1": "2703 N ROCKWELL","address2": "","city": "BETHANY","state": "OK","zip": "73008","zip+4": "0000","phone": "4057896881","NPI": "     1538231907"}, 
{"id": 41516,"ncpdp": "3703952","pharmacy_name": "HUTTON PHARMACY","address1": "119 N MAIN","address2": "","city": "BLACKWELL","state": "OK","zip": "74631","zip+4": "0110","phone": "5803632137","NPI": "     1023004215"}, 
{"id": 41517,"ncpdp": "3703976","pharmacy_name": "BLANCHARD RED CROSS DRUG","address1": "301 NE 10TH STREET","address2": "","city": "BLANCHARD","state": "OK","zip": "73010","zip+4": "0000","phone": "4054859311","NPI": "     1659451953"}, 
{"id": 41518,"ncpdp": "3704017","pharmacy_name": "CHANDLER HEWITT DRUG","address1": "121 N MAIN ST","address2": "","city": "BROKEN BOW","state": "OK","zip": "74728","zip+4": "3973","phone": "5805843378","NPI": "     1447339114"}, 
{"id": 41519,"ncpdp": "3704029","pharmacy_name": "SHERILLS PHARMACY AND GIFTS","address1": "101 MAIN ST","address2": "","city": "BROKEN BOW","state": "OK","zip": "74728","zip+4": "3973","phone": "5805843353","NPI": "     1578584538"}, 
{"id": 41520,"ncpdp": "3704043","pharmacy_name": "T AND L PHARMACY INC","address1": "1001 HWY 64 N","address2": "","city": "BUFFALO","state": "OK","zip": "73834","zip+4": "0120","phone": "5807352161","NPI": "     1982698585"}, 
{"id": 41521,"ncpdp": "3704081","pharmacy_name": "LIBERTY DRUG","address1": "15 WEST MAIN","address2": "","city": "CARNEGIE","state": "OK","zip": "73015","zip+4": "0000","phone": "5806541111","NPI": "     1467463026"}, 
{"id": 41522,"ncpdp": "3704106","pharmacy_name": "CENTRAL DRUG STORE INC","address1": "307 N MAIN ST","address2": "","city": "CEMENT","state": "OK","zip": "73017","zip+4": "0000","phone": "4054893521","NPI": "     1356348478"}, 
{"id": 41523,"ncpdp": "3704118","pharmacy_name": "HITE DRUG","address1": "913 MANVEL AVE","address2": "","city": "CHANDLER","state": "OK","zip": "74834","zip+4": "3851","phone": "4052581218","NPI": "     1710063599"}, 
{"id": 41524,"ncpdp": "3704170","pharmacy_name": "SMITH DRUG","address1": "121 S GRAND","address2": "","city": "CHEROKEE","state": "OK","zip": "73728","zip+4": "2028","phone": "5805962411","NPI": "     1952459950"}, 
{"id": 41525,"ncpdp": "3704182","pharmacy_name": "CHEYENNE PROFESSIONAL DRUG","address1": "413 BROADWAY","address2": "","city": "CHEYENNE","state": "OK","zip": "73628","zip+4": "0000","phone": "5804973325","NPI": "     1720011596"}, 
{"id": 41526,"ncpdp": "3704283","pharmacy_name": "S & D DRUG","address1": "915 FRISCO AVE","address2": "","city": "CLINTON","state": "OK","zip": "73601","zip+4": "0937","phone": "5803232020","NPI": "     1174520324"}, 
{"id": 41527,"ncpdp": "3704295","pharmacy_name": "SALISBURY PHARMACY","address1": "815 FRISCO AVE","address2": "","city": "CLINTON","state": "OK","zip": "73601","zip+4": "0000","phone": "5803231244","NPI": "     1891851168"}, 
{"id": 41528,"ncpdp": "3704308","pharmacy_name": "PALACE DRUG STORE","address1": "104 N OHIO","address2": "","city": "COALGATE","state": "OK","zip": "74538","zip+4": "0000","phone": "5809272064","NPI": "     1780767731"}, 
{"id": 41529,"ncpdp": "3704346","pharmacy_name": "EVETTS DRUG INC","address1": "100 E 1ST ST","address2": "","city": "CORDELL","state": "OK","zip": "73632","zip+4": "4810","phone": "5808323388","NPI": "     1104919547"}, 
{"id": 41530,"ncpdp": "3704372","pharmacy_name": "CITY DRUG OF COWETA","address1": "114 N BROADWAY","address2": "","city": "COWETA","state": "OK","zip": "74429","zip+4": "2600","phone": "9184862193","NPI": "     1326074469"}, 
{"id": 41531,"ncpdp": "3704384","pharmacy_name": "DONS DRUG","address1": "101 N GRAND","address2": "","city": "CRESCENT","state": "OK","zip": "73028","zip+4": "0000","phone": "4059693518","NPI": "     1134135932"}, 
{"id": 41532,"ncpdp": "3704411","pharmacy_name": "BAKER PHARMACY INC","address1": "1022 E CHERRY ST","address2": "","city": "CUSHING","state": "OK","zip": "74023","zip+4": "4102","phone": "9182252200","NPI": "     1245387307"}, 
{"id": 41533,"ncpdp": "3704459","pharmacy_name": "CITY DRUG OF DAVIS","address1": "218 E MAIN ST","address2": "","city": "DAVIS","state": "OK","zip": "73030","zip+4": "1904","phone": "5803692831","NPI": "     1861574667"}, 
{"id": 41534,"ncpdp": "3704586","pharmacy_name": "R AND S DRUG #1","address1": "821 W MAIN ST","address2": "","city": "DUNCAN","state": "OK","zip": "73533","zip+4": "0000","phone": "5802556292","NPI": "     1013000454"}, 
{"id": 41535,"ncpdp": "3704598","pharmacy_name": "R AND S DRUG #2","address1": "101 E MAIN ST","address2": "","city": "DUNCAN","state": "OK","zip": "73533","zip+4": "6658","phone": "5802559648","NPI": "     1821007048"}, 
{"id": 41536,"ncpdp": "3704613","pharmacy_name": "CORNER DRUG OF DURANT","address1": "1005 W MAIN ST","address2": "","city": "DURANT","state": "OK","zip": "74701","zip+4": "4900","phone": "5809244444","NPI": "     1922191360"}, 
{"id": 41537,"ncpdp": "3704651","pharmacy_name": "MEDICAL CENTER PHARMACY INC","address1": "1022 RADIO RD","address2": "","city": "DURANT","state": "OK","zip": "74701","zip+4": "0000","phone": "5809247425","NPI": "     1609817840"}, 
{"id": 41538,"ncpdp": "3704738","pharmacy_name": "PAUL JONES DRUG","address1": "105 N MAIN ST","address2": "","city": "ELK CITY","state": "OK","zip": "73644","zip+4": "0000","phone": "5802253263","NPI": "     1124024740"}, 
{"id": 41539,"ncpdp": "3704752","pharmacy_name": "SWARTZ DRUG","address1": "122 W BROADWAY","address2": "","city": "ELK CITY","state": "OK","zip": "73644","zip+4": "0000","phone": "5802253610","NPI": "     1831282276"}, 
{"id": 41540,"ncpdp": "3704790","pharmacy_name": "EVANS DRUG LLC","address1": "1106 W WILLOW RD","address2": "","city": "ENID","state": "OK","zip": "73703","zip+4": "2503","phone": "5802344343","NPI": "     1346274693"}, 
{"id": 41541,"ncpdp": "3704827","pharmacy_name": "FAMILY PHARMACY","address1": "915 E GARRIOTT RD","address2": "","city": "ENID","state": "OK","zip": "73701","zip+4": "6153","phone": "5802334244","NPI": "     1598845000"}, 
{"id": 41542,"ncpdp": "3704865","pharmacy_name": "SCHEFFE PRESCRIPTION SHOP MEDI","address1": "302 S 5TH ST","address2": "","city": "ENID","state": "OK","zip": "73701","zip+4": "5820","phone": "5802332157","NPI": "     1457578379"}, 
{"id": 41543,"ncpdp": "3704877","pharmacy_name": "SCHEFFE PRESCRIPTION SHOP PARK","address1": "330 S 5TH ST","address2": "","city": "ENID","state": "OK","zip": "73701","zip+4": "5825","phone": "5802332128","NPI": "     1285751651"}, 
{"id": 41544,"ncpdp": "3704889","pharmacy_name": "SCHEFFE PRESCRIPTION SHOP","address1": "127 E RANDOLPH ST","address2": "","city": "ENID","state": "OK","zip": "73701","zip+4": "0000","phone": "5802332152","NPI": "     1952481103"}, 
{"id": 41545,"ncpdp": "3704928","pharmacy_name": "MEADOR DRUG","address1": "215 W ROGER MILLER BLVD","address2": "","city": "ERICK","state": "OK","zip": "73645","zip+4": "0090","phone": "5805263311","NPI": "     1215065594"}, 
{"id": 41546,"ncpdp": "3704966","pharmacy_name": "KIDD DRUGS GIFT INC","address1": "104 N MAIN ST","address2": "","city": "FAIRVIEW","state": "OK","zip": "73737","zip+4": "1621","phone": "5802274685","NPI": "     1295880185"}, 
{"id": 41547,"ncpdp": "3705069","pharmacy_name": "GRANITE DRUG STORE","address1": "316 MAIN ST","address2": "","city": "GRANITE","state": "OK","zip": "73547","zip+4": "0158","phone": "5805352130","NPI": "     1295804920"}, 
{"id": 41548,"ncpdp": "3705108","pharmacy_name": "DANIELS DRUG","address1": "206 W OKLAHOMA AVE","address2": "","city": "GUTHRIE","state": "OK","zip": "73044","zip+4": "0000","phone": "4052820661","NPI": "     1710978937"}, 
{"id": 41549,"ncpdp": "3705110","pharmacy_name": "MARKS DRUG","address1": "112 W OKLAHOMA AVE","address2": "","city": "GUTHRIE","state": "OK","zip": "73044","zip+4": "3197","phone": "4052822700","NPI": "     1801936059"}, 
{"id": 41550,"ncpdp": "3705196","pharmacy_name": "GREENS PRESCRIPTION CENTER","address1": "115 E AVE C","address2": "","city": "HEAVENER","state": "OK","zip": "74937","zip+4": "2603","phone": "9186534803","NPI": "     1760523625"}, 
{"id": 41551,"ncpdp": "3705235","pharmacy_name": "LA PORTE PHARMACY","address1": "103 S MAIN","address2": "","city": "HENNESSEY","state": "OK","zip": "73742","zip+4": "0216","phone": "4058532557","NPI": "     1740373182"}, 
{"id": 41552,"ncpdp": "3705273","pharmacy_name": "BOOTHE DRUG STORE","address1": "100 W 4TH ST","address2": "","city": "HOBART","state": "OK","zip": "73651","zip+4": "4010","phone": "5807262221","NPI": "     1376554931"}, 
{"id": 41553,"ncpdp": "3705300","pharmacy_name": "GRINNELL PRESCRIPTION SHOP INC","address1": "304 S BROADWAY","address2": "","city": "HOBART","state": "OK","zip": "73651","zip+4": "0195","phone": "5807262206","NPI": "     1912063892"}, 
{"id": 41554,"ncpdp": "3705386","pharmacy_name": "HOMINY REXALL DRUG","address1": "104 W MAIN ST","address2": "","city": "HOMINY","state": "OK","zip": "74035","zip+4": "1032","phone": "9188852715","NPI": "     1356426647"}, 
{"id": 41555,"ncpdp": "3705463","pharmacy_name": "CHANDLER HEWITT RX","address1": "4 E MAIN ST","address2": "","city": "IDABEL","state": "OK","zip": "74745","zip+4": "4628","phone": "5802863474","NPI": "     1356420020"}, 
{"id": 41556,"ncpdp": "3705487","pharmacy_name": "PALACE DRUG","address1": "1200 SE LINCOLN RD","address2": "","city": "IDABEL","state": "OK","zip": "74745","zip+4": "6059","phone": "5802862190","NPI": "     1588779136"}, 
{"id": 41557,"ncpdp": "3705552","pharmacy_name": "TOMS DRUG STORE","address1": "119 W ADMIRE","address2": "","city": "KINGFISHER","state": "OK","zip": "73750","zip+4": "2627","phone": "4053753202","NPI": "     1659464097"}, 
{"id": 41558,"ncpdp": "3705653","pharmacy_name": "HASKELLS PRESCRIPTION SHOP","address1": "2702 W GORE BLVD","address2": "","city": "LAWTON","state": "OK","zip": "73505","zip+4": "6319","phone": "5803530760","NPI": "     1942366430"}, 
{"id": 41559,"ncpdp": "3705730","pharmacy_name": "LEEDEY DRUG INC","address1": "421 S MAIN","address2": "","city": "LEEDEY","state": "OK","zip": "73654","zip+4": "0296","phone": "5804883393","NPI": "     1508921552"}, 
{"id": 41560,"ncpdp": "3705766","pharmacy_name": "TABORS DRUG INC","address1": "225 S MAIN ST","address2": "","city": "LINDSAY","state": "OK","zip": "73052","zip+4": "5633","phone": "4057564511","NPI": "     1568555902"}, 
{"id": 41561,"ncpdp": "3705817","pharmacy_name": "BRATTON DRUG INC","address1": "109 S OKLAHOMA ST","address2": "","city": "MANGUM","state": "OK","zip": "73554","zip+4": "4219","phone": "5807822195","NPI": "     1306910831"}, 
{"id": 41562,"ncpdp": "3705932","pharmacy_name": "WOODS PHARMACY #1","address1": "7 E CHICKASAW AVE","address2": "","city": "MCALESTER","state": "OK","zip": "74501","zip+4": "0000","phone": "9184234333","NPI": "     1477646818"}, 
{"id": 41563,"ncpdp": "3705968","pharmacy_name": "KENNEDY DRUG CO #1","address1": "107 E CHEROKEE ST","address2": "","city": "MEDFORD","state": "OK","zip": "73759","zip+4": "1209","phone": "5803952831","NPI": "     1235236175"}, 
{"id": 41564,"ncpdp": "3706047","pharmacy_name": "LEONS MEDICAL CLINIC PHARMACY","address1": "322 N SERVICE RD","address2": "","city": "MOORE","state": "OK","zip": "73160","zip+4": "0000","phone": "4057943565","NPI": "     1487704706"}, 
{"id": 41565,"ncpdp": "3706059","pharmacy_name": "MOORE REXALL DRUG","address1": "621 N BROADWAY ST","address2": "","city": "MOORE","state": "OK","zip": "73160","zip+4": "4813","phone": "4057944455","NPI": "     1336135383"}, 
{"id": 41566,"ncpdp": "3706073","pharmacy_name": "JERRYS PHARMACY","address1": "221 MAIN","address2": "","city": "MOUNTAIN VIEW","state": "OK","zip": "73062","zip+4": "0720","phone": "5803472519","NPI": "     1821173055"}, 
{"id": 41567,"ncpdp": "3706085","pharmacy_name": "MULDROW PHARMACY","address1": "710 E SHAWNTEL SMITH BLVD","address2": "","city": "MULDROW","state": "OK","zip": "74948","zip+4": "1109","phone": "9184273243","NPI": "     1447320502"}, 
{"id": 41568,"ncpdp": "3706251","pharmacy_name": "DOCTORS PARK PHARMACY","address1": "500 E ROBINSON ST","address2": "SUITE 200","city": "NORMAN","state": "OK","zip": "73071","zip+4": "6648","phone": "4053645020","NPI": "     1386737724"}, 
{"id": 41569,"ncpdp": "3706314","pharmacy_name": "CENTRAL PHARMACY","address1": "222 ALAMEDA ST","address2": "","city": "NORMAN","state": "OK","zip": "73069","zip+4": "6093","phone": "4053212838","NPI": "     1265511935"}, 
{"id": 41570,"ncpdp": "3706364","pharmacy_name": "CITY HEALTHMART DRUG","address1": "128 E CHEROKEE","address2": "","city": "NOWATA","state": "OK","zip": "74048","zip+4": "2702","phone": "9182733825","NPI": "     1952471039"}, 
{"id": 41571,"ncpdp": "3706415","pharmacy_name": "HAFFNER DRUG","address1": "116 N MAIN ST","address2": "","city": "OKEENE","state": "OK","zip": "73763","zip+4": "9401","phone": "5808223789","NPI": "     1902982267"}, 
{"id": 41572,"ncpdp": "3706439","pharmacy_name": "SOONER DRUG","address1": "324 W BROADWAY ST","address2": "","city": "OKEMAH","state": "OK","zip": "74859","zip+4": "0000","phone": "9186231771","NPI": "     1821154709"}, 
{"id": 41573,"ncpdp": "3706580","pharmacy_name": "PARKER PRESCRIPTION SERV INC","address1": "4901 S PENNSYLVANIA AVE","address2": "","city": "OKLAHOMA CITY","state": "OK","zip": "73119","zip+4": "4991","phone": "4056824423","NPI": "     1881693430"}, 
{"id": 41574,"ncpdp": "3706718","pharmacy_name": "NICHOLS HILLS DRUG","address1": "6411 AVONDALE DR","address2": "","city": "OKLAHOMA CITY","state": "OK","zip": "73116","zip+4": "6483","phone": "4058439501","NPI": "     1194818534"}, 
{"id": 41575,"ncpdp": "3707063","pharmacy_name": "M AND D STAR DRUG COMPANY","address1": "108 S MORTON","address2": "","city": "OKMULGEE","state": "OK","zip": "74447","zip+4": "5022","phone": "9187561322","NPI": "     1265517551"}, 
{"id": 41576,"ncpdp": "3707114","pharmacy_name": "REAVIS DRUG","address1": "110 A BURR AVE","address2": "PO BOX 1220","city": "PAULS VALLEY","state": "OK","zip": "73075","zip+4": "1220","phone": "4052387391","NPI": "     1699772806"}, 
{"id": 41577,"ncpdp": "3707152","pharmacy_name": "PAWNEE HILLCREST PHARMACY","address1": "539 6TH ST","address2": "","city": "PAWNEE","state": "OK","zip": "74058","zip+4": "2542","phone": "9187623666","NPI": "     1003909441"}, 
{"id": 41578,"ncpdp": "3707164","pharmacy_name": "PAWNEE DRUG COMPANY","address1": "553 HARRISON ST","address2": "","city": "PAWNEE","state": "OK","zip": "74058","zip+4": "2566","phone": "9187622148","NPI": "     1497826416"}, 
{"id": 41579,"ncpdp": "3707188","pharmacy_name": "FOSTER CORNER DRUG INC","address1": "328 6TH ST","address2": "","city": "PERRY","state": "OK","zip": "73077","zip+4": "0000","phone": "5803362136","NPI": "     1750418026"}, 
{"id": 41580,"ncpdp": "3707190","pharmacy_name": "PERRY PHARMACY","address1": "800 FIR AVE","address2": "","city": "PERRY","state": "OK","zip": "73077","zip+4": "4239","phone": "5803364474","NPI": "     1558475665"}, 
{"id": 41581,"ncpdp": "3707215","pharmacy_name": "OCONNOR PHARMACY #1","address1": "1113 E HARTFORD","address2": "","city": "PONCA CITY","state": "OK","zip": "74601","zip+4": "2016","phone": "5807653055","NPI": "     1841255379"}, 
{"id": 41582,"ncpdp": "3707289","pharmacy_name": "TONIS WESTSIDE REXALL INC","address1": "301 W GRAND AVE","address2": "","city": "PONCA CITY","state": "OK","zip": "74601","zip+4": "5118","phone": "5807654456","NPI": "     1164437901"}, 
{"id": 41583,"ncpdp": "3707354","pharmacy_name": "SIMPSONS PRAGUE PHARMACY","address1": "917 JIM THORPE BLVD","address2": "","city": "PRAGUE","state": "OK","zip": "74864","zip+4": "0843","phone": "4055674322","NPI": "     1487675443"}, 
{"id": 41584,"ncpdp": "3707392","pharmacy_name": "DON\'S DISCOUNT PHARMACY","address1": "204 WEST MAIN","address2": "","city": "PURCELL","state": "OK","zip": "73080","zip+4": "0000","phone": "4055272186","NPI": "     1770665572"}, 
{"id": 41585,"ncpdp": "3707429","pharmacy_name": "MOORE DRUG INC","address1": "101 W MAIN","address2": "","city": "RINGLING","state": "OK","zip": "73456","zip+4": "0000","phone": "5806622366","NPI": "     1598848541"}, 
{"id": 41586,"ncpdp": "3707443","pharmacy_name": "RYAN DRUG STORE","address1": "520 W WASHINGTON","address2": "","city": "RYAN","state": "OK","zip": "73565","zip+4": "0130","phone": "5807572230","NPI": "     1508938135"}, 
{"id": 41587,"ncpdp": "3707582","pharmacy_name": "CITY PHARMACY","address1": "414 E WASHINGTON AVENUE","address2": "","city": "SAYRE","state": "OK","zip": "73662","zip+4": "0000","phone": "5809283323","NPI": "     1831122555"}, 
{"id": 41588,"ncpdp": "3707594","pharmacy_name": "CLINIC PHARMACY","address1": "1601 N WATTS","address2": "","city": "SAYRE","state": "OK","zip": "73662","zip+4": "0000","phone": "5809283058","NPI": "     1235215807"}, 
{"id": 41589,"ncpdp": "3707621","pharmacy_name": "BIVENS DRUG","address1": "217 N MAIN","address2": "","city": "SEILING","state": "OK","zip": "73663","zip+4": "0426","phone": "5809224812","NPI": "     1639249444"}, 
{"id": 41590,"ncpdp": "3707633","pharmacy_name": "PARKS DRUG","address1": "330 N MAIN ST","address2": "","city": "SEMINOLE","state": "OK","zip": "74818","zip+4": "0030","phone": "4053823870","NPI": "     1073679171"}, 
{"id": 41591,"ncpdp": "3707669","pharmacy_name": "NEWMAN MEDICAL CENTER PHARMACY","address1": "905 S MAIN ST","address2": "","city": "SHATTUCK","state": "OK","zip": "73858","zip+4": "9602","phone": "5809385127","NPI": "     1366515926"}, 
{"id": 41592,"ncpdp": "3707708","pharmacy_name": "RICHARDS DRUG","address1": "324 E MAIN ST","address2": "","city": "SHAWNEE","state": "OK","zip": "74801","zip+4": "7012","phone": "4052737810","NPI": "     1912090358"}, 
{"id": 41593,"ncpdp": "3707758","pharmacy_name": "LARRYS REXALL DRUG","address1": "616 E ST","address2": "","city": "SNYDER","state": "OK","zip": "73566","zip+4": "0344","phone": "5805692008","NPI": "     1235112699"}, 
{"id": 41594,"ncpdp": "3707760","pharmacy_name": "DEDMON PHARMACY INC","address1": "213 W BROADWAY","address2": "","city": "SPIRO","state": "OK","zip": "74959","zip+4": "0000","phone": "9189622131","NPI": "     1821181264"}, 
{"id": 41595,"ncpdp": "3707772","pharmacy_name": "HEADS PHARMACY","address1": "501 NW H ST","address2": "","city": "STIGLER","state": "OK","zip": "74462","zip+4": "1627","phone": "9189678877","NPI": "     1144327081"}, 
{"id": 41596,"ncpdp": "3707823","pharmacy_name": "TIGER DRUG COMPANY","address1": "825 S WALNUT ST","address2": "","city": "STILLWATER","state": "OK","zip": "74074","zip+4": "4226","phone": "4053727900","NPI": "     1174608467"}, 
{"id": 41597,"ncpdp": "3707847","pharmacy_name": "STILWELL PHARMACY","address1": "202 S 2ND STREET","address2": "","city": "STILWELL","state": "OK","zip": "74960","zip+4": "0000","phone": "9186962500","NPI": "     1386768067"}, 
{"id": 41598,"ncpdp": "3707859","pharmacy_name": "BAYLESS DRUG COMPANY","address1": "120 W MAIN","address2": "","city": "STRATFORD","state": "OK","zip": "74872","zip+4": "0150","phone": "5807592312","NPI": "     1538230354"}, 
{"id": 41599,"ncpdp": "3707861","pharmacy_name": "STROUD DRUG","address1": "406 W MAIN","address2": "","city": "STROUD","state": "OK","zip": "74079","zip+4": "3614","phone": "9189682323","NPI": "     1245311943"}, 
{"id": 41600,"ncpdp": "3707897","pharmacy_name": "CHEROKEE HILLS PHARMACY","address1": "1607 D S MUSKOGEE","address2": "","city": "TAHLEQUAH","state": "OK","zip": "74464","zip+4": "0000","phone": "9184562581","NPI": "     1639221492"}, 
{"id": 41601,"ncpdp": "3707950","pharmacy_name": "HALEY DRUG","address1": "102 S COMMERCIAL","address2": "","city": "TEMPLE","state": "OK","zip": "73568","zip+4": "9801","phone": "5803426691","NPI": "     1629113105"}, 
{"id": 41602,"ncpdp": "3707986","pharmacy_name": "THOMAS DRUG COMPANY","address1": "145 W BROADWAY","address2": "","city": "THOMAS","state": "OK","zip": "73669","zip+4": "0347","phone": "5806613545","NPI": "     1740369669"}, 
{"id": 41603,"ncpdp": "3708015","pharmacy_name": "GENE LAFITTE PHARMACY","address1": "140 E MAIN ST","address2": "","city": "TISHOMINGO","state": "OK","zip": "73460","zip+4": "2351","phone": "5803712355","NPI": "     1730272170"}, 
{"id": 41604,"ncpdp": "3708154","pharmacy_name": "DOOLEY PHARMACY","address1": "4120 S 25TH W AVE","address2": "","city": "TULSA","state": "OK","zip": "74107","zip+4": "6506","phone": "9184464524","NPI": "     1578667531"}, 
{"id": 41605,"ncpdp": "3708255","pharmacy_name": "MORTON HEALTH CENTER PHARMACY","address1": "1334 N LANSING AVE","address2": "","city": "TULSA","state": "OK","zip": "74106","zip+4": "4895","phone": "9182956130","NPI": "     1235125741"}, 
{"id": 41606,"ncpdp": "3708471","pharmacy_name": "VIAN PHARMACY","address1": "10 THORTON ST","address2": "","city": "VIAN","state": "OK","zip": "74962","zip+4": "0000","phone": "9187738111","NPI": "     1356487912"}, 
{"id": 41607,"ncpdp": "3708546","pharmacy_name": "CITY PHARMACY","address1": "101 N CLARENCE NASH BLVD","address2": "","city": "WATONGA","state": "OK","zip": "73772","zip+4": "0582","phone": "5806234545","NPI": "     1649363086"}, 
{"id": 41608,"ncpdp": "3708560","pharmacy_name": "SWANNS PHARMACY","address1": "407 W MAIN ST","address2": "","city": "WATONGA","state": "OK","zip": "73772","zip+4": "4298","phone": "5806234505","NPI": "     1326151846"}, 
{"id": 41609,"ncpdp": "3708584","pharmacy_name": "ECK DRUG AND GIFT","address1": "101 S MAIN ST","address2": "","city": "WAURIKA","state": "OK","zip": "73573","zip+4": "3053","phone": "5802282383","NPI": "     1558454991"}, 
{"id": 41610,"ncpdp": "3708609","pharmacy_name": "ALLEN PHARMACY INC","address1": "521 E FRANKLIN","address2": "","city": "WEATHERFORD","state": "OK","zip": "73096","zip+4": "0389","phone": "5807723347","NPI": "     1639234057"}, 
{"id": 41611,"ncpdp": "3708635","pharmacy_name": "MORE THAN MEDICINE","address1": "101 W MAIN","address2": "","city": "WEATHERFORD","state": "OK","zip": "73096","zip+4": "4451","phone": "5807722781","NPI": "     1891800264"}, 
{"id": 41612,"ncpdp": "3708661","pharmacy_name": "WESTVILLE PRESCRIPTION CENTER","address1": "100 S WILLIAMS","address2": "","city": "WESTVILLE","state": "OK","zip": "74965","zip+4": "0000","phone": "9187235466","NPI": "     1649324880"}, 
{"id": 41613,"ncpdp": "3708673","pharmacy_name": "TYLER DRUG","address1": "105 N MAIN ST","address2": "","city": "WETUMKA","state": "OK","zip": "74883","zip+4": "3006","phone": "4054523203","NPI": "     1861562944"}, 
{"id": 41614,"ncpdp": "3708712","pharmacy_name": "NORMAN DRUG COMPANY","address1": "109 N WEWOKA","address2": "","city": "WEWOKA","state": "OK","zip": "74884","zip+4": "0899","phone": "4052575461","NPI": "     1548325962"}, 
{"id": 41615,"ncpdp": "3708724","pharmacy_name": "ROBERTS DRUG STORE","address1": "309 S WEWOKA","address2": "","city": "WEWOKA","state": "OK","zip": "74884","zip+4": "2641","phone": "4052573388","NPI": "     1467545806"}, 
{"id": 41616,"ncpdp": "3708825","pharmacy_name": "CRESCENT DRUG AND APOTH INC PC","address1": "116 S DEAN A MCGEE AVE","address2": "","city": "WYNNEWOOD","state": "OK","zip": "73098","zip+4": "7822","phone": "4056654115","NPI": "     1790897700"}, 
{"id": 41617,"ncpdp": "3708902","pharmacy_name": "G AND A PHARMACY","address1": "210 E STATE RD","address2": "","city": "FAIRVIEW","state": "OK","zip": "73737","zip+4": "0000","phone": "5802272045","NPI": "     1689756488"}, 
{"id": 41618,"ncpdp": "3708926","pharmacy_name": "CLINIC PHARMACY","address1": "509 E CHESTNUT ST","address2": "","city": "HOLLIS","state": "OK","zip": "73550","zip+4": "2031","phone": "5806882247","NPI": "     1376636712"}, 
{"id": 41619,"ncpdp": "3708976","pharmacy_name": "REASORS PHARMACY #2","address1": "2001 S MUSKOGEE AVE","address2": "","city": "TAHLEQUAH","state": "OK","zip": "74464","zip+4": "0000","phone": "9184566103","NPI": "     1699841353"}, 
{"id": 41620,"ncpdp": "3709168","pharmacy_name": "STAR MEDICAL CENTER PHARMACY","address1": "2120 W ELK AVE","address2": "STE 10","city": "DUNCAN","state": "OK","zip": "73533","zip+4": "1537","phone": "5802557165","NPI": "     1497837298"}, 
{"id": 41621,"ncpdp": "3709221","pharmacy_name": "HOOVER DRUG","address1": "107 W MAIN ST","address2": "","city": "STIGLER","state": "OK","zip": "74462","zip+4": "0000","phone": "9189678321","NPI": "     1831234467"}, 
{"id": 41622,"ncpdp": "3709271","pharmacy_name": "OKEMAH PHARMACY","address1": "106 S WOODY GUTHRIE","address2": "","city": "OKEMAH","state": "OK","zip": "74859","zip+4": "0070","phone": "9186232510","NPI": "     1982789038"}, 
{"id": 41623,"ncpdp": "3709308","pharmacy_name": "D AND D PHARMACY","address1": "1940 N BROADWAY","address2": "","city": "POTEAU","state": "OK","zip": "74953","zip+4": "0592","phone": "9186473137","NPI": "     1861573016"}, 
{"id": 41624,"ncpdp": "3709358","pharmacy_name": "SEMINOLE DRUG INC","address1": "1717 N MILT PHILLIPS AVE","address2": "","city": "SEMINOLE","state": "OK","zip": "74868","zip+4": "2395","phone": "4053825420","NPI": "     1144305269"}, 
{"id": 41625,"ncpdp": "3709360","pharmacy_name": "RALPHS PHARMACY INC","address1": "211 N BROADWAY ST","address2": "","city": "TECUMSEH","state": "OK","zip": "74873","zip+4": "3227","phone": "4055983729","NPI": "     1295885515"}, 
{"id": 41626,"ncpdp": "3709409","pharmacy_name": "RAZOOKS DRUG","address1": "1518 W 9TH AVE","address2": "","city": "STILLWATER","state": "OK","zip": "74074","zip+4": "5468","phone": "4053774445","NPI": "     1952345027"}, 
{"id": 41627,"ncpdp": "3709447","pharmacy_name": "THE DRUG STORE","address1": "2801 PARKLAWN 102","address2": "","city": "MIDWEST CITY","state": "OK","zip": "73110","zip+4": "4294","phone": "4057332881","NPI": "     1285645846"}, 
{"id": 41628,"ncpdp": "3709562","pharmacy_name": "ELK CITY UNITED DRUG","address1": "2700 W 3RD ST","address2": "","city": "ELK CITY","state": "OK","zip": "73644","zip+4": "4320","phone": "5802251600","NPI": "     1710088737"}, 
{"id": 41629,"ncpdp": "3709598","pharmacy_name": "TURNERS DRUG","address1": "405 GRANT AVE","address2": "","city": "PURCELL","state": "OK","zip": "73080","zip+4": "0000","phone": "4055272107","NPI": "     1316982531"}, 
{"id": 41630,"ncpdp": "3709613","pharmacy_name": "WILLIAMS PHARMACY","address1": "700 E BROADWAY","address2": "","city": "LEXINGTON","state": "OK","zip": "73051","zip+4": "1250","phone": "4055275682","NPI": "     1578640249"}, 
{"id": 41631,"ncpdp": "3709764","pharmacy_name": "EDDIE ALLENS PHARMACY","address1": "659 S PARK DR","address2": "","city": "BROKEN BOW","state": "OK","zip": "74728","zip+4": "0997","phone": "5805845841","NPI": "     1609938349"}, 
{"id": 41632,"ncpdp": "3709839","pharmacy_name": "JONES DRUG STORE","address1": "101 W MAIN ST","address2": "","city": "JONES","state": "OK","zip": "73049","zip+4": "0000","phone": "4053992277","NPI": "     1316000862"}, 
{"id": 41633,"ncpdp": "3709853","pharmacy_name": "RX SHOPPE","address1": "1002 W 13TH","address2": "","city": "ATOKA","state": "OK","zip": "74525","zip+4": "0000","phone": "5808893331","NPI": "     1174602841"}, 
{"id": 41634,"ncpdp": "3709865","pharmacy_name": "LAWSON PHARMACY","address1": "301 2ND ST","address2": "","city": "TALIHINA","state": "OK","zip": "74571","zip+4": "0456","phone": "9185673111","NPI": "     1740202753"}, 
{"id": 41635,"ncpdp": "3709889","pharmacy_name": "MARKS PRESCRIPTION SHOP","address1": "7201 E RENO","address2": "","city": "MIDWEST CITY","state": "OK","zip": "73110","zip+4": "0000","phone": "4057373451","NPI": "     1285727628"}, 
{"id": 41636,"ncpdp": "3709928","pharmacy_name": "UNITED DISCOUNT DRUGS #1","address1": "1602 N GREEN AVE","address2": "","city": "PURCELL","state": "OK","zip": "73080","zip+4": "1712","phone": "4055275900","NPI": "     1295895118"}, 
{"id": 41637,"ncpdp": "3710022","pharmacy_name": "UNITED DISCOUNT DRUG","address1": "1902 N ACADEMY","address2": "","city": "GUYMON","state": "OK","zip": "73942","zip+4": "0000","phone": "5803388421","NPI": "     1639192636"}, 
{"id": 41638,"ncpdp": "3710034","pharmacy_name": "DENNIS EXPRESS PHARMACY","address1": "1308 S MAIN","address2": "","city": "KINGFISHER","state": "OK","zip": "73750","zip+4": "4408","phone": "4053755400","NPI": "     1942385075"}, 
{"id": 41639,"ncpdp": "3710375","pharmacy_name": "MARY MAHONEY MEM CTR PHCY","address1": "12716 NE 36TH","address2": "","city": "OKLAHOMA CITY","state": "OK","zip": "73140","zip+4": "0000","phone": "4057693301","NPI": "     1588648703"}, 
{"id": 41640,"ncpdp": "3710438","pharmacy_name": "THOMPSONS DRUG","address1": "4503 SE 29TH ST","address2": "","city": "DEL CITY","state": "OK","zip": "73115","zip+4": "3300","phone": "4056772467","NPI": "     1730237207"}, 
{"id": 41641,"ncpdp": "3710440","pharmacy_name": "CLINIC PHARMACY","address1": "1213 N GLENN ENGLISH","address2": "","city": "CORDELL","state": "OK","zip": "73632","zip+4": "2009","phone": "5808323714","NPI": "     1174611412"}, 
{"id": 41642,"ncpdp": "3710476","pharmacy_name": "GADDYS DISCOUNT DRUG","address1": "1126 W BROADWAY ST","address2": "","city": "MUSKOGEE","state": "OK","zip": "74401","zip+4": "0000","phone": "9186825584","NPI": "     1508882143"}, 
{"id": 41643,"ncpdp": "3710565","pharmacy_name": "MCCORTNEYS FAMILY PHARMACY","address1": "711 E 9TH ST","address2": "","city": "ADA","state": "OK","zip": "74820","zip+4": "0000","phone": "5803323344","NPI": "     1083799373"}, 
{"id": 41644,"ncpdp": "3710755","pharmacy_name": "UNITED PHARMACY #373","address1": "2821 8TH ST","address2": "","city": "WOODWARD","state": "OK","zip": "73801","zip+4": "6733","phone": "5802543411","NPI": "     1275669673"}, 
{"id": 41645,"ncpdp": "3710971","pharmacy_name": "CITY DRUG","address1": "12 S CENTRAL AVE","address2": "","city": "IDABEL","state": "OK","zip": "74745","zip+4": "4626","phone": "5802863235","NPI": "     1093808438"}, 
{"id": 41646,"ncpdp": "3710995","pharmacy_name": "GORE GREEN COUNTRY DRUG","address1": "305 N MAIN ST","address2": "","city": "GORE","state": "OK","zip": "74435","zip+4": "0330","phone": "9184895558","NPI": "     1548262132"}, 
{"id": 41647,"ncpdp": "3711012","pharmacy_name": "FREDERICK PHARMACY INC","address1": "1600 N MAIN ST","address2": "","city": "FREDERICK","state": "OK","zip": "73542","zip+4": "0981","phone": "5803355501","NPI": "     1982778379"}, 
{"id": 41648,"ncpdp": "3711113","pharmacy_name": "UHLES DRUG STORE","address1": "208 N HIGH STREET","address2": "","city": "ANTLERS","state": "OK","zip": "74523","zip+4": "0000","phone": "5802983377","NPI": "     1073681896"}, 
{"id": 41649,"ncpdp": "3711175","pharmacy_name": "KMART PHARMACY #3238","address1": "3132 EAST 51ST ST","address2": "","city": "TULSA","state": "OK","zip": "74105","zip+4": "0000","phone": "9187493157","NPI": "     1679504633"}, 
{"id": 41650,"ncpdp": "3711187","pharmacy_name": "THRIFTY PHARMACY","address1": "10904 L NORTH MAY AVE","address2": "","city": "OKLAHOMA CITY","state": "OK","zip": "73120","zip+4": "0000","phone": "4057512852","NPI": "     1225055007"}, 
{"id": 41651,"ncpdp": "3711202","pharmacy_name": "PERKINS DRUG","address1": "246 S MAIN ST","address2": "","city": "PERKINS","state": "OK","zip": "74059","zip+4": "0129","phone": "4055472414","NPI": "     1770631731"}, 
{"id": 41652,"ncpdp": "3711240","pharmacy_name": "DON COODY PHARMACY","address1": "7530 NW 23RD ST","address2": "","city": "BETHANY","state": "OK","zip": "73008","zip+4": "4942","phone": "4057898921","NPI": "     1700942075"}, 
{"id": 41653,"ncpdp": "3711276","pharmacy_name": "KMART PHARMACY #4473","address1": "10131 E 21ST STREET S","address2": "","city": "TULSA","state": "OK","zip": "74129","zip+4": "0000","phone": "9186649972","NPI": "     1588695548"}, 
{"id": 41654,"ncpdp": "3711428","pharmacy_name": "SAYRE PROFESSIONAL PHARMACY","address1": "1505 N WATTS","address2": "","city": "SAYRE","state": "OK","zip": "73662","zip+4": "1312","phone": "5809283633","NPI": "     1104851989"}, 
{"id": 41655,"ncpdp": "3711492","pharmacy_name": "CVS PHARMACY # #06015","address1": "4251 SE 44TH ST","address2": "","city": "DEL CITY","state": "OK","zip": "73135","zip+4": "0000","phone": "4056703637","NPI": "     1225132053"}, 
{"id": 41656,"ncpdp": "3711505","pharmacy_name": "COMANCHE PHARMACY","address1": "211 MAIN AVE","address2": "","city": "COMANCHE","state": "OK","zip": "73529","zip+4": "1445","phone": "5804398846","NPI": "     1023138674"}, 
{"id": 41657,"ncpdp": "3711529","pharmacy_name": "KENS HEALTH MART PHARMACY","address1": "200 S HIGHLAND","address2": "","city": "CUSHING","state": "OK","zip": "74023","zip+4": "4117","phone": "9182255200","NPI": "     1902999345"}, 
{"id": 41658,"ncpdp": "3711531","pharmacy_name": "KMART PHARMACY #3067","address1": "1200 E CHARLES PAGE BLVD","address2": "","city": "SAND SPRINGS","state": "OK","zip": "74063","zip+4": "0000","phone": "9182451323","NPI": "     1306877378"}, 
{"id": 41659,"ncpdp": "3711543","pharmacy_name": "TV DISCOUNT DRUGS","address1": "1701 E 2ND ST","address2": "","city": "EDMOND","state": "OK","zip": "73034","zip+4": "5799","phone": "4053480220","NPI": "     1871646026"}, 
{"id": 41660,"ncpdp": "3711632","pharmacy_name": "DRUG WAREHOUSE #8","address1": "651 CHARLES PAIGE BLVD","address2": "","city": "SAND SPRINGS","state": "OK","zip": "74063","zip+4": "0000","phone": "9182450568","NPI": "     1194809236"}, 
{"id": 41661,"ncpdp": "3711644","pharmacy_name": "DRUG WAREHOUSE #9","address1": "1150 SOUTH GARNETT ROAD","address2": "","city": "TULSA","state": "OK","zip": "74128","zip+4": "0000","phone": "9184379677","NPI": "     1003990144"}, 
{"id": 41662,"ncpdp": "3711694","pharmacy_name": "KMART PHARMACY #7003","address1": "4 EAST SHAWNEE ROAD","address2": "","city": "MUSKOGEE","state": "OK","zip": "74401","zip+4": "0000","phone": "9186830135","NPI": "     1215968284"}, 
{"id": 41663,"ncpdp": "3711707","pharmacy_name": "KMART PHARMACY #3044","address1": "1050 NW 38TH ST","address2": "","city": "LAWTON","state": "OK","zip": "73505","zip+4": "3738","phone": "5803557124","NPI": "     1124059191"}, 
{"id": 41664,"ncpdp": "3711719","pharmacy_name": "KMART PHARMACY #3128","address1": "4010 W OWEN K GARRIOTT RD","address2": "","city": "ENID","state": "OK","zip": "73703","zip+4": "4803","phone": "5802348021","NPI": "     1033140009"}, 
{"id": 41665,"ncpdp": "3711721","pharmacy_name": "KMART PHARMACY #7041","address1": "501 SE WASHINGTON BLVD","address2": "","city": "BARTLESVILLE","state": "OK","zip": "74003","zip+4": "0000","phone": "9183339140","NPI": "     1942231915"}, 
{"id": 41666,"ncpdp": "3711733","pharmacy_name": "WAL-MART PHARMACY #100081","address1": "ROUTE 6 BOX 1895","address2": "","city": "STILWELL","state": "OK","zip": "74960","zip+4": "0000","phone": "9186963186","NPI": "     1306863410"}, 
{"id": 41667,"ncpdp": "3711769","pharmacy_name": "LANGLEY DRUG","address1": "1631 N THIRD STREET","address2": "","city": "LANGLEY","state": "OK","zip": "74350","zip+4": "0000","phone": "9187823271","NPI": "     1760687545"}, 
{"id": 41668,"ncpdp": "3711771","pharmacy_name": "R AND S DRUG #3","address1": "1507 N 81 HWY","address2": "","city": "DUNCAN","state": "OK","zip": "73533","zip+4": "1407","phone": "5802520140","NPI": "     1730162454"}, 
{"id": 41669,"ncpdp": "3711808","pharmacy_name": "CVS PHARMACY # #06016","address1": "9001 S WESTERN AVE","address2": "","city": "OKLAHOMA CITY","state": "OK","zip": "73139","zip+4": "0000","phone": "4056916620","NPI": "     1043314875"}, 
{"id": 41670,"ncpdp": "3711810","pharmacy_name": "CVS PHARMACY # #06020","address1": "5903 NWEST EXPRESSWAY","address2": "","city": "OKLAHOMA CITY","state": "OK","zip": "73132","zip+4": "0000","phone": "4057218947","NPI": "     1861596694"}, 
{"id": 41671,"ncpdp": "3711822","pharmacy_name": "TMC PHARMACY","address1": "1500 E DOWNING","address2": "STE 106","city": "TAHLEQUAH","state": "OK","zip": "74464","zip+4": "3354","phone": "9184568811","NPI": "     1245311844"}, 
{"id": 41672,"ncpdp": "3711834","pharmacy_name": "RITTER EXPRESS PHARMACY","address1": "702 S MISSISSIPPI","address2": "","city": "ATOKA","state": "OK","zip": "74525","zip+4": "0000","phone": "5808893353","NPI": "     1285633479"}, 
{"id": 41673,"ncpdp": "3711909","pharmacy_name": "CENTER PHARMACY","address1": "124 COONROD AVE","address2": "","city": "MANNFORD","state": "OK","zip": "74044","zip+4": "0971","phone": "9188652164","NPI": "     1306909916"}, 
{"id": 41674,"ncpdp": "3711973","pharmacy_name": "CHARLIES DISCOUNT DRUG","address1": "723 S WALNUT ST","address2": "","city": "STILLWATER","state": "OK","zip": "74074","zip+4": "4224","phone": "4056243535","NPI": "     1811080252"}, 
{"id": 41675,"ncpdp": "3711985","pharmacy_name": "KINGSTON PHARMACY","address1": "7 NORTH MAIN ST","address2": "","city": "KINGSTON","state": "OK","zip": "73439","zip+4": "0000","phone": "5805642337","NPI": "     1033191234"}, 
{"id": 41676,"ncpdp": "3712115","pharmacy_name": "MARIETTA DISCOUNT PHARMACY","address1": "300 S HWY 77","address2": "","city": "MARIETTA","state": "OK","zip": "73448","zip+4": "2206","phone": "5802765555","NPI": "     1235216003"}, 
{"id": 41677,"ncpdp": "3712177","pharmacy_name": "CLINIC PHARMACY","address1": "2803 N SARATOGA","address2": "","city": "SHAWNEE","state": "OK","zip": "74804","zip+4": "0000","phone": "4052739417","NPI": "     1770652257"}, 
{"id": 41678,"ncpdp": "3712216","pharmacy_name": "DAVIDS PHARMACY","address1": "1300 E ROBERT S KERR","address2": "","city": "WYNNEWOOD","state": "OK","zip": "73098","zip+4": "1099","phone": "4056654225","NPI": "     1356402424"}, 
{"id": 41679,"ncpdp": "3712280","pharmacy_name": "SPOON DRUG INC","address1": "540 PLAZA CT","address2": "","city": "SAND SPRINGS","state": "OK","zip": "74063","zip+4": "7994","phone": "9182459693","NPI": "     1083793756"}, 
{"id": 41680,"ncpdp": "3712329","pharmacy_name": "DRUG WAREHOUSE #14","address1": "2041 WEST HOUSTON","address2": "","city": "BROKEN ARROW","state": "OK","zip": "74012","zip+4": "0000","phone": "9182588533","NPI": "     1649354788"}, 
{"id": 41681,"ncpdp": "3712343","pharmacy_name": "TRENTS DISCOUNT PHARMACY","address1": "428 E COLE","address2": "","city": "FLETCHER","state": "OK","zip": "73541","zip+4": "0000","phone": "5805496115","NPI": "     1588721963"}, 
{"id": 41682,"ncpdp": "3712381","pharmacy_name": "P AND S PHARMACY","address1": "820 E HWY","address2": "","city": "HOLDENVILLE","state": "OK","zip": "74848","zip+4": "0071","phone": "4053795431","NPI": "     1679650543"}, 
{"id": 41683,"ncpdp": "3712393","pharmacy_name": "CAL DRUG LLC","address1": "401 W HWY 270","address2": "","city": "HARTSHORNE","state": "OK","zip": "74547","zip+4": "2831","phone": "9182977283","NPI": "     1316020365"}, 
{"id": 41684,"ncpdp": "3712456","pharmacy_name": "ROLAND PHARMACY INC","address1": "100 E RAY FINE BLVD","address2": "","city": "ROLAND","state": "OK","zip": "74954","zip+4": "0000","phone": "9184273219","NPI": "     1225168537"}, 
{"id": 41685,"ncpdp": "3712470","pharmacy_name": "LONE GROVE DRUG #1","address1": "16662 US HWY 70","address2": "","city": "LONE GROVE","state": "OK","zip": "73443","zip+4": "1019","phone": "5806573555","NPI": "     1598822934"}, 
{"id": 41686,"ncpdp": "3712482","pharmacy_name": "WAL-MART PHARMACY #100277","address1": "501 SW 19TH STREET","address2": "","city": "MOORE","state": "OK","zip": "73160","zip+4": "0000","phone": "4057999581","NPI": "     1215954326"}, 
{"id": 41687,"ncpdp": "3712494","pharmacy_name": "MAYS #28","address1": "3812 EAST TUXEDO BLVD","address2": "","city": "BARLESVILLE","state": "OK","zip": "74006","zip+4": "0000","phone": "9183331277","NPI": "     1558445692"}, 
{"id": 41688,"ncpdp": "3712545","pharmacy_name": "WAL-MART PHARMACY #100090","address1": "2115 S MAIN ST","address2": "","city": "GROVE","state": "OK","zip": "74344","zip+4": "0000","phone": "9187864491","NPI": "     1124045232"}, 
{"id": 41689,"ncpdp": "3712583","pharmacy_name": "WAL-MART PHARMACY #100031","address1": "3108 N BROADWAY","address2": "","city": "POTEAU","state": "OK","zip": "74953","zip+4": "0000","phone": "9186472641","NPI": "     1033136148"}, 
{"id": 41690,"ncpdp": "3712595","pharmacy_name": "DRUG WAREHOUSE #16","address1": "11650 E 86TH ST N","address2": "","city": "OWASSO","state": "OK","zip": "74055","zip+4": "0000","phone": "9182729595","NPI": "     1467536508"}, 
{"id": 41691,"ncpdp": "3712610","pharmacy_name": "REIDS DISCOUNT PHARMACY","address1": "206 S ASH ST","address2": "","city": "NOWATA","state": "OK","zip": "74048","zip+4": "4629","phone": "9182730433","NPI": "     1215019013"}, 
{"id": 41692,"ncpdp": "3712672","pharmacy_name": "SUPER H PHARMACY","address1": "201 E 7TH AVE","address2": "","city": "BRISTOW","state": "OK","zip": "74010","zip+4": "2504","phone": "9183673328","NPI": "     1720171168"}, 
{"id": 41693,"ncpdp": "3712709","pharmacy_name": "WAL-MART PHARMACY #100012","address1": "1500 LYNN RIGGS BLVD","address2": "","city": "CLAREMORE","state": "OK","zip": "74017","zip+4": "0000","phone": "9183415181","NPI": "     1942227053"}, 
{"id": 41694,"ncpdp": "3712711","pharmacy_name": "WAL-MART PHARMACY #100022","address1": "4901 SO MILL ROAD","address2": "","city": "PRYOR","state": "OK","zip": "74361","zip+4": "0000","phone": "9188253663","NPI": "     1851318968"}, 
{"id": 41695,"ncpdp": "3712723","pharmacy_name": "WAL-MART PHARMACY #101597","address1": "10938 S. MEMORIAL DR.","address2": "","city": "TULSA","state": "OK","zip": "74133","zip+4": "0000","phone": "9183944075","NPI": "     1174541833"}, 
{"id": 41696,"ncpdp": "3712735","pharmacy_name": "WAL-MART PHARMACY #100063","address1": "410 SOUTH DEWEY","address2": "","city": "WAGONER","state": "OK","zip": "74467","zip+4": "0000","phone": "9184854581","NPI": "     1679590780"}, 
{"id": 41697,"ncpdp": "3712747","pharmacy_name": "WAL-MART PHARMACY #100073","address1": "1002 WEST TAFT","address2": "","city": "SAPULPA","state": "OK","zip": "74066","zip+4": "0000","phone": "9182242800","NPI": "     1588681696"}, 
{"id": 41698,"ncpdp": "3712759","pharmacy_name": "WAL-MART PHARMACY #100121","address1": "1800 SOUTH WOOD DRIVE","address2": "","city": "OKMULGEE","state": "OK","zip": "74447","zip+4": "0000","phone": "9187563545","NPI": "     1396762407"}, 
{"id": 41699,"ncpdp": "3712761","pharmacy_name": "WAL-MART PHARMACY #100247","address1": "605 EAST MAIN","address2": "","city": "HENRYETTA","state": "OK","zip": "74437","zip+4": "0000","phone": "9186529447","NPI": "     1205853314"}, 
{"id": 41700,"ncpdp": "3712785","pharmacy_name": "HOMELAND PHARMCY #181","address1": "12508 NORTH MAY AVENUE","address2": "","city": "OKLAHOMA CITY","state": "OK","zip": "73120","zip+4": "1947","phone": "4057512950","NPI": "     1396860474"}, 
{"id": 41701,"ncpdp": "3712797","pharmacy_name": "HOMELAND PHARMCY #178","address1": "505 SOUTH CHICKASAW","address2": "","city": "PAULS VALLEY","state": "OK","zip": "73075","zip+4": "4601","phone": "4052387505","NPI": "     1205951381"}, 
{"id": 41702,"ncpdp": "3712800","pharmacy_name": "TRUMMELS DRUG STORE","address1": "459 S HWY 169","address2": "","city": "OOLOGAH","state": "OK","zip": "74053","zip+4": "0000","phone": "9184432414","NPI": "     1740330588"}, 
{"id": 41703,"ncpdp": "3712836","pharmacy_name": "CVS PHARMACY # #06021","address1": "800 SE 4TH ST","address2": "","city": "MOORE","state": "OK","zip": "73160","zip+4": "0000","phone": "4057941539","NPI": "     1689778417"}, 
{"id": 41704,"ncpdp": "3712848","pharmacy_name": "STAR DISCOUNT DRUGS","address1": "1206 N HWY 81","address2": "STE 42","city": "DUNCAN","state": "OK","zip": "73533","zip+4": "1790","phone": "5802552937","NPI": "     1871647222"}, 
{"id": 41705,"ncpdp": "3712913","pharmacy_name": "HOMELAND PHARMCY #154","address1": "2016 NW 39TH","address2": "","city": "OKLAHOMA CITY","state": "OK","zip": "73118","zip+4": "2614","phone": "4055219516","NPI": "     1114042298"}, 
{"id": 41706,"ncpdp": "3712937","pharmacy_name": "HOMELAND PHARMCY #182","address1": "1401 BEECH AVENUE","address2": "","city": "DUNCAN","state": "OK","zip": "73533","zip+4": "6905","phone": "5802550228","NPI": "     1821113903"}, 
{"id": 41707,"ncpdp": "3713066","pharmacy_name": "MED-WORLD PHARMACY INC","address1": "14 S MISSION ST","address2": "","city": "SAPULPA","state": "OK","zip": "74066","zip+4": "4634","phone": "9182272010","NPI": "     1598757650"}, 
{"id": 41708,"ncpdp": "3713092","pharmacy_name": "HOMELAND PHARMCY #188","address1": "220 EAST CLEVELAND","address2": "","city": "GUTHRIE","state": "OK","zip": "73044","zip+4": "3239","phone": "4052820466","NPI": "     1730204819"}, 
{"id": 41709,"ncpdp": "3713129","pharmacy_name": "WAL-MART PHARMACY #100340","address1": "131 PAUL CARR DR","address2": "","city": "CHECOTAH","state": "OK","zip": "74426","zip+4": "0000","phone": "9184735404","NPI": "     1760400428"}, 
{"id": 41710,"ncpdp": "3713179","pharmacy_name": "JERRYS PHARMACY","address1": "1549 MAIN STREET","address2": "","city": "WAYNOKA","state": "OK","zip": "73860","zip+4": "0000","phone": "5808241741","NPI": "     1639262074"}, 
{"id": 41711,"ncpdp": "3713181","pharmacy_name": "CVS PHARMACY # #06022","address1": "12322 N MAY AVE","address2": "","city": "OKLAHOMA CITY","state": "OK","zip": "73120","zip+4": "0000","phone": "4057552892","NPI": "     1306940135"}, 
{"id": 41712,"ncpdp": "3713218","pharmacy_name": "HERITAGE PARK PHARMACY","address1": "6908 E RENO AVE","address2": "STE 101","city": "MIDWEST CITY","state": "OK","zip": "73110","zip+4": "0000","phone": "4057376697","NPI": "     1619194453"}, 
{"id": 41713,"ncpdp": "3713232","pharmacy_name": "HOMELAND PHARMCY #148","address1": "1200 WEST GARY BLVD","address2": "","city": "CLINTON","state": "OK","zip": "73601","zip+4": "2728","phone": "5803230230","NPI": "     1649395724"}, 
{"id": 41714,"ncpdp": "3713244","pharmacy_name": "HOMELAND PHARMCY #170","address1": "412 WEST THIRD","address2": "","city": "ELK CITY","state": "OK","zip": "73644","zip+4": "5202","phone": "5802257961","NPI": "     1992820088"}, 
{"id": 41715,"ncpdp": "3713270","pharmacy_name": "HOMELAND PHARMCY #169","address1": "205 NORTH COMMERCE","address2": "","city": "ARDMORE","state": "OK","zip": "73401","zip+4": "3911","phone": "5802230143","NPI": "     1801911995"}, 
{"id": 41716,"ncpdp": "3713282","pharmacy_name": "MED ECON DRUG","address1": "311 W 9TH ST","address2": "","city": "WELEETKA","state": "OK","zip": "74880","zip+4": "9801","phone": "4057862246","NPI": "     1225111271"}, 
{"id": 41717,"ncpdp": "3713319","pharmacy_name": "WAL-MART PHARMACY #100123","address1": "1500 E WRANGLER BLVD","address2": "","city": "SEMINOLE","state": "OK","zip": "74868","zip+4": "0000","phone": "4053820201","NPI": "     1114944220"}, 
{"id": 41718,"ncpdp": "3713345","pharmacy_name": "WAL-MART PHARMACY #100010","address1": "2020 SOUTH MUSKOGEE","address2": "","city": "TAHLEQUAH","state": "OK","zip": "74464","zip+4": "0000","phone": "9184562437","NPI": "     1023035136"}, 
{"id": 41719,"ncpdp": "3713357","pharmacy_name": "MEDICAL PARK CTR PHARMACY","address1": "3400 E FRANK PHILLIPS","address2": "STE 203","city": "BARTLESVILLE","state": "OK","zip": "74006","zip+4": "2438","phone": "9183312525","NPI": "     1124128962"}, 
{"id": 41720,"ncpdp": "3713395","pharmacy_name": "DRUG WAREHOUSE #15","address1": "5046 SOUTH SHERIDAN ROAD","address2": "","city": "TULSA","state": "OK","zip": "74145","zip+4": "0000","phone": "9186276464","NPI": "     1366526022"}, 
{"id": 41721,"ncpdp": "3713458","pharmacy_name": "MEDX #6","address1": "302 SOUTH LEWIS STREET","address2": "","city": "TULSA","state": "OK","zip": "74104","zip+4": "0000","phone": "9185823774","NPI": "     1376627414"}, 
{"id": 41722,"ncpdp": "3713509","pharmacy_name": "MEDICINE SHOPPE PHARMACY #0867","address1": "622 E WYANDOTTE AVENUE","address2": "","city": "MCALESTER","state": "OK","zip": "74501","zip+4": "0000","phone": "9184265223","NPI": "     1932293347"}, 
{"id": 41723,"ncpdp": "3713573","pharmacy_name": "WAL-MART PHARMACY #100227","address1": "2400 SOUTH COUNTRY CLUB ROAD","address2": "","city": "EL RENO","state": "OK","zip": "73036","zip+4": "0000","phone": "4052626112","NPI": "     1932126042"}, 
{"id": 41724,"ncpdp": "3713597","pharmacy_name": "SHERRYS DISCOUNT PHARMACY","address1": "220 S LITTLER AVE","address2": "","city": "EDMOND","state": "OK","zip": "73034","zip+4": "0000","phone": "4053411683","NPI": "     1740350073"}, 
{"id": 41725,"ncpdp": "3713612","pharmacy_name": "HOMELAND PHARMCY #563","address1": "811 SE FRANK PHILLIPS BLVD","address2": "","city": "BARTLESVILLE","state": "OK","zip": "74003","zip+4": "4025","phone": "9183699411","NPI": "     1710002803"}, 
{"id": 41726,"ncpdp": "3713662","pharmacy_name": "ELGIN DISCOUNT PHARMACY","address1": "7523 US HWY 277","address2": "PO BOX 449","city": "ELGIN","state": "OK","zip": "73538","zip+4": "0449","phone": "5804925007","NPI": "     1669487534"}, 
{"id": 41727,"ncpdp": "3713674","pharmacy_name": "WAL-MART PHARMACY #100269","address1": "1002 NW SHERIDAN RD","address2": "","city": "LAWTON","state": "OK","zip": "73505","zip+4": "0000","phone": "5803574842","NPI": "     1598782609"}, 
{"id": 41728,"ncpdp": "3713725","pharmacy_name": "WAL-MART PHARMACY #100113","address1": "2001 SO 1ST ST","address2": "","city": "CHICKASHA","state": "OK","zip": "73018","zip+4": "0000","phone": "4052240292","NPI": "     1407873516"}, 
{"id": 41729,"ncpdp": "3713749","pharmacy_name": "YALE DRUG","address1": "121 N MAIN ST","address2": "","city": "YALE","state": "OK","zip": "74085","zip+4": "2507","phone": "9183874183","NPI": "     1780602748"}, 
{"id": 41730,"ncpdp": "3713775","pharmacy_name": "CAMP PHARMACY","address1": "1 MEDICAL PLAZA","address2": "","city": "RATLIFF CITY","state": "OK","zip": "73481","zip+4": "0000","phone": "5808563333","NPI": "     1376628503"}, 
{"id": 41731,"ncpdp": "3713787","pharmacy_name": "NOBLE PHARMACY","address1": "125 S MAIN ST","address2": "","city": "NOBLE","state": "OK","zip": "73068","zip+4": "0615","phone": "4058725531","NPI": "     1902981137"}, 
{"id": 41732,"ncpdp": "3713799","pharmacy_name": "CLINIC PHARMACY","address1": "2224 IOWA AVE","address2": "","city": "CHICKASHA","state": "OK","zip": "73018","zip+4": "0000","phone": "4052244851","NPI": "     1114087350"}, 
{"id": 41733,"ncpdp": "3713814","pharmacy_name": "SALLISAW PHARMACY","address1": "1212A E CHEROKEE","address2": "","city": "SALLISAW","state": "OK","zip": "74955","zip+4": "5231","phone": "9187754451","NPI": "     1730108770"}, 
{"id": 41734,"ncpdp": "3713864","pharmacy_name": "WEIGANTS PHARMACY","address1": "714 KIHEKAH","address2": "","city": "PAWHUSKA","state": "OK","zip": "74056","zip+4": "0337","phone": "9182871317","NPI": "     1255424693"}, 
{"id": 41735,"ncpdp": "3713927","pharmacy_name": "WAL-MART PHARMACY #100050","address1": "268 SO 7TH ST","address2": "","city": "VINITA","state": "OK","zip": "74301","zip+4": "0000","phone": "9182566435","NPI": "     1316964422"}, 
{"id": 41736,"ncpdp": "3713953","pharmacy_name": "HOMELAND PHARMCY #195","address1": "4301 SOUTH MAY AVENUE","address2": "","city": "OKLAHOMA CITY","state": "OK","zip": "73119","zip+4": "3267","phone": "4056826191","NPI": "     1629193719"}, 
{"id": 41737,"ncpdp": "3713977","pharmacy_name": "KRITTENBRINK PHARMACY","address1": "315 KANSAS AVE","address2": "","city": "OKARCHE","state": "OK","zip": "73762","zip+4": "0405","phone": "4052634433","NPI": "     1306939566"}, 
{"id": 41738,"ncpdp": "3714006","pharmacy_name": "MILLER DRUG","address1": "11101 SURREY HILLS BLVD","address2": "","city": "YUKON","state": "OK","zip": "73099","zip+4": "0000","phone": "4053731717","NPI": "     1386755031"}, 
{"id": 41739,"ncpdp": "3714018","pharmacy_name": "EUFAULA PHARMACY","address1": "401 S MAIN","address2": "","city": "EUFAULA","state": "OK","zip": "74432","zip+4": "3253","phone": "9186897701","NPI": "     1558420554"}, 
{"id": 41740,"ncpdp": "3714032","pharmacy_name": "MEDX #14","address1": "1339 EAST 41ST STREET","address2": "","city": "TULSA","state": "OK","zip": "74105","zip+4": "0000","phone": "9187445490","NPI": "     1285718320"}, 
{"id": 41741,"ncpdp": "3714056","pharmacy_name": "WAL-MART PHARMACY #100151","address1": "432 SOUTH GEORGE NIGH EXWY","address2": "","city": "MCALESTER","state": "OK","zip": "74501","zip+4": "0000","phone": "9184238060","NPI": "     1104844869"}, 
{"id": 41742,"ncpdp": "3714094","pharmacy_name": "PHARMACY PLUS INC","address1": "211 S FIRST ST","address2": "","city": "MADILL","state": "OK","zip": "73446","zip+4": "0000","phone": "5807957322","NPI": "     1609916881"}, 
{"id": 41743,"ncpdp": "3714119","pharmacy_name": "NEWBERRY EXPRESS PHARMACY","address1": "801 S BROADWAY","address2": "","city": "MARLOW","state": "OK","zip": "73055","zip+4": "0000","phone": "5806583784","NPI": "     1871609818"}, 
{"id": 41744,"ncpdp": "3714169","pharmacy_name": "PUCKETT DISCOUNT DRUG","address1": "101 N LOUIS TITTLE","address2": "","city": "MANGUM","state": "OK","zip": "73554","zip+4": "1618","phone": "5807822131","NPI": "     1821083809"}, 
{"id": 41745,"ncpdp": "3714210","pharmacy_name": "WAL-MART PHARMACY #100544","address1": "5401 TINKER DIAGONAL ST","address2": "","city": "DEL CITY","state": "OK","zip": "73115","zip+4": "0000","phone": "4056701030","NPI": "     1225055338"}, 
{"id": 41746,"ncpdp": "3714222","pharmacy_name": "WAL-MART PHARMACY #100499","address1": "5505 W OWEN K GARRIOTT RD","address2": "","city": "ENID","state": "OK","zip": "73703","zip+4": "0000","phone": "5802339948","NPI": "     1134146244"}, 
{"id": 41747,"ncpdp": "3714260","pharmacy_name": "CEDAR SPRINGS PHARMACY","address1": "5310 E HWY 37","address2": "","city": "TUTTLE","state": "OK","zip": "73089","zip+4": "9803","phone": "4053814425","NPI": "     1891870184"}, 
{"id": 41748,"ncpdp": "3714296","pharmacy_name": "YOUNGS DRUG STORE","address1": "219 DEWEY AVE","address2": "","city": "POTEAU","state": "OK","zip": "74953","zip+4": "4203","phone": "9186472113","NPI": "     1609914696"}, 
{"id": 41749,"ncpdp": "3714309","pharmacy_name": "WAL-MART PHARMACY #100517","address1": "951 EAST STATE HWY 152","address2": "","city": "MUSTANG","state": "OK","zip": "73064","zip+4": "0000","phone": "4053764525","NPI": "     1043237159"}, 
{"id": 41750,"ncpdp": "3714311","pharmacy_name": "WAL-MART PHARMACY #100576","address1": "207 S MEMORIAL DRIVE","address2": "","city": "TULSA","state": "OK","zip": "74112","zip+4": "0000","phone": "9188382937","NPI": "     1952328064"}, 
{"id": 41751,"ncpdp": "3714323","pharmacy_name": "WAL-MART PHARMACY #100564","address1": "6100 WEST RENO AVE","address2": "","city": "OKLAHOMA CITY","state": "OK","zip": "73127","zip+4": "0000","phone": "4054910482","NPI": "     1861419970"}, 
{"id": 41752,"ncpdp": "3714335","pharmacy_name": "SOONER PHARMACY OF DAVIS","address1": "705 E MAIN ST","address2": "","city": "DAVIS","state": "OK","zip": "73030","zip+4": "1913","phone": "5803695220","NPI": "     1083625628"}, 
{"id": 41753,"ncpdp": "3714359","pharmacy_name": "BOBS PHARMACY","address1": "210 SW 89TH ST","address2": "","city": "OKLAHOMA CITY","state": "OK","zip": "73139","zip+4": "8514","phone": "4056318174","NPI": "     1932298585"}, 
{"id": 41754,"ncpdp": "3714448","pharmacy_name": "WAL-MART PHARMACY #100103","address1": "196 SHAWNEE MALL DRIVE","address2": "","city": "SHAWNEE","state": "OK","zip": "74804","zip+4": "0000","phone": "4058780281","NPI": "     1770500886"}, 
{"id": 41755,"ncpdp": "3714549","pharmacy_name": "MEDICAP PHARMACY #8125","address1": "262 E 141ST STREET","address2": "","city": "GLENPOOL","state": "OK","zip": "74033","zip+4": "0000","phone": "9183223667","NPI": "     1750440129"}, 
{"id": 41756,"ncpdp": "3714563","pharmacy_name": "STEELE DRUG INC","address1": "907 GRAND AVE","address2": "","city": "ARDMORE","state": "OK","zip": "73401","zip+4": "0000","phone": "5802233000","NPI": "     1194808568"}, 
{"id": 41757,"ncpdp": "3714575","pharmacy_name": "SOONER PHARMACY INC OF TISHOMI","address1": "101 S BYRD ST","address2": "","city": "TISHOMINGO","state": "OK","zip": "73460","zip+4": "2216","phone": "5803719509","NPI": "     1891874566"}, 
{"id": 41758,"ncpdp": "3714727","pharmacy_name": "CLINIC PHARMACY","address1": "205 S PARK LANE","address2": "STE 110","city": "ALTUS","state": "OK","zip": "73521","zip+4": "5733","phone": "5804826464","NPI": "     1356370175"}, 
{"id": 41759,"ncpdp": "3714753","pharmacy_name": "WESTVIEW PHARMACY","address1": "3606 N CINCINNATI","address2": "","city": "TULSA","state": "OK","zip": "74106","zip+4": "0000","phone": "9184251385","NPI": "     1164515508"}, 
{"id": 41760,"ncpdp": "3714777","pharmacy_name": "WAL-MART PHARMACY #100743","address1": "100 EAST I-240 SERVICE ROAD","address2": "","city": "OKLAHOMA CITY","state": "OK","zip": "73149","zip+4": "0000","phone": "4056312207","NPI": "     1013935774"}, 
{"id": 41761,"ncpdp": "3714789","pharmacy_name": "COUNTRY BOY PHARMACY","address1": "1530 S CHOCTAW RD","address2": "A","city": "CHOCTAW","state": "OK","zip": "73020","zip+4": "0000","phone": "4053903205","NPI": "     1609093681"}, 
{"id": 41762,"ncpdp": "3714804","pharmacy_name": "CVS PHARMACY #06024","address1": "1100 E LINDSEY ST","address2": "","city": "NORMAN","state": "OK","zip": "73071","zip+4": "0000","phone": "4053210226","NPI": "     1215031042"}, 
{"id": 41763,"ncpdp": "3714967","pharmacy_name": "HEROD DISCOUNT DRUG STORE","address1": "107 W MAIN ST","address2": "","city": "CANTON","state": "OK","zip": "73724","zip+4": "0000","phone": "5808863444","NPI": "     1134202187"}, 
{"id": 41764,"ncpdp": "3714979","pharmacy_name": "WAL-MART PHARMACY #100212","address1": "333 INTERSTATE DRIVE","address2": "","city": "NORMAN","state": "OK","zip": "73069","zip+4": "0000","phone": "4053295761","NPI": "     1689691792"}, 
{"id": 41765,"ncpdp": "3714981","pharmacy_name": "WAL-MART PHARMACY #100622","address1": "7800 NW EXPRESSWAY","address2": "","city": "OKLAHOMA CITY","state": "OK","zip": "73132","zip+4": "0000","phone": "4057217260","NPI": "     1598782617"}, 
{"id": 41766,"ncpdp": "3715022","pharmacy_name": "HOMELAND PHARMCY #208","address1": "2205 WEST EDMOND ROAD","address2": "","city": "EDMOND","state": "OK","zip": "73003","zip+4": "0000","phone": "4053400236","NPI": "     1255456349"}, 
{"id": 41767,"ncpdp": "3715072","pharmacy_name": "ALANS PHARMACY","address1": "1721 W 6TH AVE","address2": "","city": "STILLWATER","state": "OK","zip": "74074","zip+4": "4200","phone": "4053723331","NPI": "     1053418996"}, 
{"id": 41768,"ncpdp": "3715123","pharmacy_name": "CVS PHARMACY # #06109","address1": "2350 N HARPER RD","address2": "","city": "CHOCTAW","state": "OK","zip": "73020","zip+4": "0000","phone": "4053903611","NPI": "     1326146044"}, 
{"id": 41769,"ncpdp": "3715197","pharmacy_name": "KENS RX","address1": "802 W GORE BLVD","address2": "","city": "LAWTON","state": "OK","zip": "73501","zip+4": "3735","phone": "5803534113","NPI": "     1730230665"}, 
{"id": 41770,"ncpdp": "3715200","pharmacy_name": "HOMETOWN PHARMACY","address1": "2001 NE 23RD ST","address2": "","city": "OKLAHOMA CITY","state": "OK","zip": "73111","zip+4": "3401","phone": "4054244361","NPI": "     1952515140"}, 
{"id": 41771,"ncpdp": "3715224","pharmacy_name": "WAL-MART PHARMACY #100130","address1": "1000 WEST SHAWNEE ST","address2": "","city": "MUSKOGEE","state": "OK","zip": "74403","zip+4": "0000","phone": "9186871231","NPI": "     1407873524"}, 
{"id": 41772,"ncpdp": "3715236","pharmacy_name": "HUMPTY PHARMACY","address1": "1001 E DEWEY","address2": "","city": "SAPULPA","state": "OK","zip": "74066","zip+4": "4556","phone": "9182242704","NPI": "     1194857839"}, 
{"id": 41773,"ncpdp": "3715274","pharmacy_name": "LOVELLS PHARMACY INC","address1": "602 W CENTRAL","address2": "","city": "ANADARKO","state": "OK","zip": "73005","zip+4": "3228","phone": "4052473348","NPI": "     1841389491"}, 
{"id": 41774,"ncpdp": "3715286","pharmacy_name": "CVS PHARMACY # #06072","address1": "10800 N ROCKWELL AVE","address2": "","city": "OKLAHOMA CITY","state": "OK","zip": "73162","zip+4": "0000","phone": "4057288081","NPI": "     1942304779"}, 
{"id": 41775,"ncpdp": "3715349","pharmacy_name": "BEACHLERS PHARMACY","address1": "210 W ELM ST","address2": "","city": "EL RENO","state": "OK","zip": "73036","zip+4": "5204","phone": "4052623212","NPI": "     1902908635"}, 
{"id": 41776,"ncpdp": "3715426","pharmacy_name": "CVS PHARMACY # #06096","address1": "1301 N SANTA FE AVE","address2": "","city": "EDMOND","state": "OK","zip": "73003","zip+4": "0000","phone": "4053400522","NPI": "     1760586598"}, 
{"id": 41777,"ncpdp": "3715440","pharmacy_name": "J AND J PHARMACY","address1": "979 W WILL ROGERS","address2": "","city": "CLAREMORE","state": "OK","zip": "74018","zip+4": "0000","phone": "9183411184","NPI": "     1124100920"}, 
{"id": 41778,"ncpdp": "3715476","pharmacy_name": "CVS PHARMACY # #06128","address1": "1016 SW LEE BLVD","address2": "","city": "LAWTON","state": "OK","zip": "73501","zip+4": "0000","phone": "5803531940","NPI": "     1679677405"}, 
{"id": 41779,"ncpdp": "3715539","pharmacy_name": "WAL-MART PHARMACY #100225","address1": "2108 WEST BROADWAY","address2": "","city": "SULPHUR","state": "OK","zip": "73086","zip+4": "0000","phone": "5806226181","NPI": "     1316964430"}, 
{"id": 41780,"ncpdp": "3715541","pharmacy_name": "WAL-MART PHARMACY #100210","address1": "500 EAST HIGHWAY 270","address2": "","city": "HOLDENVILLE","state": "OK","zip": "74848","zip+4": "0000","phone": "4053793305","NPI": "     1922026681"}, 
{"id": 41781,"ncpdp": "3715553","pharmacy_name": "WAL-MART PHARMACY #100162","address1": "1201 WEST PETREE RD","address2": "","city": "ANADARKO","state": "OK","zip": "73005","zip+4": "0000","phone": "4052472404","NPI": "     1225055346"}, 
{"id": 41782,"ncpdp": "3715565","pharmacy_name": "MEDICINE SHOPPE #0674","address1": "720 SOUTH 4TH","address2": "","city": "CHICKASHA","state": "OK","zip": "73018","zip+4": "4601","phone": "4052224100","NPI": "     1346312139"}, 
{"id": 41783,"ncpdp": "3715577","pharmacy_name": "CVS PHARMACY #06142","address1": "4500 W KICKAPOO AVE","address2": "","city": "SHAWNEE","state": "OK","zip": "74804","zip+4": "0000","phone": "4058780244","NPI": "     1588768311"}, 
{"id": 41784,"ncpdp": "3715628","pharmacy_name": "JIMS TOWER PHARMACY","address1": "1044 SW 44TH","address2": "STE 103","city": "OKLAHOMA CITY","state": "OK","zip": "73109","zip+4": "3609","phone": "4056319625","NPI": "     1700922317"}, 
{"id": 41785,"ncpdp": "3715654","pharmacy_name": "DRUG WAREHOUSE #7","address1": "3126 SOUTH HARVARD","address2": "","city": "TULSA","state": "OK","zip": "74135","zip+4": "0000","phone": "9187473622","NPI": "     1093899130"}, 
{"id": 41786,"ncpdp": "3715666","pharmacy_name": "TIGERT PHARMACY LLC","address1": "35 C TIFFANY PLAZA","address2": "","city": "ARDMORE","state": "OK","zip": "73401","zip+4": "0000","phone": "5802231331","NPI": "     1750478954"}, 
{"id": 41787,"ncpdp": "3715678","pharmacy_name": "BOISE CITY FAMILY PHARMACY","address1": "318 W MAIN","address2": "","city": "BOISE CITY","state": "OK","zip": "73933","zip+4": "0000","phone": "5805443441","NPI": "     1497842272"}, 
{"id": 41788,"ncpdp": "3715680","pharmacy_name": "WAL-MART PHARMACY #100823","address1": "1101 EAST PROSPECT","address2": "","city": "PONCA CITY","state": "OK","zip": "74601","zip+4": "0000","phone": "5807650152","NPI": "     1134146251"}, 
{"id": 41789,"ncpdp": "3715729","pharmacy_name": "MAYS #13","address1": "1500 NORTH MAIN","address2": "","city": "MIAMI","state": "OK","zip": "74354","zip+4": "0000","phone": "9185428426","NPI": "     1902980048"}, 
{"id": 41790,"ncpdp": "3715743","pharmacy_name": "SHERIDAN EXPRESS PHARMACY","address1": "205 SW SHERIDAN RD","address2": "","city": "LAWTON","state": "OK","zip": "73505","zip+4": "0000","phone": "5802480300","NPI": "     1619033982"}, 
{"id": 41791,"ncpdp": "3715781","pharmacy_name": "BLANCHARD DRUG","address1": "1203 N COUNCIL","address2": "","city": "BLANCHARD","state": "OK","zip": "73010","zip+4": "8000","phone": "4054852112","NPI": "     1801812763"}, 
{"id": 41792,"ncpdp": "3715793","pharmacy_name": "WAL-MART PHARMACY #100838","address1": "220 SO. STATE HWY 97","address2": "","city": "S SANDS SPRINGS","state": "OK","zip": "74063","zip+4": "0000","phone": "9182459523","NPI": "     1831117597"}, 
{"id": 41793,"ncpdp": "3715820","pharmacy_name": "ASBURY PHARMACY","address1": "6719 N MAY AVE","address2": "","city": "OKLAHOMA CITY","state": "OK","zip": "73116","zip+4": "3424","phone": "4058436691","NPI": "     1841384252"}, 
{"id": 41794,"ncpdp": "3715844","pharmacy_name": "MEDX #16","address1": "3989 SOUTH HIGHWAY 97","address2": "","city": "SAND SPRINGS","state": "OK","zip": "74063","zip+4": "0000","phone": "9182456661","NPI": "     1811071954"}, 
{"id": 41795,"ncpdp": "3715919","pharmacy_name": "PHYSICIANS AND SURGEONS PHARMA","address1": "900 N PORTER","address2": "SUITE 101","city": "NORMAN","state": "OK","zip": "73071","zip+4": "0000","phone": "4053645222","NPI": "     1821185448"}, 
{"id": 41796,"ncpdp": "3715921","pharmacy_name": "MEDICINE SHOPPE #0736","address1": "1006 N HARRISON","address2": "","city": "SHAWNEE","state": "OK","zip": "74801","zip+4": "0000","phone": "4052737360","NPI": "     1164594958"}, 
{"id": 41797,"ncpdp": "3715933","pharmacy_name": "WAL-MART PHARMACY #100276","address1": "1312 E MAIN","address2": "","city": "STIGLER","state": "OK","zip": "74462","zip+4": "0000","phone": "9189673369","NPI": "     1275556342"}, 
{"id": 41798,"ncpdp": "3715945","pharmacy_name": "WAL-MART PHARMACY #100472","address1": "2301 WEST KENOSHA ST","address2": "","city": "BROKEN ARROW","state": "OK","zip": "74012","zip+4": "0000","phone": "9182599136","NPI": "     1043237167"}, 
{"id": 41799,"ncpdp": "3715957","pharmacy_name": "MEDX #15","address1": "15030 SOUTH MEMORIAL","address2": "","city": "BIXBY","state": "OK","zip": "74008","zip+4": "0000","phone": "9183669410","NPI": "     1720162860"}, 
{"id": 41800,"ncpdp": "3715971","pharmacy_name": "HARRISON DISCOUNT PHARMACY","address1": "1442 N HARRISON ST","address2": "","city": "SHAWNEE","state": "OK","zip": "74801","zip+4": "5208","phone": "4052739906","NPI": "     1700961091"}, 
{"id": 41801,"ncpdp": "3716012","pharmacy_name": "WAL-MART PHARMACY #100893","address1": "401 LINWOOD PLAZA","address2": "","city": "LINDSAY","state": "OK","zip": "73052","zip+4": "0000","phone": "4057569591","NPI": "     1952328072"}, 
{"id": 41802,"ncpdp": "3716036","pharmacy_name": "RANDYS PHARMACY INC","address1": "1310 MAIN ST","address2": "","city": "WOODWARD","state": "OK","zip": "73801","zip+4": "3117","phone": "5802566600","NPI": "     1073606414"}, 
{"id": 41803,"ncpdp": "3716048","pharmacy_name": "WAL-MART PHARMACY #100894","address1": "6625 S MEMORIAL DRIVE","address2": "","city": "TULSA","state": "OK","zip": "74133","zip+4": "0000","phone": "9182949700","NPI": "     1861419988"}, 
{"id": 41804,"ncpdp": "3716098","pharmacy_name": "BESTYET HEALTHMART PHARMACY","address1": "19671 NE 23RD","address2": "","city": "HARRAH","state": "OK","zip": "73045","zip+4": "0098","phone": "4054546261","NPI": "     1093716342"}, 
{"id": 41805,"ncpdp": "3716137","pharmacy_name": "WAL-MART PHARMACY #100207","address1": "1004 NORTH BROADWAY","address2": "","city": "CLEVELAND","state": "OK","zip": "74020","zip+4": "0000","phone": "9183585269","NPI": "     1770500894"}, 
{"id": 41806,"ncpdp": "3716238","pharmacy_name": "MERCY PHARMACY","address1": "4200 W MEMORIAL RD","address2": "SUITE 106","city": "OKLAHOMA CITY","state": "OK","zip": "73120","zip+4": "0000","phone": "4057523590","NPI": "     1104910363"}, 
{"id": 41807,"ncpdp": "3716240","pharmacy_name": "WAL-MART PHARMACY #100992","address1": "2019 EAST 81ST ST SOUTH","address2": "","city": "TULSA","state": "OK","zip": "74137","zip+4": "0000","phone": "9184960053","NPI": "     1689691701"}, 
{"id": 41808,"ncpdp": "3716365","pharmacy_name": "MAYS #18","address1": "1330 EAST 51ST STREET","address2": "","city": "TULSA","state": "OK","zip": "74105","zip+4": "0000","phone": "9187494601","NPI": "     1639253776"}, 
{"id": 41809,"ncpdp": "3716389","pharmacy_name": "DRUG WAREHOUSE #20","address1": "12037 SOUTH MEMORIAL","address2": "","city": "BIXBY","state": "OK","zip": "74008","zip+4": "0000","phone": "9183692226","NPI": "     1548344682"}, 
{"id": 41810,"ncpdp": "3716404","pharmacy_name": "DRUG WAREHOUSE #22","address1": "6505 EAST 71ST STREET","address2": "","city": "TULSA","state": "OK","zip": "74133","zip+4": "0000","phone": "9184923650","NPI": "     1457435596"}, 
{"id": 41811,"ncpdp": "3716442","pharmacy_name": "DRUG WAREHOUSE #26","address1": "1205 EAST KENOSHA","address2": "","city": "BROKEN ARROW","state": "OK","zip": "74012","zip+4": "0000","phone": "9182512674","NPI": "     1275617938"}, 
{"id": 41812,"ncpdp": "3716454","pharmacy_name": "MAYS #27","address1": "2323 WEST EDISON","address2": "","city": "TULSA","state": "OK","zip": "74127","zip+4": "0000","phone": "9185821375","NPI": "     1093899148"}, 
{"id": 41813,"ncpdp": "3716466","pharmacy_name": "THOMPSONS PHARMACY","address1": "513 HILLIARY ROAD","address2": "SUITE B","city": "COMANCHE","state": "OK","zip": "73529","zip+4": "1240","phone": "5804398869","NPI": "     1770659948"}, 
{"id": 41814,"ncpdp": "3716480","pharmacy_name": "ROGERS DRUG COMPANY","address1": "326 E CHEROKEE ST","address2": "","city": "WAGONER","state": "OK","zip": "74467","zip+4": "0000","phone": "9184852317","NPI": "     1942382742"}, 
{"id": 41815,"ncpdp": "3716543","pharmacy_name": "PRUETTS CUT RATE PHARMACY","address1": "906 E MAIN ST","address2": "","city": "ANTLERS","state": "OK","zip": "74523","zip+4": "2808","phone": "5802985064","NPI": "     1407840366"}, 
{"id": 41816,"ncpdp": "3716620","pharmacy_name": "WAL-MART PHARMACY #101043","address1": "2008 WEST GRANT","address2": "","city": "PAULS VALLEY","state": "OK","zip": "73075","zip+4": "0000","phone": "4052387525","NPI": "     1497772511"}, 
{"id": 41817,"ncpdp": "3716656","pharmacy_name": "MEDIC PHARMACY HEFNER POINTE","address1": "11101 HEFNER POINTE DR","address2": "STE 101","city": "OKLAHOMA CITY","state": "OK","zip": "73120","zip+4": "0000","phone": "4057553921","NPI": "     1821014655"}, 
{"id": 41818,"ncpdp": "3716757","pharmacy_name": "BAKER EXPRESS PHARMACY","address1": "1842 N HWY 81","address2": "","city": "DUNCAN","state": "OK","zip": "73533","zip+4": "0000","phone": "5802553784","NPI": "     1740317585"}, 
{"id": 41819,"ncpdp": "3716769","pharmacy_name": "HARRAH PHARMACY","address1": "2060 N CHURCH","address2": "PO BOX 247","city": "HARRAH","state": "OK","zip": "73045","zip+4": "0247","phone": "4054542476","NPI": "     1942368667"}, 
{"id": 41820,"ncpdp": "3716783","pharmacy_name": "MURPHYS DRUG","address1": "145 E BROADWAY ST","address2": "","city": "DRUMRIGHT","state": "OK","zip": "74030","zip+4": "3801","phone": "9183529301","NPI": "     1801962915"}, 
{"id": 41821,"ncpdp": "3716822","pharmacy_name": "SCOTT ROBINSONS PRESCRIPTIONS","address1": "1560 E 21ST STREET","address2": "STE 104","city": "TULSA","state": "OK","zip": "74114","zip+4": "1304","phone": "9187432351","NPI": "     1497745186"}, 
{"id": 41822,"ncpdp": "3716872","pharmacy_name": "FAIRFAX HEALTH MART DRUG","address1": "249 N MAIN ST","address2": "","city": "FAIRFAX","state": "OK","zip": "74637","zip+4": "3024","phone": "9186423318","NPI": "     1982797320"}, 
{"id": 41823,"ncpdp": "3716884","pharmacy_name": "HOMELAND PHARMCY #153","address1": "1108 NW 18TH","address2": "","city": "OKLAHOMA CITY","state": "OK","zip": "73106","zip+4": "6002","phone": "4055247741","NPI": "     1417072505"}, 
{"id": 41824,"ncpdp": "3716959","pharmacy_name": "ALLCARE PHARMACY AND GIFTS","address1": "20914 SE 29TH ST","address2": "","city": "HARRAH","state": "OK","zip": "73045","zip+4": "9142","phone": "4053917433","NPI": "     1326128802"}, 
{"id": 41825,"ncpdp": "3716997","pharmacy_name": "APACHE DRUG","address1": "116 E EVANS","address2": "","city": "APACHE","state": "OK","zip": "73006","zip+4": "9802","phone": "5805883639","NPI": "     1043393093"}, 
{"id": 41826,"ncpdp": "3717014","pharmacy_name": "SEQUOIA HEALTH SERVICES","address1": "4141 HIGHLINE BLVD","address2": "STE 100","city": "OKLAHOMA CITY","state": "OK","zip": "73108","zip+4": "0000","phone": "4055245511","NPI": "     1134221344"}, 
{"id": 41827,"ncpdp": "3717040","pharmacy_name": "WAL-MART PHARMACY #101295","address1": "903 SOUTH FIRST ROUTE 3","address2": "","city": "MADILL","state": "OK","zip": "73446","zip+4": "0000","phone": "5807953358","NPI": "     1427076181"}, 
{"id": 41828,"ncpdp": "3717052","pharmacy_name": "RIDGECREST PHARMACY","address1": "8220 S PENNSYLVANIA AVE","address2": "","city": "OKLAHOMA CITY","state": "OK","zip": "73159","zip+4": "5202","phone": "4056821648","NPI": "     1770653859"}, 
{"id": 41829,"ncpdp": "3717305","pharmacy_name": "FAMILY HEALTH CENTER SO PHCY","address1": "10021 S WESTERN","address2": "","city": "OKLAHOMA CITY","state": "OK","zip": "73139","zip+4": "0000","phone": "4056923370","NPI": "     1619013224"}, 
{"id": 41830,"ncpdp": "3717329","pharmacy_name": "GRANDVIEW PHARMACY","address1": "2406 BELL AVENUE","address2": "","city": "ELK CITY","state": "OK","zip": "73644","zip+4": "0000","phone": "5802255550","NPI": "     1235120312"}, 
{"id": 41831,"ncpdp": "3717343","pharmacy_name": "BUY FOR LESS PHARMACY #3","address1": "2500 N PENNSYLVANIA AVE","address2": "","city": "OKLAHOMA CITY","state": "OK","zip": "73107","zip+4": "2427","phone": "4055255120","NPI": "     1609969047"}, 
{"id": 41832,"ncpdp": "3717393","pharmacy_name": "CVS PHARMACY # #06165","address1": "3651 W ROBINSON ST","address2": "","city": "NORMAN","state": "OK","zip": "73072","zip+4": "0000","phone": "4053605406","NPI": "     1396849121"}, 
{"id": 41833,"ncpdp": "3717420","pharmacy_name": "REASORS PHARMACY #4","address1": "1000 W WILL ROGERS BLVD","address2": "","city": "CLAREMORE","state": "OK","zip": "74017","zip+4": "5419","phone": "9183414557","NPI": "     1326114083"}, 
{"id": 41834,"ncpdp": "3717456","pharmacy_name": "MICKS FAMILY PHARMACY INC","address1": "2116 OKLAHOMA AVE","address2": "","city": "WOODWARD","state": "OK","zip": "73801","zip+4": "4528","phone": "5802543504","NPI": "     1235245309"}, 
{"id": 41835,"ncpdp": "3717494","pharmacy_name": "PRICE CUTTER PHARMACY #102","address1": "2219 N BROADWAY ST","address2": "","city": "POTEAU","state": "OK","zip": "74953","zip+4": "2611","phone": "9186479531","NPI": "     1750470449"}, 
{"id": 41836,"ncpdp": "3717521","pharmacy_name": "MEDICINE SHOPPE PHARMACY","address1": "111 WEST GRANT AVE","address2": "","city": "PAULS VALLEY","state": "OK","zip": "73075","zip+4": "0000","phone": "4052383305","NPI": "     1780659755"}, 
{"id": 41837,"ncpdp": "3717533","pharmacy_name": "REED FAMILY PHARMACY","address1": "814 W BROADWAY","address2": "","city": "ARDMORE","state": "OK","zip": "73401","zip+4": "0000","phone": "5802237636","NPI": "     1750475166"}, 
{"id": 41838,"ncpdp": "3717545","pharmacy_name": "WAL-MART PHARMACY #101437","address1": "2600 NORTH HIGHWAY 64","address2": "","city": "GUYMON","state": "OK","zip": "73942","zip+4": "0000","phone": "5803381312","NPI": "     1306863428"}, 
{"id": 41839,"ncpdp": "3717557","pharmacy_name": "COMMUNITY PHARMACY","address1": "212 E 8TH ST","address2": "","city": "BEAVER","state": "OK","zip": "73932","zip+4": "0640","phone": "5806253646","NPI": "     1578540274"}, 
{"id": 41840,"ncpdp": "3717595","pharmacy_name": "WAL-MART PHARMACY #100108","address1": "1608 SOUTH DIVISION","address2": "","city": "GUTHRIE","state": "OK","zip": "73044","zip+4": "0000","phone": "4052821051","NPI": "     1215954334"}, 
{"id": 41841,"ncpdp": "3717634","pharmacy_name": "CVS PHARMACY #06222","address1": "1220 N COMMERCE ST","address2": "","city": "ARDMORE","state": "OK","zip": "73401","zip+4": "0000","phone": "5802231041","NPI": "     1114021946"}, 
{"id": 41842,"ncpdp": "3717646","pharmacy_name": "CVS PHARMACY # #06224","address1": "1802 S 4TH ST","address2": "","city": "CHICKASHA","state": "OK","zip": "73018","zip+4": "0000","phone": "4052220305","NPI": "     1023112851"}, 
{"id": 41843,"ncpdp": "3717658","pharmacy_name": "DRUG WAREHOUSE #2","address1": "215 NORTH LYNN RIGGS","address2": "","city": "CLAREMORE","state": "OK","zip": "74017","zip+4": "0000","phone": "9183422100","NPI": "     1366526410"}, 
{"id": 41844,"ncpdp": "3717660","pharmacy_name": "DRUG WAREHOUSE #29","address1": "1331 ARLINGTON","address2": "","city": "ADA","state": "OK","zip": "74820","zip+4": "0000","phone": "5803329213","NPI": "     1902980055"}, 
{"id": 41845,"ncpdp": "3717672","pharmacy_name": "MEDX DRUG #31","address1": "2110 O EAST MAIN","address2": "","city": "CUSHING","state": "OK","zip": "74023","zip+4": "0000","phone": "9182255233","NPI": "     1992889653"}, 
{"id": 41846,"ncpdp": "3717684","pharmacy_name": "DRUG WAREHOUSE #33","address1": "1302 SOUTH YORK","address2": "","city": "MUSKOGEE","state": "OK","zip": "74403","zip+4": "0000","phone": "9186827865","NPI": "     1811071962"}, 
{"id": 41847,"ncpdp": "3717709","pharmacy_name": "MAYS #30","address1": "721 NORTH PERKINS","address2": "","city": "STILLWATER","state": "OK","zip": "74075","zip+4": "0000","phone": "4086248585","NPI": "     1588747281"}, 
{"id": 41848,"ncpdp": "3717759","pharmacy_name": "REXCO DRUG","address1": "2101 NORTH MAIN","address2": "","city": "ALTUS","state": "OK","zip": "73521","zip+4": "0000","phone": "5804770381","NPI": "     1346319837"}, 
{"id": 41849,"ncpdp": "3718066","pharmacy_name": "WAL-MART PHARMACY #100134","address1": "3105 WEST 3RD","address2": "","city": "ELK CITY","state": "OK","zip": "73644","zip+4": "0000","phone": "5802251575","NPI": "     1124045240"}, 
{"id": 41850,"ncpdp": "3718129","pharmacy_name": "HOMELAND PHARMCY #146","address1": "1701 N. MILT PHILLIPS","address2": "","city": "SEMINOLE","state": "OK","zip": "74868","zip+4": "2333","phone": "4053821467","NPI": "     1124143219"}, 
{"id": 41851,"ncpdp": "3718131","pharmacy_name": "HOMELAND PHARMCY #495","address1": "310 WEST TRUDGEON STREET","address2": "","city": "HENRYETTA","state": "OK","zip": "74437","zip+4": "4026","phone": "9186528753","NPI": "     1033234125"}, 
{"id": 41852,"ncpdp": "3718193","pharmacy_name": "WAL-MART PHARMACY #101626","address1": "2000 W MEMORIAL ROAD","address2": "","city": "OKLAHOMA CITY","state": "OK","zip": "73134","zip+4": "0000","phone": "4057522888","NPI": "     1033136155"}, 
{"id": 41853,"ncpdp": "3718220","pharmacy_name": "DRUG WAREHOUSE #5","address1": "3202 WEST OKMULGEE","address2": "","city": "MUSKOGEE","state": "OK","zip": "74401","zip+4": "0000","phone": "9156832211","NPI": "     1275617326"}, 
{"id": 41854,"ncpdp": "3718345","pharmacy_name": "DRUG WAREHOUSE #34","address1": "708 EST AYRE STREET","address2": "","city": "SHAWNEE","state": "OK","zip": "74801","zip+4": "0000","phone": "4082753400","NPI": "     1710061478"}, 
{"id": 41855,"ncpdp": "3718383","pharmacy_name": "WAL-MART PHARMACY #100137","address1": "111 NORTH PERKINS ROAD","address2": "","city": "STILLWATER","state": "OK","zip": "74075","zip+4": "0000","phone": "4053729186","NPI": "     1942227061"}, 
{"id": 41856,"ncpdp": "3718408","pharmacy_name": "DRUG WAREHOUSE #35","address1": "950 EAST TAFT","address2": "","city": "TULSA","state": "OK","zip": "74066","zip+4": "0000","phone": "9182277200","NPI": "     1073697736"}, 
{"id": 41857,"ncpdp": "3718446","pharmacy_name": "VALU-MED PHARMACY","address1": "1212-A S DOUGLAS BLVD","address2": "","city": "MIDWEST CITY","state": "OK","zip": "73130","zip+4": "5213","phone": "4057411200","NPI": "     1619986098"}, 
{"id": 41858,"ncpdp": "3718460","pharmacy_name": "KMART PHARMACY #9582","address1": "2323 2327 NORTH HARRISON","address2": "","city": "SHAWNEE","state": "OK","zip": "74804","zip+4": "3134","phone": "4052752355","NPI": "     1851322820"}, 
{"id": 41859,"ncpdp": "3718484","pharmacy_name": "KMART PHARMACY #4782","address1": "2501 REDWHEAT DRIVE","address2": "","city": "CLINTON","state": "OK","zip": "73601","zip+4": "0000","phone": "5803230157","NPI": "     1760413736"}, 
{"id": 41860,"ncpdp": "3718535","pharmacy_name": "DOCTORS PARK PHARMACY","address1": "1414 ARLINGTON ST","address2": "SUITE 2000","city": "ADA","state": "OK","zip": "74820","zip+4": "2627","phone": "5803325720","NPI": "     1962509802"}, 
{"id": 41861,"ncpdp": "3718561","pharmacy_name": "MEDICINE SHOPPE #1186","address1": "1001 N WASHINGTON","address2": "","city": "WEATHERFORD","state": "OK","zip": "73096","zip+4": "0000","phone": "5807741200","NPI": "     1235205998"}, 
{"id": 41862,"ncpdp": "3718585","pharmacy_name": "LYONS DRUG AND GIFT","address1": "112 S BROADWAY ST","address2": "","city": "WALTERS","state": "OK","zip": "73572","zip+4": "2098","phone": "5808753188","NPI": "     1588745830"}, 
{"id": 41863,"ncpdp": "3718600","pharmacy_name": "PYRAMID PHARMACY #62","address1": "3328 E 51ST ST","address2": "","city": "TULSA","state": "OK","zip": "74135","zip+4": "0000","phone": "9187435782","NPI": "     1619914041"}, 
{"id": 41864,"ncpdp": "3718624","pharmacy_name": "PYRAMID PHARMACY #63","address1": "7990 E 51ST ST","address2": "","city": "TULSA","state": "OK","zip": "74145","zip+4": "0000","phone": "9186639440","NPI": "     1437196862"}, 
{"id": 41865,"ncpdp": "3718650","pharmacy_name": "HOMELAND PHARMCY #222","address1": "5857 NW EXPRESSWAY","address2": "","city": "OKLAHOMA CITY","state": "OK","zip": "73132","zip+4": "0000","phone": "4057213351","NPI": "     1164469599"}, 
{"id": 41866,"ncpdp": "3718662","pharmacy_name": "HOMELAND PHARMCY #267","address1": "9225 NORTH MAY AVENUE","address2": "","city": "OKLAHOMA CITY","state": "OK","zip": "73120","zip+4": "0000","phone": "4057517119","NPI": "     1073550406"}, 
{"id": 41867,"ncpdp": "3718686","pharmacy_name": "HOMELAND PHARMACY #217","address1": "7101 NW 23RD","address2": "","city": "BETHANY","state": "OK","zip": "73008","zip+4": "0000","phone": "4057892596","NPI": "     1790722122"}, 
{"id": 41868,"ncpdp": "3718698","pharmacy_name": "PYRAMID PHARMACY #65","address1": "4818 E 80TH ST S","address2": "","city": "TULSA","state": "OK","zip": "74136","zip+4": "0000","phone": "9184811003","NPI": "     1609813039"}, 
{"id": 41869,"ncpdp": "3718713","pharmacy_name": "HOMELAND PHARMCY #219","address1": "2600 WEST ROBINSON","address2": "","city": "NORMAN","state": "OK","zip": "73069","zip+4": "0000","phone": "4053609701","NPI": "     1215974738"}, 
{"id": 41870,"ncpdp": "3718725","pharmacy_name": "PYRAMID PHARMACY #67","address1": "2501 SE WASHINGTON","address2": "","city": "BARTLESVILLE","state": "OK","zip": "74006","zip+4": "0000","phone": "9183352020","NPI": "     1124065644"}, 
{"id": 41871,"ncpdp": "3718787","pharmacy_name": "REASORS PHARMACY #8","address1": "3701 S ELM PL","address2": "","city": "BROKEN ARROW","state": "OK","zip": "74011","zip+4": "7920","phone": "9184558102","NPI": "     1144396805"}, 
{"id": 41872,"ncpdp": "3718840","pharmacy_name": "OSBORN DRUGS","address1": "116 S WILSON ST","address2": "","city": "VINITA","state": "OK","zip": "74301","zip+4": "3730","phone": "9182566459","NPI": "     1073560298"}, 
{"id": 41873,"ncpdp": "3718890","pharmacy_name": "WAL-MART PHARMACY #100028","address1": "2415 NW MAIN ST","address2": "","city": "MIAMI","state": "OK","zip": "74354","zip+4": "0000","phone": "9185428429","NPI": "     1851318976"}, 
{"id": 41874,"ncpdp": "3718903","pharmacy_name": "WAL-MART PHARMACY #100136","address1": "1219 WEST DOOLIN","address2": "","city": "BLACKWELL","state": "OK","zip": "74631","zip+4": "0000","phone": "5803634090","NPI": "     1699792713"}, 
{"id": 41875,"ncpdp": "3718915","pharmacy_name": "WAL-MART PHARMACY #100221","address1": "1200 GARTH BROOKS BLVD","address2": "","city": "YUKON","state": "OK","zip": "73099","zip+4": "0000","phone": "4053500500","NPI": "     1508883620"}, 
{"id": 41876,"ncpdp": "3718927","pharmacy_name": "WAL-MART PHARMACY #100246","address1": "700 WEST ROGERS BLVD","address2": "","city": "SKIATOOK","state": "OK","zip": "74070","zip+4": "0000","phone": "9183963194","NPI": "     1417974536"}, 
{"id": 41877,"ncpdp": "3718953","pharmacy_name": "MEDX #20","address1": "6040 SOUTH YALE AVE","address2": "","city": "TULSA","state": "OK","zip": "74135","zip+4": "0000","phone": "9184944040","NPI": "     1982788642"}, 
{"id": 41878,"ncpdp": "3719082","pharmacy_name": "WAL-MART PHARMACY #100132","address1": "200 WEST STARLITE DRIVE","address2": "","city": "KINGFISHER","state": "OK","zip": "73750","zip+4": "0000","phone": "4053755747","NPI": "     1326065442"}, 
{"id": 41879,"ncpdp": "3719121","pharmacy_name": "WAL-MART PHARMACY #100607","address1": "923 WEST 11 STREET HWY 9","address2": "","city": "HOBART","state": "OK","zip": "73651","zip+4": "0000","phone": "5807262630","NPI": "     1770501439"}, 
{"id": 41880,"ncpdp": "3719157","pharmacy_name": "UNITED DISCOUNT DRUG #2","address1": "1602 AND ONE HALF N GREEN","address2": "","city": "PURCELL","state": "OK","zip": "73080","zip+4": "1712","phone": "4055278357","NPI": "     1134281769"}, 
{"id": 41881,"ncpdp": "3719183","pharmacy_name": "OKMULGEE DISCOUNT PHARMACY","address1": "1160 S BELMONT","address2": "","city": "OKMULGEE","state": "OK","zip": "74447","zip+4": "6310","phone": "9187561223","NPI": "     1518050954"}, 
{"id": 41882,"ncpdp": "3719195","pharmacy_name": "WALGREEN DRUG STORE #3040","address1": "701 WEST HOUSTON","address2": "","city": "BROKEN ARROW","state": "OK","zip": "74012","zip+4": "0000","phone": "9182517926","NPI": "     1235144296"}, 
{"id": 41883,"ncpdp": "3719208","pharmacy_name": "WAL-MART PHARMACY #101056","address1": "3300 NORTH TRI-CITY DRIVE","address2": "","city": "NEWCASTLE","state": "OK","zip": "73065","zip+4": "0000","phone": "4053873404","NPI": "     1235156357"}, 
{"id": 41884,"ncpdp": "3719210","pharmacy_name": "CANADIAN VALLEY MED SOLUTIONS","address1": "3401 S MERIDIAN","address2": "","city": "OKLAHOMA CITY","state": "OK","zip": "73119","zip+4": "0000","phone": "4056818118","NPI": "     1639118045"}, 
{"id": 41885,"ncpdp": "3719222","pharmacy_name": "PYRAMID PHARMACY #69","address1": "421 N MAIN","address2": "","city": "STILLWATER","state": "OK","zip": "74075","zip+4": "0000","phone": "4057431080","NPI": "     1033156559"}, 
{"id": 41886,"ncpdp": "3719234","pharmacy_name": "WALGREEN DRUG STORE #3037","address1": "11332 EAST 31ST","address2": "","city": "TULSA","state": "OK","zip": "74146","zip+4": "0000","phone": "9186229636","NPI": "     1144235102"}, 
{"id": 41887,"ncpdp": "3719246","pharmacy_name": "WALGREEN DRUG STORE #3052","address1": "2115 S MEMORIAL DR","address2": "","city": "TULSA","state": "OK","zip": "74129","zip+4": "0000","phone": "9186224887","NPI": "     1053326017"}, 
{"id": 41888,"ncpdp": "3719258","pharmacy_name": "WALGREEN DRUG STORE #3039","address1": "6415 EAST PINE","address2": "","city": "TULSA","state": "OK","zip": "74115","zip+4": "0000","phone": "9188340519","NPI": "     1962417923"}, 
{"id": 41889,"ncpdp": "3719260","pharmacy_name": "BROADWAY CORNER DRUG","address1": "101 E SHAWNTEL SMITH BLVD","address2": "","city": "MULDROW","state": "OK","zip": "74948","zip+4": "0000","phone": "9184271985","NPI": "     1578656732"}, 
{"id": 41890,"ncpdp": "3719311","pharmacy_name": "WALGREEN DRUG STORE #3038","address1": "1440 SOUTH LEWIS","address2": "","city": "TULSA","state": "OK","zip": "74104","zip+4": "0000","phone": "9187475963","NPI": "     1871508838"}, 
{"id": 41891,"ncpdp": "3719323","pharmacy_name": "WALGREEN DRUG STORE #3051","address1": "9106 S SHERIDAN","address2": "","city": "TULSA","state": "OK","zip": "74133","zip+4": "0000","phone": "9184923509","NPI": "     1780699744"}, 
{"id": 41892,"ncpdp": "3719361","pharmacy_name": "PYRAMID PHARMACY #61","address1": "3915 S PEORIA","address2": "","city": "TULSA","state": "OK","zip": "74105","zip+4": "0000","phone": "9187479740","NPI": "     1831138213"}, 
{"id": 41893,"ncpdp": "3719385","pharmacy_name": "CONSUMERS PHARMACY #8","address1": "909 W 6TH ST","address2": "","city": "STILLWATER","state": "OK","zip": "74074","zip+4": "4302","phone": "4053725242","NPI": "     1336287325"}, 
{"id": 41894,"ncpdp": "3719400","pharmacy_name": "GREAT PLAINS PHARMACY","address1": "3201 W GORE BLVD","address2": "","city": "LAWTON","state": "OK","zip": "73505","zip+4": "6334","phone": "5805855401","NPI": "     1427130947"}, 
{"id": 41895,"ncpdp": "3719412","pharmacy_name": "POPKESS PHARMACY","address1": "524 E DON TYLER AVE","address2": "","city": "DEWEY","state": "OK","zip": "74029","zip+4": "2518","phone": "9185342262","NPI": "     1265592158"}, 
{"id": 41896,"ncpdp": "3719424","pharmacy_name": "WALGREEN DRUG STORE #3018","address1": "3112 S HARVARD","address2": "","city": "TULSA","state": "OK","zip": "74135","zip+4": "0000","phone": "9187421202","NPI": "     1598770554"}, 
{"id": 41897,"ncpdp": "3719436","pharmacy_name": "WAL-MART PHARMACY #100168","address1": "12101 E 96TH ST N","address2": "","city": "OWASSO","state": "OK","zip": "74055","zip+4": "0000","phone": "9182721134","NPI": "     1144247263"}, 
{"id": 41898,"ncpdp": "3719450","pharmacy_name": "WAREHOUSE MARKET PHARMACY #32","address1": "1507 W 51ST ST","address2": "","city": "TULSA","state": "OK","zip": "74107","zip+4": "8041","phone": "9184461404","NPI": "     1700965472"}, 
{"id": 41899,"ncpdp": "3719486","pharmacy_name": "THE MEDICINE STORE","address1": "311 N WASHINGTON AVE","address2": "","city": "DURANT","state": "OK","zip": "74701","zip+4": "3641","phone": "5809243784","NPI": "     1528143815"}, 
{"id": 41900,"ncpdp": "3719513","pharmacy_name": "WAL-MART PHARMACY #100117","address1": "501 SOUTH PARK DRIVE","address2": "","city": "BROKEN BOW","state": "OK","zip": "74728","zip+4": "0000","phone": "5805843335","NPI": "     1053338178"}, 
{"id": 41901,"ncpdp": "3719525","pharmacy_name": "LAVERNE DRUG AND GIFTS","address1": "102 W JANE JAYROE","address2": "","city": "LAVERNE","state": "OK","zip": "73848","zip+4": "1250","phone": "5809213373","NPI": "     1043384431"}, 
{"id": 41902,"ncpdp": "3719551","pharmacy_name": "JOHNNYS HOMETOWN PHARMACY","address1": "303 E RAY FINE BLVD","address2": "STE 100","city": "ROLAND","state": "OK","zip": "74954","zip+4": "1600","phone": "9184270400","NPI": "     1346223328"}, 
{"id": 41903,"ncpdp": "3719575","pharmacy_name": "WALGREEN DRUG STORE #3258","address1": "4971 S MEMORIAL","address2": "","city": "TULSA","state": "OK","zip": "74145","zip+4": "0000","phone": "9186639707","NPI": "     1407861461"}, 
{"id": 41904,"ncpdp": "3719587","pharmacy_name": "HINTON PHARMACY","address1": "401 N BROADWAY","address2": "","city": "HINTON","state": "OK","zip": "73047","zip+4": "0000","phone": "4055426222","NPI": "     1255430781"}, 
{"id": 41905,"ncpdp": "3719614","pharmacy_name": "HOMELAND PHARMCY #200","address1": "1724 WEST LINDSEY","address2": "","city": "NORMAN","state": "OK","zip": "73069","zip+4": "4306","phone": "4053643900","NPI": "     1053436055"}, 
{"id": 41906,"ncpdp": "3719626","pharmacy_name": "THE APOTHECARY","address1": "1419 COMMERCIAL AVE","address2": "","city": "MOUNDS","state": "OK","zip": "74047","zip+4": "0000","phone": "9188276301","NPI": "     1871771436"}, 
{"id": 41907,"ncpdp": "3719652","pharmacy_name": "WAL-MART PHARMACY #100178","address1": "914 E OKLAHOMA BLVD","address2": "","city": "ALVA","state": "OK","zip": "73717","zip+4": "0000","phone": "5803274054","NPI": "     1962429084"}, 
{"id": 41908,"ncpdp": "3719676","pharmacy_name": "ARDMORE INDIAN CLINIC PHCY","address1": "2510 CHICKASAW BLVD","address2": "","city": "ARDMORE","state": "OK","zip": "73401","zip+4": "1341","phone": "5802268181","NPI": "     1669597027"}, 
{"id": 41909,"ncpdp": "3719688","pharmacy_name": "TISHAMINGO INDIAN CLINIC PHARM","address1": "815 E 6TH ST","address2": "","city": "TISHAMINGO","state": "OK","zip": "73460","zip+4": "0430","phone": "5803712392","NPI": "     1750406757"}, 
{"id": 41910,"ncpdp": "3719727","pharmacy_name": "MAYS #21","address1": "10106 SOUTH SHERIDAN","address2": "","city": "TULSA","state": "OK","zip": "74133","zip+4": "0000","phone": "9182988838","NPI": "     1790869451"}, 
{"id": 41911,"ncpdp": "3719753","pharmacy_name": "FAMILY MEDICINE PHARMACY","address1": "900 NE 10TH ST","address2": "SUITE 1101","city": "OKLAHOMA CITY","state": "OK","zip": "73104","zip+4": "3114","phone": "4052712333","NPI": "     1063466654"}, 
{"id": 41912,"ncpdp": "3719777","pharmacy_name": "HOMELAND PHARMCY #273","address1": "10700 SOUTH PENNSYLVANIA","address2": "","city": "OKLAHOMA CITY","state": "OK","zip": "73170","zip+4": "0000","phone": "4056913604","NPI": "     1740229129"}, 
{"id": 41913,"ncpdp": "3719828","pharmacy_name": "CVS PHARMACY # #06225","address1": "1520 S BRYANT AVE","address2": "","city": "EDMOND","state": "OK","zip": "73013","zip+4": "0000","phone": "4053487982","NPI": "     1841394673"}, 
{"id": 41914,"ncpdp": "3719830","pharmacy_name": "WAL-MART PHARMACY #100479","address1": "2500 NORTH MAIN","address2": "","city": "ALTUS","state": "OK","zip": "73521","zip+4": "0000","phone": "5804828466","NPI": "     1871510990"}, 
{"id": 41915,"ncpdp": "3719842","pharmacy_name": "ERICS DISCOUNT PHARMACY","address1": "3700 N KICKAPOO ST","address2": "STE 140","city": "SHAWNEE","state": "OK","zip": "74804","zip+4": "0000","phone": "4052759640","NPI": "     1437234721"}, 
{"id": 41916,"ncpdp": "3719955","pharmacy_name": "COUNTRY MART PHARMACY","address1": "601 E WYANDOTTE","address2": "","city": "MCALESTER","state": "OK","zip": "74501","zip+4": "5425","phone": "9184232980","NPI": "     1477631513"}, 
{"id": 41917,"ncpdp": "3719979","pharmacy_name": "WAL-MART PHARMACY #100374","address1": "11207 S HWY 51","address2": "","city": "COWETA","state": "OK","zip": "74429","zip+4": "0000","phone": "9184867286","NPI": "     1780601807"}, 
{"id": 41918,"ncpdp": "3719993","pharmacy_name": "WAL-MART PHARMACY #100327","address1": "1107 SOUTH MAIN STREET","address2": "","city": "JAY","state": "OK","zip": "74346","zip+4": "0000","phone": "9182534034","NPI": "     1689692345"}, 
{"id": 41919,"ncpdp": "3720009","pharmacy_name": "WALGREEN DRUG STORE #3534","address1": "4704 S ELM PLACE","address2": "","city": "BROKEN ARROW","state": "OK","zip": "74011","zip+4": "0000","phone": "9184554424","NPI": "     1316952377"}, 
{"id": 41920,"ncpdp": "3720011","pharmacy_name": "THE APOTHECARY SHOPPE","address1": "6136 E 51ST STREET","address2": "","city": "TULSA","state": "OK","zip": "74135","zip+4": "0000","phone": "9186652003","NPI": "     1699786723"}, 
{"id": 41921,"ncpdp": "3720023","pharmacy_name": "CORAM SPECIALTY INFUSION SERVI","address1": "235 N MACARTHUR BLVD","address2": "STE 100","city": "OKLAHOMA CITY","state": "OK","zip": "73127","zip+4": "0000","phone": "4054952273","NPI": "     1912917550"}, 
{"id": 41922,"ncpdp": "3720073","pharmacy_name": "PYRAMID PHARMACY #66","address1": "10122 MEMORIAL DR","address2": "","city": "TULSA","state": "OK","zip": "74133","zip+4": "0000","phone": "9183696575","NPI": "     1659310035"}, 
{"id": 41923,"ncpdp": "3720097","pharmacy_name": "PYRAMID PHARMACY #64","address1": "11214 E 71ST ST S","address2": "","city": "TULSA","state": "OK","zip": "74133","zip+4": "0000","phone": "9184592538","NPI": "     1972543346"}, 
{"id": 41924,"ncpdp": "3720112","pharmacy_name": "CYRIL HOME CARE PHARMACY INC","address1": "214 MISSOURI AVE","address2": "","city": "CYRIL","state": "OK","zip": "73029","zip+4": "0000","phone": "8882582453","NPI": "     1427091651"}, 
{"id": 41925,"ncpdp": "3720148","pharmacy_name": "HOMELAND PHARMCY #886","address1": "24 EAST 33RD STREET","address2": "","city": "EDMOND","state": "OK","zip": "73013","zip+4": "0000","phone": "4053307202","NPI": "     1104941293"}, 
{"id": 41926,"ncpdp": "3720150","pharmacy_name": "WALGREEN DRUG STORE #3643","address1": "9011 S PENNSYLVANIA AVE","address2": "","city": "OKLAHOMA CITY","state": "OK","zip": "73159","zip+4": "0000","phone": "4056921844","NPI": "     1225043284"}, 
{"id": 41927,"ncpdp": "3720162","pharmacy_name": "WALGREEN DRUG STORE #3645","address1": "101 NORTH MIDWEST BLVD","address2": "","city": "MIDWEST CITY","state": "OK","zip": "73110","zip+4": "0000","phone": "4057410808","NPI": "     1043225006"}, 
{"id": 41928,"ncpdp": "3720174","pharmacy_name": "WALGREEN DRUG STORE #3648","address1": "301 S SANTE FE AVENUE","address2": "","city": "EDMOND","state": "OK","zip": "73003","zip+4": "0000","phone": "4053306181","NPI": "     1134134190"}, 
{"id": 41929,"ncpdp": "3720186","pharmacy_name": "WAL-MART PHARMACY #100038","address1": "1907 SE WASHINGTON ST","address2": "","city": "IDABEL","state": "OK","zip": "74745","zip+4": "0000","phone": "5802863323","NPI": "     1699792721"}, 
{"id": 41930,"ncpdp": "3720201","pharmacy_name": "MEDIC PHARMACY","address1": "522 S MAIN ST","address2": "","city": "SHATTUCK","state": "OK","zip": "73858","zip+4": "0099","phone": "5809382854","NPI": "     1720163959"}, 
{"id": 41931,"ncpdp": "3720213","pharmacy_name": "WALGREEN DRUG STORE #3642","address1": "4500 S SHIELDS BLVD","address2": "","city": "OKLAHOMA CITY","state": "OK","zip": "73129","zip+4": "0000","phone": "4056313425","NPI": "     1952316911"}, 
{"id": 41932,"ncpdp": "3720287","pharmacy_name": "WEST END DRUG","address1": "7210 NW CACHE RD","address2": "","city": "LAWTON","state": "OK","zip": "73505","zip+4": "0000","phone": "5805361133","NPI": "     1437157559"}, 
{"id": 41933,"ncpdp": "3720299","pharmacy_name": "RHOADS BROTHERS PHARMACY","address1": "106 W 7TH ST","address2": "","city": "NEWKIRK","state": "OK","zip": "74647","zip+4": "4012","phone": "5803622420","NPI": "     1174692339"}, 
{"id": 41934,"ncpdp": "3720302","pharmacy_name": "WALGREEN DRUG STORE #3786","address1": "1201 NW 12TH ST","address2": "","city": "MOORE","state": "OK","zip": "73170","zip+4": "0000","phone": "4057991081","NPI": "     1861407827"}, 
{"id": 41935,"ncpdp": "3720376","pharmacy_name": "WALGREEN DRUG STORE #3748","address1": "4300 SE 29TH ST","address2": "","city": "DEL CITY","state": "OK","zip": "73115","zip+4": "0000","phone": "4056774900","NPI": "     1770598732"}, 
{"id": 41936,"ncpdp": "3720465","pharmacy_name": "DRUG WAREHOUSE #11","address1": "905 C SOUTH MUSKOGEE AVE","address2": "","city": "TAHLEQUAH","state": "OK","zip": "74464","zip+4": "0000","phone": "9184568220","NPI": "     1609950369"}, 
{"id": 41937,"ncpdp": "3720491","pharmacy_name": "WALGREEN DRUG STORE #3718","address1": "6350 N MACARTHUR","address2": "","city": "WARR ACRES","state": "OK","zip": "73122","zip+4": "0000","phone": "4057280687","NPI": "     1689689648"}, 
{"id": 41938,"ncpdp": "3720504","pharmacy_name": "WALGREEN DRUG STORE #3668","address1": "7101 W HEFNER RD","address2": "","city": "OKLAHOMA CITY","state": "OK","zip": "73162","zip+4": "0000","phone": "4057730664","NPI": "     1346255312"}, 
{"id": 41939,"ncpdp": "3720516","pharmacy_name": "WALGREEN DRUG STORE #3771","address1": "7111 S LEWIS AVE","address2": "","city": "TULSA","state": "OK","zip": "74136","zip+4": "0000","phone": "9184815061","NPI": "     1255346227"}, 
{"id": 41940,"ncpdp": "3720528","pharmacy_name": "WAL-MART PHARMACY #101278","address1": "1506 FIR AVENUE","address2": "","city": "PERRY","state": "OK","zip": "73077","zip+4": "0000","phone": "5803364117","NPI": "     1508883638"}, 
{"id": 41941,"ncpdp": "3720578","pharmacy_name": "CVS PHARMACY # #06226","address1": "2323 N MARTIN LUTHER KING AVE","address2": "","city": "OKLAHOMA CITY","state": "OK","zip": "73111","zip+4": "0000","phone": "4054240557","NPI": "     1669576492"}, 
{"id": 41942,"ncpdp": "3720580","pharmacy_name": "CVS PHARMACY # #06230","address1": "715 NW 50TH ST","address2": "","city": "OKLAHOMA CITY","state": "OK","zip": "73118","zip+4": "0000","phone": "4058431501","NPI": "     1235237959"}, 
{"id": 41943,"ncpdp": "3720592","pharmacy_name": "CVS PHARMACY # #06231","address1": "4500 NW 23RD ST","address2": "","city": "OKLAHOMA CITY","state": "OK","zip": "73127","zip+4": "0000","phone": "4059475505","NPI": "     1487758215"}, 
{"id": 41944,"ncpdp": "3720605","pharmacy_name": "CVS PHARMACY # #06228","address1": "700 W MAIN ST","address2": "","city": "NORMAN","state": "OK","zip": "73069","zip+4": "0000","phone": "4053217106","NPI": "     1295839025"}, 
{"id": 41945,"ncpdp": "3720617","pharmacy_name": "CVS PHARMACY # #06232","address1": "110 W VANDAMENT AVE","address2": "","city": "YUKON","state": "OK","zip": "73099","zip+4": "0000","phone": "4053544869","NPI": "     1013011840"}, 
{"id": 41946,"ncpdp": "3720643","pharmacy_name": "CVS PHARMACY # #06233","address1": "1327 E DANFORTH","address2": "","city": "EDMOND","state": "OK","zip": "73034","zip+4": "0000","phone": "4053591025","NPI": "     1831293661"}, 
{"id": 41947,"ncpdp": "3720667","pharmacy_name": "TECUMSEH MED CLINIC PHY","address1": "418 E WALNUT","address2": "SUITE 100","city": "TECUMSEH","state": "OK","zip": "74873","zip+4": "0000","phone": "4055986597","NPI": "     1417061953"}, 
{"id": 41948,"ncpdp": "3720681","pharmacy_name": "THE PHARMACY OF POCOLA","address1": "102 E FOLSOM BLVD","address2": "","city": "POCOLA","state": "OK","zip": "74902","zip+4": "0000","phone": "9184362900","NPI": "     1225238447"}, 
{"id": 41949,"ncpdp": "3720693","pharmacy_name": "WILLIAMS PHARMACY #14","address1": "10011 SE 15TH ST","address2": "","city": "MIDWEST CITY","state": "OK","zip": "73130","zip+4": "0000","phone": "4057378100","NPI": "     1568401941"}, 
{"id": 41950,"ncpdp": "3720718","pharmacy_name": "CLAYTON PHARMACY","address1": "102 LAWSON BLVD","address2": "PO BOX 517","city": "CLAYTON","state": "OK","zip": "74536","zip+4": "0000","phone": "9185694884","NPI": "     1073525002"}, 
{"id": 41951,"ncpdp": "3720732","pharmacy_name": "PYRAMID PHARMACY #68","address1": "2005 N 14TH ST","address2": "SUITE 110","city": "PONCA CITY","state": "OK","zip": "74601","zip+4": "0000","phone": "5807627444","NPI": "     1477592855"}, 
{"id": 41952,"ncpdp": "3720768","pharmacy_name": "CLINIC PHARMACY","address1": "1104 E CENTRAL","address2": "STE A","city": "ANADARKO","state": "OK","zip": "73005","zip+4": "0000","phone": "4052473081","NPI": "     1427141860"}, 
{"id": 41953,"ncpdp": "3720770","pharmacy_name": "WAL-MART PHARMACY #100975","address1": "3712 WEST MAIN","address2": "","city": "DURANT","state": "OK","zip": "74701","zip+4": "0000","phone": "5809245112","NPI": "     1417974544"}, 
{"id": 41954,"ncpdp": "3720845","pharmacy_name": "REASORS PHARMACY #13","address1": "11005 E 41ST STREET","address2": "","city": "TULSA","state": "OK","zip": "74146","zip+4": "0000","phone": "9186103245","NPI": "     1053487710"}, 
{"id": 41955,"ncpdp": "3720857","pharmacy_name": "CORNER DRUG STORE","address1": "100 E MAIN","address2": "","city": "MADILL","state": "OK","zip": "73446","zip+4": "0000","phone": "5807953376","NPI": "     1669566071"}, 
{"id": 41956,"ncpdp": "3720908","pharmacy_name": "WALGREEN DRUG STORE #4011","address1": "2835 SW 29TH STREET","address2": "","city": "OKLAHOMA CITY","state": "OK","zip": "73119","zip+4": "0000","phone": "4056319293","NPI": "     1164437133"}, 
{"id": 41957,"ncpdp": "3720934","pharmacy_name": "JACKS PHARMACY","address1": "500 WILLIAMS","address2": "","city": "MAYSVILLE","state": "OK","zip": "73057","zip+4": "0000","phone": "4058674427","NPI": "     1881769487"}, 
{"id": 41958,"ncpdp": "3720958","pharmacy_name": "WAL-MART PHARMACY #100049","address1": "1911 E JACKSON ST","address2": "","city": "HUGO","state": "OK","zip": "74743","zip+4": "0000","phone": "5803267541","NPI": "     1598783268"}, 
{"id": 41959,"ncpdp": "3720960","pharmacy_name": "BUY FOR LESS PHARMACY #3701","address1": "3701 N MACARTHUR BLVD","address2": "","city": "OKLAHOMA CITY","state": "OK","zip": "73122","zip+4": "0000","phone": "4054958283","NPI": "     1336232776"}, 
{"id": 41960,"ncpdp": "3721001","pharmacy_name": "WALGREEN DRUG STORE #4098","address1": "5120 N MAY AVE","address2": "","city": "OKLAHOMA CITY","state": "OK","zip": "73112","zip+4": "0000","phone": "4059423485","NPI": "     1073528048"}, 
{"id": 41961,"ncpdp": "3721037","pharmacy_name": "WAL-MART PHARMACY #101116","address1": "1845 NORTH 81 HWY","address2": "","city": "DUNCAN","state": "OK","zip": "73533","zip+4": "0000","phone": "5802524888","NPI": "     1407874175"}, 
{"id": 41962,"ncpdp": "3721051","pharmacy_name": "WALGREEN DRUG STORE #4066","address1": "1099 GARTH BROOKS BLVD","address2": "","city": "YUKON","state": "OK","zip": "73099","zip+4": "0000","phone": "4053544016","NPI": "     1982619953"}, 
{"id": 41963,"ncpdp": "3721087","pharmacy_name": "DRUG WAREHOUSE #17","address1": "1920 SE WASHINGTON BLVD","address2": "","city": "BARTLESVILLE","state": "OK","zip": "74006","zip+4": "0000","phone": "9183354305","NPI": "     1518041276"}, 
{"id": 41964,"ncpdp": "3721102","pharmacy_name": "CLIFS PHARMACY","address1": "505 E REDWOOD","address2": "","city": "SALLISAW","state": "OK","zip": "74955","zip+4": "0000","phone": "9187760100","NPI": "     1578563060"}, 
{"id": 41965,"ncpdp": "3721114","pharmacy_name": "HENRY ROBERTS EXPRESS PHARMACY","address1": "1306 12TH NW","address2": "","city": "ARDMORE","state": "OK","zip": "73401","zip+4": "0000","phone": "5802235828","NPI": "     1841284395"}, 
{"id": 41966,"ncpdp": "3721126","pharmacy_name": "WAL-MART PHARMACY #100392","address1": "800 EAST MAIN STREET","address2": "","city": "WEATHERFORD","state": "OK","zip": "73096","zip+4": "0000","phone": "5807722712","NPI": "     1326065459"}, 
{"id": 41967,"ncpdp": "3721138","pharmacy_name": "WAL-MART PHARMACY #100047","address1": "1101 WEST RUTH AVE","address2": "","city": "SALLISAW","state": "OK","zip": "74955","zip+4": "0000","phone": "9187755552","NPI": "     1235156365"}, 
{"id": 41968,"ncpdp": "3721164","pharmacy_name": "WAL-MART PHARMACY #100129","address1": "1715 NORTH COMMERCE STREET","address2": "","city": "ARDMORE","state": "OK","zip": "73401","zip+4": "0000","phone": "5802266444","NPI": "     1144247271"}, 
{"id": 41969,"ncpdp": "3721176","pharmacy_name": "HOMELAND PHARMCY #247","address1": "2410 CHANDLER ROAD","address2": "","city": "MUSKOGEE","state": "OK","zip": "74402","zip+4": "0000","phone": "9186866734","NPI": "     1003855487"}, 
{"id": 41970,"ncpdp": "3721190","pharmacy_name": "WALGREEN DRUG STORE #4111","address1": "12240 N MAY AVE","address2": "","city": "OKLAHOMA CITY","state": "OK","zip": "73120","zip+4": "0000","phone": "4057515030","NPI": "     1790790764"}, 
{"id": 41971,"ncpdp": "3721203","pharmacy_name": "REASORS PHARMACY #14","address1": "1100 E KENOSHA","address2": "","city": "BROKEN ARROW","state": "OK","zip": "74012","zip+4": "0000","phone": "9182511295","NPI": "     1962578625"}, 
{"id": 41972,"ncpdp": "3721215","pharmacy_name": "BUY FOR LESS PHARMACY","address1": "3501 NW EXPRESSWAY","address2": "","city": "OKLAHOMA CITY","state": "OK","zip": "73112","zip+4": "0000","phone": "4059466386","NPI": "     1245323682"}, 
{"id": 41973,"ncpdp": "3721253","pharmacy_name": "DURANT INDIAN CLINIC PHARMACY","address1": "1600 N WASHINGTON","address2": "","city": "DURRANT","state": "OK","zip": "74701","zip+4": "0000","phone": "5809202100","NPI": "     1699890053"}, 
{"id": 41974,"ncpdp": "3721265","pharmacy_name": "CARL ALBERT INDIAN HEALTH FAC","address1": "1001 N COUNTRY CLUB RD","address2": "","city": "ADA","state": "OK","zip": "74820","zip+4": "0000","phone": "5804214597","NPI": "     1487715587"}, 
{"id": 41975,"ncpdp": "3721277","pharmacy_name": "WAL-MART PHARMACY #100232","address1": "1901 SOUTH MISSISSIPPI","address2": "","city": "ATOKA","state": "OK","zip": "74525","zip+4": "0000","phone": "5808893000","NPI": "     1053338186"}, 
{"id": 41976,"ncpdp": "3721289","pharmacy_name": "WAL-MART PHARMACY #100389","address1": "1225 W I 35 FRONTAGE ROAD","address2": "","city": "EDMOND","state": "OK","zip": "73013","zip+4": "0000","phone": "4053483677","NPI": "     1962429092"}, 
{"id": 41977,"ncpdp": "3721291","pharmacy_name": "WALGREEN DRUG STORE #4269","address1": "1427 N HARRISON","address2": "","city": "SHAWNEE","state": "OK","zip": "74801","zip+4": "0000","phone": "4052738220","NPI": "     1609881671"}, 
{"id": 41978,"ncpdp": "3721328","pharmacy_name": "H AND G HOME MEDICAL PHARMACY","address1": "112 NE WASHINGTON BLVD","address2": "","city": "BARTLESVILLE","state": "OK","zip": "74006","zip+4": "0000","phone": "9183334848","NPI": "     1326188335"}, 
{"id": 41979,"ncpdp": "3721330","pharmacy_name": "CF SOLUTIONS INC","address1": "7471 E 46TH PL","address2": "","city": "TULSA","state": "OK","zip": "74145","zip+4": "0000","phone": "9186100772","NPI": "     1518912393"}, 
{"id": 41980,"ncpdp": "3721342","pharmacy_name": "WAL-MART PHARMACY #100387","address1": "3900 E 1ST ST","address2": "","city": "CHANDLER","state": "OK","zip": "74834","zip+4": "0000","phone": "4052582012","NPI": "     1871510909"}, 
{"id": 41981,"ncpdp": "3721366","pharmacy_name": "WAL-MART PHARMACY #100360","address1": "3100  EAST MAIN STREET","address2": "","city": "CUSHING","state": "OK","zip": "74023","zip+4": "0000","phone": "9182256320","NPI": "     1780601815"}, 
{"id": 41982,"ncpdp": "3721378","pharmacy_name": "WAL-MART PHARMACY #100324","address1": "105 WEST HWY 16","address2": "","city": "BRISTOW","state": "OK","zip": "74010","zip+4": "0000","phone": "9183675515","NPI": "     1184647257"}, 
{"id": 41983,"ncpdp": "3721405","pharmacy_name": "OLE MINERS PHARMACY","address1": "103 S CONNELL","address2": "","city": "PICHER","state": "OK","zip": "74360","zip+4": "0248","phone": "9186731552","NPI": "     1295832558"}, 
{"id": 41984,"ncpdp": "3721417","pharmacy_name": "PHARMACY SOLUTIONS LLC","address1": "4350 WILL ROGERS PKWY","address2": "STE 200","city": "OKLAHOMA CITY","state": "OK","zip": "73108","zip+4": "0000","phone": "4059484600","NPI": "     1528104130"}, 
{"id": 41985,"ncpdp": "3721429","pharmacy_name": "WAL-MART PHARMACY #100150","address1": "3215 WILLIAMS AVENUE","address2": "","city": "WOODWARD","state": "OK","zip": "73801","zip+4": "0000","phone": "5802560097","NPI": "     1598782625"}, 
{"id": 41986,"ncpdp": "3721431","pharmacy_name": "ABSENTEE SHAWNEE PHARMACY","address1": "2029 S GORDON COOPER DR","address2": "","city": "SHAWNEE","state": "OK","zip": "74801","zip+4": "0000","phone": "4058785859","NPI": "     1831294024"}, 
{"id": 41987,"ncpdp": "3721443","pharmacy_name": "FIKES PHARMACY","address1": "101 E 2ND STREET","address2": "","city": "GRANDFIELD","state": "OK","zip": "73546","zip+4": "0000","phone": "5804795696","NPI": "     1952475345"}, 
{"id": 41988,"ncpdp": "3721481","pharmacy_name": "SAMS PHARMACY #106342","address1": "6922 S MINGO ROAD","address2": "","city": "TULSA","state": "OK","zip": "74133","zip+4": "0000","phone": "9182949100","NPI": "     1407873532"}, 
{"id": 41989,"ncpdp": "3721493","pharmacy_name": "SAMARITAN INFUSION SERVICE","address1": "3500 NW 56TH ST","address2": "SUITE 201","city": "OKLAHOMA CITY","state": "OK","zip": "73112","zip+4": "4518","phone": "4059518400","NPI": "     1003835018"}, 
{"id": 41990,"ncpdp": "3721506","pharmacy_name": "WALGREEN DRUG STORE #4603","address1": "6000 S PENNSYLVANIA","address2": "","city": "OKLAHOMA CITY","state": "OK","zip": "73159","zip+4": "0000","phone": "4056818240","NPI": "     1366459240"}, 
{"id": 41991,"ncpdp": "3721518","pharmacy_name": "MEDICAP PHARMACY #8224","address1": "12 N SHERIDAN RD","address2": "","city": "LAWTON","state": "OK","zip": "73505","zip+4": "0000","phone": "5802487360","NPI": "     1841236494"}, 
{"id": 41992,"ncpdp": "3721532","pharmacy_name": "DRUG WAREHOUSE #4","address1": "714 WEST MAIN","address2": "","city": "JENKS","state": "OK","zip": "74037","zip+4": "0000","phone": "9182981305","NPI": "     1710061866"}, 
{"id": 41993,"ncpdp": "3721544","pharmacy_name": "WALGREEN DRUG STORE #4673","address1": "5901 NW 39TH EXPRESSWAY","address2": "","city": "WARR ACRES","state": "OK","zip": "73122","zip+4": "0000","phone": "4054958243","NPI": "     1164439048"}, 
{"id": 41994,"ncpdp": "3721619","pharmacy_name": "WALGREEN DRUG STORE #4723","address1": "11 W TAFT","address2": "","city": "SAPULPA","state": "OK","zip": "74066","zip+4": "0000","phone": "9182279631","NPI": "     1518972587"}, 
{"id": 41995,"ncpdp": "3721708","pharmacy_name": "REASORS PHARMACY #15","address1": "4909 E 41ST ST","address2": "","city": "TULSA","state": "OK","zip": "74135","zip+4": "0000","phone": "9182707060","NPI": "     1871669531"}, 
{"id": 41996,"ncpdp": "3721734","pharmacy_name": "WALGREEN DRUG STORE #4703","address1": "701 N SHERIDAN","address2": "","city": "LAWTON","state": "OK","zip": "73505","zip+4": "0000","phone": "5803534362","NPI": "     1427063494"}, 
{"id": 41997,"ncpdp": "3721746","pharmacy_name": "TARGET PHARMACY #0019","address1": "1701 S YALE AVE","address2": "","city": "TULSA","state": "OK","zip": "74112","zip+4": "0000","phone": "9182930196","NPI": "     1588686299"}, 
{"id": 41998,"ncpdp": "3721809","pharmacy_name": "KICKAPOO HEALTH CENTER PHARMAC","address1": "407 N HWY 102","address2": "","city": "MCLOUD","state": "OK","zip": "74851","zip+4": "0000","phone": "4059642081","NPI": "     1194803346"}, 
{"id": 41999,"ncpdp": "3721811","pharmacy_name": "QUANTUM HEALTH CARE PHARMACY","address1": "4202 SW LEE BLVD BLD-B C","address2": "","city": "LAWTON","state": "OK","zip": "73505","zip+4": "0000","phone": "5802480808","NPI": "     1801961743"}, 
{"id": 42000,"ncpdp": "3721859","pharmacy_name": "KATHYS PHARMACY AND GIFTS","address1": "114 E MAIN","address2": "","city": "BEGGS","state": "OK","zip": "74421","zip+4": "0000","phone": "9182674890","NPI": "     1265578827"}, 
{"id": 42001,"ncpdp": "3721873","pharmacy_name": "HOMELAND PHARMCY #255","address1": "1251 ALAMDEA STREET","address2": "","city": "NORMAN","state": "OK","zip": "73071","zip+4": "0000","phone": "4054470041","NPI": "     1912946393"}, 
{"id": 42002,"ncpdp": "3721912","pharmacy_name": "THRIFTY PHARMACY EDMOND","address1": "2200 W 15TH ST","address2": "SUITE 124","city": "EDMOND","state": "OK","zip": "73013","zip+4": "0000","phone": "4057154405","NPI": "     1710018015"}, 
{"id": 42003,"ncpdp": "3721948","pharmacy_name": "WALGREEN DRUG STORE #4784","address1": "2100 W BRITTON RD","address2": "","city": "THE VILLAGE","state": "OK","zip": "73120","zip+4": "0000","phone": "4058426221","NPI": "     1073520953"}, 
{"id": 42004,"ncpdp": "3721962","pharmacy_name": "DRUG WAREHOUSE #38","address1": "6336 EAST 4TH PLACE","address2": "","city": "TULSA","state": "OK","zip": "74112","zip+4": "0000","phone": "9188335180","NPI": "     1629152772"}, 
{"id": 42005,"ncpdp": "3721998","pharmacy_name": "WALGREEN DRUG STORE #5142","address1": "1100 N HIGHWAY 81","address2": "","city": "DUNCAN","state": "OK","zip": "73533","zip+4": "0000","phone": "5802523152","NPI": "     1245245216"}, 
{"id": 42006,"ncpdp": "3722039","pharmacy_name": "INOLA DRUG","address1": "19 W COMMERCIAL","address2": "","city": "INOLA","state": "OK","zip": "74036","zip+4": "0700","phone": "9185438777","NPI": "     1487722211"}, 
{"id": 42007,"ncpdp": "3722041","pharmacy_name": "WAL-MART PHARMACY #102734","address1": "601 12TH AVENUE N.E.","address2": "","city": "NORMAN","state": "OK","zip": "73071","zip+4": "0000","phone": "4055795208","NPI": "     1316964448"}, 
{"id": 42008,"ncpdp": "3722053","pharmacy_name": "WESTERN DRUG","address1": "1003 17TH ST","address2": "","city": "WOODWARD","state": "OK","zip": "73801","zip+4": "0000","phone": "5802565586","NPI": "     1568514180"}, 
{"id": 42009,"ncpdp": "3722089","pharmacy_name": "CVS PHARMACY # #06235","address1": "106 W HWY 152","address2": "","city": "MUSTANG","state": "OK","zip": "73064","zip+4": "0000","phone": "4053763340","NPI": "     1306944020"}, 
{"id": 42010,"ncpdp": "3722091","pharmacy_name": "WALGREEN DRUG STORE #4896","address1": "185 E 33 ST","address2": "","city": "EDMOND","state": "OK","zip": "73013","zip+4": "0000","phone": "4053488708","NPI": "     1154336121"}, 
{"id": 42011,"ncpdp": "3722128","pharmacy_name": "REASORS PHARMACY #19","address1": "2429 E 15TH ST SOUTH","address2": "","city": "TULSA","state": "OK","zip": "74104","zip+4": "0000","phone": "9187488350","NPI": "     1962449629"}, 
{"id": 42012,"ncpdp": "3722130","pharmacy_name": "LEGEND CARE PHARMACY","address1": "2330 MCKNOWN","address2": "STE B","city": "NORMAN","state": "OK","zip": "73072","zip+4": "0000","phone": "4053215300","NPI": "     1154478212"}, 
{"id": 42013,"ncpdp": "3722142","pharmacy_name": "DRUG WAREHOUSE #6","address1": "1001 WYANDOTTE","address2": "","city": "MCALESTER","state": "OK","zip": "74501","zip+4": "0000","phone": "9184263535","NPI": "     1538243688"}, 
{"id": 42014,"ncpdp": "3722205","pharmacy_name": "CLAREMORE COMPOUNDING CENTER I","address1": "1151 N LYNN RIGGS BLVD","address2": "","city": "CLAREMORE","state": "OK","zip": "74017","zip+4": "0000","phone": "9182833784","NPI": "     1609939529"}, 
{"id": 42015,"ncpdp": "3722231","pharmacy_name": "WAL-MART PHARMACY #102875","address1": "6000 NW 23RD STREET","address2": "","city": "OKLAHOMA CITY","state": "OK","zip": "73127","zip+4": "0000","phone": "4054951040","NPI": "     1104845114"}, 
{"id": 42016,"ncpdp": "3722243","pharmacy_name": "WAL-MART PHARMACY #102877","address1": "11101 NORTH ROCKWELL AVE","address2": "","city": "OKLAHOMA CITY","state": "OK","zip": "73162","zip+4": "0000","phone": "4057733478","NPI": "     1225055353"}, 
{"id": 42017,"ncpdp": "3722255","pharmacy_name": "WALGREEN DRUG STORE #4895","address1": "2400 N MAY AVE","address2": "","city": "OKLAHOMA CITY","state": "OK","zip": "73107","zip+4": "0000","phone": "4059439289","NPI": "     1063427037"}, 
{"id": 42018,"ncpdp": "3722279","pharmacy_name": "PHARMCARE OK INC","address1": "6800 NW 39TH ST","address2": "","city": "BETHANY","state": "OK","zip": "73008","zip+4": "2513","phone": "4057873939","NPI": "     1720017445"}, 
{"id": 42019,"ncpdp": "3722293","pharmacy_name": "ANDERSON PHARMACY AND ACCENTS","address1": "5366 NW CACHE RD","address2": "SUITE 1","city": "LAWTON","state": "OK","zip": "73505","zip+4": "0000","phone": "5805959500","NPI": "     1689725673"}, 
{"id": 42020,"ncpdp": "3722306","pharmacy_name": "PHARMCARE OK OF TULSA","address1": "750 S CHEROKEE ST","address2": "STE B","city": "CATOOSA","state": "OK","zip": "74015","zip+4": "2538","phone": "9183790404","NPI": "     1720017437"}, 
{"id": 42021,"ncpdp": "3722320","pharmacy_name": "BROKEN ARROW FAMILY DRUG","address1": "3359 S ELM PLACE","address2": "","city": "BROKEN ARROW","state": "OK","zip": "74012","zip+4": "0000","phone": "9184513784","NPI": "     1366463432"}, 
{"id": 42022,"ncpdp": "3722344","pharmacy_name": "WALGREEN DRUG STORE #3647","address1": "100 12 AVE NE","address2": "","city": "NORMAN","state": "OK","zip": "73071","zip+4": "0000","phone": "4053292162","NPI": "     1972518942"}, 
{"id": 42023,"ncpdp": "3722356","pharmacy_name": "WALGREEN DRUG STORE #5531","address1": "929 WEST GARRIOTT","address2": "","city": "ENID","state": "OK","zip": "73703","zip+4": "0000","phone": "5802373221","NPI": "     1881609857"}, 
{"id": 42024,"ncpdp": "3722394","pharmacy_name": "PHARMACY PROVIDERS INC","address1": "104 E 2ND AVE","address2": "STE B1","city": "OWASSO","state": "OK","zip": "74055","zip+4": "3127","phone": "9183760303","NPI": "     1124192653"}, 
{"id": 42025,"ncpdp": "3722433","pharmacy_name": "WAL-MART PHARMACY #102803","address1": "2200 WEST DANFORTH ROAD","address2": "","city": "EDMOND","state": "OK","zip": "73003","zip+4": "0000","phone": "4052160525","NPI": "     1134146269"}, 
{"id": 42026,"ncpdp": "3722445","pharmacy_name": "WAL-MART PHARMACY #102878","address1": "911 SW 104TH ST","address2": "","city": "OKLAHOMA CITY","state": "OK","zip": "73139","zip+4": "0000","phone": "4056923866","NPI": "     1043237175"}, 
{"id": 42027,"ncpdp": "3722469","pharmacy_name": "WALGREEN DRUG STORE #5739","address1": "1111 N COMMERCE ST","address2": "","city": "ARDMORE","state": "OK","zip": "73401","zip+4": "0000","phone": "5802266826","NPI": "     1699780668"}, 
{"id": 42028,"ncpdp": "3722471","pharmacy_name": "WALGREEN DRUG STORE #5740","address1": "7930 NW EXPRESSWAY","address2": "","city": "OKLAHOMA CITY","state": "OK","zip": "73132","zip+4": "0000","phone": "4057735014","NPI": "     1508871575"}, 
{"id": 42029,"ncpdp": "3722483","pharmacy_name": "SAMS PHARMACY #108263","address1": "4420 SOUTH SHERIDAN ROAD","address2": "","city": "TULSA","state": "OK","zip": "74145","zip+4": "0000","phone": "9186100270","NPI": "     1952328080"}, 
{"id": 42030,"ncpdp": "3722508","pharmacy_name": "SAMS PHARMACY #108241","address1": "6521 SE 29TH STREET","address2": "","city": "OKLAHOMA CITY","state": "OK","zip": "73110","zip+4": "0000","phone": "4057377457","NPI": "     1861419996"}, 
{"id": 42031,"ncpdp": "3722510","pharmacy_name": "WAL-MART PHARMACY #102804","address1": "1801 BELLE ISLE BLVD","address2": "","city": "OKLAHOMA CITY","state": "OK","zip": "73118","zip+4": "0000","phone": "4058416516","NPI": "     1154348290"}, 
{"id": 42032,"ncpdp": "3722584","pharmacy_name": "WAL-MART PHARMACY #102393","address1": "640 SE 4TH STREET","address2": "","city": "MOORE","state": "OK","zip": "73160","zip+4": "0000","phone": "4057943581","NPI": "     1659390664"}, 
{"id": 42033,"ncpdp": "3722596","pharmacy_name": "WAL-MART PHARMACY #102394","address1": "1500 SW 59TH ST","address2": "","city": "OKLAHOMA CITY","state": "OK","zip": "73119","zip+4": "0000","phone": "4056849764","NPI": "     1063439107"}, 
{"id": 42034,"ncpdp": "3722611","pharmacy_name": "WALGREEN DRUG STORE #6109","address1": "1640 SW 119TH ST","address2": "","city": "OKLAHOMA CITY","state": "OK","zip": "73170","zip+4": "0000","phone": "4056920016","NPI": "     1982611869"}, 
{"id": 42035,"ncpdp": "3722623","pharmacy_name": "WALGREEN DRUG STORE #6199","address1": "6701 NORTHWEST CACHE RD","address2": "","city": "LAWTON","state": "OK","zip": "73505","zip+4": "0000","phone": "5805312696","NPI": "     1790792679"}, 
{"id": 42036,"ncpdp": "3722635","pharmacy_name": "TARGET PHARMACY #0044","address1": "800 SW 44TH STREET","address2": "","city": "OKLAHOMA CITY","state": "OK","zip": "73109","zip+4": "0000","phone": "4056324964","NPI": "     1306868021"}, 
{"id": 42037,"ncpdp": "3722659","pharmacy_name": "WAL-MART PHARMACY #102876","address1": "1301 EAST 2ND ST","address2": "","city": "EDMOND","state": "OK","zip": "73034","zip+4": "0000","phone": "4057153280","NPI": "     1972520013"}, 
{"id": 42038,"ncpdp": "3722661","pharmacy_name": "WAL-MART PHARMACY #102880","address1": "6606 EAST 81ST ST SOUTH","address2": "","city": "TULSA","state": "OK","zip": "74133","zip+4": "0000","phone": "9185241692","NPI": "     1881611929"}, 
{"id": 42039,"ncpdp": "3722673","pharmacy_name": "CHOTEAU DISCOUNT PHARMACY","address1": "214 N CHOUTEAU","address2": "","city": "CHOUTEAU","state": "OK","zip": "74337","zip+4": "0000","phone": "9184766455","NPI": "     1649336520"}, 
{"id": 42040,"ncpdp": "3722685","pharmacy_name": "WALGREEN DRUG STORE #5529","address1": "2330 CHANDLER RD","address2": "","city": "MUSKOGEE","state": "OK","zip": "74403","zip+4": "0000","phone": "9186814766","NPI": "     1417962481"}, 
{"id": 42041,"ncpdp": "3722697","pharmacy_name": "WALGREEN DRUG STORE #6268","address1": "4561 N PEORIA AVE","address2": "","city": "TULSA","state": "OK","zip": "74106","zip+4": "0000","phone": "9184255648","NPI": "     1326053398"}, 
{"id": 42042,"ncpdp": "3722724","pharmacy_name": "THE APOTHECARY SHOPPE","address1": "510 N ELM PLACE","address2": "","city": "BROKEN ARROW","state": "OK","zip": "74012","zip+4": "0000","phone": "9184499988","NPI": "     1083777601"}, 
{"id": 42043,"ncpdp": "3722748","pharmacy_name": "WALGREEN DRUG STORE #5738","address1": "1229 N EASTERN AVE","address2": "","city": "MOORE","state": "OK","zip": "73160","zip+4": "0000","phone": "4057939433","NPI": "     1235144205"}, 
{"id": 42044,"ncpdp": "3722851","pharmacy_name": "WALGREEN DRUG STORE #5967","address1": "1601 S AIR DEPOT","address2": "","city": "MIDWEST CITY","state": "OK","zip": "73110","zip+4": "0000","phone": "4057411304","NPI": "     1871500751"}, 
{"id": 42045,"ncpdp": "3722887","pharmacy_name": "WAL-MART PHARMACY #103275","address1": "1101 NW 164TH STREET","address2": "","city": "OKLAHOMA CITY","state": "OK","zip": "73013","zip+4": "0000","phone": "4052168375","NPI": "     1568481570"}, 
{"id": 42046,"ncpdp": "3722926","pharmacy_name": "WALGREEN DRUG STORE #5530","address1": "519 S MAIN ST","address2": "","city": "STILLWATER","state": "OK","zip": "74074","zip+4": "0000","phone": "4053770187","NPI": "     1144235110"}, 
{"id": 42047,"ncpdp": "3722952","pharmacy_name": "REASORS PHARMACY #16","address1": "1885 S YALE","address2": "","city": "TULSA","state": "OK","zip": "74112","zip+4": "0000","phone": "9182932256","NPI": "     1780750448"}, 
{"id": 42048,"ncpdp": "3722964","pharmacy_name": "JIMS COMMUNITY PHARMACY","address1": "908 STRAKA TERRACE","address2": "","city": "OKLAHOMA CITY","state": "OK","zip": "73139","zip+4": "0000","phone": "4056050346","NPI": "     1134205685"}, 
{"id": 42049,"ncpdp": "3722988","pharmacy_name": "MEDICAP PHARMACY #8299","address1": "130 S MAIN ST","address2": "","city": "OWASSO","state": "OK","zip": "74055","zip+4": "0000","phone": "9182741737","NPI": "     1578657987"}, 
{"id": 42050,"ncpdp": "3722990","pharmacy_name": "SAMS PHARMACY #104731","address1": "9000 NW PASSAGE","address2": "","city": "OK CITY","state": "OK","zip": "73132","zip+4": "0000","phone": "4057723616","NPI": "     1699792739"}, 
{"id": 42051,"ncpdp": "3723005","pharmacy_name": "SAMS PHARMACY #108117","address1": "1900 WEST MEMORIAL ROAD","address2": "","city": "OKLAHOMA CITY","state": "OK","zip": "73134","zip+4": "0000","phone": "4057486521","NPI": "     1508883646"}, 
{"id": 42052,"ncpdp": "3723017","pharmacy_name": "HARPS PHARMACY #185","address1": "1010 EAST POPLAR","address2": "","city": "FORT GIBSON","state": "OK","zip": "74434","zip+4": "0000","phone": "9184783784","NPI": "     1306946629"}, 
{"id": 42053,"ncpdp": "3723079","pharmacy_name": "WAL-MART PHARMACY #103457","address1": "3116 SOUTH GARNETT ROAD","address2": "","city": "TULSA","state": "OK","zip": "74146","zip+4": "0000","phone": "9186227923","NPI": "     1417974551"}, 
{"id": 42054,"ncpdp": "3723081","pharmacy_name": "WALGREEN DRUG STORE #6551","address1": "4901 W KENOSHA ST","address2": "","city": "BROKEN ARROW","state": "OK","zip": "74012","zip+4": "0000","phone": "9182490200","NPI": "     1780691667"}, 
{"id": 42055,"ncpdp": "3723093","pharmacy_name": "NORCE PHARMACY","address1": "2600 E WILLOW","address2": "","city": "ENID","state": "OK","zip": "73701","zip+4": "0000","phone": "5802371027","NPI": "     1790889038"}, 
{"id": 42056,"ncpdp": "3723106","pharmacy_name": "WAL-MART PHARMACY #102395","address1": "9411 SO DELAWARE AVE","address2": "","city": "TULSA","state": "OK","zip": "74137","zip+4": "0000","phone": "9182995764","NPI": "     1477572485"}, 
{"id": 42057,"ncpdp": "3723120","pharmacy_name": "SAMS PHARMACY #108289","address1": "5510 SW FIFTH AVENUE","address2": "","city": "OKLAHOMA CITY","state": "OK","zip": "73128","zip+4": "0000","phone": "4059467847","NPI": "     1326065467"}, 
{"id": 42058,"ncpdp": "3723132","pharmacy_name": "WALGREEN DRUG STORE #6436","address1": "1400 E SECOND ST","address2": "","city": "EDMOND","state": "OK","zip": "73034","zip+4": "0000","phone": "4052169658","NPI": "     1053326025"}, 
{"id": 42059,"ncpdp": "3723156","pharmacy_name": "OU PHARMACISTS CARE CENTER","address1": "825 NE 10TH ST","address2": "NUMBER 2200","city": "OKLAHOMA CITY","state": "OK","zip": "73104","zip+4": "0000","phone": "4052716449","NPI": "     1255384426"}, 
{"id": 42060,"ncpdp": "3723182","pharmacy_name": "WALGREEN DRUG STORE #6477","address1": "615 W MAIN ST","address2": "","city": "NORMAN","state": "OK","zip": "73069","zip+4": "0000","phone": "4055735016","NPI": "     1962417931"}, 
{"id": 42061,"ncpdp": "3723207","pharmacy_name": "WAL-MART PHARMACY #103508","address1": "1770 S ELM PLACE","address2": "","city": "BROKEN ARROW","state": "OK","zip": "74012","zip+4": "0000","phone": "9182586185","NPI": "     1386663391"}, 
{"id": 42062,"ncpdp": "3723219","pharmacy_name": "EASTSIDE CLINIC PHARMACY","address1": "1102 SE 36TH ST","address2": "SUITE A","city": "LAWTON","state": "OK","zip": "73501","zip+4": "8462","phone": "5803556400","NPI": "     1215958285"}, 
{"id": 42063,"ncpdp": "3723221","pharmacy_name": "WESTERN DRUG","address1": "104 W BROADWAY","address2": "","city": "VICI","state": "OK","zip": "73859","zip+4": "0000","phone": "5809953500","NPI": "     1639133432"}, 
{"id": 42064,"ncpdp": "3723245","pharmacy_name": "TARGET PHARMACY #1397","address1": "13924 N PENNSYLVANIA AVE","address2": "","city": "OKLAHOMA CITY","state": "OK","zip": "73134","zip+4": "0000","phone": "4057520511","NPI": "     1215959937"}, 
{"id": 42065,"ncpdp": "3723257","pharmacy_name": "TARGET PHARMACY #1782","address1": "10711 E 71ST STREET S","address2": "","city": "TULSA","state": "OK","zip": "74133","zip+4": "0000","phone": "9183078178","NPI": "     1124040845"}, 
{"id": 42066,"ncpdp": "3723283","pharmacy_name": "WALGREEN DRUG STORE #6973","address1": "8102 S YALE","address2": "","city": "TULSA","state": "OK","zip": "74137","zip+4": "0000","phone": "9184777881","NPI": "     1871508846"}, 
{"id": 42067,"ncpdp": "3723295","pharmacy_name": "WALGREEN DRUG STORE #6618","address1": "3816 E FRANK PHILLIPS BLVD","address2": "","city": "BARTLESVILLE","state": "OK","zip": "74006","zip+4": "0000","phone": "9183330422","NPI": "     1780699751"}, 
{"id": 42068,"ncpdp": "3723310","pharmacy_name": "WALGREEN DRUG STORE #6834","address1": "4400 NW 23RD ST","address2": "","city": "OKLAHOMA CITY","state": "OK","zip": "73107","zip+4": "0000","phone": "4059439585","NPI": "     1124035019"}, 
{"id": 42069,"ncpdp": "3723322","pharmacy_name": "PRESCRIPTIONS COMPOUNDING PHAR","address1": "806 SOUTH ASPEN AVE","address2": "STE B","city": "BROKEN ARROW","state": "OK","zip": "74012","zip+4": "0000","phone": "9182516655","NPI": "     1013958990"}, 
{"id": 42070,"ncpdp": "3723334","pharmacy_name": "TARGET PHARMACY #1398","address1": "1200 EAST 2ND STREET","address2": "","city": "EDMOND","state": "OK","zip": "73034","zip+4": "0000","phone": "4058445099","NPI": "     1033131750"}, 
{"id": 42071,"ncpdp": "3723346","pharmacy_name": "WALGREEN DRUG STORE #6839","address1": "11118 S MEMORIAL DR","address2": "","city": "BIXBY","state": "OK","zip": "74008","zip+4": "0000","phone": "9183697111","NPI": "     1598770562"}, 
{"id": 42072,"ncpdp": "3723358","pharmacy_name": "WALGREEN DRUG STORE #7222","address1": "112 E STATE HWY 152","address2": "","city": "MUSTANG","state": "OK","zip": "73064","zip+4": "0000","phone": "4053769100","NPI": "     1407861479"}, 
{"id": 42073,"ncpdp": "3723372","pharmacy_name": "PHARMACAREOK OF ENID INC","address1": "1119A E OWEN GARRIOTT RD","address2": "","city": "ENID","state": "OK","zip": "73701","zip+4": "0000","phone": "5802425252","NPI": "     1134158850"}, 
{"id": 42074,"ncpdp": "3723384","pharmacy_name": "PHARMACAREOK OF HYDRO INC","address1": "509 S ARAPAHO AVE","address2": "","city": "HYDRO","state": "OK","zip": "73048","zip+4": "0000","phone": "4056634111","NPI": "     1457380164"}, 
{"id": 42075,"ncpdp": "3723411","pharmacy_name": "SELECT RX","address1": "11414 E 51ST STREET","address2": "SUITE A","city": "TULSA","state": "OK","zip": "74146","zip+4": "0000","phone": "9184618103","NPI": "     1225121338"}, 
{"id": 42076,"ncpdp": "3723423","pharmacy_name": "GRAND CARE PHARMACY INC","address1": "1527 W GRAND AVE","address2": "","city": "CHICKASHA","state": "OK","zip": "73018","zip+4": "0000","phone": "4052222273","NPI": "     1871675124"}, 
{"id": 42077,"ncpdp": "3723435","pharmacy_name": "WALGREEN DRUG STORE #7135","address1": "10021 S YALE AVE","address2": "","city": "TULSA","state": "OK","zip": "74137","zip+4": "0000","phone": "9182988423","NPI": "     1033126925"}, 
{"id": 42078,"ncpdp": "3723459","pharmacy_name": "TAYLOR DRUG LTC","address1": "8241 S WALKER","address2": "STE 120","city": "OKLAHOMA CITY","state": "OK","zip": "73139","zip+4": "0000","phone": "4056161941","NPI": "     1487758447"}, 
{"id": 42079,"ncpdp": "3723461","pharmacy_name": "NORTH ROCK COMMUNITY PHARMACY","address1": "4400 N LINCOLN BLVD","address2": "","city": "OKLAHOMA CITY","state": "OK","zip": "73105","zip+4": "0000","phone": "4054250464","NPI": "     1568501518"}, 
{"id": 42080,"ncpdp": "3723497","pharmacy_name": "WAL-MART PHARMACY #103295","address1": "6310 SOUTH ELM PLACE","address2": "","city": "BROKEN ARROW","state": "OK","zip": "74011","zip+4": "0000","phone": "9184554386","NPI": "     1235156373"}, 
{"id": 42081,"ncpdp": "3723500","pharmacy_name": "WAL-MART PHARMACY #105093","address1": "4404 SOUTH PEORIA AVENUE EAST","address2": "","city": "TULSA","state": "OK","zip": "74105","zip+4": "0000","phone": "9187491607","NPI": "     1144247289"}, 
{"id": 42082,"ncpdp": "3723512","pharmacy_name": "WALGREEN DRUG STORE #7444","address1": "15100 N WESTERN","address2": "","city": "EDMOND","state": "OK","zip": "73013","zip+4": "0000","phone": "4053303485","NPI": "     1124035035"}, 
{"id": 42083,"ncpdp": "3723536","pharmacy_name": "WAL-MART PHARMACY #105071","address1": "6301 NW QUANNAH PARKER TRWAY","address2": "","city": "LAWTON","state": "OK","zip": "73505","zip+4": "0000","phone": "5805100357","NPI": "     1467470153"}, 
{"id": 42084,"ncpdp": "3723548","pharmacy_name": "CENTRAL OKLAHOMA FAMILY ME","address1": "527 W 3RD ST","address2": "","city": "KONAWA","state": "OK","zip": "74849","zip+4": "0000","phone": "5809258911","NPI": "     1003998980"}, 
{"id": 42085,"ncpdp": "3723562","pharmacy_name": "CHELSEA FAMILY PHARMACY","address1": "406 W 6TH ST","address2": "","city": "CHELSEA","state": "OK","zip": "74016","zip+4": "1640","phone": "9187892241","NPI": "     1295756252"}, 
{"id": 42086,"ncpdp": "3723574","pharmacy_name": "MAIN STREET DRUG STORE","address1": "225 W MAIN","address2": "","city": "WILBURTON","state": "OK","zip": "74578","zip+4": "0000","phone": "9184659300","NPI": "     1629007893"}, 
{"id": 42087,"ncpdp": "3723586","pharmacy_name": "DRUG WAREHOUSE #40","address1": "591 SOUTH MILL STREET","address2": "","city": "PRYOR","state": "OK","zip": "74361","zip+4": "0000","phone": "9188255303","NPI": "     1447334594"}, 
{"id": 42088,"ncpdp": "3723598","pharmacy_name": "ONE POINT PATIENT CARE","address1": "808 S MUSTANG RD","address2": "","city": "YUKON","state": "OK","zip": "73099","zip+4": "0000","phone": "4054947800","NPI": "     1164588430"}, 
{"id": 42089,"ncpdp": "3723601","pharmacy_name": "CVS PHARMACY # #06236","address1": "2100 SW 119TH ST","address2": "","city": "OKLAHOMA CITY","state": "OK","zip": "73170","zip+4": "0000","phone": "4056911041","NPI": "     1568566396"}, 
{"id": 42090,"ncpdp": "3723613","pharmacy_name": "GETMAN APOTHECARY SHOPPE","address1": "1725 E 19TH ST","address2": "SUITE 103","city": "TULSA","state": "OK","zip": "74104","zip+4": "0000","phone": "9187421111","NPI": "     1457416877"}, 
{"id": 42091,"ncpdp": "3723625","pharmacy_name": "LAKE COUNTRY HEALTHCARE LLC","address1": "27753 S WELLING RD","address2": "","city": "WELLING","state": "OK","zip": "74471","zip+4": "0000","phone": "9184579997","NPI": "     1942215561"}, 
{"id": 42092,"ncpdp": "3723649","pharmacy_name": "WALGREEN DRUG STORE #7547","address1": "3600 W WASHINGTON PLACE","address2": "","city": "BROKEN ARROW","state": "OK","zip": "74012","zip+4": "0000","phone": "9182529279","NPI": "     1033126941"}, 
{"id": 42093,"ncpdp": "3723651","pharmacy_name": "WALGREEN DRUG STORE #7698","address1": "2300 N 14TH ST","address2": "","city": "PONCA CITY","state": "OK","zip": "74601","zip+4": "0000","phone": "5807670882","NPI": "     1255346235"}, 
{"id": 42094,"ncpdp": "3723663","pharmacy_name": "PHARMCAREOK OF DURANT INC","address1": "2915 UNIVERSITY BLVD","address2": "","city": "DURANT","state": "OK","zip": "74701","zip+4": "0000","phone": "5809202211","NPI": "     1356370076"}, 
{"id": 42095,"ncpdp": "3723687","pharmacy_name": "WALGREEN DRUG STORE #7504","address1": "601 W WILL ROGERS BLVD","address2": "","city": "CLAREMORE","state": "OK","zip": "74017","zip+4": "0000","phone": "9183438822","NPI": "     1164437141"}, 
{"id": 42096,"ncpdp": "3723699","pharmacy_name": "TARGET PHARMACY #1860","address1": "8315 N ROCKWELL AVE","address2": "","city": "OKLAHOMA CITY","state": "OK","zip": "73132","zip+4": "0000","phone": "4055066087","NPI": "     1851313571"}, 
{"id": 42097,"ncpdp": "3723702","pharmacy_name": "WALGREEN DRUG STORE #7503","address1": "1424 S YALE AVE","address2": "","city": "TULSA","state": "OK","zip": "74112","zip+4": "0000","phone": "9188342855","NPI": "     1073528055"}, 
{"id": 42098,"ncpdp": "3723714","pharmacy_name": "CVS PHARMACY # #06234","address1": "3200 S SANTA FE AVE","address2": "","city": "EDMOND","state": "OK","zip": "73013","zip+4": "0000","phone": "4053308107","NPI": "     1477657203"}, 
{"id": 42099,"ncpdp": "3723726","pharmacy_name": "PREFERRED PHARMACY","address1": "12331 E 60TH ST","address2": "","city": "TULSA","state": "OK","zip": "74146","zip+4": "0000","phone": "9182522000","NPI": "     1215013321"}, 
{"id": 42100,"ncpdp": "3723740","pharmacy_name": "RANEY DRUG PLLC","address1": "1106 SE WASHINGTON ST","address2": "","city": "IDABEL","state": "OK","zip": "74745","zip+4": "0000","phone": "5802082400","NPI": "     1841388634"}, 
{"id": 42101,"ncpdp": "3723752","pharmacy_name": "WALGREEN DRUG STORE #7821","address1": "950 E KENOSHA ST","address2": "","city": "BROKEN ARROW","state": "OK","zip": "74012","zip+4": "0000","phone": "9182513959","NPI": "     1801803713"}, 
{"id": 42102,"ncpdp": "3723764","pharmacy_name": "WALGREEN DRUG STORE #7858","address1": "5104 S LEWIS AVE","address2": "","city": "TULSA","state": "OK","zip": "74105","zip+4": "0000","phone": "9187476252","NPI": "     1982619961"}, 
{"id": 42103,"ncpdp": "3723776","pharmacy_name": "WALGREEN DRUG STORE #7816","address1": "1019 E MAIN ST","address2": "","city": "WEATHERFORD","state": "OK","zip": "73096","zip+4": "0000","phone": "5807722613","NPI": "     1790790772"}, 
{"id": 42104,"ncpdp": "3723788","pharmacy_name": "WAL-MART PHARMACY #105286","address1": "9320 NORTH PENN AVENUE","address2": "","city": "THE VILLAGE","state": "OK","zip": "73120","zip+4": "0000","phone": "4058402105","NPI": "     1689692378"}, 
{"id": 42105,"ncpdp": "3723790","pharmacy_name": "PRUETT FOODS PHARMACY","address1": "201 S PARK DR","address2": "","city": "BROKEN BOW","state": "OK","zip": "74728","zip+4": "0000","phone": "5805846085","NPI": "     1689673832"}, 
{"id": 42106,"ncpdp": "3723803","pharmacy_name": "NORTH POINTE PHARMACY","address1": "13925 N MAY AVE","address2": "","city": "OKLAHOMA CITY","state": "OK","zip": "73134","zip+4": "0000","phone": "4057513333","NPI": "     1770647109"}, 
{"id": 42107,"ncpdp": "3723827","pharmacy_name": "WALGREEN DRUG STORE #7889","address1": "910 N MAIN ST","address2": "","city": "MIAMI","state": "OK","zip": "74354","zip+4": "0000","phone": "9185421045","NPI": "     1609881689"}, 
{"id": 42108,"ncpdp": "3723839","pharmacy_name": "TAHLEQUAH DRUG COMPANY","address1": "2028 MAHANCY AVE","address2": "","city": "TAHLEQUAH","state": "OK","zip": "74464","zip+4": "0000","phone": "9184310555","NPI": "     1225020811"}, 
{"id": 42109,"ncpdp": "3723853","pharmacy_name": "WALGREEN DRUG STORE #7857","address1": "405 E 2ND AVENUE","address2": "","city": "SAND SPRINGS","state": "OK","zip": "74063","zip+4": "0000","phone": "9182460881","NPI": "     1518972595"}, 
{"id": 42110,"ncpdp": "3723889","pharmacy_name": "PREFERRED PHCY PROVIDERS OF SE","address1": "116 E COURT ST","address2": "","city": "ATOKA","state": "OK","zip": "74525","zip+4": "0000","phone": "5808899191","NPI": "     1225142201"}, 
{"id": 42111,"ncpdp": "3723904","pharmacy_name": "DRUG WAREHOUSE #19","address1": "3063 SOUTH SHERIDAN","address2": "","city": "TULSA","state": "OK","zip": "74129","zip+4": "0000","phone": "9183840260","NPI": "     1356425409"}, 
{"id": 42112,"ncpdp": "3723928","pharmacy_name": "WESTERN DRUG","address1": "200 S 30TH","address2": "","city": "CLINTON","state": "OK","zip": "73601","zip+4": "0000","phone": "5803231136","NPI": "     1982668778"}, 
{"id": 42113,"ncpdp": "3723930","pharmacy_name": "WAL-MART PHARMACY #105314","address1": "4420 SOUTH WESTERN AVENUE","address2": "","city": "OKLAHOMA CITY","state": "OK","zip": "73109","zip+4": "0000","phone": "4056323742","NPI": "     1053338194"}, 
{"id": 42114,"ncpdp": "3723954","pharmacy_name": "WALGREEN DRUG STORE #2361","address1": "12802 E 96TH ST NORTH","address2": "","city": "OWASSO","state": "OK","zip": "74055","zip+4": "0000","phone": "9182727054","NPI": "     1427063403"}, 
{"id": 42115,"ncpdp": "3723978","pharmacy_name": "WALGREEN DRUG STORE #1423","address1": "2316 N ROCKWELL AVE","address2": "","city": "BETHANY","state": "OK","zip": "73008","zip+4": "0000","phone": "4054402369","NPI": "     1336154319"}, 
{"id": 42116,"ncpdp": "3724019","pharmacy_name": "MCLOUD CLINIC PHARMACY","address1": "704 S 8TH ST","address2": "STE B","city": "MCLOUD","state": "OK","zip": "74851","zip+4": "0010","phone": "4059643956","NPI": "     1851308324"}, 
{"id": 42117,"ncpdp": "3724045","pharmacy_name": "REASORS PHARMACY #6","address1": "1624 N 3RD ST","address2": "","city": "LANGLEY","state": "OK","zip": "74350","zip+4": "0000","phone": "9187829619","NPI": "     1871669416"}, 
{"id": 42118,"ncpdp": "3724071","pharmacy_name": "CVS PHARMACY # #08314","address1": "1040 SW 19TH ST","address2": "","city": "MOORE","state": "OK","zip": "73160","zip+4": "0000","phone": "4057943001","NPI": "     1386748119"}, 
{"id": 42119,"ncpdp": "3724083","pharmacy_name": "WALGREEN DRUG STORE #9223","address1": "9950 SE 15TH ST","address2": "","city": "MIDWEST CITY","state": "OK","zip": "73130","zip+4": "0000","phone": "4057410753","NPI": "     1245245224"}, 
{"id": 42120,"ncpdp": "3724095","pharmacy_name": "PURCELL INDIAN HEALTH CLINIC","address1": "1438 HARDCASTLE BLVD","address2": "","city": "PURCELL","state": "OK","zip": "73080","zip+4": "0000","phone": "4055274700","NPI": "     1396860003"}, 
{"id": 42121,"ncpdp": "3724134","pharmacy_name": "SAMS PHARMACY #104761","address1": "3400 WEST MAIN STREET","address2": "","city": "NORMAN","state": "OK","zip": "73072","zip+4": "0000","phone": "4053078369","NPI": "     1962429001"}, 
{"id": 42122,"ncpdp": "3724146","pharmacy_name": "SEQUOIA HEALTH SERVICES TULSA","address1": "5460 S 103RD EAST AVE","address2": "","city": "TULSA","state": "OK","zip": "73146","zip+4": "0000","phone": "9186228070","NPI": "     1235231457"}, 
{"id": 42123,"ncpdp": "3724158","pharmacy_name": "UNITED PHARMACY OF MANGUM","address1": "1000 N LOUIS TITTLE","address2": "","city": "MAGNUM","state": "OK","zip": "73554","zip+4": "0000","phone": "5807825400","NPI": "     1497806483"}, 
{"id": 42124,"ncpdp": "3724172","pharmacy_name": "WALGREEN DRUG STORE #9375","address1": "1041 SW 19TH ST","address2": "","city": "MOORE","state": "OK","zip": "73160","zip+4": "0000","phone": "4057932502","NPI": "     1982611802"}, 
{"id": 42125,"ncpdp": "3724184","pharmacy_name": "FAMILY AND CHILDRENS SERVICES","address1": "2325 S HARVARD","address2": "STE 400","city": "TULSA","state": "OK","zip": "74114","zip+4": "3300","phone": "9187123407","NPI": "     1124049192"}, 
{"id": 42126,"ncpdp": "3724209","pharmacy_name": "SO OKLAHOMA RESOURCE CTR","address1": "RR 1 BOX 44 A","address2": "","city": "PAULS VALLEY","state": "OK","zip": "73075","zip+4": "0000","phone": "4052386401","NPI": "     1609963800"}, 
{"id": 42127,"ncpdp": "3724211","pharmacy_name": "CVS PHARMACY # #08312","address1": "201 SMUSTANG RD","address2": "","city": "YUKON","state": "OK","zip": "73099","zip+4": "0000","phone": "4053248170","NPI": "     1215035936"}, 
{"id": 42128,"ncpdp": "3724223","pharmacy_name": "ELLIOTT PLAZA PHARMACY","address1": "510 S ELLIOTT","address2": "","city": "PRYOR","state": "OK","zip": "74361","zip+4": "4225","phone": "9188252225","NPI": "     1710053822"}, 
{"id": 42129,"ncpdp": "3724235","pharmacy_name": "WALGREEN DRUG STORE #2543","address1": "2345 CLASSEN","address2": "","city": "OKLAHOMA CITY","state": "OK","zip": "73106","zip+4": "0000","phone": "4055210906","NPI": "     1154336139"}, 
{"id": 42130,"ncpdp": "3724259","pharmacy_name": "WAL-MART PHARMACY #103615","address1": "2217 NORTHWEST 23RD STREET","address2": "","city": "OKLAHOMA CITY","state": "OK","zip": "73107","zip+4": "0000","phone": "4055210804","NPI": "     1871510917"}, 
{"id": 42131,"ncpdp": "3724324","pharmacy_name": "WALGREEN DRUG STORE #9693","address1": "1000 E CARL ALBERT PKWY","address2": "","city": "MCALESTER","state": "OK","zip": "74501","zip+4": "0000","phone": "9184260421","NPI": "     1063427045"}, 
{"id": 42132,"ncpdp": "3724336","pharmacy_name": "WALGREEN DRUG STORE #9582","address1": "8917 NE 23RD ST","address2": "","city": "OKLAHOMA CITY","state": "OK","zip": "73141","zip+4": "0000","phone": "4057692774","NPI": "     1972518959"}, 
{"id": 42133,"ncpdp": "3724362","pharmacy_name": "TARGET PHARMACY #0043","address1": "5400 N MAY AVE","address2": "","city": "OKLAHOMA CITY N","state": "OK","zip": "73112","zip+4": "0000","phone": "4059458375","NPI": "     1760404487"}, 
{"id": 42134,"ncpdp": "3724374","pharmacy_name": "TARGET PHARMACY #2061","address1": "7305 SE 29TH ST","address2": "","city": "MIDWEST CITY","state": "OK","zip": "73110","zip+4": "0000","phone": "4054554001","NPI": "     1679595391"}, 
{"id": 42135,"ncpdp": "3724386","pharmacy_name": "TARGET PHARMACY #2095","address1": "9010 N 121ST EAST AVE","address2": "","city": "OWASSO","state": "OK","zip": "74055","zip+4": "0000","phone": "9184018001","NPI": "     1295757912"}, 
{"id": 42136,"ncpdp": "3724398","pharmacy_name": "PREFERRED PHARMACY","address1": "7100 N BROADWAY EXT","address2": "","city": "OKLAHOMA CITY","state": "OK","zip": "73116","zip+4": "0000","phone": "4058487337","NPI": "     1740368026"}, 
{"id": 42137,"ncpdp": "3724401","pharmacy_name": "WALGREEN DRUG STORE #9874","address1": "115 W 3RD ST","address2": "","city": "ELK CITY","state": "OK","zip": "73644","zip+4": "4721","phone": "5802254409","NPI": "     1881609865"}, 
{"id": 42138,"ncpdp": "3724413","pharmacy_name": "SCOTTS PHARMACY","address1": "114 N LEE ST","address2": "","city": "FORT GIBSON","state": "OK","zip": "74434","zip+4": "0000","phone": "9184783002","NPI": "     1891898912"}, 
{"id": 42139,"ncpdp": "3724425","pharmacy_name": "WALGREEN DRUG STORE #9595","address1": "210 S ELM ST","address2": "","city": "JENKS","state": "OK","zip": "74037","zip+4": "0000","phone": "9182982649","NPI": "     1699780676"}, 
{"id": 42140,"ncpdp": "3724475","pharmacy_name": "REASORS PHARMACY #17","address1": "2500 N HWY 66","address2": "","city": "CATOOSA","state": "OK","zip": "74015","zip+4": "0000","phone": "9182668113","NPI": "     1780750323"}, 
{"id": 42141,"ncpdp": "3724499","pharmacy_name": "MCBRIDE CLINIC ORTHOPEDIC HOSP","address1": "9600 N BROADWAY EXTENSION","address2": "","city": "OKLAHOMA CITY","state": "OK","zip": "73114","zip+4": "0000","phone": "4054862185","NPI": "     1104031962"}, 
{"id": 42142,"ncpdp": "3724514","pharmacy_name": "WALGREEN DRUG STORE #9735","address1": "901 OKLAHOMA AVE","address2": "","city": "WOODWARD","state": "OK","zip": "73801","zip+4": "0000","phone": "5802543618","NPI": "     1508871583"}, 
{"id": 42143,"ncpdp": "3724540","pharmacy_name": "ECONOMY PHARMACY LTC #3","address1": "104 N 35TH ST","address2": "","city": "MUSKOGEE","state": "OK","zip": "74401","zip+4": "0000","phone": "9186822714","NPI": "     1730102773"}, 
{"id": 42144,"ncpdp": "3724576","pharmacy_name": "SIMPSON PHARMACY","address1": "813 W CHOCTAW","address2": "","city": "BROKEN BOW","state": "OK","zip": "74728","zip+4": "0000","phone": "5805842850","NPI": "     1518923887"}, 
{"id": 42145,"ncpdp": "3724603","pharmacy_name": "WALGREEN DRUG STORE #10223","address1": "100 N 32ND ST","address2": "","city": "MUSKOGEE","state": "OK","zip": "74401","zip+4": "2101","phone": "9186871021","NPI": "     1821022377"}, 
{"id": 42146,"ncpdp": "3724615","pharmacy_name": "WAL-MART PHARMACY #100139","address1": "2015 S GREEN AVE","address2": "","city": "PURCELL","state": "OK","zip": "73080","zip+4": "0000","phone": "4055277396","NPI": "     1497773188"}, 
{"id": 42147,"ncpdp": "3724627","pharmacy_name": "WAL-MART PHARMACY #103430","address1": "9011 NE 23RD STREET","address2": "","city": "MIDWEST CITY","state": "OK","zip": "73141","zip+4": "0000","phone": "4057693193","NPI": "     1306864095"}, 
{"id": 42148,"ncpdp": "3724665","pharmacy_name": "TARGET PHARMACY #2220","address1": "1400 24TH AVE NW","address2": "","city": "NORMAN","state": "OK","zip": "73069","zip+4": "0000","phone": "4052533001","NPI": "     1942384466"}, 
{"id": 42149,"ncpdp": "3724689","pharmacy_name": "WESTMINSTER FAMILY DRUG","address1": "10911 NE 23RD","address2": "","city": "NICOMA PARK","state": "OK","zip": "73066","zip+4": "0000","phone": "4057698585","NPI": "     1073606240"}, 
{"id": 42150,"ncpdp": "3724691","pharmacy_name": "WALGREEN DRUG STORE #10643","address1": "1119 S MAIN ST","address2": "","city": "GROVE","state": "OK","zip": "74344","zip+4": "0000","phone": "9187866867","NPI": "     1235207242"}, 
{"id": 42151,"ncpdp": "3724704","pharmacy_name": "DEER CREEK PHARMACY INC","address1": "509 ARAPAHO","address2": "","city": "HYDRO","state": "OK","zip": "73048","zip+4": "0000","phone": "4056634111","NPI": "     1154405892"}, 
{"id": 42152,"ncpdp": "3724716","pharmacy_name": "FOCUS HOME MEDICAL INC","address1": "1100 N MUSTANG RD","address2": "","city": "MUSTANG","state": "OK","zip": "73064","zip+4": "0000","phone": "4053766119","NPI": "     1770675266"}, 
{"id": 42153,"ncpdp": "3724730","pharmacy_name": "WAL-MART PHARMACY #103340","address1": "4720 EAST 21ST STREET","address2": "","city": "TULSA","state": "OK","zip": "74114","zip+4": "0000","phone": "9183927025","NPI": "     1518024900"}, 
{"id": 42154,"ncpdp": "3724742","pharmacy_name": "WAL-MART PHARMACY #104241","address1": "4545 WEST 6TH AVE","address2": "","city": "STILLWATER","state": "OK","zip": "74074","zip+4": "0000","phone": "4057070756","NPI": "     1053476234"}, 
{"id": 42155,"ncpdp": "3724780","pharmacy_name": "CVS PHARMACY #03883","address1": "9000 SOUTH MAY AVE","address2": "","city": "OKLAHOMA","state": "OK","zip": "73159","zip+4": "0000","phone": "4056911148","NPI": "     1285755413"}, 
{"id": 42156,"ncpdp": "3724792","pharmacy_name": "WALGREEN DRUG STORE #09670","address1": "1132 N MAIN ST","address2": "","city": "ALTUS","state": "OK","zip": "73521","zip+4": "3122","phone": "5804771316","NPI": "     1891907705"}, 
{"id": 42157,"ncpdp": "3724817","pharmacy_name": "WALGREEN DRUG STORE #10094","address1": "2675 N KELLY AVE","address2": "","city": "EDMOND","state": "OK","zip": "73003","zip+4": "0000","phone": "4058440280","NPI": "     1629284260"}, 
{"id": 42158,"ncpdp": "3724829","pharmacy_name": "WALGREEN DRUG STORE #11585","address1": "700 24TH AVENUE NW","address2": "","city": "NORMAN","state": "OK","zip": "73069","zip+4": "0000","phone": "4053662288","NPI": "     1497977631"}, 
{"id": 42159,"ncpdp": "3724831","pharmacy_name": "WALGREEN DRUG STORE #11596","address1": "6465 S YALE AVE","address2": "STE 110","city": "TULSA","state": "OK","zip": "74136","zip+4": "0000","phone": "9184951161","NPI": "     1720290695"}, 
{"id": 42160,"ncpdp": "3724843","pharmacy_name": "WALGREEN DRUG STORE #11588","address1": "3281 SOUTH 79TH EAST AVENUE","address2": "","city": "TULSA","state": "OK","zip": "74145","zip+4": "0000","phone": "9186636464","NPI": "     1790999118"}, 
{"id": 42161,"ncpdp": "3724855","pharmacy_name": "WALGREEN DRUG STORE #11587","address1": "8125 SOUTH WALKER AVENUE","address2": "","city": "OKLAHOMA CITY","state": "OK","zip": "73139","zip+4": "0000","phone": "4056364100","NPI": "     1992917454"}, 
{"id": 42162,"ncpdp": "3724867","pharmacy_name": "WALGREEN DRUG STORE #11584","address1": "3330 NW 56TH STREET","address2": "SUITE 100","city": "OKLAHOMA CITY","state": "OK","zip": "73112","zip+4": "0000","phone": "4059478200","NPI": "     1245444660"}, 
{"id": 42163,"ncpdp": "3724879","pharmacy_name": "WALGREEN DRUG STORE #11589","address1": "608 NW NINTH STREET","address2": "SUITE 3200","city": "OKLAHOMA CITY","state": "OK","zip": "73102","zip+4": "0000","phone": "4052350610","NPI": "     1306058862"}, 
{"id": 42164,"ncpdp": "3724881","pharmacy_name": "WALGREEN DRUG STORE #11586","address1": "1201 SOUTH DOUGLAS BOULEVARD","address2": "SUITE D","city": "MIDWEST CITY","state": "OK","zip": "73130","zip+4": "0000","phone": "4057329494","NPI": "     1154535573"}, 
{"id": 42165,"ncpdp": "3724893","pharmacy_name": "HUNTERS PRECISION RX","address1": "9432 N MAY AVE","address2": "STE A","city": "OKLAHOMA","state": "OK","zip": "73120","zip+4": "0000","phone": "4054182929","NPI": "     1750598066"}, 
{"id": 42166,"ncpdp": "3724906","pharmacy_name": "EVANS SPECIALTY PHARMACY LLC","address1": "1110 W WILLOW","address2": "","city": "ENID","state": "OK","zip": "73703","zip+4": "0000","phone": "5802421116","NPI": "     1982806527"}, 
{"id": 42167,"ncpdp": "3724918","pharmacy_name": "GREEN COUNTRY PHARMACY","address1": "619 N MAIN","address2": "","city": "MUSKOGEE","state": "OK","zip": "74401","zip+4": "0000","phone": "9186828407","NPI": "     1245305861"}, 
{"id": 42168,"ncpdp": "3724920","pharmacy_name": "OU CLINIC PHARMACY","address1": "4444 E 41ST ST","address2": "","city": "TULSA","state": "OK","zip": "74135","zip+4": "2527","phone": "9186194990","NPI": "     1124228945"}, 
{"id": 42169,"ncpdp": "3724932","pharmacy_name": "CVS PHARMACY #04319","address1": "7925 NW EXPRESSWAY","address2": "","city": "OKLAHOMA CITY","state": "OK","zip": "73132","zip+4": "0000","phone": "4057281392","NPI": "     1578762480"}, 
{"id": 42170,"ncpdp": "3724944","pharmacy_name": "CORYS PHARMACY","address1": "102 W NOBLE","address2": "","city": "GUTHIRE","state": "OK","zip": "73044","zip+4": "0000","phone": "4052822595","NPI": "     1477752004"}, 
{"id": 42171,"ncpdp": "3724956","pharmacy_name": "COUNTRY MART PHARMACY","address1": "13937 SOUTH HWY 51","address2": "","city": "COWETA","state": "OK","zip": "74429","zip+4": "0000","phone": "9182796600","NPI": "     1215137617"}, 
{"id": 42172,"ncpdp": "3724968","pharmacy_name": "ERNIES PHARMACY AND WELLNESS C","address1": "410 SOUTH 32ND STREET","address2": "","city": "MUSKOQEE","state": "OK","zip": "74401","zip+4": "5007","phone": "9186830611","NPI": "     1093911604"}, 
{"id": 42173,"ncpdp": "3724970","pharmacy_name": "WALGREENS DRUG STORE #10916","address1": "1621 S DIVISION ST","address2": "","city": "GUTHRIE","state": "OK","zip": "73044","zip+4": "5020","phone": "4052601574","NPI": "     1902098775"}, 
{"id": 42174,"ncpdp": "3724982","pharmacy_name": "WALGREENS DRUG STORE #10957","address1": "3232 TRI CITY DR","address2": "","city": "NEWCASTLE","state": "OK","zip": "73065","zip+4": "0000","phone": "4053875006","NPI": "     1518159383"}, 
{"id": 42175,"ncpdp": "3724994","pharmacy_name": "REASORS PHARMACY #18","address1": "11550 NORTH 135TH E AVE","address2": "","city": "OWASSO","state": "OK","zip": "74055","zip+4": "0000","phone": "9183716455","NPI": "     1083807697"}, 
{"id": 42176,"ncpdp": "3725011","pharmacy_name": "MEDIC PHARMACY","address1": "1925 W OWEN K GARRIOTT RD","address2": "","city": "ENID","state": "OK","zip": "73703","zip+4": "0000","phone": "5802423784","NPI": "     1174710370"}, 
{"id": 42177,"ncpdp": "3725023","pharmacy_name": "WALGREEN DRUG STORE #10836","address1": "1403 S WOOD DR","address2": "","city": "OKMULGEE","state": "OK","zip": "74447","zip+4": "0000","phone": "9187562483","NPI": "     1184811762"}, 
{"id": 42178,"ncpdp": "3725035","pharmacy_name": "WALGREEN DRUG STORE #11295","address1": "1005 ARLINGTON ST","address2": "","city": "ADA","state": "OK","zip": "74820","zip+4": "4036","phone": "5802720283","NPI": "     1396932265"}, 
{"id": 42179,"ncpdp": "3725073","pharmacy_name": "WALGREEN DRUG STORE #12094","address1": "535 NW 9TH STREET","address2": "","city": "OKLAHOMA CITY","state": "OK","zip": "73102","zip+4": "0000","phone": "4052312133","NPI": "     1154504389"}, 
{"id": 42180,"ncpdp": "3725097","pharmacy_name": "TARGET PHARMACY #2357","address1": "7437 S OLYMPIA AVE W","address2": "","city": "TULSA","state": "OK","zip": "74132","zip+4": "0000","phone": "9188771621","NPI": "     1235315250"}, 
{"id": 42181,"ncpdp": "3725100","pharmacy_name": "CHECOTAH PHARMACY","address1": "1003 W GENTRY","address2": "","city": "CHECOTAH","state": "OK","zip": "74426","zip+4": "0000","phone": "9184733836","NPI": "     1043492861"}, 
{"id": 42182,"ncpdp": "3725112","pharmacy_name": "WALGREEN DRUG STORE #11317","address1": "302 UNIVERSITY PLACE","address2": "","city": "DURANT","state": "OK","zip": "74701","zip+4": "0000","phone": "5809201145","NPI": "     1881872190"}, 
{"id": 42183,"ncpdp": "3725124","pharmacy_name": "ONCOLOGY RX","address1": "1705 E 19TH ST","address2": "STE 102","city": "TULSA","state": "OK","zip": "74104","zip+4": "0000","phone": "9187442908","NPI": "     1649441387"}, 
{"id": 42184,"ncpdp": "3725136","pharmacy_name": "WALGREEN DRUG STORE #10765","address1": "1909 MUSKOGEE AVE","address2": "","city": "TAHLEQUAH","state": "OK","zip": "74464","zip+4": "5436","phone": "9184584283","NPI": "     1861662173"}, 
{"id": 42185,"ncpdp": "3725148","pharmacy_name": "OMNICARE CLINICAL INTERVENTION","address1": "4500 NORTH COOPER","address2": "","city": "OKLAHOMA CITY","state": "OK","zip": "73118","zip+4": "7803","phone": "8009409963","NPI": "     1578740817"}, 
{"id": 42186,"ncpdp": "3725150","pharmacy_name": "SPOON DRUG #2","address1": "3801 S STATE HWY 97","address2": "","city": "SAND SPRINGS","state": "OK","zip": "74063","zip+4": "0000","phone": "9182457373","NPI": "     1942473426"}, 
{"id": 42187,"ncpdp": "3725162","pharmacy_name": "WAL-MART PHARMACY #104615","address1": "12200 S WACO","address2": "","city": "GLENPOOL","state": "OK","zip": "74033","zip+4": "0000","phone": "9182998030","NPI": "     1275719601"}, 
{"id": 42188,"ncpdp": "3725174","pharmacy_name": "WALGREEN DRUG STORE #11559","address1": "1305 W CHEORKEE ST","address2": "","city": "WAGONER","state": "OK","zip": "74467","zip+4": "4625","phone": "9184856688","NPI": "     1568637650"}, 
{"id": 42189,"ncpdp": "3725186","pharmacy_name": "FAMILY PHARMACY","address1": "2311 W WILLOW","address2": "","city": "ENID","state": "OK","zip": "73703","zip+4": "0000","phone": "5802347700","NPI": "     1013174366"}, 
{"id": 42190,"ncpdp": "3725198","pharmacy_name": "HOOVER DRUG","address1": "107 W MAIN","address2": "","city": "STIGLER","state": "OK","zip": "74462","zip+4": "0000","phone": "9189678321","NPI": "     1861669640"}, 
{"id": 42191,"ncpdp": "3725201","pharmacy_name": "WALGREEN DRUG STORE #11095","address1": "5901 NW 122ND ST","address2": "","city": "OKLAHOMA CITY","state": "OK","zip": "73142","zip+4": "0000","phone": "4057221356","NPI": "     1669630331"}, 
{"id": 42192,"ncpdp": "3725213","pharmacy_name": "WALGREEN DRUG STORE #12009","address1": "2120 S 4TH ST","address2": "","city": "CHICKASHA","state": "OK","zip": "73018","zip+4": "0000","phone": "4052220278","NPI": "     1083873913"}, 
{"id": 42193,"ncpdp": "3725225","pharmacy_name": "OLYMPIA PHARMACY","address1": "6802 S OLYMPIA AVE","address2": "STE 125","city": "TULSA","state": "OK","zip": "74132","zip+4": "0000","phone": "9183986279","NPI": "     1003076738"}, 
{"id": 42194,"ncpdp": "3725251","pharmacy_name": "WALGREENS #11718","address1": "3915 W OWEN GARRIOT RD","address2": "","city": "ENID","state": "OK","zip": "73703","zip+4": "0000","phone": "5802372237","NPI": "     1134382294"}, 
{"id": 42195,"ncpdp": "3725263","pharmacy_name": "THE CROSS PHARMACY","address1": "1101 NE 1ST ST","address2": "","city": "PRYOR","state": "OK","zip": "74361","zip+4": "0000","phone": "9188241300","NPI": "     1154577245"}, 
{"id": 42196,"ncpdp": "3725275","pharmacy_name": "TARGET PHARMACY #2460","address1": "1700 GARTH BROOKS BLVD","address2": "","city": "YUKON","state": "OK","zip": "73099","zip+4": "6387","phone": "4054943180","NPI": "     1700034709"}, 
{"id": 42197,"ncpdp": "3725314","pharmacy_name": "WALGREENS #12160","address1": "3751 N ASPEN AVE","address2": "","city": "BROKEN ARROW","state": "OK","zip": "74012","zip+4": "0000","phone": "9183552317","NPI": "     1760638035"}, 
{"id": 42198,"ncpdp": "3725364","pharmacy_name": "HALO RX","address1": "703 N BROADWAY","address2": "STE 3","city": "ADA","state": "OK","zip": "74820","zip+4": "0000","phone": "5804219885","NPI": "     1790939494"}, 
{"id": 42199,"ncpdp": "3725390","pharmacy_name": "HOMELAND PHARMACY # #236","address1": "2400 S CORNWELL DR","address2": "","city": "YUKON","state": "OK","zip": "73099","zip+4": "5804","phone": "4053547449","NPI": "     1932354354"}, 
{"id": 42200,"ncpdp": "3725403","pharmacy_name": "HOMELAND PHARMACY # #235","address1": "7001 NW 122ND ST","address2": "","city": "OKLAHOMA CITY","state": "OK","zip": "73142","zip+4": "0000","phone": "4057209303","NPI": "     1205081858"}, 
{"id": 42201,"ncpdp": "3725415","pharmacy_name": "HOMELAND PHARMACY #237","address1": "4129 SE 29TH ST","address2": "","city": "DEL CITY","state": "OK","zip": "73115","zip+4": "0000","phone": "4056722180","NPI": "     1083869648"}, 
{"id": 42202,"ncpdp": "3725427","pharmacy_name": "HOMELAND PHARMACY #234","address1": "7000 S MAY AVE","address2": "","city": "OKLAHOMA CITY","state": "OK","zip": "73159","zip+4": "0000","phone": "4056821608","NPI": "     1326293986"}, 
{"id": 42203,"ncpdp": "3725439","pharmacy_name": "HOMELAND PHAMACY # #238","address1": "1151 N BRYANT AVE","address2": "","city": "EDMOND","state": "OK","zip": "73034","zip+4": "0000","phone": "4058444404","NPI": "     1841445269"}, 
{"id": 42204,"ncpdp": "3725441","pharmacy_name": "12 AND 12","address1": "6333 EAST SKELLY DRIVE","address2": "","city": "TULSA","state": "OK","zip": "74135","zip+4": "0000","phone": "9187797141","NPI": "     1053317883"}, 
{"id": 42205,"ncpdp": "3725453","pharmacy_name": "CLINIC PHARMACY","address1": "3741 LEGACY","address2": "","city": "WEATHERFORD","state": "OK","zip": "73096","zip+4": "0000","phone": "5807722235","NPI": "     1578709655"}, 
{"id": 42206,"ncpdp": "3725489","pharmacy_name": "TARGET PHARMACY #2422","address1": "1150 E HILLSIDE DR","address2": "","city": "BROKEN ARROW","state": "OK","zip": "74012","zip+4": "0000","phone": "9186151901","NPI": "     1780822577"}, 
{"id": 42207,"ncpdp": "3725491","pharmacy_name": "WESTERN DRUG # #5","address1": "N.W. HIGHWAY 270 LONGHORN","address2": "BLDG A","city": "SEILING","state": "OK","zip": "73663","zip+4": "0000","phone": "5809224403","NPI": "     1174768774"}, 
{"id": 42208,"ncpdp": "3725504","pharmacy_name": "BUY FOR LESS PHARMACY # #1006","address1": "10011 SOUTHEAST 15TH STREET","address2": "","city": "MIDWEST CITY","state": "OK","zip": "73130","zip+4": "5625","phone": "4057378100","NPI": "     1376781773"}, 
{"id": 42209,"ncpdp": "3725530","pharmacy_name": "FAIRVIEW PHARMACY","address1": "210 E. STATE RD","address2": "","city": "FAIRVIEW","state": "OK","zip": "73737","zip+4": "0000","phone": "5802272045","NPI": "     1275779159"}, 
{"id": 42210,"ncpdp": "3725542","pharmacy_name": "NORMAN NEUROSURGICAL PC","address1": "2412 PALMER CIRCLE","address2": "","city": "NORMAN","state": "OK","zip": "73069","zip+4": "0000","phone": "4053212984","NPI": "     1750317137"}, 
{"id": 42211,"ncpdp": "3725554","pharmacy_name": "WALGREENS #12161","address1": "11605 N 135TH E AVE","address2": "","city": "COLLINSVILLE","state": "OK","zip": "74021","zip+4": "0000","phone": "9183715563","NPI": "     1336387430"}, 
{"id": 42212,"ncpdp": "3725566","pharmacy_name": "PIEDMONT PHARMACY AND GIFTS","address1": "97 GOODER SIMPSON BLVD","address2": "","city": "PIEDMONT","state": "OK","zip": "73078","zip+4": "0000","phone": "4053733090","NPI": "     1669610259"}, 
{"id": 42213,"ncpdp": "3725578","pharmacy_name": "URGENT MED","address1": "2004 N HIGHWAY 81","address2": "","city": "DUNCAN","state": "OK","zip": "73533","zip+4": "0000","phone": "5802521911","NPI": "     1396959482"}, 
{"id": 42214,"ncpdp": "3725580","pharmacy_name": "WALGREENS #12027","address1": "1550 SW 27TH ST","address2": "","city": "EL RENO","state": "OK","zip": "73036","zip+4": "5852","phone": "4052620293","NPI": "     1194964544"}, 
{"id": 42215,"ncpdp": "3725592","pharmacy_name": "OKLAHOMA INSTITUTE OF ALLERGY","address1": "609 S KELLY ST","address2": "STE J 1","city": "EDMOND","state": "OK","zip": "73003","zip+4": "0000","phone": "4052858315","NPI": "     1790964146"}, 
{"id": 42216,"ncpdp": "3725605","pharmacy_name": "GREEN COUNTRY FAMILY CLINIC","address1": "1312 S GARNETT ROAD","address2": "STE E","city": "TULSA","state": "OK","zip": "74128","zip+4": "0000","phone": "9184372500","NPI": "     1972544807"}, 
{"id": 42217,"ncpdp": "3725629","pharmacy_name": "CANCER CARE ASSOCIATES SPECIAL","address1": "4401 WEST MEMORIAL ROAD","address2": "STE 138","city": "OKLAHOMA CITY","state": "OK","zip": "73134","zip+4": "0000","phone": "4059362825","NPI": "     1952546962"}, 
{"id": 42218,"ncpdp": "3725655","pharmacy_name": "MCALESTER REGIONAL HEALTH CENT","address1": "727 EAST WYANDOTTE","address2": "","city": "MCALESTER","state": "OK","zip": "74501","zip+4": "0000","phone": "9526532568","NPI": "     1245471515"}, 
{"id": 42219,"ncpdp": "3725679","pharmacy_name": "ORTHOPAEDIC & SPORTS MEDICINE","address1": "825 E ROBINSON","address2": "","city": "NORMAN","state": "OK","zip": "73101","zip+4": "0000","phone": "4053647900","NPI": "     1306854765"}, 
{"id": 42220,"ncpdp": "3725693","pharmacy_name": "WALGREENS #11811","address1": "600 SHAWNEE MALL DR","address2": "","city": "SHAWNEE","state": "OK","zip": "74804","zip+4": "1322","phone": "4058781437","NPI": "     1386887941"}, 
{"id": 42221,"ncpdp": "3725706","pharmacy_name": "WALGREENS #12714","address1": "315 N 193RD EAST AVE","address2": "","city": "CATOOSA","state": "OK","zip": "74015","zip+4": "2862","phone": "9182668837","NPI": "     1598909772"}, 
{"id": 42222,"ncpdp": "3725718","pharmacy_name": "REASOR\'S PHARMACY #3","address1": "132 W. TAFT","address2": "","city": "SAPULPA","state": "OK","zip": "74066","zip+4": "5433","phone": "9182243600","NPI": "     1679707095"}, 
{"id": 42223,"ncpdp": "3725720","pharmacy_name": "L & L PHARMACY LLC","address1": "5057 S YALE","address2": "","city": "TULSA","state": "OK","zip": "74135","zip+4": "0000","phone": "9183943784","NPI": "     1588898902"}, 
{"id": 42224,"ncpdp": "3725732","pharmacy_name": "REASOR\'S PHARMACY #7","address1": "7114 S SHERIDAN RD","address2": "","city": "TULSA","state": "OK","zip": "74133","zip+4": "2748","phone": "9184810000","NPI": "     1174758437"}, 
{"id": 42225,"ncpdp": "3725756","pharmacy_name": "OKLAHOMA BONE AND JOINT CLINIC","address1": "4221 S WESTERN AVENUE","address2": "STE 4030","city": "OKLAHOMA CITY`","state": "OK","zip": "73109","zip+4": "0000","phone": "4056310753","NPI": "     1487605952"}, 
{"id": 42226,"ncpdp": "3725768","pharmacy_name": "WAL-MART PHARMACY #105840","address1": "12912 E 86TH ST NORTH","address2": "","city": "OWASSO","state": "OK","zip": "74055","zip+4": "0000","phone": "9182741233","NPI": "     1659505543"}, 
{"id": 42227,"ncpdp": "3725770","pharmacy_name": "WALGREENS #12833","address1": "1107 SW LEE BLVD","address2": "","city": "LAWTON","state": "OK","zip": "73501","zip+4": "5605","phone": "5805811067","NPI": "     1053547372"}, 
{"id": 42228,"ncpdp": "3725782","pharmacy_name": "ACT PHARMACY, LLC","address1": "7010 S YALE AVE STE 215","address2": "","city": "TULSA","state": "OK","zip": "74136","zip+4": "5743","phone": "9184931800","NPI": "     1033344668"}, 
{"id": 42229,"ncpdp": "3725819","pharmacy_name": "CVS PHARMACY # #08986","address1": "7041 S YALE AVE","address2": "","city": "TULSA","state": "OK","zip": "74136","zip+4": "5701","phone": "9184777185","NPI": "     1174753404"}, 
{"id": 42230,"ncpdp": "3725833","pharmacy_name": "CVS PHARMACY # #07971","address1": "101 ST. & MEMORIAL DRIVE (SEC)","address2": "","city": "BIXBY","state": "OK","zip": "74133","zip+4": "0000","phone": "4017651500","NPI": "     1487884433"}, 
{"id": 42231,"ncpdp": "3725869","pharmacy_name": "WALGREENS #13059","address1": "15111 S MEMORIAL DR","address2": "","city": "BIXBY","state": "OK","zip": "74008","zip+4": "4123","phone": "9183662910","NPI": "     1386875037"}, 
{"id": 42232,"ncpdp": "3725871","pharmacy_name": "TARGET PHARMACY #2542","address1": "10019 S MEMORIAL DR","address2": "","city": "TULSA","state": "OK","zip": "74133","zip+4": "6103","phone": "9186155001","NPI": "     1295967925"}, 
{"id": 42233,"ncpdp": "3725883","pharmacy_name": "CVS PHARMACY # #02489","address1": "100 S DOUGLAS BLVD","address2": "","city": "MIDWEST CITY","state": "OK","zip": "73130","zip+4": "4207","phone": "4057410036","NPI": "     1902038615"}, 
{"id": 42234,"ncpdp": "3725908","pharmacy_name": "RICK\'S PHARMACY","address1": "811 W RANDOLPH STREET","address2": "","city": "ENID","state": "OK","zip": "73701","zip+4": "0000","phone": "5802337242","NPI": "     1285866335"}, 
{"id": 42235,"ncpdp": "3725910","pharmacy_name": "PRUETTS FOOD-PHARMACY #02","address1": "53 W WILSON ST","address2": "","city": "VALLIANT","state": "OK","zip": "74764","zip+4": "9018","phone": "5805846056","NPI": "     1235361262"}, 
{"id": 42236,"ncpdp": "3725934","pharmacy_name": "METRO PHARMACY","address1": "575 E 36TH ST N","address2": "","city": "TULSA","state": "OK","zip": "74106","zip+4": "1812","phone": "9184257770","NPI": "     1457684557"}, 
{"id": 42237,"ncpdp": "3725960","pharmacy_name": "DRUG WAREHOUSE #6046","address1": "14003 S STATE HIGHWAY 51","address2": "","city": "COWETA","state": "OK","zip": "74429","zip+4": "7100","phone": "9184868800","NPI": "     1528392966"}, 
{"id": 59465,"ncpdp": "9000088","pharmacy_name": "HOMELAND STORES INC","address1": "2601 NW EXPWY","address2": "OIL CENTER E","city": "OKLAHOMA CITY","state": "OK","zip": "73112","zip+4": "0000","phone": "4058796645","NPI": ""}, 
{"id": 59466,"ncpdp": "9000089","pharmacy_name": "MAYS DRUG STORES INC","address1": "1437 S BOULDER STE 1100","address2": "","city": "TULSA","state": "OK","zip": "74119","zip+4": "0000","phone": "9185926297","NPI": ""}, 
{"id": 59616,"ncpdp": "9500015","pharmacy_name": "PHARMACY PROVIDERS OF OK,I","address1": "PO BOX 18204","address2": "","city": "OKLAHOMA CITY","state": "OK","zip": "73154","zip+4": "0000","phone": "","NPI": ""}, 
{"id": 59498,"ncpdp": "9000382","pharmacy_name": "MED-X CORPORATION","address1": "7130 S LEWIS STE 520","address2": "","city": "TULSA","state": "OK","zip": "74182","zip+4": "0000","phone": "9184971400","NPI": ""}, 
{"id": 59578,"ncpdp": "9000929","pharmacy_name": "REASOR\'S INC.","address1": "200 W CHOCTAW","address2": "","city": "TAHLEQUAH","state": "OK","zip": "74464","zip+4": "0000","phone": "9184561472","NPI": ""}, 
