{"id": 42238,"ncpdp": "3800047","pharmacy_name": "POSTAL PHARMACY,INC","address1": "47809 HWY 58","address2": "","city": "OAKRIDGE","state": "OR","zip": "97463","zip+4": "0000","phone": "5417822617","NPI": "     1205901485"}, 
{"id": 42239,"ncpdp": "3800249","pharmacy_name": "TILLAMOOK PHARMACY","address1": "915 MAIN AVE","address2": "","city": "TILLAMOOK","state": "OR","zip": "97141","zip+4": "3896","phone": "5038424181","NPI": "     1255477865"}, 
{"id": 42240,"ncpdp": "3800439","pharmacy_name": "BLACK OAK PHARMACY","address1": "2924 SISKIYOU BLVD","address2": "STE 102","city": "MEDFORD","state": "OR","zip": "97504","zip+4": "0000","phone": "5417735356","NPI": "     1780738138"}, 
{"id": 42241,"ncpdp": "3800453","pharmacy_name": "BIMART PHARMACY #610","address1": "230 REDWOOD HWY","address2": "","city": "GRANTS PASS","state": "OR","zip": "97527","zip+4": "5404","phone": "5414798337","NPI": "     1194758458"}, 
{"id": 42242,"ncpdp": "3800592","pharmacy_name": "SERVICE DRUG STORE","address1": "1204 NW 6TH ST","address2": "","city": "GRANTS PASS","state": "OR","zip": "97526","zip+4": "0000","phone": "5414768224","NPI": "     1851473656"}, 
{"id": 42243,"ncpdp": "3800732","pharmacy_name": "BIMART PHARMACY #606","address1": "2272 SE SANTIAM HWY","address2": "","city": "ALBANY","state": "OR","zip": "97322","zip+4": "5205","phone": "5419264491","NPI": "     1003849365"}, 
{"id": 42244,"ncpdp": "3800770","pharmacy_name": "RITE AID PHARMACY #05365","address1": "1235 WAVERLY DRIVE SOUTHEAST","address2": "","city": "ALBANY","state": "OR","zip": "97321","zip+4": "6944","phone": "5419288668","NPI": "     1972519288"}, 
{"id": 42245,"ncpdp": "3800845","pharmacy_name": "ASHLAND DRUG INC","address1": "275 E MAIN ST","address2": "","city": "ASHLAND","state": "OR","zip": "97520","zip+4": "1889","phone": "5414821296","NPI": "     1386632214"}, 
{"id": 42246,"ncpdp": "3800857","pharmacy_name": "BIMART PHARMACY #608","address1": "2280 ASHLAND ST","address2": "","city": "ASHLAND","state": "OR","zip": "97520","zip+4": "1406","phone": "5414828191","NPI": "     1912930272"}, 
{"id": 42247,"ncpdp": "3800895","pharmacy_name": "PARAMOUNT DRUG","address1": "1319 COMMERCIAL ST","address2": "","city": "ASTORIA","state": "OR","zip": "97103","zip+4": "3995","phone": "5033254541","NPI": "     1881626901"}, 
{"id": 42248,"ncpdp": "3800960","pharmacy_name": "SHINDLERS HEALTHMART PHARMACY","address1": "215 10TH ST SE","address2": "","city": "BANDON","state": "OR","zip": "97411","zip+4": "0000","phone": "5413473707","NPI": "     1871644799"}, 
{"id": 42249,"ncpdp": "3800996","pharmacy_name": "BEAVERTON PHARMACY INC","address1": "12250 SW CANYON RD","address2": "","city": "BEAVERTON","state": "OR","zip": "97005","zip+4": "2177","phone": "5036442101","NPI": "     1548217136"}, 
{"id": 42250,"ncpdp": "3801001","pharmacy_name": "RITE AID PHARMACY #05322","address1": "12575 SW WALKER ROAD","address2": "","city": "BEAVERTON","state": "OR","zip": "97005","zip+4": "1306","phone": "5036462423","NPI": "     1770692055"}, 
{"id": 42251,"ncpdp": "3801049","pharmacy_name": "BEND PILL BOX #1","address1": "325 NE FRANKLIN AVE","address2": "","city": "BEND","state": "OR","zip": "97701","zip+4": "0000","phone": "5413821454","NPI": "     1326131426"}, 
{"id": 42252,"ncpdp": "3801051","pharmacy_name": "BIMART PHARMACY #612","address1": "351 NE 2ND STREET","address2": "","city": "BEND","state": "OR","zip": "97701","zip+4": "5175","phone": "5413895610","NPI": "     1821021189"}, 
{"id": 42253,"ncpdp": "3801099","pharmacy_name": "RITE AID PHARMACY #05390","address1": "1900 NE 3RD STREET","address2": "SUITE 111","city": "BEND","state": "OR","zip": "97701","zip+4": "3854","phone": "5413891717","NPI": "     1497864771"}, 
{"id": 42254,"ncpdp": "3801126","pharmacy_name": "CHETCO REXALL DRUGS","address1": "890 CHETCO AVE","address2": "","city": "BROOKINGS","state": "OR","zip": "97415","zip+4": "0547","phone": "5414692616","NPI": "     1104855998"}, 
{"id": 42255,"ncpdp": "3801140","pharmacy_name": "BROWNSVILLE PHARMACY","address1": "411 N MAIN","address2": "","city": "BROWNSVILLE","state": "OR","zip": "97327","zip+4": "0000","phone": "5414665112","NPI": "     1871660357"}, 
{"id": 42256,"ncpdp": "3801265","pharmacy_name": "CLOVERDALE PHARMACY","address1": "34385 HWY 101 SOUTH","address2": "","city": "CLOVERDALE","state": "OR","zip": "97112","zip+4": "0035","phone": "5033923456","NPI": "     1053346676"}, 
{"id": 42257,"ncpdp": "3801366","pharmacy_name": "BIMART PHARMACY #604","address1": "2045 N 9TH STREET","address2": "","city": "CORVALLIS","state": "OR","zip": "97330","zip+4": "1460","phone": "5417522468","NPI": "     1730112095"}, 
{"id": 42258,"ncpdp": "3801380","pharmacy_name": "FRED MEYER PHARMACY #701070","address1": "777 KING BLVD","address2": "","city": "CORVALLIS","state": "OR","zip": "97330","zip+4": "0000","phone": "5417539106","NPI": "     1285679357"}, 
{"id": 42259,"ncpdp": "3801405","pharmacy_name": "RITE AID PHARMACY #05366","address1": "2080 NORTHWEST 9TH STREET","address2": "","city": "CORVALLIS","state": "OR","zip": "97330","zip+4": "0000","phone": "5417532226","NPI": "     1215046594"}, 
{"id": 42260,"ncpdp": "3801417","pharmacy_name": "RICES PHARMACY","address1": "910 NW KINGS BLVD","address2": "","city": "CORVALLIS","state": "OR","zip": "97330","zip+4": "0000","phone": "5417527779","NPI": "     1871690719"}, 
{"id": 42261,"ncpdp": "3801429","pharmacy_name": "OSU STUDENT HLTH CTR PHCY","address1": "PLAGEMAN BLDG ROOM 109","address2": "OREGON STATE UNIVERSITY","city": "CORVALLIS","state": "OR","zip": "97331","zip+4": "0000","phone": "5417373491","NPI": "     1942214747"}, 
{"id": 42262,"ncpdp": "3801443","pharmacy_name": "CORVALLIS CLINIC PHARMACY","address1": "3680 NW SAMARITAN DR","address2": "","city": "CORVALLIS","state": "OR","zip": "97330","zip+4": "3739","phone": "5417541284","NPI": "     1679586994"}, 
{"id": 42263,"ncpdp": "3801532","pharmacy_name": "DALLAS PILL BOX #6","address1": "625 SE MILLER AVE","address2": "","city": "DALLAS","state": "OR","zip": "97338","zip+4": "0000","phone": "5036232400","NPI": "     1558454652"}, 
{"id": 42264,"ncpdp": "3801607","pharmacy_name": "BIMART PHARMACY #601","address1": "2030 RIVER RD","address2": "","city": "EUGENE","state": "OR","zip": "97404","zip+4": "2504","phone": "5416877620","NPI": "     1649203902"}, 
{"id": 42265,"ncpdp": "3801619","pharmacy_name": "BIMART PHARMACY #602","address1": "1680 W 18TH AVE","address2": "","city": "EUGENE","state": "OR","zip": "97402","zip+4": "3815","phone": "5413425581","NPI": "     1558394817"}, 
{"id": 42266,"ncpdp": "3801645","pharmacy_name": "PEACE HEALTH MEDICAL GRP PHCY","address1": "1162 WILLAMETTE ST","address2": "","city": "EUGENE","state": "OR","zip": "97401","zip+4": "3501","phone": "5416876156","NPI": "     1922018639"}, 
{"id": 42267,"ncpdp": "3801683","pharmacy_name": "HIRONS PHARMACY #2","address1": "1950 FRANKLIN BLVD","address2": "","city": "EUGENE","state": "OR","zip": "97403","zip+4": "0000","phone": "5413445268","NPI": "     1427160431"}, 
{"id": 42268,"ncpdp": "3801695","pharmacy_name": "HIRONS DRUG INC","address1": "185 E 18TH AVE","address2": "","city": "EUGENE","state": "OR","zip": "97401","zip+4": "0000","phone": "5413424995","NPI": "     1063524072"}, 
{"id": 42269,"ncpdp": "3801758","pharmacy_name": "RITE AID PHARMACY #05375","address1": "57 W 29TH AVENUE","address2": "","city": "EUGENE","state": "OR","zip": "97405","zip+4": "3242","phone": "5413427648","NPI": "     1881600195"}, 
{"id": 42270,"ncpdp": "3801948","pharmacy_name": "CORNER DRUG INC","address1": "29670 ELLENSBURG AVE","address2": "","city": "GOLD BEACH","state": "OR","zip": "97444","zip+4": "9721","phone": "5412474544","NPI": "     1972543734"}, 
{"id": 42271,"ncpdp": "3801962","pharmacy_name": "GRANTS PASS PHARMACY INC","address1": "414 SW 6TH ST","address2": "","city": "GRANTS PASS","state": "OR","zip": "97526","zip+4": "2897","phone": "5414764262","NPI": "     1457411779"}, 
{"id": 42272,"ncpdp": "3802065","pharmacy_name": "HERMISTON DRUG AND GIFT","address1": "114 MAIN ST","address2": "","city": "HERMISTON","state": "OR","zip": "97838","zip+4": "1893","phone": "5415673072","NPI": "     1063595726"}, 
{"id": 42273,"ncpdp": "3802116","pharmacy_name": "HILLSBORO PHARMACY","address1": "243 E MAIN","address2": "","city": "HILLSBORO","state": "OR","zip": "97123","zip+4": "4075","phone": "5036481811","NPI": "     1972615987"}, 
{"id": 42274,"ncpdp": "3802421","pharmacy_name": "HOWARDS DRUGS","address1": "101 NORTH F STREET","address2": "","city": "LAKEVIEW","state": "OR","zip": "97630","zip+4": "0000","phone": "5419472141","NPI": "     1912059569"}, 
{"id": 42275,"ncpdp": "3802471","pharmacy_name": "LEBANON PILL BOX #2","address1": "185 MAIN ST","address2": "","city": "LEBANON","state": "OR","zip": "97355","zip+4": "0000","phone": "5412591225","NPI": "     1528151982"}, 
{"id": 42276,"ncpdp": "3802546","pharmacy_name": "HOMETOWN DRUGS","address1": "196 SW 5TH ST","address2": "","city": "MADRAS","state": "OR","zip": "97741","zip+4": "0000","phone": "5414752142","NPI": "     1760493431"}, 
{"id": 42277,"ncpdp": "3802572","pharmacy_name": "MAC PRESCRIPTION SHOP","address1": "225 NE 3RD STREET","address2": "","city": "MCMINNVILLE","state": "OR","zip": "97128","zip+4": "4896","phone": "5034722146","NPI": "     1659360006"}, 
{"id": 42278,"ncpdp": "3802697","pharmacy_name": "MEDICINE SHOPPE PHARMACY #1203","address1": "613 E MAIN ST","address2": "","city": "MEDFORD","state": "OR","zip": "97504","zip+4": "0000","phone": "5417735345","NPI": "     1295839256"}, 
{"id": 42279,"ncpdp": "3802750","pharmacy_name": "WEST MAIN PHARMACY","address1": "2355 WEST MAIN ST","address2": "","city": "MEDFORD","state": "OR","zip": "97501","zip+4": "2192","phone": "5417722330","NPI": "     1780781625"}, 
{"id": 42280,"ncpdp": "3802952","pharmacy_name": "SEMPERTS DRUG","address1": "735 SPRUCE ST","address2": "","city": "MYRTLE POINT","state": "OR","zip": "97458","zip+4": "0000","phone": "5415725010","NPI": "     1962579540"}, 
{"id": 42281,"ncpdp": "3802990","pharmacy_name": "MIKES MEDICAL PHARMACY","address1": "201 VILLA RD","address2": "","city": "NEWBERG","state": "OR","zip": "97132","zip+4": "1893","phone": "5035385715","NPI": "     1053353821"}, 
{"id": 42282,"ncpdp": "3803079","pharmacy_name": "RITE AID PHARMACY #05379","address1": "2040 BROADWAY STREET","address2": "","city": "NORTH BEND","state": "OR","zip": "97459","zip+4": "2328","phone": "5417567531","NPI": "     1124137401"}, 
{"id": 42283,"ncpdp": "3803132","pharmacy_name": "ONTARIO PHARMACY","address1": "925 SW 3RD AVE","address2": "","city": "ONTARIO","state": "OR","zip": "97914","zip+4": "2199","phone": "5418898174","NPI": "     1588658439"}, 
{"id": 42284,"ncpdp": "3803409","pharmacy_name": "BROOKLYN PHARMACY INC","address1": "3131 SE MILWAUKIE AVENUE","address2": "","city": "PORTLAND","state": "OR","zip": "97202","zip+4": "0000","phone": "5032348348","NPI": "     1114968815"}, 
{"id": 42285,"ncpdp": "3803435","pharmacy_name": "CENTRAL DRUGS","address1": "538 SW 4TH AVE","address2": "","city": "PORTLAND","state": "OR","zip": "97204","zip+4": "2165","phone": "5032262222","NPI": "     1366436057"}, 
{"id": 42286,"ncpdp": "3803524","pharmacy_name": "FRED MEYER PHARMACY #701330","address1": "5253 SE 82ND AVENUE","address2": "","city": "PORTLAND","state": "OR","zip": "97266","zip+4": "0000","phone": "5037773359","NPI": "     1295771228"}, 
{"id": 42287,"ncpdp": "3803536","pharmacy_name": "FRED MEYER PHARMACY #701285","address1": "7700 SW BEAVERTON HILLSDALE","address2": "","city": "PORTLAND","state": "OR","zip": "97225","zip+4": "0000","phone": "5032923531","NPI": "     1427094382"}, 
{"id": 42288,"ncpdp": "3803550","pharmacy_name": "FRED MEYER PHARMACY #701360","address1": "100 NW 20TH PLACE","address2": "","city": "PORTLAND","state": "OR","zip": "97209","zip+4": "0000","phone": "5032267179","NPI": "     1336185297"}, 
{"id": 42289,"ncpdp": "3803562","pharmacy_name": "FRED MEYER PHARMACY #701125","address1": "6615 NE GLISAN STREET","address2": "","city": "PORTLAND","state": "OR","zip": "97213","zip+4": "0000","phone": "5037976973","NPI": "     1386680296"}, 
{"id": 42290,"ncpdp": "3803574","pharmacy_name": "FRED MEYER PHARMACY #701150","address1": "7404 N INTERSTATE","address2": "","city": "PORTLAND","state": "OR","zip": "97217","zip+4": "0000","phone": "5032866784","NPI": "     1194761007"}, 
{"id": 42291,"ncpdp": "3803586","pharmacy_name": "FRED MEYER PHARMACY #701040","address1": "7555 SW BARBER BLVD","address2": "","city": "PORTLAND","state": "OR","zip": "97219","zip+4": "0000","phone": "5034523033","NPI": "     1245276104"}, 
{"id": 42292,"ncpdp": "3803601","pharmacy_name": "FRED MEYER PHARMACY #701075","address1": "14700 SE DIVISION","address2": "","city": "PORTLAND","state": "OR","zip": "97236","zip+4": "0000","phone": "5037624436","NPI": "     1093750168"}, 
{"id": 42293,"ncpdp": "3803613","pharmacy_name": "FRED MEYER PHARMACY #701135","address1": "3805 SE HAWTHORNE BLVD","address2": "","city": "PORTLAND","state": "OR","zip": "97214","zip+4": "0000","phone": "5032347559","NPI": "     1902841075"}, 
{"id": 42294,"ncpdp": "3803637","pharmacy_name": "FRED MEYER PHARMACY #701255","address1": "6850 N LOMBARD","address2": "","city": "PORTLAND","state": "OR","zip": "97203","zip+4": "0000","phone": "5032860629","NPI": "     1811932981"}, 
{"id": 42295,"ncpdp": "3803663","pharmacy_name": "FRED MEYER PHARMACY #701128","address1": "1111 NE 102ND","address2": "","city": "PORTLAND","state": "OR","zip": "97220","zip+4": "0000","phone": "5032555494","NPI": "     1720023898"}, 
{"id": 42296,"ncpdp": "3803891","pharmacy_name": "PAULSENS PHARMACY","address1": "4246 NE SANDY BLVD","address2": "","city": "PORTLAND","state": "OR","zip": "97213","zip+4": "1479","phone": "5032871163","NPI": "     1013949502"}, 
{"id": 42297,"ncpdp": "3804158","pharmacy_name": "PHARMACA INTEGRATIVE PHARMACY","address1": "13 NW 23RD PLACE","address2": "","city": "PORTLAND","state": "OR","zip": "97210","zip+4": "0000","phone": "5032266211","NPI": "     1639232929"}, 
{"id": 42298,"ncpdp": "3804160","pharmacy_name": "OHSU OUTPATIENT PHCY","address1": "3181 SW SAM JACKSON PARK RD","address2": "SUITE PPV 110","city": "PORTLAND","state": "OR","zip": "97239","zip+4": "0000","phone": "5034947570","NPI": "     1346263340"}, 
{"id": 42299,"ncpdp": "3804273","pharmacy_name": "CLINIC PHARMACY PRINEVILLE","address1": "1103 NE ELM ST","address2": "STE A","city": "PRINEVILLE","state": "OR","zip": "97754","zip+4": "0000","phone": "5414474111","NPI": "     1801924006"}, 
{"id": 42300,"ncpdp": "3804324","pharmacy_name": "REEDSPORT PHARMACY INC","address1": "1409 HWY 101","address2": "","city": "REEDSPORT","state": "OR","zip": "97467","zip+4": "0000","phone": "5412713631","NPI": "     1437294808"}, 
{"id": 42301,"ncpdp": "3804386","pharmacy_name": "BIMART PHARMACY #609","address1": "1381 NW GARDEN VALLEY BLVD","address2": "","city": "ROSEBURG","state": "OR","zip": "97471","zip+4": "0000","phone": "5416725730","NPI": "     1467485722"}, 
{"id": 42302,"ncpdp": "3804425","pharmacy_name": "HARVARD AVENUE DRUGS AND HEALT","address1": "1175 W HARVARD AVE","address2": "","city": "ROSEBURG","state": "OR","zip": "97470","zip+4": "0000","phone": "5416721961","NPI": "     1417902834"}, 
{"id": 42303,"ncpdp": "3804451","pharmacy_name": "RITE AID PHARMACY #05382","address1": "444 STEPHENS STREET SOUTHEAST","address2": "","city": "ROSEBURG","state": "OR","zip": "97470","zip+4": "3136","phone": "5416724896","NPI": "     1033228317"}, 
{"id": 42304,"ncpdp": "3804538","pharmacy_name": "FRED MEYER PHARMACY #701225","address1": "2855 BROADWAY NE","address2": "","city": "SALEM","state": "OR","zip": "97303","zip+4": "0000","phone": "5033912433","NPI": "     1568407096"}, 
{"id": 42305,"ncpdp": "3804540","pharmacy_name": "FRED MEYER PHARMACY #701355","address1": "3450 COMMERCIAL ST SE","address2": "","city": "SALEM","state": "OR","zip": "97302","zip+4": "0000","phone": "5035857660","NPI": "     1154367019"}, 
{"id": 42306,"ncpdp": "3804627","pharmacy_name": "MEDICINE SHOPPE #1009","address1": "1890 CAPITOL STREET NE","address2": "","city": "SALEM","state": "OR","zip": "97303","zip+4": "0000","phone": "5033644436","NPI": "     1982772786"}, 
{"id": 42307,"ncpdp": "3804665","pharmacy_name": "RITE AID PHARMACY #05361","address1": "435 LIBERTY STREET NORTHEAST","address2": "","city": "SALEM","state": "OR","zip": "97301","zip+4": "3588","phone": "5033623654","NPI": "     1760591044"}, 
{"id": 42308,"ncpdp": "3804677","pharmacy_name": "RITE AID PHARMACY #05360","address1": "681 LANCASTER DRIVE NORTHEAST","address2": "","city": "SALEM","state": "OR","zip": "97301","zip+4": "4733","phone": "5035857616","NPI": "     1366553521"}, 
{"id": 42309,"ncpdp": "3804704","pharmacy_name": "QUISENBERRY PHARMACIES INC","address1": "150 LIBERTY ST SE","address2": "","city": "SALEM","state": "OR","zip": "97301","zip+4": "3506","phone": "5033643336","NPI": "     1881776722"}, 
{"id": 42310,"ncpdp": "3804893","pharmacy_name": "SILVERTON PILL BOX #4","address1": "320 N FIRST ST","address2": "","city": "SILVERTON","state": "OR","zip": "97381","zip+4": "0000","phone": "5038736321","NPI": "     1376636472"}, 
{"id": 42311,"ncpdp": "3804906","pharmacy_name": "BIMART PHARMACY #603","address1": "1521 MOHAWK BLVD","address2": "","city": "SPRINGFIELD","state": "OR","zip": "97477","zip+4": "3355","phone": "5416877633","NPI": "     1013942077"}, 
{"id": 42312,"ncpdp": "3805011","pharmacy_name": "STAYTON PHARMACY","address1": "102 MARTIN DR","address2": "STE A","city": "STAYTON","state": "OR","zip": "97383","zip+4": "0000","phone": "5037692616","NPI": "     1588685184"}, 
{"id": 42313,"ncpdp": "3805174","pharmacy_name": "FRED MEYER PHARMACY #701375","address1": "11565 SW PACIFIC HWY","address2": "","city": "TIGARD","state": "OR","zip": "97223","zip+4": "0000","phone": "5032937085","NPI": "     1063458925"}, 
{"id": 42314,"ncpdp": "3805251","pharmacy_name": "UNION DRUG COMPANY","address1": "105 N MAIN","address2": "","city": "UNION","state": "OR","zip": "97883","zip+4": "0400","phone": "5415625441","NPI": "     1114032158"}, 
{"id": 42315,"ncpdp": "3805275","pharmacy_name": "TIFFANYS SUPER DRUG STORE #50","address1": "24991 HWY 126","address2": "","city": "VENETA","state": "OR","zip": "97487","zip+4": "9401","phone": "5419352201","NPI": "     1659477453"}, 
{"id": 42316,"ncpdp": "3805364","pharmacy_name": "WHEELER PHARMACY HEALTH MART","address1": "625 NEHALEM BLVD","address2": "","city": "WHEELER","state": "OR","zip": "97147","zip+4": "0000","phone": "5033685783","NPI": "     1255462180"}, 
{"id": 42317,"ncpdp": "3805441","pharmacy_name": "FRED MEYER PHARMACY #701325","address1": "60 DIVISION AVENUE","address2": "","city": "EUGENE","state": "OR","zip": "97404","zip+4": "0000","phone": "5416888362","NPI": "     1972549830"}, 
{"id": 42318,"ncpdp": "3805453","pharmacy_name": "RITE AID PHARMACY #05340","address1": "1201 NORTH US HIGHWAY 99 WEST","address2": "1201 NUS HIGHWAY 99W","city": "MCMINNVILLE","state": "OR","zip": "97128","zip+4": "2793","phone": "5034722133","NPI": "     1588773865"}, 
{"id": 42319,"ncpdp": "3805465","pharmacy_name": "PHOENIX PHARMACY INC #2902","address1": "404 N MAIN ST","address2": "","city": "PHOENIX","state": "OR","zip": "97535","zip+4": "0000","phone": "5415351561","NPI": "     1063495596"}, 
{"id": 42320,"ncpdp": "3805504","pharmacy_name": "BIMART PHARMACY #611","address1": "1920 WASHBURN WAY","address2": "","city": "KLAMATH FALLS","state": "OR","zip": "97603","zip+4": "4502","phone": "5418827714","NPI": "     1285667543"}, 
{"id": 42321,"ncpdp": "3805530","pharmacy_name": "BIMART PHARMACY #613","address1": "2687 W MAIN ST","address2": "","city": "MEDFORD","state": "OR","zip": "97501","zip+4": "2127","phone": "5417798016","NPI": "     1093748352"}, 
{"id": 42322,"ncpdp": "3805592","pharmacy_name": "BIMART PHARMACY #607","address1": "2131 NEWMARK STREET","address2": "","city": "NORTH BEND","state": "OR","zip": "97459","zip+4": "1219","phone": "5417567561","NPI": "     1902839269"}, 
{"id": 42323,"ncpdp": "3805605","pharmacy_name": "BAKER CITY PILL BOX #7","address1": "1920 RESORT AVE","address2": "","city": "BAKER CITY","state": "OR","zip": "97814","zip+4": "0000","phone": "5415237227","NPI": "     1285727388"}, 
{"id": 42324,"ncpdp": "3805655","pharmacy_name": "GORDONS PHARMACY","address1": "314 MAIN ST","address2": "","city": "CANYONVILLE","state": "OR","zip": "97417","zip+4": "0000","phone": "5418394452","NPI": "     1831236991"}, 
{"id": 42325,"ncpdp": "3805667","pharmacy_name": "FRED MEYER PHARMACY #701090","address1": "3740 MARKET NE","address2": "","city": "SALEM","state": "OR","zip": "97301","zip+4": "0000","phone": "5035816431","NPI": "     1952347817"}, 
{"id": 42326,"ncpdp": "3805693","pharmacy_name": "RITE AID PHARMACY #05327","address1": "1555 N.E. DIVISION STREET","address2": "1555 NE DIVISION STREET","city": "GRESHAM","state": "OR","zip": "97030","zip+4": "4271","phone": "5036669476","NPI": "     1497864789"}, 
{"id": 42327,"ncpdp": "3805770","pharmacy_name": "DAVES PRESCRIPTION SHOP","address1": "911 SW 4TH AVE","address2": "","city": "CANBY","state": "OR","zip": "97013","zip+4": "3832","phone": "5032662081","NPI": "     1629170451"}, 
{"id": 42328,"ncpdp": "3805782","pharmacy_name": "FRED MEYER PHARMACY #701005","address1": "2500 SANTIAM HWY","address2": "","city": "ALBANY","state": "OR","zip": "97322","zip+4": "5211","phone": "5419269497","NPI": "     1861438723"}, 
{"id": 42329,"ncpdp": "3805833","pharmacy_name": "FRED MEYER PHARMACY #701035","address1": "11425 SW BEAVERTON HILLSDALE","address2": "","city": "BEAVERTON","state": "OR","zip": "97005","zip+4": "0000","phone": "5035261833","NPI": "     1639114705"}, 
{"id": 42330,"ncpdp": "3805869","pharmacy_name": "PARSONS CANBY PHARMACY","address1": "294 NW 2ND AVE","address2": "","city": "CANBY","state": "OR","zip": "97013","zip+4": "3624","phone": "5032662233","NPI": "     1164454641"}, 
{"id": 42331,"ncpdp": "3805922","pharmacy_name": "RITE AID PHARMACY #05386","address1": "915 NORTHEAST D STREET","address2": "GRANTS PASS SHOPPING CENTER","city": "GRANTS PASS","state": "OR","zip": "97526","zip+4": "2399","phone": "5414793358","NPI": "     1306955695"}, 
{"id": 42332,"ncpdp": "3805934","pharmacy_name": "ASTORIA PHARMACY","address1": "2223 MARINE DR","address2": "","city": "ASTORIA","state": "OR","zip": "97103","zip+4": "0000","phone": "5033254311","NPI": "     1134165004"}, 
{"id": 42333,"ncpdp": "3805996","pharmacy_name": "WILLAMINA DRUGS","address1": "212 NE MAIN ST","address2": "","city": "WILLAMINA","state": "OR","zip": "97396","zip+4": "0000","phone": "5038768652","NPI": "     1699705947"}, 
{"id": 42334,"ncpdp": "3806025","pharmacy_name": "RITE AID PHARMACY #05334","address1": "1400 WEST 6TH STREET","address2": "","city": "THE DALLES","state": "OR","zip": "97058","zip+4": "3594","phone": "5412985680","NPI": "     1033228325"}, 
{"id": 42335,"ncpdp": "3806126","pharmacy_name": "RITE AID PHARMACY #05398","address1": "2212 ISLAND AVENUE","address2": "SUITE 201","city": "LA GRANDE","state": "OR","zip": "97850","zip+4": "3949","phone": "5419638696","NPI": "     1851400147"}, 
{"id": 42336,"ncpdp": "3806190","pharmacy_name": "CARLSONS UMATILLA PHARMACY","address1": "821 6TH ST","address2": "","city": "UMATILLA","state": "OR","zip": "97882","zip+4": "1497","phone": "5419223281","NPI": "     1558421529"}, 
{"id": 42337,"ncpdp": "3806253","pharmacy_name": "FRED MEYER PHARMACY #701240","address1": "14700 SE MCLOUGHLIN BLVD","address2": "","city": "MILWAUKIE","state": "OR","zip": "97267","zip+4": "0000","phone": "5036524133","NPI": "     1548205610"}, 
{"id": 42338,"ncpdp": "3806289","pharmacy_name": "FRED MEYER PHARMACY #701127","address1": "2497 SE BURNSIDE ROAD","address2": "","city": "GRESHAM","state": "OR","zip": "97080","zip+4": "0000","phone": "5036694233","NPI": "     1457396525"}, 
{"id": 42339,"ncpdp": "3806291","pharmacy_name": "RITE AID PHARMACY #05395","address1": "1900 SOUTHWEST COURT PLACE","address2": "MELANIE SQUARE","city": "PENDLETON","state": "OR","zip": "97801","zip+4": "1891","phone": "5412761185","NPI": "     1760591051"}, 
{"id": 42340,"ncpdp": "3806330","pharmacy_name": "RITE AID PHARMACY #05332","address1": "22 OREGON CITY SHOPPING CENTER","address2": "1900 MCLOUGHLIN BLVD","city": "OREGON CITY","state": "OR","zip": "97045","zip+4": "1087","phone": "5036561020","NPI": "     1699781906"}, 
{"id": 42341,"ncpdp": "3806354","pharmacy_name": "BIMART PHARMACY #615","address1": "1635 S BAKER STREET","address2": "","city": "MCMINNVILLE","state": "OR","zip": "97128","zip+4": "6646","phone": "5034728423","NPI": "     1811920176"}, 
{"id": 42342,"ncpdp": "3806378","pharmacy_name": "DAN INC OREGON","address1": "1500 MOLALLA AVE","address2": "","city": "OREGON CITY","state": "OR","zip": "97045","zip+4": "8490","phone": "5036551221","NPI": "     1356563456"}, 
{"id": 42343,"ncpdp": "3806998","pharmacy_name": "RITE AID PHARMACY #05354","address1": "12080 SW MAIN STREET","address2": "","city": "TIGARD","state": "OR","zip": "97223","zip+4": "6298","phone": "5036209322","NPI": "     1679682967"}, 
{"id": 42344,"ncpdp": "3807015","pharmacy_name": "BIMART PHARMACY #656","address1": "901 SW EMIGRANT AVENUE","address2": "","city": "PENDLETON","state": "OR","zip": "97801","zip+4": "1948","phone": "5412767909","NPI": "     1720011083"}, 
{"id": 42345,"ncpdp": "3807041","pharmacy_name": "BANDON PHARMACY","address1": "1225 OREGON AVE","address2": "","city": "BANDON","state": "OR","zip": "97411","zip+4": "0369","phone": "5413472222","NPI": "     1427197201"}, 
{"id": 42346,"ncpdp": "3807077","pharmacy_name": "RITE AID PHARMACY #05343","address1": "145 SOUTH HIGHWAY 101","address2": "145 SOUTH HIGHWAY 101","city": "WARRENTON","state": "OR","zip": "97146","zip+4": "9314","phone": "5038611611","NPI": "     1588773873"}, 
{"id": 42347,"ncpdp": "3807089","pharmacy_name": "RITE AID PHARMACY #05370","address1": "2336 NORTH COAST HIGHWAY","address2": "","city": "NEWPORT","state": "OR","zip": "97365","zip+4": "1798","phone": "5412658596","NPI": "     1396854683"}, 
{"id": 42348,"ncpdp": "3807091","pharmacy_name": "FRED MEYER PHARMACY #701328","address1": "650 Q STREET","address2": "","city": "SPRINGFIELD","state": "OR","zip": "97477","zip+4": "0000","phone": "5417415183","NPI": "     1003852914"}, 
{"id": 42349,"ncpdp": "3807217","pharmacy_name": "BIMART PHARMACY #616","address1": "990 BIDDLE RD","address2": "","city": "MEDFORD","state": "OR","zip": "97504","zip+4": "6118","phone": "5417723461","NPI": "     1639102999"}, 
{"id": 42350,"ncpdp": "3807255","pharmacy_name": "BIMART PHARMACY #617","address1": "2283 SW 4TH AVE","address2": "","city": "ONTARIO","state": "OR","zip": "97914","zip+4": "1849","phone": "5418892188","NPI": "     1548293806"}, 
{"id": 42351,"ncpdp": "3807267","pharmacy_name": "RITE AID PHARMACY #05351","address1": "5431 SOUTHWEST BEAVERTON HILLS","address2": "","city": "PORTLAND","state": "OR","zip": "97221","zip+4": "1998","phone": "5032457231","NPI": "     1114036407"}, 
{"id": 42352,"ncpdp": "3807370","pharmacy_name": "RITE AID PHARMACY #05397","address1": "835 SOUTH HIGHWAY 395","address2": "","city": "HERMISTON","state": "OR","zip": "97838","zip+4": "2620","phone": "5415677805","NPI": "     1023127313"}, 
{"id": 42353,"ncpdp": "3807382","pharmacy_name": "BOARDMAN PHARMACY","address1": "202 1ST NW","address2": "","city": "BOARDMAN","state": "OR","zip": "97818","zip+4": "0000","phone": "5414819474","NPI": "     1346300159"}, 
{"id": 42354,"ncpdp": "3807407","pharmacy_name": "FRED MEYER PHARMACY #701063","address1": "16301 SE 82ND DRIVE","address2": "","city": "CLACKAMAS","state": "OR","zip": "97015","zip+4": "0000","phone": "5036573064","NPI": "     1225074768"}, 
{"id": 42355,"ncpdp": "3807445","pharmacy_name": "BIMART PHARMACY #620","address1": "100 GATEWAY BLVD","address2": "","city": "COTTAGE GROVE","state": "OR","zip": "97424","zip+4": "1741","phone": "5419429107","NPI": "     1457384711"}, 
{"id": 42356,"ncpdp": "3807457","pharmacy_name": "BIMART PHARMACY #622","address1": "1813 MOLLALA AVE","address2": "","city": "OREGON CITY","state": "OR","zip": "97045","zip+4": "4054","phone": "5036573187","NPI": "     1275566531"}, 
{"id": 42357,"ncpdp": "3807469","pharmacy_name": "RITE AID PHARMACY #05369","address1": "30 EAST OAK STREET","address2": "","city": "LEBANON","state": "OR","zip": "97355","zip+4": "3222","phone": "5414518020","NPI": "     1932218229"}, 
{"id": 42358,"ncpdp": "3807572","pharmacy_name": "RITE AID PHARMACY #05394","address1": "1651 SOUTHWEST ODEM MEDO ROAD","address2": "WAGNER MALL","city": "REDMOND","state": "OR","zip": "97756","zip+4": "9573","phone": "5415486041","NPI": "     1841309135"}, 
{"id": 42359,"ncpdp": "3807596","pharmacy_name": "BIMART PHARMACY #624","address1": "3862 RIVER ROAD N","address2": "","city": "KEIZER","state": "OR","zip": "97303","zip+4": "4866","phone": "5033716717","NPI": "     1184657447"}, 
{"id": 42360,"ncpdp": "3807635","pharmacy_name": "RITE AID PHARMACY #05374","address1": "1970 ECHO HOLLOW ROAD","address2": "ECHO HOLLOW PLAZA","city": "EUGENE","state": "OR","zip": "97402","zip+4": "1394","phone": "5414610703","NPI": "     1750490041"}, 
{"id": 42361,"ncpdp": "3807647","pharmacy_name": "RITE AID PHARMACY #05388","address1": "2521 SOUTH SIXTH STREET","address2": "","city": "KLAMATH FALLS","state": "OR","zip": "97601","zip+4": "4343","phone": "5418832210","NPI": "     1669581955"}, 
{"id": 42362,"ncpdp": "3807659","pharmacy_name": "RITE AID PHARMACY #05341","address1": "1150 NORTH SPRINGBROOK ROAD","address2": "1150 NSPRINGBROOK ROAD","city": "NEWBERG","state": "OR","zip": "97132","zip+4": "2098","phone": "5035387402","NPI": "     1578672861"}, 
{"id": 42363,"ncpdp": "3807685","pharmacy_name": "CAVES PHARMACY","address1": "143 REDWOOD HWY","address2": "","city": "CAVE JUNCTION","state": "OR","zip": "97523","zip+4": "0000","phone": "5415924560","NPI": "     1982794038"}, 
{"id": 42364,"ncpdp": "3807700","pharmacy_name": "FRED MEYER PHARMACY #701393","address1": "19200 SW MARTINAZZI AVENUE","address2": "","city": "TUALATIN","state": "OR","zip": "97062","zip+4": "0000","phone": "5036914233","NPI": "     1831132042"}, 
{"id": 42365,"ncpdp": "3807724","pharmacy_name": "BIMART PHARMACY #618","address1": "2075 SE TUALATIN VALLEY HWY","address2": "","city": "HILLSBORO","state": "OR","zip": "97123","zip+4": "5058","phone": "5036403777","NPI": "     1215954144"}, 
{"id": 42366,"ncpdp": "3807774","pharmacy_name": "FRED MEYER #701372","address1": "1215 W 6TH STREET","address2": "","city": "THE DALLES","state": "OR","zip": "97058","zip+4": "0000","phone": "5412961748","NPI": "     1396771507"}, 
{"id": 42367,"ncpdp": "3807801","pharmacy_name": "SAFEWAY #0415","address1": "4101 LOGAN RD","address2": "","city": "LINCOLN CITY","state": "OR","zip": "97367","zip+4": "0000","phone": "5419942500","NPI": "     1154350189"}, 
{"id": 42368,"ncpdp": "3807887","pharmacy_name": "BIMART PHARMACY #627","address1": "5744 MAIN ST","address2": "","city": "SPRINGFIELD","state": "OR","zip": "97478","zip+4": "6964","phone": "5416877643","NPI": "     1366475626"}, 
{"id": 42369,"ncpdp": "3807899","pharmacy_name": "SAFEWAY #1665","address1": "1705 S HIGHWAY 97","address2": "","city": "REDMOND","state": "OR","zip": "97756","zip+4": "0000","phone": "5415044166","NPI": "     1063441095"}, 
{"id": 42370,"ncpdp": "3807902","pharmacy_name": "MEDICAL OFFICE BUILDING PHCY","address1": "9155 SW BARNES RD","address2": "","city": "PORTLAND","state": "OR","zip": "97225","zip+4": "6625","phone": "5032162630","NPI": "     1225190408"}, 
{"id": 42371,"ncpdp": "3807952","pharmacy_name": "FRED MEYER PHARMACY #701242","address1": "1839 MOLALLA AVENUE","address2": "","city": "OREGON CITY","state": "OR","zip": "97045","zip+4": "0000","phone": "5036564318","NPI": "     1205862414"}, 
{"id": 42372,"ncpdp": "3808043","pharmacy_name": "RITE AID PHARMACY #05333","address1": "785 SOUTH COLUMBIA RIVER HWY","address2": "","city": "ST HELENS","state": "OR","zip": "97051","zip+4": "2996","phone": "5033976787","NPI": "     1528080439"}, 
{"id": 42373,"ncpdp": "3808079","pharmacy_name": "FRED MEYER PHARMACY #701060","address1": "2200 BASELINE ROAD","address2": "","city": "CORNELIUS","state": "OR","zip": "97113","zip+4": "0000","phone": "5033593103","NPI": "     1194751826"}, 
{"id": 42374,"ncpdp": "3808081","pharmacy_name": "FRED MEYER PHARMACY #701195","address1": "2424 CRATER LAKE HWY","address2": "","city": "MEDFORD","state": "OR","zip": "97504","zip+4": "0000","phone": "5417794153","NPI": "     1003842733"}, 
{"id": 42375,"ncpdp": "3808132","pharmacy_name": "BIMART PHARMACY #629","address1": "17108 SE POWELL BLVD","address2": "","city": "PORTLAND","state": "OR","zip": "97236","zip+4": "1753","phone": "5036675377","NPI": "     1992738256"}, 
{"id": 42376,"ncpdp": "3808144","pharmacy_name": "RITE AID PHARMACY #05380","address1": "1430 NORTHWEST GARDEN VALLEY R","address2": "ROSEBURG VALLEY MALL","city": "ROSEBURG","state": "OR","zip": "97470","zip+4": "1766","phone": "5416731750","NPI": "     1487763777"}, 
{"id": 42377,"ncpdp": "3808156","pharmacy_name": "BIMART PHARMACY #630","address1": "2800 NE HOGAN DR","address2": "","city": "GRESHAM","state": "OR","zip": "97030","zip+4": "3100","phone": "5036613356","NPI": "     1801829163"}, 
{"id": 42378,"ncpdp": "3808194","pharmacy_name": "SAFEWAY #0412","address1": "1455 EDGEWATER NW","address2": "","city": "SALEM","state": "OR","zip": "97304","zip+4": "0000","phone": "5033652174","NPI": "     1972532901"}, 
{"id": 42379,"ncpdp": "3808221","pharmacy_name": "SAFEWAY #4381","address1": "1205 CAMPBELL ST","address2": "","city": "BAKER CITY","state": "OR","zip": "97814","zip+4": "0000","phone": "5415236743","NPI": "     1912943770"}, 
{"id": 42380,"ncpdp": "3808283","pharmacy_name": "CAMPUS DRUG","address1": "2218 SHALLOCK AVE","address2": "","city": "KLAMATH FALLS","state": "OR","zip": "97601","zip+4": "0000","phone": "5418831147","NPI": "     1104930833"}, 
{"id": 42381,"ncpdp": "3808295","pharmacy_name": "SAVON PHARMACY #559","address1": "8155 SW HALL","address2": "","city": "BEAVERTON","state": "OR","zip": "97005","zip+4": "0000","phone": "5036433437","NPI": "     1689620205"}, 
{"id": 42382,"ncpdp": "3808308","pharmacy_name": "FRED MEYER PHARMACY #701417","address1": "3333 WEST 11TH AVENUE","address2": "","city": "EUGENE","state": "OR","zip": "97402","zip+4": "0000","phone": "5413459477","NPI": "     1114953320"}, 
{"id": 42383,"ncpdp": "3808322","pharmacy_name": "GODFREYS GARIBALDI PHARMACY","address1": "510 GARIBALDI AVE","address2": "","city": "GARIBALDI","state": "OR","zip": "97118","zip+4": "9999","phone": "5033223456","NPI": "     1174669733"}, 
{"id": 42384,"ncpdp": "3808384","pharmacy_name": "BIMART PHARMACY #632","address1": "5975 SW 185TH AVE","address2": "","city": "ALOHA","state": "OR","zip": "97007","zip+4": "4553","phone": "5036496562","NPI": "     1710910070"}, 
{"id": 42385,"ncpdp": "3808411","pharmacy_name": "SAFEWAY #2723","address1": "1815 4TH STREET","address2": "","city": "TILLAMOOK","state": "OR","zip": "97141","zip+4": "0000","phone": "5038425934","NPI": "     1023023710"}, 
{"id": 42386,"ncpdp": "3808435","pharmacy_name": "RED CROSS UNITED DRUG INC","address1": "1123 ADAMS AVE","address2": "","city": "LA GRANDE","state": "OR","zip": "97850","zip+4": "2605","phone": "5419635741","NPI": "     1881706893"}, 
{"id": 42387,"ncpdp": "3808447","pharmacy_name": "SAFEWAY #0363","address1": "700 HIGHWAY 101","address2": "","city": "FLORENCE","state": "OR","zip": "97439","zip+4": "0000","phone": "5419021905","NPI": "     1568491595"}, 
{"id": 42388,"ncpdp": "3808459","pharmacy_name": "PHARMACY EXPRESS #17","address1": "909 S MAIN ST","address2": "","city": "MYRTLE CREEK","state": "OR","zip": "97457","zip+4": "0000","phone": "5418636383","NPI": "     1275529257"}, 
{"id": 42389,"ncpdp": "3808497","pharmacy_name": "FRED MEYER PHARMACY #701050","address1": "1020 S FIRST AVENUE","address2": "","city": "COOS BAY","state": "OR","zip": "97420","zip+4": "0000","phone": "5412694033","NPI": "     1023044237"}, 
{"id": 42390,"ncpdp": "3808524","pharmacy_name": "RITE AID PHARMACY #05387","address1": "1642 WILLIAMS HIGHWAY","address2": "WILLIAMS HIGHWAY PLAZA","city": "GRANTS PASS","state": "OR","zip": "97527","zip+4": "5660","phone": "5414796698","NPI": "     1295844587"}, 
{"id": 42391,"ncpdp": "3808548","pharmacy_name": "MALHEUR DRUG INC #2","address1": "424 MAIN ST","address2": "","city": "NYSSA","state": "OR","zip": "97913","zip+4": "3897","phone": "5413722222","NPI": "     1558359372"}, 
{"id": 42392,"ncpdp": "3808550","pharmacy_name": "SAVON PHARMACY #560","address1": "55 DIVISION AVE","address2": "","city": "EUGENE","state": "OR","zip": "97404","zip+4": "0000","phone": "5416893965","NPI": "     1720034721"}, 
{"id": 42393,"ncpdp": "3808574","pharmacy_name": "BIMART PHARMACY #633","address1": "2155 LANCASTER DRIVE NE","address2": "","city": "SALEM","state": "OR","zip": "97305","zip+4": "1228","phone": "5035888173","NPI": "     1629001987"}, 
{"id": 42394,"ncpdp": "3808586","pharmacy_name": "MILL CITY PHARMACY","address1": "218 SW BROADWAY","address2": "","city": "MILL CITY","state": "OR","zip": "97360","zip+4": "0000","phone": "5038972331","NPI": "     1053456392"}, 
{"id": 42395,"ncpdp": "3808613","pharmacy_name": "FRED MEYER PHARMACY #701281","address1": "929 NW GARDEN VALLEY BLVD","address2": "","city": "ROSEBURG","state": "OR","zip": "97471","zip+4": "6508","phone": "5419573058","NPI": "     1033283569"}, 
{"id": 42396,"ncpdp": "3808637","pharmacy_name": "RITE AID PHARMACY #05362","address1": "4500 COMMERCIAL STREET SOUTHEA","address2": "","city": "SALEM","state": "OR","zip": "97302","zip+4": "3918","phone": "5035882352","NPI": "     1104935493"}, 
{"id": 42397,"ncpdp": "3808675","pharmacy_name": "SAFEWAY #4469","address1": "246 WEST MONROE","address2": "","city": "BURNS","state": "OR","zip": "97720","zip+4": "0000","phone": "5415738580","NPI": "     1477582401"}, 
{"id": 42398,"ncpdp": "3808699","pharmacy_name": "CENTER PHARMACY","address1": "502 VILLA RD","address2": "","city": "NEWBERG","state": "OR","zip": "97132","zip+4": "0000","phone": "5035380147","NPI": "     1760627251"}, 
{"id": 42399,"ncpdp": "3808702","pharmacy_name": "RITE AID PHARMACY #05399","address1": "105 SOUTHWEST SECOND AVENUE","address2": "","city": "MILTON FREEWATER","state": "OR","zip": "97862","zip+4": "1373","phone": "5419388778","NPI": "     1013026301"}, 
{"id": 42400,"ncpdp": "3808714","pharmacy_name": "UMPQUA DRUG INC","address1": "1941 WINCHESTER","address2": "","city": "REEDSPORT","state": "OR","zip": "97467","zip+4": "0000","phone": "5412712139","NPI": "     1205962974"}, 
{"id": 42401,"ncpdp": "3808738","pharmacy_name": "SAFEWAY #1070","address1": "1001 SW HIGHLAND DRIVE","address2": "","city": "GRESHAM","state": "OR","zip": "97030","zip+4": "0000","phone": "5036679305","NPI": "     1386673317"}, 
{"id": 42402,"ncpdp": "3808790","pharmacy_name": "RITE AID PHARMACY #05368","address1": "2521 SOUTH SIXTH STREET","address2": "178 WEST ELLENDALE AVENUE","city": "DALLAS","state": "OR","zip": "97338","zip+4": "1408","phone": "5036238334","NPI": "     1942319223"}, 
{"id": 42403,"ncpdp": "3808815","pharmacy_name": "PROVIDENCE PLAZA PHARMACY","address1": "5050 NE HOYT","address2": "STE 142","city": "PORTLAND","state": "OR","zip": "97213","zip+4": "2996","phone": "5032156296","NPI": "     1235243668"}, 
{"id": 42404,"ncpdp": "3808865","pharmacy_name": "SAFEWAY #0371","address1": "601 WEST NORTH","address2": "","city": "ENTERPRISE","state": "OR","zip": "97828","zip+4": "0000","phone": "5414263535","NPI": "     1194754127"}, 
{"id": 42405,"ncpdp": "3808877","pharmacy_name": "BANKS PHARMACY","address1": "660 S MAIN STREET","address2": "","city": "BANKS","state": "OR","zip": "97106","zip+4": "0000","phone": "5033245780","NPI": "     1790842979"}, 
{"id": 42406,"ncpdp": "3808916","pharmacy_name": "SAFEWAY #1827","address1": "2111 ADAMS AVE","address2": "","city": "LA GRANDE","state": "OR","zip": "97850","zip+4": "0000","phone": "5416632706","NPI": "     1003845033"}, 
{"id": 42407,"ncpdp": "3808928","pharmacy_name": "SAFEWAY #1642","address1": "201 SW 20TH AVE","address2": "","city": "PENDLETON","state": "OR","zip": "97801","zip+4": "0000","phone": "5412784285","NPI": "     1235175001"}, 
{"id": 42408,"ncpdp": "3808930","pharmacy_name": "SAFEWAY #1523","address1": "4515 SE WOODSTOCK","address2": "","city": "PORTLAND","state": "OR","zip": "97206","zip+4": "0000","phone": "5037718180","NPI": "     1821027855"}, 
{"id": 42409,"ncpdp": "3808978","pharmacy_name": "SAFEWAY #1047","address1": "17779 SW LOWER BOONES FERRY","address2": "","city": "LAKE OSWEGO","state": "OR","zip": "97035","zip+4": "0000","phone": "5036752509","NPI": "     1144266917"}, 
{"id": 42410,"ncpdp": "3808980","pharmacy_name": "SAFEWAY #0382","address1": "3527 SE 122ND","address2": "","city": "PORTLAND","state": "OR","zip": "97236","zip+4": "0000","phone": "5037606688","NPI": "     1730118761"}, 
{"id": 42411,"ncpdp": "3808992","pharmacy_name": "SAFEWAY #0782","address1": "37601 HWY 26","address2": "","city": "SANDY","state": "OR","zip": "97055","zip+4": "0000","phone": "5036682336","NPI": "     1649209677"}, 
{"id": 42412,"ncpdp": "3809021","pharmacy_name": "COSTCO PHARMACY #2","address1": "4849 NE 138TH","address2": "","city": "PORTLAND","state": "OR","zip": "97230","zip+4": "0000","phone": "5032573935","NPI": "     1306956933"}, 
{"id": 42413,"ncpdp": "3809057","pharmacy_name": "FRED MEYER PHARMACY #701227","address1": "150 NE 20TH","address2": "","city": "NEWPORT","state": "OR","zip": "97365","zip+4": "0000","phone": "5412654625","NPI": "     1710922109"}, 
{"id": 42414,"ncpdp": "3809071","pharmacy_name": "RITE AID PHARMACY #05376","address1": "16261 SOUTH HIGHWAY 101","address2": "SOUTH COAST CENTER","city": "HARBOR","state": "OR","zip": "97415","zip+4": "9484","phone": "5414693121","NPI": "     1831208123"}, 
{"id": 42415,"ncpdp": "3809083","pharmacy_name": "SAFEWAY #0386","address1": "1755 IVY ST","address2": "","city": "JUNCTION CITY","state": "OR","zip": "97448","zip+4": "0000","phone": "5419984526","NPI": "     1558390583"}, 
{"id": 42416,"ncpdp": "3809108","pharmacy_name": "SAFEWAY #4513","address1": "350 E 40TH","address2": "","city": "EUGENE","state": "OR","zip": "97405","zip+4": "0000","phone": "5414342185","NPI": "     1467481499"}, 
{"id": 42417,"ncpdp": "3809110","pharmacy_name": "SAFEWAY #1451","address1": "221 NE 122ND","address2": "","city": "PORTLAND","state": "OR","zip": "97230","zip+4": "0000","phone": "5032612559","NPI": "     1376572305"}, 
{"id": 42418,"ncpdp": "3809134","pharmacy_name": "SAFEWAY #4510","address1": "6745 SW BEAVERTON HILLSDALE HW","address2": "","city": "PORTLAND","state": "OR","zip": "97225","zip+4": "0000","phone": "5032967226","NPI": "     1285663211"}, 
{"id": 42419,"ncpdp": "3809158","pharmacy_name": "BIMART PHARMACY #634","address1": "2900 HAWORTH AVE","address2": "","city": "NEWBERG","state": "OR","zip": "97132","zip+4": "2000","phone": "5035380691","NPI": "     1538192893"}, 
{"id": 42420,"ncpdp": "3809160","pharmacy_name": "BIMART PHARMACY #635","address1": "3225 PACIFIC AVE","address2": "","city": "FOREST GROVE","state": "OR","zip": "97116","zip+4": "1912","phone": "5033572034","NPI": "     1447283700"}, 
{"id": 42421,"ncpdp": "3809172","pharmacy_name": "RITE AID PHARMACY #05359","address1": "11930 SE DIVISION STREET","address2": "11930 SE DIVISION STREET","city": "PORTLAND","state": "OR","zip": "97266","zip+4": "1099","phone": "5037616640","NPI": "     1740399039"}, 
{"id": 42422,"ncpdp": "3809209","pharmacy_name": "SAFEWAY #2448","address1": "1030 SW JEFFERSON","address2": "","city": "PORTLAND","state": "OR","zip": "97201","zip+4": "0000","phone": "5032051860","NPI": "     1093744021"}, 
{"id": 42423,"ncpdp": "3809211","pharmacy_name": "SAFEWAY #0298","address1": "2800 SE HAWTHORNE AVE","address2": "","city": "PORTLAND","state": "OR","zip": "97214","zip+4": "0000","phone": "5032323538","NPI": "     1902835937"}, 
{"id": 42424,"ncpdp": "3809223","pharmacy_name": "SAFEWAY #0420","address1": "1500 COBURG RD","address2": "","city": "EUGENE","state": "OR","zip": "97401","zip+4": "0000","phone": "5416858880","NPI": "     1811926843"}, 
{"id": 42425,"ncpdp": "3809261","pharmacy_name": "SAFEWAY #0311","address1": "5415 MAIN ST","address2": "","city": "SPRINGFIELD","state": "OR","zip": "97477","zip+4": "0000","phone": "5417363418","NPI": "     1720017759"}, 
{"id": 42426,"ncpdp": "3809273","pharmacy_name": "SAFEWAY #1960","address1": "80 NE CEDAR STREET","address2": "","city": "MADRAS","state": "OR","zip": "97741","zip+4": "0000","phone": "5413250466","NPI": "     1639108665"}, 
{"id": 42427,"ncpdp": "3809297","pharmacy_name": "SAFEWAY #4387","address1": "95 82ND DR","address2": "","city": "GLADSTONE","state": "OR","zip": "97027","zip+4": "0000","phone": "5037232685","NPI": "     1548299571"}, 
{"id": 42428,"ncpdp": "3809300","pharmacy_name": "SAFEWAY #0521","address1": "20151 SE HWY 212","address2": "","city": "BORING","state": "OR","zip": "97009","zip+4": "0000","phone": "5036587005","NPI": "     1457380487"}, 
{"id": 42429,"ncpdp": "3809312","pharmacy_name": "SAVON PHARMACY #564","address1": "451 NE 181ST AVE","address2": "","city": "PORTLAND","state": "OR","zip": "97230","zip+4": "0000","phone": "5036679878","NPI": "     1639125636"}, 
{"id": 42430,"ncpdp": "3809362","pharmacy_name": "SAFEWAY #0514","address1": "642 E THIRD","address2": "","city": "BEND","state": "OR","zip": "97701","zip+4": "0000","phone": "5413126485","NPI": "     1366471393"}, 
{"id": 42431,"ncpdp": "3809374","pharmacy_name": "SAFEWAY #4395","address1": "211 NORTH 8TH","address2": "","city": "KLAMATH FALLS","state": "OR","zip": "97601","zip+4": "0000","phone": "5412735506","NPI": "     1275562209"}, 
{"id": 42432,"ncpdp": "3809386","pharmacy_name": "SAFEWAY #1766","address1": "2740 S 6TH STREET","address2": "","city": "KLAMATH FALLS","state": "OR","zip": "97603","zip+4": "0000","phone": "5412733515","NPI": "     1184653115"}, 
{"id": 42433,"ncpdp": "3809413","pharmacy_name": "RITE AID PHARMACY #05364","address1": "5452 RIVER ROAD NORTH","address2": "5452 RIVER RD N","city": "KEIZER","state": "OR","zip": "97303","zip+4": "4429","phone": "5033938950","NPI": "     1508872813"}, 
{"id": 42434,"ncpdp": "3809425","pharmacy_name": "FRED MEYER PHARMACY #701165","address1": "2655 SHASTA WAY","address2": "","city": "KLAMATH FALLS","state": "OR","zip": "97603","zip+4": "0000","phone": "5418841780","NPI": "     1629013016"}, 
{"id": 42435,"ncpdp": "3809449","pharmacy_name": "RITE AID PHARMACY #05373","address1": "1560 COBURG ROAD","address2": "","city": "EUGENE","state": "OR","zip": "97401","zip+4": "4802","phone": "5414842681","NPI": "     1073535985"}, 
{"id": 42436,"ncpdp": "3809463","pharmacy_name": "BIMART PHARMACY #637","address1": "2510 ADAMS AVE","address2": "","city": "LAGRANDE","state": "OR","zip": "97850","zip+4": "3467","phone": "5419639515","NPI": "     1356374615"}, 
{"id": 42437,"ncpdp": "3809475","pharmacy_name": "BIMART PHARMACY #638","address1": "4157 N HWY 101 NUMBER 104","address2": "","city": "LINCOLN CITY","state": "OR","zip": "97367","zip+4": "5046","phone": "5419946284","NPI": "     1265465520"}, 
{"id": 42438,"ncpdp": "3809487","pharmacy_name": "SAVON PHARMACY #507","address1": "1675 W 18TH AVE","address2": "","city": "EUGENE","state": "OR","zip": "97402","zip+4": "0000","phone": "5414850427","NPI": "     1548216542"}, 
{"id": 42439,"ncpdp": "3809502","pharmacy_name": "RITE AID PHARMACY #05400","address1": "1430 WESTPARK PLAZA","address2": "","city": "ONTARIO","state": "OR","zip": "97914","zip+4": "2000","phone": "5418893390","NPI": "     1659480945"}, 
{"id": 42440,"ncpdp": "3809514","pharmacy_name": "SAFEWAY #0525","address1": "1003 MEDFORD SHOPPING CTR","address2": "","city": "MEDFORD","state": "OR","zip": "97504","zip+4": "0000","phone": "5416083686","NPI": "     1992734925"}, 
{"id": 42441,"ncpdp": "3809540","pharmacy_name": "RITE AID PHARMACY #05391","address1": "700 SE 3RD STREET","address2": "","city": "BEND","state": "OR","zip": "97702","zip+4": "1796","phone": "5413899713","NPI": "     1477662765"}, 
{"id": 42442,"ncpdp": "3809552","pharmacy_name": "COSTCO PHARMACY #111","address1": "7855 SW DARTMOUTH STREET","address2": "","city": "TIGARD","state": "OR","zip": "97223","zip+4": "0000","phone": "5036390722","NPI": "     1851401483"}, 
{"id": 42443,"ncpdp": "3809564","pharmacy_name": "SAFEWAY #0290","address1": "115 EAST 7TH","address2": "","city": "GRANTS PASS","state": "OR","zip": "97526","zip+4": "0000","phone": "5419567546","NPI": "     1801825831"}, 
{"id": 42444,"ncpdp": "3809603","pharmacy_name": "SAFEWAY #4333","address1": "450 SW 3RD","address2": "","city": "CORVALLIS","state": "OR","zip": "97330","zip+4": "0000","phone": "5417500166","NPI": "     1710916747"}, 
{"id": 42445,"ncpdp": "3809615","pharmacy_name": "SAFEWAY #1489","address1": "520 MOUNT HOOD","address2": "","city": "THE DALLES","state": "OR","zip": "97058","zip+4": "0000","phone": "5412989634","NPI": "     1629007653"}, 
{"id": 42446,"ncpdp": "3809627","pharmacy_name": "BIMART PHARMACY #640","address1": "13500 SW PACIFIC HWY NUMBER 70","address2": "","city": "TIGARD","state": "OR","zip": "97223","zip+4": "4803","phone": "5036240713","NPI": "     1174556435"}, 
{"id": 42447,"ncpdp": "3809639","pharmacy_name": "OAK TREE PHARMACY","address1": "2940 COMMERCIAL ST SE","address2": "","city": "SALEM","state": "OR","zip": "97302","zip+4": "0000","phone": "5035852877","NPI": "     1154336840"}, 
{"id": 42448,"ncpdp": "3809641","pharmacy_name": "SAFEWAY #0430","address1": "1455 NE DIVISION","address2": "","city": "GRESHAM","state": "OR","zip": "97030","zip+4": "0000","phone": "5034927279","NPI": "     1538198569"}, 
{"id": 42449,"ncpdp": "3809653","pharmacy_name": "FRED MEYER PHARMACY #701126","address1": "1101 GRANTS PASS PARKWAY","address2": "","city": "GRANTS PASS","state": "OR","zip": "97526","zip+4": "0000","phone": "5414747234","NPI": "     1841236486"}, 
{"id": 42450,"ncpdp": "3809689","pharmacy_name": "SAFEWAY #1558","address1": "1983 SOUTH MAIN STREET","address2": "","city": "LEBANON","state": "OR","zip": "97355","zip+4": "0000","phone": "5412595706","NPI": "     1447289475"}, 
{"id": 42451,"ncpdp": "3809691","pharmacy_name": "SAFEWAY #0509","address1": "5920 NE MARTIN LUTHER KING BLV","address2": "","city": "PORTLAND","state": "OR","zip": "97211","zip+4": "0000","phone": "5032883272","NPI": "     1356370381"}, 
{"id": 42452,"ncpdp": "3809704","pharmacy_name": "SAFEWAY #1094","address1": "1891 PIONEER PKWY E","address2": "","city": "SPRINGFIELD","state": "OR","zip": "97477","zip+4": "0000","phone": "5417476627","NPI": "     1265461297"}, 
{"id": 42453,"ncpdp": "3809716","pharmacy_name": "SAFEWAY #4404","address1": "138 W ELLENDALE AVENUE","address2": "","city": "DALLAS","state": "OR","zip": "97338","zip+4": "0000","phone": "5038316006","NPI": "     1053357822"}, 
{"id": 42454,"ncpdp": "3809728","pharmacy_name": "SAFEWAY #0424","address1": "795 COLUMBIA RIVER HWY","address2": "","city": "ST HELENS","state": "OR","zip": "97051","zip+4": "0000","phone": "5033970662","NPI": "     1871522813"}, 
{"id": 42455,"ncpdp": "3809742","pharmacy_name": "RITE AID PHARMACY #05357","address1": "514 NE 181ST AVENUE","address2": "","city": "PORTLAND","state": "OR","zip": "97230","zip+4": "6704","phone": "5036616991","NPI": "     1417963729"}, 
{"id": 42456,"ncpdp": "3809754","pharmacy_name": "COSTCO PHARMACY #9","address1": "15901 SW JENKINS","address2": "","city": "ALOHA","state": "OR","zip": "97006","zip+4": "0000","phone": "5036265754","NPI": "     1780794313"}, 
{"id": 42457,"ncpdp": "3809766","pharmacy_name": "SAFEWAY #1666","address1": "1539 NE STEPHANS","address2": "","city": "ROSEBURG","state": "OR","zip": "97470","zip+4": "0000","phone": "5419572546","NPI": "     1780613729"}, 
{"id": 42458,"ncpdp": "3809778","pharmacy_name": "SAFEWAY #1976","address1": "1550 NORTH PACIFIC HWY","address2": "","city": "WOODBURN","state": "OR","zip": "97071","zip+4": "0000","phone": "5039822864","NPI": "     1598794539"}, 
{"id": 42459,"ncpdp": "3809792","pharmacy_name": "SAFEWAY #0444","address1": "990 HWY 395 S","address2": "","city": "HERMISTON","state": "OR","zip": "97838","zip+4": "0000","phone": "5415641285","NPI": "     1407885445"}, 
{"id": 42460,"ncpdp": "3809805","pharmacy_name": "SAFEWAY #0512","address1": "8145 SW BARBUR BLVD","address2": "","city": "PORTLAND","state": "OR","zip": "97219","zip+4": "0000","phone": "5038924975","NPI": "     1316976350"}, 
{"id": 42461,"ncpdp": "3809817","pharmacy_name": "SAFEWAY #1951","address1": "8330 N IVANHOE ST","address2": "","city": "PORTLAND","state": "OR","zip": "97203","zip+4": "0000","phone": "5032051600","NPI": "     1225067267"}, 
{"id": 42462,"ncpdp": "3809855","pharmacy_name": "SAFEWAY #1203","address1": "2525 SE TV HIGHWAY","address2": "","city": "HILLSBORO","state": "OR","zip": "97123","zip+4": "0000","phone": "5036810262","NPI": "     1134158173"}, 
{"id": 42463,"ncpdp": "3809906","pharmacy_name": "FRED MEYER PHARMACY #701218","address1": "695 HIGHWAY 101","address2": "","city": "WARRENTON","state": "OR","zip": "97146","zip+4": "0000","phone": "5038613033","NPI": "     1477599017"}, 
{"id": 42464,"ncpdp": "3809920","pharmacy_name": "RITE AID PHARMACY #05384","address1": "981 MEDFORD CENTER","address2": "","city": "MEDFORD","state": "OR","zip": "97504","zip+4": "6748","phone": "5417797455","NPI": "     1386753671"}, 
{"id": 42465,"ncpdp": "3809932","pharmacy_name": "RITE AID PHARMACY #05338","address1": "2425 SOUTHEAST TUALATIN VALLEY","address2": "","city": "HILLSBORO","state": "OR","zip": "97123","zip+4": "7977","phone": "5036931009","NPI": "     1437171345"}, 
{"id": 42466,"ncpdp": "3809944","pharmacy_name": "BIMART PHARMACY #641","address1": "1727 ODEM MEDO ROAD","address2": "","city": "REDMOND","state": "OR","zip": "97756","zip+4": "9573","phone": "5419237223","NPI": "     1083647341"}, 
{"id": 42467,"ncpdp": "3809956","pharmacy_name": "SHOPKO PHARMACY #93","address1": "60 NE BEND RIVER MALL DR","address2": "","city": "BEND","state": "OR","zip": "97701","zip+4": "7528","phone": "5413856076","NPI": "     1104878628"}, 
{"id": 42468,"ncpdp": "3809970","pharmacy_name": "SHOPKO PHARMACY #98","address1": "2815 CHAD DR","address2": "","city": "EUGENE","state": "OR","zip": "97408","zip+4": "7335","phone": "5416860094","NPI": "     1558313908"}, 
{"id": 42469,"ncpdp": "3810000","pharmacy_name": "RITE AID PHARMACY #05321","address1": "20225 SW TUALATIN VALLEY HIGHW","address2": "","city": "BEAVERTON","state": "OR","zip": "97006","zip+4": "2398","phone": "5036491576","NPI": "     1538180450"}, 
{"id": 42470,"ncpdp": "3810024","pharmacy_name": "RITE AID PHARMACY #05355","address1": "16200 SW PACIFIC HWY","address2": "16200 SW PACIFIC HWY E","city": "TIGARD","state": "OR","zip": "97224","zip+4": "3471","phone": "5036399092","NPI": "     1215046503"}, 
{"id": 42471,"ncpdp": "3810036","pharmacy_name": "BIMART PHARMACY #643","address1": "1600 MT HOOD AVE","address2": "","city": "WOODBURN","state": "OR","zip": "97071","zip+4": "9071","phone": "5039812106","NPI": "     1891728150"}, 
{"id": 42472,"ncpdp": "3810048","pharmacy_name": "FRED MEYER PHARMACY #701600","address1": "3030 NE WEILDER STREET","address2": "","city": "PORTLAND","state": "OR","zip": "97232","zip+4": "0000","phone": "5032801333","NPI": "     1386680924"}, 
{"id": 42473,"ncpdp": "3810050","pharmacy_name": "RITE AID PHARMACY #05352","address1": "10860 S.E. OAK STREET","address2": "10860 SE OAK ST","city": "MILWAUKIE","state": "OR","zip": "97222","zip+4": "6694","phone": "5036528058","NPI": "     1326054636"}, 
{"id": 42474,"ncpdp": "3810062","pharmacy_name": "COSTCO PHARMACY #17","address1": "2828 CHAD AVENUE","address2": "","city": "EUGENE","state": "OR","zip": "97408","zip+4": "0000","phone": "5413425701","NPI": "     1679683205"}, 
{"id": 42475,"ncpdp": "3810086","pharmacy_name": "TIFFANYS SUPER DRUG STORE #33","address1": "44 MICHIGAN AVE NE","address2": "","city": "BANDON","state": "OR","zip": "97411","zip+4": "9743","phone": "5413479457","NPI": "     1346346145"}, 
{"id": 42476,"ncpdp": "3810101","pharmacy_name": "SAFEWAY #1223","address1": "11919 N JANTZEN AVENUE","address2": "","city": "PORTLAND","state": "OR","zip": "97217","zip+4": "0000","phone": "5032477985","NPI": "     1952330995"}, 
{"id": 42477,"ncpdp": "3810125","pharmacy_name": "SAVON PHARMACY #568","address1": "3075 HILYARD ST","address2": "","city": "EUGENE","state": "OR","zip": "97405","zip+4": "0000","phone": "5416871749","NPI": "     1457307456"}, 
{"id": 42478,"ncpdp": "3810137","pharmacy_name": "SAVON PHARMACY #570","address1": "2000 MARCOLA RD","address2": "","city": "SPRINGFIELD","state": "OR","zip": "97477","zip+4": "0000","phone": "5417469424","NPI": "     1366498362"}, 
{"id": 42479,"ncpdp": "3810151","pharmacy_name": "RITE AID PHARMACY #05326","address1": "12002 SE SUNNYSIDE ROAD","address2": "12002 SE SUNNYSIDE ROAD","city": "CLACKAMAS","state": "OR","zip": "97015","zip+4": "8397","phone": "5036988446","NPI": "     1194834481"}, 
{"id": 42480,"ncpdp": "3810226","pharmacy_name": "SAVON PHARMACY #571","address1": "19007 S BEAVERCREEK RD","address2": "","city": "OREGON CITY","state": "OR","zip": "97045","zip+4": "0000","phone": "5036573191","NPI": "     1275589277"}, 
{"id": 42481,"ncpdp": "3810238","pharmacy_name": "SAFEWAY #1269","address1": "1541 NE 181 STREET","address2": "","city": "PORTLAND","state": "OR","zip": "97230","zip+4": "0000","phone": "5036652565","NPI": "     1982635793"}, 
{"id": 42482,"ncpdp": "3810264","pharmacy_name": "RITE AID PHARMACY #05371","address1": "4041 NW LOGAN ROAD","address2": "4041 NW LOGAN RD","city": "LINCOLN CITY","state": "OR","zip": "97367","zip+4": "5054","phone": "5419946262","NPI": "     1235145541"}, 
{"id": 42483,"ncpdp": "3810288","pharmacy_name": "FRED MEYER PHARMACY #701482","address1": "15995 SW WALKER ROAD","address2": "","city": "BEAVERTON","state": "OR","zip": "97006","zip+4": "0000","phone": "5036905833","NPI": "     1538104922"}, 
{"id": 42484,"ncpdp": "3810303","pharmacy_name": "BIMART PHARMACY #645","address1": "3300 W 6TH AVE","address2": "","city": "THE DALLES","state": "OR","zip": "97058","zip+4": "4144","phone": "5412982055","NPI": "     1700819067"}, 
{"id": 42485,"ncpdp": "3810315","pharmacy_name": "RITE AID PHARMACY #05339","address1": "2021 NORTHWEST 185TH AVENUE","address2": "2021 NW 185TH AVENUE","city": "HILLSBORO","state": "OR","zip": "97124","zip+4": "7073","phone": "5036457704","NPI": "     1003925397"}, 
{"id": 42486,"ncpdp": "3810339","pharmacy_name": "SHADY COVE PHARMACY","address1": "21195 HWY 62","address2": "","city": "SHADY COVE","state": "OR","zip": "97539","zip+4": "0000","phone": "5418783151","NPI": "     1790830446"}, 
{"id": 42487,"ncpdp": "3810391","pharmacy_name": "FRED MEYER PHARMACY #701021","address1": "61535 S HWY 97","address2": "","city": "BEND","state": "OR","zip": "97702","zip+4": "0000","phone": "5413856658","NPI": "     1447295837"}, 
{"id": 42488,"ncpdp": "3810404","pharmacy_name": "SAVON PHARMACY #572","address1": "311 COBURG RD","address2": "","city": "EUGENE","state": "OR","zip": "97401","zip+4": "0000","phone": "5413427893","NPI": "     1184670184"}, 
{"id": 42489,"ncpdp": "3810416","pharmacy_name": "MEDICINE SHOPPE PHARMACY #1100","address1": "289 E ELLENDALE","address2": "STE 402","city": "DALLAS","state": "OR","zip": "97338","zip+4": "0000","phone": "5036235998","NPI": "     1457396731"}, 
{"id": 42490,"ncpdp": "3810430","pharmacy_name": "RITE AID PHARMACY #05393","address1": "1575 NORTHEAST 3RD STREET","address2": "OCHOCO PLAZA","city": "PRINEVILLE","state": "OR","zip": "97754","zip+4": "2907","phone": "5414472466","NPI": "     1912016205"}, 
{"id": 42491,"ncpdp": "3810442","pharmacy_name": "MEDICAP PHARMACY #8178","address1": "205 N PACIFIC HIGHWAY","address2": "","city": "TALENT","state": "OR","zip": "97540","zip+4": "0000","phone": "5415355843","NPI": "     1942374475"}, 
{"id": 42492,"ncpdp": "3810466","pharmacy_name": "RITE AID PHARMACY #05335","address1": "8235 SW WILSONVILLE ROAD","address2": "8235 SW WILSONVILLE ROAD","city": "WILSONVILLE","state": "OR","zip": "97070","zip+4": "7716","phone": "5036822701","NPI": "     1821107111"}, 
{"id": 42493,"ncpdp": "3810478","pharmacy_name": "FRED MEYER PHARMACY #701153","address1": "8955 SE 82ND AVENUE","address2": "","city": "HAPPY VALLEY","state": "OR","zip": "97086","zip+4": "3603","phone": "5037882033","NPI": "     1356386742"}, 
{"id": 42494,"ncpdp": "3810480","pharmacy_name": "TOWER DRUG AND GIFTS","address1": "1791 WASHBURN WAY","address2": "","city": "KLAMATH FALLS","state": "OR","zip": "97603","zip+4": "0000","phone": "5418841347","NPI": "     1073679783"}, 
{"id": 42495,"ncpdp": "3810492","pharmacy_name": "SAFEWAY #0508","address1": "401 A AVE","address2": "","city": "LAKE OSWEGO","state": "OR","zip": "97034","zip+4": "0000","phone": "5036754486","NPI": "     1649216250"}, 
{"id": 42496,"ncpdp": "3810505","pharmacy_name": "RITE AID PHARMACY #05329","address1": "90  B  AVENUE","address2": "","city": "LAKE OSWEGO","state": "OR","zip": "97034","zip+4": "3131","phone": "5036970990","NPI": "     1730298027"}, 
{"id": 42497,"ncpdp": "3810529","pharmacy_name": "RITE AID PHARMACY #05342","address1": "313 SOUTH ROOSEVELT DRIVE","address2": "","city": "SEASIDE","state": "OR","zip": "97138","zip+4": "6743","phone": "5037388422","NPI": "     1558470849"}, 
{"id": 42498,"ncpdp": "3810531","pharmacy_name": "RITE AID PHARMACY #05396","address1": "1217 CAMPBELL STREET","address2": "","city": "BAKER CITY","state": "OR","zip": "97814","zip+4": "3396","phone": "5415232138","NPI": "     1467561753"}, 
{"id": 42499,"ncpdp": "3810543","pharmacy_name": "RITE AID PHARMACY #05323","address1": "14625 SW ALLEN BOULEVARD","address2": "","city": "BEAVERTON","state": "OR","zip": "97007","zip+4": "3600","phone": "5036432724","NPI": "     1376652669"}, 
{"id": 42500,"ncpdp": "3810579","pharmacy_name": "RITE AID PHARMACY #05358","address1": "16401 SE DIVISION STREET","address2": "16401 SE DIVISION STREET","city": "PORTLAND","state": "OR","zip": "97236","zip+4": "1931","phone": "5037621491","NPI": "     1285743575"}, 
{"id": 42501,"ncpdp": "3810581","pharmacy_name": "RITE AID PHARMACY #05383","address1": "2130 MARCOLA ROAD","address2": "MOHAWK MARKETPLACE","city": "SPRINGFIELD","state": "OR","zip": "97477","zip+4": "2592","phone": "5417473362","NPI": "     1093824385"}, 
{"id": 42502,"ncpdp": "3810593","pharmacy_name": "SAFEWAY #1260","address1": "401 S ROOSEVELT","address2": "","city": "SEASIDE","state": "OR","zip": "97138","zip+4": "0000","phone": "5037384706","NPI": "     1861421802"}, 
{"id": 42503,"ncpdp": "3810606","pharmacy_name": "EVERGREEN PHARMACEUTICAL PORTL","address1": "11933 NE GLENN WIDING DR","address2": "","city": "PORTLAND","state": "OR","zip": "97220","zip+4": "0000","phone": "5032541647","NPI": "     1235240391"}, 
{"id": 42504,"ncpdp": "3810668","pharmacy_name": "SAVON PHARMACY #574","address1": "5755 MAIN ST","address2": "","city": "SPRINGFIELD","state": "OR","zip": "97478","zip+4": "0000","phone": "5417411525","NPI": "     1992751994"}, 
{"id": 42505,"ncpdp": "3810670","pharmacy_name": "COSTCO PHARMACY #65","address1": "3639 CRATER LAKE HIGHWAY","address2": "","city": "MEDFORD","state": "OR","zip": "97504","zip+4": "0000","phone": "5417342482","NPI": "     1396855920"}, 
{"id": 42506,"ncpdp": "3810682","pharmacy_name": "WAL-MART PHARMACY #101772","address1": "3600 WASHBURN WAY","address2": "","city": "KLAMATH FALLS","state": "OR","zip": "97603","zip+4": "0000","phone": "5418856968","NPI": "     1780601823"}, 
{"id": 42507,"ncpdp": "3810694","pharmacy_name": "WAL-MART PHARMACY #101775","address1": "3290 SOUTH SANTIAM HWY","address2": "","city": "LEBANON","state": "OR","zip": "97355","zip+4": "0000","phone": "5412587440","NPI": "     1598782633"}, 
{"id": 42508,"ncpdp": "3810707","pharmacy_name": "GOLD HILL PHARMACY","address1": "808 2ND AVE","address2": "","city": "GOLD HILL","state": "OR","zip": "97525","zip+4": "0000","phone": "5418551544","NPI": "     1336158385"}, 
{"id": 42509,"ncpdp": "3810721","pharmacy_name": "SHOPKO PHARMACY #111","address1": "1230 LANCASTER DR SE","address2": "","city": "SALEM","state": "OR","zip": "97317","zip+4": "5800","phone": "5033716830","NPI": "     1639121155"}, 
{"id": 42510,"ncpdp": "3810733","pharmacy_name": "SAFEWAY #0406","address1": "2836 PACIFIC AVE","address2": "","city": "FOREST GROVE","state": "OR","zip": "97116","zip+4": "0000","phone": "5033598706","NPI": "     1770512717"}, 
{"id": 42511,"ncpdp": "3810745","pharmacy_name": "SAFEWAY #1073","address1": "6194 SW MURRAY BLVD","address2": "","city": "BEAVERTON","state": "OR","zip": "97005","zip+4": "0000","phone": "5036728186","NPI": "     1689603623"}, 
{"id": 42512,"ncpdp": "3810769","pharmacy_name": "RITE AID PHARMACY #05385","address1": "2341 ASHLAND STREET","address2": "TOLMAN CREEK PLAZA","city": "ASHLAND","state": "OR","zip": "97520","zip+4": "1407","phone": "5414827409","NPI": "     1871509182"}, 
{"id": 42513,"ncpdp": "3810771","pharmacy_name": "COSTCO PHARMACY #68","address1": "1010 HAWTHORNE AVE","address2": "","city": "SALEM","state": "OR","zip": "97301","zip+4": "0000","phone": "5033718739","NPI": "     1205946837"}, 
{"id": 42514,"ncpdp": "3810783","pharmacy_name": "WAL-MART PHARMACY #101784","address1": "3025 LANCASTER DRIVE NE","address2": "","city": "SALEM","state": "OR","zip": "97305","zip+4": "0000","phone": "5033787720","NPI": "     1407873540"}, 
{"id": 42515,"ncpdp": "3810795","pharmacy_name": "ROGUE VALLEY MANOR PHARMACY","address1": "1200 MIRA MAR","address2": "","city": "MEDFORD","state": "OR","zip": "97504","zip+4": "0000","phone": "5418577361","NPI": "     1265572150"}, 
{"id": 42516,"ncpdp": "3810808","pharmacy_name": "WAL-MART PHARMACY #101817","address1": "1350 NORTH FIRST ST.","address2": "","city": "HERMISTON","state": "OR","zip": "97838","zip+4": "0000","phone": "5415675323","NPI": "     1316964455"}, 
{"id": 42517,"ncpdp": "3810822","pharmacy_name": "RITE AID PHARMACY #05345","address1": "622 SW ALDER STREET","address2": "","city": "PORTLAND","state": "OR","zip": "97205","zip+4": "3616","phone": "5032266791","NPI": "     1902915291"}, 
{"id": 42518,"ncpdp": "3810846","pharmacy_name": "CASCADE PHARMACY","address1": "7591A CRATER LAKE HWY","address2": "","city": "WHITE CITY","state": "OR","zip": "97503","zip+4": "0000","phone": "5418264414","NPI": "     1003921453"}, 
{"id": 42519,"ncpdp": "3810858","pharmacy_name": "DRUG MART PHARMACY","address1": "51600 HUNTINGTON RD","address2": "STE A","city": "LA PINE","state": "OR","zip": "97739","zip+4": "0000","phone": "5415361111","NPI": "     1366507782"}, 
{"id": 42520,"ncpdp": "3810860","pharmacy_name": "WAL-MART PHARMACY #101834","address1": "135 N.E. TERRY LANE","address2": "","city": "GRANTS PASS","state": "OR","zip": "97526","zip+4": "0000","phone": "5414712820","NPI": "     1225055361"}, 
{"id": 42521,"ncpdp": "3810884","pharmacy_name": "FRED MEYER PHARMACY #701220","address1": "3300 PORTLAND BLVD SUITE 100","address2": "","city": "NEWBERG","state": "OR","zip": "97132","zip+4": "0000","phone": "5035371383","NPI": "     1265477657"}, 
{"id": 42522,"ncpdp": "3810896","pharmacy_name": "BOWMANS HILLSDALE PHARMACY","address1": "6256 SW CAPITOL HWY","address2": "","city": "PORTLAND","state": "OR","zip": "97239","zip+4": "0000","phone": "5032447582","NPI": "     1528150513"}, 
{"id": 42523,"ncpdp": "3810911","pharmacy_name": "WAL-MART PHARMACY #101889","address1": "11619 ISLAND AVENUE","address2": "","city": "ISLAND CITY","state": "OR","zip": "97850","zip+4": "0000","phone": "5419635460","NPI": "     1134146277"}, 
{"id": 42524,"ncpdp": "3810923","pharmacy_name": "WAL-MART PHARMACY #101793","address1": "3002 STACY ALLISON WAY","address2": "","city": "WOODBURN","state": "OR","zip": "97071","zip+4": "0000","phone": "5039819625","NPI": "     1043237183"}, 
{"id": 42525,"ncpdp": "3810935","pharmacy_name": "WAL-MART PHARMACY #101843","address1": "2375 NORTH 99 WEST","address2": "","city": "MCMINNVILLE","state": "OR","zip": "97128","zip+4": "0000","phone": "5034346854","NPI": "     1114945805"}, 
{"id": 42526,"ncpdp": "3810947","pharmacy_name": "WAL-MART PHARMACY #101876","address1": "2700 WASCO AVE","address2": "","city": "HOOD RIVER","state": "OR","zip": "97031","zip+4": "0000","phone": "5413872333","NPI": "     1952328098"}, 
{"id": 42527,"ncpdp": "3810985","pharmacy_name": "RITE AID PHARMACY #05328","address1": "2049 WEST CASCADE AVENUE","address2": "2049 WEST CASCADE AVENUE","city": "HOOD RIVER","state": "OR","zip": "97031","zip+4": "1069","phone": "5413872428","NPI": "     1811006109"}, 
{"id": 42528,"ncpdp": "3811002","pharmacy_name": "WAL-MART PHARMACY #101880","address1": "2051 NEWMARK AVENUE","address2": "","city": "COOS BAY","state": "OR","zip": "97420","zip+4": "0000","phone": "5418885750","NPI": "     1861419905"}, 
{"id": 42529,"ncpdp": "3811014","pharmacy_name": "WAL-MART PHARMACY #101925","address1": "160 NW 25TH STREET","address2": "","city": "NEWPORT","state": "OR","zip": "97365","zip+4": "0000","phone": "5412656076","NPI": "     1770500811"}, 
{"id": 42530,"ncpdp": "3811026","pharmacy_name": "MOUNTAIN PARK PHARMACY","address1": "3 MONROE PKWY","address2": "SUITE O","city": "LAKE OSWEGO","state": "OR","zip": "97035","zip+4": "0000","phone": "5036361243","NPI": "     1669596508"}, 
{"id": 42531,"ncpdp": "3811040","pharmacy_name": "WAL-MART PHARMACY #101920","address1": "5250 COMMERCIAL ST SE","address2": "","city": "SALEM","state": "OR","zip": "97306","zip+4": "0000","phone": "5033781822","NPI": "     1689691727"}, 
{"id": 42532,"ncpdp": "3811088","pharmacy_name": "AINSWORTH PHARMACY","address1": "4027 N INTERSTATE AVE","address2": "","city": "PORTLAND","state": "OR","zip": "97227","zip+4": "0000","phone": "5032820787","NPI": "     1184733263"}, 
{"id": 42533,"ncpdp": "3811090","pharmacy_name": "WAL-MART PHARMACY #101951","address1": "1775 EAST IDAHO AVE.","address2": "","city": "ONTARIO","state": "OR","zip": "97914","zip+4": "0000","phone": "5418896040","NPI": "     1497772537"}, 
{"id": 42534,"ncpdp": "3811103","pharmacy_name": "MANAGED HEALTHCARE PHARMACY","address1": "65 GRIMES ST","address2": "","city": "EUGENE","state": "OR","zip": "97402","zip+4": "0000","phone": "5417441641","NPI": "     1225022841"}, 
{"id": 42535,"ncpdp": "3811139","pharmacy_name": "SAFEWAY #1447","address1": "6901 NE SANDY BLVD","address2": "","city": "PORTLAND","state": "OR","zip": "97213","zip+4": "0000","phone": "5032801212","NPI": "     1497784433"}, 
{"id": 42536,"ncpdp": "3811141","pharmacy_name": "OHSU CASEY EYE INSTITUTE PHARM","address1": "3375 SW TERWILLIGER BLVD","address2": "","city": "PORTLAND","state": "OR","zip": "97239","zip+4": "3098","phone": "5034943933","NPI": "     1922141415"}, 
{"id": 42537,"ncpdp": "3811153","pharmacy_name": "RITE AID PHARMACY #05378","address1": "3451 HWY 101","address2": "","city": "FLORENCE","state": "OR","zip": "97439","zip+4": "9619","phone": "5419972861","NPI": "     1720197015"}, 
{"id": 42538,"ncpdp": "3811165","pharmacy_name": "KLAMATH TRIBAL HEALTH PHARMACY","address1": "330 CHILOQUIN BLVD","address2": "","city": "CHILOQUIN","state": "OR","zip": "97624","zip+4": "0000","phone": "5417833551","NPI": "     1639290778"}, 
{"id": 42539,"ncpdp": "3811177","pharmacy_name": "SAFEWAY #0429","address1": "3380 LANCASTER DR NE","address2": "","city": "SALEM","state": "OR","zip": "97303","zip+4": "0000","phone": "5033916482","NPI": "     1306875349"}, 
{"id": 42540,"ncpdp": "3811204","pharmacy_name": "COSTCO PHARMACY #101","address1": "2500 NE HIGHWAY 20","address2": "","city": "BEND","state": "OR","zip": "97701","zip+4": "0000","phone": "5413832199","NPI": "     1881704401"}, 
{"id": 42541,"ncpdp": "3811242","pharmacy_name": "RITE AID PHARMACY #05325","address1": "891 SE FIRST AVENUE","address2": "","city": "CANBY","state": "OR","zip": "97013","zip+4": "3811","phone": "5032666381","NPI": "     1639288921"}, 
{"id": 42542,"ncpdp": "3811254","pharmacy_name": "SUBLIMITY PHARMACY #1898","address1": "102 MARTIN DR","address2": "STE B","city": "STAYTON","state": "OR","zip": "97383","zip+4": "0000","phone": "5037694344","NPI": "     1932120532"}, 
{"id": 42543,"ncpdp": "3811266","pharmacy_name": "WAL-MART PHARMACY #102029","address1": "3615 CRATER LAKE HWY","address2": "","city": "MEDFORD","state": "OR","zip": "97504","zip+4": "0000","phone": "5417737244","NPI": "     1063439115"}, 
{"id": 42544,"ncpdp": "3811278","pharmacy_name": "RITE AID PHARMACY #05353","address1": "12240 SW SCHOLLS FERRY ROAD","address2": "12240 SW SCHOLLS FERRY ROAD","city": "TIGARD","state": "OR","zip": "97223","zip+4": "3354","phone": "5035907346","NPI": "     1548379837"}, 
{"id": 42545,"ncpdp": "3811292","pharmacy_name": "SAVON PHARMACY #575","address1": "5850 NE PRESCOTT","address2": "","city": "PORTLAND","state": "OR","zip": "97218","zip+4": "0000","phone": "5032847268","NPI": "     1801842802"}, 
{"id": 42546,"ncpdp": "3811317","pharmacy_name": "WAL-MART PHARMACY #102069","address1": "300 WEST VALLEY VIEW","address2": "","city": "TALENT","state": "OR","zip": "97540","zip+4": "0000","phone": "5415359181","NPI": "     1972520021"}, 
{"id": 42547,"ncpdp": "3811329","pharmacy_name": "RITE AID PHARMACY #05350","address1": "4346 NE CULLY BOULEVARD","address2": "","city": "PORTLAND","state": "OR","zip": "97218","zip+4": "2206","phone": "5032880836","NPI": "     1366551657"}, 
{"id": 42548,"ncpdp": "3811379","pharmacy_name": "RITE AID PHARMACY #05372","address1": "333 WESTFIELD STREET","address2": "SILVERTON SHOPPING PLAZA","city": "SILVERTON","state": "OR","zip": "97381","zip+4": "1936","phone": "5038732460","NPI": "     1275642563"}, 
{"id": 42549,"ncpdp": "3811381","pharmacy_name": "RITE AID PHARMACY #05392","address1": "629 NORTH HIGHWAY 20","address2": "STEENS MOUNTAIN PLAZA","city": "HINES","state": "OR","zip": "97738","zip+4": "9403","phone": "5415731523","NPI": "     1184733479"}, 
{"id": 42550,"ncpdp": "3811406","pharmacy_name": "SAVON PHARMACY #577","address1": "5500 S 6TH ST","address2": "","city": "KLAMATH FALLS","state": "OR","zip": "97603","zip+4": "0000","phone": "5418828863","NPI": "     1710933718"}, 
{"id": 42551,"ncpdp": "3811432","pharmacy_name": "FRED MEYER PHARMACY #701196","address1": "1301 CENTER DRIVE","address2": "","city": "MEDFORD","state": "OR","zip": "97501","zip+4": "0000","phone": "5418574683","NPI": "     1174568562"}, 
{"id": 42552,"ncpdp": "3811456","pharmacy_name": "ROGUE VALLEY RX","address1": "2900 E BARNETT RD","address2": "STE 1","city": "MEDFORD","state": "OR","zip": "97504","zip+4": "0000","phone": "5417895850","NPI": "     1063458313"}, 
{"id": 42553,"ncpdp": "3811470","pharmacy_name": "NORTHEAST CLINIC PHCY","address1": "5329 NE MARTIN L KING JR BLVD","address2": "","city": "PORTLAND","state": "OR","zip": "97211","zip+4": "3298","phone": "5032483634","NPI": "     1528073319"}, 
{"id": 42554,"ncpdp": "3811507","pharmacy_name": "SAFEWAY #1458","address1": "1500 E MAIN","address2": "","city": "COTTAGE GROVE","state": "OR","zip": "97424","zip+4": "0000","phone": "5419427443","NPI": "     1215966254"}, 
{"id": 42555,"ncpdp": "3811519","pharmacy_name": "FRED MEYER PHARMACY #701030","address1": "325 FIFTH STREET","address2": "","city": "BROOKINGS","state": "OR","zip": "97415","zip+4": "0000","phone": "5414691643","NPI": "     1083659478"}, 
{"id": 42556,"ncpdp": "3811557","pharmacy_name": "SUTHERLIN DRUG","address1": "113 CENTRAL AVE E","address2": "","city": "SUTHERLIN","state": "OR","zip": "97479","zip+4": "9556","phone": "5414592712","NPI": "     1184779548"}, 
{"id": 42557,"ncpdp": "3811571","pharmacy_name": "N PORTLAND CLINIC PHCY","address1": "9000 N LOMBARD ST","address2": "","city": "PORTLAND","state": "OR","zip": "97203","zip+4": "0000","phone": "5032485308","NPI": "     1205841004"}, 
{"id": 42558,"ncpdp": "3811583","pharmacy_name": "WESTSIDE CLINIC PHCY","address1": "426 SW STARK","address2": "2ND FL","city": "PORTLAND","state": "OR","zip": "97204","zip+4": "2303","phone": "5032485267","NPI": "     1528073327"}, 
{"id": 42559,"ncpdp": "3811595","pharmacy_name": "EAST COUNTY CLINIC PHARMACY","address1": "600 NE 8TH 3RD FLOOR","address2": "","city": "GRESHAM","state": "OR","zip": "97030","zip+4": "7595","phone": "5039885154","NPI": "     1275548059"}, 
{"id": 42560,"ncpdp": "3811608","pharmacy_name": "MIDCOUNTY CLINIC PHARMACY","address1": "12710 SE DIVISION","address2": "","city": "PORTLAND","state": "OR","zip": "97236","zip+4": "3134","phone": "5039883608","NPI": "     1306851191"}, 
{"id": 42561,"ncpdp": "3811634","pharmacy_name": "MEDICAP #8130","address1": "1333 CLAY STREET SE","address2": "","city": "ALBANY","state": "OR","zip": "97322","zip+4": "0000","phone": "5419249598","NPI": "     1699887604"}, 
{"id": 42562,"ncpdp": "3811684","pharmacy_name": "BIMART PHARMACY #646","address1": "444 S PACIFIC HWY","address2": "","city": "MONMOUTH","state": "OR","zip": "97361","zip+4": "1543","phone": "5038381176","NPI": "     1619900974"}, 
{"id": 42563,"ncpdp": "3811696","pharmacy_name": "WAL-MART PHARMACY #102075","address1": "20120 PINEBROOK BLVD","address2": "","city": "BEND","state": "OR","zip": "97702","zip+4": "0000","phone": "5413895440","NPI": "     1881611937"}, 
{"id": 42564,"ncpdp": "3811709","pharmacy_name": "WAL-MART PHARMACY #102243","address1": "300 NW OAK TREE LANE","address2": "","city": "REDMOND","state": "OR","zip": "97756","zip+4": "0000","phone": "5419236575","NPI": "     1699792747"}, 
{"id": 42565,"ncpdp": "3811723","pharmacy_name": "OLSON INSTITUTIONAL PHARMACY S","address1": "16246 SE MCLOUGHLIN","address2": "","city": "MILWAUKIE","state": "OR","zip": "97267","zip+4": "0000","phone": "5036579422","NPI": "     1912923434"}, 
{"id": 42566,"ncpdp": "3811735","pharmacy_name": "BIMART PHARMACY #647","address1": "1701 SHAFF RD","address2": "","city": "STAYTON","state": "OR","zip": "97383","zip+4": "1091","phone": "5037696736","NPI": "     1528091881"}, 
{"id": 42567,"ncpdp": "3811747","pharmacy_name": "SAFEWAY #1527","address1": "1535 N FIRST STREET","address2": "","city": "STAYTON","state": "OR","zip": "97383","zip+4": "0000","phone": "5037695345","NPI": "     1124057161"}, 
{"id": 42568,"ncpdp": "3811761","pharmacy_name": "PAYLESS DRUG STORES INC","address1": "16100 SW 72ND AVE","address2": "","city": "PORTLAND","state": "OR","zip": "97224","zip+4": "0000","phone": "5036269436","NPI": "     1720062573"}, 
{"id": 42569,"ncpdp": "3811898","pharmacy_name": "PRESBYTERIAN NURSING HOME PHCY","address1": "1085 N OREGON ST","address2": "","city": "ONTARIO","state": "OR","zip": "97914","zip+4": "1567","phone": "5418899133","NPI": "     1528071206"}, 
{"id": 42570,"ncpdp": "3811949","pharmacy_name": "MEDICINE SHOPPE #1367","address1": "333 SE 7TH AVENUE","address2": "SUITE 1500","city": "HILLSBORO","state": "OR","zip": "97123","zip+4": "0000","phone": "5036404433","NPI": "     1790853596"}, 
{"id": 42571,"ncpdp": "3811999","pharmacy_name": "WAL-MART PHARMACY #102315","address1": "321 NE KINGS VALLEY HWY","address2": "","city": "DALLAS","state": "OR","zip": "97338","zip+4": "0000","phone": "5036235091","NPI": "     1508883653"}, 
{"id": 42572,"ncpdp": "3812030","pharmacy_name": "SHERIDAN PHARMACY","address1": "103 E MAIN ST","address2": "","city": "SHERIDAN","state": "OR","zip": "97378","zip+4": "1828","phone": "5038432422","NPI": "     1003837980"}, 
{"id": 42573,"ncpdp": "3812054","pharmacy_name": "OMNICARE OF MEDFORD","address1": "940 ELLENDALE DR","address2": "STE A","city": "MEDFORD","state": "OR","zip": "97504","zip+4": "0000","phone": "5417795627","NPI": "     1780795765"}, 
{"id": 42574,"ncpdp": "3812078","pharmacy_name": "BIMART PHARMACY #649","address1": "2510 WILLAKENZIE ROAD","address2": "","city": "EUGENE","state": "OR","zip": "97401","zip+4": "4805","phone": "5416877613","NPI": "     1437182797"}, 
{"id": 42575,"ncpdp": "3812080","pharmacy_name": "CORAM SPECIALTY INFUSION SERVI","address1": "7358 SW DURHAM RD","address2": "","city": "PORTLAND","state": "OR","zip": "97224","zip+4": "7307","phone": "5036843046","NPI": "     1003826694"}, 
{"id": 42576,"ncpdp": "3812131","pharmacy_name": "RITE AID PHARMACY #05356","address1": "11190 SW BARNES RD","address2": "11190 SW BARNES RD","city": "PORTLAND","state": "OR","zip": "97225","zip+4": "5372","phone": "5035269121","NPI": "     1992814289"}, 
{"id": 42577,"ncpdp": "3812143","pharmacy_name": "RITE AID PHARMACY #05347","address1": "2440 SE 39TH AVENUE","address2": "","city": "PORTLAND","state": "OR","zip": "97214","zip+4": "5920","phone": "5032349408","NPI": "     1801905195"}, 
{"id": 42578,"ncpdp": "3812167","pharmacy_name": "SAVON PHARMACY #579","address1": "16030 SW TUALATIN SHERWOOD","address2": "","city": "SHERWOOD","state": "OR","zip": "97140","zip+4": "0000","phone": "5036259585","NPI": "     1629024625"}, 
{"id": 42579,"ncpdp": "3812181","pharmacy_name": "PHARMACY EXPRESS #28","address1": "308B S REDWOOD HWY","address2": "","city": "CAVE JUNCTION","state": "OR","zip": "97523","zip+4": "0000","phone": "5415924555","NPI": "     1760478820"}, 
{"id": 42580,"ncpdp": "3812193","pharmacy_name": "RITE AID PHARMACY #05346","address1": "1814 NE 41ST AVENUE","address2": "1814 NE 41ST AVENUE","city": "PORTLAND","state": "OR","zip": "97212","zip+4": "5332","phone": "5032497627","NPI": "     1710096003"}, 
{"id": 42581,"ncpdp": "3812218","pharmacy_name": "SAFEWAY #1504","address1": "2650 NE HIGHWAY 20","address2": "","city": "BEND","state": "OR","zip": "97702","zip+4": "0000","phone": "5413836509","NPI": "     1790716504"}, 
{"id": 42582,"ncpdp": "3812232","pharmacy_name": "FRED MEYER PHARMACY #701377","address1": "2500 N MAIN STREET","address2": "","city": "TILLAMOOK","state": "OR","zip": "97141","zip+4": "0000","phone": "5038151433","NPI": "     1891730289"}, 
{"id": 42583,"ncpdp": "3812244","pharmacy_name": "ONTARIO CLINIC PHARMACY","address1": "293 SW 13TH ST","address2": "","city": "ONTARIO","state": "OR","zip": "97914","zip+4": "0000","phone": "5418811213","NPI": "     1558355339"}, 
{"id": 42584,"ncpdp": "3812256","pharmacy_name": "SAFEWAY #1478","address1": "15570 SW PACIFIC HIGHWAY","address2": "","city": "TIGARD","state": "OR","zip": "97223","zip+4": "0000","phone": "5035986009","NPI": "     1033148077"}, 
{"id": 42585,"ncpdp": "3812268","pharmacy_name": "SISTERS OF PROVIDENCE HEALTH S","address1": "6410 NE HALSEY STREET","address2": "SUITE 400","city": "PORTLAND","state": "OR","zip": "97213","zip+4": "2100","phone": "5032154646","NPI": "     1427132265"}, 
{"id": 42586,"ncpdp": "3812270","pharmacy_name": "SAFEWAY #1529","address1": "15099 SE MCLOUGHLIN BLVD","address2": "","city": "MILWAUKIE","state": "OR","zip": "97267","zip+4": "0000","phone": "5036525629","NPI": "     1942239983"}, 
{"id": 42587,"ncpdp": "3812282","pharmacy_name": "WAL-MART PHARMACY #102320","address1": "901 ROW RIVER RD","address2": "","city": "COTTAGE GROVE","state": "OR","zip": "97424","zip+4": "0000","phone": "5419420940","NPI": "     1417974569"}, 
{"id": 42588,"ncpdp": "3812307","pharmacy_name": "FRED MEYER PHARMACY #701143","address1": "6495 SE TUALATIN VALLEY HWY","address2": "","city": "HILLSBORO","state": "OR","zip": "97123","zip+4": "0000","phone": "5038484583","NPI": "     1700821196"}, 
{"id": 42589,"ncpdp": "3812321","pharmacy_name": "SAFEWAY #1516","address1": "4990 NORTH RIVER ROAD","address2": "","city": "KEIZER","state": "OR","zip": "97303","zip+4": "0000","phone": "5033908819","NPI": "     1760411706"}, 
{"id": 42590,"ncpdp": "3812357","pharmacy_name": "HAGGEN #59","address1": "18000 NW EVERGREEN PKWY","address2": "","city": "BEAVERTON","state": "OR","zip": "97006","zip+4": "0000","phone": "5036143450","NPI": "     1790718039"}, 
{"id": 42591,"ncpdp": "3812369","pharmacy_name": "SAFEWAY #1525","address1": "13485 NW CORNELL ROAD","address2": "","city": "PORTLAND","state": "OR","zip": "97229","zip+4": "0000","phone": "5033502086","NPI": "     1679502611"}, 
{"id": 42592,"ncpdp": "3812383","pharmacy_name": "WALGREEN DRUG STORE #3890","address1": "940 SE 39TH AVE","address2": "","city": "PORTLAND","state": "OR","zip": "97214","zip+4": "0000","phone": "5032385975","NPI": "     1417962499"}, 
{"id": 42593,"ncpdp": "3812408","pharmacy_name": "FRED MEYER PHARMACY #701462","address1": "51501 S COLUMBIA RIVER HWY","address2": "","city": "SCAPPOOSE","state": "OR","zip": "97056","zip+4": "0000","phone": "5035434533","NPI": "     1619912003"}, 
{"id": 42594,"ncpdp": "3812410","pharmacy_name": "WAL-MART PHARMACY #102477","address1": "2125 NW STEWART PARKWAY","address2": "","city": "ROSEBURG","state": "OR","zip": "97470","zip+4": "0000","phone": "5419578544","NPI": "     1326065475"}, 
{"id": 42595,"ncpdp": "3812422","pharmacy_name": "WAL-MART PHARMACY #102492","address1": "2203 SW COURT PLACE","address2": "","city": "PENDLETON","state": "OR","zip": "97801","zip+4": "0000","phone": "5419669971","NPI": "     1235156381"}, 
{"id": 42596,"ncpdp": "3812434","pharmacy_name": "BIMART PHARMACY #651","address1": "12321 NE HALSEY STREET","address2": "","city": "PORTLAND","state": "OR","zip": "97230","zip+4": "1926","phone": "5032573138","NPI": "     1346273604"}, 
{"id": 42597,"ncpdp": "3812458","pharmacy_name": "RITE AID PHARMACY #05331","address1": "16303 BRYANT ROAD","address2": "","city": "LAKE OSWEGO","state": "OR","zip": "97035","zip+4": "4307","phone": "5036365697","NPI": "     1629187919"}, 
{"id": 42598,"ncpdp": "3812460","pharmacy_name": "SAVON PHARMACY #503","address1": "14800 SE SUNNYSIDE RD","address2": "","city": "CLACKAMAS","state": "OR","zip": "97015","zip+4": "0000","phone": "5036584374","NPI": "     1538115530"}, 
{"id": 42599,"ncpdp": "3812472","pharmacy_name": "SAFEWAY #1556","address1": "230 JOHNSON STREET","address2": "","city": "COOSBAY","state": "OR","zip": "97420","zip+4": "0000","phone": "5412671709","NPI": "     1588693527"}, 
{"id": 42600,"ncpdp": "3812547","pharmacy_name": "WALGREEN DRUG STORE #3818","address1": "16200 NE GLISAN ST","address2": "","city": "PORTLAND","state": "OR","zip": "97230","zip+4": "0000","phone": "5032518856","NPI": "     1326053307"}, 
{"id": 42601,"ncpdp": "3812559","pharmacy_name": "WALGREEN DRUG STORE #3817","address1": "4285 W POWELL BLVD","address2": "","city": "GRESHAM","state": "OR","zip": "97030","zip+4": "0000","phone": "5034921090","NPI": "     1235144213"}, 
{"id": 42602,"ncpdp": "3812585","pharmacy_name": "COSTCO PHARMACY #97","address1": "13130 SE 84TH AVENUE","address2": "","city": "CLACKAMAS","state": "OR","zip": "97015","zip+4": "0000","phone": "5037945520","NPI": "     1023128659"}, 
{"id": 42603,"ncpdp": "3812597","pharmacy_name": "WALGREEN DRUG STORE #3838","address1": "1950 NE BURNSIDE ROAD","address2": "","city": "GRESHAM","state": "OR","zip": "97030","zip+4": "0000","phone": "5036748480","NPI": "     1992712822"}, 
{"id": 42604,"ncpdp": "3812600","pharmacy_name": "WALGREEN DRUG STORE #3925","address1": "3 NE 82ND AVENUE","address2": "","city": "PORTLAND","state": "OR","zip": "97220","zip+4": "0000","phone": "5034080719","NPI": "     1144235128"}, 
{"id": 42605,"ncpdp": "3812612","pharmacy_name": "HAGGEN #61","address1": "8515 SW TUALATIN SHERWOOD RD","address2": "","city": "TUALATIN","state": "OR","zip": "97062","zip+4": "0000","phone": "5036918650","NPI": "     1609809946"}, 
{"id": 42606,"ncpdp": "3812650","pharmacy_name": "WAL-MART PHARMACY #102538","address1": "1040 GREEN ACRES ROAD","address2": "","city": "EUGENE","state": "OR","zip": "97408","zip+4": "0000","phone": "5413438028","NPI": "     1144247297"}, 
{"id": 42607,"ncpdp": "3812662","pharmacy_name": "GRAND RONDE HEALTH AND WELLNES","address1": "9605 GRAND RONDE RD","address2": "","city": "GRAND RONDE","state": "OR","zip": "97347","zip+4": "0000","phone": "5038792013","NPI": "     1174666358"}, 
{"id": 42608,"ncpdp": "3812698","pharmacy_name": "BIMART PHARMACY #653","address1": "4315 SE WOODSTOCK BLVD","address2": "","city": "PORTLAND","state": "OR","zip": "97206","zip+4": "6269","phone": "5037711881","NPI": "     1255364519"}, 
{"id": 42609,"ncpdp": "3812701","pharmacy_name": "WAL-MART PHARMACY #102552","address1": "4200 SOUTHEAST 82ND AVENUE","address2": "","city": "PORTLAND","state": "OR","zip": "97266","zip+4": "0000","phone": "5037880400","NPI": "     1053338103"}, 
{"id": 42610,"ncpdp": "3812713","pharmacy_name": "SAFEWAY #1590","address1": "455 N COLUMBIA","address2": "","city": "MILTON FREEWATER","state": "OR","zip": "97862","zip+4": "0000","phone": "5419383289","NPI": "     1851320899"}, 
{"id": 42611,"ncpdp": "3812725","pharmacy_name": "SAFEWAY #1542","address1": "2501 SW CHERRY PARK ROAD","address2": "","city": "TROUTDALE","state": "OR","zip": "97060","zip+4": "0000","phone": "5036747006","NPI": "     1396774337"}, 
{"id": 42612,"ncpdp": "3812737","pharmacy_name": "BIMART PHARMACY #652","address1": "833 E CENTRAL AVE","address2": "","city": "SUTHERLIN","state": "OR","zip": "97479","zip+4": "9607","phone": "5414590626","NPI": "     1164455424"}, 
{"id": 42613,"ncpdp": "3812763","pharmacy_name": "WALGREEN DRUG STORE #4230","address1": "5000 RIVER RD","address2": "","city": "KEIZER","state": "OR","zip": "97303","zip+4": "0000","phone": "5033902514","NPI": "     1053326033"}, 
{"id": 42614,"ncpdp": "3812787","pharmacy_name": "WALGREEN DRUG STORE #4353","address1": "4325 82ND SE","address2": "","city": "PORTLAND","state": "OR","zip": "97266","zip+4": "0000","phone": "5037720098","NPI": "     1962417949"}, 
{"id": 42615,"ncpdp": "3812799","pharmacy_name": "SAVON PHARMACY #590","address1": "7500 W BASELINE","address2": "","city": "HILLSBORO","state": "OR","zip": "97123","zip+4": "0000","phone": "5035910997","NPI": "     1568419026"}, 
{"id": 42616,"ncpdp": "3812876","pharmacy_name": "SAVON PHARMACY #576","address1": "14300 SW BARROW RD","address2": "","city": "TIGARD","state": "OR","zip": "97223","zip+4": "0000","phone": "5035904697","NPI": "     1366499824"}, 
{"id": 42617,"ncpdp": "3812915","pharmacy_name": "GEARY STREET CLINIC PHARMACY","address1": "1700 SE GEARY ST","address2": "","city": "ALBANY","state": "OR","zip": "97322","zip+4": "0000","phone": "5418125532","NPI": "     1720131345"}, 
{"id": 42618,"ncpdp": "3812927","pharmacy_name": "WALGREEN DRUG STORE #4257","address1": "4380 COMMERCIAL ST SE","address2": "","city": "SALEM","state": "OR","zip": "97302","zip+4": "0000","phone": "5033997994","NPI": "     1871508853"}, 
{"id": 42619,"ncpdp": "3812939","pharmacy_name": "WALGREEN DRUG STORE #4229","address1": "1992 LANCASTER DR NE","address2": "","city": "SALEM","state": "OR","zip": "97305","zip+4": "0000","phone": "5033624451","NPI": "     1780699769"}, 
{"id": 42620,"ncpdp": "3812953","pharmacy_name": "SAVON PHARMACY #506","address1": "1855 BLANKENSHIP RD","address2": "","city": "WEST LINN","state": "OR","zip": "97068","zip+4": "0000","phone": "5037239990","NPI": "     1629024096"}, 
{"id": 42621,"ncpdp": "3812977","pharmacy_name": "SAFEWAY #1557","address1": "1735 VIRGINIA AVENUE","address2": "","city": "NORTH BEND","state": "OR","zip": "97459","zip+4": "0000","phone": "5417517006","NPI": "     1205865243"}, 
{"id": 42622,"ncpdp": "3813006","pharmacy_name": "APRIA HEALTHCARE #073","address1": "12029 N E GLENN WIDING DRIVE","address2": "","city": "PORTLAND","state": "OR","zip": "97230","zip+4": "0000","phone": "8005634451","NPI": "     1902975113"}, 
{"id": 42623,"ncpdp": "3813068","pharmacy_name": "RITE AID PHARMACY # #06216","address1": "7440 NORTH DENVER AVENUE","address2": "","city": "PORTLAND","state": "OR","zip": "97217","zip+4": "5630","phone": "5032865680","NPI": "     1538278825"}, 
{"id": 42624,"ncpdp": "3813094","pharmacy_name": "SAFEWAY #1601","address1": "2490 N HWY 99","address2": "","city": "MCMINNVILLE","state": "OR","zip": "97128","zip+4": "0000","phone": "5034353125","NPI": "     1114956158"}, 
{"id": 42625,"ncpdp": "3813133","pharmacy_name": "KMART PHARMACY #3025","address1": "7655 S W NYBERG ROAD","address2": "","city": "TUALATIN","state": "OR","zip": "97062","zip+4": "0000","phone": "5038851072","NPI": "     1679504641"}, 
{"id": 42626,"ncpdp": "3813145","pharmacy_name": "KMART PHARMACY #3839","address1": "400 N EAST CIRCLE BLVD","address2": "","city": "CORVALLIS","state": "OR","zip": "97330","zip+4": "0000","phone": "5417523858","NPI": "     1396776365"}, 
{"id": 42627,"ncpdp": "3813183","pharmacy_name": "WALGREEN DRUG STORE #3801","address1": "1310 MOLALLA AVE","address2": "","city": "OREGON CITY","state": "OR","zip": "97045","zip+4": "0000","phone": "5037238860","NPI": "     1598770570"}, 
{"id": 42628,"ncpdp": "3813210","pharmacy_name": "KMART PHARMACY #3209","address1": "3100 PACIFIC BLVD S E","address2": "","city": "ALBANY","state": "OR","zip": "97321","zip+4": "0000","phone": "5418120793","NPI": "     1720019797"}, 
{"id": 42629,"ncpdp": "3813222","pharmacy_name": "KMART PHARMACY #3214","address1": "1776 AVALON ST","address2": "","city": "KLAMATH FALLS","state": "OR","zip": "97603","zip+4": "0000","phone": "5418823372","NPI": "     1639100605"}, 
{"id": 42630,"ncpdp": "3813234","pharmacy_name": "KMART PHARMACY #3888","address1": "2640 WEST 6TH STREET","address2": "","city": "THE DALLES","state": "OR","zip": "97058","zip+4": "0000","phone": "5412964740","NPI": "     1548291511"}, 
{"id": 42631,"ncpdp": "3813258","pharmacy_name": "KMART PHARMACY #7580","address1": "2757 NW STEWART PKWY","address2": "","city": "ROSEBURG","state": "OR","zip": "97470","zip+4": "1251","phone": "5419570157","NPI": "     1457382426"}, 
{"id": 42632,"ncpdp": "3813260","pharmacy_name": "KMART PHARMACY #9515","address1": "1648 EAST IDAHO AVENUE","address2": "","city": "ONTARIO","state": "OR","zip": "97914","zip+4": "0000","phone": "5418896315","NPI": "     1275564247"}, 
{"id": 42633,"ncpdp": "3813272","pharmacy_name": "WALGREEN DRUG STORE #4296","address1": "3909 SE HOLGATE BLVD","address2": "","city": "PORTLAND","state": "OR","zip": "97202","zip+4": "0000","phone": "5037771972","NPI": "     1407861487"}, 
{"id": 42634,"ncpdp": "3813284","pharmacy_name": "WALGREEN DRUG STORE #4495","address1": "2103 W BURNSIDE","address2": "","city": "PORTLAND","state": "OR","zip": "97210","zip+4": "0000","phone": "5032956550","NPI": "     1316952393"}, 
{"id": 42635,"ncpdp": "3813309","pharmacy_name": "TARGET PHARMACY #0345","address1": "9009 SW HALL BLVD","address2": "","city": "TIGARD","state": "OR","zip": "97223","zip+4": "0000","phone": "5036393446","NPI": "     1104848829"}, 
{"id": 42636,"ncpdp": "3813347","pharmacy_name": "BIMART PHARMACY #654","address1": "1575 S HIGHWAY 97","address2": "","city": "MADRAS","state": "OR","zip": "97741","zip+4": "9267","phone": "5414751601","NPI": "     1073546339"}, 
{"id": 42637,"ncpdp": "3813361","pharmacy_name": "SAMARITAN PHARMACY SERVICES","address1": "3615 NW SAMARITAN DR","address2": "","city": "CORVALLIS","state": "OR","zip": "97330","zip+4": "0000","phone": "5417685225","NPI": "     1528117959"}, 
{"id": 42638,"ncpdp": "3813373","pharmacy_name": "BIMART PHARMACY #639","address1": "1555 SW 53RD ST","address2": "","city": "CORVALLIS","state": "OR","zip": "97330","zip+4": "2630","phone": "5417583392","NPI": "     1982637245"}, 
{"id": 42639,"ncpdp": "3813385","pharmacy_name": "SAFEWAY #1643","address1": "3169 CRATER LAKE HIGHWAY","address2": "","city": "MEDFORD","state": "OR","zip": "97501","zip+4": "0000","phone": "5417744346","NPI": "     1609807411"}, 
{"id": 42640,"ncpdp": "3813400","pharmacy_name": "GOOD SHEPHERD CLINIC PHARMACY","address1": "610 NW 11TH ST","address2": "STE E04","city": "HERMISTON","state": "OR","zip": "97838","zip+4": "0000","phone": "5416673652","NPI": "     1598831257"}, 
{"id": 42641,"ncpdp": "3813424","pharmacy_name": "WALDPORT DRUG AND GIFT","address1": "180 NW ARROW ST","address2": "","city": "WALDPORT","state": "OR","zip": "97394","zip+4": "0000","phone": "5415634848","NPI": "     1992863286"}, 
{"id": 42642,"ncpdp": "3813436","pharmacy_name": "BIMART PHARMACY #655","address1": "200 SOUTH 1ST PLACE UNIT 1","address2": "","city": "HERMISTON","state": "OR","zip": "97838","zip+4": "2386","phone": "5415676850","NPI": "     1790718054"}, 
{"id": 42643,"ncpdp": "3813474","pharmacy_name": "SAVON PHARMACY #508","address1": "910 N PHOENIX RD","address2": "","city": "MEDFORD","state": "OR","zip": "97504","zip+4": "0000","phone": "5417707110","NPI": "     1538115902"}, 
{"id": 42644,"ncpdp": "3813537","pharmacy_name": "PHARMACY EXPRESS #9","address1": "136 E PINE ST","address2": "","city": "CENTRAL POINT","state": "OR","zip": "97502","zip+4": "0000","phone": "5416652140","NPI": "     1194711259"}, 
{"id": 42645,"ncpdp": "3813551","pharmacy_name": "WALGREEN DRUG STORE #4943","address1": "12215 SE POWELL BLVD","address2": "","city": "PORTLAND","state": "OR","zip": "97236","zip+4": "0000","phone": "5037602022","NPI": "     1225043201"}, 
{"id": 42646,"ncpdp": "3813575","pharmacy_name": "JMC PHARMACY SERVICES #2","address1": "2300 MASONIC WAY","address2": "","city": "FOREST GROVE","state": "OR","zip": "97116","zip+4": "0000","phone": "5033574499","NPI": "     1750304838"}, 
{"id": 42647,"ncpdp": "3813602","pharmacy_name": "YELLOWHAWK TRIBAL HEALTH CLINI","address1": "73265 CONFEDERATED WAY","address2": "","city": "PENDLETON","state": "OR","zip": "97801","zip+4": "0000","phone": "5412787505","NPI": "     1285706721"}, 
{"id": 42648,"ncpdp": "3813614","pharmacy_name": "SAFEWAY #1659","address1": "1990 14TH AVENUE","address2": "","city": "ALBANY","state": "OR","zip": "97321","zip+4": "0000","phone": "5418122386","NPI": "     1023047065"}, 
{"id": 42649,"ncpdp": "3813626","pharmacy_name": "SAFEWAY #1612","address1": "1100 NE BROADWAY","address2": "","city": "PORTLAND","state": "OR","zip": "97232","zip+4": "0000","phone": "5035280506","NPI": "     1932138971"}, 
{"id": 42650,"ncpdp": "3813652","pharmacy_name": "SAFEWAY #1629","address1": "1265 CENTER STREET","address2": "","city": "SALEM","state": "OR","zip": "97301","zip+4": "0000","phone": "5035665546","NPI": "     1841229887"}, 
{"id": 42651,"ncpdp": "3813688","pharmacy_name": "SAVON PHARMACY #593","address1": "113 ROSS LN","address2": "","city": "MEDFORD","state": "OR","zip": "97501","zip+4": "0000","phone": "5418585078","NPI": "     1447206818"}, 
{"id": 42652,"ncpdp": "3813703","pharmacy_name": "BIMART PHARMACY #657","address1": "20000 SE HIGHWAY 212","address2": "","city": "DAMASCUS","state": "OR","zip": "97089","zip+4": "8717","phone": "5035588606","NPI": "     1518990878"}, 
{"id": 42653,"ncpdp": "3813715","pharmacy_name": "SAFEWAY #1710","address1": "1540 MAIN STREET","address2": "","city": "SWEET HOME","state": "OR","zip": "97386","zip+4": "0000","phone": "5413670675","NPI": "     1750310793"}, 
{"id": 42654,"ncpdp": "3813739","pharmacy_name": "FRED MEYER PHARMACY #701650","address1": "944 SW 9TH ST","address2": "","city": "REDMOND","state": "OR","zip": "97756","zip+4": "0000","phone": "5415045133","NPI": "     1912943820"}, 
{"id": 42655,"ncpdp": "3813741","pharmacy_name": "WAL-MART PHARMACY #102422","address1": "2295 GABLE ROAD","address2": "","city": "ST HELENS","state": "OR","zip": "97051","zip+4": "0000","phone": "5033665157","NPI": "     1962429019"}, 
{"id": 42656,"ncpdp": "3813753","pharmacy_name": "QFC PHARMACY #705205","address1": "5544 E BURNSIDE","address2": "","city": "PORTLAND","state": "OR","zip": "97215","zip+4": "0000","phone": "5032397710","NPI": "     1700801347"}, 
{"id": 42657,"ncpdp": "3813765","pharmacy_name": "SAVON PHARMACY #595","address1": "1360 PLAZA BLVD","address2": "","city": "MEDFORD","state": "OR","zip": "97502","zip+4": "0000","phone": "5416653766","NPI": "     1518913516"}, 
{"id": 42658,"ncpdp": "3813777","pharmacy_name": "SAFEWAY #0353","address1": "3285 COMMERCIAL ST SE","address2": "","city": "SALEM","state": "OR","zip": "97302","zip+4": "0000","phone": "5033613346","NPI": "     1104855154"}, 
{"id": 42659,"ncpdp": "3813789","pharmacy_name": "FRED MEYER PHARMACY #701651","address1": "1401 SE FIRST","address2": "","city": "CANBY","state": "OR","zip": "97013","zip+4": "0000","phone": "5032634128","NPI": "     1821034737"}, 
{"id": 42660,"ncpdp": "3813791","pharmacy_name": "SAVON PHARMACY #514","address1": "2005 CIRCLE DR","address2": "","city": "CORVALLIS","state": "OR","zip": "97330","zip+4": "0000","phone": "5417530956","NPI": "     1275580730"}, 
{"id": 42661,"ncpdp": "3813830","pharmacy_name": "CAREPLUS CVS PHARMACY #02819","address1": "1309 NW 23RD AVE","address2": "","city": "PORTLAND","state": "OR","zip": "97210","zip+4": "0000","phone": "5032957941","NPI": "     1558470039"}, 
{"id": 42662,"ncpdp": "3813842","pharmacy_name": "HAGGEN #79","address1": "19701 HWY 213","address2": "","city": "OREGON CITY","state": "OR","zip": "97045","zip+4": "0000","phone": "5034517961","NPI": "     1518990852"}, 
{"id": 42663,"ncpdp": "3813892","pharmacy_name": "WALGREEN DRUG STORE #5780","address1": "13939 SW PACIFIC HWY","address2": "","city": "TIGARD","state": "OR","zip": "97223","zip+4": "0000","phone": "5036709812","NPI": "     1043225022"}, 
{"id": 42664,"ncpdp": "3813905","pharmacy_name": "SAFEWAY #1713","address1": "22000 SALAMO ROAD","address2": "","city": "WEST LINN","state": "OR","zip": "97068","zip+4": "0000","phone": "5036506426","NPI": "     1013946060"}, 
{"id": 42665,"ncpdp": "3813931","pharmacy_name": "FRED MEYER PHARMACY #701464","address1": "4701 HIGHWAY 101","address2": "","city": "FLORENCE","state": "OR","zip": "97439","zip+4": "0000","phone": "5419027333","NPI": "     1740223957"}, 
{"id": 42666,"ncpdp": "3813943","pharmacy_name": "SAFEWAY #1765","address1": "5270 SW PHILOMATH BLVD","address2": "","city": "CORVALIS","state": "OR","zip": "97333","zip+4": "0000","phone": "5417382106","NPI": "     1922037977"}, 
{"id": 42667,"ncpdp": "3813955","pharmacy_name": "HARRISBURG PHARMACY","address1": "230 N 3RD ST","address2": "STE 106","city": "HARRISBURG","state": "OR","zip": "97446","zip+4": "0000","phone": "5419959711","NPI": "     1023168655"}, 
{"id": 42668,"ncpdp": "3813981","pharmacy_name": "SAFEWAY #1627","address1": "3930 SE POWELL BLVD","address2": "","city": "PORTLAND","state": "OR","zip": "97202","zip+4": "0000","phone": "5037724445","NPI": "     1831128883"}, 
{"id": 42669,"ncpdp": "3814010","pharmacy_name": "BIMART PHARMACY #658","address1": "700 CAMPBELL ST","address2": "","city": "BAKER CITY","state": "OR","zip": "97814","zip+4": "2212","phone": "5415230607","NPI": "     1427081785"}, 
{"id": 42670,"ncpdp": "3814034","pharmacy_name": "PAYLESS LONG TERM CARE PHARMAC","address1": "28717 GRUMMAN DR","address2": "","city": "EUGENE","state": "OR","zip": "97402","zip+4": "0000","phone": "8002407871","NPI": "     1316008188"}, 
{"id": 42671,"ncpdp": "3814046","pharmacy_name": "SAFEWAY #1751","address1": "1525 WEST MAIN STREET","address2": "","city": "MOLALLA","state": "OR","zip": "97038","zip+4": "0000","phone": "5038294855","NPI": "     1740219799"}, 
{"id": 42672,"ncpdp": "3814072","pharmacy_name": "ELM STREET PHARMACY","address1": "1010 7TH AVE SW","address2": "","city": "ALBANY","state": "OR","zip": "97321","zip+4": "1922","phone": "5418125071","NPI": "     1548313356"}, 
{"id": 42673,"ncpdp": "3814084","pharmacy_name": "WALGREEN DRUG STORE #5572","address1": "2829 N LOMBARD ST","address2": "","city": "PORTLAND","state": "OR","zip": "97217","zip+4": "0000","phone": "5037370314","NPI": "     1972518967"}, 
{"id": 42674,"ncpdp": "3814096","pharmacy_name": "WALGREEN DRUG STORE #5910","address1": "25699 SE STARK ST","address2": "","city": "TROUTDALE","state": "OR","zip": "97060","zip+4": "0000","phone": "5036659945","NPI": "     1881609873"}, 
{"id": 42675,"ncpdp": "3814109","pharmacy_name": "SAVON PHARMACY #569","address1": "11 S STATE ST","address2": "","city": "LAKE OSWEGO","state": "OR","zip": "97034","zip+4": "0000","phone": "5035342883","NPI": "     1760438311"}, 
{"id": 42676,"ncpdp": "3814135","pharmacy_name": "SAVON PHARMACY #505","address1": "5415 SW BEAVERTON HILLSDALE HW","address2": "","city": "PORTLAND","state": "OR","zip": "97221","zip+4": "0000","phone": "5032462842","NPI": "     1750337309"}, 
{"id": 42677,"ncpdp": "3814147","pharmacy_name": "TRINITY VALLEY PHARMACY LLC #L","address1": "2001 FOOTHILL BLVD F3","address2": "","city": "GRANTS PASS","state": "OR","zip": "97526","zip+4": "0000","phone": "5414749437","NPI": "     1639180201"}, 
{"id": 42678,"ncpdp": "3814159","pharmacy_name": "WAL-MART PHARMACY #102927","address1": "23500 N E SANDY BLVD","address2": "","city": "WOOD VILLAGE","state": "OR","zip": "97060","zip+4": "0000","phone": "5036671709","NPI": "     1871510925"}, 
{"id": 42679,"ncpdp": "3814173","pharmacy_name": "APEX PHARMACY","address1": "1215 NW 23RD AVE","address2": "","city": "PORTLAND","state": "OR","zip": "97210","zip+4": "0000","phone": "5035259094","NPI": "     1366526741"}, 
{"id": 42680,"ncpdp": "3814185","pharmacy_name": "PHARMACY EXPRESS #41","address1": "210 SW CENTURY DR","address2": "","city": "BEND","state": "OR","zip": "97702","zip+4": "1052","phone": "5413899117","NPI": "     1235125303"}, 
{"id": 42681,"ncpdp": "3814197","pharmacy_name": "WALGREEN DRUG STORE #6370","address1": "14600 SW MURRAY SCHOLLS DR STE","address2": "","city": "BEAVERTON","state": "OR","zip": "97007","zip+4": "0000","phone": "5035790956","NPI": "     1699780684"}, 
{"id": 42682,"ncpdp": "3814236","pharmacy_name": "SAFEWAY #1800","address1": "20685 SW ROY ROGERS ROAD","address2": "","city": "SHERWOOD","state": "OR","zip": "97140","zip+4": "0000","phone": "5036254766","NPI": "     1659300606"}, 
{"id": 42683,"ncpdp": "3814248","pharmacy_name": "SAVON PHARMACY #536","address1": "25691 SE STARK","address2": "","city": "TROUTDALE","state": "OR","zip": "97060","zip+4": "0000","phone": "5036679003","NPI": "     1669428215"}, 
{"id": 42684,"ncpdp": "3814250","pharmacy_name": "BIMART PHARMACY #659","address1": "514 WEST MAIN STREET","address2": "","city": "MOLALLA","state": "OR","zip": "97038","zip+4": "9260","phone": "5038294555","NPI": "     1609809961"}, 
{"id": 42685,"ncpdp": "3814262","pharmacy_name": "BIMART PHARMACY #660","address1": "2091 NE 3RD STREET","address2": "","city": "PRINEVILLE","state": "OR","zip": "97754","zip+4": "8130","phone": "5414470395","NPI": "     1336172691"}, 
{"id": 42686,"ncpdp": "3814274","pharmacy_name": "WALGREEN DRUG STORE #5647","address1": "6116 NE MARTIN LTHR KING BLVD","address2": "","city": "PORTLAND","state": "OR","zip": "97211","zip+4": "0000","phone": "5032820612","NPI": "     1508871591"}, 
{"id": 42687,"ncpdp": "3814301","pharmacy_name": "BHS PHARMACY","address1": "4085 W 11TH","address2": "STE 1","city": "EUGENE","state": "OR","zip": "97402","zip+4": "0000","phone": "5418681490","NPI": "     1104876820"}, 
{"id": 42688,"ncpdp": "3814313","pharmacy_name": "WALGREEN DRUG STORE #5952","address1": "7280 SW BEAVERTON HILLSDALE HW","address2": "","city": "PORTLAND","state": "OR","zip": "97225","zip+4": "0000","phone": "5032967925","NPI": "     1417962408"}, 
{"id": 42689,"ncpdp": "3814325","pharmacy_name": "TRINITY VALLEY PHARMACY LLC RE","address1": "2001 FOOTHILL BLVD","address2": "BLDG F3","city": "GRANTS PASS","state": "OR","zip": "97526","zip+4": "0000","phone": "5414749437","NPI": "     1013034735"}, 
{"id": 42690,"ncpdp": "3814337","pharmacy_name": "FRED MEYER PHARMACY #701661","address1": "22075 NW IMBRIE DRIVE","address2": "","city": "HILLSBORO","state": "OR","zip": "97124","zip+4": "0000","phone": "5037471133","NPI": "     1932135142"}, 
{"id": 42691,"ncpdp": "3814349","pharmacy_name": "WALGREEN DRUG STORE #6426","address1": "12335 NE GLISAN ST","address2": "","city": "PORTLAND","state": "OR","zip": "97230","zip+4": "0000","phone": "5032562675","NPI": "     1104833029"}, 
{"id": 42692,"ncpdp": "3814351","pharmacy_name": "FRED MEYER PHARMACY #701660","address1": "22855 NE PARKLANE","address2": "","city": "WOODVILLAGE","state": "OR","zip": "97060","zip+4": "0000","phone": "5034925033","NPI": "     1134165673"}, 
{"id": 42693,"ncpdp": "3814387","pharmacy_name": "BIMART PHARMACY #663","address1": "4780 ROYAL AVE","address2": "","city": "EUGENE","state": "OR","zip": "97402","zip+4": "1755","phone": "5414639559","NPI": "     1922033984"}, 
{"id": 42694,"ncpdp": "3814399","pharmacy_name": "WALGREEN DRUG STORE #6140","address1": "1620 NE GRAND AVE","address2": "","city": "PORTLAND","state": "OR","zip": "97232","zip+4": "0000","phone": "5034932692","NPI": "     1326053315"}, 
{"id": 42695,"ncpdp": "3814414","pharmacy_name": "BIMART PHARMACY #662","address1": "4750 SW WESTERN AVE","address2": "","city": "BEAVERTON","state": "OR","zip": "97005","zip+4": "3431","phone": "5036264710","NPI": "     1245263508"}, 
{"id": 42696,"ncpdp": "3814438","pharmacy_name": "SAVON PHARMACY #591","address1": "888 NE 25TH AVE","address2": "","city": "HILLSBORO","state": "OR","zip": "97124","zip+4": "0000","phone": "5036818640","NPI": "     1427004423"}, 
{"id": 42697,"ncpdp": "3814452","pharmacy_name": "COSTCO PHARMACY #682","address1": "3031 KILLDEER AVE SE","address2": "","city": "ALBANY","state": "OR","zip": "97321","zip+4": "5325","phone": "5419187042","NPI": "     1841300472"}, 
{"id": 42698,"ncpdp": "3814464","pharmacy_name": "SAFEWAY #4262","address1": "3 E FIRST ST","address2": "","city": "COQUILLE","state": "OR","zip": "97423","zip+4": "0000","phone": "5413962422","NPI": "     1134165731"}, 
{"id": 42699,"ncpdp": "3814476","pharmacy_name": "SAVON PHARMACY #515","address1": "3013 NW STEWART PKWY","address2": "","city": "ROSEBURG","state": "OR","zip": "97471","zip+4": "0000","phone": "5419579236","NPI": "     1336195338"}, 
{"id": 42700,"ncpdp": "3814488","pharmacy_name": "SAVON PHARMACY #513","address1": "4740 ROYAL AVE","address2": "","city": "EUGENE","state": "OR","zip": "97402","zip+4": "0000","phone": "5416886569","NPI": "     1184671646"}, 
{"id": 42701,"ncpdp": "3814490","pharmacy_name": "BIMART PHARMACY #668","address1": "550 4TH ST","address2": "","city": "COOS BAY","state": "OR","zip": "97420","zip+4": "1506","phone": "5412699890","NPI": "     1154354413"}, 
{"id": 42702,"ncpdp": "3814503","pharmacy_name": "WAL-MART PHARMACY #103239","address1": "2659 OLYMPIC STREET","address2": "","city": "SPRINGFIELD","state": "OR","zip": "97477","zip+4": "0000","phone": "5417443085","NPI": "     1780601831"}, 
{"id": 42703,"ncpdp": "3814527","pharmacy_name": "TARGET PHARMACY #1406","address1": "21500 NE HALSEY","address2": "","city": "FAIRVIEW","state": "OR","zip": "97024","zip+4": "0000","phone": "5034918953","NPI": "     1013939735"}, 
{"id": 42704,"ncpdp": "3814539","pharmacy_name": "TARGET PHARMACY #1405","address1": "4575 W 11TH AVE","address2": "","city": "EUGENE","state": "OR","zip": "97402","zip+4": "0000","phone": "5416844589","NPI": "     1922020643"}, 
{"id": 42705,"ncpdp": "3814553","pharmacy_name": "BIMART PHARMACY #669","address1": "25126 JEANS RD","address2": "","city": "VENETA","state": "OR","zip": "97487","zip+4": "9644","phone": "5419350903","NPI": "     1063445328"}, 
{"id": 42706,"ncpdp": "3814565","pharmacy_name": "WELLPARTNER","address1": "7216 SW DURHAM RD","address2": "STE 200","city": "PORTLAND","state": "OR","zip": "97224","zip+4": "0000","phone": "5037185757","NPI": "     1386748028"}, 
{"id": 42707,"ncpdp": "3814577","pharmacy_name": "DOWNTOWN PHARMACY INC","address1": "14 N CENTRAL AVE","address2": "STE 110","city": "MEDFORD","state": "OR","zip": "97501","zip+4": "0000","phone": "5417760606","NPI": "     1659312023"}, 
{"id": 42708,"ncpdp": "3814589","pharmacy_name": "PHARMACY EXPRESS #48","address1": "190 EMERALD PKWY 101","address2": "","city": "CRESWELL","state": "OR","zip": "97426","zip+4": "0000","phone": "5418953701","NPI": "     1013903087"}, 
{"id": 42709,"ncpdp": "3814591","pharmacy_name": "SAFEWAY #2623","address1": "1140 N SPRINGBROOK ROAD","address2": "","city": "NEWBERG","state": "OR","zip": "97132","zip+4": "0000","phone": "5035382430","NPI": "     1659317279"}, 
{"id": 42710,"ncpdp": "3814604","pharmacy_name": "WAL-MART PHARMACY #103258","address1": "4550 WEST 11TH AVENUE","address2": "","city": "EUGENE","state": "OR","zip": "97402","zip+4": "0000","phone": "5413442370","NPI": "     1598782641"}, 
{"id": 42711,"ncpdp": "3814616","pharmacy_name": "SAVON PHARMACY #261","address1": "1120 CAMPBELL ST","address2": "","city": "BAKER CITY","state": "OR","zip": "97814","zip+4": "0000","phone": "5415240416","NPI": "     1245286244"}, 
{"id": 42712,"ncpdp": "3814628","pharmacy_name": "COMMUNITY PHARMACY","address1": "2500 NE NEFF RD","address2": "","city": "BEND","state": "OR","zip": "97701","zip+4": "0000","phone": "5413887731","NPI": "     1407953805"}, 
{"id": 42713,"ncpdp": "3814630","pharmacy_name": "TARGET PHARMACY #1419","address1": "9800 SE WASHINGTON STREET","address2": "","city": "PORTLAND","state": "OR","zip": "97216","zip+4": "0000","phone": "5032525934","NPI": "     1740202464"}, 
{"id": 42714,"ncpdp": "3814642","pharmacy_name": "SALEM HOSPITAL RETAIL PHARMACY","address1": "875 OAK STREET SE","address2": "","city": "SALEM","state": "OR","zip": "97301","zip+4": "0000","phone": "5035615325","NPI": "     1033202759"}, 
{"id": 42715,"ncpdp": "3814680","pharmacy_name": "WALGREEN DRUG STORE #6831","address1": "7010 NE CORNELL RD","address2": "","city": "HILLSBORO","state": "OR","zip": "97124","zip+4": "0000","phone": "5036932949","NPI": "     1235144221"}, 
{"id": 42716,"ncpdp": "3814692","pharmacy_name": "SAFEWAY #4288","address1": "145 EAST 18TH STREET","address2": "","city": "EUGENE","state": "OR","zip": "97401","zip+4": "0000","phone": "5416839684","NPI": "     1720019540"}, 
{"id": 42717,"ncpdp": "3814705","pharmacy_name": "GENOA HEALTHCARE #01","address1": "998 LIBRARY CT","address2": "","city": "OREGON CITY","state": "OR","zip": "97045","zip+4": "0000","phone": "5035573051","NPI": "     1962460113"}, 
{"id": 42718,"ncpdp": "3814729","pharmacy_name": "PILL BOX HEALTH CENTER PHARMAC","address1": "41 E CAROLINA ST","address2": "","city": "LEBANON","state": "OR","zip": "97355","zip+4": "0000","phone": "5412588070","NPI": "     1093808198"}, 
{"id": 42719,"ncpdp": "3814731","pharmacy_name": "SAFEWAY #2631","address1": "14555 SW TEAL BLVD","address2": "","city": "BEAVERTON","state": "OR","zip": "97007","zip+4": "0000","phone": "5035909756","NPI": "     1568491512"}, 
{"id": 42720,"ncpdp": "3814743","pharmacy_name": "SAFEWAY #1935","address1": "5660 COMMERCIAL STREET SE","address2": "","city": "SALEM","state": "OR","zip": "97302","zip+4": "0000","phone": "5033641520","NPI": "     1477582427"}, 
{"id": 42721,"ncpdp": "3814755","pharmacy_name": "SAVON PHARMACY #566","address1": "10830 SE OAK ST","address2": "","city": "MILWAUKIE","state": "OR","zip": "97222","zip+4": "0000","phone": "5036525443","NPI": "     1154377158"}, 
{"id": 42722,"ncpdp": "3814767","pharmacy_name": "TRAN PHARMACY","address1": "7816 NE SANDY BLVD","address2": "","city": "PORTLAND","state": "OR","zip": "97213","zip+4": "5760","phone": "9712441100","NPI": "     1477769636"}, 
{"id": 42723,"ncpdp": "3814806","pharmacy_name": "SAFEWAY #1123","address1": "2249 CASCADE AVE","address2": "","city": "HOOD RIVER","state": "OR","zip": "97031","zip+4": "0000","phone": "5413868374","NPI": "     1194754143"}, 
{"id": 42724,"ncpdp": "3814818","pharmacy_name": "SAVON PHARMACY #537","address1": "1690 ALLEN CREEK RD","address2": "","city": "GRANTS PASS","state": "OR","zip": "97527","zip+4": "0000","phone": "5414719043","NPI": "     1063468064"}, 
{"id": 42725,"ncpdp": "3814820","pharmacy_name": "WALGREEN DRUG STORE #7120","address1": "603 SW BAKER ST","address2": "","city": "MCMINNVILLE","state": "OR","zip": "97128","zip+4": "0000","phone": "5034743770","NPI": "     1053326041"}, 
{"id": 42726,"ncpdp": "3814832","pharmacy_name": "WALGREEN DRUG STORE #6664","address1": "1840 PORTLAND RD","address2": "","city": "NEWBERG","state": "OR","zip": "97132","zip+4": "0000","phone": "5035389360","NPI": "     1962417956"}, 
{"id": 42727,"ncpdp": "3814844","pharmacy_name": "PHARMACY EXPRESS #57","address1": "4601 CARNES RD","address2": "","city": "ROSEBURG","state": "OR","zip": "97470","zip+4": "0000","phone": "5416790771","NPI": "     1942296918"}, 
{"id": 42728,"ncpdp": "3814856","pharmacy_name": "RED CROSS INSTITUTIONAL PHCY","address1": "206 DEPOT ST","address2": "","city": "LA GRANDE","state": "OR","zip": "97850","zip+4": "0000","phone": "5419635741","NPI": "     1902849268"}, 
{"id": 42729,"ncpdp": "3814868","pharmacy_name": "TARGET PHARMACY #0362","address1": "2295 SE TUALATIN VALLEY","address2": "","city": "HILLSBORO","state": "OR","zip": "97123","zip+4": "0000","phone": "5037070000","NPI": "     1659393379"}, 
{"id": 42730,"ncpdp": "3814870","pharmacy_name": "TARGET PHARMACY #0613","address1": "2000 CRATER LAKE HWY","address2": "","city": "MEDFORD","state": "OR","zip": "97501","zip+4": "0000","phone": "5417795110","NPI": "     1568484285"}, 
{"id": 42731,"ncpdp": "3814882","pharmacy_name": "TARGET PHARMACY #0910","address1": "18101 NW EVERGREEN PKWY","address2": "","city": "BEAVERTON","state": "OR","zip": "97006","zip+4": "0000","phone": "5032070041","NPI": "     1477575199"}, 
{"id": 42732,"ncpdp": "3814907","pharmacy_name": "WALGREEN DRUG STORE #7227","address1": "12405 SE 82ND AVE","address2": "","city": "PORTLAND","state": "OR","zip": "97266","zip+4": "0000","phone": "5036531265","NPI": "     1013924935"}, 
{"id": 42733,"ncpdp": "3814919","pharmacy_name": "BIMART PHARMACY #670","address1": "110 EAST 6TH AVE","address2": "","city": "JUNCTION CITY","state": "OR","zip": "97448","zip+4": "1807","phone": "5419986498","NPI": "     1972536233"}, 
{"id": 42734,"ncpdp": "3814921","pharmacy_name": "GENOA HEALTHCARE #02","address1": "529 W CENTENNIAL","address2": "","city": "SPRINGFIELD","state": "OR","zip": "97477","zip+4": "0000","phone": "5418681682","NPI": "     1497713739"}, 
{"id": 42735,"ncpdp": "3814957","pharmacy_name": "SAFEWAY #1888","address1": "320 W CENTURY DRIVE","address2": "","city": "BEND","state": "OR","zip": "97702","zip+4": "0000","phone": "5413897184","NPI": "     1003845058"}, 
{"id": 42736,"ncpdp": "3814969","pharmacy_name": "WALGREEN DRUG STORE #7373","address1": "111 UNION AVE","address2": "","city": "GRANTS PASS","state": "OR","zip": "97527","zip+4": "0000","phone": "5414714108","NPI": "     1871508861"}, 
{"id": 42737,"ncpdp": "3814995","pharmacy_name": "SAFEWAY #1690","address1": "590 NE CIRCLE BLVD","address2": "","city": "CORVALLIS","state": "OR","zip": "97330","zip+4": "0000","phone": "5417532970","NPI": "     1639100456"}, 
{"id": 42738,"ncpdp": "3815000","pharmacy_name": "VIRGINIA GARCIA MEM HLTH CTR P","address1": "1152 NE BASELINE","address2": "","city": "CORNELIUS","state": "OR","zip": "97113","zip+4": "0000","phone": "5033528552","NPI": "     1811930175"}, 
{"id": 42739,"ncpdp": "3815012","pharmacy_name": "SAVON PHARMACY #521","address1": "16199 BOONES FERRY RD","address2": "","city": "LAKE OSWEGO","state": "OR","zip": "97035","zip+4": "0000","phone": "5036356630","NPI": "     1972559979"}, 
{"id": 42740,"ncpdp": "3815024","pharmacy_name": "TARGET PHARMACY #0608","address1": "3790 CENTER ST NE","address2": "","city": "SALEM","state": "OR","zip": "97301","zip+4": "0000","phone": "5035884433","NPI": "     1548282262"}, 
{"id": 42741,"ncpdp": "3815036","pharmacy_name": "TARGET PHARMACY #0612","address1": "2750 GATEWAY ST","address2": "","city": "SPRINGFIELD","state": "OR","zip": "97477","zip+4": "0000","phone": "5417411547","NPI": "     1194747816"}, 
{"id": 42742,"ncpdp": "3815048","pharmacy_name": "SAVON PHARMACY #555","address1": "1177 WAVERLY DR SE","address2": "","city": "ALBANY","state": "OR","zip": "97321","zip+4": "0000","phone": "5419671016","NPI": "     1881640886"}, 
{"id": 42743,"ncpdp": "3815050","pharmacy_name": "COSTCO PHARMACY #766","address1": "25900 HEATHER PLACE","address2": "","city": "WILSONVILLE","state": "OR","zip": "97070","zip+4": "0000","phone": "5038254005","NPI": "     1750491387"}, 
{"id": 42744,"ncpdp": "3815062","pharmacy_name": "WALGREEN DRUG STORE #6852","address1": "19975 SW TUALATIN VALLEY HWY","address2": "","city": "ALOHA","state": "OR","zip": "97006","zip+4": "0000","phone": "5038487146","NPI": "     1780699777"}, 
{"id": 42745,"ncpdp": "3815074","pharmacy_name": "BIMART PHARMACY #671","address1": "51670 HUNTINGTON RD","address2": "","city": "LA PINE","state": "OR","zip": "97739","zip+4": "9626","phone": "5415365052","NPI": "     1881627149"}, 
{"id": 42746,"ncpdp": "3815086","pharmacy_name": "WALGREEN DRUG STORE #7119","address1": "5420 NE 33RD AVE","address2": "","city": "PORTLAND","state": "OR","zip": "97211","zip+4": "0000","phone": "9712300150","NPI": "     1114934098"}, 
{"id": 42747,"ncpdp": "3815101","pharmacy_name": "WALGREEN DRUG STORE #6530","address1": "1700 PACIFIC BLVD SE","address2": "","city": "ALBANY","state": "OR","zip": "97321","zip+4": "0000","phone": "5419261310","NPI": "     1598770588"}, 
{"id": 42748,"ncpdp": "3815125","pharmacy_name": "GRESHAM PROFESSIONAL PHCY","address1": "24076 SE STARK","address2": "STE 100","city": "GRESHAM","state": "OR","zip": "97080","zip+4": "0000","phone": "5034910117","NPI": "     1063401198"}, 
{"id": 42749,"ncpdp": "3815137","pharmacy_name": "TARGET PHARMACY #1847","address1": "25925 SW HEATHER PL","address2": "","city": "WILSONVILLE","state": "OR","zip": "97070","zip+4": "0000","phone": "5036827793","NPI": "     1457373177"}, 
{"id": 42750,"ncpdp": "3815151","pharmacy_name": "BIMART PHARMACY #665","address1": "2680 S SANTIAM HWY","address2": "","city": "LEBANON","state": "OR","zip": "97355","zip+4": "3054","phone": "5412588045","NPI": "     1699708958"}, 
{"id": 42751,"ncpdp": "3815175","pharmacy_name": "WALGREEN DRUG STORE #7665","address1": "21065 SW PACIFIC HWY","address2": "","city": "SHERWOOD","state": "OR","zip": "97140","zip+4": "0000","phone": "5036258911","NPI": "     1407861495"}, 
{"id": 42752,"ncpdp": "3815199","pharmacy_name": "WALGREEN DRUG STORE #7688","address1": "9450 SW WILSONVILLE RD","address2": "","city": "WILSONVILLE","state": "OR","zip": "97070","zip+4": "0000","phone": "5035821118","NPI": "     1316952302"}, 
{"id": 42753,"ncpdp": "3815226","pharmacy_name": "FRED MEYER PHARMACY #701663","address1": "16625 362ND AVE","address2": "","city": "SANDY","state": "OR","zip": "97055","zip+4": "0000","phone": "5036682363","NPI": "     1043256589"}, 
{"id": 42754,"ncpdp": "3815238","pharmacy_name": "CONSONUS PHARMACY SERVICES LLC","address1": "4560 SE INTERNATIONAL WAY","address2": "STE 101","city": "MILWAUKIE","state": "OR","zip": "97222","zip+4": "0000","phone": "9712065205","NPI": "     1225073448"}, 
{"id": 42755,"ncpdp": "3815240","pharmacy_name": "SAFEWAY #2627","address1": "3250 LEIF ERIKSON DR","address2": "","city": "ASTORIA","state": "OR","zip": "97103","zip+4": "0000","phone": "5033380291","NPI": "     1912936964"}, 
{"id": 42756,"ncpdp": "3815264","pharmacy_name": "WALGREEN DRUG STORE #1083","address1": "12505 NW CORNELL RD","address2": "","city": "PORTLAND","state": "OR","zip": "97229","zip+4": "0000","phone": "5036438522","NPI": "     1225043219"}, 
{"id": 42757,"ncpdp": "3815276","pharmacy_name": "SAVON PHARMACY #528","address1": "615 SW KECK DR","address2": "","city": "MCMINNVILLE","state": "OR","zip": "97128","zip+4": "0000","phone": "5034740894","NPI": "     1699721696"}, 
{"id": 42758,"ncpdp": "3815288","pharmacy_name": "SAFEWAY #2696","address1": "14840 SE WEBSTER RD","address2": "","city": "MILWAUKIE","state": "OR","zip": "97267","zip+4": "0000","phone": "5033031090","NPI": "     1548291362"}, 
{"id": 42759,"ncpdp": "3815290","pharmacy_name": "WALGREEN DRUG STORE #1082","address1": "4816 NW BETHANY BLVD","address2": "","city": "PORTLAND","state": "OR","zip": "97229","zip+4": "0000","phone": "5035334845","NPI": "     1023025905"}, 
{"id": 42760,"ncpdp": "3815303","pharmacy_name": "SAVON PHARMACY #518","address1": "30299 SW BOONES FERRY RD","address2": "","city": "WILSONVILLE","state": "OR","zip": "97070","zip+4": "0000","phone": "5036824435","NPI": "     1508812504"}, 
{"id": 42761,"ncpdp": "3815327","pharmacy_name": "TARGET PHARMACY #0344","address1": "10775 SW BEAVERTON HILLSDALE H","address2": "","city": "BEAVERTON","state": "OR","zip": "97005","zip+4": "0000","phone": "5032070646","NPI": "     1366464083"}, 
{"id": 42762,"ncpdp": "3815339","pharmacy_name": "WALGREEN DRUG STORE #7975","address1": "5807 MAIN ST","address2": "","city": "SPRINGFIELD","state": "OR","zip": "97478","zip+4": "0000","phone": "5417268358","NPI": "     1134134125"}, 
{"id": 42763,"ncpdp": "3815341","pharmacy_name": "WALGREEN DRUG STORE #7971","address1": "1450 S HWY 97","address2": "","city": "REDMOND","state": "OR","zip": "97756","zip+4": "0000","phone": "5415481070","NPI": "     1043225030"}, 
{"id": 42764,"ncpdp": "3815377","pharmacy_name": "TARGET PHARMACY #1868","address1": "21365 SW BALER WAY","address2": "","city": "SHERWOOD","state": "OR","zip": "97140","zip+4": "0000","phone": "5036106001","NPI": "     1184646804"}, 
{"id": 42765,"ncpdp": "3841877","pharmacy_name": "WALGREEN DRUG STORE #1100","address1": "9159 SE 82ND AVE","address2": "","city": "PORTLAND","state": "OR","zip": "97266","zip+4": "0000","phone": "5037711386","NPI": "     1831106715"}, 
{"id": 42766,"ncpdp": "3841916","pharmacy_name": "THE MERRILL CLINIC LLC","address1": "125 N LINCOLN ST","address2": "","city": "MERRILL","state": "OR","zip": "97633","zip+4": "0000","phone": "5417985074","NPI": "     1730181926"}, 
{"id": 42767,"ncpdp": "3841942","pharmacy_name": "RITE AID PHARMACY #06467","address1": "600 NW 10TH AVENUE","address2": "","city": "PORTLAND","state": "OR","zip": "97209","zip+4": "3202","phone": "5032274835","NPI": "     1780690099"}, 
{"id": 42768,"ncpdp": "3841978","pharmacy_name": "QFC PHARMACY #705202","address1": "7525 SW BARNES RD","address2": "","city": "PORTLAND","state": "OR","zip": "97225","zip+4": "0000","phone": "5032035951","NPI": "     1619992252"}, 
{"id": 42769,"ncpdp": "3842007","pharmacy_name": "WAL-MART PHARMACY #105440","address1": "10000 SOUTHEAST 82ND AVE","address2": "","city": "PORTLAND","state": "OR","zip": "97266","zip+4": "0000","phone": "5037884757","NPI": "     1467471474"}, 
{"id": 42770,"ncpdp": "3842019","pharmacy_name": "APPLETREE PHARMACY","address1": "555 S W 4TH AVE","address2": "","city": "ONTARIO","state": "OR","zip": "97914","zip+4": "0000","phone": "5418892775","NPI": "     1952395733"}, 
{"id": 42771,"ncpdp": "3842021","pharmacy_name": "WAL-MART PHARMACY #105368","address1": "1940 TURNER ROAD SE","address2": "","city": "SALEM","state": "OR","zip": "97302","zip+4": "0000","phone": "5033910586","NPI": "     1407873557"}, 
{"id": 42772,"ncpdp": "3842033","pharmacy_name": "HAGGEN #31","address1": "9055 SW MURRAY BLVD","address2": "","city": "BEAVERTON","state": "OR","zip": "97008","zip+4": "0000","phone": "5035215861","NPI": "     1427081769"}, 
{"id": 42773,"ncpdp": "3842083","pharmacy_name": "OHSU GABRIEL PARK PHARMACY","address1": "VERMONT HILLS PLAZA","address2": "4411 SW VERMONT AVE","city": "PORTLAND","state": "OR","zip": "97219","zip+4": "0000","phone": "5034942098","NPI": "     1982797155"}, 
{"id": 42774,"ncpdp": "3842134","pharmacy_name": "TARGET PHARMACY #0609","address1": "2255 14TH AVE SE","address2": "","city": "ALBANY","state": "OR","zip": "97321","zip+4": "0000","phone": "5417919566","NPI": "     1992727614"}, 
{"id": 42775,"ncpdp": "3842160","pharmacy_name": "WALGREEN DRUG STORE #9651","address1": "515 MOUNT HOOD ST","address2": "","city": "THE DALLES","state": "OR","zip": "97058","zip+4": "0000","phone": "5412963190","NPI": "     1952316945"}, 
{"id": 42776,"ncpdp": "3842196","pharmacy_name": "WALGREEN DRUG STORE #9258","address1": "1210 MOHAWK BLVD","address2": "","city": "SPRINGFIELD","state": "OR","zip": "97477","zip+4": "0000","phone": "5417473619","NPI": "     1861407850"}, 
{"id": 42777,"ncpdp": "3842209","pharmacy_name": "COSTCO PHARMACY #692","address1": "1255 NE 48TH AVE","address2": "","city": "HILLSBORO","state": "OR","zip": "97124","zip+4": "0000","phone": "5036812828","NPI": "     1669582292"}, 
{"id": 42778,"ncpdp": "3842211","pharmacy_name": "PHARMACY EXPRESS #65","address1": "900 SW 23RD ST","address2": "","city": "REDMOND","state": "OR","zip": "97756","zip+4": "0000","phone": "5415040834","NPI": "     1467431817"}, 
{"id": 42779,"ncpdp": "3842235","pharmacy_name": "MIKES LONG TERM PHARMACY #2152","address1": "201 VILLA ROAD SUITE A","address2": "","city": "NEWBERG","state": "OR","zip": "97132","zip+4": "0000","phone": "5035385715","NPI": "     1316966484"}, 
{"id": 42780,"ncpdp": "3842259","pharmacy_name": "TARGET PHARMACY #2110","address1": "6450 KEIZER STATION BLVD NE","address2": "","city": "KEIZER","state": "OR","zip": "97303","zip+4": "0000","phone": "5038560614","NPI": "     1801818521"}, 
{"id": 42781,"ncpdp": "3842261","pharmacy_name": "WALGREEN DRUG STORE #9353","address1": "115 N 20TH AVE","address2": "","city": "CORNELIUS","state": "OR","zip": "97113","zip+4": "0000","phone": "5033570517","NPI": "     1770598765"}, 
{"id": 42782,"ncpdp": "3842273","pharmacy_name": "WALGREEN DRUG STORE #9671","address1": "1625 E HARBOR DR","address2": "","city": "WARRENTON","state": "OR","zip": "97146","zip+4": "0000","phone": "5038612039","NPI": "     1689689671"}, 
{"id": 42783,"ncpdp": "3842285","pharmacy_name": "PHARMACY EXPRESS #2","address1": "97900 SHOPPING CENTER AVE STE","address2": "","city": "HARBOR","state": "OR","zip": "97415","zip+4": "0000","phone": "5414699560","NPI": "     1235178666"}, 
{"id": 42784,"ncpdp": "3842324","pharmacy_name": "WALGREEN DRUG STORE #09875","address1": "4048 NW HWY 101","address2": "","city": "LINCOLN CITY","state": "OR","zip": "97367","zip+4": "0000","phone": "5419945670","NPI": "     1023065190"}, 
{"id": 42785,"ncpdp": "3842336","pharmacy_name": "WALGREEN DRUG STORE #09287","address1": "124 LANCASTER DR SE","address2": "","city": "SALEM","state": "OR","zip": "97317","zip+4": "5331","phone": "5034285004","NPI": "     1396799540"}, 
{"id": 42786,"ncpdp": "3842348","pharmacy_name": "WALGREEN DRUG STORE #09625","address1": "17850 SW BOONES FERRY RD","address2": "","city": "TUALATIN","state": "OR","zip": "97034","zip+4": "0000","phone": "9712330113","NPI": "     1841232089"}, 
{"id": 42787,"ncpdp": "3842362","pharmacy_name": "BENDS PILL BOX #11","address1": "325 NE FRANKLIN AVE","address2": "","city": "BEND","state": "OR","zip": "97701","zip+4": "0000","phone": "5413821454","NPI": "     1437242898"}, 
{"id": 42788,"ncpdp": "3842374","pharmacy_name": "PHARMACY EXPRESS #70","address1": "621 NW HICKORY ST","address2": "","city": "ALBANY","state": "OR","zip": "97321","zip+4": "0000","phone": "5417918395","NPI": "     1679503775"}, 
{"id": 42789,"ncpdp": "3842437","pharmacy_name": "SAFEWAY #2690","address1": "4320 SE KING ROAD","address2": "","city": "MILWAUKIE","state": "OR","zip": "97222","zip+4": "0000","phone": "5036591840","NPI": "     1043231020"}, 
{"id": 42790,"ncpdp": "3842526","pharmacy_name": "OHSU CENTER FOR HEALTH AND HEA","address1": "3303 SW BOND AVE","address2": "","city": "PORTLAND","state": "OR","zip": "97239","zip+4": "0000","phone": "5034189898","NPI": "     1790878973"}, 
{"id": 42791,"ncpdp": "3842552","pharmacy_name": "WALGREEN DRUG STORE #09544","address1": "10903 SE OAK ST","address2": "","city": "MILWAUKIE","state": "OR","zip": "97222","zip+4": "6641","phone": "9712331002","NPI": "     1245398098"}, 
{"id": 42792,"ncpdp": "3842564","pharmacy_name": "WALGREEN DRUG STORE #09650","address1": "699 WALLACE RD NW","address2": "","city": "SALEM","state": "OR","zip": "97304","zip+4": "3834","phone": "5034285073","NPI": "     1336298181"}, 
{"id": 42793,"ncpdp": "3842588","pharmacy_name": "SISTERS DRUG AND GIFT #10","address1": "211 E CASCADE","address2": "","city": "SISTERS","state": "OR","zip": "97759","zip+4": "0000","phone": "5415496221","NPI": "     1558448225"}, 
{"id": 42794,"ncpdp": "3842590","pharmacy_name": "ASSURED PHARMACY GRESHAM","address1": "831 NW COUNSIL DR","address2": "STE 115","city": "GRESHAM","state": "OR","zip": "97030","zip+4": "0000","phone": "9712230552","NPI": "     1588741458"}, 
{"id": 42795,"ncpdp": "3842603","pharmacy_name": "BIMART PHARMACY #675","address1": "150 MELTON ROAD","address2": "","city": "CRESWELL","state": "OR","zip": "97426","zip+4": "0000","phone": "5418959810","NPI": "     1508941907"}, 
{"id": 42796,"ncpdp": "3842691","pharmacy_name": "HEMATOLOGY ONCOLOGY ASSOCIATES","address1": "2828 E BARNETT RD","address2": "","city": "MEDFORD","state": "OR","zip": "97504","zip+4": "0000","phone": "5417745850","NPI": "     1245286301"}, 
{"id": 42797,"ncpdp": "3842704","pharmacy_name": "OHSU DOERNBECHER CHILDRENS HOS","address1": "3181 SW SAM JACKSON PARK ROAD","address2": "","city": "PORTLAND","state": "OR","zip": "97239","zip+4": "3098","phone": "5034185244","NPI": "     1053454645"}, 
{"id": 42798,"ncpdp": "3842716","pharmacy_name": "SALUD MEDICAL CENTER","address1": "1175 MT HOOD AVE","address2": "","city": "WOODBURN","state": "OR","zip": "97071","zip+4": "0000","phone": "5039820635","NPI": "     1538387824"}, 
{"id": 42799,"ncpdp": "3842728","pharmacy_name": "RICES PHARMACY","address1": "910 NW KINGS BLVD","address2": "","city": "CORVALLIS","state": "OR","zip": "97330","zip+4": "0000","phone": "5417527779","NPI": "     1417178336"}, 
{"id": 42800,"ncpdp": "3842730","pharmacy_name": "RITE AID PHARMACY #04064","address1": "17495 SW FARMINGTON ROAD","address2": "","city": "ALOHA","state": "OR","zip": "97007","zip+4": "3212","phone": "5038487700","NPI": "     1972718260"}, 
{"id": 42801,"ncpdp": "3842742","pharmacy_name": "HILLSBORO HEMATOLOGY AND ONCOL","address1": "405 SE 8TH AVE","address2": "","city": "HILLSBORO","state": "OR","zip": "97123","zip+4": "0000","phone": "5036403687","NPI": "     1306901574"}, 
{"id": 42802,"ncpdp": "3842754","pharmacy_name": "WALGREENS DRUG STORE #09328","address1": "210 E BARNETT RD","address2": "","city": "MEDFORD","state": "OR","zip": "97501","zip+4": "7928","phone": "5418583336","NPI": "     1205043387"}, 
{"id": 42803,"ncpdp": "3842766","pharmacy_name": "WALGREENS DRUG STORE #10893","address1": "1080 SW 1ST AVE","address2": "","city": "CANBY","state": "OR","zip": "97013","zip+4": "0000","phone": "5032631600","NPI": "     1194932277"}, 
{"id": 42804,"ncpdp": "3842778","pharmacy_name": "REDMOND PHARMACY AND COMPOUNDI","address1": "1245 NW 4TH STREET","address2": "","city": "REDMOND","state": "OR","zip": "97756","zip+4": "0000","phone": "5415261771","NPI": "     1356555460"}, 
{"id": 42805,"ncpdp": "3842817","pharmacy_name": "WELLPARTNER PHARMACY","address1": "7216 SW DURHAM RD","address2": "STE P 200","city": "PORTLAND","state": "OR","zip": "97224","zip+4": "0000","phone": "5037185721","NPI": "     1568667756"}, 
{"id": 42806,"ncpdp": "3842829","pharmacy_name": "SAVON PHARMACY #588","address1": "61155 S HWY 97","address2": "","city": "BEND","state": "OR","zip": "97702","zip+4": "0000","phone": "5413825742","NPI": "     1467658864"}, 
{"id": 42807,"ncpdp": "3842831","pharmacy_name": "HOMETOWN DRUGS","address1": "1813 W HARVARD AVE STE 210","address2": "STE 210","city": "ROSEBURG","state": "OR","zip": "97471","zip+4": "0000","phone": "5412291112","NPI": "     1821292707"}, 
{"id": 42808,"ncpdp": "3842893","pharmacy_name": "SYNERGY RX","address1": "55 COBURG RD","address2": "","city": "EUGENE","state": "OR","zip": "97401","zip+4": "0000","phone": "5413433758","NPI": "     1306037825"}, 
{"id": 42809,"ncpdp": "3842906","pharmacy_name": "WAL-MART PHARMACY #105424","address1": "11500 HANNON ROAD","address2": "","city": "EAGLE POINT","state": "OR","zip": "97524","zip+4": "0000","phone": "5418262670","NPI": "     1811196074"}, 
{"id": 42810,"ncpdp": "3842918","pharmacy_name": "LOWER UMPQUA HOSPITAL PHARMACY","address1": "600 RANCH RD","address2": "","city": "REEDSPORT","state": "OR","zip": "97467","zip+4": "0000","phone": "5412716370","NPI": "     1336334754"}, 
{"id": 42811,"ncpdp": "3842932","pharmacy_name": "BIMART PHARMACY #676","address1": "391 NW DOUGLAS BLVD","address2": "","city": "WINSTON","state": "OR","zip": "97496","zip+4": "8567","phone": "5416794801","NPI": "     1124211040"}, 
{"id": 42812,"ncpdp": "3842944","pharmacy_name": "WALGREENS SPECIALTY PHARMACY #","address1": "9775 SW GEMINI","address2": "STE 1","city": "BEAVERTON","state": "OR","zip": "97008","zip+4": "7148","phone": "5036438511","NPI": "     1669668752"}, 
{"id": 42813,"ncpdp": "3842956","pharmacy_name": "WALGREEN DRUG STORE #11696","address1": "1727 12TH ST","address2": "","city": "HOOD RIVER","state": "OR","zip": "97031","zip+4": "9531","phone": "5413857361","NPI": "     1215125471"}, 
{"id": 42814,"ncpdp": "3842968","pharmacy_name": "WALGREEN DRUG STORE #10054","address1": "65 SE GOODFELLOW ST","address2": "","city": "ONTARIO","state": "OR","zip": "97914","zip+4": "3016","phone": "5418896288","NPI": "     1689862708"}, 
{"id": 42815,"ncpdp": "3842970","pharmacy_name": "ECONOMY DRUGS","address1": "621 MAIN ST","address2": "STE A","city": "SWEET HOME","state": "OR","zip": "97386","zip+4": "0000","phone": "5413676777","NPI": "     1801085212"}, 
{"id": 42816,"ncpdp": "3842982","pharmacy_name": "GRESHAM URGENT CARE CLINIC","address1": "2850 E POWELL VALLEY RD","address2": "","city": "GRESHAM","state": "OR","zip": "97080","zip+4": "0000","phone": "5036665050","NPI": "     1669652186"}, 
{"id": 42817,"ncpdp": "3842994","pharmacy_name": "WALGREEN DRUG STORE #10056","address1": "175 S COLUMBIA RIVER HWY","address2": "","city": "ST HELENS","state": "OR","zip": "97051","zip+4": "0000","phone": "5033977862","NPI": "     1811177223"}, 
{"id": 42818,"ncpdp": "3843009","pharmacy_name": "WALGREEN DRUG STORE #10812","address1": "6 W Q ST","address2": "","city": "SPRINGFIELD","state": "OR","zip": "97477","zip+4": "0000","phone": "5417363857","NPI": "     1710167127"}, 
{"id": 42819,"ncpdp": "3843035","pharmacy_name": "GENOA HEALTHCARE LLC #60","address1": "3180 CENTER ST NE","address2": "STE 3360","city": "SALEM","state": "OR","zip": "97301","zip+4": "4532","phone": "5033643047","NPI": "     1003093162"}, 
{"id": 42820,"ncpdp": "3843047","pharmacy_name": "WALGREENS #10137","address1": "38241 PROCTOR BLVD","address2": "","city": "SANDY","state": "OR","zip": "97055","zip+4": "8019","phone": "5036681384","NPI": "     1093998627"}, 
{"id": 42821,"ncpdp": "3843059","pharmacy_name": "WALGREEN DRUG STORE #11173","address1": "4760 LIBERTY RD S","address2": "","city": "SALEM","state": "OR","zip": "97302","zip+4": "0000","phone": "5034285098","NPI": "     1467630780"}, 
{"id": 42822,"ncpdp": "3843073","pharmacy_name": "WALGREEN DRUG STORE #11398","address1": "439 SE 223RD AVE","address2": "","city": "GRESHAM","state": "OR","zip": "97030","zip+4": "0000","phone": "5036670394","NPI": "     1902075625"}, 
{"id": 42823,"ncpdp": "3843148","pharmacy_name": "WALGREEN DRUG STORE #11632","address1": "2150 FAIRGROUNDS RD NE","address2": "","city": "SALEM","state": "OR","zip": "97301","zip+4": "0000","phone": "5034285107","NPI": "     1104092303"}, 
{"id": 42824,"ncpdp": "3843186","pharmacy_name": "FAIRLEYS HEALTHCARE","address1": "7206 NE SANDY BLVD","address2": "","city": "PORTLAND","state": "OR","zip": "97213","zip+4": "0000","phone": "5032817500","NPI": "     1265695456"}, 
{"id": 42825,"ncpdp": "3843198","pharmacy_name": "VERNONIA PHARMACY","address1": "622 BRIDGE ST","address2": "","city": "VERNONIA","state": "OR","zip": "97064","zip+4": "0000","phone": "5034290591","NPI": "     1578727665"}, 
{"id": 42826,"ncpdp": "3843249","pharmacy_name": "BI-MART PHARMACY #677","address1": "36859 HIGHWAY 26","address2": "","city": "SANDY","state": "OR","zip": "97055","zip+4": "7213","phone": "5037831023","NPI": "     1972766061"}, 
{"id": 42827,"ncpdp": "3843251","pharmacy_name": "TARGET PHARMACY #0346","address1": "9000 SE SUNNYSIDE RD","address2": "","city": "CLACKAMASS","state": "OR","zip": "97015","zip+4": "0000","phone": "5039745058","NPI": "     1619125614"}, 
{"id": 42828,"ncpdp": "3843263","pharmacy_name": "WALGREENS #11399","address1": "3300 BURDELL BLVD","address2": "","city": "LEBANON","state": "OR","zip": "97355","zip+4": "0000","phone": "5414513502","NPI": "     1538315601"}, 
{"id": 42829,"ncpdp": "3843287","pharmacy_name": "WALGREENS #11643","address1": "1675 COBURG RD","address2": "","city": "EUGENE","state": "OR","zip": "97401","zip+4": "0000","phone": "5413440015","NPI": "     1417105891"}, 
{"id": 42830,"ncpdp": "3843299","pharmacy_name": "WALGREENS #12068","address1": "1377 NE STEPHENS ST","address2": "","city": "ROSEBURG","state": "OR","zip": "97470","zip+4": "0000","phone": "5416721509","NPI": "     1114175015"}, 
{"id": 42831,"ncpdp": "3843302","pharmacy_name": "WALGREENS #11719","address1": "6215 SE TUALATIN VALLEY HWY","address2": "","city": "HILLSBORO","state": "OR","zip": "97123","zip+4": "7399","phone": "5032591326","NPI": "     1225286750"}, 
{"id": 42832,"ncpdp": "3843326","pharmacy_name": "SAFEWAY PHARMACY #2790","address1": "1303 NW LOVEJOY","address2": "","city": "PORTLAND","state": "OR","zip": "97209","zip+4": "0000","phone": "5032056751","NPI": "     1205086493"}, 
{"id": 42833,"ncpdp": "3843338","pharmacy_name": "HANS PHARMACY INC","address1": "136 NE 3RD STREET","address2": "","city": "PRINEVILLE","state": "OR","zip": "97754","zip+4": "1915","phone": "5414161970","NPI": "     1346492683"}, 
{"id": 42834,"ncpdp": "3843403","pharmacy_name": "RIVER ROAD HEALTHMART PHARMACY","address1": "884 RIVER ROAD","address2": "","city": "EUGENE","state": "OR","zip": "97404","zip+4": "0000","phone": "5416363522","NPI": "     1770728925"}, 
{"id": 42835,"ncpdp": "3843441","pharmacy_name": "SAFEWAY PHARMACY #4711","address1": "1900 WOODLAND DRIVE","address2": "","city": "COOS BAY","state": "OR","zip": "97420","zip+4": "0000","phone": "5412667542","NPI": "     1053557801"}, 
{"id": 42836,"ncpdp": "3843453","pharmacy_name": "OHSU BEAVERTON PHARMACY","address1": "15700 SW GREYSTONE CT","address2": "","city": "BEAVERTON","state": "OR","zip": "97006","zip+4": "0000","phone": "5036014710","NPI": "     1114164381"}, 
{"id": 42837,"ncpdp": "3843465","pharmacy_name": "PAYLESS DRUG-LANE COUNTY PHARM","address1": "2411 MARTIN LUTHER KING JR BLV","address2": "","city": "EUGENE","state": "OR","zip": "97401","zip+4": "0000","phone": "5412340026","NPI": "     1326284894"}, 
{"id": 42838,"ncpdp": "3843504","pharmacy_name": "WALGREENS #12290","address1": "1704 E MAIN ST","address2": "","city": "COTTAGE GROVE","state": "OR","zip": "97424","zip+4": "2244","phone": "5419422224","NPI": "     1265678650"}, 
{"id": 42839,"ncpdp": "3843516","pharmacy_name": "PHYSICANS BUILDING PHARMACY","address1": "1234 COMMERICAL ST SE","address2": "","city": "SALEM","state": "OR","zip": "97302","zip+4": "0000","phone": "5033624874","NPI": "     1396922621"}, 
{"id": 42840,"ncpdp": "3843528","pharmacy_name": "OHSU RICHMOND CLINIC PHARMACY","address1": "3930 SE DIVISION","address2": "","city": "PORTLAND","state": "OR","zip": "97202","zip+4": "0000","phone": "5034183250","NPI": "     1952542540"}, 
{"id": 42841,"ncpdp": "3843542","pharmacy_name": "OREGON PAIN ASSOCIATES","address1": "527 SE 39TH AVENUE","address2": "","city": "PORTLAND","state": "OR","zip": "97214","zip+4": "0000","phone": "5032387246","NPI": "     1134163413"}, 
{"id": 42842,"ncpdp": "3843554","pharmacy_name": "CHILDHOOD HEALTH ASSOCIATES OF","address1": "891 23RD STREET NE","address2": "","city": "SALEM","state": "OR","zip": "97301","zip+4": "0000","phone": "5033642181","NPI": "     1467677864"}, 
{"id": 42843,"ncpdp": "3843566","pharmacy_name": "WALGREENS #13016","address1": "3377 RIVERBEND DRIVE","address2": "","city": "SPRINGFIELD","state": "OR","zip": "97477","zip+4": "0000","phone": "5417369895","NPI": "     1275775561"}, 
{"id": 42844,"ncpdp": "3843578","pharmacy_name": "FLORENCE PHARMACY #3","address1": "2935 HWY 101","address2": "","city": "FLORENCE","state": "OR","zip": "97439","zip+4": "0000","phone": "5419029966","NPI": "     1861635922"}, 
{"id": 42845,"ncpdp": "3843592","pharmacy_name": "BI-MART PHARMACY # #644","address1": "4310 HWY 101","address2": "","city": "FLORENCE","state": "OR","zip": "97439","zip+4": "8832","phone": "5419973099","NPI": "     1043454291"}, 
{"id": 42846,"ncpdp": "3843617","pharmacy_name": "BI-MART PHARMACY # #680","address1": "445 WEST HIGHWAY 20","address2": "","city": "SISTERS","state": "OR","zip": "97759","zip+4": "0000","phone": "5418681766","NPI": "     1659513026"}, 
{"id": 42847,"ncpdp": "3843629","pharmacy_name": "WILLAMETTE VALLEY CANCER INSTI","address1": "3377 RIVERBEND DR STE 500","address2": "","city": "SPRINGFIELD","state": "OR","zip": "97477","zip+4": "8800","phone": "5417369931","NPI": "     1063642031"}, 
{"id": 42848,"ncpdp": "3843643","pharmacy_name": "TARGET PHARMACY #2523","address1": "9401 NE CASCADES PKWY","address2": "","city": "PORTLAND","state": "OR","zip": "97220","zip+4": "6824","phone": "9712301931","NPI": "     1306078035"}, 
{"id": 42849,"ncpdp": "3843655","pharmacy_name": "BEND MEMORIAL CLINC, PC - WEST","address1": "1080 MOUNT BACHELOR DR","address2": "","city": "BEND","state": "OR","zip": "97702","zip+4": "3280","phone": "5415504400","NPI": "     1689800773"}, 
{"id": 42850,"ncpdp": "3843667","pharmacy_name": "BEND MEMORIAL CLC., PA - EASTS","address1": "1501 NE MEDICAL CENTER DR","address2": "","city": "BEND","state": "OR","zip": "97701","zip+4": "6051","phone": "5413822811","NPI": "     1699827477"}, 
{"id": 42851,"ncpdp": "3843681","pharmacy_name": "WALGREENS #12491","address1": "2788 RIVER RD","address2": "","city": "EUGENE","state": "OR","zip": "97404","zip+4": "2048","phone": "9712300555","NPI": "     1588897060"}, 
{"id": 42852,"ncpdp": "3843693","pharmacy_name": "COSTCO PHARMACY #1059","address1": "1804 SE ENSIGN LANE","address2": "","city": "WARRENTON","state": "OR","zip": "97146","zip+4": "0000","phone": "5033384110","NPI": "     1669705992"}, 
{"id": 42853,"ncpdp": "3843706","pharmacy_name": "PROFESSIONAL CENTER 205 PH","address1": "10000 SE MAIN ST","address2": "STE 118","city": "PORTLAND","state": "OR","zip": "97216","zip+4": "0000","phone": "5032552546","NPI": "     1265768774"}, 
{"id": 59517,"ncpdp": "9000534","pharmacy_name": "BI-MART CORPORATION","address1": "PO BOX 2310","address2": "","city": "EUGENE","state": "OR","zip": "97402","zip+4": "0000","phone": "5418681766","NPI": ""}, 
{"id": 59558,"ncpdp": "9000817","pharmacy_name": "RALPHS/WEST DIVISION","address1": "PO BOX 2377","address2": "FRED MEYER PRX CAS DESK","city": "PORTLAND","state": "OR","zip": "97208","zip+4": "2377","phone": "3108842957","NPI": ""}, 
{"id": 59507,"ncpdp": "9000468","pharmacy_name": "FRED MEYER PPS/WEST DIV","address1": "PO BOX 2377","address2": "A/R PRX CASH DESK","city": "PORTLAND","state": "OR","zip": "97208","zip+4": "2377","phone": "5037975283","NPI": ""}, 
{"id": 59511,"ncpdp": "9000495","pharmacy_name": "QFC/WEST DIVISION","address1": "PO BOX 2377","address2": "FRED MEYER PRX CAS DESK","city": "PORTLAND","state": "OR","zip": "97208","zip+4": "2377","phone": "5037975283","NPI": ""}, 
