{"id": 45867,"ncpdp": "4100323","pharmacy_name": "RITE AID PHARMACY #10248","address1": "1665 MINERAL SPRING AVENUE","address2": "","city": "NORTH PROVIDENCE","state": "RI","zip": "02904","zip+4": "4003","phone": "4013533113","NPI": "     1164521530"}, 
{"id": 45868,"ncpdp": "4100359","pharmacy_name": "CVS PHARMACY #00590","address1": "166 CASS AVE","address2": "","city": "WOONSOCKET","state": "RI","zip": "02895","zip+4": "0000","phone": "4017673600","NPI": "     1417051202"}, 
{"id": 45869,"ncpdp": "4100397","pharmacy_name": "CVS PHARMACY #00037","address1": "1998 MENDON RD","address2": "","city": "CUMBERLAND","state": "RI","zip": "02864","zip+4": "0000","phone": "4013331225","NPI": "     1235233024"}, 
{"id": 45870,"ncpdp": "4100450","pharmacy_name": "CAMPAGNAS PHARMACY","address1": "173 STATE ST","address2": "","city": "BRISTOL","state": "RI","zip": "02809","zip+4": "2205","phone": "4012538808","NPI": "     1013025741"}, 
{"id": 45871,"ncpdp": "4100599","pharmacy_name": "RITE AID PHARMACY #10262","address1": "250 ATWOOD AVENUE","address2": "","city": "CRANSTON","state": "RI","zip": "02920","zip+4": "4053","phone": "4019447172","NPI": "     1073612446"}, 
{"id": 45872,"ncpdp": "4100993","pharmacy_name": "ATWOOD PRESCRIPTION CENTER INC","address1": "1524 ATWOOD AVE","address2": "","city": "JOHNSTON","state": "RI","zip": "02919","zip+4": "3228","phone": "4018310100","NPI": "     1629181193"}, 
{"id": 45873,"ncpdp": "4101325","pharmacy_name": "HOWELL SMITH DRUGGIST","address1": "749 CENTRAL AVE","address2": "","city": "PAWTUCKET","state": "RI","zip": "02861","zip+4": "2195","phone": "4017257711","NPI": "     1194943779"}, 
{"id": 45874,"ncpdp": "4101414","pharmacy_name": "SIMPSONS PHARMACY INC","address1": "10 NEWPORT AVE","address2": "","city": "PAWTUCKET","state": "RI","zip": "02861","zip+4": "4414","phone": "4017227600","NPI": "     1417946906"}, 
{"id": 45875,"ncpdp": "4101488","pharmacy_name": "ANTHONYS DRUG","address1": "219 MANTON AVE","address2": "","city": "PROVIDENCE","state": "RI","zip": "02909","zip+4": "3388","phone": "4013519495","NPI": "     1558368878"}, 
{"id": 45876,"ncpdp": "4102074","pharmacy_name": "WAKEFIELD PRESCRIPTION CENTER","address1": "597 KINGSTOWN RD","address2": "","city": "WAKEFIELD","state": "RI","zip": "02879","zip+4": "3685","phone": "4017899791","NPI": "     1780781120"}, 
{"id": 45877,"ncpdp": "4102086","pharmacy_name": "CVS PHARMACY #00265","address1": "615 METACOM AVE RTE 136","address2": "","city": "WARREN","state": "RI","zip": "02885","zip+4": "0000","phone": "4012450400","NPI": "     1144324930"}, 
{"id": 45878,"ncpdp": "4102098","pharmacy_name": "DELEKTA PHARMACY INC","address1": "496 MAIN ST","address2": "","city": "WARREN","state": "RI","zip": "02885","zip+4": "4397","phone": "4012456767","NPI": "     1932200649"}, 
{"id": 45879,"ncpdp": "4102214","pharmacy_name": "SUBURBAN PHARMACY","address1": "242 PAWTUXET AVE","address2": "","city": "WARWICK","state": "RI","zip": "02888","zip+4": "1999","phone": "4017812110","NPI": "     1245373307"}, 
{"id": 45880,"ncpdp": "4102466","pharmacy_name": "CVS PHARMACY #00247","address1": "444 WILLETT AVE","address2": "","city": "EAST PROVIDENCE","state": "RI","zip": "02915","zip+4": "0000","phone": "4014331120","NPI": "     1053415844"}, 
{"id": 45881,"ncpdp": "4102480","pharmacy_name": "RITE AID PHARMACY #10258","address1": "220 NEWPORT AVENUE","address2": "","city": "EAST PROVIDENCE","state": "RI","zip": "02916","zip+4": "2117","phone": "4014341333","NPI": "     1982703351"}, 
{"id": 45882,"ncpdp": "4102505","pharmacy_name": "CVS PHARMACY #00212","address1": "681 RESERVOIR AVE","address2": "","city": "CRANSTON","state": "RI","zip": "02910","zip+4": "0000","phone": "4019437188","NPI": "     1962506758"}, 
{"id": 45883,"ncpdp": "4102529","pharmacy_name": "RITE AID PHARMACY #10239","address1": "1080 BALD HILL ROAD","address2": "","city": "WARWICK","state": "RI","zip": "02886","zip+4": "4202","phone": "4018220002","NPI": "     1790884161"}, 
{"id": 45884,"ncpdp": "4102581","pharmacy_name": "CVS PHARMACY #00269","address1": "583 TAUNTON AVE","address2": "","city": "EAST PROVIDENCE","state": "RI","zip": "02914","zip+4": "0000","phone": "4014342993","NPI": "     1871697664"}, 
{"id": 45885,"ncpdp": "4102771","pharmacy_name": "CVS PHARMACY #01042","address1": "835 NEWPORT AVE","address2": "","city": "PAWTUCKET","state": "RI","zip": "02861","zip+4": "0000","phone": "4017260724","NPI": "     1780788570"}, 
{"id": 45886,"ncpdp": "4102783","pharmacy_name": "BAKERS PHARMACY","address1": "53 NARRAGANSETT AVE","address2": "","city": "JAMESTOWN","state": "RI","zip": "02835","zip+4": "1150","phone": "4014232800","NPI": "     1306938519"}, 
{"id": 45887,"ncpdp": "4102860","pharmacy_name": "CVS PHARMACY #00311","address1": "507 MAIN ST","address2": "","city": "EAST GREENWICH","state": "RI","zip": "02818","zip+4": "0000","phone": "4018847045","NPI": "     1699879494"}, 
{"id": 45888,"ncpdp": "4102896","pharmacy_name": "CVS PHARMACY #00326","address1": "120 EDDIE DOWLING HWY","address2": "","city": "N SMITHFIELD","state": "RI","zip": "02896","zip+4": "0000","phone": "4017623172","NPI": "     1508960303"}, 
{"id": 45889,"ncpdp": "4102961","pharmacy_name": "EAST SIDE PRESC CENTER INC","address1": "632 HOPE ST","address2": "","city": "PROVIDENCE","state": "RI","zip": "02906","zip+4": "2698","phone": "4017511430","NPI": "     1194760470"}, 
{"id": 45890,"ncpdp": "4103103","pharmacy_name": "CVS PHARMACY #00355","address1": "181 BELLEVUE AVE","address2": "","city": "NEWPORT","state": "RI","zip": "02840","zip+4": "0000","phone": "4018467800","NPI": "     1417051210"}, 
{"id": 45891,"ncpdp": "4103127","pharmacy_name": "RITE AID PHARMACY #10229","address1": "727 EAST AVENUE","address2": "","city": "PAWTUCKET","state": "RI","zip": "02860","zip+4": "6100","phone": "4017246800","NPI": "     1609975077"}, 
{"id": 45892,"ncpdp": "4103191","pharmacy_name": "CVS PHARMACY #00210","address1": "180 COUNTY RD","address2": "","city": "BARRINGTON","state": "RI","zip": "02806","zip+4": "0000","phone": "4012450464","NPI": "     1326142126"}, 
{"id": 45893,"ncpdp": "4103242","pharmacy_name": "RITE AID PHARMACY #10242","address1": "2055 WARWICK AVENUE","address2": "","city": "WARWICK","state": "RI","zip": "02888","zip+4": "3144","phone": "4017386300","NPI": "     1427157890"}, 
{"id": 45894,"ncpdp": "4103254","pharmacy_name": "PHREDS DRUG INC","address1": "1300 OAKLAWN AVE","address2": "","city": "CRANSTON","state": "RI","zip": "02920","zip+4": "0000","phone": "4014636300","NPI": "     1942307889"}, 
{"id": 45895,"ncpdp": "4103266","pharmacy_name": "CVS PHARMACY #00351","address1": "1919 MINERAL SPRING AVE","address2": "","city": "N. PROVIDENCE","state": "RI","zip": "02904","zip+4": "0000","phone": "4013532501","NPI": "     1235233032"}, 
{"id": 45896,"ncpdp": "4103292","pharmacy_name": "CVS PHARMACY #00330","address1": "445 PUTNAM PIKE APPLE VALLEY M","address2": "APPLE VALLEY MALL","city": "GREENVILLE","state": "RI","zip": "02828","zip+4": "0000","phone": "4012315320","NPI": "     1194822692"}, 
{"id": 45897,"ncpdp": "4103381","pharmacy_name": "CVS PHARMACY #00469","address1": "1188 PONTIAC AVE","address2": "","city": "CRANSTON","state": "RI","zip": "02920","zip+4": "0000","phone": "4019436452","NPI": "     1144324948"}, 
{"id": 45898,"ncpdp": "4103393","pharmacy_name": "RITE AID PHARMACY #10256","address1": "655 WARREN AVENUE","address2": "","city": "EAST PROVIDENCE","state": "RI","zip": "02914","zip+4": "1404","phone": "4014345700","NPI": "     1336248707"}, 
{"id": 45899,"ncpdp": "4103418","pharmacy_name": "CVS PHARMACY #00397","address1": "1125 MAIN ST","address2": "","city": "WEST WARWICK","state": "RI","zip": "02893","zip+4": "0000","phone": "4018222762","NPI": "     1053415851"}, 
{"id": 45900,"ncpdp": "4103456","pharmacy_name": "CVS PHARMACY #00493","address1": "99 EAST MAIN RD","address2": "","city": "MIDDLETOWN","state": "RI","zip": "02842","zip+4": "0000","phone": "4018470254","NPI": "     1962506766"}, 
{"id": 45901,"ncpdp": "4103470","pharmacy_name": "NDS PHARMACY","address1": "866 BROAD ST","address2": "","city": "PROVIDENCE","state": "RI","zip": "02907","zip+4": "1724","phone": "4019415698","NPI": "     1528144128"}, 
{"id": 45902,"ncpdp": "4103482","pharmacy_name": "CVS PHARMACY #00621","address1": "763 TIOGUE AVE","address2": "","city": "COVENTRY","state": "RI","zip": "02816","zip+4": "0000","phone": "4018212060","NPI": "     1871697672"}, 
{"id": 45903,"ncpdp": "4103494","pharmacy_name": "CVS PHARMACY #00595","address1": "6495 POST RD","address2": "","city": "NORTH KINGSTOWN","state": "RI","zip": "02852","zip+4": "0000","phone": "4018854920","NPI": "     1780788588"}, 
{"id": 45904,"ncpdp": "4103507","pharmacy_name": "RITE AID PHARMACY #10222","address1": "7 EAST MAIN ROAD","address2": "","city": "MIDDLETOWN","state": "RI","zip": "02840","zip+4": "4911","phone": "4018494600","NPI": "     1245339613"}, 
{"id": 45905,"ncpdp": "4103519","pharmacy_name": "CVS PHARMACY #00642","address1": "767 WARWICK AVE WARWICK AVE SC","address2": "","city": "WARWICK","state": "RI","zip": "02888","zip+4": "0000","phone": "4014677788","NPI": "     1003913500"}, 
{"id": 45906,"ncpdp": "4103521","pharmacy_name": "CVS PHARMACY #00494","address1": "1400 HARTFORD AVE","address2": "","city": "JOHNSTON","state": "RI","zip": "02919","zip+4": "0000","phone": "4018610310","NPI": "     1598869398"}, 
{"id": 45907,"ncpdp": "4103557","pharmacy_name": "CVS PHARMACY #00645","address1": "400 METACOM AVE","address2": "","city": "BRISTOL","state": "RI","zip": "02809","zip+4": "0000","phone": "4012532050","NPI": "     1407950207"}, 
{"id": 45908,"ncpdp": "4103569","pharmacy_name": "CVS PHARMACY #00670","address1": "601 SMITHFIELD AVE","address2": "","city": "PAWTUCKET","state": "RI","zip": "02860","zip+4": "0000","phone": "4017393173","NPI": "     1316041114"}, 
{"id": 45909,"ncpdp": "4103610","pharmacy_name": "CVS PHARMACY #00689","address1": "2790 POST RD","address2": "","city": "WARWICK","state": "RI","zip": "02886","zip+4": "0000","phone": "4017393173","NPI": "     1225132020"}, 
{"id": 45910,"ncpdp": "4103672","pharmacy_name": "CVS PHARMACY #00733","address1": "2400 WARWICK AVE MEADOWBROOK P","address2": "","city": "WARWICK","state": "RI","zip": "02889","zip+4": "0000","phone": "4017372305","NPI": "     1912004417"}, 
{"id": 45911,"ncpdp": "4103684","pharmacy_name": "RITE AID PHARMACY #10223","address1": "5945 POST ROAD","address2": "","city": "NORTH KINGSTOWN","state": "RI","zip": "02852","zip+4": "3301","phone": "4018855100","NPI": "     1720188097"}, 
{"id": 45912,"ncpdp": "4103709","pharmacy_name": "CVS PHARMACY #00728","address1": "315 BROAD ST","address2": "","city": "CUMBERLAND","state": "RI","zip": "02864","zip+4": "0000","phone": "4017268110","NPI": "     1134223936"}, 
{"id": 45913,"ncpdp": "4103735","pharmacy_name": "CVS PHARMACY #00729","address1": "799 HOPE ST","address2": "","city": "PROVIDENCE","state": "RI","zip": "02906","zip+4": "0000","phone": "4013315240","NPI": "     1043314842"}, 
{"id": 45914,"ncpdp": "4103759","pharmacy_name": "NEWPORT PRECRIPTION CENTER INC","address1": "289 BROADWAY","address2": "","city": "NEWPORT","state": "RI","zip": "02840","zip+4": "2613","phone": "4018476762","NPI": "     1386772325"}, 
{"id": 45915,"ncpdp": "4103824","pharmacy_name": "RITE AID PHARMACY #10219","address1": "719 TIOGUE AVENUE","address2": "","city": "COVENTRY","state": "RI","zip": "02816","zip+4": "5803","phone": "4018224800","NPI": "     1699874065"}, 
{"id": 45916,"ncpdp": "4103951","pharmacy_name": "CHAPEL PHARMACY INC","address1": "2081 DIAMOND HILL RD","address2": "","city": "CUMBERLAND","state": "RI","zip": "02864","zip+4": "0000","phone": "4013335858","NPI": "     1750441994"}, 
{"id": 45917,"ncpdp": "4104016","pharmacy_name": "CVS PHARMACY #00856","address1": "400 ADMIRAL ST","address2": "","city": "PROVIDENCE","state": "RI","zip": "02908","zip+4": "0000","phone": "4013515030","NPI": "     1952405755"}, 
{"id": 45918,"ncpdp": "4104030","pharmacy_name": "STOP AND SHOP PHARMACY #713","address1": "675 BEVERAGE HILL AVENUE","address2": "","city": "PAWTUCKET","state": "RI","zip": "02861","zip+4": "0000","phone": "4017265332","NPI": "     1568494425"}, 
{"id": 45919,"ncpdp": "4104042","pharmacy_name": "STOP AND SHOP PHARMACY #703","address1": "11 COMMERCE WAY","address2": "","city": "JOHNSTON","state": "RI","zip": "02919","zip+4": "0000","phone": "4018613150","NPI": "     1477585339"}, 
{"id": 45920,"ncpdp": "4104054","pharmacy_name": "STOP AND SHOP PHARMACY #708","address1": "1360 WEST MAIN ROAD","address2": "","city": "MIDDLETOWN","state": "RI","zip": "02842","zip+4": "0000","phone": "4018499640","NPI": "     1386676245"}, 
{"id": 45921,"ncpdp": "4104066","pharmacy_name": "STOP AND SHOP PHARMACY #726","address1": "2470 WARWICK AVE","address2": "","city": "WARWICK","state": "RI","zip": "02889","zip+4": "0000","phone": "4017324060","NPI": "     1194757054"}, 
{"id": 45922,"ncpdp": "4104080","pharmacy_name": "STOP AND SHOP PHARMACY #718","address1": "91 POINT JUDITH ROAD","address2": "","city": "NARRAGANSETT","state": "RI","zip": "02882","zip+4": "0000","phone": "4017837768","NPI": "     1003848961"}, 
{"id": 45923,"ncpdp": "4104117","pharmacy_name": "OXNARD PHARMACY","address1": "198 BUTTONWOODS AVE","address2": "","city": "WARWICK","state": "RI","zip": "02886","zip+4": "7541","phone": "4017394330","NPI": "     1922011303"}, 
{"id": 45924,"ncpdp": "4104131","pharmacy_name": "MCQUADE MARKET PLACE PHARMACY","address1": "106 MAIN ST","address2": "","city": "WESTERLY","state": "RI","zip": "02891","zip+4": "0000","phone": "4015960277","NPI": "     1013018613"}, 
{"id": 45925,"ncpdp": "4104143","pharmacy_name": "RITE AID PHARMACY #10259","address1": "452 PUTNAM PIKE","address2": "","city": "SMITHFIELD","state": "RI","zip": "02828","zip+4": "3008","phone": "4012325500","NPI": "     1154420529"}, 
{"id": 45926,"ncpdp": "4104167","pharmacy_name": "STOP AND SHOP PHARMACY #702","address1": "20 POST ROAD","address2": "","city": "WESTERLY","state": "RI","zip": "02891","zip+4": "0000","phone": "4015966490","NPI": "     1912939877"}, 
{"id": 45927,"ncpdp": "4104193","pharmacy_name": "BROWN UNIV STDNT HLTH CTR PHY","address1": "13 BROWN ST","address2": "","city": "PROVIDENCE","state": "RI","zip": "02912","zip+4": "0000","phone": "4018637882","NPI": "     1629013149"}, 
{"id": 45928,"ncpdp": "4104232","pharmacy_name": "CVS PHARMACY #00994","address1": "131 WEBSTER AVE","address2": "","city": "PROVIDENCE","state": "RI","zip": "02909","zip+4": "0000","phone": "4019446060","NPI": "     1861596660"}, 
{"id": 45929,"ncpdp": "4104256","pharmacy_name": "STOP AND SHOP PHARMACY #709","address1": "300 QUAKER LANE","address2": "","city": "WARWICK","state": "RI","zip": "02886","zip+4": "0000","phone": "4018280533","NPI": "     1821020785"}, 
{"id": 45930,"ncpdp": "4104282","pharmacy_name": "JB PHARMACY","address1": "113 PUTNAM PIKE","address2": "","city": "JOHNSTON","state": "RI","zip": "02919","zip+4": "0000","phone": "4012321194","NPI": "     1396787636"}, 
{"id": 45931,"ncpdp": "4104319","pharmacy_name": "CVS PHARMACY #00971","address1": "150 GRANITE ST","address2": "","city": "WESTERLY","state": "RI","zip": "02891","zip+4": "0000","phone": "4013482070","NPI": "     1770687576"}, 
{"id": 45932,"ncpdp": "4104357","pharmacy_name": "ELEANOR SLATER PHARMACY","address1": "111 HOWARD AVE","address2": "","city": "CRANSTON","state": "RI","zip": "02920","zip+4": "8269","phone": "4014623077","NPI": "     1033145818"}, 
{"id": 45933,"ncpdp": "4104383","pharmacy_name": "ELEANOR SLATER HOSPITAL PHCY","address1": "2090 WALLUM LAKE RD","address2": "","city": "PASCOAG","state": "RI","zip": "02859","zip+4": "0000","phone": "4015675549","NPI": "     1780626556"}, 
{"id": 45934,"ncpdp": "4104395","pharmacy_name": "CVS PHARMACY #00934","address1": "1516 DIAMOND HILL RDWALNUT HIL","address2": "","city": "WOONSOCKET","state": "RI","zip": "02895","zip+4": "0000","phone": "4017657133","NPI": "     1821195322"}, 
{"id": 45935,"ncpdp": "4104446","pharmacy_name": "WHITE CROSS PHARMACY","address1": "1 RANDALL SQ","address2": "SUITE 310","city": "PROVIDENCE","state": "RI","zip": "02904","zip+4": "2709","phone": "4013515900","NPI": "     1285775916"}, 
{"id": 45936,"ncpdp": "4104458","pharmacy_name": "CVS PHARMACY #01086","address1": "496 MAIN RD","address2": "","city": "TIVERTON","state": "RI","zip": "02878","zip+4": "0000","phone": "4016248421","NPI": "     1689778482"}, 
{"id": 45937,"ncpdp": "4104460","pharmacy_name": "CVS PHARMACY #01075","address1": "20 HIGH ST","address2": "","city": "PASCOAG","state": "RI","zip": "02859","zip+4": "0000","phone": "4015684224","NPI": "     1194829994"}, 
{"id": 45938,"ncpdp": "4104535","pharmacy_name": "RITE AID PHARMACY #10231","address1": "2136 MENDON ROAD","address2": "","city": "CUMBERLAND","state": "RI","zip": "02864","zip+4": "3805","phone": "4013331220","NPI": "     1508965971"}, 
{"id": 45939,"ncpdp": "4104612","pharmacy_name": "WALGREEN DRUG STORE #2246","address1": "1000 DIVISION ST","address2": "","city": "EAST GREENWICH","state": "RI","zip": "02818","zip+4": "0000","phone": "4018847370","NPI": "     1487669552"}, 
{"id": 45940,"ncpdp": "4104648","pharmacy_name": "STOP AND SHOP PHARMACY #721","address1": "595 SMITHFIELD ROAD","address2": "","city": "N SMITHFIELD","state": "RI","zip": "02896","zip+4": "0000","phone": "4017656722","NPI": "     1649202508"}, 
{"id": 45941,"ncpdp": "4104713","pharmacy_name": "WALGREEN DRUG STORE #2639","address1": "700 CENTRAL AVE","address2": "","city": "PAWTUCKET","state": "RI","zip": "02861","zip+4": "0000","phone": "4017274404","NPI": "     1104831270"}, 
{"id": 45942,"ncpdp": "4104799","pharmacy_name": "CVS PHARMACY #01294","address1": "481 ANGELL ST","address2": "","city": "PROVIDENCE","state": "RI","zip": "02906","zip+4": "0000","phone": "4015214340","NPI": "     1003910803"}, 
{"id": 45943,"ncpdp": "4104840","pharmacy_name": "STOP AND SHOP PHARMACY #720","address1": "900 TIOGUE AVENUE","address2": "","city": "COVENTRY","state": "RI","zip": "02816","zip+4": "0000","phone": "4018234343","NPI": "     1558393413"}, 
{"id": 45944,"ncpdp": "4104876","pharmacy_name": "WAL-MART PHARMACY #101964","address1": "258 POST ROAD","address2": "","city": "WESTERLY","state": "RI","zip": "02891","zip+4": "0000","phone": "4013220793","NPI": "     1144247396"}, 
{"id": 45945,"ncpdp": "4104903","pharmacy_name": "WAL-MART PHARMACY #101873","address1": "1776 PLAINFIELD PIKE","address2": "","city": "CRANSTON","state": "RI","zip": "02921","zip+4": "0000","phone": "4019462040","NPI": "     1053338202"}, 
{"id": 45946,"ncpdp": "4104939","pharmacy_name": "WALGREEN DRUG STORE #3000","address1": "12 E MAIN RD","address2": "","city": "MIDDLETOWN","state": "RI","zip": "02842","zip+4": "0000","phone": "4018478510","NPI": "     1922013093"}, 
{"id": 45947,"ncpdp": "4104977","pharmacy_name": "RITE AID PHARMACY #10240","address1": "1201 WARWICK AVENUE","address2": "","city": "WARWICK","state": "RI","zip": "02889","zip+4": "4108","phone": "4014636010","NPI": "     1063511434"}, 
{"id": 45948,"ncpdp": "4105006","pharmacy_name": "WALGREEN DRUG STORE #3204","address1": "295 ACADEMY AVE","address2": "","city": "PROVIDENCE","state": "RI","zip": "02908","zip+4": "0000","phone": "4012731785","NPI": "     1831104900"}, 
{"id": 45949,"ncpdp": "4105020","pharmacy_name": "STOP AND SHOP PHARMACY #705","address1": "446 PUTNAM PIKE RTE 44","address2": "","city": "SMITHFIELD","state": "RI","zip": "02828","zip+4": "0000","phone": "4019491848","NPI": "     1376575233"}, 
{"id": 45950,"ncpdp": "4105032","pharmacy_name": "WAL-MART PHARMACY #102225","address1": "1919 DIAMOND HILL RD","address2": "","city": "WOONSOCKET","state": "RI","zip": "02895","zip+4": "0000","phone": "4017691695","NPI": "     1639196884"}, 
{"id": 45951,"ncpdp": "4105044","pharmacy_name": "RITE AID PHARMACY #10218","address1": "580 METACOM AVENUE","address2": "","city": "BRISTOL","state": "RI","zip": "02809","zip+4": "5182","phone": "4012532723","NPI": "     1417056888"}, 
{"id": 45952,"ncpdp": "4105068","pharmacy_name": "RITE AID PHARMACY #10254","address1": "570 PONTIAC AVENUE","address2": "","city": "CRANSTON","state": "RI","zip": "02910","zip+4": "4710","phone": "4017816360","NPI": "     1326147794"}, 
{"id": 45953,"ncpdp": "4105070","pharmacy_name": "RITE AID PHARMACY #10261","address1": "548 DYER AVENUE","address2": "","city": "CRANSTON","state": "RI","zip": "02920","zip+4": "5227","phone": "4019423386","NPI": "     1578663902"}, 
{"id": 45954,"ncpdp": "4105082","pharmacy_name": "RITE AID PHARMACY #10250","address1": "1764 BROAD STREET","address2": "","city": "CRANSTON","state": "RI","zip": "02905","zip+4": "3519","phone": "4014616438","NPI": "     1235238601"}, 
{"id": 45955,"ncpdp": "4105094","pharmacy_name": "RITE AID PHARMACY #10257","address1": "1086 WILLET AVENUE","address2": "","city": "EAST PROVIDENCE","state": "RI","zip": "02915","zip+4": "2042","phone": "4014335710","NPI": "     1144329517"}, 
{"id": 45956,"ncpdp": "4105121","pharmacy_name": "RITE AID PHARMACY #10260","address1": "1459 ATWOOD AVENUE","address2": "","city": "JOHNSTON","state": "RI","zip": "02919","zip+4": "7706","phone": "4018319804","NPI": "     1053410423"}, 
{"id": 45957,"ncpdp": "4105145","pharmacy_name": "RITE AID PHARMACY #10224","address1": "7691 POST ROAD","address2": "","city": "NORTH KINGSTOWN","state": "RI","zip": "02852","zip+4": "3220","phone": "4012947830","NPI": "     1962501338"}, 
{"id": 45958,"ncpdp": "4105169","pharmacy_name": "RITE AID PHARMACY #10227","address1": "342 POWER ROAD","address2": "","city": "PAWTUCKET","state": "RI","zip": "02860","zip+4": "3329","phone": "4017243274","NPI": "     1487754818"}, 
{"id": 45959,"ncpdp": "4105171","pharmacy_name": "RITE AID PHARMACY #10228","address1": "150 MINERAL SPRING AVENUE","address2": "","city": "PAWTUCKET","state": "RI","zip": "02860","zip+4": "2810","phone": "4017260547","NPI": "     1295835627"}, 
{"id": 45960,"ncpdp": "4105183","pharmacy_name": "RITE AID PHARMACY #10232","address1": "3034 EAST MAIN ROAD","address2": "","city": "PORTSMOUTH","state": "RI","zip": "02871","zip+4": "4205","phone": "4016831270","NPI": "     1780783159"}, 
{"id": 45961,"ncpdp": "4105195","pharmacy_name": "RITE AID PHARMACY #10233","address1": "2456 EAST MAIN ROAD","address2": "","city": "PORTSMOUTH","state": "RI","zip": "02871","zip+4": "4025","phone": "4016833062","NPI": "     1104926534"}, 
{"id": 45962,"ncpdp": "4105208","pharmacy_name": "RITE AID PHARMACY #10247","address1": "1200 NORTH MAIN STREET","address2": "","city": "PROVIDENCE","state": "RI","zip": "02904","zip+4": "1820","phone": "4012723048","NPI": "     1013017441"}, 
{"id": 45963,"ncpdp": "4105210","pharmacy_name": "RITE AID PHARMACY #10253","address1": "200 ACADEMY AVENUE","address2": "","city": "PROVIDENCE","state": "RI","zip": "02908","zip+4": "4453","phone": "4015214941","NPI": "     1598864969"}, 
{"id": 45964,"ncpdp": "4105222","pharmacy_name": "RITE AID PHARMACY #10234","address1": "900 VICTORY HIGHWAY","address2": "","city": "SLATERSVILLE","state": "RI","zip": "02876","zip+4": "0713","phone": "4017664603","NPI": "     1922108356"}, 
{"id": 45965,"ncpdp": "4105234","pharmacy_name": "RITE AID PHARMACY #10235","address1": "677 MAIN ROAD","address2": "","city": "TIVERTON","state": "RI","zip": "02878","zip+4": "1352","phone": "4016248411","NPI": "     1407955875"}, 
{"id": 45966,"ncpdp": "4105246","pharmacy_name": "RITE AID PHARMACY #10236","address1": "604 KINGSTOWN ROAD","address2": "","city": "WAKEFIELD","state": "RI","zip": "02879","zip+4": "3612","phone": "4017838630","NPI": "     1316046782"}, 
{"id": 45967,"ncpdp": "4105258","pharmacy_name": "RITE AID PHARMACY #10241","address1": "2595 WEST SHORE ROAD","address2": "","city": "WARWICK","state": "RI","zip": "02889","zip+4": "8106","phone": "4017374771","NPI": "     1831299262"}, 
{"id": 45968,"ncpdp": "4105272","pharmacy_name": "RITE AID PHARMACY #10244","address1": "1155 MAIN STREET","address2": "","city": "WEST WARWICK","state": "RI","zip": "02893","zip+4": "4830","phone": "4018289793","NPI": "     1740380179"}, 
{"id": 45969,"ncpdp": "4105284","pharmacy_name": "RITE AID PHARMACY #10243","address1": "170 GRANITE STREET","address2": "","city": "WESTERLY","state": "RI","zip": "02891","zip+4": "2462","phone": "4015962734","NPI": "     1225137698"}, 
{"id": 45970,"ncpdp": "4105296","pharmacy_name": "STOP AND SHOP PHARMACY #704","address1": "70 MENDON ROAD","address2": "","city": "CUMBERLAND","state": "RI","zip": "02864","zip+4": "0000","phone": "4017223401","NPI": "     1285666149"}, 
{"id": 45971,"ncpdp": "4105323","pharmacy_name": "STOP AND SHOP PHARMACY #707","address1": "200 ATWOOD AVENUE","address2": "","city": "CRANSTON","state": "RI","zip": "02920","zip+4": "0000","phone": "4019442669","NPI": "     1093747958"}, 
{"id": 45972,"ncpdp": "4105335","pharmacy_name": "STOP AND SHOP PHARMACY #724","address1": "1128 MINERAL SPRING AVENUE","address2": "","city": "N PROVIDENCE","state": "RI","zip": "02904","zip+4": "0000","phone": "4017273900","NPI": "     1902838865"}, 
{"id": 45973,"ncpdp": "4105347","pharmacy_name": "STOP AND SHOP PHARMACY #722","address1": "850 MANTON AVENUE","address2": "","city": "PROVIDENCE","state": "RI","zip": "02909","zip+4": "0000","phone": "4014530288","NPI": "     1811929771"}, 
{"id": 45974,"ncpdp": "4105385","pharmacy_name": "OMNICARE OF RHODE ISLAND","address1": "30 CENTRE OF NEW ENGLAND BLVD","address2": "","city": "COVENTRY","state": "RI","zip": "02816","zip+4": "0000","phone": "4018238575","NPI": "     1447320056"}, 
{"id": 45975,"ncpdp": "4105412","pharmacy_name": "WAL-MART PHARMACY #102283","address1": "650 CENTRE OF NEW ENGLAND BLVD","address2": "","city": "COVENTRY","state": "RI","zip": "02816","zip+4": "0000","phone": "4018237060","NPI": "     1548287790"}, 
{"id": 45976,"ncpdp": "4105436","pharmacy_name": "WALGREEN DRUG STORE #2850","address1": "1010 PARK AVE","address2": "","city": "CRANSTON","state": "RI","zip": "02910","zip+4": "0000","phone": "4019469694","NPI": "     1740295815"}, 
{"id": 45977,"ncpdp": "4105448","pharmacy_name": "RITE AID PHARMACY #10252","address1": "711 BROAD STREET","address2": "","city": "PROVIDENCE","state": "RI","zip": "02907","zip+4": "1481","phone": "4013319550","NPI": "     1831298108"}, 
{"id": 45978,"ncpdp": "4105513","pharmacy_name": "RITE AID PHARMACY #10245","address1": "200 SOCIAL STREET","address2": "","city": "WOONSOCKET","state": "RI","zip": "02895","zip+4": "2058","phone": "4017629200","NPI": "     1740389014"}, 
{"id": 45979,"ncpdp": "4105525","pharmacy_name": "RITE AID PHARMACY #10263","address1": "1285 RESERVOIR AVENUE","address2": "","city": "CRANSTON","state": "RI","zip": "02920","zip+4": "6034","phone": "4014646155","NPI": "     1477653806"}, 
{"id": 45980,"ncpdp": "4105549","pharmacy_name": "WALGREEN DRUG STORE #3491","address1": "1763 BROAD STREET","address2": "","city": "CRANSTON","state": "RI","zip": "02905","zip+4": "0000","phone": "4014614110","NPI": "     1659386720"}, 
{"id": 45981,"ncpdp": "4105551","pharmacy_name": "CVS PHARMACY #02048","address1": "1068 PUTNAM PIKE","address2": "","city": "CHEPACHET","state": "RI","zip": "02814","zip+4": "0000","phone": "4015686043","NPI": "     1477612711"}, 
{"id": 45982,"ncpdp": "4105563","pharmacy_name": "RITE AID PHARMACY #10226","address1": "47 VILLAGE PLAZA WAY","address2": "","city": "NORTH SCITUATE","state": "RI","zip": "02857","zip+4": "1849","phone": "4019342480","NPI": "     1659470920"}, 
{"id": 45983,"ncpdp": "4105587","pharmacy_name": "WAL-MART PHARMACY #102373","address1": "840 POST ROAD","address2": "","city": "WARWICK","state": "RI","zip": "02888","zip+4": "0000","phone": "4017818340","NPI": "     1457378606"}, 
{"id": 45984,"ncpdp": "4105599","pharmacy_name": "WALGREEN DRUG STORE #3345","address1": "2399 WARWICK AVE","address2": "","city": "WARWICK","state": "RI","zip": "02889","zip+4": "0000","phone": "4017373540","NPI": "     1568477636"}, 
{"id": 45985,"ncpdp": "4105614","pharmacy_name": "CVS PHARMACY #02021","address1": "205 ATWOOD AVE","address2": "","city": "CRANSTON","state": "RI","zip": "02920","zip+4": "0000","phone": "4019424100","NPI": "     1912001710"}, 
{"id": 45986,"ncpdp": "4105626","pharmacy_name": "WALGREEN DRUG STORE #3898","address1": "45 CUMBERLAND ST","address2": "","city": "WOONSOCKET","state": "RI","zip": "02895","zip+4": "0000","phone": "4017655010","NPI": "     1386659456"}, 
{"id": 45987,"ncpdp": "4105638","pharmacy_name": "WALGREEN DRUG STORE #3719","address1": "25 PUTNAM PIKE","address2": "","city": "JOHNSTON","state": "RI","zip": "02919","zip+4": "0000","phone": "4012313562","NPI": "     1003821174"}, 
{"id": 45988,"ncpdp": "4105640","pharmacy_name": "CVS PHARMACY #02065","address1": "11 MAIN ST","address2": "","city": "WAKEFIELD","state": "RI","zip": "02879","zip+4": "0000","phone": "4017833384","NPI": "     1821192626"}, 
{"id": 45989,"ncpdp": "4105652","pharmacy_name": "WALGREEN DRUG STORE #3703","address1": "354 ADMIRAL STREET","address2": "","city": "PROVIDENCE","state": "RI","zip": "02908","zip+4": "0000","phone": "4016212222","NPI": "     1891702841"}, 
{"id": 45990,"ncpdp": "4105703","pharmacy_name": "WALGREEN DRUG STORE #4145","address1": "533 ELMWOOD AVE","address2": "","city": "PROVIDENCE","state": "RI","zip": "02907","zip+4": "0000","phone": "4017818229","NPI": "     1912912080"}, 
{"id": 45991,"ncpdp": "4105727","pharmacy_name": "WALGREEN DRUG STORE #3737","address1": "1074 MINERAL SPRING AVE","address2": "","city": "NORTH PROVIDENCE","state": "RI","zip": "02904","zip+4": "0000","phone": "4017256806","NPI": "     1821003997"}, 
{"id": 45992,"ncpdp": "4105739","pharmacy_name": "WAL-MART PHARMACY #102261","address1": "1031 TEN ROD ROAD","address2": "","city": "NORTH KINGSTOWN","state": "RI","zip": "02852","zip+4": "0000","phone": "4012943455","NPI": "     1366469512"}, 
{"id": 45993,"ncpdp": "4105741","pharmacy_name": "CARE PLUS CVS/PHARMACY # #0229","address1": "2 DUDLEY ST STE 170","address2": "","city": "PROVIDENCE","state": "RI","zip": "02905","zip+4": "0000","phone": "4014211555","NPI": "     1720197205"}, 
{"id": 45994,"ncpdp": "4105753","pharmacy_name": "WALGREEN DRUG STORE #3899","address1": "1387 PLAINFIELD ST","address2": "","city": "JOHNSTON","state": "RI","zip": "02919","zip+4": "0000","phone": "4019425953","NPI": "     1700893757"}, 
{"id": 45995,"ncpdp": "4105765","pharmacy_name": "CVS PHARMACY #02234","address1": "425 EAST AVE","address2": "","city": "PAWTUCKET","state": "RI","zip": "02860","zip+4": "0000","phone": "4017228704","NPI": "     1730283532"}, 
{"id": 45996,"ncpdp": "4105777","pharmacy_name": "CVS PHARMACY #02384","address1": "834 PROVIDENCE ST","address2": "","city": "WEST WARWICK","state": "RI","zip": "02893","zip+4": "0000","phone": "4018213563","NPI": "     1649374448"}, 
{"id": 45997,"ncpdp": "4105816","pharmacy_name": "WALGREEN DRUG STORE #3468","address1": "100 BROAD ST","address2": "","city": "PAWTUCKET","state": "RI","zip": "02860","zip+4": "0000","phone": "4017245912","NPI": "     1730194804"}, 
{"id": 45998,"ncpdp": "4105828","pharmacy_name": "RITE AID PHARMACY #10251","address1": "135 PITMAN STREET","address2": "","city": "PROVIDENCE","state": "RI","zip": "02906","zip+4": "5112","phone": "4018614879","NPI": "     1568561835"}, 
{"id": 45999,"ncpdp": "4105830","pharmacy_name": "RITE AID PHARMACY #10237","address1": "1193 BOSTON NECK ROAD","address2": "","city": "NARRAGANSETT","state": "RI","zip": "02882","zip+4": "1705","phone": "4017895124","NPI": "     1477652741"}, 
{"id": 46000,"ncpdp": "4105854","pharmacy_name": "CVS PHARMACY #02323","address1": "1734 MAIN ST","address2": "","city": "WEST WARWICK","state": "RI","zip": "02893","zip+4": "0000","phone": "4018217428","NPI": "     1558465351"}, 
{"id": 46001,"ncpdp": "4105866","pharmacy_name": "WALGREEN DRUG STORE #3704","address1": "3320 POST RD","address2": "","city": "WARWICK","state": "RI","zip": "02886","zip+4": "0000","phone": "4017371905","NPI": "     1649285719"}, 
{"id": 46002,"ncpdp": "4105880","pharmacy_name": "RITE AID PHARMACY #10230","address1": "1114 BROAD STREET","address2": "","city": "CENTRAL FALLS","state": "RI","zip": "02863","zip+4": "1509","phone": "4017225801","NPI": "     1386743656"}, 
{"id": 46003,"ncpdp": "4105892","pharmacy_name": "CVS PHARMACY #02358","address1": "10 TPK AT E MAIN RD RTE 138","address2": "","city": "PORTSMOUTH","state": "RI","zip": "02871","zip+4": "0000","phone": "4016822098","NPI": "     1467559963"}, 
{"id": 46004,"ncpdp": "4105931","pharmacy_name": "OSCO PHARMACY #7443","address1": "15 SMITHFIELD RD ADMIRAL PLZ","address2": "","city": "NORTH PROVIDENCE","state": "RI","zip": "02904","zip+4": "0000","phone": "4013534075","NPI": "     1831145838"}, 
{"id": 46005,"ncpdp": "4105943","pharmacy_name": "TARGET PHARMACY #1188","address1": "1245 BALD HILL RD","address2": "","city": "WARWICK","state": "RI","zip": "02888","zip+4": "0000","phone": "4018218283","NPI": "     1437171170"}, 
{"id": 46006,"ncpdp": "4105981","pharmacy_name": "RITE AID PHARMACY #10249","address1": "456 BRANCH AVENUE","address2": "","city": "PROVIDENCE","state": "RI","zip": "02904","zip+4": "2205","phone": "4013313554","NPI": "     1386744712"}, 
{"id": 46007,"ncpdp": "4105993","pharmacy_name": "CVS PHARMACY #02506","address1": "2125 DIAMOND HILL RD","address2": "","city": "CUMBERLAND","state": "RI","zip": "02864","zip+4": "0000","phone": "4013354563","NPI": "     1467556266"}, 
{"id": 46008,"ncpdp": "4106008","pharmacy_name": "CVS PHARMACY #02347","address1": "640 WARREN AVE","address2": "","city": "EAST PROVIDENCE","state": "RI","zip": "02914","zip+4": "0000","phone": "4014382272","NPI": "     1376647172"}, 
{"id": 46009,"ncpdp": "4106022","pharmacy_name": "WAL-MART PHARMACY #102885","address1": "199 CONNELL HIGHWAY","address2": "","city": "NEWPORT","state": "RI","zip": "02840","zip+4": "0000","phone": "4018485861","NPI": "     1275550428"}, 
{"id": 46010,"ncpdp": "4106109","pharmacy_name": "QUALITY PHARMACEUTICAL SERVICE","address1": "1130 TEN ROD RD","address2": "STE F101","city": "NORTH KINGSTOWN","state": "RI","zip": "02852","zip+4": "0000","phone": "4012941332","NPI": "     1255416541"}, 
{"id": 46011,"ncpdp": "4106111","pharmacy_name": "CVS PHARMACY #02417","address1": "935 MANTON AVE","address2": "","city": "PROVIDENCE","state": "RI","zip": "02909","zip+4": "0000","phone": "4014535612","NPI": "     1285738088"}, 
{"id": 46012,"ncpdp": "4106123","pharmacy_name": "RITE AID PHARMACY #10217","address1": "236 COUNTY ROAD","address2": "","city": "BARRINGTON","state": "RI","zip": "02806","zip+4": "4514","phone": "4012458855","NPI": "     1194824466"}, 
{"id": 46013,"ncpdp": "4106135","pharmacy_name": "STOP AND SHOP PHARMACY #712","address1": "622 GEORGE WASHINGTON HWY","address2": "","city": "LINCOLN","state": "RI","zip": "02865","zip+4": "0000","phone": "4013340754","NPI": "     1447282306"}, 
{"id": 46014,"ncpdp": "4106161","pharmacy_name": "STOP AND SHOP PHARMACY #714","address1": "204 GARFIELD AVENUE","address2": "","city": "CRANSTON","state": "RI","zip": "02901","zip+4": "0000","phone": "4019438285","NPI": "     1114952215"}, 
{"id": 46015,"ncpdp": "4106185","pharmacy_name": "WAL-MART PHARMACY #102747","address1": "650 BALD HILL ROAD","address2": "","city": "WARWICK","state": "RI","zip": "02886","zip+4": "0000","phone": "4018217844","NPI": "     1184641334"}, 
{"id": 46016,"ncpdp": "4106212","pharmacy_name": "RITE AID PHARMACY #10225","address1": "63 BROWN STREET","address2": "","city": "NORTH KINGSTOWN","state": "RI","zip": "02852","zip+4": "5028","phone": "4012943662","NPI": "     1194825521"}, 
{"id": 46017,"ncpdp": "4106236","pharmacy_name": "TARGET PHARMACY #1404","address1": "371 PUTNAM PIKE STE A250","address2": "","city": "SMITHFIELD","state": "RI","zip": "02917","zip+4": "0000","phone": "4012322854","NPI": "     1346262086"}, 
{"id": 46018,"ncpdp": "4106274","pharmacy_name": "RITE AID PHARMACY #10255","address1": "1510 SMITH STREET","address2": "","city": "NORTH PROVIDENCE","state": "RI","zip": "02911","zip+4": "2918","phone": "4013533500","NPI": "     1912006289"}, 
{"id": 46019,"ncpdp": "4106286","pharmacy_name": "RI VILLAGE PHCY","address1": "1 COMMERCE ST","address2": "STE A","city": "LINCOLN","state": "RI","zip": "02865","zip+4": "0000","phone": "8773341610","NPI": "     1477607752"}, 
{"id": 46020,"ncpdp": "4106298","pharmacy_name": "OCEAN HEALTHMART PHARMACY","address1": "3986 OLD POST RD","address2": "","city": "CHARLESTOWN","state": "RI","zip": "02813","zip+4": "0000","phone": "4013640900","NPI": "     1013083963"}, 
{"id": 46021,"ncpdp": "4106313","pharmacy_name": "CVS PHARMACY #04796","address1": "960 BROAD ST","address2": "","city": "S. PROVIDENCE","state": "RI","zip": "02905","zip+4": "0000","phone": "4104614383","NPI": "     1093819898"}, 
{"id": 46022,"ncpdp": "4106363","pharmacy_name": "STOP AND SHOP PHARMACY #710","address1": "368398 COTTAGE STREET","address2": "","city": "PAWTUCKET","state": "RI","zip": "02861","zip+4": "0000","phone": "4017226538","NPI": "     1548294408"}, 
{"id": 46023,"ncpdp": "4106375","pharmacy_name": "CVS PHARMACY #08320","address1": "1187 MAIN ST","address2": "","city": "WYOMING","state": "RI","zip": "02898","zip+4": "0000","phone": "4015394000","NPI": "     1376640870"}, 
{"id": 46024,"ncpdp": "4106387","pharmacy_name": "WALGREEN DRUG STORE #6592","address1": "1560 WARWICK AVE","address2": "","city": "WARWICK","state": "RI","zip": "02889","zip+4": "1020","phone": "4017370587","NPI": "     1508873555"}, 
{"id": 46025,"ncpdp": "4106402","pharmacy_name": "GENOA HEALTHCARE #07","address1": "530 N MAIN ST","address2": "","city": "PROVIDENCE","state": "RI","zip": "02904","zip+4": "0000","phone": "4012766370","NPI": "     1043278229"}, 
{"id": 46026,"ncpdp": "4106414","pharmacy_name": "WHITE CROSS PROFESSIONAL SERVI","address1": "1 RANDALL SQ","address2": "SUITE 308","city": "PROVIDENCE","state": "RI","zip": "02904","zip+4": "0000","phone": "4013515900","NPI": "     1053448407"}, 
{"id": 46027,"ncpdp": "4106438","pharmacy_name": "TARGET PHARMACY #2073","address1": "620 GEORGE WASHINGTON HWY","address2": "","city": "LINCOLN","state": "RI","zip": "02865","zip+4": "0000","phone": "4016420081","NPI": "     1245252980"}, 
{"id": 46028,"ncpdp": "4106678","pharmacy_name": "RITE AID PHARMACY #10246","address1": "21 KINGSTOWN ROAD","address2": "","city": "RICHMOND","state": "RI","zip": "02898","zip+4": "1101","phone": "4015396001","NPI": "     1124117965"}, 
{"id": 46029,"ncpdp": "4106680","pharmacy_name": "RITE AID PHARMACY #10238","address1": "20 WOODRUFF AVENUE","address2": "","city": "NARRAGANSETT","state": "RI","zip": "02882","zip+4": "3423","phone": "4017927179","NPI": "     1447334057"}, 
{"id": 46030,"ncpdp": "4106793","pharmacy_name": "WALGREEN DRUG STORE #09943","address1": "1279 OAKLAWN AVE","address2": "","city": "CRANSTON","state": "RI","zip": "02920","zip+4": "0000","phone": "4014638039","NPI": "     1003991415"}, 
{"id": 46031,"ncpdp": "4106832","pharmacy_name": "WALGREEN DRUG STORE #09995","address1": "1 COWESETT AVE","address2": "","city": "WEST WARWICK","state": "RI","zip": "02893","zip+4": "3207","phone": "4018228503","NPI": "     1891823415"}, 
{"id": 46032,"ncpdp": "4106870","pharmacy_name": "CVS PHARMACY #01414","address1": "1195 OAKLAND AVE","address2": "","city": "CRANSTON","state": "RI","zip": "02920","zip+4": "0000","phone": "4014631971","NPI": "     1508932781"}, 
{"id": 46033,"ncpdp": "4106882","pharmacy_name": "BAYVIEW PHARMACY INC","address1": "3045 TOWERHILL RD","address2": "UNIT 3","city": "SAUNDERSTOWN","state": "RI","zip": "02874","zip+4": "0000","phone": "4012844505","NPI": "     1750455143"}, 
{"id": 46034,"ncpdp": "4106907","pharmacy_name": "WAL-MART PHARMACY #103301","address1": "51 SILVER SPRING STREET","address2": "","city": "PROVIDENCE","state": "RI","zip": "02904","zip+4": "0000","phone": "4012725340","NPI": "     1083779409"}, 
{"id": 46035,"ncpdp": "4106919","pharmacy_name": "WALGREEN DRUG STORE #06892","address1": "591 METACOM AVE","address2": "","city": "BRISTOL","state": "RI","zip": "02809","zip+4": "5131","phone": "4012543903","NPI": "     1952430175"}, 
{"id": 46036,"ncpdp": "4106933","pharmacy_name": "CVS PHARMACY #9124","address1": "450 CLINTON ST","address2": "","city": "WOONSOCKET","state": "RI","zip": "02895","zip+4": "0000","phone": "4012356850","NPI": "     1154443125"}, 
{"id": 46037,"ncpdp": "4106945","pharmacy_name": "QOL MEDS #070","address1": "101 BACON ST","address2": "","city": "PAWTUCKET","state": "RI","zip": "02860","zip+4": "0000","phone": "4017220299","NPI": "     1639380553"}, 
{"id": 46038,"ncpdp": "4106971","pharmacy_name": "ELECTRIC BOAT PHARMACY #12959","address1": "7417 POST ROAD","address2": "","city": "NORTH KINGSTOWN","state": "RI","zip": "02852","zip+4": "0000","phone": "4012955791","NPI": "     1194919597"}, 
{"id": 46039,"ncpdp": "4106983","pharmacy_name": "WALGREEN DRUG STORE #10256","address1": "1140 N MAIN ST","address2": "","city": "PROVIDENCE","state": "RI","zip": "02904","zip+4": "1819","phone": "4012784901","NPI": "     1184811044"}, 
{"id": 46040,"ncpdp": "4106995","pharmacy_name": "CVS PHARMACY #00409","address1": "1123 BOSTON NECK ROAD","address2": "","city": "NARRAGANSETT","state": "RI","zip": "02882","zip+4": "1734","phone": "4017831753","NPI": "     1841487998"}, 
{"id": 46041,"ncpdp": "4107000","pharmacy_name": "JB PHARMACY II LLC","address1": "1001 SMITH ST","address2": "","city": "PROVIDENCE","state": "RI","zip": "02908","zip+4": "2737","phone": "4018611194","NPI": "     1518153014"}, 
{"id": 46042,"ncpdp": "4107024","pharmacy_name": "CVS PHARMACY #01544","address1": "145 FRANKLIN ST","address2": "","city": "WESTERLY","state": "RI","zip": "02891","zip+4": "0000","phone": "4015968182","NPI": "     1679758114"}, 
{"id": 46043,"ncpdp": "4107036","pharmacy_name": "WALGREEN DRUG STORE #10099","address1": "333 ATWELLS AVE","address2": "","city": "PROVIDENCE","state": "RI","zip": "02903","zip+4": "0000","phone": "4012768301","NPI": "     1629253125"}, 
{"id": 46044,"ncpdp": "4107048","pharmacy_name": "BLACKSTONE HEALTH MART PHARMAC","address1": "465 LONSDALE AVE","address2": "STE B","city": "PAWTUCKET","state": "RI","zip": "02860","zip+4": "0000","phone": "4014755655","NPI": "     1225206329"}, 
{"id": 46045,"ncpdp": "4107050","pharmacy_name": "WALGREEN DRUG STORE #09374","address1": "600 WARREN AVE","address2": "","city": "EAST PROVIDENCE","state": "RI","zip": "02914","zip+4": "0000","phone": "4014389501","NPI": "     1427229061"}, 
{"id": 46046,"ncpdp": "4107074","pharmacy_name": "GENOA HEALTHCARE","address1": "2756 POST ROAD","address2": "","city": "WARWICK","state": "RI","zip": "02886","zip+4": "0000","phone": "4019215660","NPI": "     1245405190"}, 
{"id": 46047,"ncpdp": "4107098","pharmacy_name": "TARGET PHARMACY #2430","address1": "400 BALD HILL RD","address2": "STE 200","city": "WARWICK","state": "RI","zip": "02886","zip+4": "6101","phone": "4012441973","NPI": "     1568624013"}, 
{"id": 46048,"ncpdp": "4107101","pharmacy_name": "WALGREENS #11147","address1": "1 POCASSET AVE","address2": "","city": "PROVIDENCE","state": "RI","zip": "02909","zip+4": "2907","phone": "4014646501","NPI": "     1770746075"}, 
{"id": 46049,"ncpdp": "4107113","pharmacy_name": "CVS PHARMACY # #00852","address1": "2250 NEW LONDON TPK","address2": "","city": "COVENTRY","state": "RI","zip": "02816","zip+4": "0000","phone": "4018213145","NPI": "     1447408653"}, 
{"id": 46050,"ncpdp": "4107125","pharmacy_name": "CVS PHARMACY #04096","address1": "309 BROAD ST","address2": "","city": "CENTRAL FALLS","state": "RI","zip": "02863","zip+4": "0000","phone": "4017219880","NPI": "     1720236821"}, 
{"id": 46051,"ncpdp": "4107149","pharmacy_name": "WALGREENS # #11128","address1": "875 TIOGUE AVE.","address2": "","city": "COVENTRY","state": "RI","zip": "02816","zip+4": "6300","phone": "4018227602","NPI": "     1275784456"}, 
{"id": 46052,"ncpdp": "4107163","pharmacy_name": "CVS PHARMACY # #02049","address1": "100 FRANCIS ST.","address2": "","city": "PROVIDENCE","state": "RI","zip": "02903","zip+4": "0000","phone": "4017651500","NPI": "     1134360985"}, 
{"id": 46053,"ncpdp": "4107175","pharmacy_name": "DANIEL HOTCHBERGER MD INC","address1": "400 PAWTUCKET AVE","address2": "","city": "RUMFORD","state": "RI","zip": "02916","zip+4": "0000","phone": "4014316224","NPI": "     1497836969"}, 
{"id": 46054,"ncpdp": "4107187","pharmacy_name": "RITE AID PHARMACY #06595","address1": "1011 CRANSTON STREET","address2": "","city": "CRANSTON","state": "RI","zip": "02920","zip+4": "7533","phone": "4012750849","NPI": "     1679716302"}, 
{"id": 46055,"ncpdp": "4107202","pharmacy_name": "WALGREENS # #10476","address1": "1583 ATWOOD AVE","address2": "","city": "JOHNSTON","state": "RI","zip": "02919","zip+4": "3232","phone": "4012311280","NPI": "     1174758676"}, 
{"id": 46056,"ncpdp": "4107226","pharmacy_name": "WALGREENS #11633","address1": "1209 MAIN ST","address2": "","city": "RICHMOND","state": "RI","zip": "02898","zip+4": "0000","phone": "4015397598","NPI": "     1528294063"}, 
{"id": 46057,"ncpdp": "4107240","pharmacy_name": "APOTHECARE COMPOUNDING SOLUTIO","address1": "85 SANDY BOTTOM RD","address2": "","city": "COVENTRY","state": "RI","zip": "02816","zip+4": "5863","phone": "4018215000","NPI": "     1861622581"}, 
{"id": 46058,"ncpdp": "4107252","pharmacy_name": "NEW ENGLAND HOME INFUSION","address1": "85 SANDY BOTTOM RD","address2": "","city": "COVENTRY","state": "RI","zip": "02816","zip+4": "5863","phone": "4018210600","NPI": "     1235368192"}, 
{"id": 46059,"ncpdp": "4107264","pharmacy_name": "STOP & SHOP PHARMACY # #2701","address1": "1925 PAWTUCKET AVE","address2": "","city": "E PROVIDENCE","state": "RI","zip": "02914","zip+4": "1642","phone": "4017265332","NPI": "     1326271800"}, 
{"id": 59581,"ncpdp": "9000933","pharmacy_name": "PROCARE PHARMACY INC","address1": "PO BOX 1075 ONE CVS DRIVE","address2": "","city": "WOONSOCKET","state": "RI","zip": "02985","zip+4": "0000","phone": "4017651500","NPI": ""}, 