{"id": 47109,"ncpdp": "4300012","pharmacy_name": "BIEN PHARMACY","address1": "222 S MAIN ST","address2": "","city": "MILBANK","state": "SD","zip": "57252","zip+4": "1809","phone": "6054325781","NPI": "     1225182678"}, 
{"id": 47110,"ncpdp": "4300098","pharmacy_name": "LIEBE DRUG INC","address1": "109 S MAIN ST","address2": "","city": "MILBANK","state": "SD","zip": "57252","zip+4": "1725","phone": "6054325541","NPI": "     1598769531"}, 
{"id": 47111,"ncpdp": "4300101","pharmacy_name": "LEWIS DRUG HURON #4","address1": "1950 DAKOTA AVENUE SOUTH","address2": "","city": "HURON","state": "SD","zip": "57350","zip+4": "0000","phone": "6053526495","NPI": "     1932298551"}, 
{"id": 47112,"ncpdp": "4300113","pharmacy_name": "VANHOVE PRESCRIPTION SHOP","address1": "1200 S 7TH ST AVE","address2": "STE 100","city": "SIOUX FALLS","state": "SD","zip": "57105","zip+4": "0000","phone": "6053361816","NPI": "     1699878710"}, 
{"id": 47113,"ncpdp": "4300163","pharmacy_name": "LEWIS DRUG # #1","address1": "500 W 41ST ST","address2": "","city": "SIOUX FALLS","state": "SD","zip": "57105","zip+4": "0000","phone": "6053672110","NPI": "     1841389467"}, 
{"id": 47114,"ncpdp": "4300175","pharmacy_name": "LEWIS DRUG WESTGATE #2","address1": "2700 WEST 12TH STREET","address2": "","city": "SIOUX FALLS","state": "SD","zip": "57104","zip+4": "0000","phone": "6053672210","NPI": "     1750470373"}, 
{"id": 47115,"ncpdp": "4300226","pharmacy_name": "CLINIC PHARMACIES INC","address1": "2333 W 57TH ST","address2": "STE 109","city": "SIOUX FALLS","state": "SD","zip": "57108","zip+4": "0000","phone": "6053313190","NPI": "     1629140967"}, 
{"id": 47116,"ncpdp": "4300327","pharmacy_name": "HAISCH PHARMACY","address1": "303 E 5TH ST","address2": "","city": "CANTON","state": "SD","zip": "57013","zip+4": "1735","phone": "6059872661","NPI": "     1649372111"}, 
{"id": 47117,"ncpdp": "4300365","pharmacy_name": "PARKER PHARMACY INC","address1": "27600 SD HWY 19","address2": "","city": "PARKER","state": "SD","zip": "57053","zip+4": "0000","phone": "6052973235","NPI": "     1750450961"}, 
{"id": 47118,"ncpdp": "4300377","pharmacy_name": "GETSKOW PHARMACY","address1": "413 N BROADWAY","address2": "","city": "MARION","state": "SD","zip": "57043","zip+4": "0131","phone": "6056483751","NPI": "     1376602748"}, 
{"id": 47119,"ncpdp": "4300391","pharmacy_name": "DAKOTA DRUG AND JEWELRY INC","address1": "123 N EGAN AVE","address2": "","city": "MADISON","state": "SD","zip": "57042","zip+4": "2899","phone": "6052564521","NPI": "     1972561520"}, 
{"id": 47120,"ncpdp": "4300416","pharmacy_name": "LEWIS FAMILY DRUG #53","address1": "335 EAST 4TH STREET","address2": "","city": "DELL RAPIDS","state": "SD","zip": "57022","zip+4": "0000","phone": "6054285440","NPI": "     1538258157"}, 
{"id": 47121,"ncpdp": "4300478","pharmacy_name": "MEDICINE SHOPPE #1654","address1": "1007 N MAIN STREET","address2": "","city": "MITCHELL","state": "SD","zip": "57301","zip+4": "0000","phone": "6059967751","NPI": "     1578657888"}, 
{"id": 47122,"ncpdp": "4300505","pharmacy_name": "SHOPKO PHARMACY #22","address1": "1900 N MAIN ST","address2": "","city": "MITCHELL","state": "SD","zip": "57301","zip+4": "1160","phone": "6059966568","NPI": "     1457302028"}, 
{"id": 47123,"ncpdp": "4300531","pharmacy_name": "GRAHAM PHARMACY INC","address1": "818 W HAVENS ST","address2": "","city": "MITCHELL","state": "SD","zip": "57301","zip+4": "3830","phone": "6059965321","NPI": "     1699719906"}, 
{"id": 47124,"ncpdp": "4300555","pharmacy_name": "THORNTON DRUG","address1": "202 EAST MAIN ST","address2": "","city": "WESSINGTON SPRINGS","state": "SD","zip": "57382","zip+4": "0000","phone": "6055391421","NPI": "     1720169725"}, 
{"id": 47125,"ncpdp": "4300579","pharmacy_name": "HERITAGE PHARMACY","address1": "609 S HWY 81","address2": "","city": "FREEMAN","state": "SD","zip": "57029","zip+4": "0000","phone": "6059254510","NPI": "     1831125558"}, 
{"id": 47126,"ncpdp": "4300606","pharmacy_name": "LEWIS DRUG EASTGATE #3","address1": "1301 EAST 10TH STREET","address2": "","city": "SIOUX FALLS","state": "SD","zip": "57103","zip+4": "0000","phone": "6053672310","NPI": "     1356430979"}, 
{"id": 47127,"ncpdp": "4300656","pharmacy_name": "MEDICINE SHOPPE #1655","address1": "102 WEST MAIN","address2": "","city": "PARKSTON","state": "SD","zip": "57366","zip+4": "0000","phone": "6059283661","NPI": "     1578635108"}, 
{"id": 47128,"ncpdp": "4300668","pharmacy_name": "UNITED CLINIC PHARMACY","address1": "3015 3RD AVE SE","address2": "STE 110","city": "ABERDEEN","state": "SD","zip": "57401","zip+4": "1818","phone": "6052254001","NPI": "     1376560094"}, 
{"id": 47129,"ncpdp": "4300721","pharmacy_name": "AVERA ST LUKES PHARMACY","address1": "305 S STATE ST","address2": "","city": "ABERDEEN","state": "SD","zip": "57401","zip+4": "4590","phone": "6056225545","NPI": "     1386738102"}, 
{"id": 47130,"ncpdp": "4300757","pharmacy_name": "NELSON DRUG INC","address1": "125 S MAIN ST","address2": "","city": "ARLINGTON","state": "SD","zip": "57212","zip+4": "0000","phone": "6059835711","NPI": "     1578552899"}, 
{"id": 47131,"ncpdp": "4300872","pharmacy_name": "QUARVE DRUG","address1": "710 MAIN ST","address2": "","city": "BRITTON","state": "SD","zip": "57430","zip+4": "0027","phone": "6054482471","NPI": "     1730237736"}, 
{"id": 47132,"ncpdp": "4301014","pharmacy_name": "CASEY DRUG COMPANY","address1": "201 N MAIN ST","address2": "","city": "CHAMBERLAIN","state": "SD","zip": "57325","zip+4": "0000","phone": "6057345871","NPI": "     1144324674"}, 
{"id": 47133,"ncpdp": "4301191","pharmacy_name": "PIONEER DRUG","address1": "107 E MAIN ST","address2": "","city": "ELK POINT","state": "SD","zip": "57025","zip+4": "0000","phone": "6053563336","NPI": "     1306911599"}, 
{"id": 47134,"ncpdp": "4301355","pharmacy_name": "VILAS PHARMACY","address1": "103 E COMMERCIAL","address2": "","city": "GETTYSBURG","state": "SD","zip": "57442","zip+4": "0187","phone": "6057659458","NPI": "     1346271806"}, 
{"id": 47135,"ncpdp": "4301393","pharmacy_name": "GREGORY DRUG","address1": "604 MAIN ST","address2": "","city": "GREGORY","state": "SD","zip": "57533","zip+4": "1349","phone": "6058358198","NPI": "     1619185626"}, 
{"id": 47136,"ncpdp": "4301444","pharmacy_name": "RAFFERTY ROBBINS DRUG","address1": "108 S MAIN ST","address2": "","city": "HOWARD","state": "SD","zip": "57349","zip+4": "0000","phone": "6057725581","NPI": "     1538230230"}, 
{"id": 47137,"ncpdp": "4301519","pharmacy_name": "WOLLMAN ANDES PHARMACY","address1": "332 MAIN ST","address2": "","city": "LAKE ANDES","state": "SD","zip": "57356","zip+4": "0000","phone": "6054877685","NPI": "     1265599617"}, 
{"id": 47138,"ncpdp": "4301521","pharmacy_name": "LEWIS FAMILY DRUG #68","address1": "213 CALUMET SOUTH WEST","address2": "","city": "DESMET","state": "SD","zip": "57231","zip+4": "0000","phone": "6058549033","NPI": "     1235151259"}, 
{"id": 47139,"ncpdp": "4301583","pharmacy_name": "SMITHS DRUG","address1": "301 MAIN ST","address2": "","city": "LEMMON","state": "SD","zip": "57638","zip+4": "0000","phone": "6053743897","NPI": "     1023173796"}, 
{"id": 47140,"ncpdp": "4301608","pharmacy_name": "MARTIN DRUG AND MERCANTILE","address1": "304 MAIN ST","address2": "","city": "MARTIN","state": "SD","zip": "57551","zip+4": "0000","phone": "6056856200","NPI": "     1255416186"}, 
{"id": 47141,"ncpdp": "4301672","pharmacy_name": "MILLER REXALL DRUG","address1": "209 N BROADWAY","address2": "","city": "MILLER","state": "SD","zip": "57362","zip+4": "0000","phone": "6058533647","NPI": "     1538198684"}, 
{"id": 47142,"ncpdp": "4301711","pharmacy_name": "FAMILY PHARMACY","address1": "1317 10TH AVE W","address2": "","city": "MOBRIDGE","state": "SD","zip": "57601","zip+4": "0000","phone": "6058458140","NPI": "     1407959539"}, 
{"id": 47143,"ncpdp": "4301747","pharmacy_name": "NEUMAYR PHARMACY","address1": "112 W ESTMAIN","address2": "","city": "PARKSTON","state": "SD","zip": "57366","zip+4": "0000","phone": "6059283125","NPI": "     1801917281"}, 
{"id": 47144,"ncpdp": "4301836","pharmacy_name": "VILAS PHARMACY","address1": "100 MAC LANE 2","address2": "STE 2","city": "PIERRE","state": "SD","zip": "57501","zip+4": "0000","phone": "6052247334","NPI": "     1770514234"}, 
{"id": 47145,"ncpdp": "4301874","pharmacy_name": "BOYDS DRUG MART EAST","address1": "909 E ST PATRICK ST","address2": "","city": "RAPID CITY","state": "SD","zip": "57701","zip+4": "0000","phone": "6053480741","NPI": "     1417932799"}, 
{"id": 47146,"ncpdp": "4301886","pharmacy_name": "BOYDS DRUG MART WEST","address1": "655 MOUNTAIN VIEW RD","address2": "","city": "RAPID CITY","state": "SD","zip": "57702","zip+4": "2518","phone": "6053434445","NPI": "     1528043809"}, 
{"id": 47147,"ncpdp": "4301898","pharmacy_name": "FAMILY THRIFT CENTER #253","address1": "1516 E ST PATRICK ST","address2": "","city": "RAPID CITY","state": "SD","zip": "57703","zip+4": "0000","phone": "6053436214","NPI": "     1679621940"}, 
{"id": 47148,"ncpdp": "4302117","pharmacy_name": "OMNICARE OF SOUTH DAKOTA","address1": "709 NORTH KIWANIS AVE","address2": "","city": "SIOUX FALLS","state": "SD","zip": "57104","zip+4": "0000","phone": "6053389980","NPI": "     1942312392"}, 
{"id": 47149,"ncpdp": "4302143","pharmacy_name": "PEARSON DRUG AND JEWELRY","address1": "420 VETERANS AVE","address2": "","city": "SISSETON","state": "SD","zip": "57262","zip+4": "0000","phone": "6056983622","NPI": "     1942385372"}, 
{"id": 47150,"ncpdp": "4302179","pharmacy_name": "MEDICAP PHARMACY #8066","address1": "1330 NORTH AVENUE","address2": "","city": "SPEARFISH","state": "SD","zip": "57783","zip+4": "0000","phone": "6056422442","NPI": "     1528123940"}, 
{"id": 47151,"ncpdp": "4302206","pharmacy_name": "COUNTY DRUG","address1": "1111 LAZELLE STREET","address2": "","city": "STURGIS","state": "SD","zip": "57785","zip+4": "0000","phone": "6053472466","NPI": "     1831275965"}, 
{"id": 47152,"ncpdp": "4302232","pharmacy_name": "HOCH DRUG COMPANY","address1": "1619 MAIN ST","address2": "","city": "TYNDALL","state": "SD","zip": "57066","zip+4": "0000","phone": "6055893971","NPI": "     1053417394"}, 
{"id": 47153,"ncpdp": "4302256","pharmacy_name": "DAVIS PHARMACY LTD","address1": "5 W CHERRY ST","address2": "","city": "VERMILLION","state": "SD","zip": "57069","zip+4": "0000","phone": "6056244444","NPI": "     1811960263"}, 
{"id": 47154,"ncpdp": "4302294","pharmacy_name": "JAMES DRUG","address1": "201 S MAIN","address2": "PO BOX 130","city": "WAGNER","state": "SD","zip": "57380","zip+4": "0130","phone": "6053843541","NPI": "     1205973732"}, 
{"id": 47155,"ncpdp": "4302319","pharmacy_name": "WALL DRUG STORE INC","address1": "510 MAIN","address2": "","city": "WALL","state": "SD","zip": "57790","zip+4": "0000","phone": "6052792175","NPI": "     1023173168"}, 
{"id": 47156,"ncpdp": "4302383","pharmacy_name": "PRAIRIE LAKES CAMPUS PHARMACY","address1": "401 9TH AVE NW","address2": "","city": "WATERTOWN","state": "SD","zip": "57201","zip+4": "1599","phone": "6058827790","NPI": "     1285662742"}, 
{"id": 47157,"ncpdp": "4302395","pharmacy_name": "CORNWELL DRUG","address1": "701 MAIN ST","address2": "","city": "WEBSTER","state": "SD","zip": "57274","zip+4": "0490","phone": "6053453351","NPI": "     1659361640"}, 
{"id": 47158,"ncpdp": "4302460","pharmacy_name": "RANCHLAND DRUG","address1": "101 N MAIN","address2": "","city": "WHITE RIVER","state": "SD","zip": "57579","zip+4": "0000","phone": "6052593102","NPI": "     1730299793"}, 
{"id": 47159,"ncpdp": "4302701","pharmacy_name": "PLAZA PHARMACY","address1": "201 S LLOYD ST","address2": "","city": "ABERDEEN","state": "SD","zip": "57401","zip+4": "4509","phone": "6052256344","NPI": "     1174612121"}, 
{"id": 47160,"ncpdp": "4302876","pharmacy_name": "RAPID CITY REGIONAL OUTPATIENT","address1": "353 FAIRMONT BLVD","address2": "","city": "RAPID CITY","state": "SD","zip": "57701","zip+4": "7393","phone": "6057197141","NPI": "     1356496210"}, 
{"id": 47161,"ncpdp": "4302890","pharmacy_name": "ZEEB PHARMACY","address1": "130 S CENTER","address2": "","city": "PHILIP","state": "SD","zip": "57567","zip+4": "0640","phone": "6058592833","NPI": "     1356477442"}, 
{"id": 47162,"ncpdp": "4303044","pharmacy_name": "KMART PHARMACY #4170","address1": "1111 E NORTH ST","address2": "","city": "RAPID CITY","state": "SD","zip": "57701","zip+4": "0000","phone": "6053432248","NPI": "     1811928807"}, 
{"id": 47163,"ncpdp": "4303094","pharmacy_name": "LYNNS DAKOTAMART PHARMACY","address1": "120 W SIOUX AVE","address2": "PO BOX 1158","city": "PIERRE","state": "SD","zip": "57501","zip+4": "1158","phone": "6052247396","NPI": "     1265481402"}, 
{"id": 47164,"ncpdp": "4303133","pharmacy_name": "KMART PHARMACY #7023","address1": "18156TH AVE SE","address2": "","city": "ABERDEEN","state": "SD","zip": "57401","zip+4": "0000","phone": "6052295500","NPI": "     1720019714"}, 
{"id": 47165,"ncpdp": "4303169","pharmacy_name": "CASEYS WELCOME WEST","address1": "ONE WELCOME W PLZ","address2": "","city": "CHAMBERLAIN","state": "SD","zip": "57325","zip+4": "0549","phone": "6057346530","NPI": "     1962502377"}, 
{"id": 47166,"ncpdp": "4303323","pharmacy_name": "KMART PHARMACY #7306","address1": "3709 EAST 10TH STREET","address2": "","city": "SIOUX FALLS","state": "SD","zip": "57103","zip+4": "0000","phone": "6053320102","NPI": "     1639100621"}, 
{"id": 47167,"ncpdp": "4303335","pharmacy_name": "KMART PHARMACY #7318","address1": "3020 W 12TH ST","address2": "","city": "SIOUX FALLS","state": "SD","zip": "57104","zip+4": "0000","phone": "6053393111","NPI": "     1548291537"}, 
{"id": 47168,"ncpdp": "4303397","pharmacy_name": "LEWIS MADISON DRUG #5","address1": "741 SOUTH WASHINGTON AVENUE","address2": "","city": "MADISON","state": "SD","zip": "57042","zip+4": "0000","phone": "6052563733","NPI": "     1265521884"}, 
{"id": 47169,"ncpdp": "4303450","pharmacy_name": "FAMILY THRIFT CENTER #257","address1": "3464 SRURGIS ROAD","address2": "","city": "RAPID CITY","state": "SD","zip": "57702","zip+4": "0000","phone": "6053484414","NPI": "     1851449771"}, 
{"id": 47170,"ncpdp": "4303462","pharmacy_name": "SAFEWAY #1554","address1": "730 MOUNTAIN VIEW RD","address2": "","city": "RAPID CITY","state": "SD","zip": "57702","zip+4": "0000","phone": "6053428505","NPI": "     1538198593"}, 
{"id": 47171,"ncpdp": "4303498","pharmacy_name": "DEUEL COUNTY PHARMACY","address1": "411 3RD AVE S","address2": "","city": "CLEAR LAKE","state": "SD","zip": "57226","zip+4": "0000","phone": "6058748220","NPI": "     1275621708"}, 
{"id": 47172,"ncpdp": "4303501","pharmacy_name": "MEDICINE SHOPPE PHARMACY #0461","address1": "1304 MT RUSHMORE RD","address2": "","city": "RAPID CITY","state": "SD","zip": "57701","zip+4": "0000","phone": "6053486305","NPI": "     1588693378"}, 
{"id": 47173,"ncpdp": "4303703","pharmacy_name": "SAFEWAY #0581","address1": "2120 MT RUSHMORE","address2": "","city": "RAPIDCITY","state": "SD","zip": "57701","zip+4": "0000","phone": "6053487552","NPI": "     1447289400"}, 
{"id": 47174,"ncpdp": "4303715","pharmacy_name": "SALEM COMMUNITY DRUG","address1": "300 N MAIN","address2": "","city": "SALEM","state": "SD","zip": "57058","zip+4": "0316","phone": "6054252827","NPI": "     1356436844"}, 
{"id": 47175,"ncpdp": "4303739","pharmacy_name": "HY VEE PHARMACY 3 #1632","address1": "3000 S MINNESOTA AVENUE","address2": "","city": "SIOUX FALLS","state": "SD","zip": "57105","zip+4": "0000","phone": "6053348012","NPI": "     1376573584"}, 
{"id": 47176,"ncpdp": "4303777","pharmacy_name": "SHOPKO PHARMACY #49","address1": "500 N HIGHWAY 281","address2": "","city": "ABERDEEN","state": "SD","zip": "57401","zip+4": "1821","phone": "6052253577","NPI": "     1548211105"}, 
{"id": 47177,"ncpdp": "4303789","pharmacy_name": "LEWIS DRUG SOUTHWEST #6","address1": "5500 WEST 41ST STREET","address2": "","city": "SIOUX FALLS","state": "SD","zip": "57106","zip+4": "0000","phone": "6053672610","NPI": "     1174612790"}, 
{"id": 47178,"ncpdp": "4303828","pharmacy_name": "KESSLERS PHARMACY","address1": "621 6TH AVE SE","address2": "","city": "ABERDEEN","state": "SD","zip": "57401","zip+4": "4538","phone": "6052256673","NPI": "     1013015056"}, 
{"id": 47179,"ncpdp": "4303880","pharmacy_name": "SHOPKO PHARMACY #54","address1": "700 9TH AVE SE","address2": "","city": "WATERTOWN","state": "SD","zip": "57201","zip+4": "5222","phone": "6058822011","NPI": "     1962453845"}, 
{"id": 47180,"ncpdp": "4303943","pharmacy_name": "ECONOFOODS PHARMACY #487","address1": "2424 6TH AVE SE","address2": "","city": "ABERDEEN","state": "SD","zip": "57401","zip+4": "0000","phone": "6052262914","NPI": "     1588712855"}, 
{"id": 47181,"ncpdp": "4303955","pharmacy_name": "ROGERS FAMILY PHARMACY","address1": "218 WEST 4TH STREET","address2": "","city": "YANKTON","state": "SD","zip": "57078","zip+4": "4301","phone": "6056658042","NPI": "     1053344762"}, 
{"id": 47182,"ncpdp": "4304008","pharmacy_name": "SHOPKO PHARMACY #76","address1": "1601 W 41ST ST","address2": "","city": "SIOUX FALLS","state": "SD","zip": "57105","zip+4": "6371","phone": "6053383155","NPI": "     1659322543"}, 
{"id": 47183,"ncpdp": "4304010","pharmacy_name": "AVERA MCKENNAN CAMPUS PHARMACY","address1": "800 E 21ST ST","address2": "","city": "SIOUX FALLS","state": "SD","zip": "57105","zip+4": "5045","phone": "6053228326","NPI": "     1750442901"}, 
{"id": 47184,"ncpdp": "4304022","pharmacy_name": "SHOPKO PHARMACY #78","address1": "1845 HAINES AVE","address2": "","city": "RAPID CITY","state": "SD","zip": "57701","zip+4": "0663","phone": "6053421055","NPI": "     1952352544"}, 
{"id": 47185,"ncpdp": "4304084","pharmacy_name": "LEWIS FAMILY DRUG #63","address1": "216 SOUTH MAIN STREET","address2": "","city": "LENNOX","state": "SD","zip": "57039","zip+4": "0000","phone": "6056472256","NPI": "     1669562666"}, 
{"id": 47186,"ncpdp": "4304111","pharmacy_name": "PAMIDA PHARMACY #308","address1": "800 S WASHINGTON AVE","address2": "","city": "MADISON","state": "SD","zip": "57042","zip+4": "3520","phone": "6052566169","NPI": "     1942253802"}, 
{"id": 47187,"ncpdp": "4304135","pharmacy_name": "LEWIS DRUG SOUTHEAST #7","address1": "4409 EAST 26TH STREET","address2": "","city": "SIOUX FALLS","state": "SD","zip": "57103","zip+4": "0000","phone": "6053672710","NPI": "     1578653572"}, 
{"id": 47188,"ncpdp": "4304161","pharmacy_name": "SHOPKO PHARMACY #101","address1": "4501 E ARROWHEAD PKWY","address2": "","city": "SIOUX FALLS","state": "SD","zip": "57110","zip+4": "2701","phone": "6053358806","NPI": "     1396796975"}, 
{"id": 47189,"ncpdp": "4304173","pharmacy_name": "WAL-MART PHARMACY #101483","address1": "3001 BROADWAY AVENUE","address2": "","city": "YANKTON","state": "SD","zip": "57078","zip+4": "0000","phone": "6056658197","NPI": "     1760409932"}, 
{"id": 47190,"ncpdp": "4304185","pharmacy_name": "WAL-MART PHARMACY #101500","address1": "1201 29TH ST SE","address2": "","city": "WATERTOWN","state": "SD","zip": "57201","zip+4": "0000","phone": "6058868419","NPI": "     1679590848"}, 
{"id": 47191,"ncpdp": "4304197","pharmacy_name": "WAL-MART PHARMACY #101520","address1": "3820 7TH AVENUE SE","address2": "","city": "ABERDEEN","state": "SD","zip": "57401","zip+4": "0000","phone": "6052291519","NPI": "     1588681753"}, 
{"id": 47192,"ncpdp": "4304200","pharmacy_name": "WAL-MART PHARMACY #101543","address1": "2825 1ST AVENUE","address2": "","city": "SPEARFISH","state": "SD","zip": "57783","zip+4": "0000","phone": "6056423025","NPI": "     1396762563"}, 
{"id": 47193,"ncpdp": "4304224","pharmacy_name": "WAL-MART PHARMACY #101535","address1": "3209 SOUTH LOUISE","address2": "","city": "SIOUX FALLS","state": "SD","zip": "57106","zip+4": "0000","phone": "6053621602","NPI": "     1205853470"}, 
{"id": 47194,"ncpdp": "4304236","pharmacy_name": "WAL-MART PHARMACY #101538","address1": "2233 6TH ST","address2": "","city": "BROOKINGS","state": "SD","zip": "57006","zip+4": "0000","phone": "6056921858","NPI": "     1114944386"}, 
{"id": 47195,"ncpdp": "4304248","pharmacy_name": "HY VEE PHARMACY #1624","address1": "1601 S SYCAMORE ROAD","address2": "","city": "SIOUX FALLS","state": "SD","zip": "57103","zip+4": "0000","phone": "6053341173","NPI": "     1114957313"}, 
{"id": 47196,"ncpdp": "4304250","pharmacy_name": "KMART PHARMACY #3893","address1": "2323 COLORADO BOULEVARD","address2": "","city": "SPEARFISH","state": "SD","zip": "57783","zip+4": "0000","phone": "6056428749","NPI": "     1457382442"}, 
{"id": 47197,"ncpdp": "4304262","pharmacy_name": "JONES DRUG INC","address1": "802 6TH AVE SE","address2": "","city": "ABERDEEN","state": "SD","zip": "57401","zip+4": "6319","phone": "6052253010","NPI": "     1982601282"}, 
{"id": 47198,"ncpdp": "4304274","pharmacy_name": "WAL-MART PHARMACY #101604","address1": "1200 LACROSSE","address2": "","city": "RAPID CITY","state": "SD","zip": "57701","zip+4": "0000","phone": "6053420881","NPI": "     1023035292"}, 
{"id": 47199,"ncpdp": "4304298","pharmacy_name": "HY VEE PHARMACY 2 #1631","address1": "4101 SOUTH LOUISE AVENUE","address2": "","city": "SIOUX FALLS","state": "SD","zip": "57106","zip+4": "0000","phone": "6053611382","NPI": "     1649200841"}, 
{"id": 47200,"ncpdp": "4304301","pharmacy_name": "KMART PHARMACY #4735","address1": "1313 SOUTH BURR","address2": "","city": "MITCHELL","state": "SD","zip": "57301","zip+4": "0000","phone": "6059961384","NPI": "     1366473357"}, 
{"id": 47201,"ncpdp": "4304325","pharmacy_name": "KMART PHARMACY #9184","address1": "1000 18TH STREET SW","address2": "","city": "HURON","state": "SD","zip": "57350","zip+4": "0000","phone": "6053524525","NPI": "     1184655177"}, 
{"id": 47202,"ncpdp": "4304337","pharmacy_name": "VILAS PHARMACY","address1": "712 7TH ST","address2": "","city": "EUREKA","state": "SD","zip": "57437","zip+4": "0707","phone": "6052842752","NPI": "     1386673408"}, 
{"id": 47203,"ncpdp": "4304349","pharmacy_name": "WAL-MART PHARMACY #101685","address1": "1730 NO GARFIELD ROAD","address2": "","city": "PIERRE","state": "SD","zip": "57501","zip+4": "0000","phone": "6052248766","NPI": "     1932126109"}, 
{"id": 47204,"ncpdp": "4304375","pharmacy_name": "SAFEWAY #0583","address1": "1606 NORTH AVE SUITE 2","address2": "","city": "SPEARFISH","state": "SD","zip": "57783","zip+4": "0000","phone": "6056423039","NPI": "     1356370316"}, 
{"id": 47205,"ncpdp": "4304387","pharmacy_name": "KMART PHARMACY #4813","address1": "2210 BROADWAY AVENUE","address2": "","city": "YANKTON","state": "SD","zip": "57078","zip+4": "0000","phone": "6056657920","NPI": "     1518998517"}, 
{"id": 47206,"ncpdp": "4304402","pharmacy_name": "KMART PHARMACY #9273","address1": "1615 N HARRISON AVENUE","address2": "","city": "PIERRE","state": "SD","zip": "57501","zip+4": "0000","phone": "6052241655","NPI": "     1427089424"}, 
{"id": 47207,"ncpdp": "4304438","pharmacy_name": "LEWIS FAMILY DRUG #65","address1": "6110 SOUTH MINNESOTA AVENUE","address2": "","city": "SIOUX FALLS","state": "SD","zip": "57108","zip+4": "0000","phone": "6053672810","NPI": "     1083703607"}, 
{"id": 47208,"ncpdp": "4304488","pharmacy_name": "BURKE COMMUNITY PHARMACY","address1": "9TH AND JACKSON ST","address2": "","city": "BURKE","state": "SD","zip": "57523","zip+4": "0358","phone": "6057752294","NPI": "     1710047949"}, 
{"id": 47209,"ncpdp": "4304527","pharmacy_name": "VALUE CARE PHARMACY INC","address1": "122 E KEMP AVE","address2": "","city": "WATERTOWN","state": "SD","zip": "57201","zip+4": "0000","phone": "6058824809","NPI": "     1235116765"}, 
{"id": 47210,"ncpdp": "4304541","pharmacy_name": "HERITAGE PHARMACY","address1": "206 N MAIN","address2": "","city": "BRIDGEWATER","state": "SD","zip": "57319","zip+4": "0000","phone": "6057292744","NPI": "     1336154939"}, 
{"id": 47211,"ncpdp": "4304553","pharmacy_name": "STATE STREET PHARMACY","address1": "105 S STATE ST STE 111","address2": "","city": "ABERDEEN","state": "SD","zip": "57401","zip+4": "4602","phone": "6052251945","NPI": "     1083703037"}, 
{"id": 47212,"ncpdp": "4304589","pharmacy_name": "MEDICAP PHARMACY #8145","address1": "2210 JACKSON BLVD","address2": "","city": "RAPID CITY","state": "SD","zip": "57702","zip+4": "0000","phone": "6053993747","NPI": "     1922113968"}, 
{"id": 47213,"ncpdp": "4304630","pharmacy_name": "PAMIDA PHARMACY #348","address1": "2701 HIGHWAY 18 W","address2": "","city": "HOT SPRINGS","state": "SD","zip": "57747","zip+4": "6601","phone": "6057454681","NPI": "     1972556926"}, 
{"id": 47214,"ncpdp": "4304642","pharmacy_name": "LORIS PHARMACY","address1": "1205 N 1S ST","address2": "","city": "GROTON","state": "SD","zip": "57445","zip+4": "0000","phone": "6053972363","NPI": "     1518001023"}, 
{"id": 47215,"ncpdp": "4304680","pharmacy_name": "ECONOFOODS PHARMACY #484","address1": "1000 9TH AVE SE","address2": "","city": "WATERTOWN","state": "SD","zip": "57201","zip+4": "0000","phone": "6058866744","NPI": "     1396893665"}, 
{"id": 47216,"ncpdp": "4304692","pharmacy_name": "LEWIS DRUG BRANDON #9","address1": "117 NORTH SPLITROCK","address2": "","city": "BRANDON","state": "SD","zip": "57005","zip+4": "0000","phone": "6053672910","NPI": "     1700975323"}, 
{"id": 47217,"ncpdp": "4304729","pharmacy_name": "PAMIDA PHARMACY #360","address1": "1 N 5TH AVE","address2": "","city": "BELLE FOURCHE","state": "SD","zip": "57717","zip+4": "1172","phone": "6058922252","NPI": "     1871546820"}, 
{"id": 47218,"ncpdp": "4304743","pharmacy_name": "CLARK COMMUNITY PHARMACY","address1": "211 N COMMERCIAL STREET","address2": "","city": "CLARK","state": "SD","zip": "57225","zip+4": "0000","phone": "6055323400","NPI": "     1588778567"}, 
{"id": 47219,"ncpdp": "4304767","pharmacy_name": "HY VEE PHARMACY #1871","address1": "1320 9TH AVENUE SE","address2": "","city": "WATERTOWN","state": "SD","zip": "57201","zip+4": "0000","phone": "6058860661","NPI": "     1760412985"}, 
{"id": 47220,"ncpdp": "4304818","pharmacy_name": "LEWIS FAMILY DRUG #60","address1": "715 EAST 5TH STREET","address2": "","city": "CANTON","state": "SD","zip": "57013","zip+4": "0000","phone": "6059874284","NPI": "     1619066230"}, 
{"id": 47221,"ncpdp": "4304820","pharmacy_name": "LEWIS FAMILY DRUG #58","address1": "100 SOUTH MAIN STREET","address2": "","city": "VIBORG","state": "SD","zip": "57070","zip+4": "0000","phone": "6053265211","NPI": "     1487744488"}, 
{"id": 47222,"ncpdp": "4304894","pharmacy_name": "WALGREEN DRUG STORE #5242","address1": "4900 S CLIFF AVE","address2": "","city": "SIOUX FALLS","state": "SD","zip": "57108","zip+4": "4763","phone": "6053369366","NPI": "     1447265533"}, 
{"id": 47223,"ncpdp": "4304921","pharmacy_name": "WALGREEN DRUG STORE #5243","address1": "2605 W 12TH ST","address2": "","city": "SIOUX FALLS","state": "SD","zip": "57104","zip+4": "0000","phone": "6053578663","NPI": "     1356356448"}, 
{"id": 47224,"ncpdp": "4304995","pharmacy_name": "WALGREEN DRUG STORE #5745","address1": "3620 W 41ST ST","address2": "","city": "SIOUX FALLS","state": "SD","zip": "57106","zip+4": "0000","phone": "6053613400","NPI": "     1639184732"}, 
{"id": 47225,"ncpdp": "4305000","pharmacy_name": "HY VEE PHARMACY 4 #1633","address1": "1900 SOUTH MARION ROAD","address2": "","city": "SIOUX FALLS","state": "SD","zip": "57106","zip+4": "0000","phone": "6053613347","NPI": "     1720020142"}, 
{"id": 47226,"ncpdp": "4305012","pharmacy_name": "MEDICAP PHARMACY #8272","address1": "339 ST PATRICK STREET","address2": "","city": "RAPID CITY","state": "SD","zip": "57701","zip+4": "0000","phone": "6053883622","NPI": "     1831204874"}, 
{"id": 47227,"ncpdp": "4305024","pharmacy_name": "WALGREEN DRUG STORE #5643","address1": "540 MOUNTAIN VIEW RD","address2": "","city": "RAPID CITY","state": "SD","zip": "57702","zip+4": "0000","phone": "6053420090","NPI": "     1548275647"}, 
{"id": 47228,"ncpdp": "4305036","pharmacy_name": "HY VEE PHARMACY #1899","address1": "2100 N 21ST STREET","address2": "","city": "YANKTON","state": "SD","zip": "57078","zip+4": "0000","phone": "6056658261","NPI": "     1366472581"}, 
{"id": 47229,"ncpdp": "4305048","pharmacy_name": "HY VEE PHARMACY 5 #1637","address1": "3020 EAST 10TH STREET","address2": "","city": "SIOUX FALLS","state": "SD","zip": "57103","zip+4": "0000","phone": "6053368998","NPI": "     1700816915"}, 
{"id": 47230,"ncpdp": "4305050","pharmacy_name": "WAL-MART PHARMACY #102990","address1": "1101 EAST SPRUCE ST","address2": "","city": "MITCHELL","state": "SD","zip": "57301","zip+4": "0000","phone": "6059956845","NPI": "     1841217015"}, 
{"id": 47231,"ncpdp": "4305086","pharmacy_name": "BOYDS DRUG RX EXPRESS","address1": "2650 MT RUSHMORE RD","address2": "","city": "RAPID CITY","state": "SD","zip": "57701","zip+4": "0000","phone": "6057184040","NPI": "     1598740870"}, 
{"id": 47232,"ncpdp": "4305113","pharmacy_name": "COBORNS PHARMACY #24","address1": "2150 DAKOTA AVE S","address2": "","city": "HURON","state": "SD","zip": "57350","zip+4": "0000","phone": "6053521641","NPI": "     1366514036"}, 
{"id": 47233,"ncpdp": "4305137","pharmacy_name": "PAMIDA PHARMACY #248","address1": "2105 LAZELLE ST","address2": "","city": "STURGIS","state": "SD","zip": "57785","zip+4": "3028","phone": "6053474553","NPI": "     1770536625"}, 
{"id": 47234,"ncpdp": "4305149","pharmacy_name": "HY VEE PHARMACY #1820","address1": "525 WEST CHERRY STREET","address2": "","city": "VERMILLION","state": "SD","zip": "57069","zip+4": "0000","phone": "6056249591","NPI": "     1871523092"}, 
{"id": 47235,"ncpdp": "4305151","pharmacy_name": "CENTERVILLE COMMUNITY PHARMACY","address1": "512 BROADWAY","address2": "","city": "CENTERVILLE","state": "SD","zip": "57014","zip+4": "0000","phone": "6055632243","NPI": "     1518062629"}, 
{"id": 47236,"ncpdp": "4351742","pharmacy_name": "WAL-MART PHARMACY #103237","address1": "5521 E ARROWHEAD PARKWAY","address2": "","city": "SIOUX FALLS","state": "SD","zip": "57110","zip+4": "0000","phone": "6053673206","NPI": "     1669499836"}, 
{"id": 47237,"ncpdp": "4351968","pharmacy_name": "AMERIPHARM INC","address1": "2503 E 54TH ST N","address2": "","city": "SIOUX FALLS","state": "SD","zip": "57104","zip+4": "0000","phone": "8667440621","NPI": "     1073692745"}, 
{"id": 47238,"ncpdp": "4352439","pharmacy_name": "WALGREEN DRUG STORE #5514","address1": "1806 S MINNESOTA AVE","address2": "","city": "SIOUX FALLS","state": "SD","zip": "57105","zip+4": "0000","phone": "6052210575","NPI": "     1457366551"}, 
{"id": 47239,"ncpdp": "4352542","pharmacy_name": "SAMS PHARMACY #108165","address1": "3201 SOUTH LOUISE AVE","address2": "","city": "SIOUX FALLS","state": "SD","zip": "57106","zip+4": "0000","phone": "6053622625","NPI": "     1578580742"}, 
{"id": 47240,"ncpdp": "4352655","pharmacy_name": "LEWIS DRUG LONG TERM CARE PHAR","address1": "2701 SOUTH MINNESOTA AVENUE","address2": "","city": "SIOUX FALLS","state": "SD","zip": "57105","zip+4": "0000","phone": "6053672828","NPI": "     1528157146"}, 
{"id": 47241,"ncpdp": "4352871","pharmacy_name": "PRAIRIE PHARMACY","address1": "1311 BRADDOCK ST","address2": "","city": "ARMOUR","state": "SD","zip": "57313","zip+4": "0000","phone": "6057242970","NPI": "     1235161209"}, 
{"id": 47242,"ncpdp": "4352984","pharmacy_name": "TARGET PHARMACY #0076","address1": "3600 S LOUISE AVE","address2": "","city": "SIOUX FALLS","state": "SD","zip": "57106","zip+4": "0000","phone": "6052541100","NPI": "     1417979162"}, 
{"id": 47243,"ncpdp": "4353013","pharmacy_name": "PAMIDA PHARMACY #12","address1": "1140 E 5TH ST","address2": "","city": "WINNER","state": "SD","zip": "57580","zip+4": "2149","phone": "6058423242","NPI": "     1285687236"}, 
{"id": 47244,"ncpdp": "4353126","pharmacy_name": "LEWIS DRUG BROOKINGS #12","address1": "910 22ND AVENUE SOUTH","address2": "","city": "BROOKINGS","state": "SD","zip": "57006","zip+4": "0000","phone": "6056928881","NPI": "     1437248051"}, 
{"id": 47245,"ncpdp": "4353239","pharmacy_name": "LEWIS FAMILY DRUG #64","address1": "1201 SOUTH EUCLID","address2": "","city": "SIOUX FALLS","state": "SD","zip": "57105","zip+4": "0000","phone": "6053282620","NPI": "     1346339967"}, 
{"id": 47246,"ncpdp": "4353342","pharmacy_name": "DUNES FAMILY PHARMACY","address1": "101 TOWER ROAD","address2": "SUITE 130","city": "DAKOTA DUNES","state": "SD","zip": "57049","zip+4": "0000","phone": "6052425050","NPI": "     1205010204"}, 
{"id": 47247,"ncpdp": "4353568","pharmacy_name": "BON HOMME PHARMACY","address1": "410 W 16TH AVE","address2": "","city": "TYNDALL","state": "SD","zip": "57066","zip+4": "0000","phone": "6055894418","NPI": "     1073514311"}, 
{"id": 47248,"ncpdp": "4353671","pharmacy_name": "DT PHARMACY","address1": "815 1ST AVE SE","address2": "STE 202","city": "ABERDEEN","state": "SD","zip": "57401","zip+4": "0000","phone": "6057254001","NPI": "     1235156944"}, 
{"id": 47249,"ncpdp": "4353683","pharmacy_name": "HY VEE PHARMACY #1039","address1": "790 22ND AVENUE SOUTH","address2": "","city": "BROOKINGS","state": "SD","zip": "57006","zip+4": "0000","phone": "6056927311","NPI": "     1326078510"}, 
{"id": 47250,"ncpdp": "4353695","pharmacy_name": "LEWIS FAMILY DRUG #66","address1": "100 NORTH THIRD","address2": "","city": "BERESFORD","state": "SD","zip": "57004","zip+4": "0000","phone": "6057632633","NPI": "     1255420873"}, 
{"id": 47251,"ncpdp": "4353708","pharmacy_name": "AVERA DOCTORS PLAZA 2 PHCY","address1": "1100 E 21ST ST","address2": "SUITE 200","city": "SIOUX FALLS","state": "SD","zip": "57105","zip+4": "1053","phone": "6053228360","NPI": "     1346266202"}, 
{"id": 47252,"ncpdp": "4353746","pharmacy_name": "MEDICAP PHARMACY #8394","address1": "304 W HWY 38","address2": "STE 102","city": "HARTFORD","state": "SD","zip": "57033","zip+4": "0000","phone": "6055282000","NPI": "     1922041680"}, 
{"id": 47253,"ncpdp": "4353784","pharmacy_name": "WALGREEN DRUG STORE #1975","address1": "1720 S SYCAMORE AVE","address2": "","city": "SIOUX FALLS","state": "SD","zip": "57110","zip+4": "0000","phone": "6052210834","NPI": "     1366457467"}, 
{"id": 47254,"ncpdp": "4353796","pharmacy_name": "LEWIS FAMILY DRUG #67","address1": "7220 WEST 41ST STREET","address2": "","city": "SIOUX FALLS","state": "SD","zip": "57106","zip+4": "0000","phone": "6053672010","NPI": "     1659392611"}, 
{"id": 47255,"ncpdp": "4353809","pharmacy_name": "WAL-MART PHARMACY #103734","address1": "1207 PRINCETON STREET","address2": "","city": "VERMILLION","state": "SD","zip": "57069","zip+4": "0000","phone": "6056244106","NPI": "     1487671657"}, 
{"id": 47256,"ncpdp": "4353811","pharmacy_name": "YANKTON MEDICAL CLINIC PHARMAC","address1": "1104 W 8TH ST","address2": "","city": "YANKTON","state": "SD","zip": "57078","zip+4": "0000","phone": "6056652929","NPI": "     1811003866"}, 
{"id": 47257,"ncpdp": "4353823","pharmacy_name": "GENOA HEALTHCARE #26","address1": "123 19TH ST NE","address2": "","city": "WATERTOWN","state": "SD","zip": "57201","zip+4": "0000","phone": "6058829400","NPI": "     1487612958"}, 
{"id": 47258,"ncpdp": "4353835","pharmacy_name": "LYNNS DAKOTAMART BELL FOURCHE","address1": "600 NATIONAL ST","address2": "","city": "BELLE FOURCHE","state": "SD","zip": "57717","zip+4": "0000","phone": "6058922666","NPI": "     1316013071"}, 
{"id": 47259,"ncpdp": "4353847","pharmacy_name": "LYNNS DAKOTAMART PHARMACY #268","address1": "505 S 6TH ST","address2": "","city": "HOT SPRINGS","state": "SD","zip": "57747","zip+4": "0000","phone": "6057453110","NPI": "     1699813683"}, 
{"id": 47260,"ncpdp": "4353861","pharmacy_name": "WALGREEN DRUG STORE #10007","address1": "421 9TH AVE SE","address2": "","city": "WATERTOWN","state": "SD","zip": "57201","zip+4": "4955","phone": "6058828819","NPI": "     1275548372"}, 
{"id": 47261,"ncpdp": "4353873","pharmacy_name": "VILAS LTC PHARMACY","address1": "200 E DAKOTA","address2": "STE 2","city": "PIERRE","state": "SD","zip": "57501","zip+4": "0000","phone": "6052240907","NPI": "     1366473209"}, 
{"id": 47262,"ncpdp": "4353897","pharmacy_name": "WALGREEN DRUG STORE #9806","address1": "2020 BROADWAY AVE","address2": "","city": "YANKTON","state": "SD","zip": "57078","zip+4": "0000","phone": "6056652613","NPI": "     1992753362"}, 
{"id": 47263,"ncpdp": "4353924","pharmacy_name": "WALGREEN DRUG STORE #10347","address1": "901 S BURR ST","address2": "","city": "MITCHELL","state": "SD","zip": "57301","zip+4": "4705","phone": "6059963179","NPI": "     1063467231"}, 
{"id": 47264,"ncpdp": "4353936","pharmacy_name": "PRAIRIE PHARMACY CORSICA","address1": "230 MAIN ST","address2": "","city": "CORSICA","state": "SD","zip": "57328","zip+4": "0000","phone": "6059465690","NPI": "     1255347464"}, 
{"id": 47265,"ncpdp": "4353948","pharmacy_name": "WAL-MART PHARMACY #103853","address1": "2791 DAKOTA AVENUE SOUTH","address2": "","city": "HURON","state": "SD","zip": "57350","zip+4": "0000","phone": "6053539513","NPI": "     1295752467"}, 
{"id": 47266,"ncpdp": "4353950","pharmacy_name": "WALGREEN DRUG STORE #09512","address1": "1125 N LACROSSE ST","address2": "","city": "RAPID CITY","state": "SD","zip": "57701","zip+4": "6954","phone": "6053483265","NPI": "     1437266483"}, 
{"id": 47267,"ncpdp": "4353962","pharmacy_name": "WALGREEN DRUG STORE #10572","address1": "100 E SIOUX AVE","address2": "","city": "PIERRE","state": "SD","zip": "57501","zip+4": "3196","phone": "6052244962","NPI": "     1508940693"}, 
{"id": 47268,"ncpdp": "4353974","pharmacy_name": "LEWIS DRUGS AT 57TH AND CLIFF","address1": "1231 EAST 57TH STREET","address2": "","city": "SIOUX FALLS","state": "SD","zip": "57108","zip+4": "0000","phone": "6053672410","NPI": "     1295825297"}, 
{"id": 47269,"ncpdp": "4354003","pharmacy_name": "WALGREEN DRUG STORE #10729","address1": "7120 W 41ST ST","address2": "","city": "SIOUX FALLS","state": "SD","zip": "57106","zip+4": "6006","phone": "6052210989","NPI": "     1154443869"}, 
{"id": 47270,"ncpdp": "4354015","pharmacy_name": "PAMIDA PHARMACY #652","address1": "1710 SD HWY 10","address2": "","city": "SISSETON","state": "SD","zip": "57262","zip+4": "1401","phone": "6057420055","NPI": "     1972637072"}, 
{"id": 47271,"ncpdp": "4354027","pharmacy_name": "WALGREENS DRUG STORE #10656","address1": "1902 MOUNT RUSHMORE RD","address2": "","city": "RAPID CITY","state": "SD","zip": "57701","zip+4": "0000","phone": "6053420194","NPI": "     1336355791"}, 
{"id": 47272,"ncpdp": "4354039","pharmacy_name": "YOUR DAILY DOSE INC","address1": "220 S CLIFF AVE","address2": "STE 100","city": "HARRISBURG","state": "SD","zip": "57032","zip+4": "0000","phone": "6057432282","NPI": "     1447450994"}, 
{"id": 47273,"ncpdp": "4354041","pharmacy_name": "LEWIS FAMILY DRUG #70","address1": "127 E 2ND AVE","address2": "","city": "FLANDREAU","state": "SD","zip": "57028","zip+4": "1222","phone": "6059972122","NPI": "     1437340080"}, 
{"id": 47274,"ncpdp": "4354065","pharmacy_name": "RAPIDCARE RAPID CITY","address1": "408 KNOLLWOOD DR","address2": "","city": "RAPID CITY","state": "SD","zip": "57701","zip+4": "0000","phone": "6053416600","NPI": "     1861670689"}, 
{"id": 47275,"ncpdp": "4354077","pharmacy_name": "SANFORD CANCER CENTER ONCOLOGY","address1": "1309 W 17TH ST STE 101","address2": "","city": "SIOUX FALLS","state": "SD","zip": "57104","zip+4": "0000","phone": "6053288040","NPI": "     1588834501"}, 
{"id": 47276,"ncpdp": "4354089","pharmacy_name": "FAMILY THRIFT CENTER #254","address1": "855 OMAHA ST","address2": "","city": "RAPID CITY","state": "SD","zip": "57701","zip+4": "0000","phone": "6053438542","NPI": "     1265601975"}, 
{"id": 47277,"ncpdp": "4354116","pharmacy_name": "LEWIS DRUGS INC #13","address1": "720 E 1ST STREET","address2": "","city": "TEA","state": "SD","zip": "57064","zip+4": "0000","phone": "6053689001","NPI": "     1477712362"}, 
{"id": 47278,"ncpdp": "4354128","pharmacy_name": "TARGET PHARMACY #2457","address1": "1415 EGLIN ST","address2": "","city": "RAPID CITY","state": "SD","zip": "57703","zip+4": "9504","phone": "7632521316","NPI": "     1346498342"}, 
{"id": 47279,"ncpdp": "4354130","pharmacy_name": "BOB\'S, A WALGREENS PHARMACY #1","address1": "1430 NORTH AVE","address2": "","city": "SPEARFISH","state": "SD","zip": "57783","zip+4": "1593","phone": "6056420650","NPI": "     1952564148"}, 
{"id": 47280,"ncpdp": "4354142","pharmacy_name": "FAULKTON DRUG","address1": "118 8TH AVE S","address2": "","city": "FAULKTON","state": "SD","zip": "57438","zip+4": "0000","phone": "6055984187","NPI": "     1134370448"}, 
{"id": 47281,"ncpdp": "4354154","pharmacy_name": "WHITE DRUG #70","address1": "71 CHARLES ST","address2": "","city": "DEADWOOD","state": "SD","zip": "57732","zip+4": "1394","phone": "6055781512","NPI": "     1437300795"}, 
{"id": 47282,"ncpdp": "4354166","pharmacy_name": "NORM\'S THRIFTY WHITE PHARMACY","address1": "389 S MAIN ST","address2": "","city": "FREEMAN","state": "SD","zip": "57029","zip+4": "0000","phone": "6059257059","NPI": "     1811141815"}, 
{"id": 47283,"ncpdp": "4354178","pharmacy_name": "REDLERS LONG TERM CARE LLC","address1": "317 DAKOTA DUNES BLVD","address2": "STE A","city": "DAKOTA DUNES","state": "SD","zip": "57049","zip+4": "0000","phone": "4024945542","NPI": "     1083850051"}, 
{"id": 47284,"ncpdp": "4354192","pharmacy_name": "TARGET PHARMACY #2540","address1": "1021 S HIGHLINE PL","address2": "","city": "SIOUX FALLS","state": "SD","zip": "57110","zip+4": "1000","phone": "6053335601","NPI": "     1215169941"}, 