{"id": 53185,"ncpdp": "4700022","pharmacy_name": "THE PHARMACY INC","address1": "205 NORTH ST","address2": "","city": "BENNINGTON","state": "VT","zip": "05201","zip+4": "1829","phone": "8024425602","NPI": "     1851302707"}, 
{"id": 53186,"ncpdp": "4700185","pharmacy_name": "BEAUCHAMP AND OROURKE","address1": "62 WOODSTOCK AVE","address2": "","city": "RUTLAND","state": "VT","zip": "05701","zip+4": "3599","phone": "8027754321","NPI": "     1346285921"}, 
{"id": 53187,"ncpdp": "4700236","pharmacy_name": "SWANTON REXALL","address1": "44 MERCHANTS ROW","address2": "","city": "SWANTON","state": "VT","zip": "05488","zip+4": "1432","phone": "8028683338","NPI": "     1043326069"}, 
{"id": 53188,"ncpdp": "4700337","pharmacy_name": "GAUTHIERS PHARMACY INC","address1": "415 RAILROAD ST","address2": "","city": "ST JOHNSBURY","state": "VT","zip": "05819","zip+4": "1600","phone": "8027483122","NPI": "     1033223029"}, 
{"id": 53189,"ncpdp": "4700387","pharmacy_name": "RITE AID PHARMACY #10314","address1": "194 NORTH STREET","address2": "","city": "BENNINGTON","state": "VT","zip": "05201","zip+4": "1874","phone": "8024422240","NPI": "     1578579884"}, 
{"id": 53190,"ncpdp": "4700565","pharmacy_name": "THE HOTEL PHARMACY INC","address1": "20 ELLIOT ST","address2": "NO 1","city": "BRATTLEBORO","state": "VT","zip": "05301","zip+4": "0000","phone": "8022542303","NPI": "     1225031800"}, 
{"id": 53191,"ncpdp": "4700779","pharmacy_name": "BROWNS DRUG STORE","address1": "40 MAIN ST","address2": "","city": "DERBY LINE","state": "VT","zip": "05830","zip+4": "0427","phone": "8028733122","NPI": "     1679515597"}, 
{"id": 53192,"ncpdp": "4701024","pharmacy_name": "KINNEY DRUGS INC #18","address1": "164 SWANTON ROAD","address2": "","city": "ST ALBANS","state": "VT","zip": "05478","zip+4": "0000","phone": "8025246543","NPI": "     1326155508"}, 
{"id": 53193,"ncpdp": "4701074","pharmacy_name": "THE DRUG STORE INC","address1": "VILLAGE SQUARE","address2": "SUITE 7","city": "WAITSFIELD","state": "VT","zip": "05673","zip+4": "0391","phone": "8024962345","NPI": "     1972648129"}, 
{"id": 53194,"ncpdp": "4701098","pharmacy_name": "VINCENTS DRUG AND VARIETY","address1": "80 SOUTH MAIN ST","address2": "","city": "WATERBURY","state": "VT","zip": "05676","zip+4": "0000","phone": "8022448458","NPI": "     1497807069"}, 
{"id": 53195,"ncpdp": "4701101","pharmacy_name": "CORNER DRUG CO INC","address1": "213 MAPLE ST","address2": "","city": "WHITE RIVER JUNCTI","state": "VT","zip": "05001","zip+4": "0000","phone": "8022952501","NPI": "     1114018777"}, 
{"id": 53196,"ncpdp": "4701163","pharmacy_name": "SHIRE APOTHECARY INC","address1": "13 ELM ST","address2": "","city": "WOODSTOCK","state": "VT","zip": "05091","zip+4": "0000","phone": "8024572707","NPI": "     1992927479"}, 
{"id": 53197,"ncpdp": "4701175","pharmacy_name": "WOODSTOCK PHARMACY INC","address1": "19 CENTRAL ST","address2": "","city": "WOODSTOCK","state": "VT","zip": "05091","zip+4": "0000","phone": "8024571306","NPI": "     1023115862"}, 
{"id": 53198,"ncpdp": "4701199","pharmacy_name": "KINNEY DRUGS INC #21","address1": "82 PEARL STREET","address2": "","city": "ESSEX JUNCTION","state": "VT","zip": "05452","zip+4": "0000","phone": "8028785351","NPI": "     1235246414"}, 
{"id": 53199,"ncpdp": "4701252","pharmacy_name": "HARRYS DISCOUNT PHARMACY","address1": "921 US RT 302 BERLIN","address2": "","city": "BARRE","state": "VT","zip": "05641","zip+4": "2251","phone": "8024792521","NPI": "     1124166624"}, 
{"id": 53200,"ncpdp": "4701466","pharmacy_name": "KINNEY DRUGS INC #11","address1": "800 US RT 302 BERLIN","address2": "","city": "BARRE","state": "VT","zip": "05641","zip+4": "0000","phone": "8024766659","NPI": "     1144337320"}, 
{"id": 53201,"ncpdp": "4701733","pharmacy_name": "RITE AID PHARMACY #00297","address1": "896 PUTNEY ROAD","address2": "SUITE 6","city": "BRATTLEBORO","state": "VT","zip": "05301","zip+4": "9064","phone": "8022575592","NPI": "     1306955604"}, 
{"id": 53202,"ncpdp": "4701745","pharmacy_name": "HANNAFORD FOOD AND DRUG #357","address1": "217 DORSET ST","address2": "","city": "SO BURLINGTON","state": "VT","zip": "05403","zip+4": "0000","phone": "8028631378","NPI": "     1578671954"}, 
{"id": 53203,"ncpdp": "4701757","pharmacy_name": "CVS PHARMACY #00337","address1": "8 KOCHER DR","address2": "","city": "BENNINGTON","state": "VT","zip": "05201","zip+4": "0000","phone": "8024428369","NPI": "     1316041122"}, 
{"id": 53204,"ncpdp": "4701808","pharmacy_name": "RITE AID PHARMACY #10311","address1": "112 ROCKINGHAM STREET","address2": "","city": "BELLOWS FALLS","state": "VT","zip": "05101","zip+4": "1331","phone": "8024639910","NPI": "     1487660791"}, 
{"id": 53205,"ncpdp": "4701810","pharmacy_name": "RITE AID PHARMACY #10325","address1": "133 NORTH MAIN STREET","address2": "","city": "STALBANS","state": "VT","zip": "05478","zip+4": "1590","phone": "8025242141","NPI": "     1912004151"}, 
{"id": 53206,"ncpdp": "4701822","pharmacy_name": "RITE AID PHARMACY #10335","address1": "502 RAILROAD STREET","address2": "","city": "STJOHNSBURY","state": "VT","zip": "05819","zip+4": "1633","phone": "8027485210","NPI": "     1205842416"}, 
{"id": 53207,"ncpdp": "4701860","pharmacy_name": "RITE AID PHARMACY #10315","address1": "499 CANAL ST","address2": "UNIT 3","city": "BRATTLEBORO","state": "VT","zip": "05301","zip+4": "7112","phone": "8022574204","NPI": "     1114933322"}, 
{"id": 53208,"ncpdp": "4701909","pharmacy_name": "KINNEY DRUGS INC #22","address1": "115B MONKTON RD","address2": "","city": "VERGENNES","state": "VT","zip": "05491","zip+4": "0000","phone": "8028773148","NPI": "     1053428235"}, 
{"id": 53209,"ncpdp": "4701911","pharmacy_name": "RITE AID PHARMACY #10338","address1": "59 WATERFRONT PLAZA","address2": "SUITE 2","city": "NEWPORT","state": "VT","zip": "05855","zip+4": "4877","phone": "8023346785","NPI": "     1023024239"}, 
{"id": 53210,"ncpdp": "4701997","pharmacy_name": "LAKESIDE PHARMACY INC","address1": "242 PEARL ST","address2": "","city": "BURLINGTON","state": "VT","zip": "05401","zip+4": "8532","phone": "8028621491","NPI": "     1043321896"}, 
{"id": 53211,"ncpdp": "4702026","pharmacy_name": "HANNAFORD FOOD AND DRUG #303","address1": "218 HANNAFORD DR","address2": "","city": "SO BURLINGTON","state": "VT","zip": "05403","zip+4": "0000","phone": "8028631842","NPI": "     1104934454"}, 
{"id": 53212,"ncpdp": "4702040","pharmacy_name": "RITE AID PHARMACY #10330","address1": "48 CONGRESS STREET","address2": "","city": "MORRISVILLE","state": "VT","zip": "05661","zip+4": "0731","phone": "8028882226","NPI": "     1649281882"}, 
{"id": 53213,"ncpdp": "4702052","pharmacy_name": "KINNEY DRUGS INC #23","address1": "97 MORRISVILLE PLAZA","address2": "","city": "MORRISVILLE","state": "VT","zip": "05661","zip+4": "0000","phone": "8028885244","NPI": "     1962519140"}, 
{"id": 53214,"ncpdp": "4702076","pharmacy_name": "RITE AID PHARMACY #10317","address1": "158 CHERRY STREET","address2": "","city": "BURLINGTON","state": "VT","zip": "05401","zip+4": "3818","phone": "8028621562","NPI": "     1932115144"}, 
{"id": 53215,"ncpdp": "4702088","pharmacy_name": "RITE AID PHARMACY #01174","address1": "294 MAIN STREET","address2": "","city": "WEST RUTLAND","state": "VT","zip": "05777","zip+4": "0090","phone": "8024386186","NPI": "     1215046511"}, 
{"id": 53216,"ncpdp": "4702141","pharmacy_name": "RUTLAND PHARMACY","address1": "75 ALLEN ST","address2": "","city": "RUTLAND","state": "VT","zip": "05701","zip+4": "4501","phone": "8027752545","NPI": "     1922048768"}, 
{"id": 53217,"ncpdp": "4702242","pharmacy_name": "RITE AID PHARMACY #01363","address1": "4993 MAIN STREET","address2": "SUITE A","city": "MANCHESTER CENTER","state": "VT","zip": "05255","zip+4": "9768","phone": "8023622230","NPI": "     1124137427"}, 
{"id": 53218,"ncpdp": "4702254","pharmacy_name": "CVS PHARMACY #00673","address1": "31-33 MAIN ST","address2": "","city": "RUTLAND","state": "VT","zip": "05701","zip+4": "0000","phone": "8027756736","NPI": "     1225132038"}, 
{"id": 53219,"ncpdp": "4702280","pharmacy_name": "RITE AID PHARMACY #10320","address1": "1 PRINCE LANE","address2": "","city": "BRISTOL","state": "VT","zip": "05443","zip+4": "1224","phone": "8024532367","NPI": "     1750397964"}, 
{"id": 53220,"ncpdp": "4702305","pharmacy_name": "RITE AID PHARMACY #10334","address1": "263 COURT STREET","address2": "","city": "MIDDLEBURY","state": "VT","zip": "05753","zip+4": "8986","phone": "8023889573","NPI": "     1669488870"}, 
{"id": 53221,"ncpdp": "4702317","pharmacy_name": "VERMONT FAMILY PHARMACY INC #0","address1": "1219 N AVE","address2": "","city": "BURLINGTON","state": "VT","zip": "05408","zip+4": "0000","phone": "8026589664","NPI": "     1457455420"}, 
{"id": 53222,"ncpdp": "4702329","pharmacy_name": "FLETCHER ALLEN OP PCHY","address1": "111 COLCHESTER AVE MP3","address2": "","city": "BURLINGTON","state": "VT","zip": "05401","zip+4": "0000","phone": "8028473784","NPI": "     1427112861"}, 
{"id": 53223,"ncpdp": "4702381","pharmacy_name": "AUSTINS DRUG STORE","address1": "38 MAIN ST","address2": "","city": "ORLEANS","state": "VT","zip": "05860","zip+4": "1129","phone": "8027546300","NPI": "     1689786592"}, 
{"id": 53224,"ncpdp": "4702456","pharmacy_name": "WILCOX PHARMACY","address1": "252 STRATTON RD","address2": "","city": "RUTLAND","state": "VT","zip": "05701","zip+4": "4623","phone": "8027753351","NPI": "     1730293507"}, 
{"id": 53225,"ncpdp": "4702470","pharmacy_name": "KINNEY DRUGS INC #29","address1": "308 SHELBOURNE ROAD","address2": "","city": "BURLINGTON","state": "VT","zip": "05401","zip+4": "0000","phone": "8028648154","NPI": "     1871600056"}, 
{"id": 53226,"ncpdp": "4702482","pharmacy_name": "HANNAFORD FOOD AND DRUG #353","address1": "21A ESSEX WAY","address2": "","city": "ESSEX","state": "VT","zip": "05452","zip+4": "0000","phone": "8028780119","NPI": "     1487762860"}, 
{"id": 53227,"ncpdp": "4702494","pharmacy_name": "MEDICINE SHOPPE PHARMACY #0806","address1": "20 S MAIN ST","address2": "","city": "BARRE","state": "VT","zip": "05641","zip+4": "0000","phone": "8024793381","NPI": "     1801830401"}, 
{"id": 53228,"ncpdp": "4702569","pharmacy_name": "NOTCH PHARMACY","address1": "44 MAIN STREET","address2": "STE 201","city": "RICHFORD","state": "VT","zip": "05476","zip+4": "1144","phone": "8022555530","NPI": "     1265420913"}, 
{"id": 53229,"ncpdp": "4702709","pharmacy_name": "RITE AID PHARMACY #02481","address1": "107  EAST MAIN STREET","address2": "","city": "WILMINGTON","state": "VT","zip": "05363","zip+4": "0000","phone": "8024647575","NPI": "     1033228333"}, 
{"id": 53230,"ncpdp": "4702848","pharmacy_name": "FAIRFAX PHARMACY","address1": "997 MAIN STREET","address2": "","city": "FAIRFAX","state": "VT","zip": "05454","zip+4": "0339","phone": "8028492101","NPI": "     1851302343"}, 
{"id": 53231,"ncpdp": "4702862","pharmacy_name": "FLETCHER ALLEN OP PHARMACY","address1": "792 COLLEGE PKWY","address2": "","city": "COLCHESTER","state": "VT","zip": "05446","zip+4": "0000","phone": "8028477461","NPI": "     1407867054"}, 
{"id": 53232,"ncpdp": "4702949","pharmacy_name": "RITE AID PHARMACY #10336","address1": "82 ROUTE 15 WEST","address2": "","city": "HARDWICK","state": "VT","zip": "05843","zip+4": "9454","phone": "8024726961","NPI": "     1578579785"}, 
{"id": 53233,"ncpdp": "4702951","pharmacy_name": "PRICE CHOPPER PHARMACY #165","address1": "595 SHELBURNE RD","address2": "","city": "BURLINGTON","state": "VT","zip": "05401","zip+4": "0000","phone": "8028631768","NPI": "     1083727002"}, 
{"id": 53234,"ncpdp": "4703004","pharmacy_name": "NORTHFIELD PHARMACY","address1": "14 DEPOT SQ","address2": "","city": "NORTHFIELD","state": "VT","zip": "05663","zip+4": "0000","phone": "8024854771","NPI": "     1396829420"}, 
{"id": 53235,"ncpdp": "4703054","pharmacy_name": "RITE AID PHARMACY #10332","address1": "7 WEST STREET","address2": "","city": "RUTLAND","state": "VT","zip": "05701","zip+4": "3258","phone": "8027750132","NPI": "     1659387868"}, 
{"id": 53236,"ncpdp": "4703078","pharmacy_name": "RITE AID PHARMACY #03201","address1": "62 WASHINGTON STREET","address2": "","city": "FAIR HAVEN","state": "VT","zip": "05743","zip+4": "1067","phone": "8022653760","NPI": "     1942319249"}, 
{"id": 53237,"ncpdp": "4703117","pharmacy_name": "COSTCO PHARMACY #314","address1": "218 LOWER MOUNTAIN VIEW DRIVE","address2": "","city": "COLCHESTER","state": "VT","zip": "05446","zip+4": "0000","phone": "8026553156","NPI": "     1437269065"}, 
{"id": 53238,"ncpdp": "4703143","pharmacy_name": "KINNEY DRUGS INC #38","address1": "40 COURT STREET","address2": "","city": "MIDDLEBURY","state": "VT","zip": "05753","zip+4": "0000","phone": "8023880973","NPI": "     1780791962"}, 
{"id": 53239,"ncpdp": "4703206","pharmacy_name": "PRICE CHOPPER PHARMACY #131","address1": "38 RUTLAND SHOPPING PLZ","address2": "","city": "RUTLAND","state": "VT","zip": "05701","zip+4": "0000","phone": "8027477887","NPI": "     1497768741"}, 
{"id": 53240,"ncpdp": "4703232","pharmacy_name": "RITE AID PHARMACY #10333","address1": "1 CARVER STREET","address2": "","city": "BRANDON","state": "VT","zip": "05733","zip+4": "1144","phone": "8022478050","NPI": "     1568478774"}, 
{"id": 53241,"ncpdp": "4703256","pharmacy_name": "RITE AID PHARMACY #04159","address1": "4408 US ROUTE 5","address2": "","city": "DERBY","state": "VT","zip": "05829","zip+4": "0618","phone": "8023342313","NPI": "     1851400154"}, 
{"id": 53242,"ncpdp": "4703268","pharmacy_name": "FLETCHER ALLEN OP PHARMACY","address1": "1 S PROSPECT ST","address2": "","city": "BURLINGTON","state": "VT","zip": "05401","zip+4": "0000","phone": "8028473784","NPI": "     1619031044"}, 
{"id": 53243,"ncpdp": "4703321","pharmacy_name": "HANNAFORD FOOD AND DRUG #398","address1": "78 MARSHALL AVE","address2": "","city": "WILLISTON","state": "VT","zip": "05495","zip+4": "0000","phone": "8028780388","NPI": "     1295843670"}, 
{"id": 53244,"ncpdp": "4703345","pharmacy_name": "MESSENGER VALLEY PHARMACY","address1": "170 GRAFTON RD","address2": "","city": "TOWNSHEND","state": "VT","zip": "05353","zip+4": "0000","phone": "8023654117","NPI": "     1205930336"}, 
{"id": 53245,"ncpdp": "4703357","pharmacy_name": "WAL-MART PHARMACY #102224","address1": "863 HARVEST LANE","address2": "","city": "WILLISTON","state": "VT","zip": "05495","zip+4": "0000","phone": "8028785533","NPI": "     1518984715"}, 
{"id": 53246,"ncpdp": "4703369","pharmacy_name": "WAL-MART PHARMACY #102530","address1": "1 RUTLAND PLAZA","address2": "","city": "RUTLAND","state": "VT","zip": "05701","zip+4": "0000","phone": "8027731600","NPI": "     1427075621"}, 
{"id": 53247,"ncpdp": "4703371","pharmacy_name": "RITE AID PHARMACY #04272","address1": "1024 NORTH AVENUE","address2": "","city": "BURLINGTON","state": "VT","zip": "05401","zip+4": "2753","phone": "8028657822","NPI": "     1760591069"}, 
{"id": 53248,"ncpdp": "4703383","pharmacy_name": "RITE AID PHARMACY #04581","address1": "29 31 MAIN STREET","address2": "","city": "MONTPELIER","state": "VT","zip": "05602","zip+4": "2952","phone": "8022234787","NPI": "     1679682975"}, 
{"id": 53249,"ncpdp": "4703408","pharmacy_name": "HANNAFORD SUPERMARKET AND PHAR","address1": "318 SOUTH MAIN ST","address2": "","city": "RUTLAND","state": "VT","zip": "05701","zip+4": "0000","phone": "8027755858","NPI": "     1104934587"}, 
{"id": 53250,"ncpdp": "4703410","pharmacy_name": "OMNICARE OF VERMONT","address1": "113 ACORN LANE","address2": "STE B","city": "COLCHESTER","state": "VT","zip": "05446","zip+4": "0000","phone": "8028654507","NPI": "     1356376792"}, 
{"id": 53251,"ncpdp": "4703434","pharmacy_name": "RITE AID PHARMACY #10309","address1": "12 NORTH MAIN STREET","address2": "","city": "RANDOLPH","state": "VT","zip": "05060","zip+4": "1127","phone": "8027283722","NPI": "     1477569689"}, 
{"id": 53252,"ncpdp": "4703446","pharmacy_name": "RITE AID PHARMACY #10308","address1": "1823 VERMONT ROUTE 107","address2": "SUITE 2","city": "BETHEL","state": "VT","zip": "05032","zip+4": "9107","phone": "8022345289","NPI": "     1558372797"}, 
{"id": 53253,"ncpdp": "4703460","pharmacy_name": "RITE AID PHARMACY #04827","address1": "9 SUSIE WILSON ROAD","address2": "","city": "ESSEX JUNCTION","state": "VT","zip": "05452","zip+4": "2814","phone": "8028721800","NPI": "     1588773881"}, 
{"id": 53254,"ncpdp": "4703472","pharmacy_name": "HANNAFORD FOOD AND DRUG #355","address1": "277 SWANTON RD","address2": "","city": "ST ALBANS","state": "VT","zip": "05478","zip+4": "0000","phone": "8025242217","NPI": "     1013025493"}, 
{"id": 53255,"ncpdp": "4703484","pharmacy_name": "PRICE CHOPPER PHARMACY #127","address1": "170 SWANTON RD","address2": "","city": "SAINT ALBANS","state": "VT","zip": "05478","zip+4": "0000","phone": "8025242918","NPI": "     1497862312"}, 
{"id": 53256,"ncpdp": "4703496","pharmacy_name": "RITE AID PHARMACY #10323","address1": "75 PEARL STREET","address2": "","city": "ESSEX JUNCTION","state": "VT","zip": "05452","zip+4": "3625","phone": "8028781668","NPI": "     1386650596"}, 
{"id": 53257,"ncpdp": "4703509","pharmacy_name": "RITE AID PHARMACY #10319","address1": "321 MAIN STREET","address2": "","city": "WINOOSKI","state": "VT","zip": "05404","zip+4": "1335","phone": "8026555473","NPI": "     1194731307"}, 
{"id": 53258,"ncpdp": "4703547","pharmacy_name": "WAL-MART PHARMACY #102682","address1": "282 BERLIN MALL ROAD UNIT 1","address2": "","city": "BERLIN","state": "VT","zip": "05602","zip+4": "0000","phone": "8022298049","NPI": "     1336166537"}, 
{"id": 53259,"ncpdp": "4703559","pharmacy_name": "GRANITE PHARMACY INC","address1": "576 BALLARD PHARMACY STE2","address2": "","city": "MILTON","state": "VT","zip": "05468","zip+4": "0000","phone": "8025279930","NPI": "     1205878501"}, 
{"id": 53260,"ncpdp": "4703585","pharmacy_name": "WAL-MART PHARMACY #102289","address1": "210 NORTHSIDE DRIVE","address2": "","city": "BENNINGTON","state": "VT","zip": "05201","zip+4": "0000","phone": "8024426822","NPI": "     1245257443"}, 
{"id": 53261,"ncpdp": "4703597","pharmacy_name": "RITE AID PHARMACY #10316","address1": "1177 NORTH AVE #33 ETHAN ALLEN","address2": "","city": "BURLINGTON","state": "VT","zip": "05401","zip+4": "0000","phone": "8029512426","NPI": "     1629084306"}, 
{"id": 53262,"ncpdp": "4703600","pharmacy_name": "RITE AID PHARMACY #10321","address1": "1184 PRIM ROAD","address2": "SUITE 2","city": "COLCHESTER","state": "VT","zip": "05446","zip+4": "4449","phone": "8026573586","NPI": "     1003822214"}, 
{"id": 53263,"ncpdp": "4703612","pharmacy_name": "RITE AID PHARMACY #10322","address1": "221 MAIN STREET","address2": "","city": "ENOSBURG FALLS","state": "VT","zip": "05450","zip+4": "6109","phone": "8029337756","NPI": "     1912913120"}, 
{"id": 53264,"ncpdp": "4703636","pharmacy_name": "RITE AID PHARMACY #10324","address1": "201 US RT7 SOUTH","address2": "","city": "MILTON","state": "VT","zip": "05468","zip+4": "0031","phone": "8028937188","NPI": "     1821004037"}, 
{"id": 53265,"ncpdp": "4703648","pharmacy_name": "RITE AID PHARMACY #10326","address1": "30 SHELBURNE SHOPPING PARK","address2": "","city": "SHELBURNE","state": "VT","zip": "05482","zip+4": "7488","phone": "8029850143","NPI": "     1730195942"}, 
{"id": 53266,"ncpdp": "4703650","pharmacy_name": "RITE AID PHARMACY #10318","address1": "39 HINESBURG ROAD","address2": "","city": "SOUTH BURLINGTON","state": "VT","zip": "05403","zip+4": "6526","phone": "8026573806","NPI": "     1649286857"}, 
{"id": 53267,"ncpdp": "4703662","pharmacy_name": "RITE AID PHARMACY #10327","address1": "108 CORNERSTONE DRIVE","address2": "","city": "WILLISTON","state": "VT","zip": "05495","zip+4": "4034","phone": "8028780826","NPI": "     1558377762"}, 
{"id": 53268,"ncpdp": "4703674","pharmacy_name": "WILCOX LTC PHARMACY","address1": "248 STRATTON RD","address2": "","city": "RUTLAND","state": "VT","zip": "05701","zip+4": "0000","phone": "8027471994","NPI": "     1558477232"}, 
{"id": 53269,"ncpdp": "4703701","pharmacy_name": "KINNEY DRUGS INC #35","address1": "3 CENTRE DRIVE","address2": "","city": "MILTON","state": "VT","zip": "05468","zip+4": "0000","phone": "8028937459","NPI": "     1598872772"}, 
{"id": 53270,"ncpdp": "4703713","pharmacy_name": "KINNEY DRUGS INC #55","address1": "1653 WILLISTON RD","address2": "","city": "SOUTH BURLINGTON","state": "VT","zip": "05403","zip+4": "0000","phone": "8028060714","NPI": "     1316054596"}, 
{"id": 53271,"ncpdp": "4703725","pharmacy_name": "KINNEY DRUGS INC #56","address1": "901 LOWER PLAIN","address2": "","city": "BRADFORD","state": "VT","zip": "05033","zip+4": "0000","phone": "8022229292","NPI": "     1225145402"}, 
{"id": 53272,"ncpdp": "4703749","pharmacy_name": "KINNEY DRUGS INC #58","address1": "55 SHATTUCK HILL RD","address2": "","city": "NEWPORT","state": "VT","zip": "05855","zip+4": "0000","phone": "8023341600","NPI": "     1134236318"}, 
{"id": 53273,"ncpdp": "4703751","pharmacy_name": "RITE AID PHARMACY #10337","address1": "412 BROAD STREET","address2": "","city": "LYNDONVILLE","state": "VT","zip": "05851","zip+4": "8623","phone": "8026264365","NPI": "     1467468678"}, 
{"id": 53274,"ncpdp": "4703763","pharmacy_name": "OSCO PHARMACY #7515","address1": "66 MOUNTAIN VIEW DR","address2": "","city": "COLCHESTER","state": "VT","zip": "05446","zip+4": "0000","phone": "8026552536","NPI": "     1306892815"}, 
{"id": 53275,"ncpdp": "4703775","pharmacy_name": "PRICE CHOPPER PHARMACY #171","address1": "214 NORTHSIDE DR","address2": "MONUMENT PLAZA","city": "BENNINGTON","state": "VT","zip": "05201","zip+4": "0000","phone": "8024479951","NPI": "     1124131115"}, 
{"id": 53276,"ncpdp": "4703787","pharmacy_name": "OSCO PHARMACY #7516","address1": "PAINE TURNPIKE N","address2": "","city": "BERLIN CORNERS","state": "VT","zip": "05602","zip+4": "0000","phone": "8022238599","NPI": "     1598705782"}, 
{"id": 53277,"ncpdp": "4703799","pharmacy_name": "GERI CARE","address1": "17 MENDON VIEW DR","address2": "","city": "MENDON","state": "VT","zip": "05701","zip+4": "0000","phone": "8027733888","NPI": "     1780639633"}, 
{"id": 53278,"ncpdp": "4703814","pharmacy_name": "OSCO PHARMACY #7530","address1": "64 EQUINOX TERRACE","address2": "","city": "MANCHESTER CENTER","state": "VT","zip": "05255","zip+4": "0000","phone": "8023622433","NPI": "     1043266414"}, 
{"id": 53279,"ncpdp": "4703826","pharmacy_name": "RITE AID PHARMACY #10310","address1": "52 MAIN STREET","address2": "","city": "WINDSOR","state": "VT","zip": "05089","zip+4": "1308","phone": "8026742789","NPI": "     1376559583"}, 
{"id": 53280,"ncpdp": "4703838","pharmacy_name": "RITE AID PHARMACY #10312","address1": "213 MAIN STREET","address2": "LUDLOW SHOPPING PLAZA","city": "LUDLOW","state": "VT","zip": "05149","zip+4": "1009","phone": "8022288477","NPI": "     1285640490"}, 
{"id": 53281,"ncpdp": "4703840","pharmacy_name": "RITE AID PHARMACY #10313","address1": "2 CHESTER ROADSUITE 25","address2": "","city": "SPRINGFIELD","state": "VT","zip": "05156","zip+4": "2953","phone": "8028851065","NPI": "     1093721201"}, 
{"id": 53282,"ncpdp": "4703852","pharmacy_name": "SPRINGFIELD PHARMACY","address1": "262 RIVER ST","address2": "","city": "SPRINGFIELD","state": "VT","zip": "05156","zip+4": "0000","phone": "8028856400","NPI": "     1235168485"}, 
{"id": 53283,"ncpdp": "4703864","pharmacy_name": "PRICE CHOPPER PHARMACY #192","address1": "90 CENTER RD","address2": "","city": "ESSEX JUNCTION","state": "VT","zip": "05452","zip+4": "0000","phone": "8028794155","NPI": "     1518070986"}, 
{"id": 53284,"ncpdp": "4703876","pharmacy_name": "BARTON PHARMACY INC","address1": "16 CHURCH ST","address2": "","city": "BARTON","state": "VT","zip": "05822","zip+4": "0000","phone": "8025254098","NPI": "     1497753826"}, 
{"id": 53285,"ncpdp": "4703888","pharmacy_name": "WELLS RIVER PHARMACY","address1": "41 MAIN STREET NORTH","address2": "","city": "WELLS RIVER","state": "VT","zip": "05081","zip+4": "0000","phone": "8027572244","NPI": "     1114082153"}, 
{"id": 53286,"ncpdp": "4703903","pharmacy_name": "RITE AID PHARMACY #10329","address1": "355 NORTH MAIN STREET","address2": "","city": "BARRE","state": "VT","zip": "05641","zip+4": "4106","phone": "8024764311","NPI": "     1902812118"}, 
{"id": 53287,"ncpdp": "4703915","pharmacy_name": "ENOSBURG PHARMACY","address1": "366 MAIN ST","address2": "","city": "ENOSBURG FALLS","state": "VT","zip": "05450","zip+4": "0000","phone": "8029339200","NPI": "     1225139181"}, 
{"id": 53288,"ncpdp": "4703939","pharmacy_name": "HANNAFORD FOOD AND DRUG #162","address1": "ROUTE 100 80 FAIRGROUND PLAZA","address2": "","city": "MORRISVILLE","state": "VT","zip": "05661","zip+4": "0000","phone": "8028889894","NPI": "     1922116300"}, 
{"id": 53289,"ncpdp": "4703941","pharmacy_name": "OSCO PHARMACY #7518","address1": "71 BOXWOOD ST","address2": "","city": "WILLISTON","state": "VT","zip": "05495","zip+4": "0000","phone": "8028789056","NPI": "     1215983721"}, 
{"id": 53290,"ncpdp": "4703977","pharmacy_name": "HANNAFORD FOOD AND DRUG #161","address1": "1127 NORTH AVE SUITE 11","address2": "","city": "BURLINGTON","state": "VT","zip": "05408","zip+4": "2756","phone": "8028627752","NPI": "     1831207216"}, 
{"id": 53291,"ncpdp": "4704006","pharmacy_name": "KINNEY DRUGS INC #69","address1": "600 BLAIR PARK RD SUITE 195","address2": "","city": "WILLISTON","state": "VT","zip": "05495","zip+4": "0000","phone": "8028789116","NPI": "     1043327224"}, 
{"id": 53292,"ncpdp": "4704018","pharmacy_name": "MCGREGORS MEDICINE-ON-TIME PHA","address1": "321 MAIN ST","address2": "SUITE B","city": "WINOOSKI","state": "VT","zip": "05404","zip+4": "0000","phone": "8026553544","NPI": "     1073606364"}, 
{"id": 53293,"ncpdp": "4704020","pharmacy_name": "OSCO PHARMACY #7517","address1": "570 SHELBURNE RD","address2": "","city": "BURLINGTON","state": "VT","zip": "05401","zip+4": "0000","phone": "8028603311","NPI": "     1023065588"}, 
{"id": 53294,"ncpdp": "4704032","pharmacy_name": "WALGREEN DRUG STORE #7270","address1": "467 CANAL ST","address2": "","city": "BRATTLEBORO","state": "VT","zip": "05301","zip+4": "0000","phone": "8022545327","NPI": "     1386659324"}, 
{"id": 53295,"ncpdp": "4704056","pharmacy_name": "HANNAFORD FOOD AND DRUG #129","address1": "456 SOUTH BARRE ROAD","address2": "","city": "BARRE","state": "VT","zip": "05641","zip+4": "0000","phone": "8024790432","NPI": "     1740398122"}, 
{"id": 53296,"ncpdp": "4704068","pharmacy_name": "GREATER FALLS PHARMACY","address1": "78 ATKINSON ST","address2": "","city": "BELLOWS FALLS","state": "VT","zip": "05101","zip+4": "0000","phone": "8024602634","NPI": "     1336200401"}, 
{"id": 53297,"ncpdp": "4704070","pharmacy_name": "HANNAFORD FOOD AND DRUG #121","address1": "260 COURT STREET UNIT 6","address2": "","city": "MIDDLEBURY","state": "VT","zip": "05753","zip+4": "0000","phone": "8023886349","NPI": "     1659489037"}, 
{"id": 53298,"ncpdp": "4704094","pharmacy_name": "WALGREEN DRUG STORE #1756","address1": "10 WOODSTOCK AVE","address2": "","city": "RUTLAND","state": "VT","zip": "05701","zip+4": "0000","phone": "8027736915","NPI": "     1194730135"}, 
{"id": 53299,"ncpdp": "4704121","pharmacy_name": "GREEN MOUNTAIN PHARMACY","address1": "5700 RT 100","address2": "C 100","city": "LONDENDERRY","state": "VT","zip": "05148","zip+4": "0000","phone": "8028243344","NPI": "     1184646192"}, 
{"id": 53300,"ncpdp": "4704145","pharmacy_name": "OSCO PHARMACY #7649","address1": "820 WATERBURY STOWE RD","address2": "","city": "WATERBURY","state": "VT","zip": "05676","zip+4": "0000","phone": "8022414115","NPI": "     1952357329"}, 
{"id": 53301,"ncpdp": "4704171","pharmacy_name": "KINNEY DRUGS INC #86","address1": "155 S MAIN STREET","address2": "","city": "CAMBRIDGE","state": "VT","zip": "05444","zip+4": "0000","phone": "8026448811","NPI": "     1952418139"}, 
{"id": 53302,"ncpdp": "4704195","pharmacy_name": "LYNDONVILLE PHARMACY LLC","address1": "101 DEPOT ST","address2": "","city": "LYNDONVILLE","state": "VT","zip": "05851","zip+4": "0000","phone": "8026266966","NPI": "     1578630067"}, 
{"id": 53303,"ncpdp": "4704208","pharmacy_name": "MONTPELIER PHARMACY","address1": "69 MAIN ST","address2": "","city": "MONTEPELIER","state": "VT","zip": "05602","zip+4": "0000","phone": "8022234633","NPI": "     1184798944"}, 
{"id": 53304,"ncpdp": "4704210","pharmacy_name": "KINNEY DRUGS INC #94","address1": "ROUTE 5 MEMORIAL DRIVE","address2": "","city": "LYNDONVILLE","state": "VT","zip": "05851","zip+4": "1157","phone": "8026263779","NPI": "     1215135702"}, 
{"id": 53305,"ncpdp": "4704222","pharmacy_name": "KINNEY DRUGS INC #93","address1": "957 MEMORIAL DRIVE","address2": "","city": "ST JOHNSBURY","state": "VT","zip": "05819","zip+4": "9238","phone": "8027481452","NPI": "     1144428632"}, 
{"id": 53306,"ncpdp": "4704234","pharmacy_name": "EXTENDED CARE PHARMACY LLC","address1": "207 NORTH ST","address2": "","city": "BENNINGTON","state": "VT","zip": "05201","zip+4": "0000","phone": "8024424600","NPI": "     1780881342"}, 
{"id": 53307,"ncpdp": "4704246","pharmacy_name": "THE PHARMACY NORTHSHIRE LLC","address1": "34 WAYS LANE","address2": "","city": "MANCHESTER CENTER","state": "VT","zip": "05255","zip+4": "0000","phone": "8023620390","NPI": "     1912194846"}, 
{"id": 53308,"ncpdp": "4704260","pharmacy_name": "COLD HOLLOW FAMILY PRACTICE","address1": "84 WATER TOWER RD","address2": "STE 1","city": "ENOSBURG FALLS","state": "VT","zip": "05450","zip+4": "0000","phone": "8029336664","NPI": "     1902892870"}, 
{"id": 53309,"ncpdp": "4704272","pharmacy_name": "MANCHESTER PHARMACY","address1": "1009 DEPOT ST","address2": "","city": "MANCHESTER CENTER","state": "VT","zip": "05255","zip+4": "0000","phone": "8023661414","NPI": "     1114196979"}, 
{"id": 53310,"ncpdp": "4704309","pharmacy_name": "CASTLETON HEALTH CENTER PHARMA","address1": "275 ROUTE 30 NORTH","address2": "","city": "BOMOSEEN","state": "VT","zip": "05732","zip+4": "0000","phone": "8024685800","NPI": "     1538310289"}, 
{"id": 53311,"ncpdp": "4704323","pharmacy_name": "KINNEY DRUGS INC #98","address1": "ROUTE 30","address2": "","city": "BOMASEEN","state": "VT","zip": "05732","zip+4": "0000","phone": "8024685777","NPI": "     1215174834"}, 