{"id": 55957,"ncpdp": "5000017","pharmacy_name": "FRUTH PHARMACY 01 #1","address1": "2501 JACKSON AVE","address2": "","city": "POINT PLEASANT","state": "WV","zip": "25550","zip+4": "0000","phone": "3046752303","NPI": "     1700891645"}, 
{"id": 55958,"ncpdp": "5000031","pharmacy_name": "CVS PHARMACY #06277","address1": "1114 LAFAYETTE AVENUE","address2": "","city": "MOUNDSVILLE","state": "WV","zip": "26041","zip+4": "0000","phone": "3048450504","NPI": "     1235232984"}, 
{"id": 55959,"ncpdp": "5000055","pharmacy_name": "CVS PHARMACY #06306","address1": "1441 MAC CORKLE AVENUE","address2": "","city": "SAINT ALBANS","state": "WV","zip": "25177","zip+4": "0000","phone": "3047223335","NPI": "     1144323890"}, 
{"id": 55960,"ncpdp": "5000120","pharmacy_name": "RITE AID PHARMACY #11308","address1": "1360 COVE ROAD","address2": "","city": "WEIRTON","state": "WV","zip": "26062","zip+4": "0000","phone": "3047232110","NPI": "     1023117355"}, 
{"id": 55961,"ncpdp": "5000168","pharmacy_name": "CVS PHARMACY #01425","address1": "AUGUSTINE AVE HILL DALE SC","address2": "","city": "CHARLES TOWN","state": "WV","zip": "25414","zip+4": "0000","phone": "3047259313","NPI": "     1205937661"}, 
{"id": 55962,"ncpdp": "5000170","pharmacy_name": "CVS PHARMACY #01429","address1": "1200 EDWIN MILLER BLVD","address2": "","city": "MARTINSBURG","state": "WV","zip": "25404","zip+4": "0000","phone": "3042634951","NPI": "     1407950181"}, 
{"id": 55963,"ncpdp": "5000219","pharmacy_name": "CVS PHARMACY #06274","address1": "1605 7TH STREET","address2": "","city": "PARKERSBURG","state": "WV","zip": "26101","zip+4": "0000","phone": "3044855428","NPI": "     1053414706"}, 
{"id": 55964,"ncpdp": "5000257","pharmacy_name": "STUCK AND ALGER PHARMACY INC","address1": "114 W WASHINGTON ST","address2": "","city": "CHARLESTOWN","state": "WV","zip": "25414","zip+4": "0000","phone": "3047252621","NPI": "     1235116641"}, 
{"id": 55965,"ncpdp": "5000271","pharmacy_name": "RITE AID PHARMACY #00935","address1": "406 WEST WASHINGTON STREET","address2": "","city": "CHARLESTON","state": "WV","zip": "25302","zip+4": "2131","phone": "3043438807","NPI": "     1649389966"}, 
{"id": 55966,"ncpdp": "5000283","pharmacy_name": "RITE AID PHARMACY #00946","address1": "305 SIXTH AVENUE","address2": "","city": "ST ALBANS","state": "WV","zip": "25177","zip+4": "2838","phone": "3047224617","NPI": "     1558470872"}, 
{"id": 55967,"ncpdp": "5000308","pharmacy_name": "CVS PHARMACY #04244","address1": "121 10TH ST","address2": "","city": "DUNBAR","state": "WV","zip": "25064","zip+4": "0000","phone": "3047680023","NPI": "     1962505610"}, 
{"id": 55968,"ncpdp": "5000310","pharmacy_name": "CVS PHARMACY #06305","address1": "1414 N EISENHOWER DR","address2": "","city": "BECKLEY","state": "WV","zip": "25801","zip+4": "0000","phone": "3042550551","NPI": "     1871696526"}, 
{"id": 55969,"ncpdp": "5000346","pharmacy_name": "RITE AID PHARMACY #00699","address1": "120 JEFFERSON AVENUE","address2": "","city": "MOUNDSVILLE","state": "WV","zip": "26041","zip+4": "1411","phone": "3048454230","NPI": "     1467561787"}, 
{"id": 55970,"ncpdp": "5000372","pharmacy_name": "RITE AID PHARMACY #00733","address1": "111 KRUGER STREET","address2": "","city": "WHEELING","state": "WV","zip": "26003","zip+4": "5120","phone": "3042420273","NPI": "     1376652693"}, 
{"id": 55971,"ncpdp": "5000384","pharmacy_name": "RITE AID PHARMACY #00734","address1": "2102 WARWOOD AVENUE","address2": "","city": "WHEELING","state": "WV","zip": "26003","zip+4": "7106","phone": "3042773607","NPI": "     1336250497"}, 
{"id": 55972,"ncpdp": "5000435","pharmacy_name": "RITE AID PHARMACY #00915","address1": "505 ROSEBUD PLAZA","address2": "ROUTE 19 SOUTH","city": "CLARKSBURG","state": "WV","zip": "26301","zip+4": "9380","phone": "3046226330","NPI": "     1285743500"}, 
{"id": 55973,"ncpdp": "5000461","pharmacy_name": "RITE AID PHARMACY #00919","address1": "405 FAIRMONT ROAD","address2": "","city": "WESTOVER","state": "WV","zip": "26501","zip+4": "4227","phone": "3042962547","NPI": "     1093824310"}, 
{"id": 55974,"ncpdp": "5000497","pharmacy_name": "RITE AID PHARMACY #00933","address1": "28 MAIN AVENUE","address2": "","city": "LOGAN","state": "WV","zip": "25601","zip+4": "3331","phone": "3047522910","NPI": "     1902915226"}, 
{"id": 55975,"ncpdp": "5000500","pharmacy_name": "RITE AID PHARMACY #00934","address1": "3801 MACCORKLE AVENUE SOUTHEAS","address2": "","city": "CHARLESTON","state": "WV","zip": "25304","zip+4": "1527","phone": "3049252168","NPI": "     1811006133"}, 
{"id": 55976,"ncpdp": "5000524","pharmacy_name": "RITE AID PHARMACY #00937","address1": "1101 MYERS AVENUE","address2": "","city": "DUNBAR","state": "WV","zip": "25064","zip+4": "3118","phone": "3047681284","NPI": "     1720197049"}, 
{"id": 55977,"ncpdp": "5000598","pharmacy_name": "RITE AID PHARMACY #00944","address1": "1015 BRIDGE ROAD","address2": "","city": "CHARLESTON","state": "WV","zip": "25314","zip+4": "1305","phone": "3043442030","NPI": "     1639288954"}, 
{"id": 55978,"ncpdp": "5000601","pharmacy_name": "RITE AID PHARMACY #00945","address1": "100 21ST STREET","address2": "","city": "NITRO","state": "WV","zip": "25143","zip+4": "1740","phone": "3047553391","NPI": "     1548379860"}, 
{"id": 55979,"ncpdp": "5000613","pharmacy_name": "RITE AID PHARMACY #00947","address1": "333 MACCORKLE AVENUESW","address2": "","city": "SO CHARLESTON","state": "WV","zip": "25303","zip+4": "1263","phone": "3047448362","NPI": "     1366551681"}, 
{"id": 55980,"ncpdp": "5000625","pharmacy_name": "RITE AID PHARMACY #00948","address1": "1719 W WASHINGTON STREET","address2": "","city": "CHARLESTON","state": "WV","zip": "25312","zip+4": "2319","phone": "3043442565","NPI": "     1275642597"}, 
{"id": 55981,"ncpdp": "5000637","pharmacy_name": "RITE AID PHARMACY #00949","address1": "1201 MAIN STREET EAST","address2": "","city": "OAK HILL","state": "WV","zip": "25901","zip+4": "3132","phone": "3044655658","NPI": "     1184733404"}, 
{"id": 55982,"ncpdp": "5000649","pharmacy_name": "RITE AID PHARMACY #00950","address1": "1138 HAL GREER BOULEVARD","address2": "","city": "HUNTINGTON","state": "WV","zip": "25701","zip+4": "3700","phone": "3045230167","NPI": "     1992814214"}, 
{"id": 55983,"ncpdp": "5000687","pharmacy_name": "RITE AID PHARMACY #00957","address1": "4077 ROBERT C BYRD DRIVE","address2": "","city": "BECKLEY","state": "WV","zip": "25801","zip+4": "2203","phone": "3042527313","NPI": "     1801905120"}, 
{"id": 55984,"ncpdp": "5000702","pharmacy_name": "RITE AID PHARMACY #00959","address1": "635 MAIN STREET WEST","address2": "","city": "RIPLEY","state": "WV","zip": "25271","zip+4": "1107","phone": "3043727448","NPI": "     1538278858"}, 
{"id": 55985,"ncpdp": "5000726","pharmacy_name": "RITE AID PHARMACY #00961","address1": "2 RED OAK SHOPPING CENTER","address2": "","city": "RONCEVERTE","state": "WV","zip": "24970","zip+4": "1348","phone": "3046452096","NPI": "     1447369764"}, 
{"id": 55986,"ncpdp": "5000752","pharmacy_name": "RITE AID PHARMACY #00966","address1": "4016 STATE ROUTE 34","address2": "","city": "HURRICANE","state": "WV","zip": "25526","zip+4": "9009","phone": "3047577318","NPI": "     1174632491"}, 
{"id": 55987,"ncpdp": "5000790","pharmacy_name": "COLONY DRUG","address1": "2810 ROBERT C BYRD DR","address2": "3","city": "BECKLEY","state": "WV","zip": "25801","zip+4": "0000","phone": "3042525305","NPI": "     1629089123"}, 
{"id": 55988,"ncpdp": "5000865","pharmacy_name": "JUDYS DRUG STORE INC","address1": "24 N MAIN STREET","address2": "","city": "PETERSBURG","state": "WV","zip": "26847","zip+4": "0000","phone": "3042571044","NPI": "     1295739654"}, 
{"id": 55989,"ncpdp": "5000930","pharmacy_name": "ELM GROVE PHARMACY #0962","address1": "102 EAST BETHLEHEM BLVD","address2": "","city": "WHEELING","state": "WV","zip": "26003","zip+4": "0000","phone": "3042421500","NPI": "     1215009014"}, 
{"id": 55990,"ncpdp": "5000942","pharmacy_name": "RITE AID PHARMACY #00921","address1": "150 WEST MAIN STREET","address2": "","city": "ROMNEY","state": "WV","zip": "26757","zip+4": "1640","phone": "3048223313","NPI": "     1891804118"}, 
{"id": 55991,"ncpdp": "5000954","pharmacy_name": "RITE AID PHARMACY #00968","address1": "6401 US ROUTE 60","address2": "","city": "BARBOURSVILLE","state": "WV","zip": "25504","zip+4": "1200","phone": "3047362837","NPI": "     1255440574"}, 
{"id": 55992,"ncpdp": "5000980","pharmacy_name": "BLANDS DRUG STORE","address1": "217 W PIKE ST","address2": "","city": "CLARKSBURG","state": "WV","zip": "26301","zip+4": "2700","phone": "3046245491","NPI": "     1790780377"}, 
{"id": 55993,"ncpdp": "5000992","pharmacy_name": "BYARD MERCER PHARMACY","address1": "440 W MAIN ST","address2": "","city": "CLARKSBURG","state": "WV","zip": "26301","zip+4": "0000","phone": "3046245679","NPI": "     1891871844"}, 
{"id": 55994,"ncpdp": "5001019","pharmacy_name": "RIDER PHARMACY","address1": "303 MERCHANT ST","address2": "","city": "FAIRMONT","state": "WV","zip": "26554","zip+4": "5299","phone": "3043662710","NPI": "     1467459545"}, 
{"id": 55995,"ncpdp": "5001021","pharmacy_name": "THE PRESCRIPTION SHOP LLC","address1": "1212 JOHNSON AVE","address2": "","city": "BRIDGEPORT","state": "WV","zip": "26330","zip+4": "1748","phone": "3048423763","NPI": "     1710908777"}, 
{"id": 55996,"ncpdp": "5001083","pharmacy_name": "TOWN AND COUNTRY DRUG","address1": "100 COST AVE","address2": "","city": "STONEWOOD","state": "WV","zip": "26301","zip+4": "0000","phone": "3046245433","NPI": "     1518946276"}, 
{"id": 55997,"ncpdp": "5001095","pharmacy_name": "CVS PHARMACY #03017","address1": "1126 28 MARKET ST","address2": "","city": "WHEELING","state": "WV","zip": "26003","zip+4": "0000","phone": "3042334425","NPI": "     1780787432"}, 
{"id": 55998,"ncpdp": "5001108","pharmacy_name": "CVS PHARMACY #03439","address1": "505 RANDOLPH AVE","address2": "","city": "ELKINS","state": "WV","zip": "26241","zip+4": "0000","phone": "3046365696","NPI": "     1598868242"}, 
{"id": 55999,"ncpdp": "5001122","pharmacy_name": "CVS PHARMACY #04127","address1": "1327 PLZ EAST","address2": "","city": "CHARLESTON","state": "WV","zip": "25301","zip+4": "0000","phone": "3043439497","NPI": "     1407959158"}, 
{"id": 56000,"ncpdp": "5001134","pharmacy_name": "CVS PHARMACY #04132","address1": "617 BELLVIEW BLVD","address2": "","city": "FAIRMONT","state": "WV","zip": "26554","zip+4": "0000","phone": "3043638111","NPI": "     1316040066"}, 
{"id": 56001,"ncpdp": "5001158","pharmacy_name": "CVS PHARMACY #03475","address1": "1201 BEVERLY RD","address2": "","city": "FAIRMONT","state": "WV","zip": "26554","zip+4": "0000","phone": "3043666182","NPI": "     1285737643"}, 
{"id": 56002,"ncpdp": "5001160","pharmacy_name": "CVS PHARMACY #03480","address1": "5179 US ROUTE 60","address2": "","city": "HUNTINGTON","state": "WV","zip": "25705","zip+4": "0000","phone": "3047363496","NPI": "     1619070372"}, 
{"id": 56003,"ncpdp": "5001209","pharmacy_name": "CVS PHARMACY #04136","address1": "3521 MONONGAHELA BLVD","address2": "","city": "STAR CITY","state": "WV","zip": "26505","zip+4": "0000","phone": "3045993180","NPI": "     1528161288"}, 
{"id": 56004,"ncpdp": "5001235","pharmacy_name": "PATTERSONS DRUG STORE","address1": "134 S QUEEN ST","address2": "","city": "MARTINSBURG","state": "WV","zip": "25401","zip+4": "0000","phone": "3042678903","NPI": "     1053498584"}, 
{"id": 56005,"ncpdp": "5001259","pharmacy_name": "ALDERSON PHARMACY","address1": "105 RAILROAD AVE","address2": "","city": "ALDERSON","state": "WV","zip": "24910","zip+4": "0000","phone": "3044452956","NPI": "     1407069115"}, 
{"id": 56006,"ncpdp": "5001261","pharmacy_name": "ALUM CREEK PHARMACY","address1": "2162 CHILDRESS ROAD","address2": "","city": "ALUM CREEK","state": "WV","zip": "25003","zip+4": "0037","phone": "3047562181","NPI": "     1811090954"}, 
{"id": 56007,"ncpdp": "5001324","pharmacy_name": "EPPYS DRUG","address1": "2987 ROBERT C BYRD DRIVE","address2": "","city": "BECKLEY","state": "WV","zip": "25827","zip+4": "0000","phone": "3042526331","NPI": "     1063416790"}, 
{"id": 56008,"ncpdp": "5001374","pharmacy_name": "BELINGTON PRES CTR INC","address1": "206 BRIDGE ST","address2": "PO BOX 1050","city": "BELINGTON","state": "WV","zip": "26250","zip+4": "0000","phone": "3048231198","NPI": "     1952472383"}, 
{"id": 56009,"ncpdp": "5001437","pharmacy_name": "GOODYKOONTZ DRUG STORE INC","address1": "1526 BLAND STREET","address2": "","city": "BLUEFIELD","state": "WV","zip": "24701","zip+4": "0000","phone": "3043257121","NPI": "     1417054255"}, 
{"id": 56010,"ncpdp": "5001487","pharmacy_name": "MILLERS PHARMACY INC","address1": "8 E MAIN ST","address2": "","city": "BUCKHANNON","state": "WV","zip": "26201","zip+4": "2753","phone": "3044721484","NPI": "     1659349470"}, 
{"id": 56011,"ncpdp": "5001514","pharmacy_name": "THOMPSONS PHARMACY INC","address1": "4 E MAIN ST","address2": "","city": "BUCKHANNON","state": "WV","zip": "26201","zip+4": "0000","phone": "3044721120","NPI": "     1508826108"}, 
{"id": 56012,"ncpdp": "5001538","pharmacy_name": "CAMERON DRUG STORE","address1": "1 BRIDGE ST","address2": "","city": "CAMERON","state": "WV","zip": "26033","zip+4": "1130","phone": "3046862101","NPI": "     1679764674"}, 
{"id": 56013,"ncpdp": "5001588","pharmacy_name": "CHARLESTON MEDICAL CENTER PHAR","address1": "3100 MACCORKLE AVE SE","address2": "STE 100","city": "CHARLESTON","state": "WV","zip": "25304","zip+4": "1215","phone": "3043448021","NPI": "     1386723062"}, 
{"id": 56014,"ncpdp": "5001817","pharmacy_name": "TRIVILLIANS PHARMACY","address1": "215 35TH ST","address2": "","city": "CHARLESTON","state": "WV","zip": "25304","zip+4": "1318","phone": "3043438621","NPI": "     1548324676"}, 
{"id": 56015,"ncpdp": "5001843","pharmacy_name": "CITIZENS DRUG STORE OF CHESTER","address1": "501 CAROLINA AVE","address2": "","city": "CHESTER","state": "WV","zip": "26034","zip+4": "0000","phone": "3043872731","NPI": "     1225065303"}, 
{"id": 56016,"ncpdp": "5001881","pharmacy_name": "CLENDENIN PHARMACY INC","address1": "10 MAIN ST","address2": "","city": "CLENDENIN","state": "WV","zip": "25045","zip+4": "0000","phone": "3049655451","NPI": "     1609931732"}, 
{"id": 56017,"ncpdp": "5001968","pharmacy_name": "HEALTH CENTER PHARMACY","address1": "909 GORMAN AVE","address2": "","city": "ELKINS","state": "WV","zip": "26241","zip+4": "3149","phone": "3046366767","NPI": "     1659431898"}, 
{"id": 56018,"ncpdp": "5002073","pharmacy_name": "HOODS PHARMACY","address1": "866 MAIN ST","address2": "","city": "FOLLANSBEE","state": "WV","zip": "26037","zip+4": "0000","phone": "3045270150","NPI": "     1295755585"}, 
{"id": 56019,"ncpdp": "5002100","pharmacy_name": "CARL WALKERS DRUGSTORE","address1": "620 ELK ST","address2": "","city": "GASSAWAY","state": "WV","zip": "26624","zip+4": "1199","phone": "3043645193","NPI": "     1700874278"}, 
{"id": 56020,"ncpdp": "5002198","pharmacy_name": "J AND B DRUG STORE INC","address1": "352  MAIN STREET","address2": "","city": "GRANTSVILLE","state": "WV","zip": "26147","zip+4": "0000","phone": "3043547737","NPI": "     1902803141"}, 
{"id": 56021,"ncpdp": "5002237","pharmacy_name": "BIG FOUR DRUG STORE","address1": "3RD AND TEMPLE","address2": "PO BOX 688","city": "HINTON","state": "WV","zip": "25951","zip+4": "0688","phone": "3044662323","NPI": "     1659358513"}, 
{"id": 56022,"ncpdp": "5002504","pharmacy_name": "GRIFFITH AND FEIL DRUG INC","address1": "1405 CHESTNUT ST","address2": "","city": "KENOVA","state": "WV","zip": "25530","zip+4": "1235","phone": "3044534192","NPI": "     1619051448"}, 
{"id": 56023,"ncpdp": "5002631","pharmacy_name": "LUMBERPORT PHARMACY, INC.","address1": "308 MAIN STREET","address2": "","city": "LUMBERPORT","state": "WV","zip": "26386","zip+4": "0000","phone": "3045844210","NPI": "     1326034141"}, 
{"id": 56024,"ncpdp": "5002732","pharmacy_name": "MAIN PHARMACY","address1": "160 MAIN STREET","address2": "","city": "MASONTOWN","state": "WV","zip": "26542","zip+4": "0160","phone": "3048645711","NPI": "     1053474155"}, 
{"id": 56025,"ncpdp": "5002883","pharmacy_name": "SUNCREST PHARMACY","address1": "3121 UNIVERSITY AVE","address2": "","city": "MORGANTOWN","state": "WV","zip": "26505","zip+4": "3238","phone": "3045992159","NPI": "     1851456289"}, 
{"id": 56026,"ncpdp": "5003001","pharmacy_name": "WITSCHEYS PHARMACY","address1": "155 NORTH ST","address2": "","city": "NEW MARTINSVILLE","state": "WV","zip": "26155","zip+4": "0000","phone": "3044552171","NPI": "     1528153905"}, 
{"id": 56027,"ncpdp": "5003126","pharmacy_name": "BONDS DRUG STORE INC","address1": "1649 HARRIS HWY","address2": "","city": "WASHINGTON","state": "WV","zip": "26181","zip+4": "0000","phone": "3048633051","NPI": "     1841373933"}, 
{"id": 56028,"ncpdp": "5003366","pharmacy_name": "HICKMANS EAST PHARMACY","address1": "306 ROGERS ST","address2": "","city": "PRINCETON","state": "WV","zip": "24740","zip+4": "0000","phone": "3044251077","NPI": "     1093757619"}, 
{"id": 56029,"ncpdp": "5003378","pharmacy_name": "HICKMANS PRESCRIPTION DRUG","address1": "199 12TH STREET EXT","address2": "","city": "PRINCETON","state": "WV","zip": "24740","zip+4": "0000","phone": "3044252188","NPI": "     1194764167"}, 
{"id": 56030,"ncpdp": "5003544","pharmacy_name": "PHILLIPS PHARMACY","address1": "615 WELLS ST","address2": "","city": "SISTERSVILLE","state": "WV","zip": "26175","zip+4": "1323","phone": "3046526131","NPI": "     1972664043"}, 
{"id": 56031,"ncpdp": "5003657","pharmacy_name": "PHILLIPS PHARMACY","address1": "329 SECOND STREET","address2": "","city": "ST MARYS","state": "WV","zip": "26170","zip+4": "0000","phone": "3046843784","NPI": "     1225037260"}, 
{"id": 56032,"ncpdp": "5003734","pharmacy_name": "WAYNE PHARMACY","address1": "701 HENDRICKS ST","address2": "","city": "WAYNE","state": "WV","zip": "25570","zip+4": "0000","phone": "3042725122","NPI": "     1144308768"}, 
{"id": 56033,"ncpdp": "5003760","pharmacy_name": "ANILE PHARMACY INC","address1": "2413 PENNSYLVANIA AVE","address2": "","city": "WEIRTON","state": "WV","zip": "26062","zip+4": "3632","phone": "3047231818","NPI": "     1124030366"}, 
{"id": 56034,"ncpdp": "5003796","pharmacy_name": "PENN WAY PHARMACY","address1": "3159 MAIN ST","address2": "","city": "WEIRTON","state": "WV","zip": "26062","zip+4": "4711","phone": "3047480505","NPI": "     1851460703"}, 
{"id": 56035,"ncpdp": "5003835","pharmacy_name": "FLAT IRON DRUG STORE","address1": "69 MCDOWELL ST","address2": "","city": "WELCH","state": "WV","zip": "24801","zip+4": "0000","phone": "3044363380","NPI": "     1902993108"}, 
{"id": 56036,"ncpdp": "5003861","pharmacy_name": "TRAUBERTS PHARMACY INC","address1": "800 CHARLES ST","address2": "","city": "WELLSBURG","state": "WV","zip": "26070","zip+4": "1690","phone": "3047370383","NPI": "     1043379993"}, 
{"id": 56037,"ncpdp": "5003873","pharmacy_name": "MICHELS PHARMACY","address1": "103 E MAIN ST","address2": "","city": "WEST UNION","state": "WV","zip": "26456","zip+4": "1221","phone": "3048731010","NPI": "     1497797724"}, 
{"id": 56038,"ncpdp": "5004089","pharmacy_name": "HURLEY DRUG COMPANY INC","address1": "210 LOGAN STREET","address2": "","city": "WILLIAMSON","state": "WV","zip": "25661","zip+4": "0000","phone": "3042353535","NPI": "     1750441960"}, 
{"id": 56039,"ncpdp": "5004130","pharmacy_name": "KMART PHARMACY #4442","address1": "6531 MCCORKLE AVENUE SE","address2": "","city": "CHARLESTON","state": "WV","zip": "25304","zip+4": "0000","phone": "3049254721","NPI": "     1679504708"}, 
{"id": 56040,"ncpdp": "5004142","pharmacy_name": "KMART PHARMACY #3218","address1": "1050 DIVISION ST","address2": "","city": "PARKERSBURG","state": "WV","zip": "26101","zip+4": "0000","phone": "3044856444","NPI": "     1588695613"}, 
{"id": 56041,"ncpdp": "5004154","pharmacy_name": "KMART PHARMACY #3198","address1": "1477 MCCORKLE","address2": "","city": "ST ALBANS","state": "WV","zip": "25177","zip+4": "1826","phone": "3047224246","NPI": "     1205867330"}, 
{"id": 56042,"ncpdp": "5004281","pharmacy_name": "CVS PHARMACY #06276","address1": "1800 BROADWAY AVENUE","address2": "","city": "PARKERSBURG","state": "WV","zip": "26101","zip+4": "0000","phone": "3044854533","NPI": "     1124121645"}, 
{"id": 56043,"ncpdp": "5004332","pharmacy_name": "ARACOMA DRUG COMPANY","address1": "772 MAIN ST.","address2": "","city": "CHAPMANVILLE","state": "WV","zip": "25508","zip+4": "1570","phone": "3048554541","NPI": "     1780639286"}, 
{"id": 56044,"ncpdp": "5004368","pharmacy_name": "KMART PHARMACY #3220","address1": "800 GRAND CENTRAL AVE","address2": "","city": "VIENNA","state": "WV","zip": "26105","zip+4": "0000","phone": "3042954506","NPI": "     1114958246"}, 
{"id": 56045,"ncpdp": "5004572","pharmacy_name": "RITE AID PHARMACY #00906","address1": "71 WEST MAIN STREET","address2": "","city": "BUCKHANNON","state": "WV","zip": "26201","zip+4": "2665","phone": "3044720150","NPI": "     1528177854"}, 
{"id": 56046,"ncpdp": "5005548","pharmacy_name": "BECKLEY APPALACHIAN REG HOSP #","address1": "306 STANAFORD RD","address2": "","city": "BECKLEY","state": "WV","zip": "25801","zip+4": "3186","phone": "3042553270","NPI": "     1619019437"}, 
{"id": 56047,"ncpdp": "5005726","pharmacy_name": "HEALTH AID PHARMACY","address1": "307 5TH ST","address2": "","city": "NEW HAVEN","state": "WV","zip": "25265","zip+4": "0000","phone": "3048822005","NPI": "     1851472377"}, 
{"id": 56048,"ncpdp": "5005740","pharmacy_name": "RITE AID PHARMACY #00914","address1": "690 BEVERLY PIKE","address2": "","city": "ELKINS","state": "WV","zip": "26241","zip+4": "9475","phone": "3046367349","NPI": "     1518076843"}, 
{"id": 56049,"ncpdp": "5005752","pharmacy_name": "KMART PHARMACY #4188","address1": "1701 4TH AVE W","address2": "","city": "CHARLESTON","state": "WV","zip": "25312","zip+4": "0000","phone": "3043460820","NPI": "     1023049152"}, 
{"id": 56050,"ncpdp": "5005776","pharmacy_name": "RITE AID PHARMACY #00452","address1": "8 ELK PLAZA","address2": "","city": "ELKVIEW","state": "WV","zip": "25071","zip+4": "9602","phone": "3049651111","NPI": "     1508975830"}, 
{"id": 56051,"ncpdp": "5006045","pharmacy_name": "FRUTH PHARMACY 02 #2","address1": "125 SEVENTH AVE","address2": "","city": "HUNTINGTON","state": "WV","zip": "25201","zip+4": "0000","phone": "3046972151","NPI": "     1982786760"}, 
{"id": 56052,"ncpdp": "5006134","pharmacy_name": "RITE AID PHARMACY #00280","address1": "406 WASHINGTON STREET","address2": "","city": "RAVENSWOOD","state": "WV","zip": "26164","zip+4": "1706","phone": "3042734496","NPI": "     1326157652"}, 
{"id": 56053,"ncpdp": "5006146","pharmacy_name": "MEDICINE SHOPPE PHARMACY #0290","address1": "2402 ADAMS AVE","address2": "","city": "HUNTINGTON","state": "WV","zip": "25704","zip+4": "0000","phone": "3044296716","NPI": "     1447236583"}, 
{"id": 56054,"ncpdp": "5006158","pharmacy_name": "CVS PHARMACY #04021","address1": "401 MARION SQUARE","address2": "","city": "FAIRMONT","state": "WV","zip": "26554","zip+4": "0000","phone": "3043671300","NPI": "     1366545725"}, 
{"id": 56055,"ncpdp": "5006160","pharmacy_name": "RITE AID PHARMACY #00284","address1": "8 CHERRY RIVER PLAZA","address2": "","city": "RICHWOOD","state": "WV","zip": "26261","zip+4": "1371","phone": "3048462406","NPI": "     1225147556"}, 
{"id": 56056,"ncpdp": "5006184","pharmacy_name": "CVS PHARMACY #04166","address1": "743 N MAIN ST","address2": "","city": "MOOREFIELD","state": "WV","zip": "26836","zip+4": "0000","phone": "3045382356","NPI": "     1346343001"}, 
{"id": 56057,"ncpdp": "5006196","pharmacy_name": "PILL BOX PHARMACY","address1": "203 N MAIN STREET","address2": "","city": "FRANKLIN","state": "WV","zip": "26807","zip+4": "0000","phone": "3043582887","NPI": "     1477646693"}, 
{"id": 56058,"ncpdp": "5006223","pharmacy_name": "RITE AID PHARMACY #00294","address1": "6401 SISSONVILLE DRIVE","address2": "","city": "SISSONVILLE","state": "WV","zip": "25312","zip+4": "9463","phone": "3049849597","NPI": "     1780795849"}, 
{"id": 56059,"ncpdp": "5006259","pharmacy_name": "RIVESVILLE PHARMACY","address1": "426 MAIN ST","address2": "","city": "RIVESVILLE","state": "WV","zip": "26588","zip+4": "9802","phone": "3042785402","NPI": "     1184653909"}, 
{"id": 56060,"ncpdp": "5006285","pharmacy_name": "CVS PHARMACY #06307","address1": "1129 STATE STREET","address2": "","city": "GASSAWAY","state": "WV","zip": "26624","zip+4": "0000","phone": "3043645161","NPI": "     1255434916"}, 
{"id": 56061,"ncpdp": "5006312","pharmacy_name": "MATEWAN ARH CLINIC PHARMACY #Q","address1": "7 MATEWAN ST","address2": "","city": "MATEWAN","state": "WV","zip": "25678","zip+4": "0428","phone": "3044266493","NPI": "     1982680211"}, 
{"id": 56062,"ncpdp": "5006336","pharmacy_name": "RITE AID PHARMACY #00112","address1": "ROUTE 10","address2": "","city": "MAN","state": "WV","zip": "25635","zip+4": "0576","phone": "3045832404","NPI": "     1447351986"}, 
{"id": 56063,"ncpdp": "5006374","pharmacy_name": "IAEGER PHARMACY","address1": "ROUTE 52","address2": "","city": "IAEGER","state": "WV","zip": "24844","zip+4": "0000","phone": "3049382819","NPI": "     1316018195"}, 
{"id": 56064,"ncpdp": "5006386","pharmacy_name": "CVS PHARMACY #04159","address1": "188 FLOWING SPRINGS RD","address2": "","city": "CHARLESTOWN","state": "WV","zip": "25414","zip+4": "0000","phone": "3047259707","NPI": "     1164525820"}, 
{"id": 56065,"ncpdp": "5006398","pharmacy_name": "RITE AID PHARMACY #00286","address1": "513 STOKES DRIVE","address2": "","city": "HINTON","state": "WV","zip": "25951","zip+4": "2553","phone": "3044665069","NPI": "     1770692006"}, 
{"id": 56066,"ncpdp": "5006401","pharmacy_name": "ADKINS PHARMACY","address1": "37 US RTE 80","address2": "","city": "GILBERT","state": "WV","zip": "25621","zip+4": "0000","phone": "3046648883","NPI": "     1801956701"}, 
{"id": 56067,"ncpdp": "5006425","pharmacy_name": "RITE AID PHARMACY #00113","address1": "ROUTE 10","address2": "PO BOX 570","city": "PINEVILLE","state": "WV","zip": "24874","zip+4": "0570","phone": "3047328886","NPI": "     1356442891"}, 
{"id": 56068,"ncpdp": "5006449","pharmacy_name": "RITE AID PHARMACY #00121","address1": "200 KANAWHA AVENUE","address2": "","city": "RAINELLE","state": "WV","zip": "25962","zip+4": "1108","phone": "3044389204","NPI": "     1497864722"}, 
{"id": 56069,"ncpdp": "5006475","pharmacy_name": "CVS PHARMACY #04167","address1": "700 NORTHSIDE DR","address2": "","city": "SUMMERSVILLE","state": "WV","zip": "26651","zip+4": "0000","phone": "3048724980","NPI": "     1073616736"}, 
{"id": 56070,"ncpdp": "5006487","pharmacy_name": "RITE AID PHARMACY #00141","address1": "101A ROOSEVELT BOULEVARD","address2": "","city": "ELEANOR","state": "WV","zip": "25070","zip+4": "0298","phone": "3045869064","NPI": "     1124137450"}, 
{"id": 56071,"ncpdp": "5006499","pharmacy_name": "KMART PHARMACY #3425","address1": "5636 US ROUTE 60 E","address2": "","city": "HUNTINGTON","state": "WV","zip": "25705","zip+4": "0000","phone": "3047362098","NPI": "     1932130069"}, 
{"id": 56072,"ncpdp": "5006502","pharmacy_name": "KATHY COLLINS MCNEILL","address1": "RT 7 REEDSVILLE MEDICAL ARTS","address2": "","city": "REEDSVILLE","state": "WV","zip": "26547","zip+4": "0000","phone": "3048646935","NPI": "     1922196732"}, 
{"id": 56073,"ncpdp": "5006540","pharmacy_name": "RITE AID PHARMACY #00173","address1": "902 NORTH LEWIS STREET","address2": "","city": "GLENVILLE","state": "WV","zip": "26351","zip+4": "1323","phone": "3044624438","NPI": "     1942319272"}, 
{"id": 56074,"ncpdp": "5006627","pharmacy_name": "RITE AID PHARMACY #01002","address1": "3175 WEST DUPONT AVENUE","address2": "","city": "BELLE","state": "WV","zip": "25015","zip+4": "1120","phone": "3049266889","NPI": "     1760591093"}, 
{"id": 56075,"ncpdp": "5006639","pharmacy_name": "RITE AID PHARMACY #01013","address1": "2700 EAST DUPONT AVE SUITE 9","address2": "","city": "BELLE","state": "WV","zip": "25015","zip+4": "1842","phone": "3049496237","NPI": "     1730290800"}, 
{"id": 56076,"ncpdp": "5006778","pharmacy_name": "MOUNDSVILLE PHARMACY","address1": "115 N LAFAYETTE AVENUE","address2": "","city": "MOUNDSVILLE","state": "WV","zip": "26041","zip+4": "0000","phone": "3048450390","NPI": "     1790867570"}, 
{"id": 56077,"ncpdp": "5006792","pharmacy_name": "CVS PHARMACY #06309","address1": "LESTER SQUARE SC","address2": "PO BOX 917","city": "SOPHIA","state": "WV","zip": "25921","zip+4": "0000","phone": "3042552761","NPI": "     1497814552"}, 
{"id": 56078,"ncpdp": "5006817","pharmacy_name": "LARRYS DRIVE IN PHARMACY","address1": "313 MADISON AVE","address2": "","city": "MADISON","state": "WV","zip": "25130","zip+4": "1510","phone": "3043690209","NPI": "     1740332782"}, 
{"id": 56079,"ncpdp": "5006829","pharmacy_name": "VILLAGE PHARMACY INC","address1": "102 RAILROAD ST","address2": "","city": "LOST CREEK","state": "WV","zip": "26385","zip+4": "0000","phone": "3047453301","NPI": "     1922197490"}, 
{"id": 56080,"ncpdp": "5006881","pharmacy_name": "CVS PHARMACY #06311","address1": "ROUTE 60 EAST","address2": "BOX 847","city": "GAULEY BRIDGE","state": "WV","zip": "25085","zip+4": "0000","phone": "3046322217","NPI": "     1982707642"}, 
{"id": 56081,"ncpdp": "5006944","pharmacy_name": "MEDICAL CENTER PHARMACY","address1": "1 MEDICAL CENTER DRIVE","address2": "","city": "MORGANTOWN","state": "WV","zip": "26506","zip+4": "6401","phone": "3045984848","NPI": "     1639163538"}, 
{"id": 56082,"ncpdp": "5006956","pharmacy_name": "CVS PHARMACY #06310","address1": "1846 COAL HERITAGE ROAD","address2": "","city": "BLUEFIELD","state": "WV","zip": "24701","zip+4": "0000","phone": "3045893315","NPI": "     1790888451"}, 
{"id": 56083,"ncpdp": "5006968","pharmacy_name": "NEW CUMBERLAND RX CENTER","address1": "900 RIDGE AVE","address2": "","city": "NEW CUMBERLAND","state": "WV","zip": "26047","zip+4": "0518","phone": "3045643272","NPI": "     1083784979"}, 
{"id": 56084,"ncpdp": "5006970","pharmacy_name": "RED DOT PHARMACY INC","address1": "131 MARKET ST","address2": "","city": "MANNINGTON","state": "WV","zip": "26582","zip+4": "1130","phone": "3049863486","NPI": "     1225014574"}, 
{"id": 56085,"ncpdp": "5006994","pharmacy_name": "WEIS PHARMACY #108","address1": "1102 N QUEEN ST","address2": "","city": "MARTINSBURG","state": "WV","zip": "25401","zip+4": "0000","phone": "3042609185","NPI": "     1629001961"}, 
{"id": 56086,"ncpdp": "5007059","pharmacy_name": "MEDICINE STOP","address1": "2798 POND FORK RD","address2": "","city": "UNEEDA","state": "WV","zip": "25205","zip+4": "0639","phone": "3043694330","NPI": "     1942385430"}, 
{"id": 56087,"ncpdp": "5007061","pharmacy_name": "FRUTH PHARMACY 05 #5","address1": "16 PERRY MORRIS SQ","address2": "","city": "MILTON","state": "WV","zip": "25541","zip+4": "0000","phone": "3047434880","NPI": "     1619982550"}, 
{"id": 56088,"ncpdp": "5007085","pharmacy_name": "JEFFERSON PHARMACY INC","address1": "201 S PRESTON ST","address2": "","city": "RANSON","state": "WV","zip": "25438","zip+4": "1530","phone": "3047256533","NPI": "     1437159464"}, 
{"id": 56089,"ncpdp": "5007136","pharmacy_name": "RITE AID PHARMACY #01277","address1": "173 MAIN STREET","address2": "","city": "CLAY","state": "WV","zip": "25043","zip+4": "0789","phone": "3045872224","NPI": "     1205945532"}, 
{"id": 56090,"ncpdp": "5007148","pharmacy_name": "RITE AID PHARMACY #01289","address1": "406 SMOOT AVENUE","address2": "","city": "DANVILLE","state": "WV","zip": "25053","zip+4": "0286","phone": "3043690152","NPI": "     1023127354"}, 
{"id": 56091,"ncpdp": "5007174","pharmacy_name": "RITE AID PHARMACY #01305","address1": "218 EAST THIRD STREET","address2": "","city": "WESTON","state": "WV","zip": "26452","zip+4": "2021","phone": "3042697963","NPI": "     1750490082"}, 
{"id": 56092,"ncpdp": "5007225","pharmacy_name": "CVS PHARMACY #06278","address1": "842 NATIONAL ROAD","address2": "","city": "WHEELING","state": "WV","zip": "26003","zip+4": "0000","phone": "3042323410","NPI": "     1609979368"}, 
{"id": 56093,"ncpdp": "5007251","pharmacy_name": "KINGWOOD PHARMACY LLC","address1": "220 W MAIN ST","address2": "","city": "KINGWOOD","state": "WV","zip": "26537","zip+4": "0000","phone": "3043293600","NPI": "     1750379632"}, 
{"id": 56094,"ncpdp": "5007275","pharmacy_name": "CVS PHARMACY #06312","address1": "2970 ROBERT C BYRD DRIVE","address2": "","city": "BECKLEY","state": "WV","zip": "25801","zip+4": "0000","phone": "3042532738","NPI": "     1275636631"}, 
{"id": 56095,"ncpdp": "5007299","pharmacy_name": "KROGER PHARMACY #29763","address1": "5450 BIG TYLER ROAD","address2": "","city": "CROSS LANES","state": "WV","zip": "25313","zip+4": "0000","phone": "3047765178","NPI": "     1043244825"}, 
{"id": 56096,"ncpdp": "5007314","pharmacy_name": "RITE AID PHARMACY #00953","address1": "ROUTE 3","address2": "BOX 67","city": "WHITESVILLE","state": "WV","zip": "25209","zip+4": "0067","phone": "3048542373","NPI": "     1265533707"}, 
{"id": 56097,"ncpdp": "5007326","pharmacy_name": "KROGER PHARMACY #29753","address1": "930 DIVISION STREET","address2": "","city": "PARKERSBURG","state": "WV","zip": "26101","zip+4": "0000","phone": "3044288534","NPI": "     1952335739"}, 
{"id": 56098,"ncpdp": "5007352","pharmacy_name": "RITE AID PHARMACY #01343","address1": "COOK PARKWAY","address2": "","city": "OCEANA","state": "WV","zip": "24870","zip+4": "0460","phone": "3046828586","NPI": "     1174624613"}, 
{"id": 56099,"ncpdp": "5007364","pharmacy_name": "CVS PHARMACY #06313","address1": "ROUTE 19 21 RITTER DRIVE","address2": "","city": "BEAVER","state": "WV","zip": "25813","zip+4": "0000","phone": "3042556630","NPI": "     1518060276"}, 
{"id": 56100,"ncpdp": "5007376","pharmacy_name": "RITE AID PHARMACY #01359","address1": "781 VIRGINIA AVENUE","address2": "","city": "WELCH","state": "WV","zip": "24801","zip+4": "2341","phone": "3044366360","NPI": "     1386753614"}, 
{"id": 56101,"ncpdp": "5007390","pharmacy_name": "RITE AID PHARMACY #01373","address1": "401 MORAN AVENUE","address2": "","city": "MULLENS","state": "WV","zip": "25882","zip+4": "1430","phone": "3042940343","NPI": "     1003925330"}, 
{"id": 56102,"ncpdp": "5007403","pharmacy_name": "RITE AID PHARMACY #01380","address1": "3400 DUDLEY AVENUE","address2": "","city": "PARKERSBURG","state": "WV","zip": "26104","zip+4": "1810","phone": "3044280946","NPI": "     1821107152"}, 
{"id": 56103,"ncpdp": "5007427","pharmacy_name": "RITE AID PHARMACY #01382","address1": "1380 NORTH PLEASANTS HIGHWAY","address2": "","city": "ST MARYS","state": "WV","zip": "26170","zip+4": "0740","phone": "3046842297","NPI": "     1730298068"}, 
{"id": 56104,"ncpdp": "5007491","pharmacy_name": "RITE AID PHARMACY #00917","address1": "208 S PIKE STREET","address2": "","city": "SHINNSTON","state": "WV","zip": "26431","zip+4": "1122","phone": "3045928003","NPI": "     1558470880"}, 
{"id": 56105,"ncpdp": "5007504","pharmacy_name": "CVS PHARMACY #06280","address1": "1601 EARL L CORE ROAD","address2": "","city": "MORGANTOWN","state": "WV","zip": "26505","zip+4": "0000","phone": "3042967721","NPI": "     1427151182"}, 
{"id": 56106,"ncpdp": "5007542","pharmacy_name": "CARDINAL PHARMACY","address1": "RT 14 NORTH","address2": "","city": "ELIZABETH","state": "WV","zip": "26143","zip+4": "0158","phone": "3042754687","NPI": "     1265468029"}, 
{"id": 56107,"ncpdp": "5007554","pharmacy_name": "RITE AID PHARMACY #01407","address1": "ROUTES 20 AND 55","address2": "","city": "CRAIGSVILLE","state": "WV","zip": "26205","zip+4": "0677","phone": "3047423072","NPI": "     1083715528"}, 
{"id": 56108,"ncpdp": "5007566","pharmacy_name": "RITE AID PHARMACY #01408","address1": "109 EAST MAIN STREET","address2": "","city": "MANNINGTON","state": "WV","zip": "26582","zip+4": "1126","phone": "3049862280","NPI": "     1467561795"}, 
{"id": 56109,"ncpdp": "5007578","pharmacy_name": "RITE AID PHARMACY #00972","address1": "MAIN STREET AND FLORENCE ALLEY","address2": "","city": "GRANTSVILLE","state": "WV","zip": "26147","zip+4": "0733","phone": "3043549232","NPI": "     1891896338"}, 
{"id": 56110,"ncpdp": "5007592","pharmacy_name": "KROGER PHARMACY #29714","address1": "350 PATTESON DRIVE","address2": "","city": "MORGANTOWN","state": "WV","zip": "26505","zip+4": "0000","phone": "3045998316","NPI": "     1861426645"}, 
{"id": 56111,"ncpdp": "5007617","pharmacy_name": "KROGER PHARMACY #29772","address1": "5717 MACCORKLE AVENUE SE","address2": "","city": "CHARLESTON","state": "WV","zip": "25304","zip+4": "0000","phone": "3049258400","NPI": "     1770517559"}, 
{"id": 56112,"ncpdp": "5007631","pharmacy_name": "RITE AID PHARMACY #01419","address1": "101 103 S MAIN STREET","address2": "","city": "PHILIPPI","state": "WV","zip": "26416","zip+4": "1316","phone": "3044574911","NPI": "     1376652602"}, 
{"id": 56113,"ncpdp": "5007667","pharmacy_name": "NICHOLAS PHARMACY INC","address1": "421 MAIN STREET","address2": "","city": "SUMMERSVILLE","state": "WV","zip": "26651","zip+4": "0000","phone": "3048722777","NPI": "     1962481697"}, 
{"id": 56114,"ncpdp": "5007693","pharmacy_name": "RITE AID PHARMACY #01462","address1": "ROUTE 16 MAIN STREET","address2": "","city": "WAR","state": "WV","zip": "24892","zip+4": "0697","phone": "3048752330","NPI": "     1285743518"}, 
{"id": 56115,"ncpdp": "5007732","pharmacy_name": "FRUTH PHARMACY 07 #7","address1": "106 21ST STREET","address2": "","city": "NITRO","state": "WV","zip": "25143","zip+4": "0000","phone": "3047550128","NPI": "     1528073467"}, 
{"id": 56116,"ncpdp": "5007768","pharmacy_name": "TEDS PLAZA PHARMACY","address1": "265 PENCO RD","address2": "","city": "WEIRTON","state": "WV","zip": "26062","zip+4": "5012","phone": "3047232656","NPI": "     1194839258"}, 
{"id": 56117,"ncpdp": "5007782","pharmacy_name": "RITE AID PHARMACY #01503","address1": "205 MARSHALL STREET","address2": "","city": "BENWOOD","state": "WV","zip": "26031","zip+4": "1024","phone": "3042326103","NPI": "     1093824328"}, 
{"id": 56118,"ncpdp": "5007794","pharmacy_name": "CVS PHARMACY #06281","address1": "4418 EMERSON AVENUE","address2": "","city": "PARKERSBURG","state": "WV","zip": "26104","zip+4": "1216","phone": "3044853245","NPI": "     1336242098"}, 
{"id": 56119,"ncpdp": "5007807","pharmacy_name": "LOOP PHARMACY AND HOME MEDICAL","address1": "72 6TH AVE","address2": "","city": "SAINT ALBANS","state": "WV","zip": "25177","zip+4": "0000","phone": "3047272233","NPI": "     1528085966"}, 
{"id": 56120,"ncpdp": "5007821","pharmacy_name": "RITE AID PHARMACY #01564","address1": "381 PATTESON  DRIVE","address2": "SUNCREST S C","city": "MORGANTOWN","state": "WV","zip": "26505","zip+4": "3202","phone": "3045982265","NPI": "     1114016870"}, 
{"id": 56121,"ncpdp": "5007833","pharmacy_name": "KROGER PHARMACY #29754","address1": "10635 MACCORKLE AVE SE","address2": "","city": "MARMET","state": "WV","zip": "25315","zip+4": "0000","phone": "3049493045","NPI": "     1689608465"}, 
{"id": 56122,"ncpdp": "5007845","pharmacy_name": "RITE AID PHARMACY #01562","address1": "1301 WASHINGTON STREET EAST","address2": "","city": "CHARLESTON","state": "WV","zip": "25301","zip+4": "1916","phone": "3043469382","NPI": "     1902915234"}, 
{"id": 56123,"ncpdp": "5007869","pharmacy_name": "KROGER PHARMACY #29316","address1": "1213 STAFFORD DR","address2": "","city": "PRINCETON","state": "WV","zip": "24740","zip+4": "0000","phone": "3044871155","NPI": "     1497789275"}, 
{"id": 56124,"ncpdp": "5007910","pharmacy_name": "KROGER PHARMACY #29773","address1": "198 EMILY DRIVE","address2": "","city": "CLARKSBURG","state": "WV","zip": "26301","zip+4": "0000","phone": "3046231482","NPI": "     1306870183"}, 
{"id": 56125,"ncpdp": "5007922","pharmacy_name": "RITE AID PHARMACY #01634","address1": "8315 COURT AVENUE","address2": "","city": "HAMLIN","state": "WV","zip": "25523","zip+4": "1332","phone": "3048245050","NPI": "     1811006141"}, 
{"id": 56126,"ncpdp": "5007934","pharmacy_name": "PATTERSONS DRUG STORE","address1": "115 HOVATTEE DR","address2": "","city": "INWOOD","state": "WV","zip": "25428","zip+4": "0339","phone": "3042292929","NPI": "     1174600696"}, 
{"id": 56127,"ncpdp": "5007958","pharmacy_name": "RITE AID PHARMACY #01655","address1": "1389 STATE ROUTE 10 NORTH","address2": "","city": "BRANCHLAND","state": "WV","zip": "25506","zip+4": "9719","phone": "3048247077","NPI": "     1548379878"}, 
{"id": 56128,"ncpdp": "5007972","pharmacy_name": "KMART PHARMACY #7341","address1": "102 EMILY DR","address2": "","city": "CLARKSBURG","state": "WV","zip": "26301","zip+4": "0000","phone": "3046234488","NPI": "     1841221975"}, 
{"id": 56129,"ncpdp": "5007996","pharmacy_name": "CVS PHARMACY #05955","address1": "RAINBOW PLZ RTE 250 SOUTH","address2": "","city": "MANNINGTON","state": "WV","zip": "26582","zip+4": "0000","phone": "3049862830","NPI": "     1245333905"}, 
{"id": 56130,"ncpdp": "5008001","pharmacy_name": "GREENBRIER MEDICAL ARTS PHARMA","address1": "200 MAPLEWOOD AVE","address2": "STE A","city": "RONCEVERTE","state": "WV","zip": "24970","zip+4": "0000","phone": "3046475121","NPI": "     1992708770"}, 
{"id": 56131,"ncpdp": "5008013","pharmacy_name": "CLAY FOODLAND PHARMACY","address1": "2200 MAIN ST","address2": "","city": "CLAY","state": "WV","zip": "25043","zip+4": "0609","phone": "3045877327","NPI": "     1154491967"}, 
{"id": 56132,"ncpdp": "5008025","pharmacy_name": "CVS PHARMACY #05946","address1": "635 FAYETTE SQUARE","address2": "","city": "OAK HILL","state": "WV","zip": "25901","zip+4": "0000","phone": "3044650511","NPI": "     1154424810"}, 
{"id": 56133,"ncpdp": "5008049","pharmacy_name": "RITE AID PHARMACY #01687","address1": "306 NORTH MAIN STREET","address2": "","city": "WEBSTER SPRINGS","state": "WV","zip": "26288","zip+4": "1046","phone": "3048472900","NPI": "     1366551699"}, 
{"id": 56134,"ncpdp": "5008051","pharmacy_name": "RITE AID PHARMACY #01688","address1": "2418 JACKSON AVENUE","address2": "","city": "POINT PLEASANT","state": "WV","zip": "25550","zip+4": "2008","phone": "3046751624","NPI": "     1275642506"}, 
{"id": 56135,"ncpdp": "5008063","pharmacy_name": "RITE AID PHARMACY #01694","address1": "1731 HARPER ROAD","address2": "","city": "BECKLEY","state": "WV","zip": "25801","zip+4": "3311","phone": "3042551251","NPI": "     1184735250"}, 
{"id": 56136,"ncpdp": "5008099","pharmacy_name": "CVS PHARMACY #01427","address1": "45 S MINERAL ST","address2": "","city": "KEYSER","state": "WV","zip": "26726","zip+4": "0000","phone": "3047889774","NPI": "     1316041098"}, 
{"id": 56137,"ncpdp": "5008140","pharmacy_name": "ACCESS HEALTH #1","address1": "252 RURAL ACRES DR","address2": "","city": "BECKLEY","state": "WV","zip": "25801","zip+4": "0000","phone": "3042556800","NPI": "     1386682540"}, 
{"id": 56138,"ncpdp": "5008164","pharmacy_name": "RITE AID PHARMACY #01802","address1": "300 WEST MAIN STREET","address2": "300 W MAIN STREET","city": "BRIDGEPORT","state": "WV","zip": "26330","zip+4": "1751","phone": "3048423131","NPI": "     1184733412"}, 
{"id": 56139,"ncpdp": "5008176","pharmacy_name": "KROGER PHARMACY #29782","address1": "19 7TH AVE WEST","address2": "","city": "HUNTINGTON","state": "WV","zip": "25701","zip+4": "0000","phone": "3045226677","NPI": "     1215961099"}, 
{"id": 56140,"ncpdp": "5008203","pharmacy_name": "SAVALOT PHCY OF FT ASHBY INC","address1": "10 WASHINGTON STREET","address2": "","city": "FT ASHBY","state": "WV","zip": "26719","zip+4": "0000","phone": "3042983639","NPI": "     1649337999"}, 
{"id": 56141,"ncpdp": "5008227","pharmacy_name": "RITE AID PHARMACY #01795","address1": "BUCHANAN AVENUE","address2": "PO BOX 751","city": "BRADSHAW","state": "WV","zip": "24817","zip+4": "0751","phone": "3049675001","NPI": "     1700987245"}, 
{"id": 56142,"ncpdp": "5008241","pharmacy_name": "GIL CO FAITH PHARMACY","address1": "356 WV HWY 5EAST","address2": "","city": "GLENVILLE","state": "WV","zip": "26351","zip+4": "0000","phone": "3044628300","NPI": "     1063516029"}, 
{"id": 56143,"ncpdp": "5008253","pharmacy_name": "KROGER PHARMACY #29784","address1": "201 TEAYS CENTER","address2": "","city": "SCOTT DEPOT","state": "WV","zip": "25560","zip+4": "0000","phone": "3047578952","NPI": "     1124052907"}, 
{"id": 56144,"ncpdp": "5008265","pharmacy_name": "RITE AID PHARMACY #01748","address1": "10404 MACCORKLE AVENUE","address2": "","city": "MARMET","state": "WV","zip": "25315","zip+4": "1916","phone": "3049492838","NPI": "     1992814222"}, 
{"id": 56145,"ncpdp": "5008277","pharmacy_name": "FAMILY DISCOUNT PHARMACY INC","address1": "OLD RT 119","address2": "","city": "MT GAY","state": "WV","zip": "25637","zip+4": "0000","phone": "3047521445","NPI": "     1184628117"}, 
{"id": 56146,"ncpdp": "5008291","pharmacy_name": "HEALTH CARE PHARMACY","address1": "MAIN STREET AND PERRY DRIVE","address2": "","city": "CHAPMANVILLE","state": "WV","zip": "25508","zip+4": "0200","phone": "3048557104","NPI": "     1508842899"}, 
{"id": 56147,"ncpdp": "5008354","pharmacy_name": "DUTTON PHARMACY","address1": "3201 GRAND CENTRAL AVE","address2": "","city": "VIENNA","state": "WV","zip": "26105","zip+4": "1539","phone": "3042959594","NPI": "     1881753218"}, 
{"id": 56148,"ncpdp": "5008366","pharmacy_name": "RITE AID PHARMACY #01849","address1": "292 MAIN STREET","address2": "","city": "GILBERT","state": "WV","zip": "25621","zip+4": "0338","phone": "3046649800","NPI": "     1801905138"}, 
{"id": 56149,"ncpdp": "5008380","pharmacy_name": "DRUG EMPORIUM #1","address1": "3 MALL ROAD","address2": "","city": "BARBOURSVILLE","state": "WV","zip": "25504","zip+4": "0000","phone": "3047362451","NPI": "     1144327982"}, 
{"id": 56150,"ncpdp": "5008392","pharmacy_name": "CVS PHARMACY #05947","address1": "250 COURT ST","address2": "","city": "WESTON","state": "WV","zip": "26452","zip+4": "0000","phone": "3042691125","NPI": "     1063515724"}, 
{"id": 56151,"ncpdp": "5008405","pharmacy_name": "CVS PHARMACY #01428","address1": "2 RANSON SQUARE","address2": "","city": "RANSON","state": "WV","zip": "25438","zip+4": "0000","phone": "3047287418","NPI": "     1225132905"}, 
{"id": 56152,"ncpdp": "5008417","pharmacy_name": "REEDS DRUG STORE LLC","address1": "43 NORTH MAIN STREET","address2": "","city": "KEYSER","state": "WV","zip": "26726","zip+4": "0000","phone": "3047881643","NPI": "     1043221690"}, 
{"id": 56153,"ncpdp": "5008431","pharmacy_name": "RITE AID PHARMACY #03606","address1": "609 WINCHESTER AVENUE","address2": "","city": "MARTINSBURG","state": "WV","zip": "25401","zip+4": "2101","phone": "3042672955","NPI": "     1982713228"}, 
{"id": 56154,"ncpdp": "5008443","pharmacy_name": "CARRIAGE DRIVE PHARMACY INC","address1": "350 CARRIAGE DR","address2": "","city": "BECKLEY","state": "WV","zip": "25801","zip+4": "2891","phone": "3042525349","NPI": "     1053418897"}, 
{"id": 56155,"ncpdp": "5008455","pharmacy_name": "JARRELLS PHARMACY INC","address1": "2122 RITTER DRIVE","address2": "","city": "DANIELS","state": "WV","zip": "25832","zip+4": "0000","phone": "3047632442","NPI": "     1922169705"}, 
{"id": 56156,"ncpdp": "5008467","pharmacy_name": "WESTERN GREENBRIER PHARMACY","address1": "404 NICHOLAS ST","address2": "","city": "RUPERT","state": "WV","zip": "25984","zip+4": "0596","phone": "3043926348","NPI": "     1083719314"}, 
{"id": 56157,"ncpdp": "5008481","pharmacy_name": "FRUTH PHARMACY #10","address1": "3109 TEAYSVALLEY RD","address2": "","city": "HURRICANE","state": "WV","zip": "25526","zip+4": "0000","phone": "3045622677","NPI": "     1437164373"}, 
{"id": 56158,"ncpdp": "5008493","pharmacy_name": "CVS PHARMACY #06350","address1": "US 60 AT 4TH STREET","address2": "","city": "CEREDO","state": "WV","zip": "25507","zip+4": "0000","phone": "3044533504","NPI": "     1972606630"}, 
{"id": 56159,"ncpdp": "5008518","pharmacy_name": "CVS PHARMACY #06314","address1": "1298 STAFFORD DRIVE","address2": "","city": "PRINCETON","state": "WV","zip": "24740","zip+4": "0000","phone": "3044872445","NPI": "     1881797546"}, 
{"id": 56160,"ncpdp": "5008532","pharmacy_name": "CVS PHARMACY #06333","address1": "127 SENECA TRAIL","address2": "","city": "LEWISBURG","state": "WV","zip": "24902","zip+4": "1564","phone": "3046457053","NPI": "     1699878355"}, 
{"id": 56161,"ncpdp": "5008556","pharmacy_name": "RITE AID PHARMACY #01914","address1": "401 BUCKHANNON PIKE","address2": "","city": "NUTTERFORT","state": "WV","zip": "26301","zip+4": "4307","phone": "3046221204","NPI": "     1083725162"}, 
{"id": 56162,"ncpdp": "5008570","pharmacy_name": "COUNTRY ROADS PHARMACY INC","address1": "7255 HARPER ROAD","address2": "","city": "GLEN DANIEL","state": "WV","zip": "25844","zip+4": "0000","phone": "3049345327","NPI": "     1093881898"}, 
{"id": 56163,"ncpdp": "5008582","pharmacy_name": "RITE AID PHARMACY #01949","address1": "1600 MAIN STREET","address2": "","city": "FOLLANSBEE","state": "WV","zip": "26037","zip+4": "1259","phone": "3045274082","NPI": "     1023107786"}, 
{"id": 56164,"ncpdp": "5008619","pharmacy_name": "RITE AID PHARMACY #01982","address1": "98 NORTH PIKE STREET","address2": "","city": "GRAFTON","state": "WV","zip": "26354","zip+4": "1538","phone": "3042650758","NPI": "     1790894038"}, 
{"id": 56165,"ncpdp": "5008621","pharmacy_name": "KROGER PHARMACY #29769","address1": "5 RIVERWALK DRIVE","address2": "","city": "S CHARLESTON","state": "WV","zip": "25303","zip+4": "0000","phone": "3047445128","NPI": "     1033143813"}, 
{"id": 56166,"ncpdp": "5008645","pharmacy_name": "FRUTH PHARMACY #11","address1": "425 CAMDEN RD","address2": "","city": "HUNTINGTON","state": "WV","zip": "25704","zip+4": "0000","phone": "3044295544","NPI": "     1346255288"}, 
{"id": 56167,"ncpdp": "5008657","pharmacy_name": "KROGER PHARMACY #29755","address1": "1851 EARL CORE ROAD","address2": "","city": "MORGANTOWN","state": "WV","zip": "26505","zip+4": "0000","phone": "3042960657","NPI": "     1982629689"}, 
{"id": 56168,"ncpdp": "5008695","pharmacy_name": "RITE AID PHARMACY #01992","address1": "ROUTE 119 HOLDEN ROAD","address2": "","city": "MOUNT GAY","state": "WV","zip": "25637","zip+4": "1251","phone": "3042392020","NPI": "     1609985944"}, 
{"id": 56169,"ncpdp": "5008734","pharmacy_name": "KROGER PHARMACY #29805","address1": "1734 HARPER ROAD","address2": "","city": "BECKLEY","state": "WV","zip": "25801","zip+4": "0000","phone": "3042535556","NPI": "     1942234729"}, 
{"id": 56170,"ncpdp": "5008758","pharmacy_name": "RITE AID PHARMACY #02255","address1": "520 NORTH STATE ROUTE 2","address2": "","city": "NEW MARTINSVILLE","state": "WV","zip": "26155","zip+4": "2714","phone": "3044551790","NPI": "     1518076850"}, 
{"id": 56171,"ncpdp": "5008784","pharmacy_name": "FRUTH PHARMACY #12","address1": "1419 US ROUTE 60 EAST","address2": "","city": "HUNTINGTON","state": "WV","zip": "25705","zip+4": "0000","phone": "3045250507","NPI": "     1255346193"}, 
{"id": 56172,"ncpdp": "5008796","pharmacy_name": "RITE AID PHARMACY #02265","address1": "134 MAIN STREET","address2": "","city": "PARSONS","state": "WV","zip": "26287","zip+4": "0148","phone": "3044784864","NPI": "     1427167766"}, 
{"id": 56173,"ncpdp": "5008809","pharmacy_name": "DRUG EMPORIUM #2","address1": "1603 KANAWHA BLVD WEST","address2": "","city": "CHARLESTON","state": "WV","zip": "25312","zip+4": "0000","phone": "3043453784","NPI": "     1265531149"}, 
{"id": 56174,"ncpdp": "5008823","pharmacy_name": "KROGER PHARMACY #29752","address1": "2007 EAST 7TH STREET","address2": "","city": "PARKERSBURG","state": "WV","zip": "26101","zip+4": "0000","phone": "3044284705","NPI": "     1790700490"}, 
{"id": 56175,"ncpdp": "5008835","pharmacy_name": "FAMILY DISCOUNT PHARMACY","address1": "153 STOLLINGS AVE","address2": "","city": "LOGAN","state": "WV","zip": "25601","zip+4": "0000","phone": "3047520082","NPI": "     1457355489"}, 
{"id": 56176,"ncpdp": "5008859","pharmacy_name": "KROGER PHARMACY #29785","address1": "1100 FLEDDERJOHN RD","address2": "","city": "CHARLESTON","state": "WV","zip": "25314","zip+4": "0000","phone": "3043428832","NPI": "     1851325633"}, 
{"id": 56177,"ncpdp": "5008861","pharmacy_name": "PADDEN PRESCRIPTION PHARMACY","address1": "1414 EOFF ST","address2": "","city": "WHEELING","state": "WV","zip": "26003","zip+4": "3584","phone": "3042331590","NPI": "     1659369213"}, 
{"id": 56178,"ncpdp": "5008873","pharmacy_name": "ALDERMANS PHARMACY","address1": "RT 92 NORTH","address2": "","city": "WHT SLPHUR SPRG","state": "WV","zip": "24986","zip+4": "0371","phone": "3045362454","NPI": "     1750444360"}, 
{"id": 56179,"ncpdp": "5008897","pharmacy_name": "WAL-MART PHARMACY #101351","address1": "1330 NO. ESNHOWER DR","address2": "","city": "BECKLEY","state": "WV","zip": "25801","zip+4": "0000","phone": "3042529523","NPI": "     1902823032"}, 
{"id": 56180,"ncpdp": "5008900","pharmacy_name": "FRUTH PHARMACY #13","address1": "3504 WINFIELD RD","address2": "","city": "WINFIELD","state": "WV","zip": "25213","zip+4": "0000","phone": "3045863088","NPI": "     1164437000"}, 
{"id": 56181,"ncpdp": "5008948","pharmacy_name": "STAATS PHACY AND HEALTH CARE I","address1": "100 E MAIN ST","address2": "","city": "SPENCER","state": "WV","zip": "25276","zip+4": "1503","phone": "3049272980","NPI": "     1679661474"}, 
{"id": 56182,"ncpdp": "5008962","pharmacy_name": "RITE AID PHARMACY #02444","address1": "3 AVALON ROAD","address2": "BATTLEGROUND CROSSING SHOPPING","city": "WHITE SULPHUR SPGS","state": "WV","zip": "24986","zip+4": "2373","phone": "3045362350","NPI": "     1336258672"}, 
{"id": 56183,"ncpdp": "5008974","pharmacy_name": "WAL-MART PHARMACY #101360","address1": "100 FAYETTE TOWN CENTER","address2": "","city": "FAYETTEVILLE","state": "WV","zip": "25840","zip+4": "0000","phone": "3045741279","NPI": "     1811914948"}, 
{"id": 56184,"ncpdp": "5008986","pharmacy_name": "KMART PHARMACY #3484","address1": "201 CROSSINGS MALL","address2": "","city": "ELKVIEW","state": "WV","zip": "25071","zip+4": "9230","phone": "3049657261","NPI": "     1982635025"}, 
{"id": 56185,"ncpdp": "5009003","pharmacy_name": "VAN PROFESSIONAL PHARMACY INC","address1": "19024 POND FORK RD","address2": "","city": "VAN","state": "WV","zip": "25206","zip+4": "0000","phone": "3042458255","NPI": "     1215938121"}, 
{"id": 56186,"ncpdp": "5009015","pharmacy_name": "RITE AID PHARMACY #02460","address1": "NORTH MAIN STREET","address2": "","city": "CHAPMANVILLE","state": "WV","zip": "25508","zip+4": "4547","phone": "3048551032","NPI": "     1619078151"}, 
{"id": 56187,"ncpdp": "5009065","pharmacy_name": "RITE AID PHARMACY #02431","address1": "303 CENTRAL AVENUE","address2": "","city": "WAYNE","state": "WV","zip": "25570","zip+4": "9605","phone": "3042726767","NPI": "     1245349588"}, 
{"id": 56188,"ncpdp": "5009077","pharmacy_name": "FRUTH PHARMACY #14","address1": "864 OAKWOOD RD","address2": "","city": "CHARLESTON","state": "WV","zip": "25314","zip+4": "0000","phone": "3043432807","NPI": "     1073528915"}, 
{"id": 56189,"ncpdp": "5009091","pharmacy_name": "MED A SAVE PHARMACY","address1": "433 S MINERAL ST","address2": "","city": "KEYSER","state": "WV","zip": "26726","zip+4": "2938","phone": "3047886010","NPI": "     1912977588"}, 
{"id": 56190,"ncpdp": "5009104","pharmacy_name": "RITE AID PHARMACY #02610","address1": "111 MAIN STREET","address2": "","city": "ANSTED","state": "WV","zip": "25812","zip+4": "0799","phone": "3046584426","NPI": "     1154430494"}, 
{"id": 56191,"ncpdp": "5009116","pharmacy_name": "PRUNTYS PHARMACY INC","address1": "220 MAIN ST","address2": "","city": "MIDDLEBOURNE","state": "WV","zip": "26149","zip+4": "0000","phone": "3047584300","NPI": "     1326147216"}, 
{"id": 56192,"ncpdp": "5009130","pharmacy_name": "KMART PHARMACY #4963","address1": "6540 MALL ROAD","address2": "","city": "MORGANTOWN","state": "WV","zip": "26505","zip+4": "0000","phone": "3049836082","NPI": "     1790716835"}, 
{"id": 56193,"ncpdp": "5009142","pharmacy_name": "RITE AID PHARMACY #02289","address1": "8 GAYLE DRIVE","address2": "","city": "BERKELEY SPRINGS","state": "WV","zip": "25411","zip+4": "6300","phone": "3042584955","NPI": "     1063521300"}, 
{"id": 56194,"ncpdp": "5009154","pharmacy_name": "WAL-MART PHARMACY #101450","address1": "200 ACADEMY DRIVE","address2": "","city": "RIPLEY","state": "WV","zip": "25271","zip+4": "0000","phone": "3043724487","NPI": "     1720005853"}, 
{"id": 56195,"ncpdp": "5009229","pharmacy_name": "DRUG EMPORIUM #3","address1": "5101 MACCORKLE AVENUE SE","address2": "","city": "CHARLESTON","state": "WV","zip": "25304","zip+4": "0000","phone": "3049258022","NPI": "     1962509703"}, 
{"id": 56196,"ncpdp": "5009255","pharmacy_name": "CRAB ORCHARD PHARMACY","address1": "1277 ROBERT C BYRD DRIVE","address2": "","city": "CRAB ORCHARD","state": "WV","zip": "25827","zip+4": "0000","phone": "3042537474","NPI": "     1619050754"}, 
{"id": 56197,"ncpdp": "5009267","pharmacy_name": "WAL-MART PHARMACY #101477","address1": "200 WAL STREET","address2": "","city": "SUMMERSVILLE","state": "WV","zip": "26651","zip+4": "0000","phone": "3048727039","NPI": "     1639196769"}, 
{"id": 56198,"ncpdp": "5009279","pharmacy_name": "WAL-MART PHARMACY #101522","address1": "721 BEVERLY PIKE","address2": "","city": "ELKINS","state": "WV","zip": "26241","zip+4": "0000","phone": "3046363728","NPI": "     1548287675"}, 
{"id": 56199,"ncpdp": "5009281","pharmacy_name": "RITE AID PHARMACY #02571","address1": "4402 PENNSYLVANIA AVENUE","address2": "","city": "BIG CHIMNEY","state": "WV","zip": "25302","zip+4": "4700","phone": "3049657301","NPI": "     1346351434"}, 
{"id": 56200,"ncpdp": "5009293","pharmacy_name": "KMART PHARMACY #9207","address1": "301 BECKLEY PLAZA","address2": "","city": "BECKLEY","state": "WV","zip": "25801","zip+4": "0000","phone": "3042528522","NPI": "     1609807742"}, 
{"id": 56201,"ncpdp": "5009306","pharmacy_name": "WAL-MART PHARMACY #101544","address1": "550 EMILY DR","address2": "","city": "CLARKSBURG","state": "WV","zip": "26301","zip+4": "0000","phone": "3046222784","NPI": "     1457378580"}, 
{"id": 56202,"ncpdp": "5009318","pharmacy_name": "KROGER PHARMACY #16284","address1": "211 N MARSHALL STREET","address2": "","city": "BENWOOD","state": "WV","zip": "26031","zip+4": "0000","phone": "3042321482","NPI": "     1760416549"}, 
{"id": 56203,"ncpdp": "5009320","pharmacy_name": "RITE AID PHARMACY #02543","address1": "26 MADDEX SQUARE","address2": "","city": "SHEPHERDSTOWN","state": "WV","zip": "25443","zip+4": "4321","phone": "3048760505","NPI": "     1972612216"}, 
{"id": 56204,"ncpdp": "5009332","pharmacy_name": "SAVRITE PHARMACY","address1": "50 LINCOLN ST","address2": "","city": "KERMIT","state": "WV","zip": "25674","zip+4": "0000","phone": "3043933386","NPI": "     1477658805"}, 
{"id": 56205,"ncpdp": "5009356","pharmacy_name": "RITE AID PHARMACY #02605","address1": "STATE ROUTE 7","address2": "STATE RT 7","city": "KINGWOOD","state": "WV","zip": "26537","zip+4": "1701","phone": "3043292212","NPI": "     1932298692"}, 
{"id": 56206,"ncpdp": "5009368","pharmacy_name": "RITE AID PHARMACY #02675","address1": "RR 3 BOX 3186","address2": "","city": "KEYSER","state": "WV","zip": "26726","zip+4": "9415","phone": "3047885931","NPI": "     1881703122"}, 
{"id": 56207,"ncpdp": "5009370","pharmacy_name": "KMART PHARMACY #3318","address1": "250 THREE SPRINGS DR","address2": "","city": "WEIRTON","state": "WV","zip": "26062","zip+4": "0000","phone": "3047230570","NPI": "     1518998657"}, 
{"id": 56208,"ncpdp": "5009407","pharmacy_name": "KMART PHARMACY #3724","address1": "101 GREAT TEAYS BLVD","address2": "","city": "SCOTT DEPOT","state": "WV","zip": "25560","zip+4": "0000","phone": "3047573201","NPI": "     1427089564"}, 
{"id": 56209,"ncpdp": "5009421","pharmacy_name": "RITE AID PHARMACY #02258","address1": "1000 SENECA TRAIL NORTH","address2": "","city": "MARLINTON","state": "WV","zip": "24954","zip+4": "1037","phone": "3047996617","NPI": "     1699884932"}, 
{"id": 56210,"ncpdp": "5009433","pharmacy_name": "WAL-MART PHARMACY #101703","address1": "800 FOXCROFT AVENUE","address2": "","city": "MARTINSBURG","state": "WV","zip": "25401","zip+4": "0000","phone": "3042636030","NPI": "     1366469496"}, 
{"id": 56211,"ncpdp": "5009445","pharmacy_name": "KROGER PHARMACY #29778","address1": "500 DELAWARE AVENUE","address2": "","city": "CHARLESTON","state": "WV","zip": "25302","zip+4": "0000","phone": "3043426916","NPI": "     1023042801"}, 
{"id": 56212,"ncpdp": "5009469","pharmacy_name": "WAL-MART PHARMACY #101653","address1": "110 BERLIN ROAD","address2": "","city": "WESTON","state": "WV","zip": "26452","zip+4": "0000","phone": "3042692443","NPI": "     1275550303"}, 
{"id": 56213,"ncpdp": "5009471","pharmacy_name": "RITE AID PHARMACY #02667","address1": "719 JOHNSTOWN ROAD","address2": "","city": "BECKLEY","state": "WV","zip": "25801","zip+4": "4821","phone": "3042563800","NPI": "     1417068503"}, 
{"id": 56214,"ncpdp": "5009495","pharmacy_name": "RITE AID PHARMACY #02799","address1": "627 FAIRMONT AVENUE","address2": "","city": "FAIRMONT","state": "WV","zip": "26554","zip+4": "5103","phone": "3043664526","NPI": "     1811903107"}, 
{"id": 56215,"ncpdp": "5009508","pharmacy_name": "RITE AID PHARMACY #02736","address1": "200 VIRGINIA STREET","address2": "","city": "SMITHERS","state": "WV","zip": "25186","zip+4": "0427","phone": "3044427500","NPI": "     1417066754"}, 
{"id": 56216,"ncpdp": "5009546","pharmacy_name": "WAL-MART PHARMACY #101714","address1": "32 TYGART MALL LOOP","address2": "","city": "WHITE HALL","state": "WV","zip": "26554","zip+4": "0000","phone": "3043669115","NPI": "     1992722029"}, 
{"id": 56217,"ncpdp": "5009558","pharmacy_name": "CVS PHARMACY #06318","address1": "105 SOUTH STATE STREET","address2": "","city": "ATHENS","state": "WV","zip": "24712","zip+4": "0000","phone": "3043847851","NPI": "     1508969262"}, 
{"id": 56218,"ncpdp": "5009609","pharmacy_name": "RITE AID PHARMACY #02742","address1": "168 MAIN STREET","address2": "","city": "SUTTON","state": "WV","zip": "26601","zip+4": "1308","phone": "3047652562","NPI": "     1326157660"}, 
{"id": 56219,"ncpdp": "5009611","pharmacy_name": "RITE AID PHARMACY #02789","address1": "7031 HARPER ROAD","address2": "","city": "GLEN DANIEL","state": "WV","zip": "25844","zip+4": "9480","phone": "3049345200","NPI": "     1235248576"}, 
{"id": 56220,"ncpdp": "5009623","pharmacy_name": "WAL-MART PHARMACY #101782","address1": "701 GRAND CENTRAL AV","address2": "","city": "VIENNA","state": "WV","zip": "26105","zip+4": "0000","phone": "3044223526","NPI": "     1801813936"}, 
{"id": 56221,"ncpdp": "5009635","pharmacy_name": "WILLIAMSTOWN PHARMACY","address1": "426 HIGHLAND AVENUE","address2": "","city": "WILLIAMSTOWN","state": "WV","zip": "26187","zip+4": "0000","phone": "3043756547","NPI": "     1801822572"}, 
{"id": 56222,"ncpdp": "5009673","pharmacy_name": "RITE AID PHARMACY #02728","address1": "4248 COAL HERITAGE ROAD","address2": "","city": "BLUEFIELD","state": "WV","zip": "24701","zip+4": "9190","phone": "3045896868","NPI": "     1144339482"}, 
{"id": 56223,"ncpdp": "5009685","pharmacy_name": "RITE AID PHARMACY #03395","address1": "50 SOUTH MAIN STREET","address2": "","city": "PETERSBURG","state": "WV","zip": "26847","zip+4": "1728","phone": "3042572072","NPI": "     1962511204"}, 
{"id": 56224,"ncpdp": "5009697","pharmacy_name": "RITE AID PHARMACY #02694","address1": "2 FIRST AVENUE SOUTH","address2": "","city": "CLENDENIN","state": "WV","zip": "25045","zip+4": "0685","phone": "3045486593","NPI": "     1871602110"}, 
{"id": 56225,"ncpdp": "5009736","pharmacy_name": "RITE AID PHARMACY #03311","address1": "1010 SOUTH MAIN STREET","address2": "","city": "MILTON","state": "WV","zip": "25541","zip+4": "1220","phone": "3047437912","NPI": "     1780793026"}, 
{"id": 56226,"ncpdp": "5009786","pharmacy_name": "RITE AID PHARMACY #03252","address1": "2198 RITTER DRIVE","address2": "","city": "DANIELS","state": "WV","zip": "25832","zip+4": "9372","phone": "3047635131","NPI": "     1598874836"}, 
{"id": 56227,"ncpdp": "5009798","pharmacy_name": "CABIN CREEK HEALTH CENTER PHCY","address1": "RT 79 CABIN CREEK RD","address2": "","city": "DAWES","state": "WV","zip": "25054","zip+4": "0070","phone": "3045955065","NPI": "     1265592679"}, 
{"id": 56228,"ncpdp": "5009801","pharmacy_name": "MEDICINE SHOPPE #0954","address1": "620 NATIONAL RD","address2": "","city": "WHEELING","state": "WV","zip": "26003","zip+4": "0000","phone": "3042324984","NPI": "     1033281837"}, 
{"id": 56229,"ncpdp": "5009825","pharmacy_name": "OMNICARE OF NITRO WEST VIRGINI","address1": "4200 1ST AVE","address2": "STE 200","city": "NITRO","state": "WV","zip": "25143","zip+4": "1000","phone": "3047558460","NPI": "     1326159419"}, 
{"id": 56230,"ncpdp": "5009837","pharmacy_name": "RITE AID PHARMACY #03341","address1": "1490 EAST MAIN STREET","address2": "","city": "HARRISVILLE","state": "WV","zip": "26362","zip+4": "9602","phone": "3046432902","NPI": "     1528169067"}, 
{"id": 56231,"ncpdp": "5009849","pharmacy_name": "RITE AID PHARMACY #03399","address1": "ROUTE 33 AND ROUTE 220","address2": "","city": "FRANKLIN","state": "WV","zip": "26807","zip+4": "9203","phone": "3043583272","NPI": "     1407965742"}, 
{"id": 56232,"ncpdp": "5009887","pharmacy_name": "KMART PHARMACY #7582","address1": "97 SENECA TRAIL","address2": "","city": "LEWISBURG","state": "WV","zip": "24901","zip+4": "0000","phone": "3046455169","NPI": "     1245261387"}, 
{"id": 56233,"ncpdp": "5009902","pharmacy_name": "RITE AID PHARMACY #03388","address1": "126 12TH STREET","address2": "","city": "WELLSBURG","state": "WV","zip": "26070","zip+4": "1519","phone": "3047370205","NPI": "     1316056658"}, 
{"id": 56234,"ncpdp": "5009926","pharmacy_name": "KMART PHARMACY #3880","address1": "9000 FAYETTEVILLE ROAD","address2": "","city": "OAK HILL","state": "WV","zip": "25901","zip+4": "0000","phone": "3044696091","NPI": "     1154352292"}, 
{"id": 56235,"ncpdp": "5009938","pharmacy_name": "WAL-MART PHARMACY #102036","address1": "2700 MOUNTAINEER BLV","address2": "","city": "SOUTH CHARLESTON","state": "WV","zip": "25309","zip+4": "0000","phone": "3047461725","NPI": "     1710904842"}, 
{"id": 56236,"ncpdp": "5009964","pharmacy_name": "UNION PHARMACY","address1": "100 MAIN ST","address2": "","city": "UNION","state": "WV","zip": "24983","zip+4": "0215","phone": "3047725701","NPI": "     1518960111"}, 
{"id": 56237,"ncpdp": "5009976","pharmacy_name": "RITE AID PHARMACY #03408","address1": "101 MORRISON DRIVE","address2": "","city": "PRINCETON","state": "WV","zip": "24740","zip+4": "2322","phone": "3044253024","NPI": "     1225147564"}, 
{"id": 56238,"ncpdp": "5010006","pharmacy_name": "WAL-MART PHARMACY #101948","address1": "243 THREE SPRINGS DRIVE RD","address2": "","city": "WEIRTON","state": "WV","zip": "26062","zip+4": "0000","phone": "3047233450","NPI": "     1629095757"}, 
{"id": 56239,"ncpdp": "5010018","pharmacy_name": "RITE AID PHARMACY #03423","address1": "418 BRIDGE STREET","address2": "","city": "HUNTINGTON","state": "WV","zip": "25702","zip+4": "1502","phone": "3045229705","NPI": "     1134238470"}, 
{"id": 56240,"ncpdp": "5010032","pharmacy_name": "RITE AID PHARMACY #03462","address1": "4749 US ROUTE 152","address2": "","city": "LAVALETTE","state": "WV","zip": "25535","zip+4": "9802","phone": "3045253992","NPI": "     1043329386"}, 
{"id": 56241,"ncpdp": "5010044","pharmacy_name": "KMART PHARMACY #4897","address1": "1287 WINCHESTER AVENUE","address2": "","city": "MARTINSBURG","state": "WV","zip": "25401","zip+4": "5018","phone": "3042649008","NPI": "     1063443109"}, 
{"id": 56242,"ncpdp": "5010056","pharmacy_name": "KMART PHARMACY #4701","address1": "3977 CUMBERLAND ROAD","address2": "","city": "BLUEFIELD","state": "WV","zip": "24701","zip+4": "0000","phone": "3043256750","NPI": "     1972534014"}, 
{"id": 56243,"ncpdp": "5010068","pharmacy_name": "FRUTH PHARMACY #17","address1": "RT 1 BOX 681","address2": "","city": "MINERAL WELLS","state": "WV","zip": "26150","zip+4": "0000","phone": "3044892710","NPI": "     1982619821"}, 
{"id": 56244,"ncpdp": "5010082","pharmacy_name": "WAL-MART PHARMACY #102083","address1": "215 FOUR H CAMP RD","address2": "","city": "MORGANTOWN","state": "WV","zip": "26508","zip+4": "0000","phone": "3042929887","NPI": "     1538186663"}, 
{"id": 56245,"ncpdp": "5010094","pharmacy_name": "COMPRECARE","address1": "1308 4TH AVE","address2": "","city": "HUNTINGTON","state": "WV","zip": "25701","zip+4": "2401","phone": "3045292143","NPI": "     1821057316"}, 
{"id": 56246,"ncpdp": "5010107","pharmacy_name": "KMART PHARMACY #3877","address1": "731 BEVERLY PIKE","address2": "","city": "ELKINS","state": "WV","zip": "26241","zip+4": "0000","phone": "3046366295","NPI": "     1881625929"}, 
{"id": 56247,"ncpdp": "5010121","pharmacy_name": "SALEM COLONIAL PHARMACY","address1": "120 E MAIN ST","address2": "","city": "SALEM","state": "WV","zip": "26426","zip+4": "0000","phone": "3047822171","NPI": "     1053344705"}, 
{"id": 56248,"ncpdp": "5010145","pharmacy_name": "CHEAT LAKE PHARMACY","address1": "509 ASHEBROOKE SQUARE","address2": "","city": "MORGANTOWN","state": "WV","zip": "26508","zip+4": "0000","phone": "3045940132","NPI": "     1811970775"}, 
{"id": 56249,"ncpdp": "5010169","pharmacy_name": "OMINCARE OF MORGANTOWN","address1": "1401 EARL CORE RD","address2": "STE A","city": "MORGANTOWN","state": "WV","zip": "26505","zip+4": "5885","phone": "3042923080","NPI": "     1508876640"}, 
{"id": 56250,"ncpdp": "5010195","pharmacy_name": "FRUTH PHARMACY #18","address1": "211 BOWMAN ST","address2": "","city": "SPENCER","state": "WV","zip": "25276","zip+4": "0000","phone": "3049270011","NPI": "     1790790632"}, 
{"id": 56251,"ncpdp": "5010234","pharmacy_name": "CVS PHARMACY #04432","address1": "300 FOURTH AVE","address2": "","city": "MONTGOMERY","state": "WV","zip": "25136","zip+4": "0000","phone": "3044422431","NPI": "     1417050170"}, 
{"id": 56252,"ncpdp": "5010260","pharmacy_name": "GIANT EAGLE PHARMACY 58 #59","address1": "130 GREENBAG RD","address2": "","city": "MORGANTOWN","state": "WV","zip": "26505","zip+4": "0000","phone": "3042920385","NPI": "     1689689515"}, 
{"id": 56253,"ncpdp": "5010296","pharmacy_name": "CVS PHARMACY #07604","address1": "1900 SAINT MARYS AVE","address2": "","city": "PARKERSBURG","state": "WV","zip": "26101","zip+4": "0000","phone": "3044222884","NPI": "     1326141086"}, 
{"id": 56254,"ncpdp": "5010347","pharmacy_name": "CVS PHARMACY #04419","address1": "800 TWENTHIETH ST","address2": "","city": "HUNTINGTON","state": "WV","zip": "25703","zip+4": "0000","phone": "3045221035","NPI": "     1235232992"}, 
{"id": 56255,"ncpdp": "5010359","pharmacy_name": "CVS PHARMACY #04425","address1": "447 W WASHINGTON AVE","address2": "","city": "HUNTINGTON","state": "WV","zip": "25701","zip+4": "0000","phone": "3045220045","NPI": "     1144323809"}, 
{"id": 56256,"ncpdp": "5010373","pharmacy_name": "RITE AID PHARMACY #03702","address1": "932 CROSS LANES DRIVE","address2": "","city": "CROSS LANES","state": "WV","zip": "25313","zip+4": "1315","phone": "3047763276","NPI": "     1952410292"}, 
{"id": 56257,"ncpdp": "5010400","pharmacy_name": "CVS PHARMACY #03391","address1": "2901 FIFTH AVE","address2": "","city": "HUNTINGTON","state": "WV","zip": "25702","zip+4": "0000","phone": "3046970366","NPI": "     1053414714"}, 
{"id": 56258,"ncpdp": "5010412","pharmacy_name": "CVS PHARMACY #03186","address1": "RTE 1 BOX 197","address2": "","city": "CLARKSBURG","state": "WV","zip": "26301","zip+4": "0000","phone": "3046240161","NPI": "     1962505628"}, 
{"id": 56259,"ncpdp": "5010424","pharmacy_name": "CVS PHARMACY #05957","address1": "219 THE CROSSING MALL","address2": "","city": "ELKVIEW","state": "WV","zip": "25071","zip+4": "0000","phone": "3049650460","NPI": "     1871696534"}, 
{"id": 56260,"ncpdp": "5010436","pharmacy_name": "CVS PHARMACY #05961","address1": "HC 63 BOX 2510","address2": "","city": "ROMNEY","state": "WV","zip": "26757","zip+4": "0000","phone": "3048228806","NPI": "     1780787440"}, 
{"id": 56261,"ncpdp": "5010448","pharmacy_name": "KROGER PHARMACY #29780","address1": "233 FAYETTE SQUARE","address2": "","city": "OAK HILL","state": "WV","zip": "25901","zip+4": "0000","phone": "3044650321","NPI": "     1932133717"}, 
{"id": 56262,"ncpdp": "5010450","pharmacy_name": "WAL-MART PHARMACY #102244","address1": "3333 US ROUTE 60","address2": "","city": "HUNTINGTON","state": "WV","zip": "25705","zip+4": "0000","phone": "3045254266","NPI": "     1447277579"}, 
{"id": 56263,"ncpdp": "5010474","pharmacy_name": "GOMPERS PHARMACY INC","address1": "2202 CHAPLINE ST","address2": "","city": "WHEELING","state": "WV","zip": "26003","zip+4": "0000","phone": "3042340002","NPI": "     1548343049"}, 
{"id": 56264,"ncpdp": "5010498","pharmacy_name": "POCA VALUE RITE PHARMACY","address1": "119C MAIN STREET","address2": "","city": "POCA","state": "WV","zip": "25159","zip+4": "0000","phone": "3047551500","NPI": "     1497801161"}, 
{"id": 56265,"ncpdp": "5010513","pharmacy_name": "WAL-MART PHARMACY #101499","address1": "520 N JEFFERSON ST","address2": "","city": "LEWISBURG","state": "WV","zip": "24901","zip+4": "0000","phone": "3046455291","NPI": "     1356368484"}, 
{"id": 56266,"ncpdp": "5010587","pharmacy_name": "KROGER PHARMACY #29730","address1": "450 11TH STREET","address2": "","city": "ELKINS","state": "WV","zip": "26241","zip+4": "0000","phone": "3046366891","NPI": "     1841224623"}, 
{"id": 56267,"ncpdp": "5010599","pharmacy_name": "KROGER PHARMACY #16803","address1": "100 ST THOMAS DR","address2": "","city": "WEIRTON","state": "WV","zip": "26062","zip+4": "0000","phone": "3047235108","NPI": "     1174557961"}, 
{"id": 56268,"ncpdp": "5010602","pharmacy_name": "RAINELLE MEDICAL CTR PHCY","address1": "645 KANAWHA AVE","address2": "","city": "RAINELLE","state": "WV","zip": "25962","zip+4": "0000","phone": "3044386188","NPI": "     1235238122"}, 
{"id": 56269,"ncpdp": "5010638","pharmacy_name": "MARTINS PHARMACY #102","address1": "190 FLOWING SPRINGS RD","address2": "","city": "CHARLES TOWN","state": "WV","zip": "25414","zip+4": "0000","phone": "3047288705","NPI": "     1306878327"}, 
{"id": 56270,"ncpdp": "5010664","pharmacy_name": "KROGER PHARMACY #29688","address1": "WEST PIKE AND SMITH STREETS","address2": "","city": "CLARKSBURG","state": "WV","zip": "26301","zip+4": "0000","phone": "3046232598","NPI": "     1881628592"}, 
{"id": 56271,"ncpdp": "5010676","pharmacy_name": "KROGER PHARMACY #29722","address1": "RT 20 SOUTH","address2": "","city": "BUCKHANNON","state": "WV","zip": "26201","zip+4": "0000","phone": "3044720715","NPI": "     1427082213"}, 
{"id": 56272,"ncpdp": "5010690","pharmacy_name": "FOLLANSBEE PHARMACY","address1": "1415 MAIN ST","address2": "","city": "FOLLANSBEE","state": "WV","zip": "26037","zip+4": "0000","phone": "3045271004","NPI": "     1790782274"}, 
{"id": 56273,"ncpdp": "5010715","pharmacy_name": "KROGER PHARMACY #29792","address1": "2627 FIFTH AVE","address2": "","city": "HUNTINGTON","state": "WV","zip": "25702","zip+4": "0000","phone": "3045296510","NPI": "     1891729687"}, 
{"id": 56274,"ncpdp": "5010727","pharmacy_name": "WAL-MART PHARMACY #102474","address1": "RR 4BOX 82","address2": "","city": "KEYSER","state": "WV","zip": "26726","zip+4": "0000","phone": "3047888170","NPI": "     1265459390"}, 
{"id": 56275,"ncpdp": "5010739","pharmacy_name": "HOMETOWN PHARMACY #1","address1": "1607 E MAIN ST","address2": "","city": "HARRISVILLE","state": "WV","zip": "26362","zip+4": "0000","phone": "3046434001","NPI": "     1386683936"}, 
{"id": 56276,"ncpdp": "5010753","pharmacy_name": "WHEELING HOSPITAL PHARMACY","address1": "1 MEDICAL PARK RD","address2": "","city": "WHEELING","state": "WV","zip": "26003","zip+4": "0000","phone": "3042433388","NPI": "     1568406254"}, 
{"id": 56277,"ncpdp": "5010789","pharmacy_name": "FRUTH PHARMACY #19","address1": "509 SOUTH CHURCH ST","address2": "","city": "RIPLEY","state": "WV","zip": "25271","zip+4": "0000","phone": "3043721605","NPI": "     1609881549"}, 
{"id": 56278,"ncpdp": "5010791","pharmacy_name": "FRUTH PHARMACY #20","address1": "501 ROOSEVELT BLVD","address2": "","city": "ELEANOR","state": "WV","zip": "25070","zip+4": "0000","phone": "3045860886","NPI": "     1518972454"}, 
{"id": 56279,"ncpdp": "5010816","pharmacy_name": "INHOME MEDICATIONS WEST VIRGIN","address1": "201 S PRESTON ST","address2": "STE C","city": "RANSON","state": "WV","zip": "25438","zip+4": "0000","phone": "3047253509","NPI": "     1932186780"}, 
{"id": 56280,"ncpdp": "5010842","pharmacy_name": "KROGER PHARMACY #29788","address1": "6360 US ROUTE 60","address2": "","city": "BARBOURSVILLE","state": "WV","zip": "25504","zip+4": "0000","phone": "3047333373","NPI": "     1336173129"}, 
{"id": 56281,"ncpdp": "5010878","pharmacy_name": "HIGHLANDER PHARMACY","address1": "324 MILLER MOUNTAIN DR","address2": "","city": "WEBSTER SPRINGS","state": "WV","zip": "26288","zip+4": "0000","phone": "3048475151","NPI": "     1518955103"}, 
{"id": 56282,"ncpdp": "5010892","pharmacy_name": "HIGHLAND PHARMACY","address1": "511 MORRIS ST","address2": "","city": "CHARLESTON","state": "WV","zip": "25301","zip+4": "0000","phone": "3043410257","NPI": "     1629078118"}, 
{"id": 56283,"ncpdp": "5010905","pharmacy_name": "WHITE HALL PHARMACY LLC","address1": "1325 LOCUST AVE","address2": "","city": "FAIRMONT","state": "WV","zip": "26554","zip+4": "0000","phone": "3043678600","NPI": "     1114098134"}, 
{"id": 56284,"ncpdp": "5010929","pharmacy_name": "MARTINS PHARMACY #107","address1": "901 FOXCROFT AVENUE","address2": "","city": "MARTINSBURG","state": "WV","zip": "25401","zip+4": "0000","phone": "3042676414","NPI": "     1215969233"}, 
{"id": 56285,"ncpdp": "5010931","pharmacy_name": "MAN PHARMACY","address1": "124 MAIN ST","address2": "","city": "MAN","state": "WV","zip": "25635","zip+4": "0000","phone": "3045839910","NPI": "     1932279015"}, 
{"id": 56286,"ncpdp": "5010955","pharmacy_name": "RITE AID PHARMACY #04731","address1": "3114 TEAYS VALLEY ROAD","address2": "","city": "HURRICANE","state": "WV","zip": "25526","zip+4": "1335","phone": "3045627138","NPI": "     1770694861"}, 
{"id": 56287,"ncpdp": "5010993","pharmacy_name": "MAIN ST PHARMACY","address1": "435 MAIN ST","address2": "STE 1","city": "OAK HILL","state": "WV","zip": "25901","zip+4": "0000","phone": "3044657200","NPI": "     1033169420"}, 
{"id": 56288,"ncpdp": "5011008","pharmacy_name": "MEDICAP PHARMACY #8217","address1": "2008 SMOOT AVE","address2": "","city": "DANVILLE","state": "WV","zip": "25053","zip+4": "0000","phone": "3043693981","NPI": "     1366515991"}, 
{"id": 56289,"ncpdp": "5011010","pharmacy_name": "CVS PHARMACY #07649","address1": "74 W MAIN ST","address2": "","city": "BUCKHANNON","state": "WV","zip": "26201","zip+4": "0000","phone": "3044730151","NPI": "     1598868259"}, 
{"id": 56290,"ncpdp": "5011034","pharmacy_name": "WAL-MART PHARMACY #102566","address1": "96 PATRICK HENRY WAY","address2": "","city": "CHARLES TOWN","state": "WV","zip": "25414","zip+4": "0000","phone": "3047282190","NPI": "     1912924051"}, 
{"id": 56291,"ncpdp": "5011046","pharmacy_name": "WAL-MART PHARMACY #102610","address1": "77 NORMAN MORGAN BLVD","address2": "","city": "LOGAN","state": "WV","zip": "25601","zip+4": "0000","phone": "3047527459","NPI": "     1821015967"}, 
{"id": 56292,"ncpdp": "5011058","pharmacy_name": "CVS PHARMACY #07792","address1": "1827 HARPER RD","address2": "","city": "BECKLEY","state": "WV","zip": "25801","zip+4": "0000","phone": "3042533088","NPI": "     1407959166"}, 
{"id": 56293,"ncpdp": "5011060","pharmacy_name": "WARDENSVILLE PHARMACY LLC","address1": "333 EAST MAIN ST","address2": "","city": "WARDENSVILLE","state": "WV","zip": "26851","zip+4": "0000","phone": "3048743687","NPI": "     1932208824"}, 
{"id": 56294,"ncpdp": "5011084","pharmacy_name": "RXBYTEL","address1": "425 W WASHINGTON ST","address2": "","city": "CHARLESTON","state": "WV","zip": "25302","zip+4": "0000","phone": "3043426001","NPI": "     1871653857"}, 
{"id": 56295,"ncpdp": "5011109","pharmacy_name": "RITE AID PHARMACY #01405","address1": "2107 PIKE STREET","address2": "SUITE 4","city": "PARKERSBURG","state": "WV","zip": "26101","zip+4": "0000","phone": "3044855517","NPI": "     1538181649"}, 
{"id": 56296,"ncpdp": "5011111","pharmacy_name": "RITE AID PHARMACY #01460","address1": "1960 EAST 7TH STREET","address2": "","city": "PARKERSBURG","state": "WV","zip": "26101","zip+4": "4260","phone": "3044222577","NPI": "     1285745372"}, 
{"id": 56297,"ncpdp": "5011123","pharmacy_name": "RITE AID PHARMACY #01473","address1": "2200 GRAND CENTRAL AVENUE","address2": "","city": "VIENNA","state": "WV","zip": "26105","zip+4": "1300","phone": "3042954573","NPI": "     1912016254"}, 
{"id": 56298,"ncpdp": "5011147","pharmacy_name": "KROGER PHARMACY #16562","address1": "200 MT DECHANTAL ROAD","address2": "","city": "WHEELING","state": "WV","zip": "26003","zip+4": "0000","phone": "3042335485","NPI": "     1245264035"}, 
{"id": 56299,"ncpdp": "5011159","pharmacy_name": "THE DRUG STORE","address1": "1021 MAIN ST","address2": "","city": "FARMINGTON","state": "WV","zip": "26571","zip+4": "0000","phone": "3048251275","NPI": "     1326122060"}, 
{"id": 56300,"ncpdp": "5011161","pharmacy_name": "KROGER PHARMACY #29708","address1": "MCGRAW AND MAIN STREET","address2": "","city": "RIPLEY","state": "WV","zip": "25271","zip+4": "0000","phone": "3043725292","NPI": "     1154355949"}, 
{"id": 56301,"ncpdp": "5011200","pharmacy_name": "BECKLEY ARH PHARMACY #2 #Q01","address1": "250 STANAFORD RD","address2": "","city": "BECKLEY","state": "WV","zip": "25801","zip+4": "0000","phone": "3042553598","NPI": "     1699751818"}, 
{"id": 56302,"ncpdp": "5011224","pharmacy_name": "KROGER PHARMACY #29790","address1": "133 BECKLEY CROSSING","address2": "","city": "BECKLEY","state": "WV","zip": "25801","zip+4": "0000","phone": "3042523480","NPI": "     1699709303"}, 
{"id": 56303,"ncpdp": "5011236","pharmacy_name": "MARLAND HEIGHTS PHARMACY","address1": "3901 BRIGHTWAY ST","address2": "","city": "WEIRTON","state": "WV","zip": "26062","zip+4": "0000","phone": "3047488464","NPI": "     1750379285"}, 
{"id": 56304,"ncpdp": "5011248","pharmacy_name": "KROGER PHARMACY #29817","address1": "RT 85 HOPKINS BRANCH RD","address2": "","city": "DANVILLE","state": "WV","zip": "25053","zip+4": "0000","phone": "3043699074","NPI": "     1063446854"}, 
{"id": 56305,"ncpdp": "5011250","pharmacy_name": "KROGER PHARMACY #29669","address1": "505 VIRGINIA AVE","address2": "","city": "SMITHERS","state": "WV","zip": "25186","zip+4": "0000","phone": "3044422156","NPI": "     1972537769"}, 
{"id": 56306,"ncpdp": "5011262","pharmacy_name": "WAL-MART PHARMACY #102576","address1": "100 NITRO MARKETPLACE","address2": "","city": "NITRO","state": "WV","zip": "25143","zip+4": "0000","phone": "3047690140","NPI": "     1750309449"}, 
{"id": 56307,"ncpdp": "5011274","pharmacy_name": "HPS PHARMACY LLC","address1": "312 DIAMOND ST","address2": "","city": "SISTERSVILLE","state": "WV","zip": "26175","zip+4": "0000","phone": "3046523711","NPI": "     1245382647"}, 
{"id": 56308,"ncpdp": "5011298","pharmacy_name": "PETERSTOWN PHARMACY","address1": "105 MARKET ST","address2": "","city": "PETERSTOWN","state": "WV","zip": "24963","zip+4": "0000","phone": "3047535074","NPI": "     1326205246"}, 
{"id": 56309,"ncpdp": "5011301","pharmacy_name": "STOUTS PHARMACY","address1": "3007 DUDLEY AVE","address2": "","city": "PARKERSBURG","state": "WV","zip": "26104","zip+4": "0000","phone": "3044226511","NPI": "     1023189040"}, 
{"id": 56310,"ncpdp": "5011313","pharmacy_name": "VALLEY HEALTH PHARMACY #2","address1": "3375 US RT 60 EAST","address2": "","city": "HUNTINGTON","state": "WV","zip": "25702","zip+4": "0000","phone": "3045254112","NPI": "     1689614950"}, 
{"id": 56311,"ncpdp": "5011349","pharmacy_name": "FOUR SEASONS PHARMACY","address1": "300 MORRISON DRIVE","address2": "","city": "PRINCETON","state": "WV","zip": "24740","zip+4": "2765","phone": "3044250015","NPI": "     1154439024"}, 
{"id": 56312,"ncpdp": "5011363","pharmacy_name": "REEDS PHARMACY LLC #1","address1": "261 BERKMORE PLACE","address2": "STE 1C","city": "BERKELEY SPRINGS","state": "WV","zip": "25411","zip+4": "0000","phone": "3042583800","NPI": "     1609958487"}, 
{"id": 56313,"ncpdp": "5011375","pharmacy_name": "WAL-MART PHARMACY #102696","address1": "11 HARNESS ROAD","address2": "","city": "MOOREFIELD","state": "WV","zip": "26836","zip+4": "0000","phone": "3045383481","NPI": "     1669490355"}, 
{"id": 56314,"ncpdp": "5011387","pharmacy_name": "WAL-MART PHARMACY #102684","address1": "1142 SOUTH BRIDGE STREET","address2": "","city": "NEW MARTINSVILLE","state": "WV","zip": "26155","zip+4": "0000","phone": "3044556473","NPI": "     1730106873"}, 
{"id": 56315,"ncpdp": "5011399","pharmacy_name": "PENNSBORO FAMILY PHARMACY","address1": "401 A WEST MYLES AVENUE","address2": "","city": "PENNSBORO","state": "WV","zip": "26415","zip+4": "0000","phone": "3042952352","NPI": "     1174631576"}, 
{"id": 56316,"ncpdp": "5011402","pharmacy_name": "DENNIS PHARMACY","address1": "6 FIRST STREET","address2": "","city": "HAMLIN","state": "WV","zip": "25523","zip+4": "0000","phone": "3048242667","NPI": "     1770589681"}, 
{"id": 56317,"ncpdp": "5011426","pharmacy_name": "KROGER PHARMACY #29725","address1": "1439 MACCORKLE AVE SW","address2": "","city": "ST ALBANS","state": "WV","zip": "25177","zip+4": "0000","phone": "3047225086","NPI": "     1881628675"}, 
{"id": 56318,"ncpdp": "5011438","pharmacy_name": "BLACK DIAMOND PHARMACY","address1": "99 MAIN STREET","address2": "","city": "NORTHFORK","state": "WV","zip": "24868","zip+4": "0000","phone": "3048622105","NPI": "     1558444026"}, 
{"id": 56319,"ncpdp": "5011440","pharmacy_name": "KROGER PHARMACY #29176","address1": "3032 E CUMBERLAND RD","address2": "","city": "BLUEFIELD","state": "WV","zip": "24701","zip+4": "0000","phone": "3043270823","NPI": "     1699709485"}, 
{"id": 56320,"ncpdp": "5011464","pharmacy_name": "KROGER PHARMACY #29787","address1": "7 MARKET PLACE","address2": "","city": "WESTON","state": "WV","zip": "26452","zip+4": "0000","phone": "3042693824","NPI": "     1316971104"}, 
{"id": 56321,"ncpdp": "5011488","pharmacy_name": "AMERICAN PHARMACY","address1": "9789 MALL LOOP","address2": "","city": "WHITEHALL","state": "WV","zip": "26554","zip+4": "0000","phone": "3043689123","NPI": "     1255304325"}, 
{"id": 56322,"ncpdp": "5011490","pharmacy_name": "WAL-MART PHARMACY #102792","address1": "100 MCGINNIS DRIVE","address2": "","city": "WAYNE","state": "WV","zip": "25570","zip+4": "0000","phone": "3042723766","NPI": "     1649297789"}, 
{"id": 56323,"ncpdp": "5011503","pharmacy_name": "BURNSVILLE DRUG STORE","address1": "110 MUNICIPAL ST","address2": "","city": "BURNSVILLE","state": "WV","zip": "26335","zip+4": "0000","phone": "3048532500","NPI": "     1225180136"}, 
{"id": 56324,"ncpdp": "5011515","pharmacy_name": "ZIMM PHARMACY INC","address1": "239 NORTH COURT STREET","address2": "","city": "FAYETTEVILLE","state": "WV","zip": "25840","zip+4": "0000","phone": "3045744100","NPI": "     1568537140"}, 
{"id": 56325,"ncpdp": "5011565","pharmacy_name": "WAL-MART PHARMACY #102849","address1": "320 MALLARD LANE","address2": "","city": "MASON","state": "WV","zip": "25260","zip+4": "0000","phone": "3047739186","NPI": "     1578581260"}, 
{"id": 56326,"ncpdp": "5011577","pharmacy_name": "WAL-MART PHARMACY #102833","address1": "1 WAL-MART LANE","address2": "","city": "GRAFTON","state": "WV","zip": "26354","zip+4": "0000","phone": "3042656329","NPI": "     1467479501"}, 
{"id": 56327,"ncpdp": "5011589","pharmacy_name": "WAL-MART PHARMACY #102823","address1": "2900 PIKE STREET","address2": "","city": "PARKERSBURG","state": "WV","zip": "26101","zip+4": "0000","phone": "3044893268","NPI": "     1376560417"}, 
{"id": 56328,"ncpdp": "5011591","pharmacy_name": "WAL-MART PHARMACY #102810","address1": "97 WILLIAMS DRIVE","address2": "","city": "SPENCER","state": "WV","zip": "25276","zip+4": "0000","phone": "3049276931","NPI": "     1285651323"}, 
{"id": 56329,"ncpdp": "5011616","pharmacy_name": "KROGER PHARMACY #29734","address1": "500 PARK CENTER","address2": "","city": "RAINELLE","state": "WV","zip": "25962","zip+4": "0000","phone": "3044387182","NPI": "     1225062011"}, 
{"id": 56330,"ncpdp": "5011628","pharmacy_name": "AMERICAN PHARMACY USA","address1": "889 VENTURE DR","address2": "SUITE 2","city": "MORGANTOWN","state": "WV","zip": "26508","zip+4": "0000","phone": "3042922787","NPI": "     1750425872"}, 
{"id": 56331,"ncpdp": "5011654","pharmacy_name": "MEDICAL ASSOCIATES PHARMACY","address1": "3 CHATEAU LANE","address2": "STE 3","city": "BARBOURSVILLE","state": "WV","zip": "25504","zip+4": "0000","phone": "3047369442","NPI": "     1568655678"}, 
{"id": 56332,"ncpdp": "5011666","pharmacy_name": "CONTINUUMCARE PHARMACY","address1": "78 PERRY WINKLE LAND","address2": "","city": "HUNTINGTON","state": "WV","zip": "25702","zip+4": "0000","phone": "3047368310","NPI": "     1245275551"}, 
{"id": 56333,"ncpdp": "5011678","pharmacy_name": "TARGET PHARMACY #1261","address1": "30 RHL BLVD","address2": "","city": "CHARLESTON","state": "WV","zip": "25309","zip+4": "0000","phone": "3047460820","NPI": "     1922020627"}, 
{"id": 56334,"ncpdp": "5011680","pharmacy_name": "KROGER PHARMACY #16202","address1": "1241 WARWOOD AVE","address2": "","city": "WHEELING","state": "WV","zip": "26003","zip+4": "0000","phone": "3042773373","NPI": "     1699790394"}, 
{"id": 56335,"ncpdp": "5011692","pharmacy_name": "DEFELICECARE PHARMACY","address1": "76 SIXTEENTH STREET","address2": "","city": "WHEELING","state": "WV","zip": "26003","zip+4": "0000","phone": "3042773130","NPI": "     1083820229"}, 
{"id": 56336,"ncpdp": "5011705","pharmacy_name": "REEDS PHARMACY #2","address1": "71 COWARDLY LION DRIVE","address2": "","city": "HEDGESVILLE","state": "WV","zip": "25427","zip+4": "0000","phone": "3047545800","NPI": "     1083780191"}, 
{"id": 56337,"ncpdp": "5011731","pharmacy_name": "BELLDINAS HEALTH MART PHCY","address1": "107 SOUTH MAIN STREET","address2": "","city": "MASONTOWN","state": "WV","zip": "26542","zip+4": "0112","phone": "3048644000","NPI": "     1104823194"}, 
{"id": 56338,"ncpdp": "5011755","pharmacy_name": "WAL-MART PHARMACY #102933","address1": "201 GREASY RIDGE ROAD","address2": "","city": "PRINCETON","state": "WV","zip": "24740","zip+4": "0000","phone": "3044312105","NPI": "     1093732133"}, 
{"id": 56339,"ncpdp": "5011767","pharmacy_name": "WAL-MART PHARMACY #102809","address1": "100 BUCKHANNON CROSSROADS","address2": "","city": "BUCKHANNON","state": "WV","zip": "26201","zip+4": "0000","phone": "3044720834","NPI": "     1992723688"}, 
{"id": 56340,"ncpdp": "5011779","pharmacy_name": "KROGER PHARMACY #29743","address1": "ST RT 107 BELLEPOINT CC PLAZA","address2": "","city": "HINTON","state": "WV","zip": "25951","zip+4": "0000","phone": "3044666612","NPI": "     1134153927"}, 
{"id": 56341,"ncpdp": "5011781","pharmacy_name": "KROGER PHARMACY #16215","address1": "3558 MAIN STREET","address2": "","city": "WEIRTON","state": "WV","zip": "26062","zip+4": "0000","phone": "3047486290","NPI": "     1508881202"}, 
{"id": 56342,"ncpdp": "5011793","pharmacy_name": "BUDGET DISCOUNT PHARMACY","address1": "361 NORWAY AVENUE","address2": "","city": "HUNTINGTON","state": "WV","zip": "25705","zip+4": "0000","phone": "3046975090","NPI": "     1770639114"}, 
{"id": 56343,"ncpdp": "5011806","pharmacy_name": "CITY CENTER PHARMACY","address1": "331 LAIDLEY ST","address2": "STE 101","city": "CHARLESTON","state": "WV","zip": "25301","zip+4": "0000","phone": "3043462006","NPI": "     1427137199"}, 
{"id": 56344,"ncpdp": "5011818","pharmacy_name": "BEE WELL PHARMACY","address1": "4501 MACCORKLE AVE SW STE 102","address2": "","city": "SOUTH CHARLESTON","state": "WV","zip": "25309","zip+4": "0000","phone": "3047668484","NPI": "     1356386882"}, 
{"id": 56345,"ncpdp": "5011820","pharmacy_name": "MEDICAP PHARMACY #8289","address1": "85 TAVERN RD","address2": "","city": "MARTINSBURG","state": "WV","zip": "25401","zip+4": "0000","phone": "3042609040","NPI": "     1942372743"}, 
{"id": 56346,"ncpdp": "5011868","pharmacy_name": "SAMS PHARMACY #106457","address1": "2500 MOUNTAINEER BLVD","address2": "","city": "SOUTH CHARLESTON","state": "WV","zip": "25309","zip+4": "0000","phone": "3047443649","NPI": "     1902823040"}, 
{"id": 56347,"ncpdp": "5011870","pharmacy_name": "KROGER PHARMACY #29668","address1": "US RT 119 HOLDEN RD","address2": "","city": "LOGAN","state": "WV","zip": "25637","zip+4": "0000","phone": "3042392380","NPI": "     1043244833"}, 
{"id": 56348,"ncpdp": "5011894","pharmacy_name": "MEDICAP PHARMACY #8317","address1": "4352 5TH ST RD","address2": "","city": "HUNTINGTON","state": "WV","zip": "25701","zip+4": "0000","phone": "3045235003","NPI": "     1467546770"}, 
{"id": 56349,"ncpdp": "5011907","pharmacy_name": "KROGER PHARMACY #29770","address1": "151 BEAVER PLAZA","address2": "","city": "BEAVER","state": "WV","zip": "25813","zip+4": "0000","phone": "3042555599","NPI": "     1942234737"}, 
{"id": 56350,"ncpdp": "5011919","pharmacy_name": "MACES PHARMACY INC","address1": "303 S MAIN ST","address2": "","city": "PHILIPPI","state": "WV","zip": "26416","zip+4": "0000","phone": "3044574233","NPI": "     1598704934"}, 
{"id": 56351,"ncpdp": "5011933","pharmacy_name": "FRITZ PHCY","address1": "370 SENECA TR","address2": "","city": "RONCEVERTE","state": "WV","zip": "24970","zip+4": "0000","phone": "3046451890","NPI": "     1225191224"}, 
{"id": 56352,"ncpdp": "5011957","pharmacy_name": "KROGER PHARMACY #16977","address1": "1300 LAFAYETTE AVE","address2": "","city": "MOUNDSVILLE","state": "WV","zip": "26041","zip+4": "0000","phone": "3048458298","NPI": "     1851325641"}, 
{"id": 56353,"ncpdp": "5011969","pharmacy_name": "KROGER PHARMACY #29273","address1": "US ROUTE 52","address2": "","city": "BLUEWELL","state": "WV","zip": "24701","zip+4": "0000","phone": "3045897843","NPI": "     1508890211"}, 
{"id": 56354,"ncpdp": "5011971","pharmacy_name": "TARGET PHARMACY #1478","address1": "2070 THUNDERING HERD ROAD","address2": "","city": "BARBOURSVILLE","state": "WV","zip": "25504","zip+4": "0000","phone": "3047367651","NPI": "     1740202449"}, 
{"id": 56355,"ncpdp": "5012012","pharmacy_name": "PINEVILLE PHARMACY","address1": "19 MAIN STREET","address2": "","city": "PINEVILLE","state": "WV","zip": "24874","zip+4": "0000","phone": "3047329011","NPI": "     1073544987"}, 
{"id": 56356,"ncpdp": "5012036","pharmacy_name": "BECKLEY PHARMACY","address1": "269 STANAFORD RD","address2": "","city": "BECKLEY","state": "WV","zip": "25801","zip+4": "0000","phone": "3042521200","NPI": "     1699818377"}, 
{"id": 56357,"ncpdp": "5012048","pharmacy_name": "MEDBROOK MEDICAL ASSOCI INC PH","address1": "1370 JOHNSON AVE","address2": "","city": "BRIDGEPORT","state": "WV","zip": "26330","zip+4": "0000","phone": "3048424233","NPI": "     1649292228"}, 
{"id": 56358,"ncpdp": "5012050","pharmacy_name": "SAFESCRIPT PHARMACY","address1": "335 4TH AVE","address2": "","city": "HUNTINGTON","state": "WV","zip": "25701","zip+4": "0000","phone": "3045220435","NPI": "     1598846222"}, 
{"id": 56359,"ncpdp": "5012062","pharmacy_name": "TARGET PHARMACY #1828","address1": "2800 MEADOWBROOK MALL","address2": "","city": "BRIDGEPORT","state": "WV","zip": "26330","zip+4": "0000","phone": "3048427779","NPI": "     1659393353"}, 
{"id": 56360,"ncpdp": "5012074","pharmacy_name": "TOWN PHARMACY CARE","address1": "300 MAIN ST","address2": "","city": "MAN","state": "WV","zip": "25635","zip+4": "0000","phone": "3045832863","NPI": "     1639256316"}, 
{"id": 56361,"ncpdp": "5012098","pharmacy_name": "GREENBRIER MEDICAL ARTS PHARMA","address1": "3272 JEFFERSON ST N STE 1","address2": "","city": "LEWISBURG","state": "WV","zip": "24901","zip+4": "9616","phone": "3046471377","NPI": "     1912900614"}, 
{"id": 56362,"ncpdp": "5012113","pharmacy_name": "BLUEWELLS FAMILY PHARMACY","address1": "3675 COAL HERITAGE ROAD","address2": "","city": "BLUEFIELD","state": "WV","zip": "24701","zip+4": "9511","phone": "3045897788","NPI": "     1972523629"}, 
{"id": 56363,"ncpdp": "5012125","pharmacy_name": "PROCARE PHARMACY INC","address1": "720 PIKE ST","address2": "","city": "SHINNSTON","state": "WV","zip": "26431","zip+4": "0000","phone": "3045922680","NPI": "     1073737003"}, 
{"id": 56364,"ncpdp": "5012151","pharmacy_name": "CVS PHARMACY #07124","address1": "3901 TEAYS VALLEY RD","address2": "","city": "HURRICANE","state": "WV","zip": "25526","zip+4": "0000","phone": "3047601123","NPI": "     1134223811"}, 
{"id": 56365,"ncpdp": "5012163","pharmacy_name": "WAL-MART PHARMACY #105296","address1": "25 NICHOLS DRIVE","address2": "","city": "BARBOURSVILLE","state": "WV","zip": "25504","zip+4": "0000","phone": "3047336188","NPI": "     1811914955"}, 
{"id": 56366,"ncpdp": "5012175","pharmacy_name": "FAS CHEK DISCOUNT PHARMACY","address1": "7703 SISSONVILLE DR","address2": "","city": "SISSONVILLE DRIVE","state": "WV","zip": "25320","zip+4": "0000","phone": "3049881230","NPI": "     1437291358"}, 
{"id": 56367,"ncpdp": "5012187","pharmacy_name": "KROGER PHARMACY #16268","address1": "91 27TH STREET","address2": "","city": "WELLSBURG","state": "WV","zip": "26070","zip+4": "0000","phone": "3047374471","NPI": "     1760416556"}, 
{"id": 56368,"ncpdp": "5012199","pharmacy_name": "MOORES PHARMACY","address1": "1311 OLD COURTHOUSE SQ","address2": "","city": "MARTINSBURG","state": "WV","zip": "25404","zip+4": "0000","phone": "3042640300","NPI": "     1891890125"}, 
{"id": 56369,"ncpdp": "5053967","pharmacy_name": "SAMS PHARMACY #104860","address1": "1220 NORTH EISENHOWER DRIVE","address2": "","city": "BECKLEY","state": "WV","zip": "25801","zip+4": "0000","phone": "3042521265","NPI": "     1720005861"}, 
{"id": 56370,"ncpdp": "5053979","pharmacy_name": "TRI STATE PHARMACY","address1": "651 COLLIERS WAY","address2": "SUITE 204","city": "WEIRTON","state": "WV","zip": "26062","zip+4": "0000","phone": "3047236331","NPI": "     1083617799"}, 
{"id": 56371,"ncpdp": "5053981","pharmacy_name": "KROGER PHARMACY #29768","address1": "981 DUNBAR VILLAGE","address2": "","city": "DUNBAR","state": "WV","zip": "25064","zip+4": "0000","phone": "3047687326","NPI": "     1679507461"}, 
{"id": 56372,"ncpdp": "5053993","pharmacy_name": "NEWPOINTE PHARMACY LLC","address1": "463 EMILY DR","address2": "","city": "CLARKSBURG","state": "WV","zip": "26301","zip+4": "0000","phone": "3044235000","NPI": "     1588733430"}, 
{"id": 56373,"ncpdp": "5054008","pharmacy_name": "TRI COUNTY PHARMACY","address1": "RT 4 AND RT 20 S INTRSCTN","address2": "","city": "ROCK CAVE","state": "WV","zip": "26234","zip+4": "0000","phone": "3049246784","NPI": "     1861577090"}, 
{"id": 56374,"ncpdp": "5054010","pharmacy_name": "TARGET PHARMACY #1949","address1": "5001 UNIVERSITY TOWNE CENTER D","address2": "","city": "MORGANTOWN","state": "WV","zip": "26501","zip+4": "0000","phone": "3045995581","NPI": "     1124041421"}, 
{"id": 56375,"ncpdp": "5054022","pharmacy_name": "BEST CARE PHARMACY, INC. #","address1": "4 GARTON PLAZA","address2": "","city": "WESTON","state": "WV","zip": "26452","zip+4": "0000","phone": "3042693737","NPI": "     1871690610"}, 
{"id": 56376,"ncpdp": "5054034","pharmacy_name": "WAL-MART PHARMACY #105319","address1": "1881 ROBERT C BRYD DR","address2": "","city": "MACARTHUR","state": "WV","zip": "25873","zip+4": "0000","phone": "3042566496","NPI": "     1801814595"}, 
{"id": 56377,"ncpdp": "5054046","pharmacy_name": "MOUNTAIN LAKE PHARMACY","address1": "1129 BROAD ST","address2": "STE 100","city": "SUMMERSVILLE","state": "WV","zip": "26651","zip+4": "1843","phone": "3048729000","NPI": "     1336228006"}, 
{"id": 56378,"ncpdp": "5054058","pharmacy_name": "GIANT EAGLE PHARMACY #58","address1": "4500 UNIVERSITY TOWN CTR DR","address2": "","city": "MORGANTOWN","state": "WV","zip": "16501","zip+4": "0000","phone": "3045992369","NPI": "     1740297761"}, 
{"id": 56379,"ncpdp": "5054060","pharmacy_name": "CROSS LANES FAMILY PHARMACY","address1": "5516 BIG TYLER RD","address2": "","city": "CROSSLANES","state": "WV","zip": "25313","zip+4": "0000","phone": "3042042588","NPI": "     1710084645"}, 
{"id": 56380,"ncpdp": "5054072","pharmacy_name": "E A HAWSE PHARMACY","address1": "17978 SR 55","address2": "","city": "BAKER","state": "WV","zip": "26801","zip+4": "0000","phone": "3048978220","NPI": "     1407996382"}, 
{"id": 56381,"ncpdp": "5054084","pharmacy_name": "FRUTH PHARMACY #23","address1": "4012 TEAYS VALLEY RD","address2": "","city": "SCOTT DEPOT","state": "WV","zip": "25560","zip+4": "0000","phone": "3042011630","NPI": "     1427063361"}, 
{"id": 56382,"ncpdp": "5054109","pharmacy_name": "WAL-MART PHARMACY #103811","address1": "61 PLAZA DRIVE","address2": "","city": "KIMBALL","state": "WV","zip": "24853","zip+4": "0000","phone": "3045857820","NPI": "     1710905401"}, 
{"id": 56383,"ncpdp": "5054111","pharmacy_name": "CLINIC PHARMACY INC","address1": "100 NEW HOPE RD","address2": "SUITE 8","city": "PRINCETON","state": "WV","zip": "24740","zip+4": "0000","phone": "3044259591","NPI": "     1629175559"}, 
{"id": 56384,"ncpdp": "5054123","pharmacy_name": "COX FAMILY PHARMACY INC","address1": "1212 GARFIELD AVE","address2": "STE 102","city": "PARKERSBURG","state": "WV","zip": "26101","zip+4": "0000","phone": "3048657600","NPI": "     1538170030"}, 
{"id": 56385,"ncpdp": "5054147","pharmacy_name": "FRUTH PHARMACY #24","address1": "5455 BIG TYLER RD","address2": "","city": "CROSS LANES","state": "WV","zip": "25313","zip+4": "0000","phone": "3042040060","NPI": "     1336154277"}, 
{"id": 56386,"ncpdp": "5054159","pharmacy_name": "CHAPMANVILLE PHCY INC","address1": "289 CRAWLEY CREEK RD","address2": "","city": "CHAPMANVILLE","state": "WV","zip": "25508","zip+4": "0000","phone": "3048559502","NPI": "     1497824825"}, 
{"id": 56387,"ncpdp": "5054161","pharmacy_name": "WAL-MART PHARMACY #102852","address1": "10 WAL-MART DRIVE","address2": "","city": "MOUNDSVILLE","state": "WV","zip": "26041","zip+4": "0000","phone": "3048431507","NPI": "     1639196777"}, 
{"id": 56388,"ncpdp": "5054173","pharmacy_name": "MCCLOUD FAMILY PHARMACY","address1": "4541 5TH ST RD","address2": "","city": "HUNTINGTON","state": "WV","zip": "25701","zip+4": "0000","phone": "3045226090","NPI": "     1205879087"}, 
{"id": 56389,"ncpdp": "5054185","pharmacy_name": "WATERFRONT FAMILY PHARMACY","address1": "215 DON KNOTTS BOULEVARD","address2": "STE 120","city": "MORGANTOWN","state": "WV","zip": "26501","zip+4": "0000","phone": "3042257979","NPI": "     1629099684"}, 
{"id": 56390,"ncpdp": "5054197","pharmacy_name": "R EXCELLENCE PROGRAM","address1": "7400 LYNN AVE","address2": "","city": "HAMLIN","state": "WV","zip": "25523","zip+4": "0000","phone": "3048246337","NPI": "     1831163906"}, 
{"id": 56391,"ncpdp": "5054200","pharmacy_name": "MEDICAL PARK PHARMACY","address1": "5170 ROUTE 60 E","address2": "SUITE 2800","city": "HUNTINGTON","state": "WV","zip": "25705","zip+4": "0000","phone": "3043993784","NPI": "     1457427965"}, 
{"id": 56392,"ncpdp": "5054212","pharmacy_name": "COMMUNITY CARE PHARMACY","address1": "307 MAIN STREET","address2": "","city": "PARSONS","state": "WV","zip": "26287","zip+4": "0000","phone": "3044782319","NPI": "     1326064288"}, 
{"id": 56393,"ncpdp": "5054224","pharmacy_name": "WEIS PHARMACY #183","address1": "217 OAK LEE DR","address2": "SUITE 15","city": "RANSON","state": "WV","zip": "25438","zip+4": "0000","phone": "3047289041","NPI": "     1538192877"}, 
{"id": 56394,"ncpdp": "5054236","pharmacy_name": "FRUTH PHARMACY #25","address1": "701 LEE STREET EAST","address2": "","city": "CHARLESTON","state": "WV","zip": "25301","zip+4": "0000","phone": "3047208341","NPI": "     1154336097"}, 
{"id": 56395,"ncpdp": "5054248","pharmacy_name": "SMH PHARMACY","address1": "400 FAIRVIEW HEIGHTS RD","address2": "","city": "SUMMERSVILLE","state": "WV","zip": "26651","zip+4": "0000","phone": "3048728437","NPI": "     1477569101"}, 
{"id": 56396,"ncpdp": "5054262","pharmacy_name": "WALGREEN DRUG STORE #09343","address1": "897 CHESTNUT RIDGE RD","address2": "","city": "MORGANTOWN","state": "WV","zip": "26505","zip+4": "2704","phone": "3045982534","NPI": "     1982649067"}, 
{"id": 56397,"ncpdp": "5054274","pharmacy_name": "WESTSIDE PHARMACY","address1": "RT 10 COOK PKWY AND LOGAN ST","address2": "","city": "OCEANA","state": "WV","zip": "24870","zip+4": "0000","phone": "3046820444","NPI": "     1215988670"}, 
{"id": 56398,"ncpdp": "5054286","pharmacy_name": "WHITE HALL PHARMACY LLC","address1": "162 MIDDLETOWN RD","address2": "","city": "WHITE HALL","state": "WV","zip": "26554","zip+4": "0000","phone": "3043689355","NPI": "     1194755017"}, 
{"id": 56399,"ncpdp": "5054298","pharmacy_name": "RHONDAS PHARMACY","address1": "3159 ROBERT C BYRD DR","address2": "","city": "BECKLEY","state": "WV","zip": "25801","zip+4": "0000","phone": "3042556337","NPI": "     1124069943"}, 
{"id": 56400,"ncpdp": "5054301","pharmacy_name": "SOUTH BERKELEY PHARMACY","address1": "5054 GERRARDSTOWN ROAD","address2": "","city": "INWOOD","state": "WV","zip": "25428","zip+4": "0000","phone": "3042292400","NPI": "     1952312506"}, 
{"id": 56401,"ncpdp": "5054313","pharmacy_name": "THREE SPRINGS VILLAGE PHARMACY","address1": "204 THREE SPRINGS DR","address2": "STE A","city": "WIERTON","state": "WV","zip": "26062","zip+4": "0000","phone": "3047232528","NPI": "     1952346397"}, 
{"id": 56402,"ncpdp": "5054325","pharmacy_name": "RIPLEY DRUG","address1": "328 WEST MAIN STREET","address2": "","city": "RIPLEY","state": "WV","zip": "25271","zip+4": "0000","phone": "3043729355","NPI": "     1952412728"}, 
{"id": 56403,"ncpdp": "5054337","pharmacy_name": "PLEASANT VALLEY PHCY LLC","address1": "49 VIP WY","address2": "","city": "FAIRMONT","state": "WV","zip": "26554","zip+4": "0000","phone": "3043663145","NPI": "     1437252574"}, 
{"id": 56404,"ncpdp": "5054349","pharmacy_name": "MEDFUSION RX","address1": "206 ROXALANA BUSINESS PARK","address2": "","city": "DUNBAR","state": "WV","zip": "25064","zip+4": "0000","phone": "3047206970","NPI": "     1962514877"}, 
{"id": 56405,"ncpdp": "5054351","pharmacy_name": "SAMS PHARMACY #104936","address1": "6001 UNIVERSITY TOWN CENTRE DR","address2": "","city": "MORGANTOWN","state": "WV","zip": "26534","zip+4": "0000","phone": "3045982931","NPI": "     1720172877"}, 
{"id": 56406,"ncpdp": "5054363","pharmacy_name": "WAL-MART PHARMACY #103215","address1": "6051 UNIVERSITY TOWN CENTRE DR","address2": "","city": "GRANVILLE","state": "WV","zip": "26534","zip+4": "0000","phone": "3045983404","NPI": "     1649364795"}, 
{"id": 56407,"ncpdp": "5054375","pharmacy_name": "TARGET PHARMACY #2231","address1": "300 CABELA DR","address2": "","city": "TRIADELPHIA","state": "WV","zip": "26059","zip+4": "0000","phone": "3045472981","NPI": "     1326121955"}, 
{"id": 56408,"ncpdp": "5054387","pharmacy_name": "RIVER VALLEY HEALTH AND WELLNE","address1": "606 WASHINGTON ST","address2": "","city": "RAVENSWOOD","state": "WV","zip": "26164","zip+4": "0000","phone": "3048686050","NPI": "     1912090135"}, 
{"id": 56409,"ncpdp": "5054399","pharmacy_name": "WAL-MART PHARMACY #105088","address1": "450 STEWART LANE","address2": "","city": "TRIADELPHIA","state": "WV","zip": "26059","zip+4": "0000","phone": "3045471950","NPI": "     1609965292"}, 
{"id": 56410,"ncpdp": "5054414","pharmacy_name": "BONDS DRUG","address1": "800 GRAND CENTRAL MALL","address2": "","city": "VIENNA","state": "WV","zip": "26105","zip+4": "0000","phone": "3042957356","NPI": "     1558435081"}, 
{"id": 56411,"ncpdp": "5054426","pharmacy_name": "LOOP COMPOUNDING PHARMACY","address1": "4918 MACCORKLE AVE SE","address2": "","city": "CHARLESTON","state": "WV","zip": "25302","zip+4": "0000","phone": "3047207866","NPI": "     1285793281"}, 
{"id": 56412,"ncpdp": "5054438","pharmacy_name": "NORRIS PHARMACY","address1": "300 STATE RT 20","address2": "","city": "PINE GROVE","state": "WV","zip": "26419","zip+4": "0000","phone": "3048893131","NPI": "     1396818423"}, 
{"id": 56413,"ncpdp": "5054440","pharmacy_name": "ACCESS HEALTH PHARMACY DANIELS","address1": "2157 RITTER DRIVE","address2": "","city": "DANIELS","state": "WV","zip": "25832","zip+4": "0000","phone": "3047634326","NPI": "     1780719609"}, 
{"id": 56414,"ncpdp": "5054464","pharmacy_name": "GILBERT PHARMACY INC","address1": "210 LARRY JOE HARLESS DR","address2": "","city": "GILBERT","state": "WV","zip": "25621","zip+4": "0000","phone": "3046646337","NPI": "     1083740864"}, 
{"id": 56415,"ncpdp": "5054476","pharmacy_name": "MCDOWELL PHARMACY INC","address1": "RT 16 MAIN ST","address2": "","city": "WAR","state": "WV","zip": "24892","zip+4": "0000","phone": "3048752291","NPI": "     1285751586"}, 
{"id": 56416,"ncpdp": "5054490","pharmacy_name": "TUG VALLEY PHARMACY","address1": "54 W SECOND AVE","address2": "","city": "WILLIAMSON","state": "WV","zip": "25661","zip+4": "0000","phone": "3042358080","NPI": "     1336339704"}, 
{"id": 56417,"ncpdp": "5054515","pharmacy_name": "RIVERSIDE PHARMACY INC","address1": "22 LARRY JOE HARLESS DR","address2": "","city": "GILBERT","state": "WV","zip": "25621","zip+4": "0000","phone": "3046643343","NPI": "     1720206774"}, 
{"id": 56418,"ncpdp": "5054527","pharmacy_name": "FAMILY CARE PHARMACY","address1": "3136 WEST ST","address2": "","city": "WEIRTON","state": "WV","zip": "26062","zip+4": "0000","phone": "3047484200","NPI": "     1528275971"}, 
{"id": 56419,"ncpdp": "5054541","pharmacy_name": "WAL-MART PHARMACY #104372","address1": "100 WAL-MART DRIVE","address2": "","city": "KINGWOOD","state": "WV","zip": "26537","zip+4": "0000","phone": "3043294031","NPI": "     1497954978"}, 
{"id": 56420,"ncpdp": "5054553","pharmacy_name": "CHARLIES PHARMACY","address1": "233 MAIN ST","address2": "","city": "PINEVILLE","state": "WV","zip": "24874","zip+4": "0000","phone": "3047326969","NPI": "     1194924852"}, 
{"id": 56421,"ncpdp": "5054565","pharmacy_name": "ACCESS HEALTH PHARMACY GLEN DA","address1": "7127 HARPER ROAD","address2": "","city": "GLEN DANIEL","state": "WV","zip": "25844","zip+4": "0000","phone": "3049344001","NPI": "     1962698118"}, 
{"id": 56422,"ncpdp": "5054577","pharmacy_name": "WALGREENS DRUG STORE #10928","address1": "886 RITTER DR","address2": "","city": "BEAVER","state": "WV","zip": "25813","zip+4": "9513","phone": "3042560412","NPI": "     1508051996"}, 
{"id": 56423,"ncpdp": "5054589","pharmacy_name": "REEDS DRUG STORE LLC","address1": "RT 50 EAST","address2": "","city": "ROMNEY","state": "WV","zip": "26757","zip+4": "0000","phone": "3048221000","NPI": "     1902092539"}, 
{"id": 56424,"ncpdp": "5054591","pharmacy_name": "COX FAMILY PHARMACY #2","address1": "110 GIHON VILLAGE SHOPPING CEN","address2": "","city": "PARKERSBURG","state": "WV","zip": "26101","zip+4": "0000","phone": "3044854501","NPI": "     1316135536"}, 
{"id": 56425,"ncpdp": "5054604","pharmacy_name": "CHARLIES PHARMACY OF MULLENS L","address1": "224 HOWARD AVE","address2": "","city": "MULLENS","state": "WV","zip": "25882","zip+4": "0000","phone": "3042945447","NPI": "     1942499223"}, 
{"id": 56426,"ncpdp": "5054616","pharmacy_name": "WALGREEN DRUG STORE #11238","address1": "615 RANDOLPH AVE","address2": "","city": "ELKINS","state": "WV","zip": "26241","zip+4": "3950","phone": "3046368180","NPI": "     1629251038"}, 
{"id": 56427,"ncpdp": "5054628","pharmacy_name": "FAMILY LIFE PHARMACY","address1": "21189 COAL RIVER RD","address2": "","city": "COMFORT","state": "WV","zip": "25049","zip+4": "0000","phone": "3048373777","NPI": "     1891970414"}, 
{"id": 56428,"ncpdp": "5054630","pharmacy_name": "CITIZENS DRUG STORE","address1": "70 WYOMING ST","address2": "","city": "WELCH","state": "WV","zip": "24801","zip+4": "0000","phone": "3044364932","NPI": "     1336326792"}, 
{"id": 56429,"ncpdp": "5054642","pharmacy_name": "KINES FAMILY PHARMACY INC","address1": "6090 SISSONVILLE DRIVE","address2": "","city": "CHARLESTON","state": "WV","zip": "25312","zip+4": "0000","phone": "3049841001","NPI": "     1942487822"}, 
{"id": 56430,"ncpdp": "5054654","pharmacy_name": "KROGER PHARMACY #29813","address1": "500 SUNCREST TOWN CENTRE DR","address2": "","city": "MORGANTOWN","state": "WV","zip": "26505","zip+4": "0000","phone": "3042856781","NPI": "     1316124803"}, 
{"id": 56431,"ncpdp": "5054666","pharmacy_name": "QOL MEDS #160","address1": "200 12TH ST EXTENTION","address2": "","city": "PRINCETON","state": "WV","zip": "24740","zip+4": "0000","phone": "3044876337","NPI": "     1578741872"}, 
{"id": 56432,"ncpdp": "5054678","pharmacy_name": "WAL-MART PHARMACY #4277","address1": "164 AND SLEEPY CREEK RD","address2": "","city": "HURRICANE","state": "WV","zip": "25526","zip+4": "0000","phone": "3045623193","NPI": "     1487838132"}, 
{"id": 56433,"ncpdp": "5054680","pharmacy_name": "WAL-MART PHARMACY #4423","address1": "5680 HAMMONDS MILLS ROAD","address2": "","city": "MARTINSBURG","state": "WV","zip": "25404","zip+4": "0000","phone": "3042743873","NPI": "     1881870210"}, 
{"id": 56434,"ncpdp": "5054692","pharmacy_name": "REEDS PHARMACY #4","address1": "5078 WILLIAMS PORT PIKE","address2": "STE A","city": "MARTINSBURG","state": "WV","zip": "25404","zip+4": "0000","phone": "3042746699","NPI": "     1134307036"}, 
{"id": 56435,"ncpdp": "5054705","pharmacy_name": "POCAHONTAS PHARMACY","address1": "105 DUNCAN RD","address2": "STE C","city": "MARLINTON","state": "WV","zip": "24954","zip+4": "0000","phone": "3047994944","NPI": "     1598935140"}, 
{"id": 56436,"ncpdp": "5054717","pharmacy_name": "CVS PHARMACY #01308","address1": "46 MIDDLEWAY PIKE","address2": "","city": "INWOOD","state": "WV","zip": "25428","zip+4": "0000","phone": "3042294318","NPI": "     1558532713"}, 
{"id": 56437,"ncpdp": "5054731","pharmacy_name": "MANCHIN FAMILY PHARMACY","address1": "181 MIDDLETOWN CIRCLE","address2": "","city": "FAIRMONT","state": "WV","zip": "26554","zip+4": "0000","phone": "3043679122","NPI": "     1689849804"}, 
{"id": 56438,"ncpdp": "5054743","pharmacy_name": "GREGGS PHARMACY","address1": "101 GREGG MEMORIAL DRIVE","address2": "","city": "TERRA ALTA","state": "WV","zip": "26764","zip+4": "0000","phone": "3047892200","NPI": "     1639344013"}, 
{"id": 56439,"ncpdp": "5054755","pharmacy_name": "WALGREENS #10876","address1": "323 S WALKER ST","address2": "","city": "PRINCETON","state": "WV","zip": "24740","zip+4": "2756","phone": "3044314967","NPI": "     1245407949"}, 
{"id": 56440,"ncpdp": "5054767","pharmacy_name": "HARTS PHARMACY INC","address1": "1073 MCCLELLAN HIGHWAY","address2": "","city": "HARTS","state": "WV","zip": "25524","zip+4": "0000","phone": "3048555616","NPI": "     1811156417"}, 
{"id": 56441,"ncpdp": "5054779","pharmacy_name": "KROGER PHARMACY #29765","address1": "180 RED OAKS SC","address2": "","city": "RONCEVERTE","state": "WV","zip": "24970","zip+4": "0000","phone": "3046450310","NPI": "     1972764355"}, 
{"id": 56442,"ncpdp": "5054781","pharmacy_name": "TOYOTA FAMILY PHARMACY #12939","address1": "1 SUGAR MAPLE LN","address2": "","city": "BUFFALO","state": "WV","zip": "25033","zip+4": "9430","phone": "3049377429","NPI": "     1659539922"}, 
{"id": 56443,"ncpdp": "5054793","pharmacy_name": "WALGREEN DRUG STORE #11677","address1": "101 FORBES DR","address2": "","city": "MARTINSBURG","state": "WV","zip": "25404","zip+4": "0002","phone": "3042624697","NPI": "     1861652562"}, 
{"id": 56444,"ncpdp": "5054806","pharmacy_name": "TRISTATE LTC PHARMACY","address1": "651 COLLIERS HWY","address2": "STE 202","city": "WEIRTON","state": "WV","zip": "26062","zip+4": "0000","phone": "3047230127","NPI": "     1972767515"}, 
{"id": 56445,"ncpdp": "5054818","pharmacy_name": "RITE AID PHARMACY #07938","address1": "74 JOSHUA M FREEMAN BOULEVARD","address2": "","city": "RANSON","state": "WV","zip": "25438","zip+4": "5694","phone": "3047287713","NPI": "     1609031913"}, 
{"id": 56446,"ncpdp": "5054820","pharmacy_name": "CLAY-BATTELLE PHARMACY","address1": "5851 MASON DIXON HWY","address2": "","city": "BLACKSVILLE","state": "WV","zip": "26521","zip+4": "0000","phone": "3044328268","NPI": "     1447407150"}, 
{"id": 56447,"ncpdp": "5054832","pharmacy_name": "REEDS PHARMACY #5","address1": "BEAR GARDEN PLAZA US ROUTE 50","address2": "STE 1 & 2","city": "CAPON BRIDGE","state": "WV","zip": "26711","zip+4": "0000","phone": "3042880076","NPI": "     1013171107"}, 
{"id": 56448,"ncpdp": "5054844","pharmacy_name": "WALGREENS #11978","address1": "2933 ROBERT C BYRD DRIVE","address2": "","city": "BECKLEY","state": "WV","zip": "25801","zip+4": "0000","phone": "3042520531","NPI": "     1255589503"}, 
{"id": 56449,"ncpdp": "5054856","pharmacy_name": "ENCORE RX","address1": "840 N JEFFERSON ST","address2": "STE A","city": "LEWISBURG","state": "WV","zip": "24901","zip+4": "0000","phone": "3047936315","NPI": "     1124277769"}, 
{"id": 56450,"ncpdp": "5054868","pharmacy_name": "JUDYS DRUG STORES","address1": "414 S MAIN ST","address2": "","city": "MOORFIELD","state": "WV","zip": "26836","zip+4": "0000","phone": "3045301044","NPI": "     1730337981"}, 
{"id": 56451,"ncpdp": "5054882","pharmacy_name": "RITE AID PHARMACY #07882","address1": "7916 WINCHESTER AVENUE","address2": "","city": "INWOOD","state": "WV","zip": "25428","zip+4": "0000","phone": "3042290935","NPI": "     1932359874"}, 
{"id": 56452,"ncpdp": "5054894","pharmacy_name": "WALGREENS # #11981","address1": "5870 WEBSTER RD.","address2": "","city": "SUMMERSVILLE","state": "WV","zip": "26651","zip+4": "0000","phone": "3048724394","NPI": "     1558514448"}, 
{"id": 56453,"ncpdp": "5054919","pharmacy_name": "WAL-MART PHARMACY 10- #2219","address1": "2500 CHEROKEE AVE SE","address2": "","city": "CHARLESTON","state": "WV","zip": "25304","zip+4": "0000","phone": "3043422169","NPI": "     1760636963"}, 
{"id": 56454,"ncpdp": "5054921","pharmacy_name": "EZ CARE","address1": "2107 PIKE STREET","address2": "STE 5","city": "PARKERSBURG","state": "WV","zip": "26101","zip+4": "0000","phone": "3044247200","NPI": "     1235316027"}, 
{"id": 56455,"ncpdp": "5054933","pharmacy_name": "WHITE HALL PHARMACY LLC","address1": "51 SOUTHLAND DRIVE","address2": "","city": "FAIRMONT","state": "WV","zip": "26554","zip+4": "0000","phone": "3043689355","NPI": "     1962647719"}, 
{"id": 56456,"ncpdp": "5054957","pharmacy_name": "WALGREENS # #12085","address1": "4006 ROBERT C BYRD DR","address2": "","city": "BECKLEY","state": "WV","zip": "25801","zip+4": "2204","phone": "3042520456","NPI": "     1477798122"}, 
{"id": 56457,"ncpdp": "5054969","pharmacy_name": "GAULEY RIVER PHARMACY","address1": "433 CRAIGSVILLE RD","address2": "SUITE 2","city": "CRAIGSVILLE","state": "WV","zip": "26205","zip+4": "0000","phone": "3047425001","NPI": "     1144466723"}, 
{"id": 56458,"ncpdp": "5054971","pharmacy_name": "MEDWOOD PHARMACY","address1": "200 RT 98 W","address2": "STE 105A","city": "NUTTER FORT","state": "WV","zip": "26301","zip+4": "0000","phone": "3046240974","NPI": "     1063667947"}, 
{"id": 56459,"ncpdp": "5054983","pharmacy_name": "RAINELLE PHARMACY, INC.","address1": "611 MAIN ST","address2": "","city": "RAINELLE","state": "WV","zip": "25962","zip+4": "0000","phone": "3044384005","NPI": "     1669610218"}, 
{"id": 56460,"ncpdp": "5054995","pharmacy_name": "CRAIGSVILLE HOMETOWN PHARMACY","address1": "18077 WEBSTER RD.","address2": "","city": "CRAIGSVILLE","state": "WV","zip": "26205","zip+4": "0000","phone": "3047426040","NPI": "     1194965376"}, 
{"id": 56461,"ncpdp": "5055000","pharmacy_name": "WALGREENS #11980","address1": "111 4TH AVE","address2": "","city": "HUNTINGTON","state": "WV","zip": "25701","zip+4": "1219","phone": "3045233502","NPI": "     1003057811"}, 
{"id": 56462,"ncpdp": "5055012","pharmacy_name": "DR MARIA TRANTO PLLC","address1": "3665 PENNA AVENUE","address2": "","city": "WEIRTON","state": "WV","zip": "26062","zip+4": "0000","phone": "3047234040","NPI": "     1114950276"}, 
{"id": 56463,"ncpdp": "5055024","pharmacy_name": "TARGET PHARMACY #2538","address1": "436 RETAIL COMMONS PKWY","address2": "","city": "MARTINSBURG","state": "WV","zip": "25403","zip+4": "6183","phone": "3042645201","NPI": "     1235364043"}, 
{"id": 56464,"ncpdp": "5055036","pharmacy_name": "WALGREENS # #12277","address1": "38 VICTORY AVE","address2": "","city": "GRAFTON","state": "WV","zip": "26354","zip+4": "1574","phone": "3042650926","NPI": "     1124253786"}, 
{"id": 56465,"ncpdp": "5055048","pharmacy_name": "WALGREENS # #12454","address1": "655 WASHINGTON ST W","address2": "","city": "CHARLESTON","state": "WV","zip": "25302","zip+4": "2037","phone": "3043421798","NPI": "     1588899140"}, 
{"id": 56466,"ncpdp": "5055074","pharmacy_name": "WALGREENS #12678","address1": "3000 TEAYS VALLEY RD","address2": "","city": "HURRICANE","state": "WV","zip": "25526","zip+4": "1373","phone": "3045621830","NPI": "     1124257613"}, 
{"id": 56467,"ncpdp": "5055086","pharmacy_name": "WALGREENS #11750","address1": "101 GOFF MOUNTAIN RD","address2": "","city": "CROSS LANES","state": "WV","zip": "25313","zip+4": "1410","phone": "3047690590","NPI": "     1902035454"}, 
{"id": 56468,"ncpdp": "5055098","pharmacy_name": "CVS PHARMACY # #04207","address1": "4205 MACCORKLE AVE","address2": "","city": "CHARLESTON","state": "WV","zip": "25304","zip+4": "0000","phone": "3049250786","NPI": "     1265663207"}, 
{"id": 59520,"ncpdp": "9000567","pharmacy_name": "FRUTH INC","address1": "RR 1 BOX 332","address2": "","city": "PT PLEASANT","state": "WV","zip": "25550","zip+4": "0000","phone": "3046751612","NPI": "     1114089414"}, 
