{"name": "PRESCRIPTION CENTER INC","address1": "2252 CORONADO ST","address2": "","city": "IDAHO FALLS","state": "ID","zip": "83404","zip+4": "0000","phone": "2085233360"}
{"name": "ROCKLAND PHARMACY","address1": "524 TYHEE AVE","address2": "","city": "AMERICAN FALLS","state": "ID","zip": "83211","zip+4": "1224","phone": "2082262411"}
{"name": "MEDICAL CLINIC PHARMACY","address1": "315 E ELM ST # SUITE150","address2": "SUITE150","city": "CALDWELL","state": "ID","zip": "83605","zip+4": "4895","phone": "2084591503"}
{"name": "PENNY WISE DRUG","address1": "802 CLEVELAND","address2": "","city": "CALDWELL","state": "ID","zip": "83605","zip+4": "0000","phone": "2084592134"}
{"name": "SAVON PHARMACY #102","address1": "715 12TH AVE S","address2": "","city": "NAMPA","state": "ID","zip": "83651","zip+4": "0000","phone": "2084663592"}
{"name": "B AND B DRUGAND FLY SHOP","address1": "2425 CHANNING WAY","address2": "","city": "IDAHO FALLS","state": "ID","zip": "83404","zip+4": "8012","phone": "2085232277"}
{"name": "FRED MEYER PHARMACY #701156","address1": "1555 NORTHGATE MILE","address2": "","city": "IDAHO FALLS","state": "ID","zip": "83401","zip+4": "0000","phone": "2085352553"}
{"name": "BEAR LAKE DRUG","address1": "836 WASHINGTON ST","address2": "","city": "MONTPELIER","state": "ID","zip": "83254","zip+4": "1488","phone": "2088471421"}
{"name": "WALLACE DRUG","address1": "44 S MAIN","address2": "","city": "ABERDEEN","state": "ID","zip": "83210","zip+4": "0841","phone": "2083974540"}
{"name": "CITY DRUG","address1": "511 MAIN ST","address2": "","city": "ASHTON","state": "ID","zip": "83420","zip+4": "0000","phone": "2086523932"}
{"name": "PHARMACY SHOP","address1": "69 N PINE ST","address2": "","city": "BLACKFOOT","state": "ID","zip": "83221","zip+4": "2053","phone": "2087853510"}
{"name": "SAV MOR DRUG OF BUHL","address1": "1109 MAIN ST","address2": "","city": "BUHL","state": "ID","zip": "83316","zip+4": "0000","phone": "2085434348"}
{"name": "WHEELERS PHARMACY","address1": "104 N MAIN","address2": "","city": "CASCADE","state": "ID","zip": "83611","zip+4": "0797","phone": "2083824204"}
{"name": "ARNZEN DRUG","address1": "429 MAIN ST","address2": "PO BOX 7","city": "COTTONWOOD","state": "ID","zip": "83522","zip+4": "0007","phone": "2089623401"}
{"name": "CORNER DRUG","address1": "10 SOUTH MAIN","address2": "","city": "DRIGGS","state": "ID","zip": "83422","zip+4": "0758","phone": "2083542334"}
{"name": "KENDRICK UNITED DRUGS","address1": "414 MAIN ST","address2": "","city": "GOODING","state": "ID","zip": "83330","zip+4": "1315","phone": "2089344000"}
{"name": "IRWIN DRUG INC","address1": "146 W MAIN ST","address2": "","city": "GRANGEVILLE","state": "ID","zip": "83530","zip+4": "1932","phone": "2089831090"}
{"name": "HYWAY DRUG","address1": "120 NORTHGATE MILE","address2": "","city": "IDAHO FALLS","state": "ID","zip": "83401","zip+4": "2599","phone": "2085228357"}
{"name": "ARNZENS KAMIAH DRUG","address1": "318 MAIN ST","address2": "","city": "KAMIAH","state": "ID","zip": "83536","zip+4": "0787","phone": "2089352301"}
{"name": "RED CROSS PHARMACY INC","address1": "509 E MAIN ST","address2": "","city": "KENDRICK","state": "ID","zip": "83537","zip+4": "0131","phone": "2082895941"}
{"name": "THE OWL PHARMACY","address1": "720 16TH AVE","address2": "","city": "LEWISTON","state": "ID","zip": "83501","zip+4": "3700","phone": "2087435528"}
{"name": "ORCHARDS PHARMACY","address1": "523 THAIN RD","address2": "","city": "LEWISTON","state": "ID","zip": "83501","zip+4": "5530","phone": "2087435515"}
{"name": "ALLEN DRUG","address1": "4 N MAIN ST","address2": "","city": "MALAD","state": "ID","zip": "83252","zip+4": "0000","phone": "2087662241"}
{"name": "MCCALL DRUG","address1": "1001 N 2ND ST","address2": "","city": "MCCALL","state": "ID","zip": "83638","zip+4": "0389","phone": "2086342433"}
{"name": "MARKETIME DRUG","address1": "209 E 3RD ST","address2": "","city": "MOSCOW","state": "ID","zip": "83843","zip+4": "2919","phone": "2088827541"}
{"name": "SAV MOR DRUG","address1": "490 N 2ND EAST","address2": "","city": "MOUNTAIN HOME","state": "ID","zip": "83647","zip+4": "0000","phone": "2085873346"}
{"name": "OSBURN DRUG","address1": "805 MULLAN AVE","address2": "","city": "OSBURN","state": "ID","zip": "83849","zip+4": "2060","phone": "2085561139"}
{"name": "MEDICAP PHARMACY #8391","address1": "107 EAST GROVE AVENUE","address2": "","city": "PARMA","state": "ID","zip": "83660","zip+4": "0000","phone": "2087225269"}
{"name": "FRED MEYER PHARMACY #701260","address1": "800 YELLOWSTONE HWY","address2": "","city": "POCATELLO","state": "ID","zip": "83201","zip+4": "0000","phone": "2082394033"}
{"name": "MAAG PRESCRIPTION AND MEDICAL","address1": "333 W CENTER ST","address2": "","city": "POCATELLO","state": "ID","zip": "83204","zip+4": "0000","phone": "2082332063"}
{"name": "LARRYS FAMILY HM PHARMACY","address1": "217 SOUTH STATE","address2": "","city": "PRESTON","state": "ID","zip": "83263","zip+4": "1243","phone": "2088520163"}
{"name": "IDAHO DRUG","address1": "139 E MAIN","address2": "","city": "RIGBY","state": "ID","zip": "83442","zip+4": "0000","phone": "2087456831"}
{"name": "MINIDOKA MEMORIAL HOSPITAL PHA","address1": "1224 8TH STREET","address2": "","city": "RUPERT","state": "ID","zip": "83350","zip+4": "1599","phone": "2084360481"}
{"name": "EASTMAN DRUG STORE","address1": "116 S MAIN ST","address2": "","city": "SODA SPRINGS","state": "ID","zip": "83276","zip+4": "1488","phone": "2085473585"}
{"name": "FALLS DRUG AND HARDWARE","address1": "23 N BRIDGE ST","address2": "","city": "SAINT ANTHONY","state": "ID","zip": "83445","zip+4": "0000","phone": "2086243202"}
{"name": "SAVMOR DRUG","address1": "139 MAIN AVE W","address2": "","city": "TWIN FALLS","state": "ID","zip": "83301","zip+4": "6194","phone": "2087338323"}
{"name": "PARK VU PHARMACY","address1": "604 E 3RD ST","address2": "","city": "WEISER","state": "ID","zip": "83672","zip+4": "2249","phone": "2084142750"}
{"name": "DICKS PHARMACY","address1": "526K SHOUP AVE W","address2": "","city": "TWIN FALLS","state": "ID","zip": "83301","zip+4": "5050","phone": "2087347373"}
{"name": "YOKES PHARMACY #5","address1": "117 N HILL STREET","address2": "","city": "KELLOGG","state": "ID","zip": "83837","zip+4": "0000","phone": "2087830920"}
{"name": "SAVON PHARMACY #138","address1": "590 E 17TH ST","address2": "","city": "IDAHO FALLS","state": "ID","zip": "83404","zip+4": "0000","phone": "2085231090"}
{"name": "SUNNYSIDE DRUG","address1": "131 W CAMERON AVE","address2": "","city": "KELLOGG","state": "ID","zip": "83837","zip+4": "0540","phone": "2087846221"}
{"name": "HILLS PHARMACY","address1": "1221 BROADWAY AVE","address2": "","city": "BOISE","state": "ID","zip": "83706","zip+4": "3797","phone": "2083448428"}
{"name": "RATHDRUM DRUG","address1": "16376 N HIGHWAY 41","address2": "","city": "RATHDRUM","state": "ID","zip": "83858","zip+4": "0000","phone": "2086870731"}
{"name": "KURTS PHARMACY","address1": "1203 FILER AVE E","address2": "","city": "TWIN FALLS","state": "ID","zip": "83301","zip+4": "4118","phone": "2087348177"}
{"name": "BINGHAM MEMORIAL HOSPITAL PHCY","address1": "98 POPLAR ST","address2": "","city": "BLACKFOOT","state": "ID","zip": "83221","zip+4": "0000","phone": "2087853866"}
{"name": "MEDICINE MAN PHARMACY INC","address1": "1114 W IRONWOOD DR","address2": "","city": "COEUR D ALENE","state": "ID","zip": "83814","zip+4": "2605","phone": "2086662502"}
{"name": "KMART PHARMACY #3298","address1": "10477 FAIRVIEW AVE","address2": "","city": "BOISE","state": "ID","zip": "83704","zip+4": "0000","phone": "2083775153"}
{"name": "WENDELL PHARMACY","address1": "280 S IDAHO ST","address2": "","city": "WENDELL","state": "ID","zip": "83355","zip+4": "0000","phone": "2085365761"}
{"name": "KMART PHARMACY #7057","address1": "3945 POLE LINE RD","address2": "","city": "POCATELLO","state": "ID","zip": "83201","zip+4": "0000","phone": "2082375501"}
{"name": "KMART PHARMACY #7033","address1": "181521ST ST","address2": "","city": "LEWISTON","state": "ID","zip": "83501","zip+4": "0000","phone": "2087460579"}
{"name": "KMART PHARMACY #7006","address1": "2258 ADDISON AVE EAST","address2": "","city": "TWIN FALLS","state": "ID","zip": "83301","zip+4": "0000","phone": "2087340730"}
{"name": "KMART PHARMACY #3189","address1": "1813 CALDWELL BLVD","address2": "","city": "NAMPA","state": "ID","zip": "83651","zip+4": "0000","phone": "2084664521"}
{"name": "RITE AID PHARMACY #05419","address1": "660 EAST BOISE AVENUE","address2": "","city": "BOISE","state": "ID","zip": "83706","zip+4": "5199","phone": "2083368340"}
{"name": "RITE AID PHARMACY #05415","address1": "10600 FAIRVIEW AVENUE","address2": "","city": "BOISE","state": "ID","zip": "83713","zip+4": "8065","phone": "2083220962"}
{"name": "RITE AID PHARMACY #05417","address1": "5005 WEST OVERLAND ROAD","address2": "","city": "BOISE","state": "ID","zip": "83705","zip+4": "2633","phone": "2083891448"}
{"name": "RITE AID PHARMACY #05408","address1": "1904 19TH AVENUE","address2": "","city": "LEWISTON","state": "ID","zip": "83501","zip+4": "4095","phone": "2087439127"}
{"name": "KMART PHARMACY #9630","address1": "125 VALLEY RIVER DRIVE","address2": "","city": "REXBURG","state": "ID","zip": "83440","zip+4": "0000","phone": "2083568181"}
{"name": "KOHAL PHARMACY AND MEDICAL SUP","address1": "504 N DIVISION","address2": "","city": "PINEHURST","state": "ID","zip": "83850","zip+4": "0000","phone": "2086823920"}
{"name": "JACKS PHARMACY INC","address1": "103 E COLLEGE AVE","address2": "","city": "ST MARIES","state": "ID","zip": "83861","zip+4": "2297","phone": "2082454578"}
{"name": "GLENWOOD PHARMACY","address1": "1105 MICHIGAN AVE","address2": "","city": "OROFINO","state": "ID","zip": "83544","zip+4": "0000","phone": "2084765727"}
{"name": "SMITHS PHARMACY #35 #706035","address1": "1913 ADDISON AVE EAST","address2": "","city": "TWIN FALLS","state": "ID","zip": "83301","zip+4": "0000","phone": "2087344581"}
{"name": "PRESTON DRUG INC","address1": "39 N 1ST E","address2": "","city": "PRESTON","state": "ID","zip": "83263","zip+4": "1325","phone": "2088521563"}
{"name": "SMITHS PHARMACY #61 #706061","address1": "4845 YELLOWSTONE AVE","address2": "","city": "CHUBBUCK","state": "ID","zip": "83202","zip+4": "0000","phone": "2082373900"}
{"name": "RICKS COLLEGE STUDENT HLTH CTR","address1": "179 STUDENT HLTH CNTR","address2": "","city": "REXBURG","state": "ID","zip": "83460","zip+4": "0000","phone": "2084963429"}
{"name": "SAVON PHARMACY #101","address1": "1650 W STATE ST","address2": "","city": "BOISE","state": "ID","zip": "83702","zip+4": "0000","phone": "2083448660"}
{"name": "SANDPOINT SUPER DRUG","address1": "604 N 5TH AVE","address2": "","city": "SANDPOINT","state": "ID","zip": "83864","zip+4": "0000","phone": "2082631408"}
{"name": "SAVON PHARMACY #193","address1": "1653 S VISTA AVE","address2": "","city": "BOISE","state": "ID","zip": "83705","zip+4": "0000","phone": "2083313007"}
{"name": "SAVON PHARMACY #238","address1": "1024 21ST ST","address2": "","city": "LEWISTON","state": "ID","zip": "83501","zip+4": "0000","phone": "2087431529"}
{"name": "MEDICINE SHOPPE #0517","address1": "50 SOUTH SECOND WEST","address2": "","city": "REXBURG","state": "ID","zip": "83440","zip+4": "1819","phone": "2083564481"}
{"name": "JOHNS MEDIC PHARMACY","address1": "523 11TH AVE N","address2": "","city": "NAMPA","state": "ID","zip": "83687","zip+4": "3442","phone": "2084662431"}
{"name": "REDDISH PHARMACY","address1": "215 E HAWAII AVE","address2": "STE 100","city": "NAMPA","state": "ID","zip": "83686","zip+4": "6011","phone": "2084667823"}
{"name": "SAVON PHARMACY #159","address1": "330 E BENTON","address2": "","city": "POCATELLO","state": "ID","zip": "83201","zip+4": "0000","phone": "2082330651"}
{"name": "MIKES PHARMACY","address1": "180 S HOLMES AVE","address2": "","city": "IDAHO FALLS","state": "ID","zip": "83401","zip+4": "0000","phone": "2085258700"}
{"name": "TETON PHARMACY","address1": "3101 VALENCIA DR","address2": "","city": "IDAHO FALLS","state": "ID","zip": "83404","zip+4": "0000","phone": "2085293636"}
{"name": "FRED MEYER PHARMACY #701449","address1": "5425 CHINDEN BLVD","address2": "","city": "GARDEN CITY","state": "ID","zip": "83714","zip+4": "0000","phone": "2083237036"}
{"name": "FRED MEYER PHARMACY #701226","address1": "50 SECOND STREET SOUTH","address2": "","city": "NAMPA","state": "ID","zip": "83651","zip+4": "0000","phone": "2084652836"}
{"name": "MEDICINE MAN WEST PHARMACY","address1": "802 E MEDICAL CT","address2": "","city": "POST FALLS","state": "ID","zip": "83854","zip+4": "0000","phone": "2087733566"}
{"name": "SHOPKO PHARMACY #65","address1": "8105 FAIRVIEW AVE","address2": "","city": "BOISE","state": "ID","zip": "83704","zip+4": "8486","phone": "2083239297"}
{"name": "SHOPKO PHARMACY #68","address1": "800 E 17TH ST","address2": "","city": "IDAHO FALLS","state": "ID","zip": "83404","zip+4": "6151","phone": "2085223572"}
{"name": "SHOPKO PHARMACY #64","address1": "2100 CALDWELL BLVD","address2": "","city": "NAMPA","state": "ID","zip": "83651","zip+4": "1510","phone": "2084669616"}
{"name": "SHOPKO PHARMACY #63","address1": "4215 YELLOWSTONE AVE","address2": "","city": "CHUBBUCK","state": "ID","zip": "83202","zip+4": "2419","phone": "2082376828"}
{"name": "SHOPKO PHARMACY #67","address1": "1649 POLELINE RD E","address2": "","city": "TWIN FALLS","state": "ID","zip": "83301","zip+4": "3592","phone": "2087343791"}
{"name": "THE DRUG STORE","address1": "91 E CROY","address2": "","city": "HAILEY","state": "ID","zip": "83333","zip+4": "2700","phone": "2087889714"}
{"name": "SHOPKO PHARMACY #69","address1": "217 W IRONWOOD DR","address2": "","city": "COEUR D ALENE","state": "ID","zip": "83814","zip+4": "2651","phone": "2087659586"}
{"name": "SAVON PHARMACY #160","address1": "10500 OVERLAND RD","address2": "","city": "BOISE","state": "ID","zip": "83709","zip+4": "0000","phone": "2083761382"}
{"name": "SAVON PHARMACY #161","address1": "10700 USTICK RD","address2": "","city": "BOISE","state": "ID","zip": "83713","zip+4": "0000","phone": "2083227788"}
{"name": "SHOPKO PHARMACY #72","address1": "2120 THAIN GRADE","address2": "","city": "LEWISTON","state": "ID","zip": "83501","zip+4": "4105","phone": "2087461044"}
{"name": "RITE AID PHARMACY #05418","address1": "1100 VISTA AVENUE","address2": "","city": "BOISE","state": "ID","zip": "83705","zip+4": "2429","phone": "2083442529"}
{"name": "RITE AID PHARMACY #05413","address1": "1515 WEST STATE STREET","address2": "","city": "BOISE","state": "ID","zip": "83702","zip+4": "4096","phone": "2083457684"}
{"name": "RITE AID PHARMACY #05414","address1": "7020 WEST STATE STREET","address2": "","city": "BOISE","state": "ID","zip": "83703","zip+4": "2298","phone": "2088533503"}
{"name": "ED SNELLS PHARMACY SHOP","address1": "1015 E YOUNG ST","address2": "","city": "POCATELLO","state": "ID","zip": "83201","zip+4": "0000","phone": "2082320049"}
{"name": "INTERLAKE PHARMACY","address1": "700 IRONWOOD DR","address2": "STE 100","city": "COEUR D ALENE","state": "ID","zip": "83814","zip+4": "0000","phone": "2086646664"}
{"name": "VICS FAMILY PHARMACY INC #1","address1": "1603 12TH AVE RD STE A","address2": "","city": "NAMPA","state": "ID","zip": "83686","zip+4": "6102","phone": "2084657000"}
{"name": "SAVON PHARMACY #165","address1": "528 N MAIN ST","address2": "","city": "MOUNTAIN HOME","state": "ID","zip": "83647","zip+4": "0000","phone": "2085873365"}
{"name": "SAVON PHARMACY #166","address1": "2500 BLAINE ST","address2": "","city": "CALDWELL","state": "ID","zip": "83605","zip+4": "0000","phone": "2084540484"}
{"name": "RIDLEYS FOOD AND DRUG #8444","address1": "652 E FIRST ST","address2": "","city": "WEISER","state": "ID","zip": "83672","zip+4": "2241","phone": "2085490172"}
{"name": "PAULS PHARMACY","address1": "407 12TH AVE RD","address2": "","city": "NAMPA","state": "ID","zip": "83686","zip+4": "5016","phone": "2084673913"}
{"name": "RIDLEYS PHARMACY #8443","address1": "1016 S LINCOLN","address2": "","city": "JEROME","state": "ID","zip": "83338","zip+4": "0000","phone": "2083242411"}
{"name": "RIDLEYS PHARMACY #8447","address1": "310 ONEIDA ST","address2": "","city": "RUPERT","state": "ID","zip": "83350","zip+4": "1756","phone": "2084361200"}
{"name": "NORTHWEST PHARMACY SERVICES","address1": "525 PINE ST","address2": "","city": "POTLATCH","state": "ID","zip": "83855","zip+4": "0657","phone": "2088751212"}
{"name": "SMITHS PHARMACY #121 #706121","address1": "400 SOUTH WOODRUFF","address2": "","city": "IDAHO FALLS","state": "ID","zip": "83401","zip+4": "0000","phone": "2085295300"}
{"name": "SHOPKO PHARMACY #95","address1": "2655 BROADWAY AVE","address2": "","city": "BOISE","state": "ID","zip": "83706","zip+4": "4721","phone": "2083458728"}
{"name": "SAVON PHARMACY #168","address1": "405 S 8TH ST","address2": "","city": "PAYETTE","state": "ID","zip": "83661","zip+4": "0000","phone": "2086429331"}
{"name": "RITE AID PHARMACY #05412","address1": "1600 NORTH MAIN STREET","address2": "MERIDIAN PLAZA","city": "MERIDIAN","state": "ID","zip": "83642","zip+4": "1709","phone": "2088887311"}
{"name": "NORTHWEST VALUE","address1": "13010 HIGHWAY 12","address2": "","city": "OROFINO","state": "ID","zip": "83544","zip+4": "0000","phone": "2084764145"}
{"name": "MEDICINE MAN NORTH PHARMACY","address1": "305 W KATHLEEN AVE","address2": "","city": "COEUR D ALENE","state": "ID","zip": "83815","zip+4": "0000","phone": "2087652268"}
{"name": "SAVON PHARMACY #154","address1": "1520 N COLE RD","address2": "","city": "BOISE","state": "ID","zip": "83704","zip+4": "0000","phone": "2083758386"}
{"name": "SMITHS PHARMACY #123 #706123","address1": "937 E MAIN ST","address2": "","city": "BURLEY","state": "ID","zip": "83318","zip+4": "0000","phone": "2086783286"}
{"name": "KMART PHARMACY #7207","address1": "W 201 NEIDER ROAD","address2": "","city": "COEUR D ALENE","state": "ID","zip": "83815","zip+4": "0000","phone": "2087650245"}
{"name": "BENEWAH MEDICAL CENTER PHCY","address1": "1115 B ST","address2": "","city": "PLUMMER","state": "ID","zip": "83851","zip+4": "0000","phone": "2086861007"}
{"name": "SAVON PHARMACY #162","address1": "5100 OVERLAND RD","address2": "","city": "BOISE","state": "ID","zip": "83705","zip+4": "0000","phone": "2083431696"}
{"name": "SAFEWAY #3295","address1": "NORTH 1001 4TH ST","address2": "","city": "COEUR DALENE","state": "ID","zip": "83814","zip+4": "0000","phone": "2086673860"}
{"name": "KMART PHARMACY #4748","address1": "3101 EAST 17TH ST","address2": "","city": "AMMON","state": "ID","zip": "83406","zip+4": "0000","phone": "2085224824"}
{"name": "WELL LIFE POST FALLS PHARMACY","address1": "1501 E SELTICE WAY","address2": "","city": "POST FALLS","state": "ID","zip": "83854","zip+4": "7531","phone": "2087732499"}
{"name": "MEDICINE MAN HAYDEN PHARMACY","address1": "240 W HAYDEN","address2": "","city": "HAYDEN","state": "ID","zip": "83835","zip+4": "0000","phone": "2087723311"}
{"name": "NORTHERN IDAHO INDIAN HEALTH","address1": "111 BEAVER GRADE RD","address2": "","city": "LAPWAI","state": "ID","zip": "83540","zip+4": "0000","phone": "2088432271"}
{"name": "COSTCO PHARMACY #761","address1": "2051 S COLE RD","address2": "","city": "BOISE","state": "ID","zip": "83709","zip+4": "0000","phone": "2083238707"}
{"name": "SAVON PHARMACY #126","address1": "640 HWY 16","address2": "","city": "EMMETT","state": "ID","zip": "83617","zip+4": "0000","phone": "2083654128"}
{"name": "SAFEWAY #0350","address1": "702 N 5TH AVE","address2": "","city": "SANDPOINT","state": "ID","zip": "83864","zip+4": "0000","phone": "2082638923"}
{"name": "RITE AID PHARMACY #05421","address1": "1810 WEST PULLMAN ROAD","address2": "PALOUSE EMPIRE MALL","city": "MOSCOW","state": "ID","zip": "83843","zip+4": "4014","phone": "2088823583"}
{"name": "RITE AID PHARMACY #05420","address1": "208 WEST IRONWOOD DRIVE","address2": "IRONWOOD SQUARE","city": "COEUR D ALENE","state": "ID","zip": "83814","zip+4": "2640","phone": "2086643185"}
{"name": "SAVON PHARMACY #169","address1": "909 E PARKCENTER BLVD","address2": "","city": "BOISE","state": "ID","zip": "83706","zip+4": "0000","phone": "2083383722"}
{"name": "WAL-MART PHARMACY #101900","address1": "385 NORTH OVERLAND AVENUE","address2": "","city": "BURLEY","state": "ID","zip": "83318","zip+4": "0000","phone": "2086774804"}
{"name": "WAL-MART PHARMACY #101878","address1": "530 NORTH 2ND EAST","address2": "","city": "REXBURG","state": "ID","zip": "83440","zip+4": "0000","phone": "2083592814"}
{"name": "WAL-MART PHARMACY #101905","address1": "565 JENSEN GROVE DR.","address2": "","city": "BLACKFOOT","state": "ID","zip": "83221","zip+4": "0000","phone": "2087850277"}
{"name": "WAL-MART PHARMACY #101870","address1": "2470 WEST PULLMAN ROAD","address2": "","city": "MOSCOW","state": "ID","zip": "83843","zip+4": "0000","phone": "2088825886"}
{"name": "WAL-MART PHARMACY #101902","address1": "1201 SO. 25TH EAST","address2": "","city": "AMMON","state": "ID","zip": "83406","zip+4": "0000","phone": "2085222866"}
{"name": "COSTCO PHARMACY #145","address1": "731 POLE LINE DRIVE","address2": "","city": "TWIN FALLS","state": "ID","zip": "83301","zip+4": "0000","phone": "2087361725"}
{"name": "SAVON PHARMACY #156","address1": "7100 W STATE ST","address2": "","city": "BOISE","state": "ID","zip": "83714","zip+4": "0000","phone": "2088532606"}
{"name": "WAL-MART PHARMACY #102006","address1": "2981 THAIN GRADE","address2": "","city": "LEWISTON","state": "ID","zip": "83501","zip+4": "0000","phone": "2087468706"}
{"name": "RITE AID PHARMACY #05409","address1": "2809 EAST CLEVELAND BOULEVARD","address2": "","city": "CALDWELL","state": "ID","zip": "83605","zip+4": "4443","phone": "2084551094"}
{"name": "WAL-MART PHARMACY #101995","address1": "4240 YELLOWSTONE AVE","address2": "","city": "CHUBBUCK","state": "ID","zip": "83202","zip+4": "0000","phone": "2082375091"}
{"name": "ST LUKES REG MED CTR OUTPATIEN","address1": "190 E BANNOCK ST","address2": "","city": "BOISE","state": "ID","zip": "83712","zip+4": "6298","phone": "2083814354"}
{"name": "ROSAUERS PHARMACY #9","address1": "411 N MAIN ST","address2": "","city": "MOSCOW","state": "ID","zip": "83843","zip+4": "1647","phone": "2088820900"}
{"name": "ROSAUERS PHARMACY #33","address1": "3320 THAIN RD","address2": "","city": "LEWISTON","state": "ID","zip": "83501","zip+4": "5337","phone": "2087436511"}
{"name": "SAVON PHARMACY #164","address1": "20 E FAIRVIEW","address2": "","city": "MERIDIAN","state": "ID","zip": "83642","zip+4": "0000","phone": "2088884414"}
{"name": "OWL CONTRACTED PRESCRIPTION SE","address1": "720 16TH AVE","address2": "STE 2","city": "LEWISTON","state": "ID","zip": "83501","zip+4": "0000","phone": "2087466755"}
{"name": "HOME LIVING SERVICES INC #001","address1": "436 E BONNEVILLE ST","address2": "","city": "POCATELLO","state": "ID","zip": "83201","zip+4": "0000","phone": "2082333466"}
{"name": "FRED MEYER PHARMACY #701439","address1": "10751 W OVERLAND ROAD","address2": "","city": "BOISE","state": "ID","zip": "83709","zip+4": "0000","phone": "2083735233"}
{"name": "SAFEWAY #3286","address1": "7168 1ST STREET","address2": "","city": "BONNERS FERRY","state": "ID","zip": "83805","zip+4": "0000","phone": "2082672301"}
{"name": "BROULIMS PHARMACY #1","address1": "150 N STATE","address2": "","city": "RIGBY","state": "ID","zip": "83442","zip+4": "0000","phone": "2087450267"}
{"name": "SAVON PHARMACY #103","address1": "415 CLEVELAND BLVD","address2": "","city": "CALDWELL","state": "ID","zip": "83605","zip+4": "0000","phone": "2084591756"}
{"name": "KOHAL PHARMACY #2","address1": "740 MCKINLEY AVE","address2": "STE B","city": "KELLOGG","state": "ID","zip": "83837","zip+4": "2523","phone": "2087869303"}
{"name": "CORAM SPECIALTY INFUSION SERVI","address1": "11660 W EXECUTIVE DR","address2": "","city": "BOISE","state": "ID","zip": "83713","zip+4": "0000","phone": "2083230303"}
{"name": "RIDLEYS PHARMACY #8445","address1": "1427 MAIN ST","address2": "","city": "GOODING","state": "ID","zip": "83330","zip+4": "1839","phone": "2089344709"}
{"name": "SAVON PHARMACY #176","address1": "2400 12TH AVE RD","address2": "","city": "NAMPA","state": "ID","zip": "83686","zip+4": "0000","phone": "2084632903"}
{"name": "SAVON PHARMACY #174","address1": "1901 S 2500 E","address2": "","city": "AMMON","state": "ID","zip": "83406","zip+4": "0000","phone": "2085241616"}
{"name": "MEDICINE MAN SW PHCY","address1": "805 E POLSTON AVE","address2": "","city": "POST FALLS","state": "ID","zip": "83854","zip+4": "0000","phone": "2087777732"}
{"name": "MEDNOW EAGLE PHARMACY #300","address1": "323 E RIVERSIDE DR","address2": "STE 120","city": "EAGLE","state": "ID","zip": "83616","zip+4": "0000","phone": "2089382136"}
{"name": "MED NOW ER PHARMACY #305","address1": "1512 12TH AVE RD","address2": "","city": "NAMPA","state": "ID","zip": "83686","zip+4": "0000","phone": "2084635355"}
{"name": "SAFEWAY #1470","address1": "121 NEIDER AVENUE","address2": "","city": "COEUR DALENE","state": "ID","zip": "83814","zip+4": "0000","phone": "2087654410"}
{"name": "ST LUKES MERIDIAN MEDICAL CTR","address1": "520 S EAGLE RD","address2": "STE 1000","city": "MERIDIAN","state": "ID","zip": "83642","zip+4": "0000","phone": "2087065255"}
{"name": "FRED MEYER PHARMACY #701198","address1": "1850 EAST FAIRVIEW AVENUE","address2": "","city": "MERIDIAN","state": "ID","zip": "83642","zip+4": "0000","phone": "2088875273"}
{"name": "WAL-MART PHARMACY #102485","address1": "476999 HIGHWAY 95 NORTH","address2": "","city": "PONDERAY","state": "ID","zip": "83852","zip+4": "0000","phone": "2082654490"}
{"name": "FRED MEYER PHARMACY #701383","address1": "705 BLUE LAKES BLVD","address2": "","city": "TWIN FALLS","state": "ID","zip": "83301","zip+4": "0000","phone": "2087365373"}
{"name": "SAVON PHARMACY #180","address1": "3301 W CHERRY LN","address2": "","city": "MERIDIAN","state": "ID","zip": "83642","zip+4": "0000","phone": "2088845475"}
{"name": "SAVON PHARMACY #182","address1": "250 S EAGLE RD","address2": "","city": "EAGLE","state": "ID","zip": "83616","zip+4": "0000","phone": "2089399854"}
{"name": "SAFEWAY #0383","address1": "1320 BLAINE ST","address2": "","city": "MOSCOW","state": "ID","zip": "83843","zip+4": "0000","phone": "2088822663"}
{"name": "RITE AID PHARMACY #05410","address1": "451 DEINHARD LN","address2": "THE MARKETPLACE AT MCCALL","city": "MCCALL","state": "ID","zip": "83638","zip+4": "4800","phone": "2086344929"}
{"name": "WELL LIFE BOUNDARY PHARMACY","address1": "6519 MAIN ST","address2": "STE 303","city": "BONNERS FERRY","state": "ID","zip": "83805","zip+4": "0000","phone": "2082674004"}
{"name": "BOBS PHARMACY #4018","address1": "500 S 11TH","address2": "","city": "POCATELLO","state": "ID","zip": "83201","zip+4": "0000","phone": "2082391179"}
{"name": "WAL-MART PHARMACY #102508","address1": "8300 W OVERLAND RD","address2": "","city": "BOISE","state": "ID","zip": "83709","zip+4": "0000","phone": "2083219080"}
{"name": "FRED MEYER PHARMACY #701049","address1": "560 WEST KATHLEEN","address2": "","city": "COUER D ALENE","state": "ID","zip": "83814","zip+4": "0000","phone": "2086654733"}
{"name": "SUPERIOR CARE PHARMACY IDAHO","address1": "320 E CORPORATE DR","address2": "SUITE 320","city": "MERIDIAN","state": "ID","zip": "83642","zip+4": "0000","phone": "2088958399"}
{"name": "BROULINS PHARMACY","address1": "89 WEST 2ND ST SOUTH","address2": "","city": "SODA SPRINGS","state": "ID","zip": "83276","zip+4": "0000","phone": "2085473300"}
{"name": "SAVON PHARMACY #254","address1": "197 W PRAIRIE AVE","address2": "","city": "HAYDEN","state": "ID","zip": "83835","zip+4": "0000","phone": "2087727864"}
{"name": "PAULS PHARMACY #10","address1": "700 E AVALON","address2": "","city": "KUNA","state": "ID","zip": "83634","zip+4": "0000","phone": "2089229836"}
{"name": "YOKES PHARMACY #4","address1": "212 BONNER MALL WAY","address2": "","city": "PONDERAY","state": "ID","zip": "83852","zip+4": "0000","phone": "2082658066"}
{"name": "VICS FAMILY PHARMACY INC #2","address1": "173 W 4TH STREET","address2": "","city": "KUNA","state": "ID","zip": "83634","zip+4": "0000","phone": "2089224400"}
{"name": "MEDICINE MAN PHARMACY","address1": "8093 CORNERSTONE DR","address2": "","city": "HAYDEN","state": "ID","zip": "83835","zip+4": "0000","phone": "2087629355"}
{"name": "BROULIMS PHARMACY #6","address1": "124 W MAIN ST","address2": "","city": "REXBURG","state": "ID","zip": "83440","zip+4": "0000","phone": "2083565416"}
{"name": "RITE AID PHARMACY #06200","address1": "43 WEST PRAIRIE SHOPPING CENTE","address2": "","city": "HAYDEN","state": "ID","zip": "83835","zip+4": "9854","phone": "2087722774"}
{"name": "MEDICAL OFFICE PHARMACY","address1": "630 ADDISON AVE W","address2": "SUITE 120","city": "TWIN FALLS","state": "ID","zip": "83301","zip+4": "0000","phone": "2087372620"}
{"name": "HEARTLAND FLOTO PHARMACY #0577","address1": "3320 N MILWAUKEE ST","address2": "STE 100","city": "BOISE","state": "ID","zip": "83704","zip+4": "0000","phone": "2083236777"}
{"name": "OWL VALLEY MED PHCY","address1": "2315 8TH ST GRADE","address2": "","city": "LEWISTON","state": "ID","zip": "83501","zip+4": "0000","phone": "2087501444"}
{"name": "SAVON PHARMACY #119","address1": "1219 BROADWAY AVE","address2": "","city": "BOISE","state": "ID","zip": "83706","zip+4": "0000","phone": "2084339905"}
{"name": "MEDNOW FRUITLAND PHARMACY #310","address1": "1118 NW 16TH ST","address2": "","city": "FRUITLAND","state": "ID","zip": "83619","zip+4": "0000","phone": "2084526506"}
{"name": "LOST RIVER DRUG","address1": "210 W GRAND AVE","address2": "","city": "ARCO","state": "ID","zip": "83213","zip+4": "0000","phone": "2085278201"}
{"name": "MEDNOW MERCY NORTH PHARMACY #3","address1": "4400 FLAMINGO AVE E","address2": "","city": "NAMPA","state": "ID","zip": "83687","zip+4": "0000","phone": "2082884660"}
{"name": "SAVON PHARMACY #184","address1": "6560 S FEDERAL WAY","address2": "","city": "BOISE","state": "ID","zip": "83716","zip+4": "0000","phone": "2084291088"}
{"name": "SAVON PHARMACY #189","address1": "3614 W STATE ST","address2": "","city": "BOISE","state": "ID","zip": "83703","zip+4": "0000","phone": "2084269639"}
{"name": "HOMEDALE DRUG","address1": "5 N MAIN","address2": "","city": "HOMEDALE","state": "ID","zip": "83628","zip+4": "0000","phone": "2083373898"}
{"name": "WALGREEN DRUG STORE #4942","address1": "8100 W FAIRVIEW AVE","address2": "","city": "BOISE","state": "ID","zip": "83704","zip+4": "0000","phone": "2083757899"}
{"name": "WALGREEN DRUG STORE #5185","address1": "4924 OVERLAND DRIVE","address2": "","city": "BOISE","state": "ID","zip": "83705","zip+4": "0000","phone": "2083361685"}
{"name": "SHOPKO PHARMACY #169","address1": "3499 E FAIRVIEW AVE","address2": "","city": "MERIDIAN","state": "ID","zip": "83642","zip+4": "5848","phone": "2088841286"}
{"name": "SAVON PHARMACY #177","address1": "4700 N EAGLE RD","address2": "","city": "BOISE","state": "ID","zip": "83713","zip+4": "0000","phone": "2089395149"}
{"name": "WALGREEN DRUG STORE #5184","address1": "10580 W USTICK RD","address2": "","city": "BOISE","state": "ID","zip": "83704","zip+4": "0000","phone": "2083774166"}
{"name": "WALGREEN DRUG STORE #5565","address1": "10555 W OVERLAND RD","address2": "","city": "BOISE","state": "ID","zip": "83709","zip+4": "0000","phone": "2083212644"}
{"name": "WALGREEN DRUG STORE #5648","address1": "700 12TH AVE S","address2": "","city": "NAMPA","state": "ID","zip": "83651","zip+4": "0000","phone": "2084671380"}
{"name": "WALGREEN DRUG STORE #5839","address1": "535 EAST 17TH ST","address2": "","city": "IDAHO FALLS","state": "ID","zip": "83401","zip+4": "0000","phone": "2085424550"}
{"name": "RIDLEYS PHARMACY #8442","address1": "206 E MAIN","address2": "","city": "MIDDLETON","state": "ID","zip": "83644","zip+4": "0000","phone": "2085852900"}
{"name": "MEDICINE MAN RATHDRUM PHARMACY","address1": "15837 N WESTWOOD DR","address2": "","city": "RATHDRUM","state": "ID","zip": "83858","zip+4": "0000","phone": "2086875717"}
{"name": "WAL-MART PHARMACY #102780","address1": "5108 EAST CLEVELAND BLVD","address2": "","city": "CALDWELL","state": "ID","zip": "83607","zip+4": "0000","phone": "2084550800"}
{"name": "WAL-MART PHARMACY #102781","address1": "2100 12TH AVENUE ROAD","address2": "","city": "NAMPA","state": "ID","zip": "83686","zip+4": "0000","phone": "2084675159"}
{"name": "WAL-MART PHARMACY #102782","address1": "2745 AMERICAN LEGION BLVD.","address2": "","city": "MOUNTAIN HOME","state": "ID","zip": "83647","zip+4": "0000","phone": "2085870861"}
{"name": "WAL-MART PHARMACY #102831","address1": "2680 SOUTH LINCOLN","address2": "","city": "JEROME","state": "ID","zip": "83338","zip+4": "0000","phone": "2083244700"}
{"name": "RIDLEYS PHARMACY #7152","address1": "911 N MAIN ST","address2": "","city": "POCATELLO","state": "ID","zip": "83204","zip+4": "0000","phone": "2084788510"}
{"name": "PAULS PHARMACY #5","address1": "425 N 10TH AVE","address2": "","city": "CALDWELL","state": "ID","zip": "83605","zip+4": "0000","phone": "2084541111"}
{"name": "WALGREEN DRUG STORE #6200","address1": "1570 FAIRVIEW AVE E","address2": "","city": "MERIDIAN","state": "ID","zip": "83642","zip+4": "0000","phone": "2088879225"}
{"name": "WALGREEN DRUG STORE #6380","address1": "905 YELLOWSTONE","address2": "","city": "POCATELLO","state": "ID","zip": "83201","zip+4": "0000","phone": "2082332045"}
{"name": "WAL-MART PHARMACY #102862","address1": "4051 EAST FAIRVIEW AVE.","address2": "","city": "MERIDIAN","state": "ID","zip": "83642","zip+4": "0000","phone": "2083730024"}
{"name": "FRED MEYER PHARMACY #701613","address1": "3527 FEDERAL WAY","address2": "","city": "BOISE","state": "ID","zip": "83705","zip+4": "0000","phone": "2084247533"}
{"name": "SAMS PHARMACY #106345","address1": "700 EAST 17TH STREET","address2": "","city": "IDAHO FALLS","state": "ID","zip": "83401","zip+4": "0000","phone": "2085230831"}
{"name": "HEARTLAND PHARAMCY","address1": "1790 SABIN DR","address2": "","city": "IDAHO FALLS","state": "ID","zip": "83406","zip+4": "0000","phone": "2085527677"}
{"name": "FRED MEYER PHARMACY #701662","address1": "5230 W FRANKLIN","address2": "","city": "BOISE","state": "ID","zip": "83706","zip+4": "0000","phone": "2084296433"}
{"name": "WAL-MART PHARMACY #103472","address1": "3050 EAST MULLAN AVENUE","address2": "","city": "POST FALLS","state": "ID","zip": "83854","zip+4": "0000","phone": "2087774502"}
{"name": "CUSTOMEDICA PHARMACY","address1": "700 E STATE ST","address2": "SUITE 200","city": "EAGLE","state": "ID","zip": "83616","zip+4": "0000","phone": "2089398008"}
{"name": "SAVON PHARMACY #130","address1": "911 MAIN ST N","address2": "","city": "HAILEY","state": "ID","zip": "83333","zip+4": "0000","phone": "2087886713"}
{"name": "WALGREEN DRUG STORE #6971","address1": "2285 S APPLE ST","address2": "","city": "BOISE","state": "ID","zip": "83706","zip+4": "0000","phone": "2083360377"}
{"name": "RIDLEYS PHARMACY #8446","address1": "105 E US HWY 30","address2": "","city": "BUHL","state": "ID","zip": "83316","zip+4": "0000","phone": "2085439944"}
{"name": "WAL-MART PHARMACY #102861","address1": "7319 WEST STATE STREET","address2": "","city": "GARDEN CITY","state": "ID","zip": "83714","zip+4": "0000","phone": "2088534780"}
{"name": "KWIK-MEDS","address1": "256 OVERLAND AVE","address2": "","city": "BURLEY","state": "ID","zip": "83318","zip+4": "0000","phone": "2088786337"}
{"name": "WALGREEN DRUG STORE #6863","address1": "335 WEST APPLEWAY","address2": "","city": "COEUR D ALENE","state": "ID","zip": "83814","zip+4": "0000","phone": "2087651153"}
{"name": "WALGREEN DRUG STORE #7276","address1": "1012 E CLEVELAND BLVD","address2": "","city": "CALDWELL","state": "ID","zip": "83605","zip+4": "0000","phone": "2084551745"}
{"name": "WALGREEN DRUG STORE #7277","address1": "306 BLUE LAKES BLVD N","address2": "","city": "TWIN FALLS","state": "ID","zip": "83301","zip+4": "4827","phone": "2087349994"}
{"name": "SAFEWAY #2641","address1": "2330 NEZ PERCE DR","address2": "","city": "LEWISTON","state": "ID","zip": "83501","zip+4": "0000","phone": "2087980481"}
{"name": "RIDLEYS PHARMACY #8464","address1": "210 MAIN ST S","address2": "","city": "KIMBERLY","state": "ID","zip": "83341","zip+4": "0000","phone": "2084234248"}
{"name": "WALGREEN DRUG STORE #7949","address1": "708 E SELTICE WAY","address2": "","city": "POST FALLS","state": "ID","zip": "83854","zip+4": "0000","phone": "2087774131"}
{"name": "RIDLEYS PHARMACY #7153","address1": "51 S SPRUCE ST","address2": "","city": "BLACKFOOT","state": "ID","zip": "83221","zip+4": "2154","phone": "2087851311"}
{"name": "MEDNOW ST ALPHONSUS REGIONAL O","address1": "999 N CURTIS RD","address2": "STE 102","city": "BOISE","state": "ID","zip": "83706","zip+4": "0000","phone": "2083674847"}
{"name": "R AND R PHARMACY","address1": "133 WEST A","address2": "","city": "JEROME","state": "ID","zip": "83338","zip+4": "0000","phone": "2083243784"}
{"name": "WALGREEN DRUG STORE #1221","address1": "3212 E CHINDEN BLVD","address2": "","city": "EAGLE","state": "ID","zip": "83616","zip+4": "0000","phone": "2083190535"}
{"name": "COSTCO PHARMACY #773","address1": "355 EAST NEIDER AVE","address2": "","city": "COEUR D ALENE","state": "ID","zip": "83815","zip+4": "0000","phone": "2086767353"}
{"name": "HOME LIVING SERVICES INC #002","address1": "106 S COLE RD","address2": "","city": "BOISE","state": "ID","zip": "83709","zip+4": "0000","phone": "2082357243"}
{"name": "PAULS PHARMACY #11","address1": "10565 LAKE HAZEL RD","address2": "","city": "BOISE","state": "ID","zip": "83709","zip+4": "6326","phone": "2083190882"}
{"name": "WALGREEN DRUG STORE #9157","address1": "4257 YELLOWSTONE AVE","address2": "","city": "CHUBBUCK","state": "ID","zip": "83202","zip+4": "0000","phone": "2082373761"}
{"name": "WALGREEN DRUG STORE #2679","address1": "2102 NEZ PERCE DR","address2": "","city": "LEWISTON","state": "ID","zip": "83501","zip+4": "0000","phone": "2087430187"}
{"name": "BROULIMS PHARMACY #9","address1": "570 S STATE ST","address2": "","city": "SHELLEY","state": "ID","zip": "83274","zip+4": "0000","phone": "2083570473"}
{"name": "KEYMED INC","address1": "426 W LEWIS","address2": "","city": "POCATELLO","state": "ID","zip": "83204","zip+4": "0000","phone": "2082332444"}
{"name": "WAL-MART PHARMACY #105494","address1": "500 SOUTH UTAH AVENUE","address2": "","city": "IDAHO FALLS","state": "ID","zip": "83402","zip+4": "0000","phone": "2085288703"}
{"name": "MEDICAP PHARMACY #8362","address1": "2790 W CHERRY LANE","address2": "","city": "MERIDIAN","state": "ID","zip": "83642","zip+4": "0000","phone": "2082881496"}
{"name": "BROULIMS PHARMACY","address1": "240 S MAIN","address2": "","city": "DRIGGS","state": "ID","zip": "83422","zip+4": "0000","phone": "2083540057"}
{"name": "WALGREEN DRUG STORE #1972","address1": "6725 N GLENWOOD ST","address2": "","city": "GARDEN CITY","state": "ID","zip": "83714","zip+4": "0000","phone": "2083191268"}
{"name": "TARGET PHARMACY #0699","address1": "1611 BLUE LAKES BLVD N","address2": "","city": "TWIN FALLS","state": "ID","zip": "83301","zip+4": "0000","phone": "2087363321"}
{"name": "HEARTLAND LTC PHARMACY","address1": "3320 N MILWAUKEE ST","address2": "","city": "BOISE","state": "ID","zip": "83704","zip+4": "0000","phone": "2083230067"}
{"name": "INNOVATIVE CARE PHARMACY LLC","address1": "9196 W EMERALD ST","address2": "STE 110","city": "BOISE","state": "ID","zip": "83704","zip+4": "0000","phone": "2083231259"}
{"name": "COSTCO PHARMACY #734","address1": "16700 N MARKETPLACE BLVD","address2": "","city": "NAMPA","state": "ID","zip": "83687","zip+4": "0000","phone": "2084653809"}
{"name": "WALGREEN DRUG STORE #09918","address1": "164 E MAIN ST","address2": "","city": "REXBURG","state": "ID","zip": "83440","zip+4": "1912","phone": "2082275076"}
{"name": "SHAVER PHCY AND COMPOUNDING CT","address1": "235 S 4TH AVE","address2": "","city": "POCATELLO","state": "ID","zip": "83201","zip+4": "0000","phone": "2082333341"}
{"name": "BIMART PHARMACY #673","address1": "1545 EAST 6TH STREET","address2": "","city": "WEISER","state": "ID","zip": "83672","zip+4": "0000","phone": "2085498777"}
{"name": "SAMS PHARMACY #104940","address1": "5725 EAST FRANKLIN ROAD","address2": "","city": "NAMPA","state": "ID","zip": "83687","zip+4": "0000","phone": "2084429858"}
{"name": "WAL-MART PHARMACY #103739","address1": "5875 EAST FRANKLIN ROAD","address2": "","city": "NAMPA","state": "ID","zip": "83687","zip+4": "0000","phone": "2084618718"}
{"name": "TARGET PHARMACY #2206","address1": "16300 N MARKETPLACE BLVD","address2": "","city": "NAMPA","state": "ID","zip": "83687","zip+4": "0000","phone": "2084656801"}
{"name": "WALGREEN DRUG STORE #10197","address1": "3150 W CHERRY LN","address2": "","city": "MERIDAN","state": "ID","zip": "83642","zip+4": "1122","phone": "2083192312"}
{"name": "WALGREEN DRUG STORE #10603","address1": "3475 E 17TH ST","address2": "","city": "AMMON","state": "ID","zip": "83406","zip+4": "0000","phone": "2082275083"}
{"name": "WAL-MART PHARMACY #104249","address1": "583 COMMERCE DRIVE","address2": "","city": "SMELTERVILLE","state": "ID","zip": "83868","zip+4": "0000","phone": "2087832739"}
{"name": "STAR PHARMACY","address1": "9732 STATE ST","address2": "","city": "STAR","state": "ID","zip": "83669","zip+4": "0000","phone": "2082860906"}
{"name": "SAND CREEK WELLIFE PHARMACY","address1": "476864 HWY 95 N","address2": "STE 3","city": "PONDERAY","state": "ID","zip": "83852","zip+4": "9737","phone": "2082650142"}
{"name": "ORCHARD DRUG","address1": "995 WASHINGTON ST SOUTH","address2": "","city": "TWIN FALLS","state": "ID","zip": "83301","zip+4": "0000","phone": "2087367060"}
{"name": "PAULS PHARMACY #1","address1": "20 E WYOMING","address2": "","city": "HOMEDALE","state": "ID","zip": "83628","zip+4": "0000","phone": "2083374888"}
{"name": "WALGREENS DRUG STORE #10672","address1": "2219 12TH AVE RD","address2": "","city": "NAMPA","state": "ID","zip": "83686","zip+4": "6313","phone": "2083180536"}
{"name": "WALGREEN DRUG STORE #11541","address1": "4110 10TH AVE S","address2": "","city": "CALDWELL","state": "ID","zip": "83605","zip+4": "0000","phone": "2084020154"}
{"name": "WALGREEN DRUG STORE #12383","address1": "1850 W BROADWAY","address2": "","city": "IDAHO FALLS","state": "ID","zip": "83402","zip+4": "0000","phone": "2085224655"}
{"name": "WALGREEN DRUG STORE #10604","address1": "1625 N MERIDIAN RD","address2": "","city": "MERIDIAN","state": "ID","zip": "83642","zip+4": "2254","phone": "2083190600"}
{"name": "WALGREEN DRUG STORE #10834","address1": "10530 W CARLTON BAY DR","address2": "","city": "GARDEN CITY","state": "ID","zip": "83716","zip+4": "0000","phone": "2083192482"}
{"name": "WALGREEN DRUG STORE #11452","address1": "3263 N EAGLE RD","address2": "","city": "MERIDIAN","state": "ID","zip": "83646","zip+4": "5702","phone": "2083190612"}
{"name": "SAV ON PHARMACY #171","address1": "490 N 2ND E","address2": "","city": "REXBURG","state": "ID","zip": "83440","zip+4": "0000","phone": "2085422088"}
{"name": "PORTICO PHARMACY","address1": "3355 E LOUISE","address2": "","city": "MERIDIAN","state": "ID","zip": "83642","zip+4": "0000","phone": "2082884341"}
{"name": "WALGREEN DRUG STORE #11622","address1": "1725 1ST ST","address2": "","city": "IDAHO FALLS","state": "ID","zip": "83401","zip+4": "4306","phone": "2084194684"}
{"name": "RIVER MEDICAL","address1": "100 COTTONWOOD COURT","address2": "BLDG D STE 150","city": "EAGLE","state": "ID","zip": "83616","zip+4": "0000","phone": "2089393314"}
{"name": "MERIDIAN PAIN CENTER","address1": "3875 E OVERLAND RD","address2": "STE 200","city": "MERIDIAN","state": "ID","zip": "83642","zip+4": "0000","phone": "2089557246"}
{"name": "LADD FAMILY PHARMACY","address1": "1109 S BROADWAY","address2": "","city": "BOISE","state": "ID","zip": "83706","zip+4": "0000","phone": "2089470877"}
{"name": "COSTCO PHARMACY #1033","address1": "305 WEST QUINN RD","address2": "","city": "POCATELLO","state": "ID","zip": "83202","zip+4": "0000","phone": "2082384049"}
{"name": "WALGREENS #12123","address1": "3395 S FEDERAL WAY","address2": "","city": "BOISE","state": "ID","zip": "83705","zip+4": "0000","phone": "2083191043"}
{"name": "IDAHO PAIN MEDICINE LLP","address1": "8950 WEST EMERALD","address2": "STE 168","city": "BOISE","state": "ID","zip": "83704","zip+4": "0000","phone": "2083236273"}
{"name": "CAPITAL CITY FAMILY MEDICINE","address1": "1520 WEST STATE STREET","address2": "STE 100","city": "BOISE","state": "ID","zip": "83702","zip+4": "0000","phone": "2089477700"}
{"name": "PRIMARY HEALTH MEDICAL GROUP","address1": "6052 W STATE ST","address2": "","city": "BOISE","state": "ID","zip": "83703","zip+4": "2739","phone": "2083447799"}
{"name": "PRIMARY HEALTH MEDICAL GROUP O","address1": "8917 W OVERLAND ROAD","address2": "","city": "BOISE","state": "ID","zip": "83709","zip+4": "0000","phone": "2083784288"}
{"name": "PRIMARY HEALTH MEDICAL GROUP W","address1": "10787 WEST USTICK RD","address2": "","city": "BOISE","state": "ID","zip": "83713","zip+4": "0000","phone": "2083788011"}
{"name": "PRIMARY HEALTH MEDICAL GROUP M","address1": "1130 E FAIRVIEW AVENUE","address2": "","city": "MERIDIAN","state": "ID","zip": "83642","zip+4": "0000","phone": "2088889393"}
{"name": "WALGREENS #11687","address1": "4850 N LINDER RD","address2": "","city": "MERIDIAN","state": "ID","zip": "83646","zip+4": "0000","phone": "2083190047"}
{"name": "PRIMARY HEALTH MEDICAL GROUP B","address1": "1907 S. BROADWAY AVE","address2": "","city": "BOISE","state": "ID","zip": "83706","zip+4": "0000","phone": "2083451222"}
{"name": "PRIMARY HEALTH MEDICAL GROUP E","address1": "435 S. EAGLE RD","address2": "","city": "EAGLE","state": "ID","zip": "83616","zip+4": "0000","phone": "2089398200"}
{"name": "PRIMARY HEALTH MEDICAL GROUP P","address1": "6348 EMERALD","address2": "","city": "BOISE","state": "ID","zip": "83704","zip+4": "0000","phone": "2083774400"}
{"name": "PRIMARY HEALTH MEDICAL GROUP W","address1": "6052 W STATE ST","address2": "","city": "BOISE","state": "ID","zip": "83703","zip+4": "0000","phone": "2083447799"}
{"name": "PRIMARY HEALTH MEDICAL GROUP C","address1": "3115 E FLORENCE","address2": "","city": "MERIDIAN","state": "ID","zip": "83642","zip+4": "0000","phone": "2088958670"}
{"name": "PRIMARY HEALTH MEDICAL GROUP N","address1": "700 CALDWELL BLVD","address2": "","city": "NAMPA","state": "ID","zip": "83651","zip+4": "0000","phone": "2084666567"}
{"name": "WALGREENS #12483","address1": "932 CALDWELL BLVD","address2": "","city": "NAMPA","state": "ID","zip": "83651","zip+4": "0000","phone": "2083190018"}
{"name": "WALGREENS #12503","address1": "414 N MAIN ST","address2": "","city": "MOSCOW","state": "ID","zip": "83843","zip+4": "2631","phone": "2088826076"}
{"name": "PRIMARY HEALTH MEDICAL GROUP C","address1": "1825 KIMBALL AVENUE","address2": "","city": "CALDWELL","state": "ID","zip": "83605","zip+4": "0000","phone": "2084553545"}
{"name": "PRAIRIE FAMILY MEDICINE PLLC","address1": "1130 W PRAIRIE AVENUE","address2": "","city": "COEUR D ALENE","state": "ID","zip": "83815","zip+4": "0000","phone": "2082090288"}
{"name": "ASTHMA AND ALLERGY OF IDAHO","address1": "714 W APPLEWAY AVENUE","address2": "STE 200","city": "COEUR D'ALENE","state": "ID","zip": "83814","zip+4": "0000","phone": "2086651552"}
{"name": "WALGREENS #13672","address1": "960 W BRIDGE ST","address2": "","city": "BLACKFOOT","state": "ID","zip": "83221","zip+4": "1912","phone": "2087858000"}
{"name": "WALGREENS #13673","address1": "904 E MAIN ST","address2": "","city": "BURLEY","state": "ID","zip": "83318","zip+4": "2036","phone": "2086780427"}
{"name": "KAREN'S FAMILY PHARMACY","address1": "21 E MAPLE","address2": "STE B","city": "HAILEY","state": "ID","zip": "83333","zip+4": "0000","phone": "2087883930"}
{"name": "MEDICAL PLAZA PHARMACY #1","address1": "98 POPLAR ST.","address2": "MOB BUILDING","city": "BLACKFOOT","state": "ID","zip": "83221","zip+4": "0000","phone": "2087822990"}
{"name": "BROULIMS PHARMACY #6","address1": "130 S 4TH STREET","address2": "","city": "MONTIPELER","state": "ID","zip": "83254","zip+4": "0000","phone": "2088470806"}
{"name": "WAL-MART PHARMACY 10-3897 #103","address1": "252 CHENEY DR W","address2": "","city": "TWIN FALLS","state": "ID","zip": "83301","zip+4": "0000","phone": "2087363387"}
{"name": "SAGE HEALTHCARE PLLC","address1": "413 N ALLUMBAUGH ST","address2": "STE 101","city": "BOISE","state": "ID","zip": "83704","zip+4": "0000","phone": "2083231125"}
{"name": "OASIS MEDICAL CENTER","address1": "3217 W BAVARIA ST","address2": "","city": "EAGLE","state": "ID","zip": "83616","zip+4": "5171","phone": "2088873595"}
{"name": "WALGREENS #10314","address1": "260 W HONEYSUCKLE AVE","address2": "","city": "HAYDEN","state": "ID","zip": "83835","zip+4": "9270","phone": "2087620185"}
{"name": "MOUNTAIN CARE PHARMACY","address1": "286 N MAPLE GROVE RD","address2": "","city": "BOISE","state": "ID","zip": "83704","zip+4": "0000","phone": "2082874667"}
{"name": "BI-MART PHARMACY # #681","address1": "179 WEST HIGHWAY 52","address2": "","city": "EMMETT","state": "ID","zip": "83617","zip+4": "0000","phone": "2082729454"}
{"name": "WALGREENS #12286","address1": "1732 WASHINGTON ST N","address2": "","city": "TWIN FALLS","state": "ID","zip": "83301","zip+4": "0000","phone": "2087331166"}