{"name": "CJS PILL BOX","address1": "109 W 4TH ST","address2": "","city": "PORTALES","state": "NM","zip": "88130","zip+4": "6369","phone": "5753564422"}
{"name": "WALGREEN DRUG STORE #6587","address1": "9700 MENAUL BLVD NE","address2": "","city": "ALBUQUERQUE","state": "NM","zip": "87112","zip+4": "0000","phone": "5052960707"}
{"name": "WALGREEN DRUG STORE #3997","address1": "2105 CENTRAL AVENUE NW","address2": "","city": "ALBUQUERQUE","state": "NM","zip": "87104","zip+4": "0000","phone": "5052422644"}
{"name": "WALGREEN DRUG STORE #3035","address1": "6201 CENTRAL AVE","address2": "","city": "ALBUQUERQUE","state": "NM","zip": "87108","zip+4": "0000","phone": "5052555511"}
{"name": "WALGREEN DRUG STORE #5997","address1": "2625 SAN PEDRO DR NE","address2": "","city": "ALBUQUERQUE","state": "NM","zip": "87110","zip+4": "0000","phone": "5058835128"}
{"name": "WALGREEN DRUG STORE #2900","address1": "1096 ST FRANCIS DR","address2": "","city": "SANTA FE","state": "NM","zip": "87501","zip+4": "0000","phone": "5059824643"}
{"name": "SAVON DRUGS #911","address1": "2801 A EUBANK BLVD","address2": "","city": "ALBUQUERQUE","state": "NM","zip": "87112","zip+4": "0000","phone": "5052941597"}
{"name": "ADVANCED MEDICATION MANAGEMENT","address1": "2402 W PIERCE","address2": "STE 2B","city": "CARLSBAD","state": "NM","zip": "88220","zip+4": "0000","phone": "5758852979"}
{"name": "WALGREEN DRUG STORE #4950","address1": "700 E 21ST STREET","address2": "","city": "CLOVIS","state": "NM","zip": "88101","zip+4": "3703","phone": "5057623815"}
{"name": "RODEN SMITH PHARMACY","address1": "601 E LLANO ESTACADO BLVD","address2": "STE A","city": "CLOVIS","state": "NM","zip": "88101","zip+4": "0000","phone": "5057623848"}
{"name": "MEDICINE SHOPPE #1565","address1": "1801 W 21ST","address2": "","city": "CLOVIS","state": "NM","zip": "88101","zip+4": "0000","phone": "5057624579"}
{"name": "K REGENT DRUG #1","address1": "338 OSUNA RD NW","address2": "","city": "ALBUQUERQUE","state": "NM","zip": "87107","zip+4": "0000","phone": "5053453568"}
{"name": "KELLEY PHARMACY","address1": "111 W HOBBS ST","address2": "","city": "ROSWELL","state": "NM","zip": "88203","zip+4": "0000","phone": "5056226000"}
{"name": "DURAN CENTRAL PHARMACY INC","address1": "1815 CENTRAL AVE NW","address2": "","city": "ALBUQUERQUE","state": "NM","zip": "87104","zip+4": "1143","phone": "5052474141"}
{"name": "WALGREEN DRUG STORE #23","address1": "5001 MONTGOMERY PLAZA","address2": "","city": "ALBUQUERQUE","state": "NM","zip": "87109","zip+4": "0000","phone": "5058815050"}
{"name": "PHARMACY PLUS","address1": "407 W HWY 550","address2": "","city": "BERNALILLO","state": "NM","zip": "87004","zip+4": "0000","phone": "5058672336"}
{"name": "DEL NORTE PHARMACY AND HOME ME","address1": "1691 GALISTEO","address2": "","city": "SANTA FE","state": "NM","zip": "87501","zip+4": "0000","phone": "5059889797"}
{"name": "UNIVERSITY HOSP OP PHCY","address1": "1209 UNIVERSITY BLVD NE","address2": "","city": "ALBUQUERQUE","state": "NM","zip": "87106","zip+4": "2745","phone": "5052728674"}
{"name": "THE MEDICINE CHEST #2","address1": "1123 CANDELARIA N W","address2": "","city": "ALBUQUERQUE","state": "NM","zip": "87107","zip+4": "0000","phone": "5053442335"}
{"name": "HIGHLAND PHARMACY INC","address1": "717 ENCINO PLACE NE","address2": "","city": "ALBUQUERQUE","state": "NM","zip": "87102","zip+4": "2611","phone": "5052433777"}
{"name": "VICTORS REGENT PHARMACY","address1": "1643 ISLETA BLVD SW","address2": "","city": "ALBUQUERQUE","state": "NM","zip": "87105","zip+4": "4633","phone": "5058771620"}
{"name": "LOWELLS PHARMACY","address1": "612 N 13TH ST","address2": "STE A","city": "ARTESIA","state": "NM","zip": "88210","zip+4": "1167","phone": "5757466681"}
{"name": "KARE DRUG AZTEC #2","address1": "100 LLANO ST","address2": "","city": "AZTEC","state": "NM","zip": "87410","zip+4": "0000","phone": "5053346411"}
{"name": "BUCKLAND PHARMACY","address1": "600 DALIES AVE","address2": "","city": "BELEN","state": "NM","zip": "87002","zip+4": "0729","phone": "5058647434"}
{"name": "CITY DRUG","address1": "7 MAIN ST","address2": "","city": "CLAYTON","state": "NM","zip": "88415","zip+4": "3037","phone": "5753749121"}
{"name": "HOBBS DRUG","address1": "700 N TURNER ST","address2": "","city": "HOBBS","state": "NM","zip": "88240","zip+4": "8235","phone": "5753935111"}
{"name": "REDE PHARMACY","address1": "2655 MISSOURI AVE","address2": "","city": "LAS CRUCES","state": "NM","zip": "88011","zip+4": "0000","phone": "5755227484"}
{"name": "DEL NORTE PHARMACY AND HOME ME","address1": "602 UNIVERSITY DR","address2": "","city": "LAS VEGAS","state": "NM","zip": "87701","zip+4": "0000","phone": "5054256241"}
{"name": "LOS ALAMOS MEDICAL CENTER OUTP","address1": "3917 WEST RD","address2": "","city": "LOS ALAMOS","state": "NM","zip": "87544","zip+4": "2222","phone": "5056619560"}
{"name": "MICHAEL'S PRESCRIPTION CORNER","address1": "123 W AVENUE A","address2": "","city": "LOVINGTON","state": "NM","zip": "88260","zip+4": "4211","phone": "5753962311"}
{"name": "B AND J DRUG INC","address1": "102 SOUTH 1ST ST","address2": "","city": "LOVINGTON","state": "NM","zip": "88260","zip+4": "0000","phone": "5753962801"}
{"name": "NOWELL PHARMACY","address1": "122 W ADAMS","address2": "","city": "LOVINGTON","state": "NM","zip": "88260","zip+4": "0000","phone": "5753964242"}
{"name": "PRIMM DRUG","address1": "711 N UNION","address2": "","city": "ROSWELL","state": "NM","zip": "88201","zip+4": "3955","phone": "5056226571"}
{"name": "THE MEDICINE SHOP","address1": "1010 S MAIN ST STE 1","address2": "","city": "ROSWELL","state": "NM","zip": "88203","zip+4": "0000","phone": "5756233900"}
{"name": "SILVER REXALL DRUG INC","address1": "1308 SILVER HEIGHTS BLVD","address2": "","city": "SILVER CITY","state": "NM","zip": "88061","zip+4": "1128","phone": "5753881579"}
{"name": "SPRINGER DRUGS","address1": "825 4TH STREET","address2": "","city": "SPRINGER","state": "NM","zip": "87747","zip+4": "0000","phone": "5054832356"}
{"name": "WELLBORN PHARMACY","address1": "315 S 2ND STREET","address2": "","city": "TUCUMCARI","state": "NM","zip": "88401","zip+4": "0985","phone": "5754612784"}
{"name": "MEDICAL ARTS PHARMACY INC","address1": "1301 10TH ST","address2": "","city": "ALAMOGORDO","state": "NM","zip": "88310","zip+4": "0000","phone": "5754375530"}
{"name": "WALGREEN DRUG STORE #11360","address1": "11200 MONTGOMERY BLVD NE","address2": "","city": "ALBUQUERQUE","state": "NM","zip": "87111","zip+4": "0000","phone": "5052987477"}
{"name": "WALGREEN DRUG STORE #18","address1": "2031 12TH STREET NW","address2": "","city": "ALBUQUERQUE","state": "NM","zip": "87102","zip+4": "0000","phone": "5052431356"}
{"name": "SHARE N CARE PHARMACY AND MEDI","address1": "701 DALIES AVE","address2": "","city": "BELEN","state": "NM","zip": "87002","zip+4": "0000","phone": "5058647471"}
{"name": "TRUST PHARMACY","address1": "1000 ROOSEVELT","address2": "","city": "GRANTS","state": "NM","zip": "87020","zip+4": "2118","phone": "5052873913"}
{"name": "KARE PHARMACY #4","address1": "100 A N CHURCH ST","address2": "","city": "BLOOMFIELD","state": "NM","zip": "87413","zip+4": "5727","phone": "5056323324"}
{"name": "NAMBE DRUGS INC","address1": "70 CITIES OF GOLD RD","address2": "","city": "SANTA FE","state": "NM","zip": "87506","zip+4": "0000","phone": "5054552256"}
{"name": "LAS CLINICAS DEL NORTE","address1": "28 HIGHWAY 571","address2": "","city": "EL RITO","state": "NM","zip": "87530","zip+4": "0000","phone": "5755814728"}
{"name": "PLAZA DRUGS","address1": "178 BRIDGE ST","address2": "","city": "LAS VEGAS","state": "NM","zip": "87701","zip+4": "3497","phone": "5054255221"}
{"name": "DEL NORTE PHARMACY AND HOME ME","address1": "955 S SECOND ST","address2": "","city": "RATON","state": "NM","zip": "87740","zip+4": "0000","phone": "5054453131"}
{"name": "WALGREEN DRUG STORE #4651","address1": "10236 COORS BYPASS","address2": "","city": "ALBUQUERQUE","state": "NM","zip": "87114","zip+4": "4088","phone": "5058980971"}
{"name": "KMART PHARMACY #4136","address1": "2100 CARLISLE AVE NE","address2": "","city": "ALBUQUERQUE","state": "NM","zip": "87110","zip+4": "0000","phone": "5052653549"}
{"name": "KMART PHARMACY #3301","address1": "1712 ST MICHAEL S DR","address2": "","city": "SANTA FE","state": "NM","zip": "87501","zip+4": "0000","phone": "5054717823"}
{"name": "KMART PHARMACY #4400","address1": "4208 CENTRAL AVE SW","address2": "","city": "ALBUQUERQUE","state": "NM","zip": "87105","zip+4": "0000","phone": "5058366511"}
{"name": "SOUTHWESTERN MEDICAL PHARMACY","address1": "2402 W PIERCE","address2": "ST 1A","city": "CARLSBAD","state": "NM","zip": "88220","zip+4": "3595","phone": "5758876611"}
{"name": "UNITED DRUG #201","address1": "221 W HALL ST","address2": "","city": "HATCH","state": "NM","zip": "87937","zip+4": "0427","phone": "5752674943"}
{"name": "FRASER MED CENTER PHARMACY","address1": "1676 HOSPITAL DR","address2": "","city": "SANTA FE","state": "NM","zip": "87505","zip+4": "0000","phone": "5059834359"}
{"name": "KMART PHARMACY #3444","address1": "9500 MONTGOMERY BLVD NE","address2": "","city": "ALBUQUERQUE","state": "NM","zip": "87111","zip+4": "0000","phone": "5052997683"}
{"name": "SAVON PHARMACY #928","address1": "11825 LOMAS BLVD NE","address2": "","city": "ALBUQUERQUE","state": "NM","zip": "87112","zip+4": "0000","phone": "5052939156"}
{"name": "SAVON DRUGS #904","address1": "4950 MONTGOMERY NE","address2": "","city": "ALBUQUERQUE","state": "NM","zip": "87109","zip+4": "0000","phone": "5058838703"}
{"name": "KMART PHARMACY #3058","address1": "1240 S EL PASEO RD","address2": "","city": "LAS CRUCES","state": "NM","zip": "88001","zip+4": "0000","phone": "5755238671"}
{"name": "KMART PHARMACY #7016","address1": "2220 NORTH GRIMES ST","address2": "","city": "HOBBS","state": "NM","zip": "88240","zip+4": "0000","phone": "5053931576"}
{"name": "KMART PHARMACY #7017","address1": "1705 S MAIN ST","address2": "","city": "ROSWELL","state": "NM","zip": "88203","zip+4": "1899","phone": "5056239001"}
{"name": "KMART PHARMACY #7035","address1": "3000 EAST MAIN ST","address2": "","city": "FARMINGTON","state": "NM","zip": "87402","zip+4": "7698","phone": "5053270236"}
{"name": "PINON FAMILY PHARMACY","address1": "2300 B E 30TH","address2": "SUITE 101","city": "FARMINGTON","state": "NM","zip": "87401","zip+4": "0000","phone": "5053274826"}
{"name": "WALGREEN DRUG STORE #4047","address1": "101 COORS BLVD NW","address2": "","city": "ALBUQUERQUE","state": "NM","zip": "87121","zip+4": "0000","phone": "5058313137"}
{"name": "THE MEDICINE SHOPPE #1801","address1": "820 E FLORIDA","address2": "","city": "DEMING","state": "NM","zip": "88030","zip+4": "0000","phone": "5055462731"}
{"name": "SMITHS PHARMACY #409 #706409","address1": "600 EAST 20TH ST","address2": "","city": "FARMINGTON","state": "NM","zip": "87401","zip+4": "0000","phone": "5053251774"}
{"name": "SAVON DRUGS #930","address1": "2402 N GRIMES","address2": "","city": "HOBBS","state": "NM","zip": "88240","zip+4": "0000","phone": "5753924503"}
{"name": "SMITHS PHARMACY #413 #706413","address1": "1000 RIO RANCHO DR","address2": "","city": "RIO RANCHO","state": "NM","zip": "87124","zip+4": "0000","phone": "5058921866"}
{"name": "WALGREEN DRUG STORE #7107","address1": "2300 E LOHMAN AVE","address2": "","city": "LAS CRUCES","state": "NM","zip": "88001","zip+4": "0000","phone": "5056478176"}
{"name": "SMITHS PHARMACY #414 #706414","address1": "2580 HWY 47 & 49","address2": "","city": "LOS LUNAS","state": "NM","zip": "87031","zip+4": "0000","phone": "5058653310"}
{"name": "BEST BUY DRUGS","address1": "1445 WYOMING BLVD NE","address2": "","city": "ALBUQUERQUE","state": "NM","zip": "87112","zip+4": "3849","phone": "5052994496"}
{"name": "WALGREEN DRUG STORE #3366","address1": "3400 COORS BLVD NW","address2": "","city": "ALBUQUERQUE","state": "NM","zip": "87120","zip+4": "0000","phone": "5058363035"}
{"name": "SMITHS PHARMACY #423 #706423","address1": "6125 4TH ST NW","address2": "","city": "ALBUQUERQUE","state": "NM","zip": "87107","zip+4": "0000","phone": "5053443509"}
{"name": "WALGREEN DRUG STORE #1279","address1": "2950 CENTRALSE","address2": "","city": "ALBUQUERQUE","state": "NM","zip": "87106","zip+4": "0000","phone": "5052621743"}
{"name": "WALGREEN DRUG STORE #5350","address1": "1835 N MAIN ST","address2": "","city": "ROSWELL","state": "NM","zip": "88201","zip+4": "5168","phone": "5056220433"}
{"name": "SMITHS PHARMACY #571 #706571","address1": "1601 ARENAL SW","address2": "","city": "ALBUQUERQUE","state": "NM","zip": "87105","zip+4": "0000","phone": "5058774542"}
{"name": "SMITHS PHARMACY #429 #706429","address1": "2620 CARLISLE NE","address2": "","city": "ALBUQUERQUE","state": "NM","zip": "87110","zip+4": "0000","phone": "5058840455"}
{"name": "SAVON DRUGS #937","address1": "10131 COORS RD NW","address2": "","city": "ALBUQUERQUE","state": "NM","zip": "87114","zip+4": "0000","phone": "5058973961"}
{"name": "PHILS PHARMACY","address1": "5510 LOMAS NE","address2": "","city": "ALBUQUERQUE","state": "NM","zip": "87110","zip+4": "0000","phone": "5052656868"}
{"name": "WALGREEN DRUG STORE #9773","address1": "10300 CENTRAL AVE SE","address2": "","city": "ALBUQUERQUE","state": "NM","zip": "87123","zip+4": "0000","phone": "5052920915"}
{"name": "WAL-MART PHARMACY #100824","address1": "8000 ACADEMY ROAD NE","address2": "","city": "ALBUQUERQUE","state": "NM","zip": "87111","zip+4": "0000","phone": "5058216008"}
{"name": "WAL-MART PHARMACY #100831","address1": "301 SAN MATEO BLVD SE","address2": "","city": "ALBUQUERQUE","state": "NM","zip": "87108","zip+4": "0000","phone": "5052621915"}
{"name": "WAL-MART PHARMACY #100835","address1": "400 EUBANK BLVD NE","address2": "","city": "ALBUQUERQUE","state": "NM","zip": "87123","zip+4": "0000","phone": "5052928035"}
{"name": "WAL-MART PHARMACY #100829","address1": "3251 CERILLOS RD","address2": "","city": "SANTA FE","state": "NM","zip": "87505","zip+4": "0000","phone": "5054734261"}
{"name": "WAL-MART PHARMACY #100850","address1": "2701 CARLISLE BLVD NE","address2": "","city": "ALBUQUERQUE","state": "NM","zip": "87110","zip+4": "0000","phone": "5058818496"}
{"name": "WAL-MART PHARMACY #100826","address1": "4600 EAST MAIN","address2": "","city": "FARMINGTON","state": "NM","zip": "87402","zip+4": "0000","phone": "5053261197"}
{"name": "SMITHS PHARMACY #432 #706432","address1": "31 SHERWOOD BLVD","address2": "","city": "WHITE ROCK","state": "NM","zip": "87544","zip+4": "0000","phone": "5056729457"}
{"name": "WAL-MART PHARMACY #100806","address1": "571 S WALTON BLVD","address2": "","city": "LAS CRUCES","state": "NM","zip": "88001","zip+4": "0000","phone": "5755243501"}
{"name": "NORTE VISTA PHARMACY","address1": "2420 N FOWLER ST","address2": "","city": "HOBBS","state": "NM","zip": "88240","zip+4": "2399","phone": "5053926516"}
{"name": "WAL-MART PHARMACY #100821","address1": "3728 N PRINCE STREET","address2": "","city": "CLOVIS","state": "NM","zip": "88101","zip+4": "0000","phone": "5757692389"}
{"name": "TAOS PHARMACY","address1": "622A PASEO DEL PUEBLO SUR","address2": "5401 NDCBU","city": "TAOS","state": "NM","zip": "87571","zip+4": "9998","phone": "5757583342"}
{"name": "SMITHS PHARMACY #426 #706426","address1": "224 PASEO PUEBLO SUR","address2": "","city": "TAOS","state": "NM","zip": "87571","zip+4": "0000","phone": "5757584823"}
{"name": "WALGREEN DRUG STORE #5157","address1": "1115 N RIVERSIDE DR","address2": "","city": "ESPANOLA","state": "NM","zip": "87532","zip+4": "2802","phone": "5057536993"}
{"name": "WALGREEN DRUG STORE #7735","address1": "6605 4TH ST NW","address2": "","city": "LOS RANCHOS DE ALB","state": "NM","zip": "87107","zip+4": "0000","phone": "5053458491"}
{"name": "WALGREEN DRUG STORE #4649","address1": "3501 LOMAS BLVD NE","address2": "","city": "ALBUQUERQUE","state": "NM","zip": "87106","zip+4": "0000","phone": "5052559004"}
{"name": "WAL-MART PHARMACY #100868","address1": "2401 S CANAL ST","address2": "","city": "CARLSBAD","state": "NM","zip": "88220","zip+4": "0000","phone": "5758851029"}
{"name": "WAL-MART PHARMACY #100873","address1": "926 PASEO DEL PUEBLO SUR","address2": "","city": "TAOS","state": "NM","zip": "87571","zip+4": "0000","phone": "5757582743"}
{"name": "MOUNTAINAIR MEDS AND MORE LLC","address1": "111 W BROADWAY","address2": "PO BOX 969","city": "MOUNTAINAIR","state": "NM","zip": "87036","zip+4": "0000","phone": "5058470242"}
{"name": "WAL-MART PHARMACY #100851","address1": "1800 W HWY 70","address2": "","city": "RUIDOSO DOWNS","state": "NM","zip": "88346","zip+4": "0000","phone": "5753785400"}
{"name": "WAL-MART PHARMACY #100906","address1": "1650 WEST MALONEY AVE","address2": "","city": "GALLUP","state": "NM","zip": "87301","zip+4": "0000","phone": "5057223823"}
{"name": "FAIRVIEW PHARMACY","address1": "734 N RIVERSIDE DR","address2": "STE A","city": "ESPANOLA","state": "NM","zip": "87532","zip+4": "0000","phone": "5057532209"}
{"name": "WALGREEN DRUG STORE #4187","address1": "1941 SOUTHERN","address2": "","city": "RIO RANCHO","state": "NM","zip": "87124","zip+4": "0000","phone": "5058918996"}
{"name": "SMITHS PHARMACY #446 #706446","address1": "6001 LOMAS NE","address2": "","city": "ALBUQUERQUE","state": "NM","zip": "87110","zip+4": "0000","phone": "5052667433"}
{"name": "WALGREEN DRUG STORE #5923","address1": "13000 INDIAN SCHOOL RD","address2": "","city": "ALBUQUERQUE","state": "NM","zip": "87112","zip+4": "0000","phone": "5052980177"}
{"name": "WAL-MART PHARMACY #100611","address1": "4500 A NORTH MAIN","address2": "","city": "ROSWELL","state": "NM","zip": "88201","zip+4": "0000","phone": "5756223812"}
{"name": "PROFESSIONAL PHARMACY","address1": "275 CENTRAL AVE A","address2": "","city": "TULAROSA","state": "NM","zip": "88352","zip+4": "0000","phone": "5055852772"}
{"name": "KMART PHARMACY #3682","address1": "1900 BATAAN MEMORIAL E","address2": "","city": "LAS CRUCES","state": "NM","zip": "88011","zip+4": "6011","phone": "5055228603"}
{"name": "WAL-MART PHARMACY #101306","address1": "233 S NEW YORK AVE","address2": "","city": "ALAMOGORDO","state": "NM","zip": "88310","zip+4": "0000","phone": "5754345345"}
{"name": "WAL-MART PHARMACY #100549","address1": "3800 LOVINGTON HWY","address2": "","city": "HOBBS","state": "NM","zip": "88240","zip+4": "0000","phone": "5754920310"}
{"name": "SMITHS PHARMACY #439 #706439","address1": "4700 TRAMWAY NE","address2": "","city": "ALBUQUERQUE","state": "NM","zip": "87111","zip+4": "0000","phone": "5052925888"}
{"name": "SAMS REGENT PHARMACY","address1": "7120 WYOMING NE","address2": "STE 7B","city": "ALBUQUERQUE","state": "NM","zip": "87109","zip+4": "4869","phone": "5053460533"}
{"name": "KMART PHARMACY #9119","address1": "3201 N WHITE SAND BLVD","address2": "","city": "ALAMOGORDO","state": "NM","zip": "88310","zip+4": "0000","phone": "5054341324"}
{"name": "WAL-MART PHARMACY #101357","address1": "2501 HWY 180 EAST","address2": "","city": "SILVER CITY","state": "NM","zip": "88061","zip+4": "0000","phone": "5753883113"}
{"name": "WALGREEN DRUG STORE #2111","address1": "1625 RIO BRAVO SW STE 36","address2": "","city": "ALBUQUERQUE","state": "NM","zip": "87105","zip+4": "0000","phone": "5058773266"}
{"name": "WAL-MART PHARMACY #101380","address1": "2609 7TH STREET","address2": "","city": "LAS VEGAS","state": "NM","zip": "87701","zip+4": "0000","phone": "5054255269"}
{"name": "MEDICAP PHARMACY #8086","address1": "2801 RODEO ROAD STE A1","address2": "","city": "SANTA FE","state": "NM","zip": "87507","zip+4": "0000","phone": "5054716177"}
{"name": "WAL-MART PHARMACY #101414","address1": "01 I 25 INTERCHANGE","address2": "","city": "BELEN","state": "NM","zip": "87002","zip+4": "0000","phone": "5058640270"}
{"name": "WAL-MART PHARMACY #101397","address1": "10224 COORS BYPASSNW","address2": "","city": "ALBUQUERQUE","state": "NM","zip": "87114","zip+4": "0000","phone": "5058976935"}
{"name": "SAVON DRUGS #938","address1": "7101 WYOMING BLVD NE","address2": "","city": "ALBUQUERQUE","state": "NM","zip": "87109","zip+4": "0000","phone": "5058211275"}
{"name": "WALGREEN DRUG STORE #2250","address1": "1256 EL PASEO ROAD","address2": "","city": "LAS CRUCES","state": "NM","zip": "88001","zip+4": "0000","phone": "5755258713"}
{"name": "KMART PHARMACY #3551","address1": "1640 RIO RANCHO DR","address2": "","city": "RIO RANCHO","state": "NM","zip": "87124","zip+4": "0000","phone": "5058926460"}
{"name": "WALGREEN DRUG STORE #7930","address1": "1401 W PIERCE","address2": "","city": "CARLSBAD","state": "NM","zip": "88220","zip+4": "0000","phone": "5058870380"}
{"name": "WALGREEN DRUG STORE #2349","address1": "1401 NORTH TURNER","address2": "","city": "HOBBS","state": "NM","zip": "88240","zip+4": "0000","phone": "5053932614"}
{"name": "WALGREEN DRUG STORE #4911","address1": "6000 COORS BLVD NW","address2": "","city": "ALBUQUERQUE","state": "NM","zip": "87120","zip+4": "2702","phone": "5058991887"}
{"name": "WALGREEN DRUG STORE #2425","address1": "620 MILLS AVENUE","address2": "","city": "LAS VEGAS","state": "NM","zip": "87701","zip+4": "0000","phone": "5054253303"}
{"name": "WALGREEN DRUG STORE #1941","address1": "MAIN AND MCGAFFEY","address2": "","city": "ROSWELL","state": "NM","zip": "88203","zip+4": "0000","phone": "5056240702"}
{"name": "FAMILY PHARMACY","address1": "1205 S SOLANO DR","address2": "","city": "LAS CRUCES","state": "NM","zip": "88001","zip+4": "0000","phone": "5055261599"}
{"name": "WALGREEN DRUG STORE #6610","address1": "2500 MAIN ST","address2": "","city": "LOS LUNAS","state": "NM","zip": "87031","zip+4": "0000","phone": "5058657723"}
{"name": "WALGREEN DRUG STORE #02400","address1": "955 N WHITE SANDS BLVD","address2": "","city": "ALAMOGORDO","state": "NM","zip": "88310","zip+4": "6925","phone": "5054344116"}
{"name": "LAS CRUCES REXALL DRUG","address1": "2140 N MAIN ST","address2": "","city": "LAS CRUCES","state": "NM","zip": "88001","zip+4": "1194","phone": "5055242863"}
{"name": "VILLAGE PHARMACY INC","address1": "1719 S AVE D","address2": "","city": "PORTALES","state": "NM","zip": "88130","zip+4": "0000","phone": "5053568555"}
{"name": "WALGREEN DRUG STORE #9067","address1": "701 E 20TH ST","address2": "","city": "FARMINGTON","state": "NM","zip": "87401","zip+4": "0000","phone": "5053263340"}
{"name": "WALGREEN DRUG STORE #5158","address1": "4051 SOUTHERN BLVD SE","address2": "","city": "RIO RANCHO","state": "NM","zip": "87124","zip+4": "2069","phone": "5058926650"}
{"name": "WALGREEN DRUG STORE #9007","address1": "1870 E HWY 66","address2": "","city": "GALLUP","state": "NM","zip": "87301","zip+4": "0000","phone": "5057229772"}
{"name": "SMITHS PHARMACY #427 #706427","address1": "200 TRAMWAY SE","address2": "","city": "ALBUQUERQUE","state": "NM","zip": "87123","zip+4": "0000","phone": "5052969751"}
{"name": "KMART PHARMACY #9267","address1": "2307 WEST MAIN","address2": "","city": "ARTESIA","state": "NM","zip": "88210","zip+4": "0000","phone": "5057462791"}
{"name": "LOWES MARKETPLACE PHARMACY #55","address1": "675 E 10TH ST","address2": "","city": "ALAMOGORDO","state": "NM","zip": "88310","zip+4": "0000","phone": "5754344130"}
{"name": "ALBUQUERQUE PHARMACY","address1": "500 LOUISIANA BLVD NE","address2": "","city": "ALBUQUERQUE","state": "NM","zip": "87108","zip+4": "2067","phone": "5052625728"}
{"name": "THE MEDICINE SHOPPE #1250","address1": "1123 POPE ST","address2": "","city": "SILVER CITY","state": "NM","zip": "88061","zip+4": "0000","phone": "5053881000"}
{"name": "SMITHS PHARMACY #450 #706450","address1": "8040 ACADEMY RD NE","address2": "","city": "ALBUQUERQUE","state": "NM","zip": "87111","zip+4": "0000","phone": "5058234480"}
{"name": "WALGREEN DRUG STORE #3367","address1": "8011 HARPER AVE NE","address2": "","city": "ALBUQUERQUE","state": "NM","zip": "87109","zip+4": "0000","phone": "5058583017"}
{"name": "LONGS PHARMACY AND GIFTS","address1": "721 MECHEM","address2": "","city": "RUIDOSO","state": "NM","zip": "88345","zip+4": "6911","phone": "5052573882"}
{"name": "KIVA PHARMACY INC","address1": "159 PASEO DE PERALTA","address2": "","city": "SANTA FE","state": "NM","zip": "87501","zip+4": "0000","phone": "5059829550"}
{"name": "SAVON PHARMACY #914","address1": "1956 HWY 180 E","address2": "","city": "SILVER CITY","state": "NM","zip": "88062","zip+4": "0000","phone": "5753880133"}
{"name": "CORAM SPECIALTY INFUSION SERVI","address1": "7400 WASHINGTON ST NE","address2": "","city": "ALBUQUERQUE","state": "NM","zip": "87109","zip+4": "0000","phone": "5057983500"}
{"name": "SMITHS PHARMACY #448 #706448","address1": "8301 GOLF COURSE RD","address2": "","city": "ALBUQUERQUE","state": "NM","zip": "87120","zip+4": "0000","phone": "5058971321"}
{"name": "MEDICAP #8153","address1": "THE AGORA","address2": "7 AVENIDA VISTA GRANDEB8","city": "SANTA FE","state": "NM","zip": "87505","zip+4": "0000","phone": "5054668008"}
{"name": "KMART PHARMACY #7755","address1": "1205 E PINE","address2": "","city": "DEMING","state": "NM","zip": "88030","zip+4": "0000","phone": "5055449008"}
{"name": "MEDICINE SHOPPE #1387","address1": "1275 A S SECOND ST","address2": "","city": "RATON","state": "NM","zip": "87740","zip+4": "0000","phone": "5754450075"}
{"name": "SAVON PHARMACY #922","address1": "6600 CENTRAL AVE SW","address2": "","city": "ALBUQUERQUE","state": "NM","zip": "87121","zip+4": "0000","phone": "5058314641"}
{"name": "SAVON DRUGS #903","address1": "4300 RIDGECREST DR","address2": "","city": "RIO RANCHO","state": "NM","zip": "87124","zip+4": "0000","phone": "5058922262"}
{"name": "LA CLINICA DE FAMILIA INC","address1": "18424 S HWY 28","address2": "","city": "SAN MIGUEL","state": "NM","zip": "88058","zip+4": "0000","phone": "5752334270"}
{"name": "COSTCO PHARMACY #116","address1": "1420 RENAISSANCE BLVD","address2": "","city": "ALBUQUERQUE","state": "NM","zip": "87107","zip+4": "0000","phone": "5053427148"}
{"name": "APRIA HEALTHCARE #072","address1": "4401 MCLEOD ROAD NE","address2": "SUITE C","city": "ALBUQUERQUE","state": "NM","zip": "87109","zip+4": "0000","phone": "8007728289"}
{"name": "PHARMCARE HLTH SVCS","address1": "3807 ACADEMY PARKWAY SOUTH NE","address2": "","city": "ALBUQUERQUE","state": "NM","zip": "87109","zip+4": "0000","phone": "5053459299"}
{"name": "SAVON PHARMACY #907","address1": "808 N CANAL","address2": "","city": "CARLSBAD","state": "NM","zip": "88220","zip+4": "0000","phone": "5758852165"}
{"name": "SAVON PHARMACY #925","address1": "2551 E LOHMAN AVE","address2": "","city": "LAS CRUCES","state": "NM","zip": "88011","zip+4": "8233","phone": "5755219841"}
{"name": "WALGREEN DRUG STORE #3934","address1": "3298 CERRILLOS ROAD","address2": "","city": "SANTA FE","state": "NM","zip": "87505","zip+4": "0000","phone": "5054743523"}
{"name": "SAVON DRUGS #939","address1": "12201 ACADEMY RD N E","address2": "","city": "ALBUQUERQUE","state": "NM","zip": "87111","zip+4": "0000","phone": "5052759733"}
{"name": "FAMILY INSTITUTIONAL PHARMACY","address1": "1801 W 21 ST SUITE B","address2": "","city": "CLOVIS","state": "NM","zip": "88101","zip+4": "0000","phone": "5057629621"}
{"name": "WALGREEN DRUG STORE #4510","address1": "4221 E MAIN","address2": "","city": "FARMINGTON","state": "NM","zip": "87402","zip+4": "0000","phone": "5055642652"}
{"name": "WALGREEN DRUG STORE #4421","address1": "3100 N MAIN","address2": "","city": "LAS CRUCES","state": "NM","zip": "88001","zip+4": "0000","phone": "5055259602"}
{"name": "NCS HEALTHCARE OF ALBUQUERQUE","address1": "9019 WASHINGTON ST NE SUITE B1","address2": "","city": "ALBUQUERQUE","state": "NM","zip": "87113","zip+4": "0000","phone": "5053449759"}
{"name": "SAVON PHARMACY #909","address1": "1285 EL PASEO RD","address2": "","city": "LAS CRUCES","state": "NM","zip": "88001","zip+4": "0000","phone": "5755411264"}
{"name": "WAL-MART PHARMACY #102653","address1": "1604 EAST SPRUCE STREET","address2": "","city": "PORTALES","state": "NM","zip": "88130","zip+4": "0000","phone": "5753593435"}
{"name": "WALGREEN DRUG STORE #4650","address1": "138 SUDDERTH","address2": "","city": "RUIDOSO","state": "NM","zip": "88345","zip+4": "0000","phone": "5052570054"}
{"name": "SAVON PHARMACY #987","address1": "3001 S ST FRANCIS DR","address2": "","city": "SANTA FE","state": "NM","zip": "87501","zip+4": "0000","phone": "5059928638"}
{"name": "ROUTE 66 PHARMACY #2","address1": "1128 HISTORIC RT 66 HWY","address2": "","city": "SANTA ROSA","state": "NM","zip": "88435","zip+4": "0000","phone": "5754725666"}
{"name": "SAVON PHARMACY #986","address1": "3542 ZAFARANO DR","address2": "","city": "SANTA FE","state": "NM","zip": "87505","zip+4": "0000","phone": "5054712914"}
{"name": "JEMEZ VALLEY MEDICAL CLINIC","address1": "8372 HWY 4","address2": "","city": "CANON","state": "NM","zip": "87025","zip+4": "0000","phone": "5052893291"}
{"name": "OJO ENCINO NAVAJO CLINIC","address1": "2 OJO ENCINO CHAPTER RD","address2": "","city": "OJO ENCINO","state": "NM","zip": "87013","zip+4": "0000","phone": "5057312268"}
{"name": "COUNSELOR NAVAJO CLINIC","address1": "9837 US HIGHWAY 550","address2": "","city": "COUNSELOR","state": "NM","zip": "87018","zip+4": "0000","phone": "5055684328"}
{"name": "TORREON NAVAJO CLINIC","address1": "2500 STATE HWY 197","address2": "","city": "TORREON","state": "NM","zip": "87013","zip+4": "0000","phone": "5057312284"}
{"name": "CUBA HEALTH CENTER","address1": "6349 US HWY 550","address2": "","city": "CUBA","state": "NM","zip": "87013","zip+4": "0000","phone": "5052893291"}
{"name": "QUESTA HEALTH CENTER","address1": "2573 STATE HWY 522","address2": "","city": "QUESTA","state": "NM","zip": "87556","zip+4": "0000","phone": "5055860315"}
{"name": "LAS CLINICAS DEL NORTE","address1": "35282 HIGHWAY 285","address2": "","city": "OJO CALIENTE","state": "NM","zip": "87549","zip+4": "0000","phone": "5055832191"}
{"name": "PMS CATRON COUNTY CLINIC","address1": "ONE FOSTER LN","address2": "","city": "RESERVE","state": "NM","zip": "87830","zip+4": "0000","phone": "5055336456"}
{"name": "FARMINGTON COMMUNITY HEALTH CE","address1": "1001 W BROADWAY","address2": "STE D","city": "FARMINGTON","state": "NM","zip": "87401","zip+4": "0000","phone": "5053274796"}
{"name": "CARLSBAD FAMILY HEALTH CENTER","address1": "2013 SAN JOSE BLVD","address2": "","city": "CARLSBAD","state": "NM","zip": "88220","zip+4": "0000","phone": "5058872455"}
{"name": "LOVING HEALTH CLINIC","address1": "602 S 4TH ST","address2": "","city": "LOVING","state": "NM","zip": "88256","zip+4": "0000","phone": "5057453573"}
{"name": "ARTESIA HEALTH RESOURCES","address1": "1105 MEMORIAL DR","address2": "","city": "ARTESIA","state": "NM","zip": "88210","zip+4": "0000","phone": "5057469848"}
{"name": "WESTERN NM MED GROUP GALLOP","address1": "610 N 5TH ST","address2": "","city": "GALLUP","state": "NM","zip": "87301","zip+4": "0000","phone": "5058633120"}
{"name": "WESTERN NM MEDICAL GROUP GRANT","address1": "1217 BONITA ST","address2": "","city": "GRANTS","state": "NM","zip": "87020","zip+4": "0000","phone": "5052872958"}
{"name": "WESTERN NM MEDICAL GROUP THORE","address1": "15 NAVARRE","address2": "","city": "THOREAU","state": "NM","zip": "87323","zip+4": "0000","phone": "5058627417"}
{"name": "SACRAMENTO MOUNTAIN MEDICAL CE","address1": "74 JAMES CANYON HWY","address2": "","city": "CLOUDCROFT","state": "NM","zip": "88317","zip+4": "0000","phone": "5056822542"}
{"name": "ESPERANZA FAMILY HEALTH CENTER","address1": "903 C N 5TH ST","address2": "","city": "ESTANCIA","state": "NM","zip": "87016","zip+4": "0000","phone": "5053842777"}
{"name": "ORTIZ MOUNTAIN HEALTH CENTER","address1": "08A MAIN ST","address2": "","city": "CERRILLOS","state": "NM","zip": "87010","zip+4": "0000","phone": "5054706266"}
{"name": "MOUNTAINAIR FAMILY HEALTH CENT","address1": "105 E PINON","address2": "","city": "MOUNTAINAIR","state": "NM","zip": "87036","zip+4": "0000","phone": "5058472271"}
{"name": "RIO RANCHO FAMILY HLTH CTR","address1": "184 UNSER BLVD","address2": "","city": "RIO RANCHO","state": "NM","zip": "87124","zip+4": "0000","phone": "5058960929"}
{"name": "TULAROSA MEDICAL CENTER","address1": "111 CENTRAL AVE","address2": "","city": "TULAROSA","state": "NM","zip": "88352","zip+4": "0000","phone": "5055851250"}
{"name": "WAL-MART PHARMACY #102656","address1": "1610 N RIVERSIDE DRIVE","address2": "","city": "ESPANOLA","state": "NM","zip": "87532","zip+4": "0000","phone": "5057470427"}
{"name": "WAL-MART PHARMACY #102652","address1": "1000 ROBERTS DRIVE","address2": "","city": "GRANTS","state": "NM","zip": "87020","zip+4": "0000","phone": "5052853378"}
{"name": "TARGET PHARMACY #0625","address1": "9371 COORS ROAD NW","address2": "","city": "ALBUQUERQUE","state": "NM","zip": "87114","zip+4": "0000","phone": "5058997731"}
{"name": "SAVON PHARMACY #990","address1": "1110 S MAIN ST","address2": "","city": "ROSWELL","state": "NM","zip": "88203","zip+4": "0000","phone": "5756227039"}
{"name": "SMITHS PHARMACY #461 #706461","address1": "2308 CERRILLOS ROAD","address2": "","city": "SANTA FE","state": "NM","zip": "87501","zip+4": "0000","phone": "5054717874"}
{"name": "READY PHARMACY","address1": "111 W LISA DR","address2": "","city": "CHAPARRAL","state": "NM","zip": "88081","zip+4": "0000","phone": "5758248211"}
{"name": "SMITHS PHARMACY #424 #706424","address1": "02B HWY 344","address2": "","city": "EDGEWOOD","state": "NM","zip": "87015","zip+4": "0000","phone": "5052869040"}
{"name": "SHARE 'N CARE PHARMACY","address1": "701 DALIES AVE","address2": "STE B","city": "BELEN","state": "NM","zip": "87002","zip+4": "0000","phone": "5058647471"}
{"name": "SAVON PHARMACY #917","address1": "1625 RIO BRAVO BLVD S W","address2": "","city": "ALBUQUERQUE","state": "NM","zip": "87105","zip+4": "0000","phone": "5058772240"}
{"name": "SAFEWAY #1438","address1": "415 N MAIN STREET","address2": "","city": "AZTEC","state": "NM","zip": "87410","zip+4": "0000","phone": "5053346261"}
{"name": "WALGREEN DRUG STORE #5732","address1": "7850 ENCHANTED HILLS NE","address2": "","city": "RIO RANCHO","state": "NM","zip": "87124","zip+4": "0000","phone": "5057712771"}
{"name": "SMITHS PHARMACY #459 #706459","address1": "8100 WYOMING NE SUITE A","address2": "","city": "ALBUQUERQUE","state": "NM","zip": "87109","zip+4": "0000","phone": "5058579783"}
{"name": "WALGREEN DRUG STORE #5731","address1": "9500 GOLF COURSE RD NW","address2": "","city": "ALBUQUERQUE","state": "NM","zip": "87114","zip+4": "4270","phone": "5058979988"}
{"name": "COSTCO PHARMACY #667","address1": "500 EUBANK BLVD SE","address2": "","city": "ALBUQUERQUE","state": "NM","zip": "87123","zip+4": "0000","phone": "5053326602"}
{"name": "SAMS PHARMACY #104703","address1": "10600 COORS BLVD BYPASS NW","address2": "","city": "ALBUQUERQUE","state": "NM","zip": "87114","zip+4": "0000","phone": "5059220847"}
{"name": "WALGREEN DRUG STORE #6121","address1": "8400 MONTGOMERY BLVD NE","address2": "","city": "ALBUQUERQUE","state": "NM","zip": "87111","zip+4": "0000","phone": "5055599131"}
{"name": "SAN FELIPE HEALTH CLINIC PHARM","address1": "CEDAR ST 4","address2": "SAN FELIPE PUEBLO","city": "SAN FELIPE","state": "NM","zip": "87001","zip+4": "0000","phone": "5058672739"}
{"name": "LOGAN FAMILY HEALTH CENTER","address1": "600 GALLEGOS ST","address2": "","city": "LOGAN","state": "NM","zip": "88426","zip+4": "0000","phone": "5054875488"}
{"name": "MAGDALENA CLINIC","address1": "801 10TH ST","address2": "","city": "MAGDALENA","state": "NM","zip": "87825","zip+4": "0000","phone": "5058543161"}
{"name": "SAMS PHARMACY #106672","address1": "300 EUBANK BLVD NE","address2": "","city": "ALBUQUERQUE","state": "NM","zip": "87123","zip+4": "0000","phone": "5052910998"}
{"name": "MAY PHARMACY","address1": "7010 CENTRAL SE","address2": "STE B","city": "ALBUQUERQUE","state": "NM","zip": "87108","zip+4": "0000","phone": "5052556111"}
{"name": "SMITHS PHARMACY #499 #706499","address1": "901 CALIFORNIA","address2": "","city": "SOCORRO","state": "NM","zip": "87801","zip+4": "0000","phone": "5758359495"}
{"name": "SMITHS PHARMACY #498 #706498","address1": "111 COORS RD NW","address2": "","city": "ALBUQUERQUE","state": "NM","zip": "87121","zip+4": "0000","phone": "5058365322"}
{"name": "SMITHS PHARMACY #497 #706497","address1": "535 CENTRAL AVE","address2": "","city": "LOS ALAMOS","state": "NM","zip": "87544","zip+4": "0000","phone": "5056624778"}
{"name": "SMITHS PHARMACY #496 #706496","address1": "3701 CONSTITUTION NE","address2": "","city": "ALBUQUERQUE","state": "NM","zip": "87110","zip+4": "0000","phone": "5052569443"}
{"name": "SMITHS PHARMACY #485 #706485","address1": "4016 LOUISIANA NE","address2": "","city": "ALBUQUERQUE","state": "NM","zip": "87110","zip+4": "0000","phone": "5058840307"}
{"name": "SMITHS PHARMACY #494 #706494","address1": "5850 EUBANK NE","address2": "","city": "ALBUQUERQUE","state": "NM","zip": "87111","zip+4": "0000","phone": "5052997621"}
{"name": "SMITHS PHARMACY #491 #706491","address1": "2110 PACHECO","address2": "","city": "SANTA FE","state": "NM","zip": "87501","zip+4": "0000","phone": "5054735563"}
{"name": "SAFEWAY #2004","address1": "3540 E MAIN STREET","address2": "","city": "FARMINGTON","state": "NM","zip": "87401","zip+4": "0000","phone": "5055643086"}
{"name": "LAWRENCE BROTHERS #1380","address1": "900 W 2ND ST","address2": "","city": "ROSWELL","state": "NM","zip": "88201","zip+4": "0000","phone": "5056221984"}
{"name": "JOES PHARMACY","address1": "3646 HWY 47","address2": "","city": "PERALTA","state": "NM","zip": "87042","zip+4": "0000","phone": "5058693646"}
{"name": "WAL-MART PHARMACY #102924","address1": "2550 COORS BLDV NW","address2": "","city": "ALBUQUERQUE","state": "NM","zip": "87120","zip+4": "0000","phone": "5053521880"}
{"name": "SAMS PHARMACY #106347","address1": "4500 EAST MAIN","address2": "","city": "FARMINGTON","state": "NM","zip": "87402","zip+4": "0000","phone": "5053265384"}
{"name": "WALGREEN DRUG STORE #6346","address1": "525 W ZIA ROAD","address2": "","city": "SANTA FE","state": "NM","zip": "87505","zip+4": "0000","phone": "5058200913"}
{"name": "SAVON PHARMACY #927","address1": "600 N GUADALUPE ST","address2": "","city": "SANTA FE","state": "NM","zip": "87501","zip+4": "0000","phone": "5059824806"}
{"name": "SAMS PHARMACY #104784","address1": "2711 NORTH TELSHOR BLVD","address2": "","city": "LAS CRUCES","state": "NM","zip": "88011","zip+4": "0000","phone": "5755217890"}
{"name": "RX INNOVATIONS INC #1","address1": "7215 WASHINGTON ST NE","address2": "","city": "ALBUQUERQUE","state": "NM","zip": "87109","zip+4": "0000","phone": "5058814601"}
{"name": "MAY PHARMACY","address1": "600 CENTRAL","address2": "","city": "MORIARITY","state": "NM","zip": "87035","zip+4": "0000","phone": "5058329988"}
{"name": "WAL-MART PHARMACY #103596","address1": "2250 MAIN STREET NW","address2": "","city": "LOS LUNAS","state": "NM","zip": "87031","zip+4": "0000","phone": "5055654622"}
{"name": "SAVON PHARMACY #919","address1": "2351 MAIN ST SE","address2": "","city": "LOS LUNAS","state": "NM","zip": "87031","zip+4": "0000","phone": "5058652089"}
{"name": "WALGREEN DRUG STORE #7351","address1": "4700 4TH ST NW","address2": "","city": "ALBUQUERQUE","state": "NM","zip": "87107","zip+4": "0000","phone": "5053441371"}
{"name": "WALGREEN DRUG STORE #7442","address1": "1201 UNSER BLVD SW","address2": "","city": "ALBUQUERQUE","state": "NM","zip": "87121","zip+4": "0000","phone": "5058310690"}
{"name": "WAL-MART PHARMACY #105155","address1": "1550 SOUTH VALLEY DRIVE","address2": "","city": "LAS CRUCES","state": "NM","zip": "88005","zip+4": "0000","phone": "5755236844"}
{"name": "WAL-MART PHARMACY #105166","address1": "1021 EAST PINE STREET","address2": "","city": "DEMING","state": "NM","zip": "88030","zip+4": "0000","phone": "5755466746"}
{"name": "SAMS PHARMACY #106408","address1": "4201 RODEO ROAD","address2": "","city": "SANTA FE","state": "NM","zip": "87505","zip+4": "0000","phone": "5054710152"}
{"name": "K & M LAB AND PHARMACY","address1": "5740 NIGHT WHISPER NW","address2": "STE 110","city": "ALBUQUERQUE","state": "NM","zip": "87114","zip+4": "0000","phone": "5058282348"}
{"name": "QUAY COUNTY FAMILY HEALTH CENT","address1": "1302 E MAIN ST","address2": "","city": "TUCUMCARI","state": "NM","zip": "88401","zip+4": "0000","phone": "5054612200"}
{"name": "WALGREEN DRUG STORE #7881","address1": "5 WALKER RD","address2": "","city": "EDGEWOOD","state": "NM","zip": "87015","zip+4": "0000","phone": "5052810178"}
{"name": "WALGREEN DRUG STORE #2026","address1": "100 E HWY 550","address2": "","city": "BERNALILLO","state": "NM","zip": "87004","zip+4": "0000","phone": "5058675471"}
{"name": "WALGREEN DRUG STORE #2053","address1": "6565 PARADISE BLVD NW","address2": "","city": "ALBUQUERQUE","state": "NM","zip": "87114","zip+4": "0000","phone": "5052170980"}
{"name": "WALGREEN DRUG STORE #2050","address1": "315 N MAIN ST","address2": "","city": "BELEN","state": "NM","zip": "87002","zip+4": "0000","phone": "5058642083"}
{"name": "LA TIENDA PHARMACY","address1": "1301 S CANAL","address2": "","city": "CARLSBAD","state": "NM","zip": "88220","zip+4": "0000","phone": "5756280637"}
{"name": "WAL-MART PHARMACY #105492","address1": "700 NORTH 6TH STREET","address2": "","city": "SOCORRO","state": "NM","zip": "87801","zip+4": "0000","phone": "5758381426"}
{"name": "PHARMACA INTEGRATIVE PHARMACY","address1": "530 W CORDOVA RD","address2": "STE B","city": "SANTA FE","state": "NM","zip": "87505","zip+4": "0000","phone": "5058207467"}
{"name": "WALGREEN DRUG STORE #9213","address1": "1900 WYOMING BLVD NE","address2": "","city": "ALBUQUERQUE","state": "NM","zip": "87112","zip+4": "0000","phone": "5052171238"}
{"name": "WAL-MART PHARMACY #105430","address1": "3500 COORS BLVD SW","address2": "","city": "ALBUQUERQUE","state": "NM","zip": "87105","zip+4": "0000","phone": "5058778987"}
{"name": "WALGREEN DRUG STORE #9608","address1": "6250 PASEO DEL NORTE NE","address2": "","city": "ALBUQUERQUE","state": "NM","zip": "87113","zip+4": "0000","phone": "5052172389"}
{"name": "WAL-MART PHARMACY #103427","address1": "604 NORTH 26TH STREET","address2": "","city": "ARTESIA","state": "NM","zip": "88210","zip+4": "0000","phone": "5757466137"}
{"name": "SANTA FE COMMUNITY GUIDANCE CE","address1": "2960 RODEO PARK DR WEST","address2": "","city": "SANTA FE","state": "NM","zip": "87505","zip+4": "0000","phone": "5059869633"}
{"name": "TARGET PHARMACY #2031","address1": "6100 PASEO DEL NORTE NE","address2": "","city": "ALBUQUERQUE","state": "NM","zip": "87113","zip+4": "0000","phone": "5053460136"}
{"name": "WALGREEN DRUG STORE #7438","address1": "5850 EUBANK BLVD NE","address2": "","city": "ALBUQUERQUE","state": "NM","zip": "87111","zip+4": "0000","phone": "5052172815"}
{"name": "DEMING HEALTH CENTER","address1": "205 E HEMLOCK ST","address2": "","city": "DEMING","state": "NM","zip": "88030","zip+4": "0000","phone": "5055464663"}
{"name": "SOCORRO COMMUNITY HEALTH CNTR","address1": "1300 ENTERPRISE","address2": "","city": "SOCORRO","state": "NM","zip": "87801","zip+4": "0000","phone": "5058354444"}
{"name": "SAMS PHARMACY #104938","address1": "1421 NORTH RENAISSANCE BLVD NE","address2": "","city": "ALBUQUERQUE","state": "NM","zip": "87107","zip+4": "0000","phone": "5053449129"}
{"name": "WAL-MART PHARMACY #103317","address1": "8511 GOLF COURSE ROAD NW","address2": "","city": "ALBUQUERQUE","state": "NM","zip": "87114","zip+4": "0000","phone": "5057923683"}
{"name": "TARGET PHARMACY #0356","address1": "8510 MONTGOMERY BLVD NE","address2": "","city": "ALBUQUERQUE","state": "NM","zip": "87111","zip+4": "0000","phone": "5053480066"}
{"name": "PLAZA MEDICAL SVCS AND SUPPLY","address1": "1700 PLAZA ST STE D","address2": "","city": "LAS VEGAS","state": "NM","zip": "87701","zip+4": "0000","phone": "5054253325"}
{"name": "WAL-MART PHARMACY #103732","address1": "901 UNSER BLVD SOUTHEAST","address2": "","city": "RIO RANCHO","state": "NM","zip": "87124","zip+4": "0000","phone": "5059629239"}
{"name": "MAY PHARMACY","address1": "12129 N HWY 14","address2": "","city": "CEDAR CREST","state": "NM","zip": "87008","zip+4": "0000","phone": "5052816488"}
{"name": "ALBUQUERQUE PHCY","address1": "500 LOUISANA BLVD","address2": "STE A","city": "ALBUQUERQUE","state": "NM","zip": "87108","zip+4": "0000","phone": "5052625739"}
{"name": "WAL-MART PHARMACY #103428","address1": "1400 WEST MAIN STREET","address2": "","city": "FARMINGTON","state": "NM","zip": "87401","zip+4": "0000","phone": "5053272262"}
{"name": "EL PASEO PHARMACY LLC","address1": "1605 EL PASEO RD","address2": "","city": "LAS CRUCES","state": "NM","zip": "88001","zip+4": "0000","phone": "5055411500"}
{"name": "CVS PHARMACY #09263","address1": "511 W CORDOVA RD","address2": "","city": "SANTA FE","state": "NM","zip": "87505","zip+4": "1843","phone": "5059835546"}
{"name": "CVS PHARMACY #09269","address1": "195 PASEO DE PERALTA","address2": "","city": "SANTA FE","state": "NM","zip": "87501","zip+4": "0000","phone": "5059828787"}
{"name": "SAMS PHARMACY #104961","address1": "4400 NORTH MAIN STREET","address2": "","city": "ROSWELL","state": "NM","zip": "88201","zip+4": "0000","phone": "5756279866"}
{"name": "MENAUL COMPOUNDING PHCY","address1": "11417 MENAUL BLVD NE","address2": "","city": "ALBUQUERQUE","state": "NM","zip": "87112","zip+4": "0000","phone": "5052911600"}
{"name": "NEW MEXICO ONCOLOGY HEMATOLOGY","address1": "4901 LANG AVE NE","address2": "","city": "ALBUQUERQUE","state": "NM","zip": "87109","zip+4": "0000","phone": "5057963078"}
{"name": "WAL-MART PHARMACY #103385","address1": "9600 SAGE ROAD SW","address2": "","city": "ALBUQUERQUE","state": "NM","zip": "87121","zip+4": "0000","phone": "5058314023"}
{"name": "TARGET PHARMACY #0952","address1": "4900 E MAIN ST","address2": "","city": "FARMINGTON","state": "NM","zip": "87402","zip+4": "0000","phone": "5053273555"}
{"name": "PHARMACA INTEGRATIVE PHARMACY","address1": "8910 HOLLY AVE NE","address2": "","city": "ALBUQUERQUE","state": "NM","zip": "87122","zip+4": "0000","phone": "5057960387"}
{"name": "SAVON PHARMACY #908","address1": "13150 CENTRAL AVE SE","address2": "","city": "ALBUQUERQUE","state": "NM","zip": "87123","zip+4": "0000","phone": "5052922293"}
{"name": "SAVON PHARMACY #912","address1": "3301 SOUTHERN BLVD SE","address2": "","city": "RIO RANCHO","state": "NM","zip": "87124","zip+4": "0000","phone": "5058910895"}
{"name": "SAVON PHARMACY #920","address1": "710A PASEO DEL PUEBLO SUR","address2": "","city": "TAOS","state": "NM","zip": "87571","zip+4": "0000","phone": "5757581203"}
{"name": "SAVON PHARMACY #924","address1": "8100 VENTURA ST NE","address2": "","city": "ALBUQUERQUE","state": "NM","zip": "87122","zip+4": "0000","phone": "5058228484"}
{"name": "SAVON PHARMACY #905","address1": "2910 JUAN TABO BLVD NE","address2": "","city": "ALBUQUERQUE","state": "NM","zip": "87112","zip+4": "0000","phone": "5052998600"}
{"name": "SAVON PHARMACY #923","address1": "7800 ENCHANTED HILLS BLVD NE","address2": "","city": "RIO RANCHO","state": "NM","zip": "87144","zip+4": "0000","phone": "5057718411"}
{"name": "SAVON PHARMACY #915","address1": "6200 COORS BLVD NW","address2": "","city": "ALBUQUERQUE","state": "NM","zip": "87120","zip+4": "0000","phone": "5058985970"}
{"name": "TARGET PHARMACY #0357","address1": "11120 LOMAS BLVD NE","address2": "","city": "ALBURQUERQUE","state": "NM","zip": "87112","zip+4": "0000","phone": "5052929110"}
{"name": "COSTCO PHARMACY #1016","address1": "9955 COORS BYPASS NW","address2": "","city": "ALBUQUERQUE","state": "NM","zip": "87114","zip+4": "0000","phone": "5059227409"}
{"name": "VIDA PHARMACY LLC","address1": "8500 JEFFERSON BLVD NE","address2": "STE D","city": "ALBUQUERQUE","state": "NM","zip": "87113","zip+4": "0000","phone": "5058561660"}
{"name": "SMITHS PHARMACY #463 #706463","address1": "4800 MCMAHON BLVD NW","address2": "","city": "ALBUQUERQUE","state": "NM","zip": "87114","zip+4": "5010","phone": "5059224303"}
{"name": "WALGREEN DRUG STORE #11959","address1": "5201 CENTRAL AVE NE","address2": "","city": "ALBUQUERQUE","state": "NM","zip": "87108","zip+4": "1328","phone": "5052179907"}
{"name": "WALGREEN DRUG STORE #09715","address1": "2200 UNSER BLVD NW","address2": "","city": "ALBUQUERQUE","state": "NM","zip": "87120","zip+4": "0000","phone": "5052179940"}
{"name": "WAL-MART PHARMACY #3731","address1": "460 NM HIGHWAY 528","address2": "","city": "BERNALILLO","state": "NM","zip": "87004","zip+4": "0000","phone": "5057714877"}
{"name": "WAL-MART PHARMACY #4201","address1": "86 STATE ROAD 344","address2": "","city": "EDGEWOOD","state": "NM","zip": "87015","zip+4": "0000","phone": "5052863053"}
{"name": "WALGREEN DRUG STORE #11361","address1": "1861 MAIN ST","address2": "","city": "LOS LUNAS","state": "NM","zip": "87031","zip+4": "0000","phone": "5058652933"}
{"name": "WAL-MART PHARMACY #4341","address1": "2001 HR ASHBAUGH DR","address2": "","city": "TRUTH OR CONSEQUEN","state": "NM","zip": "87901","zip+4": "0000","phone": "5758940343"}
{"name": "WALGREENS #11958","address1": "3632 MENAUL BLVD NE","address2": "","city": "ALBUQUERQUE","state": "NM","zip": "87110","zip+4": "0000","phone": "5052172551"}
{"name": "ST CHRISTOPHER INC","address1": "801 ENCINO PLACE","address2": "A 16","city": "ALBUQUERQUE","state": "NM","zip": "87102","zip+4": "0000","phone": "5058211146"}
{"name": "CARLOS A CADENA DPM","address1": "2800 DORAL COURT","address2": "STE A","city": "LAS CRUCES","state": "NM","zip": "88011","zip+4": "0000","phone": "5755210055"}
{"name": "CARLOS J ESPARZA MD #1","address1": "801 ENCITO PLACE NE","address2": "STE F21","city": "ALBUQUERQUE","state": "NM","zip": "87102","zip+4": "0000","phone": "5052421711"}
{"name": "BCA MEDICAL ASSOCIATES #1","address1": "813 NORTH WASHINGTON AVENUE","address2": "","city": "ROSWELL","state": "NM","zip": "88201","zip+4": "0000","phone": "5756222606"}
{"name": "SOUTHWEST CARE CENTER","address1": "649 HARKLE RD","address2": "STE C","city": "SANTA FE","state": "NM","zip": "87505","zip+4": "0000","phone": "5059898200"}
{"name": "ROLANDO CADENA DPM","address1": "2930 HILLRISE DRIVE","address2": "STE 4","city": "LAS CRUCES","state": "NM","zip": "88011","zip+4": "0000","phone": "5755223330"}
{"name": "FIRST CARE CLINIC","address1": "3530 FOOTHILLS","address2": "STE N","city": "LAS CRUCES","state": "NM","zip": "88011","zip+4": "0000","phone": "5755326054"}
{"name": "LOS LUNAS FAMILY PRACTICE","address1": "127 SANDOVAL ROAD","address2": "","city": "LOS LUNAS","state": "NM","zip": "87031","zip+4": "0000","phone": "5058653373"}
{"name": "REBECCA J SHODEN MD","address1": "883 LEAD AVE SE","address2": "STE A","city": "AUBUQUERQUE","state": "NM","zip": "87102","zip+4": "0000","phone": "5052478820"}
{"name": "SOUTHWEST WOMENS HEALTH","address1": "883 LEAD AVENUE SE","address2": "STE A","city": "ALBUQUERQUE","state": "NM","zip": "87102","zip+4": "0000","phone": "5058437131"}
{"name": "UNMH PHARMACY AT SOUTH EAST HE","address1": "8200 CENTRAL AVE SE","address2": "SUITE 106","city": "ALBUQUERQUE","state": "NM","zip": "87108","zip+4": "0000","phone": "5052724563"}
{"name": "CVS PHARMACY #08917","address1": "7847 TRAMWAY BLVD NE","address2": "","city": "ALBUQUERQUE","state": "NM","zip": "87122","zip+4": "2515","phone": "4017651500"}
{"name": "CVS PHARMACY # #08916","address1": "3821 ELLISON DRIVENW","address2": "","city": "ALBUQUERQUE","state": "NM","zip": "87114","zip+4": "0000","phone": "5058999001"}
{"name": "WALGREENS #10808","address1": "100 ROSEDALE RD","address2": "","city": "SILVER CITY","state": "NM","zip": "88061","zip+4": "8742","phone": "5755340053"}
{"name": "CVS PHARMACY # #08918","address1": "4340 SAN MATEO BLVD NE","address2": "","city": "ALBUQUERQUE","state": "NM","zip": "87110","zip+4": "1234","phone": "5058840417"}
{"name": "CVS PHARMACY # #08915","address1": "9640 MENAUL BLVD NE","address2": "","city": "ALBUQUERQUE","state": "NM","zip": "87112","zip+4": "2217","phone": "5052944167"}
{"name": "WALGREENS #11458","address1": "3990 E LOHMAN AVE","address2": "","city": "LAS CRUCES","state": "NM","zip": "88011","zip+4": "8274","phone": "5755221457"}
{"name": "LAWRENCE BROS. PHARMACY # #138","address1": "721 MECHEM DR","address2": "","city": "RUIDOSO","state": "NM","zip": "88345","zip+4": "6911","phone": "5756301081"}
{"name": "WALGREENS #12407","address1": "10800 UNSER BLVD NW","address2": "","city": "ALBUQUERQUE","state": "NM","zip": "87114","zip+4": "0000","phone": "5052051849"}
{"name": "WALGREENS #12004","address1": "8011 VENTURA NE","address2": "","city": "ALBUQUERQUE","state": "NM","zip": "87122","zip+4": "0000","phone": "5052172860"}
{"name": "WALGREENS #12751","address1": "811 PASEO DEL PUEBLO SUR","address2": "","city": "TAOS","state": "NM","zip": "87571","zip+4": "6395","phone": "5757581704"}
{"name": "PRESBYTERIAN MED SERVICES","address1": "PO BOX 2267","address2": "","city": "SANTA FE","state": "NM","zip": "87504","zip+4": "2267","phone": "8007531962"},