{"name": "SAMMETH DRUG","address1": "115 N TOWNVILLE ST","address2": "","city": "SENECA","state": "SC","zip": "29678","zip+4": "0000","phone": "8648823301"}
{"name": "RITE AID PHARMACY #11595","address1": "780 NORTH PINE STREET","address2": "","city": "SPARTANBURG","state": "SC","zip": "29303","zip+4": "0000","phone": "8645859136"}
{"name": "RITE AID PHARMACY #11583","address1": "818 HARDEN STREET","address2": "","city": "COLUMBIA","state": "SC","zip": "29205","zip+4": "0000","phone": "8037990043"}
{"name": "RITE AID PHARMACY #11576","address1": "1077 BROAD STREET","address2": "","city": "SUMTER","state": "SC","zip": "29150","zip+4": "0000","phone": "8037786551"}
{"name": "RITE AID PHARMACY #11623","address1": "1825 WEST PALMETTO STREET","address2": "","city": "FLORENCE","state": "SC","zip": "29501","zip+4": "0000","phone": "8436628776"}
{"name": "RITE AID PHARMACY #11611","address1": "1115 OLD TOWNE ROAD","address2": "","city": "CHARLESTON","state": "SC","zip": "29407","zip+4": "0000","phone": "8437665593"}
{"name": "RITE AID PHARMACY #11612","address1": "1934 ASHLEY RIVER ROAD","address2": "","city": "CHARLESTON","state": "SC","zip": "29407","zip+4": "0000","phone": "8435566551"}
{"name": "RITE AID PHARMACY #11625","address1": "1610 Z CHURCH STREET","address2": "","city": "CONWAY","state": "SC","zip": "29526","zip+4": "0000","phone": "8432485731"}
{"name": "RITE AID PHARMACY #11668","address1": "943 PINE LOG ROAD","address2": "","city": "AIKEN","state": "SC","zip": "29803","zip+4": "0000","phone": "8036482366"}
{"name": "RITE AID PHARMACY #11601","address1": "1320 WEST FLOYD BAKER BOULEVAR","address2": "","city": "GAFFNEY","state": "SC","zip": "29341","zip+4": "0000","phone": "8644893129"}
{"name": "GOOD PHARMACY INC","address1": "1237 EBENEZER RD","address2": "","city": "ROCK HILL","state": "SC","zip": "29732","zip+4": "2340","phone": "8033272081"}
{"name": "RITE AID PHARMACY #11656","address1": "1020 EAST NORTH 1ST STREET","address2": "","city": "SENECA","state": "SC","zip": "29678","zip+4": "0000","phone": "8648829610"}
{"name": "RITE AID PHARMACY #11598","address1": "1811 EAST MAIN STREET","address2": "","city": "SPARTANBURG","state": "SC","zip": "29307","zip+4": "0000","phone": "8645859184"}
{"name": "RITE AID PHARMACY #11650","address1": "1100 WEST WADE HAMPTON BOULEVA","address2": "","city": "GREER","state": "SC","zip": "29650","zip+4": "0000","phone": "8648770155"}
{"name": "SANTEE DRUG CENTER","address1": "1162 A BYRNES DR","address2": "","city": "SAINT STEPHEN","state": "SC","zip": "29479","zip+4": "0910","phone": "8435673291"}
{"name": "RITE AID PHARMACY #11618","address1": "1220 BEN SAWYER BOULEVARD","address2": "","city": "MT PLEASANT","state": "SC","zip": "29464","zip+4": "0000","phone": "8438843261"}
{"name": "RITE AID PHARMACY #11664","address1": "201 NORTH MAIN STREET","address2": "","city": "LANCASTER","state": "SC","zip": "29720","zip+4": "0000","phone": "8032852066"}
{"name": "RITE AID PHARMACY #11641","address1": "6700 WHITE HORSE ROAD","address2": "","city": "GREENVILLE","state": "SC","zip": "29611","zip+4": "0000","phone": "8642466641"}
{"name": "RITE AID PHARMACY #11621","address1": "602 BACONS BRIDGE ROAD","address2": "","city": "SUMMERVILLE","state": "SC","zip": "29485","zip+4": "0000","phone": "8438735830"}
{"name": "CVS PHARMACY #04111","address1": "2814 N MAIN ST","address2": "","city": "ANDERSON","state": "SC","zip": "29621","zip+4": "0000","phone": "8642243562"}
{"name": "CVS PHARMACY #04523","address1": "1614 RICHLAND AVE","address2": "","city": "AIKEN","state": "SC","zip": "29801","zip+4": "0000","phone": "8036483203"}
{"name": "CVS PHARMACY #03541","address1": "109 HWY 28 BYPASS","address2": "","city": "ANDERSON","state": "SC","zip": "29624","zip+4": "0000","phone": "8642969734"}
{"name": "CVS PHARMACY #03809","address1": "609 CHERRY RD","address2": "","city": "ROCK HILL","state": "SC","zip": "29732","zip+4": "0000","phone": "8033286111"}
{"name": "RITE AID PHARMACY #11643","address1": "2422 WADE HAMPTON BOULEVARD","address2": "","city": "GREENVILLE","state": "SC","zip": "29615","zip+4": "0000","phone": "8642448066"}
{"name": "CVS PHARMACY #03565","address1": "901 MARKET ST","address2": "","city": "CHERAW","state": "SC","zip": "29520","zip+4": "0000","phone": "8435379374"}
{"name": "CVS PHARMACY #04172","address1": "315 W BUTLER RD","address2": "","city": "MAULDIN","state": "SC","zip": "29662","zip+4": "0000","phone": "8642881847"}
{"name": "P AND H DISCOUNT PHARMACY","address1": "700 CHESTERFIELD HWY","address2": "","city": "CHERAW","state": "SC","zip": "29520","zip+4": "0000","phone": "8435373801"}
{"name": "RILEYS DRUGS INC","address1": "304 COLUMBIA AVE","address2": "","city": "LEXINGTON","state": "SC","zip": "29072","zip+4": "2614","phone": "8033592587"}
{"name": "LONGS DRUGS OF SALUDA","address1": "307 W BUTLER AVE","address2": "","city": "SALUDA","state": "SC","zip": "29138","zip+4": "1397","phone": "8644457415"}
{"name": "SUPRX PHARMACY #32","address1": "36 SUNSET DR","address2": "","city": "MANNING","state": "SC","zip": "29102","zip+4": "0699","phone": "8034332412"}
{"name": "ORANGE CUT RATE DRUG STORE INC","address1": "1144 RUSSELL STREET","address2": "","city": "ORANGEBURG","state": "SC","zip": "29115","zip+4": "0000","phone": "8035345931"}
{"name": "R AND J DRUGS","address1": "4633 SAVANNAH HWY","address2": "","city": "NORTH","state": "SC","zip": "29112","zip+4": "0000","phone": "8032472133"}
{"name": "PROFESSIONAL PHARMACY","address1": "1409 N MAIN ST","address2": "","city": "ANDERSON","state": "SC","zip": "29621","zip+4": "4732","phone": "8642243581"}
{"name": "SUNSET PHARMACY INC","address1": "101 PROFESSIONAL AVE","address2": "","city": "WEST COLUMBIA","state": "SC","zip": "29169","zip+4": "4711","phone": "8037946440"}
{"name": "DIXON POWERS DRUG COMPANY","address1": "805 N FANT ST","address2": "","city": "ANDERSON","state": "SC","zip": "29621","zip+4": "5718","phone": "8642241684"}
{"name": "CVS PHARMACY #03585","address1": "555 ROBERTSON BLVD","address2": "","city": "WALTERBORO","state": "SC","zip": "29488","zip+4": "0000","phone": "8035491546"}
{"name": "CVS PHARMACY #03801","address1": "2152 SAVANNAH HWY","address2": "","city": "CHARLESTON","state": "SC","zip": "29414","zip+4": "0000","phone": "8435568974"}
{"name": "CVS PHARMACY #03557","address1": "194 JACOBS HWY","address2": "","city": "CLINTON","state": "SC","zip": "29325","zip+4": "0000","phone": "8648335000"}
{"name": "CVS PHARMACY #04156","address1": "100 OUTLET POINT BLVD","address2": "","city": "COLUMBIA","state": "SC","zip": "29210","zip+4": "0000","phone": "8037720403"}
{"name": "RITE AID PHARMACY #11671","address1": "401 MARTINTOWN ROAD","address2": "","city": "NORTH AUGUSTA","state": "SC","zip": "29841","zip+4": "0000","phone": "8032791610"}
{"name": "CVS PHARMACY #04184","address1": "1080 ALICE DRIVE","address2": "","city": "SUMTER","state": "SC","zip": "29150","zip+4": "0000","phone": "8034697150"}
{"name": "CVS PHARMACY #03533","address1": "1063 SOUTH PENDLETON ST","address2": "","city": "EASLEY","state": "SC","zip": "29642","zip+4": "0000","phone": "8648592564"}
{"name": "CVS PHARMACY #03821","address1": "2221 W BOBO NEWSOM HWY","address2": "","city": "HARTSVILLE","state": "SC","zip": "29550","zip+4": "0000","phone": "8433324191"}
{"name": "CVS PHARMACY #03834","address1": "100 REMBERT DENNIS BLVD","address2": "","city": "MONCKS CORNER","state": "SC","zip": "29461","zip+4": "0000","phone": "8037618261"}
{"name": "CVS PHARMACY #03571","address1": "1 MAIN ST","address2": "","city": "WEST PELZER","state": "SC","zip": "29669","zip+4": "0000","phone": "8649476253"}
{"name": "KENS THRIFTEE PHARMACY","address1": "112 E MAIN ST","address2": "","city": "WALHALLA","state": "SC","zip": "29691","zip+4": "0000","phone": "8646389553"}
{"name": "CVS PHARMACY #03572","address1": "1535 JOHN C CALHOUN DRIVE","address2": "","city": "ORANGEBURG","state": "SC","zip": "29115","zip+4": "0000","phone": "8035340521"}
{"name": "CVS PHARMACY #03578","address1": "120 WEST COLUMBIA AVE","address2": "","city": "BATESBURG","state": "SC","zip": "29006","zip+4": "0000","phone": "8035325564"}
{"name": "CVS PHARMACY #03586","address1": "2397 REIDVILLE RD STE 2","address2": "","city": "SPARTANBURG","state": "SC","zip": "29301","zip+4": "0000","phone": "8645769268"}
{"name": "CVS PHARMACY #03599","address1": "7647 HWY 76","address2": "","city": "PENDLETON","state": "SC","zip": "29670","zip+4": "0000","phone": "8646467553"}
{"name": "CVS PHARMACY #03802","address1": "715 E WADE HAMPTON BLVD 7","address2": "","city": "GREER","state": "SC","zip": "29651","zip+4": "0000","phone": "8648792146"}
{"name": "CVS PHARMACY #03537","address1": "210 INGLES PLACE","address2": "","city": "SENECA","state": "SC","zip": "29678","zip+4": "0000","phone": "8648826706"}
{"name": "CVS PHARMACY #03542","address1": "1210 WILSON RD","address2": "","city": "NEWBERRY","state": "SC","zip": "29108","zip+4": "0000","phone": "8032766350"}
{"name": "CVS PHARMACY #03543","address1": "902 WEST GREENWOOD ST","address2": "","city": "ABBEVILLE","state": "SC","zip": "29620","zip+4": "0000","phone": "8644595406"}
{"name": "CVS PHARMACY #03560","address1": "1401 SAM RITTENBERG BLVD","address2": "","city": "CHARLESTON","state": "SC","zip": "29407","zip+4": "0000","phone": "8035564064"}
{"name": "CVS PHARMACY #03564","address1": "1015 KING ST","address2": "","city": "CHARLESTON","state": "SC","zip": "29403","zip+4": "0000","phone": "8037239481"}
{"name": "CVS PHARMACY #03567","address1": "6617 N KINGS HWY","address2": "","city": "MYRTLE BEACH","state": "SC","zip": "29572","zip+4": "0000","phone": "8434495246"}
{"name": "CVS PHARMACY #04071","address1": "733 SOUTH IRBY ST","address2": "","city": "FLORENCE","state": "SC","zip": "29501","zip+4": "0000","phone": "8436654475"}
{"name": "CVS PHARMACY #04114","address1": "3700 TWO NOTCH RD","address2": "","city": "COLUMBIA","state": "SC","zip": "29204","zip+4": "0000","phone": "8032546871"}
{"name": "CVS PHARMACY #04150","address1": "700 N MAIN ST","address2": "","city": "MARION","state": "SC","zip": "29571","zip+4": "0000","phone": "8034231021"}
{"name": "CVS PHARMACY #04173","address1": "1302 HWY 72 221 EAST","address2": "","city": "GREENWOOD","state": "SC","zip": "29649","zip+4": "0000","phone": "8642231892"}
{"name": "CVS PHARMACY #04174","address1": "630 CHESNEE HWY","address2": "","city": "SPARTANBURG","state": "SC","zip": "29303","zip+4": "0000","phone": "8645835428"}
{"name": "CVS PHARMACY #04185","address1": "11211 ASHEVILLE HWY","address2": "","city": "INMAN","state": "SC","zip": "29349","zip+4": "0000","phone": "8644722831"}
{"name": "CVS PHARMACY #04204","address1": "301 N MAIN ST","address2": "","city": "SUMMERVILLE","state": "SC","zip": "29483","zip+4": "0000","phone": "8438710310"}
{"name": "CVS PHARMACY #04205","address1": "2401 E N ST","address2": "","city": "GREENVILLE","state": "SC","zip": "29615","zip+4": "0000","phone": "8642441851"}
{"name": "BRYANT PHARMACY AND SUPPLY","address1": "1901 N MAIN ST","address2": "","city": "ANDERSON","state": "SC","zip": "29621","zip+4": "0000","phone": "8642240711"}
{"name": "CVS PHARMACY #03843","address1": "1211 HWY 301 N","address2": "","city": "DILLON","state": "SC","zip": "29536","zip+4": "0000","phone": "8437745616"}
{"name": "CVS PHARMACY #03844","address1": "599 RICE AVE","address2": "","city": "UNION","state": "SC","zip": "29379","zip+4": "0000","phone": "8644277668"}
{"name": "CVS PHARMACY #03826","address1": "1500 RIBAUT RD","address2": "","city": "PORT ROYAL","state": "SC","zip": "29935","zip+4": "0000","phone": "8035245440"}
{"name": "MCLESKEY TODD PHCY OF GREER IN","address1": "109 N MAIN ST","address2": "","city": "GREER","state": "SC","zip": "29650","zip+4": "0000","phone": "8648770753"}
{"name": "SAVITZ DRUG STORE INC","address1": "119 COURT SQUARE","address2": "","city": "ABBEVILLE","state": "SC","zip": "29620","zip+4": "0000","phone": "8643662165"}
{"name": "AIKEN DRUG COMPANY INC","address1": "101 LAURENS ST SW","address2": "","city": "AIKEN","state": "SC","zip": "29801","zip+4": "0000","phone": "8036496286"}
{"name": "KMART PHARMACY #7754","address1": "3801 B CLEMSON BLVD","address2": "","city": "ANDERSON","state": "SC","zip": "29621","zip+4": "0000","phone": "8647160030"}
{"name": "PROPP DRUGS","address1": "1529 N FANT ST","address2": "","city": "ANDERSON","state": "SC","zip": "29621","zip+4": "4707","phone": "8642268383"}
{"name": "PRESCRIPTION SHOP","address1": "1217 N FANT ST","address2": "","city": "ANDERSON","state": "SC","zip": "29621","zip+4": "4821","phone": "8642258246"}
{"name": "REYNOLDS DRUG STOREINC","address1": "7 S MORGAN AVE","address2": "","city": "ANDREWS","state": "SC","zip": "29510","zip+4": "2694","phone": "8432645454"}
{"name": "BAGNAL PHARMACY INC","address1": "725 S MAIN ST","address2": "","city": "AYNOR","state": "SC","zip": "29511","zip+4": "0065","phone": "8433583510"}
{"name": "PADGETTS DRIVE IN PHARMACY","address1": "540 NORTH ST","address2": "","city": "BAMBERG","state": "SC","zip": "29003","zip+4": "0000","phone": "8032454298"}
{"name": "BERLEYS PHARMACY INC","address1": "16 BURR ST","address2": "","city": "BARNWELL","state": "SC","zip": "29812","zip+4": "0000","phone": "8032593541"}
{"name": "OWEN DRUG COMPANY","address1": "501 RAILROAD AVE W","address2": "","city": "BATESBURG","state": "SC","zip": "29006","zip+4": "1732","phone": "8035326581"}
{"name": "CLINKSCALES DRUGS","address1": "727 ANDERSON ST","address2": "","city": "BELTON","state": "SC","zip": "29627","zip+4": "2129","phone": "8643388217"}
{"name": "FOWLER PHARMACY","address1": "301 E MARKET ST","address2": "","city": "BENNETTSVILLE","state": "SC","zip": "29512","zip+4": "3136","phone": "8434793831"}
{"name": "SCOTTIE DISCOUNT DRUGS #9","address1": "227 E MAIN ST","address2": "","city": "BENNETTSVILLE","state": "SC","zip": "29512","zip+4": "3105","phone": "8434797251"}
{"name": "MCLEOD PHARMACY","address1": "127 N MAIN ST","address2": "","city": "BISHOPVILLE","state": "SC","zip": "29010","zip+4": "0000","phone": "8034846115"}
{"name": "BOLAND PHARMACY","address1": "7107 CHARLSTON HWY","address2": "","city": "BOWMAN","state": "SC","zip": "29018","zip+4": "0398","phone": "8038292547"}
{"name": "RUTLEDGE TOWERS PHARMACY","address1": "135 RUTLEDGE AVE","address2": "","city": "CHARLESTON","state": "SC","zip": "29451","zip+4": "0000","phone": "8438760253"}
{"name": "PRESCRIPTION CENTER INC","address1": "107 RUTLEDGE AVE","address2": "","city": "CHARLESTON","state": "SC","zip": "29401","zip+4": "1395","phone": "8437235342"}
{"name": "WANNAMAKER DRUG","address1": "154 MARKET ST","address2": "","city": "CHERAW","state": "SC","zip": "29520","zip+4": "0000","phone": "8435373221"}
{"name": "CASH AND HENDERSON DRUGS INC","address1": "102 S ALABAMA AVE","address2": "","city": "CHESNEE","state": "SC","zip": "29323","zip+4": "1502","phone": "8644612314"}
{"name": "BLACKS DRUG STORE INC","address1": "121 CHURCH ST","address2": "","city": "CHESTER","state": "SC","zip": "29706","zip+4": "0000","phone": "8035812102"}
{"name": "CHESTERFIELD DRUG COMPANY","address1": "139 W MAIN ST","address2": "","city": "CHESTERFIELD","state": "SC","zip": "29709","zip+4": "1597","phone": "8436232632"}
{"name": "SADLER HUGHES APOTHECARY","address1": "216 S BROAD ST","address2": "","city": "CLINTON","state": "SC","zip": "29325","zip+4": "2599","phone": "8648334000"}
{"name": "LONGS KILBOURNE RD PHARMAC","address1": "630 KILBOURNE RD","address2": "","city": "COLUMBIA","state": "SC","zip": "29205","zip+4": "2827","phone": "8032544619"}
{"name": "HAWTHORNE LAUREL PHARMACY","address1": "2761 LAUREL ST","address2": "","city": "COLUMBIA","state": "SC","zip": "29204","zip+4": "2092","phone": "8032542761"}
{"name": "HAWTHORNE PHARMACY","address1": "1500 TAYLOR ST","address2": "","city": "COLUMBIA","state": "SC","zip": "29201","zip+4": "2937","phone": "8032563440"}
{"name": "KMART PHARMACY #4319","address1": "7325 TWO NOTCH RD","address2": "","city": "COLUMBIA","state": "SC","zip": "29223","zip+4": "0000","phone": "8037884820"}
{"name": "KMART PHARMACY #4043","address1": "4400 FORT JACKSON BLVD","address2": "","city": "COLUMBIA","state": "SC","zip": "29209","zip+4": "0000","phone": "8037828508"}
{"name": "LONGS MILLWOOD DRUGS","address1": "2801 MILLWOOD AVE","address2": "","city": "COLUMBIA","state": "SC","zip": "29205","zip+4": "1257","phone": "8032567481"}
{"name": "NYES PHARMACY INC","address1": "1600 10TH AVE","address2": "","city": "CONWAY","state": "SC","zip": "29526","zip+4": "0000","phone": "8432485015"}
{"name": "CAROLINA DRUG STORE","address1": "52 PUBLIC SQUARE","address2": "","city": "DARLINGTON","state": "SC","zip": "29532","zip+4": "0000","phone": "8433932865"}
{"name": "DANIELS PHARMACY INC","address1": "5036 CAROLINA HWY","address2": "PO BOX 27","city": "DENMARK","state": "SC","zip": "29042","zip+4": "0000","phone": "8037933804"}
{"name": "FRIERSONS DRUG STORE","address1": "101 W MAIN ST","address2": "","city": "EASLEY","state": "SC","zip": "29640","zip+4": "0000","phone": "8648594015"}
{"name": "ELLOREE PHARMACY","address1": "2611 CLEVELAND","address2": "","city": "ELLOREE","state": "SC","zip": "29047","zip+4": "0000","phone": "8038972131"}
{"name": "FLORENCE PHARMACY","address1": "123 S DARGAN ST","address2": "","city": "FLORENCE","state": "SC","zip": "29506","zip+4": "0000","phone": "8436696389"}
{"name": "KMART PHARMACY #4317","address1": "2011 HOFFMEYER RD","address2": "","city": "FLORENCE","state": "SC","zip": "29501","zip+4": "0000","phone": "8436692492"}
{"name": "GREAT FALLS PHARMACY","address1": "503 CHESTER AVE","address2": "SUITE A","city": "GREAT FALLS","state": "SC","zip": "29055","zip+4": "0000","phone": "8034822249"}
{"name": "COMMUNITY DRUG STORE INC","address1": "2956 NEW EASLEY HWY","address2": "","city": "GREENVILLE","state": "SC","zip": "29611","zip+4": "5321","phone": "8642950550"}
{"name": "FOWLERS PHARMACY #1","address1": "1908 LAURENS RD","address2": "","city": "GREENVILLE","state": "SC","zip": "29607","zip+4": "2999","phone": "8642885920"}
{"name": "KMART PHARMACY #4202","address1": "2100 WADE HAMPTON BLVD","address2": "","city": "GREENVILLE","state": "SC","zip": "29615","zip+4": "0000","phone": "8642683342"}
{"name": "KMART PHARMACY #4016","address1": "1 KMART PLAZA","address2": "","city": "GREENVILLE","state": "SC","zip": "29605","zip+4": "4491","phone": "8642710530"}
{"name": "SHAWS PHARMACY #3","address1": "1633 E NORTH ST","address2": "","city": "GREENVILLE","state": "SC","zip": "29607","zip+4": "1374","phone": "8642350361"}
{"name": "PICKWICK PHARMACY","address1": "3219 AUGUSTA RD","address2": "","city": "GREENVILLE","state": "SC","zip": "29605","zip+4": "2145","phone": "8642774180"}
{"name": "WINGARDS PHARMACY","address1": "202 SEABOARD AVENUE","address2": "","city": "GREENWOOD","state": "SC","zip": "29646","zip+4": "0000","phone": "8642236120"}
{"name": "PROF PHARMACY OF GREER INC","address1": "320 MEMORIAL DR","address2": "","city": "GREER","state": "SC","zip": "29650","zip+4": "1526","phone": "8648773386"}
{"name": "VINCENT DRUG","address1": "203 LEE AVE","address2": "PO BOX 8","city": "HAMPTON","state": "SC","zip": "29924","zip+4": "2020","phone": "8039433521"}
{"name": "BOLAND PHARMACY #2","address1": "108 W MAIN ST","address2": "","city": "HARLEYVILLE","state": "SC","zip": "29448","zip+4": "0000","phone": "8434627646"}
{"name": "HARTSVILLE DRUG COMPANY","address1": "134 W CAROLINA AVE","address2": "","city": "HARTSVILLE","state": "SC","zip": "29550","zip+4": "4216","phone": "8433326581"}
{"name": "MEDICAL ARTS PHARMACY","address1": "206 S 2ND ST","address2": "","city": "HARTSVILLE","state": "SC","zip": "29550","zip+4": "4343","phone": "8433325193"}
{"name": "KEMPSON REXALL DRUGS INC","address1": "27 N MAIN ST 67","address2": "","city": "INMAN","state": "SC","zip": "29349","zip+4": "1425","phone": "8644722136"}
{"name": "IVA DRUGS STORE INC","address1": "720 E FRONT ST","address2": "","city": "IVA","state": "SC","zip": "29655","zip+4": "0000","phone": "8643486138"}
{"name": "GILDER & WEEKS INC","address1": "200 N MAIN ST","address2": "","city": "JOANNA","state": "SC","zip": "29351","zip+4": "1030","phone": "8646976580"}
{"name": "THOMAS DRUG STORE INC","address1": "203 W MARION","address2": "","city": "KERSHAW","state": "SC","zip": "29067","zip+4": "0000","phone": "8034759665"}
{"name": "DRUCKER DRUGS","address1": "110 E MAIN ST","address2": "","city": "KINGSTREE","state": "SC","zip": "29556","zip+4": "3425","phone": "8433549582"}
{"name": "M AND D DRUG COMPANY","address1": "117 E MAIN STREET","address2": "","city": "LAKE CITY","state": "SC","zip": "29560","zip+4": "0000","phone": "8433943711"}
{"name": "PRICE WISE PHARMACY # #48","address1": "212 W MAIN ST","address2": "","city": "LAKE CITY","state": "SC","zip": "29560","zip+4": "0000","phone": "8433943121"}
{"name": "LANDRUM DRUGS INC","address1": "104 W RUTHERFORD RD","address2": "","city": "LANDRUM","state": "SC","zip": "29356","zip+4": "0000","phone": "8644572401"}
{"name": "LAURENS DRUG COMPANY","address1": "923 W MAIN ST","address2": "","city": "LAURENS","state": "SC","zip": "29360","zip+4": "2605","phone": "8649841544"}
{"name": "LYMAN DRUG INC","address1": "204 SPARTANBURG HWY","address2": "","city": "LYMAN","state": "SC","zip": "29365","zip+4": "0000","phone": "8644396127"}
{"name": "BRIDGERS DRUG STORE","address1": "305 N MAIN ST","address2": "","city": "MARION","state": "SC","zip": "29571","zip+4": "0000","phone": "8434232682"}
{"name": "STROMS DRUG STORE #2","address1": "124 SOUTH MAIN STREET","address2": "","city": "MCCORMICK","state": "SC","zip": "29835","zip+4": "0000","phone": "8644652011"}
{"name": "DELTA PHARMACY INC","address1": "402 E MAIN ST","address2": "","city": "MONCKS CORNER","state": "SC","zip": "29461","zip+4": "0000","phone": "8437615255"}
{"name": "PITT STREET PHARMACY","address1": "111 PITT ST","address2": "PO BOX 158","city": "MT PLEASANT","state": "SC","zip": "29465","zip+4": "0158","phone": "8438844051"}
{"name": "PACES PHARMACY OF NICHOLS","address1": "116 S MAIN ST","address2": "","city": "NICHOLS","state": "SC","zip": "29581","zip+4": "0000","phone": "8435262171"}
{"name": "F AND L DRUG STORE","address1": "223 N JONES RD","address2": "","city": "OLANTA","state": "SC","zip": "29114","zip+4": "0428","phone": "8433964431"}
{"name": "THE PRESCRIPTION SHOPPE","address1": "991 SUMMERS AVE","address2": "","city": "ORANGEBURG","state": "SC","zip": "29115","zip+4": "4931","phone": "8035361000"}
{"name": "JAMISONS PHARMACY INC","address1": "1225 GOFF AVE","address2": "","city": "ORANGEBURG","state": "SC","zip": "29115","zip+4": "3671","phone": "8035362165"}
{"name": "KMART PHARMACY #3621","address1": "1470 CHESTNUT NORTH EAST","address2": "","city": "ORANGEBURG","state": "SC","zip": "29115","zip+4": "0000","phone": "8035363850"}
{"name": "ORANGEBURG PHARMACY","address1": "1425 RUSSELL ST","address2": "","city": "ORANGEBURG","state": "SC","zip": "29115","zip+4": "0000","phone": "8035345727"}
{"name": "PEAK PHARMACY","address1": "6 RIVER ST","address2": "","city": "PEAK","state": "SC","zip": "29122","zip+4": "0000","phone": "8039457923"}
{"name": "PROSPERITY DRUG COMPANY","address1": "101 N MAIN ST","address2": "","city": "PROSPERITY","state": "SC","zip": "29127","zip+4": "0000","phone": "8033642310"}
{"name": "HOWARDS PHARMACY LLC","address1": "102 S MAIN ST","address2": "","city": "SIMPSONVILLE","state": "SC","zip": "29681","zip+4": "2628","phone": "8649635303"}
{"name": "SMITHS DRUG STORE NO 1 INC #1","address1": "142 E MAIN ST","address2": "","city": "SPARTANBURG","state": "SC","zip": "29306","zip+4": "0000","phone": "8645834521"}
{"name": "MORGANS PHARMACY","address1": "7300 FESTIVAL TRAIL RD","address2": "","city": "SPRINGFIELD","state": "SC","zip": "29146","zip+4": "0035","phone": "8032583356"}
{"name": "CASH DISCOUNT DRUG STORE INC","address1": "204 N PARLER AVE","address2": "","city": "ST GEORGE","state": "SC","zip": "29477","zip+4": "0000","phone": "8435633034"}
{"name": "GUERINS PHARMACY","address1": "140 S MAIN ST","address2": "","city": "SUMMERVILLE","state": "SC","zip": "29483","zip+4": "6008","phone": "8438732531"}
{"name": "SIBERTS DRUG STORE","address1": "35 W LIBERTY ST","address2": "","city": "SUMTER","state": "SC","zip": "29150","zip+4": "5240","phone": "8037737283"}
{"name": "SUMTER CUT RATE DRUGS","address1": "32 S MAIN ST","address2": "","city": "SUMTER","state": "SC","zip": "29150","zip+4": "5292","phone": "8037738432"}
{"name": "KMART PHARMACY #4141","address1": "1500 CHARLESTON HWY","address2": "","city": "W COLUMBIA","state": "SC","zip": "29169","zip+4": "0000","phone": "8037963722"}
{"name": "SPRINGDALE PHARMACY","address1": "3315 PLATT SPRINGS RD","address2": "","city": "WEST COLUMBIA","state": "SC","zip": "29170","zip+4": "0000","phone": "8037964070"}
{"name": "TRIANGLE PHARMACY","address1": "1239 D AVE","address2": "","city": "WEST COLUMBIA","state": "SC","zip": "29169","zip+4": "0000","phone": "8037944840"}
{"name": "UNITED PHARMACY SERVICES OF LE","address1": "328 RIVERCHASE WAY","address2": "","city": "LEXINGTON","state": "SC","zip": "29072","zip+4": "0000","phone": "8037394949"}
{"name": "ROCHE PHARMACY INC","address1": "303 MAIN ST","address2": "","city": "WHITMIRE","state": "SC","zip": "29178","zip+4": "1321","phone": "8036942445"}
{"name": "KMART PHARMACY #3080","address1": "1535 SAVANNAH HIGHWAY","address2": "","city": "CHARLESTON","state": "SC","zip": "29407","zip+4": "0000","phone": "8037662371"}
{"name": "CVS PHARMACY #03597","address1": "119 W BOYCE ST","address2": "","city": "MANNING","state": "SC","zip": "29102","zip+4": "0000","phone": "8034358804"}
{"name": "CVS PHARMACY #03805","address1": "401 SE MAIN ST","address2": "","city": "SIMPSONVILLE","state": "SC","zip": "29681","zip+4": "0000","phone": "8649633446"}
{"name": "RITE AID PHARMACY #11585","address1": "2300 DECKER BOULEVARD","address2": "","city": "COLUMBIA","state": "SC","zip": "29206","zip+4": "0000","phone": "8037883728"}
{"name": "RITE AID PHARMACY #11593","address1": "1510 WO EZELL BOULEVARD","address2": "","city": "SPARTANBURG","state": "SC","zip": "29301","zip+4": "0000","phone": "8645740038"}
{"name": "RITE AID PHARMACY #11590","address1": "6118 ST. ANDREWS ROAD","address2": "","city": "COLUMBIA","state": "SC","zip": "29212","zip+4": "0000","phone": "8037984010"}
{"name": "KMART PHARMACY #7058","address1": "254 HIGHWAY 72 BYPASS","address2": "","city": "GREENWOOD","state": "SC","zip": "29649","zip+4": "0000","phone": "8642291398"}
{"name": "CVS PHARMACY #03870","address1": "4400 DORCESTER RD UNIT 13","address2": "","city": "NORTH CHARLESTON","state": "SC","zip": "29405","zip+4": "0000","phone": "8435546192"}
{"name": "CVS PHARMACY #03849","address1": "3055 BROAD RIVER RD","address2": "","city": "COLUMBIA","state": "SC","zip": "29210","zip+4": "0000","phone": "8037984460"}
{"name": "CVS PHARMACY #03851","address1": "707 CHURCH ST","address2": "","city": "CONWAY","state": "SC","zip": "29526","zip+4": "0000","phone": "8432486302"}
{"name": "CVS PHARMACY #03863","address1": "301 W THOMAS ST","address2": "","city": "LAKE CITY","state": "SC","zip": "29560","zip+4": "0000","phone": "8433945434"}
{"name": "RITE AID PHARMACY #11666","address1": "1705 EBENEZER ROAD","address2": "","city": "ROCK HILL","state": "SC","zip": "29730","zip+4": "0000","phone": "8033663114"}
{"name": "CVS PHARMACY #03846","address1": "922 HWY 28 BY PASS","address2": "","city": "ANDERSON","state": "SC","zip": "29625","zip+4": "0000","phone": "8642247469"}
{"name": "CVS PHARMACY #03838","address1": "1405 EAST GREENVILLE ST","address2": "","city": "ANDERSON","state": "SC","zip": "29621","zip+4": "0000","phone": "8642248797"}
{"name": "RITE AID PHARMACY #11651","address1": "2129 OLD SPARTANBURG ROAD","address2": "","city": "GREER","state": "SC","zip": "29650","zip+4": "0000","phone": "8642444096"}
{"name": "KMART PHARMACY #3240","address1": "640 SULPHUR SPRINGS RD","address2": "","city": "GREENVILLE","state": "SC","zip": "29617","zip+4": "1699","phone": "8642468444"}
{"name": "CVS PHARMACY #03850","address1": "7535 GARNERS FERRY RD STE G","address2": "","city": "COLUMBIA","state": "SC","zip": "29209","zip+4": "0000","phone": "8037766605"}
{"name": "RITE AID PHARMACY #11615","address1": "1801 HIGHMARKET STREET","address2": "","city": "GEORGETOWN","state": "SC","zip": "29440","zip+4": "0000","phone": "8435462568"}
{"name": "KMART PHARMACY #4865","address1": "310 EAST MARTINTOWN ROAD","address2": "","city": "NORTH AUGUSTA SOUT","state": "SC","zip": "29841","zip+4": "0000","phone": "8032783673"}
{"name": "PRICE WISE PHARMACY # #43","address1": "14 SUMAR ST","address2": "","city": "CHARLESTON","state": "SC","zip": "29407","zip+4": "5099","phone": "8435713140"}
{"name": "CVS PHARMACY #03869","address1": "321 N MAIN STREET","address2": "","city": "SALUDA","state": "SC","zip": "29138","zip+4": "0000","phone": "8644457580"}
{"name": "CVS PHARMACY #03861","address1": "705 ELM ST W","address2": "","city": "HAMPTON","state": "SC","zip": "29924","zip+4": "0000","phone": "8039434446"}
{"name": "CVS PHARMACY #04281","address1": "2500 BROAD ST","address2": "","city": "CAMDEN","state": "SC","zip": "29020","zip+4": "0000","phone": "8034325103"}
{"name": "DRUG LO DISCOUNT DRUG #1","address1": "106 FLEMING ST","address2": "LAVONNE SHOPPING CNTR","city": "LAURENS","state": "SC","zip": "29360","zip+4": "0910","phone": "8649843541"}
{"name": "PALMETTO DRUGS","address1": "105 LAKESIDE DR","address2": "","city": "UNION","state": "SC","zip": "29379","zip+4": "0000","phone": "8644271248"}
{"name": "CVS PHARMACY #04286","address1": "5269 CALHOUN MEMORIAL HWY","address2": "","city": "EASLEY","state": "SC","zip": "29640","zip+4": "0000","phone": "8648597168"}
{"name": "CVS PHARMACY #03876","address1": "2410 CHARLESTON HWY","address2": "","city": "CAYCE","state": "SC","zip": "29033","zip+4": "0000","phone": "8037962586"}
{"name": "CVS PHARMACY #03886","address1": "3218 W BLUE RIDGE DRIVE","address2": "","city": "GREENVILLE","state": "SC","zip": "29611","zip+4": "0000","phone": "8642698132"}
{"name": "CVS PHARMACY #03891","address1": "105 FOOTHILLS CENTER DRIVE","address2": "","city": "WEST UNION","state": "SC","zip": "29696","zip+4": "0000","phone": "8646389564"}
{"name": "CVS PHARMACY #03888","address1": "200 HWY 25 N","address2": "","city": "TRAVELERS REST","state": "SC","zip": "29690","zip+4": "0000","phone": "8648347269"}
{"name": "PROFESSIONAL PHARMACY","address1": "201 CASHUA ST","address2": "STE 2","city": "DARLINGTON","state": "SC","zip": "29532","zip+4": "0000","phone": "8433936591"}
{"name": "CVS PHARMACY #03892","address1": "18252 HERITAGE HWY","address2": "","city": "DENMARK","state": "SC","zip": "29042","zip+4": "0000","phone": "8037934213"}
{"name": "CVS PHARMACY #04388","address1": "16 BELVEDERE RD","address2": "","city": "BEECH ISLAND","state": "SC","zip": "29842","zip+4": "0000","phone": "8035935196"}
{"name": "KMART PHARMACY #7160","address1": "2127 BOUNDARY ST","address2": "","city": "BEAUFORT","state": "SC","zip": "29902","zip+4": "0000","phone": "8435241286"}
{"name": "CVS PHARMACY #04122","address1": "3300 WADE HAMPTON BLVD","address2": "","city": "TAYLORS","state": "SC","zip": "29687","zip+4": "0000","phone": "8642689160"}
{"name": "RITE AID PHARMACY #11579","address1": "1618 CHARLESTON HIGHWAY","address2": "","city": "WEST COLUMBIA","state": "SC","zip": "29169","zip+4": "0000","phone": "8037940888"}
{"name": "CVS PHARMACY #04295","address1": "2062 WHISKEY RD","address2": "","city": "AIKEN","state": "SC","zip": "29803","zip+4": "0000","phone": "8036482339"}
{"name": "CVS PHARMACY #04385","address1": "1400 UNION ST","address2": "","city": "SPARTANBURG","state": "SC","zip": "29302","zip+4": "0000","phone": "8645851610"}
{"name": "ANDERSON PHARMACY","address1": "419 S MILL ST PO DRAWER 518","address2": "","city": "MANNING","state": "SC","zip": "29102","zip+4": "0518","phone": "8034352212"}
{"name": "KMART PHARMACY #7043","address1": "2302 CHERRY RD","address2": "","city": "ROCK HILL","state": "SC","zip": "29730","zip+4": "0000","phone": "8033666168"}
{"name": "MEDI FARE DRUG AND HOME HEALTH","address1": "300 W PINE ST","address2": "","city": "BLACKSBURG","state": "SC","zip": "29702","zip+4": "1548","phone": "8648396384"}
{"name": "CVS PHARMACY #04386","address1": "592 LANCASTER HWY","address2": "","city": "CHESTER","state": "SC","zip": "29706","zip+4": "0000","phone": "8033774137"}
{"name": "CVS PHARMACY #03877","address1": "9712 TWO NOTCH RD","address2": "","city": "COLUMBIA","state": "SC","zip": "29223","zip+4": "0000","phone": "8037888582"}
{"name": "RITE AID PHARMACY #11631","address1": "118 US HIGHWAY 17 NORTH","address2": "","city": "SURFSIDE BEACH","state": "SC","zip": "29575","zip+4": "0000","phone": "8432385169"}
{"name": "MEDICAL COURT PHARMACY INC","address1": "776 W LIBERTY ST","address2": "","city": "SUMTER","state": "SC","zip": "29150","zip+4": "4748","phone": "8037735605"}
{"name": "KMART PHARMACY #7239","address1": "1551 JOHNNIE DODDS BLVD","address2": "","city": "MT PLEASANT","state": "SC","zip": "29464","zip+4": "0000","phone": "8438840822"}
{"name": "CVS PHARMACY #04395","address1": "10599 DORCHESTER RD","address2": "","city": "SUMMERVILLE","state": "SC","zip": "29483","zip+4": "0000","phone": "8438717701"}
{"name": "LIBERTY FAMILY PHARMACY","address1": "115 W MAIN ST","address2": "","city": "LIBERTY","state": "SC","zip": "29657","zip+4": "0063","phone": "8648439207"}
{"name": "CVS PHARMACY #04288","address1": "2707 CELANESE RD","address2": "","city": "ROCK HILL","state": "SC","zip": "29732","zip+4": "0000","phone": "8033664157"}
{"name": "RITE AID PHARMACY #11577","address1": "375 PINEWOOD ROAD","address2": "","city": "SUMTER","state": "SC","zip": "29154","zip+4": "0000","phone": "8037755356"}
{"name": "MEDICAL PLAZA PHARMACY","address1": "9301 MEDICAL PLAZA DR","address2": "","city": "NORTH CHARLESTON","state": "SC","zip": "29406","zip+4": "9103","phone": "8435537121"}
{"name": "CVS PHARMACY #05515","address1": "601 HWY 17 N","address2": "","city": "SURFSIDE BEACH","state": "SC","zip": "29575","zip+4": "0000","phone": "8032385628"}
{"name": "SUMMERTON DRUGS","address1": "115 MAIN ST","address2": "","city": "SUMMERTON","state": "SC","zip": "29148","zip+4": "0037","phone": "8034852555"}
{"name": "RITE AID PHARMACY #11646","address1": "525 COLLEGE AVENUE","address2": "","city": "CLEMSON","state": "SC","zip": "29631","zip+4": "0000","phone": "8646546050"}
{"name": "CVS PHARMACY #04287","address1": "510 TOM HALL ST","address2": "","city": "FT. MILL","state": "SC","zip": "29715","zip+4": "0000","phone": "8035475586"}
{"name": "MEMORIAL PHARMACY INC","address1": "100A SIMPSON ST","address2": "","city": "GREENVILLE","state": "SC","zip": "29605","zip+4": "4413","phone": "8642951113"}
{"name": "KMART PHARMACY #7274","address1": "129 WEST BUTLER AVENUE","address2": "","city": "MAULDIN","state": "SC","zip": "29662","zip+4": "0000","phone": "8642970844"}
{"name": "CVS PHARMACY #05518","address1": "1085 COTTINGHAM BLVD STE 3","address2": "","city": "BENNETTSVILLE","state": "SC","zip": "29512","zip+4": "0000","phone": "8034798355"}
{"name": "CVS PHARMACY #07300","address1": "2501 SECOND LOOP RD","address2": "","city": "FLORENCE","state": "SC","zip": "29501","zip+4": "0000","phone": "8436670134"}
{"name": "CVS PHARMACY #05516","address1": "1303 38TH AVE N","address2": "","city": "MYRTLE BEACH","state": "SC","zip": "29577","zip+4": "0000","phone": "8434484437"}
{"name": "RITE AID PHARMACY #11645","address1": "1108 PEARMAN DAIRY ROAD","address2": "","city": "ANDERSON","state": "SC","zip": "29625","zip+4": "0000","phone": "8642266083"}
{"name": "CVS PHARMACY #04263","address1": "1603 US HWY 17 N","address2": "","city": "MT PLEASANT","state": "SC","zip": "29464","zip+4": "0000","phone": "8038848281"}
{"name": "CVS PHARMACY #04399","address1": "2571 FOREST DRIVE","address2": "","city": "COLUMBIA","state": "SC","zip": "29204","zip+4": "0000","phone": "8032542376"}
{"name": "RITE AID PHARMACY #11574","address1": "500 WEST MAIN STREET","address2": "","city": "LEXINGTON","state": "SC","zip": "29072","zip+4": "0000","phone": "8033599146"}
{"name": "POWDERSVILLE PHARMACY","address1": "10701 ANDERSON RD","address2": "","city": "EASLEY","state": "SC","zip": "29642","zip+4": "0000","phone": "8642952504"}
{"name": "OCEAN LAKES PHARMACY INC","address1": "1415 HWY 17 BUSINESS N","address2": "","city": "SURFSIDE BEACH","state": "SC","zip": "29575","zip+4": "0000","phone": "8432385159"}
{"name": "CVS PHARMACY #04382","address1": "1751 EAST MAIN ST","address2": "","city": "SPARTANBURG","state": "SC","zip": "29307","zip+4": "0000","phone": "8645735313"}
{"name": "CVS PHARMACY #03855","address1": "236 W MCINTYRE ST","address2": "","city": "MULLINS","state": "SC","zip": "29574","zip+4": "0000","phone": "8034640372"}
{"name": "PROFESSIONAL PHARMACY AT MT VI","address1": "408 MEMORIAL DR EXT","address2": "","city": "GREER","state": "SC","zip": "29651","zip+4": "1818","phone": "8648774281"}
{"name": "CVS PHARMACY #05541","address1": "205 N VAN LINGLE MUNGO BLVD","address2": "","city": "PAGELAND","state": "SC","zip": "29728","zip+4": "0000","phone": "8436722420"}
{"name": "CVS PHARMACY #05531","address1": "2195 MAGNOLIA ST","address2": "","city": "ORANGEBURG","state": "SC","zip": "29115","zip+4": "0000","phone": "8035331390"}
{"name": "RITE AID PHARMACY #11597","address1": "2195 SOUTHPORT ROAD","address2": "","city": "SPARTANBURG","state": "SC","zip": "29306","zip+4": "0000","phone": "8645852576"}
{"name": "CHARLES S AIMAR PHARMACY INC","address1": "968 S RIBAUT RD","address2": "","city": "BEAUFORT","state": "SC","zip": "29902","zip+4": "0000","phone": "8435249009"}
{"name": "PRESCRIPTION SHOPPE","address1": "1743 N FRASER ST","address2": "","city": "GEORGETOWN","state": "SC","zip": "29440","zip+4": "6407","phone": "8435462222"}
{"name": "PRICE WISE PHARMACY # #112","address1": "100 RAILROAD AVE","address2": "","city": "LAMAR","state": "SC","zip": "29069","zip+4": "0000","phone": "8433265231"}
{"name": "PHARMACY CONSULTANTS INC","address1": "111 CORPORATE DR","address2": "","city": "SPARTANBURG","state": "SC","zip": "29301","zip+4": "0000","phone": "8645745220"}
{"name": "HARDEEVILLE CLINIC","address1": "552 STINEY RD","address2": "","city": "HARDEEVILLE","state": "SC","zip": "29927","zip+4": "0000","phone": "8437842181"}
{"name": "CVS PHARMACY #05536","address1": "222 S MAIN ST","address2": "","city": "BELTON","state": "SC","zip": "29627","zip+4": "0000","phone": "8643386996"}
{"name": "DANIELS PHARMACY #3","address1": "19354 SOLOMON BLATT AVE N","address2": "","city": "BLACKVILLE","state": "SC","zip": "29817","zip+4": "0000","phone": "8032843372"}
{"name": "CVS PHARMACY #05542","address1": "203 N MAIN ST","address2": "","city": "FOUNTAIN INN","state": "SC","zip": "29644","zip+4": "0000","phone": "8648624414"}
{"name": "CVS PHARMACY #05529","address1": "1041 YORK ST NE","address2": "","city": "AIKEN","state": "SC","zip": "29801","zip+4": "0000","phone": "8036490521"}
{"name": "SOCIETY HILL PHARMACY","address1": "743 S MAIN ST","address2": "","city": "SOCIETY HILL","state": "SC","zip": "29593","zip+4": "0000","phone": "8433780200"}
{"name": "PRICE WISE PHARMACY # #55","address1": "500 SECOND LOOP RD","address2": "","city": "FLORENCE","state": "SC","zip": "29505","zip+4": "2817","phone": "8436694948"}
{"name": "CVS PHARMACY #05550","address1": "4724 CHARLOTTE HWY","address2": "","city": "CLOVER","state": "SC","zip": "29710","zip+4": "0000","phone": "8038311911"}
{"name": "CVS PHARMACY #05553","address1": "1401 BEN SAWYER BLVD","address2": "","city": "MT. PLEASANT","state": "SC","zip": "29464","zip+4": "0000","phone": "8438811725"}
{"name": "SMITHS DRUG STORE NO 2 INC #2","address1": "441 E HENRY ST","address2": "","city": "SPARTANBURG","state": "SC","zip": "29302","zip+4": "2609","phone": "8645828474"}
{"name": "DISCOUNT DRUG OF SWANSEA","address1": "290 W 3RD ST","address2": "","city": "SWANSEA","state": "SC","zip": "29160","zip+4": "0000","phone": "8035683251"}
{"name": "CVS PHARMACY #05549","address1": "1008 LAKE MURRAY BLVD","address2": "","city": "IRMO","state": "SC","zip": "29063","zip+4": "0000","phone": "8037811135"}
{"name": "CVS PHARMACY #05579","address1": "1337 SOUTH MAIN ST","address2": "","city": "GREENWOOD","state": "SC","zip": "29646","zip+4": "0000","phone": "8642237956"}
{"name": "CVS PHARMACY #05580","address1": "1941 N MAIN ST","address2": "","city": "SUMMERVILLE","state": "SC","zip": "29483","zip+4": "0000","phone": "8438752500"}
{"name": "CVS PHARMACY #05575","address1": "101 EDGEFIELD RD","address2": "","city": "NORTH AUGUSTA","state": "SC","zip": "29841","zip+4": "0000","phone": "8032797470"}
{"name": "RITE AID PHARMACY #11667","address1": "630 EAST LIBERTY STREET","address2": "PO BOX 645","city": "YORK","state": "SC","zip": "29745","zip+4": "0000","phone": "8036846931"}
{"name": "MOBLEY DRUGS INC","address1": "1073 W MEETING ST","address2": "","city": "LANCASTER","state": "SC","zip": "29720","zip+4": "2321","phone": "8032852021"}
{"name": "FORDS DRUGS AND MEDICAL","address1": "435 E MAIN ST","address2": "SUITE2","city": "SPARTANBURG","state": "SC","zip": "29302","zip+4": "1934","phone": "8645853325"}
{"name": "CVS PHARMACY #05552","address1": "6160 WADE HAMPTON BLVD","address2": "","city": "TAYLORS","state": "SC","zip": "29687","zip+4": "0000","phone": "8648797146"}
{"name": "RITE AID PHARMACY #11616","address1": "214 ST JAMES AVENUE","address2": "","city": "GOOSE CREEK","state": "SC","zip": "29445","zip+4": "0000","phone": "8435533661"}
{"name": "HARDEEVILLE PHARMACY INC","address1": "21361 WHYTEHARDEE BLVD","address2": "","city": "HARDEEVILLE","state": "SC","zip": "29927","zip+4": "0000","phone": "8437846222"}
{"name": "SKRIP SHOPPE","address1": "406 W POINSETT ST","address2": "","city": "GREER","state": "SC","zip": "29650","zip+4": "0000","phone": "8648792325"}
{"name": "CVS PHARMACY #05548","address1": "5742 MEMORIAL BLVD","address2": "","city": "ST GEORGE","state": "SC","zip": "29477","zip+4": "0000","phone": "8035632208"}
{"name": "CVS PHARMACY #05590","address1": "303 EAST RUTHERFORD ST","address2": "","city": "LANDRUM","state": "SC","zip": "29356","zip+4": "0000","phone": "8644574163"}
{"name": "BOLAND PHARMACY","address1": "2732 CLEVELAND ST","address2": "","city": "ELLOREE","state": "SC","zip": "29047","zip+4": "0000","phone": "8038972133"}
{"name": "GREELEYVILLE PHARMACY","address1": "105 MAIN ST","address2": "","city": "GREELEYVILLE","state": "SC","zip": "29056","zip+4": "0277","phone": "8434262170"}
{"name": "MCLESKEY TODD PHARMACY OF TRAV","address1": "32 S MAIN ST","address2": "","city": "TRAVELERS REST","state": "SC","zip": "29690","zip+4": "0000","phone": "8648344678"}
{"name": "KMART PHARMACY #4953","address1": "8571 RIVERS AVENUE","address2": "","city": "N CHARLESTON","state": "SC","zip": "29406","zip+4": "0000","phone": "8438639828"}
{"name": "THE MEDICINE CABINET","address1": "319 MERCY ST","address2": "","city": "LAKE CITY","state": "SC","zip": "29560","zip+4": "2331","phone": "8433942825"}
{"name": "STONE PLAZA PHARMACY","address1": "1164 RUTHERFORD RD","address2": "","city": "GREENVILLE","state": "SC","zip": "29609","zip+4": "3906","phone": "8642337940"}
{"name": "KROGER PHARMACY #11002","address1": "7467 ST ANDREWS RD","address2": "STE 6","city": "IRMO","state": "SC","zip": "29063","zip+4": "0000","phone": "8037320426"}
{"name": "VASSAR LIVENGOOD","address1": "101 PUMPKINTOWN RD","address2": "","city": "MARIETTA","state": "SC","zip": "29661","zip+4": "0156","phone": "8648363771"}
{"name": "CVS PHARMACY #05566","address1": "10 POPE AVE","address2": "","city": "HILTON HEAD","state": "SC","zip": "29928","zip+4": "0000","phone": "8037857786"}
{"name": "RITE AID PHARMACY #11619","address1": "918 HOUSTON NORTHCUTT BOULEVAR","address2": "","city": "MT PLEASANT","state": "SC","zip": "29464","zip+4": "0000","phone": "8438845144"}
{"name": "RITE AID PHARMACY #11613","address1": "325 FOLLY ROAD","address2": "","city": "CHARLESTON","state": "SC","zip": "29412","zip+4": "0000","phone": "8437957956"}
{"name": "RITE AID PHARMACY #11635","address1": "600 HIGHWAY 17 SOUTH","address2": "","city": "NORTH MYRTLE BEACH","state": "SC","zip": "29582","zip+4": "0000","phone": "8432724269"}
{"name": "MEDICINE MART PHARMACY","address1": "1300 SUNSET BLVD","address2": "","city": "WEST COLUMBIA","state": "SC","zip": "29169","zip+4": "0000","phone": "8037917043"}
{"name": "MOONS DRUG STORE","address1": "132 MAIN ST","address2": "","city": "WESTMINSTER","state": "SC","zip": "29693","zip+4": "0318","phone": "8646475941"}
{"name": "CVS PHARMACY #07318","address1": "230 APPLE SQUARE PLZ","address2": "","city": "EDGEFIELD","state": "SC","zip": "29824","zip+4": "0000","phone": "8036373135"}
{"name": "CVS PHARMACY #05596","address1": "4627 N MAIN ST","address2": "","city": "COLUMBIA","state": "SC","zip": "29203","zip+4": "0000","phone": "8037861106"}
{"name": "CVS PHARMACY #05598","address1": "305 W MAIN ST","address2": "","city": "LIBERTY","state": "SC","zip": "29657","zip+4": "0000","phone": "8648432726"}
{"name": "PAMPLICO PHARMACY","address1": "616 S WALNUT ST","address2": "","city": "PAMPLICO","state": "SC","zip": "29583","zip+4": "0637","phone": "8434932311"}
{"name": "FAMILY HEALTH PHARMACY","address1": "3310 MAGNOLIA NE","address2": "","city": "ORANGEBURG","state": "SC","zip": "29115","zip+4": "0000","phone": "8035316940"}
{"name": "GIANT DISCOUNT PHARMACY","address1": "6611 SAVANNAH HWY","address2": "","city": "NEESES","state": "SC","zip": "29107","zip+4": "0000","phone": "8032472135"}
{"name": "KROGER PHARMACY #11006","address1": "5900 HIGHWAY 17 SOUTH","address2": "","city": "MYRTLE BEACH","state": "SC","zip": "29575","zip+4": "0000","phone": "8432382486"}
{"name": "CVS PHARMACY #05569","address1": "7401 AUGUSTA RD","address2": "","city": "PIEDMONT","state": "SC","zip": "29673","zip+4": "0000","phone": "8642990234"}
{"name": "SUP RX PHARMACY #35","address1": "842 S 5TH ST","address2": "","city": "HARTSVILLE","state": "SC","zip": "29550","zip+4": "6502","phone": "8433320762"}
{"name": "RITE AID PHARMACY #11665","address1": "1295 EAST MAIN STREET","address2": "","city": "ROCK HILL","state": "SC","zip": "29730","zip+4": "0000","phone": "8033247563"}
{"name": "KROGER PHARMACY #11016","address1": "9600 NORTH KINGS HIGHWAY","address2": "","city": "MYRTLE BEACH","state": "SC","zip": "29577","zip+4": "0000","phone": "8434492158"}
{"name": "CVS PHARMACY #07351","address1": "10909 ANDERSON RD","address2": "","city": "PIEDMONT","state": "SC","zip": "29673","zip+4": "0000","phone": "8642690314"}
{"name": "MARLBORO DRUG COMPANY","address1": "113 N MARLBORO ST","address2": "","city": "BENNETTSVILLE","state": "SC","zip": "29512","zip+4": "0000","phone": "8434794248"}
{"name": "RITE AID PHARMACY #11674","address1": "136 SEA ISLAND PARKWAY","address2": "SUITE B","city": "BEAUFORT","state": "SC","zip": "29902","zip+4": "0000","phone": "8435220707"}
{"name": "RITE AID PHARMACY #11578","address1": "225 NORTH WASHINGTON STREET","address2": "","city": "SUMTER","state": "SC","zip": "29150","zip+4": "0000","phone": "8037785436"}
{"name": "PRICE WISEáPHARMACY # #19","address1": "HIGHWAY 162","address2": "","city": "HOLLYWOOD","state": "SC","zip": "29449","zip+4": "0219","phone": "8438896866"}
{"name": "THE PRESCRIPTION CENTER INC","address1": "1931 CANNONS CAMPGROUND RD","address2": "","city": "SPARTANBURG","state": "SC","zip": "29307","zip+4": "1505","phone": "8645823659"}
{"name": "RITE AID PHARMACY #11610","address1": "1195 REMOUNT ROAD","address2": "","city": "NORTH CHARLESTON","state": "SC","zip": "29406","zip+4": "0000","phone": "8437448896"}
{"name": "PRICE WISE PHARMACY # #1","address1": "445 MEETING ST","address2": "","city": "CHARLESTON","state": "SC","zip": "29403","zip+4": "5524","phone": "8437224136"}
{"name": "THE MEDICINE DROPPER","address1": "420 EPTING AVE","address2": "","city": "GREENWOOD","state": "SC","zip": "29646","zip+4": "0000","phone": "8642276646"}
{"name": "KROGER PHARMACY #11012","address1": "3403 FOREST DRIVE","address2": "","city": "FOREST ACRES","state": "SC","zip": "29204","zip+4": "0000","phone": "8037824027"}
{"name": "BANKS DRUGS","address1": "630 E MAIN ST","address2": "","city": "RIDGE SPRING","state": "SC","zip": "29129","zip+4": "0308","phone": "8036855326"}
{"name": "CVS PHARMACY #07348","address1": "1292 S PLEASANTBURG DRIVE","address2": "","city": "GREENVILLE","state": "SC","zip": "29605","zip+4": "0000","phone": "8642993141"}
{"name": "MAULDIN FAMILY PHARMACY","address1": "505 N MAIN ST","address2": "","city": "MAULDIN","state": "SC","zip": "29662","zip+4": "2344","phone": "8642882600"}
{"name": "KASH AND KARRY PHARMACY LLC","address1": "101 PETE HOLLIS BLVD","address2": "","city": "GREENVILLE","state": "SC","zip": "29601","zip+4": "0000","phone": "8642326711"}
{"name": "PRICE WISE PHARMACY # #16","address1": "15 W ASHLAND AVE","address2": "","city": "ANDREWS","state": "SC","zip": "29510","zip+4": "2543","phone": "8432643291"}
{"name": "MEDICINE MART","address1": "1337 A SOUTH IRBY ST","address2": "","city": "FLORENCE","state": "SC","zip": "29505","zip+4": "0000","phone": "8436670759"}
{"name": "CVS PHARMACY #07386","address1": "512 SOUTH KINGS HWY","address2": "","city": "MYRTLE BEACH","state": "SC","zip": "29577","zip+4": "0000","phone": "8434481684"}
{"name": "CVS PHARMACY #07366","address1": "4401 HWY 17 SOUTH","address2": "","city": "NORTH MYRTLE BEACH","state": "SC","zip": "29582","zip+4": "0000","phone": "8032728884"}
{"name": "RITE AID PHARMACY #11638","address1": "1400 WOODRUFF ROAD","address2": "","city": "GREENVILLE","state": "SC","zip": "29607","zip+4": "0000","phone": "8642974429"}
{"name": "CVS PHARMACY #07397","address1": "3901 PELHAM RD","address2": "","city": "GREENVILLE","state": "SC","zip": "29615","zip+4": "0000","phone": "8642883672"}
{"name": "CVS PHARMACY #07388","address1": "1942 MONTAGUE AVE EXT","address2": "","city": "GREENWOOD","state": "SC","zip": "29649","zip+4": "0000","phone": "8642237679"}
{"name": "CVS PHARMACY #07396","address1": "1010 HWY 17 N","address2": "","city": "NORTH MYRTLE BEACH","state": "SC","zip": "29582","zip+4": "0000","phone": "8432491451"}
{"name": "LOMINICKS PHARMACY","address1": "839 RICHLAND AVE W","address2": "","city": "AIKEN","state": "SC","zip": "29801","zip+4": "0000","phone": "8036488328"}
{"name": "GROVE PARK PHARMACY","address1": "1324 GROVE PARK NE","address2": "","city": "ORANGEBURG","state": "SC","zip": "29115","zip+4": "0000","phone": "8035360007"}
{"name": "CVS PHARMACY #05555","address1": "8910 OLD HIGHWAY 6","address2": "","city": "SANTEE","state": "SC","zip": "29142","zip+4": "0000","phone": "8038542824"}
{"name": "CVS PHARMACY #07333","address1": "85 MATHEWS DRIVE","address2": "","city": "HILTON HEAD","state": "SC","zip": "29925","zip+4": "0000","phone": "8436818363"}
{"name": "CVS PHARMACY #07398","address1": "9 CORPORATE PARKWAY","address2": "","city": "GOOSE CREEK","state": "SC","zip": "29445","zip+4": "0000","phone": "8035723237"}
{"name": "CVS PHARMACY #07508","address1": "9912 DUNBARTON BLVD","address2": "","city": "BARNWELL","state": "SC","zip": "29812","zip+4": "0000","phone": "8032593649"}
{"name": "LORIS DRUG STORE INC","address1": "4125 MAIN ST","address2": "","city": "LORIS","state": "SC","zip": "29569","zip+4": "3023","phone": "8437564021"}
{"name": "CVS PHARMACY #07505","address1": "101 LOCUST ST","address2": "","city": "LYMAN","state": "SC","zip": "29365","zip+4": "0000","phone": "8644391040"}
{"name": "THE MEDICINE MART","address1": "302C NORTH MAIN ST","address2": "","city": "LANCASTER","state": "SC","zip": "29720","zip+4": "0000","phone": "8032868855"}
{"name": "PRESCRIPTIONS INC","address1": "240 CHURCH ST","address2": "","city": "SUMTER","state": "SC","zip": "29150","zip+4": "4200","phone": "8037785005"}
{"name": "CVS PHARMACY #07534","address1": "204 HAMPTON AVE","address2": "","city": "PICKENS","state": "SC","zip": "29671","zip+4": "0000","phone": "8648787954"}
{"name": "CVS PHARMACY #07516","address1": "3595 HARDEN ST","address2": "","city": "COLUMBIA","state": "SC","zip": "29203","zip+4": "0000","phone": "8037991217"}
{"name": "KROGER PHARMACY #11340","address1": "406 MARTINTOWN ROAD","address2": "","city": "N AUGUSTA","state": "SC","zip": "29841","zip+4": "0000","phone": "8032794146"}
{"name": "RITE AID PHARMACY #11636","address1": "5001 SOCASTEE BOULEVARD.","address2": "","city": "MYRTLE BEACH","state": "SC","zip": "29588","zip+4": "0000","phone": "8432936066"}
{"name": "CVS PHARMACY #05524","address1": "1370 HWY 17 N","address2": "","city": "LITTLE RIVER","state": "SC","zip": "29566","zip+4": "0000","phone": "8432497618"}
{"name": "MEDICAL CENTER PHARMACY INC","address1": "410 UNIVERSITY PKWY","address2": "STE 2800","city": "AIKEN","state": "SC","zip": "29801","zip+4": "6810","phone": "8036482985"}
{"name": "SANDHILLS PHARMACY INC","address1": "645 S SEVENTH STREET","address2": "","city": "MCBEE","state": "SC","zip": "29101","zip+4": "0900","phone": "8433358297"}
{"name": "CVS PHARMACY #07538","address1": "408 B E GREER ST","address2": "","city": "HONEA PATH","state": "SC","zip": "29654","zip+4": "0000","phone": "8643692822"}
{"name": "KMART PHARMACY #3606","address1": "4570 LADSON RD","address2": "","city": "SUMMERVILLE","state": "SC","zip": "29485","zip+4": "0000","phone": "8438756597"}
{"name": "KMART PHARMACY #7410","address1": "6169 ST ANDREWS","address2": "","city": "COLUMBIA","state": "SC","zip": "29212","zip+4": "0000","phone": "8037985957"}
{"name": "SUPRX PHARMACY #91","address1": "114 E CALHOUN ST","address2": "","city": "SUMTER","state": "SC","zip": "29150","zip+4": "4300","phone": "8037753020"}
{"name": "CVS PHARMACY #07359","address1": "405 N FRASER ST","address2": "","city": "GEORGETOWN","state": "SC","zip": "29440","zip+4": "0000","phone": "8435272417"}
{"name": "CVS PHARMACY #07537","address1": "5215 ASHLEY PHOSPHATE RD","address2": "","city": "N. CHARLESTON","state": "SC","zip": "29418","zip+4": "0000","phone": "8437674500"}
{"name": "AIRPORT PHARMACY INC","address1": "3907 EDMUND RD","address2": "","city": "WEST COLUMBIA","state": "SC","zip": "29170","zip+4": "0000","phone": "8037559600"}
{"name": "CVS PHARMACY #07338","address1": "2908 EMMANUAL CHURCH RD","address2": "","city": "WEST COLUMBIA","state": "SC","zip": "29170","zip+4": "0000","phone": "8039963625"}
{"name": "FAMILY PHARMACY","address1": "333 NEWBERRY ST NW","address2": "","city": "AIKEN","state": "SC","zip": "29801","zip+4": "3929","phone": "8036491776"}
{"name": "CVS PHARMACY #07334","address1": "5608 SUNSET BLVD","address2": "","city": "LEXINGTON","state": "SC","zip": "29072","zip+4": "0000","phone": "8039575322"}
{"name": "MEDICINE MART PHARMACY","address1": "305 N LIMESTONE ST","address2": "","city": "GAFFNEY","state": "SC","zip": "29340","zip+4": "0000","phone": "8644895198"}
{"name": "WAL-MART PHARMACY #100640","address1": "1451 WOODRUFF ROAD","address2": "","city": "GREENVILLE","state": "SC","zip": "29607","zip+4": "0000","phone": "8642346971"}
{"name": "PARKS PHARMACY","address1": "437 GEORGIA AVE","address2": "","city": "NORTH AUGUSTA","state": "SC","zip": "29841","zip+4": "3898","phone": "8032797450"}
{"name": "CVS PHARMACY #07531","address1": "297 S MAIN ST","address2": "","city": "HEMINGWAY","state": "SC","zip": "29554","zip+4": "0000","phone": "8435589455"}
{"name": "ELGIN PHARMACY","address1": "1107 ROSS ST","address2": "","city": "ELGIN","state": "SC","zip": "29045","zip+4": "0000","phone": "8034385735"}
{"name": "MEDICINE MART OF LEXINGTON","address1": "348 B COLUMBIA AVE","address2": "","city": "LEXINGTON","state": "SC","zip": "29072","zip+4": "0000","phone": "8039575969"}
{"name": "CVS PHARMACY #07568","address1": "1316 RED BANK RD STE 9","address2": "","city": "GOOSE CREEK","state": "SC","zip": "29445","zip+4": "0000","phone": "8435725707"}
{"name": "CVS PHARMACY #07384","address1": "120 N LONGST ST","address2": "","city": "KINGSTREE","state": "SC","zip": "29556","zip+4": "0000","phone": "8433545565"}
{"name": "THE MEDICINE MART","address1": "1020 RICHLAND AVE WEST","address2": "","city": "AIKEN","state": "SC","zip": "29801","zip+4": "0000","phone": "8036497437"}
{"name": "NURSING HOME DISPENSARY","address1": "208-210 S SECOND ST","address2": "","city": "HARTSVILLE","state": "SC","zip": "29550","zip+4": "0000","phone": "8433327529"}
{"name": "LONGS DRUGS OF NEWBERRY","address1": "1725 MAIN STREET","address2": "","city": "NEWBERRY","state": "SC","zip": "29108","zip+4": "0000","phone": "8032762936"}
{"name": "CVS PHARMACY #07567","address1": "1888 BOILING SPRINGS RD","address2": "","city": "BOILING SPRINGS","state": "SC","zip": "29316","zip+4": "0000","phone": "8645990920"}
{"name": "CVS PHARMACY #07556","address1": "2401 SUNSET BLVD","address2": "","city": "WEST COLUMBIA","state": "SC","zip": "29169","zip+4": "0000","phone": "8037968126"}
{"name": "WAL-MART PHARMACY #100641","address1": "6134 WHITE HORSE ROAD","address2": "","city": "GREENVILLE","state": "SC","zip": "29611","zip+4": "0000","phone": "8642953186"}
{"name": "CVS PHARMACY #07583","address1": "109 W MANNING ST","address2": "","city": "CHESNEE","state": "SC","zip": "29323","zip+4": "0000","phone": "8644613123"}
{"name": "SPARTANBURG REG HCS","address1": "101 EAST WOOD STREET","address2": "","city": "SPARTANBURG","state": "SC","zip": "29303","zip+4": "0000","phone": "8645606779"}
{"name": "KMART PHARMACY #7616","address1": "748 WEST MAIN STREET","address2": "","city": "LEXINGTON","state": "SC","zip": "29072","zip+4": "0000","phone": "8039576744"}
{"name": "BIG S DRUG","address1": "8073 EDMUND HWY","address2": "","city": "PELION","state": "SC","zip": "29123","zip+4": "0237","phone": "8038944010"}
{"name": "FAIRFAX PHARMACY","address1": "1275 ALLENDALE FAIRFAX HWY","address2": "","city": "FAIRFAX","state": "SC","zip": "29827","zip+4": "0000","phone": "8036322055"}
{"name": "WAL-MART PHARMACY #101017","address1": "2010 PAXVILLE HIGHWAY","address2": "","city": "MANNING","state": "SC","zip": "29102","zip+4": "0000","phone": "8034354381"}
{"name": "WAL-MART PHARMACY #101030","address1": "805 HWY 9 BYPASS WEST","address2": "","city": "LANCASTER","state": "SC","zip": "29720","zip+4": "0000","phone": "8032865424"}
{"name": "WAL-MART PHARMACY #101037","address1": "1317 NORTH MAIN STREET","address2": "","city": "SUMMERVILLE","state": "SC","zip": "29483","zip+4": "0000","phone": "8438211360"}
{"name": "CVS PHARMACY #07005","address1": "333 HWY 9 BYPASS","address2": "","city": "LANCASTER","state": "SC","zip": "29720","zip+4": "0000","phone": "8032868421"}
{"name": "MEDICINE MART","address1": "215 W CAROLINA AVE","address2": "","city": "CLINTON","state": "SC","zip": "29325","zip+4": "0000","phone": "8648336562"}
{"name": "CYPRESS CENTER LONG TERM CARE","address1": "50 HOSPITAL ST","address2": "STE 1B","city": "MANNING","state": "SC","zip": "29102","zip+4": "2921","phone": "8034355272"}
{"name": "HANNAS DISCOUNT PHARMACY","address1": "26 EAST RAILROAD AVE","address2": "","city": "ESTILL","state": "SC","zip": "29918","zip+4": "0000","phone": "8036254185"}
{"name": "PHARMACEUTICAL HEALTH CARE","address1": "1919 MAYBANK HWY B","address2": "","city": "CHARLESTON","state": "SC","zip": "29412","zip+4": "2196","phone": "8437621177"}
{"name": "WAL-MART PHARMACY #101035","address1": "141 DORMAN CENTRE DRIVE","address2": "","city": "SPARTANBURG","state": "SC","zip": "29301","zip+4": "0000","phone": "8645741985"}
{"name": "BURKES MAIN STREET PHARMACY","address1": "1101 MAIN ST","address2": "","city": "HILTON HEAD ISLAND","state": "SC","zip": "29926","zip+4": "1624","phone": "8436812622"}
{"name": "CVS PHARMACY #07598","address1": "523 S MAIN ST","address2": "","city": "BISHOPVILLE","state": "SC","zip": "29010","zip+4": "0000","phone": "8034845485"}
{"name": "WAL-MART PHARMACY #100624","address1": "2812 MAIN ST","address2": "","city": "NEWBERRY","state": "SC","zip": "29108","zip+4": "0000","phone": "8032762211"}
{"name": "WAL-MART PHARMACY #101123","address1": "1636 SANDIFER BLVD","address2": "","city": "SENECA","state": "SC","zip": "29678","zip+4": "0000","phone": "8648850119"}
{"name": "WAL-MART PHARMACY #100630","address1": "2530 DAVID H MCLEOD BLVD","address2": "","city": "FLORENCE","state": "SC","zip": "29501","zip+4": "0000","phone": "8436640909"}
{"name": "FINKLIN PHARMACY","address1": "4100 N MAIN STREET 100","address2": "","city": "COLUMBIA","state": "SC","zip": "29203","zip+4": "0000","phone": "8037350525"}
{"name": "KMART PHARMACY #3645","address1": "5155 CALHOUN MEMORIAL HIGHWAY","address2": "","city": "EASLEY","state": "SC","zip": "29640","zip+4": "0000","phone": "8648552390"}
{"name": "CVS PHARMACY #07012","address1": "1330 DUTCH FORK RD","address2": "","city": "BALLENTINE","state": "SC","zip": "29002","zip+4": "0000","phone": "8037491666"}
{"name": "MEDICINE MART","address1": "1291 BROUGHTON ST NE","address2": "","city": "ORANGEBURG","state": "SC","zip": "29115","zip+4": "0000","phone": "8035313141"}
{"name": "WAL-MART PHARMACY #101130","address1": "917 EAST MAIN STREET","address2": "","city": "LAURENS","state": "SC","zip": "29360","zip+4": "0000","phone": "8646828104"}
{"name": "WAL-MART PHARMACY #100642","address1": "1040 CHESTERFIELD HWY 10","address2": "","city": "CHERAW","state": "SC","zip": "29520","zip+4": "0000","phone": "8435372741"}
{"name": "WAL-MART PHARMACY #101135","address1": "1150 S 4TH STREET","address2": "","city": "HARTSVILLE","state": "SC","zip": "29550","zip+4": "0000","phone": "8433328111"}
{"name": "WAL-MART PHARMACY #101144","address1": "970 EAST LIBERTY ST","address2": "","city": "YORK","state": "SC","zip": "29745","zip+4": "0000","phone": "8036845282"}
{"name": "WAL-MART PHARMACY #101183","address1": "2401 AUGUSTA ROAD","address2": "","city": "WEST COLUMBIA","state": "SC","zip": "29169","zip+4": "0000","phone": "8037918114"}
{"name": "WAL-MART PHARMACY #101164","address1": "360 HARBISON BLVD","address2": "","city": "COLUMBIA","state": "SC","zip": "29212","zip+4": "0000","phone": "8037320617"}
{"name": "KROGER PHARMACY #11020","address1": "781 MAIN STREET","address2": "","city": "N MYRTLE BEACH","state": "SC","zip": "29582","zip+4": "0000","phone": "8432499967"}
{"name": "LONGS MEDICAL PARK PHARMAC","address1": "3000 NE MEDICAL PARK","address2": "SUITE 105","city": "COLUMBIA","state": "SC","zip": "29223","zip+4": "6251","phone": "8037889608"}
{"name": "WAL-MART PHARMACY #100586","address1": "2709 A CHURCH STREET","address2": "","city": "CONWAY","state": "SC","zip": "29526","zip+4": "0000","phone": "8433650301"}
{"name": "WAL-MART PHARMACY #101146","address1": "511 N HWY 52","address2": "","city": "MONCKS CORNER","state": "SC","zip": "29461","zip+4": "0000","phone": "8438995755"}
{"name": "PROFESSIONAL PHCY OF MARION IN","address1": "223 N MAIN ST","address2": "","city": "MARION","state": "SC","zip": "29571","zip+4": "0000","phone": "8434231882"}
{"name": "BI LO PHARMACY #626","address1": "3233 MALL ROAD","address2": "","city": "ANDERSON","state": "SC","zip": "29625","zip+4": "0000","phone": "8642260164"}
{"name": "BI LO PHARMACY #563","address1": "1315 S PLEASANTBURG DRIVE","address2": "","city": "GREENVILLE","state": "SC","zip": "29605","zip+4": "0000","phone": "8642993469"}
{"name": "BLUFFTON PHARMACY INC","address1": "167 B BLUFFTON RD","address2": "","city": "BLUFFTON","state": "SC","zip": "29910","zip+4": "0000","phone": "8437574999"}
{"name": "TIMMONSVILLE PHARMACY","address1": "309 E SMITH ST","address2": "","city": "TIMMONSVILLE","state": "SC","zip": "29161","zip+4": "1821","phone": "8433465410"}
{"name": "WAL-MART PHARMACY #101244","address1": "3027 WADE HAMPTON BLVD","address2": "","city": "TAYLORS","state": "SC","zip": "29687","zip+4": "0000","phone": "8642922014"}
{"name": "WAL-MART PHARMACY #101270","address1": "1201 KNOX AVENUE","address2": "","city": "NORTH AUGUSTA","state": "SC","zip": "29841","zip+4": "0000","phone": "8032791919"}
{"name": "MEDICINE MART PHARMACY","address1": "1401 MAIN ST","address2": "","city": "CONWAY","state": "SC","zip": "29526","zip+4": "0000","phone": "8432484609"}
{"name": "CVS PHARMACY #07016","address1": "10317 OCEAN HWY 17 SOUTH","address2": "","city": "PAWLEYS ISLAND","state": "SC","zip": "29585","zip+4": "0000","phone": "8032374036"}
{"name": "MEDICINE MART PHARMACY","address1": "408 E NORTH 1ST STREET","address2": "","city": "SENECA","state": "SC","zip": "29678","zip+4": "0000","phone": "8648850548"}
{"name": "WAL-MART PHARMACY #101281","address1": "2151 EAST MAIN ST","address2": "","city": "SPARTANBURG","state": "SC","zip": "29307","zip+4": "0000","phone": "8645290379"}
{"name": "WAL-MART PHARMACY #101286","address1": "7520 GARNERS FERRY ROAD","address2": "","city": "COLUMBIA","state": "SC","zip": "29209","zip+4": "0000","phone": "8037831664"}
{"name": "STOWES FAMILY PHARMACY INC","address1": "1316 LEESBURG RD","address2": "","city": "COLUMBIA","state": "SC","zip": "29209","zip+4": "2210","phone": "8037835611"}
{"name": "BI LO PHARMACY #448","address1": "860 FOLLY ROAD","address2": "","city": "CHARLESTON","state": "SC","zip": "29412","zip+4": "3435","phone": "8434067515"}
{"name": "BI LO PHARMACY #410","address1": "774 S SHELMORE BLVD","address2": "","city": "MT PLEASANT","state": "SC","zip": "29464","zip+4": "0000","phone": "8433881550"}
{"name": "CORNER DRUGS INC","address1": "413 1B VARDRY ST","address2": "","city": "GREENVILLE","state": "SC","zip": "29601","zip+4": "3331","phone": "8642714932"}
{"name": "CVS PHARMACY #07011","address1": "4711 5 FOREST DRIVE","address2": "","city": "COLUMBIA","state": "SC","zip": "29206","zip+4": "0000","phone": "8037870186"}
{"name": "WAL-MART PHARMACY #100625","address1": "1310 NORTH FRASER","address2": "","city": "GEORGETOWN","state": "SC","zip": "29440","zip+4": "0000","phone": "8435272223"}
{"name": "WAL-MART PHARMACY #100643","address1": "10820 N KINGS HWY","address2": "","city": "MYRTLE BEACH","state": "SC","zip": "29572","zip+4": "0000","phone": "8434490508"}
{"name": "KMART PHARMACY #9320","address1": "201 APPLEWOOD CENTER PLACE","address2": "","city": "SENECA","state": "SC","zip": "29678","zip+4": "0917","phone": "8648829506"}
{"name": "WAL-MART PHARMACY #101339","address1": "10060 TWO NOTCH ROAD","address2": "","city": "COLUMBIA","state": "SC","zip": "29223","zip+4": "0000","phone": "8036991100"}
{"name": "WAL-MART PHARMACY #101358","address1": "2110 BELLS HIGHWAY","address2": "","city": "WALTERBORO","state": "SC","zip": "29488","zip+4": "0000","phone": "8435391555"}
{"name": "WAL-MART PHARMACY #100574","address1": "2751 BEAVER RUN BLVD","address2": "","city": "SURFSIDE","state": "SC","zip": "29575","zip+4": "0000","phone": "8432153856"}
{"name": "WAL-MART PHARMACY #101359","address1": "7400 RIVERS AVE","address2": "","city": "NORTH CHARLESTON","state": "SC","zip": "29406","zip+4": "0000","phone": "8435729616"}
{"name": "WAL-MART PHARMACY #101382","address1": "508 BYPASS 72 NW","address2": "","city": "GREENWOOD","state": "SC","zip": "29649","zip+4": "0000","phone": "8642296722"}
{"name": "BI LO PHARMACY #228","address1": "975 BACONS BRIDGE ROAD","address2": "SUITE 117","city": "SUMMERVILLE","state": "SC","zip": "29485","zip+4": "0000","phone": "8438710473"}
{"name": "WAL-MART PHARMACY #100629","address1": "441 N DUNCAN BYPASS SUITE A","address2": "","city": "UNION","state": "SC","zip": "29379","zip+4": "0000","phone": "8644276114"}
{"name": "WAL-MART PHARMACY #100634","address1": "2240 WEST DEKALB ST","address2": "","city": "CAMDEN","state": "SC","zip": "29020","zip+4": "0000","phone": "8034251691"}
{"name": "WAL-MART PHARMACY #101383","address1": "350 ROBERT SMALLS PKWY","address2": "","city": "BEAUFORT","state": "SC","zip": "29906","zip+4": "0000","phone": "8435228687"}
{"name": "MCCLELLANVILLE DRUGS","address1": "10035 N HIGHWAY 17 NORTH","address2": "","city": "MCCLELLANVILLE","state": "SC","zip": "29458","zip+4": "9427","phone": "8438873990"}
{"name": "WAL-MART PHARMACY #100644","address1": "651 HWY 28 BYPASS","address2": "","city": "ANDERSON","state": "SC","zip": "29624","zip+4": "0000","phone": "8642617459"}
{"name": "KMART PHARMACY #3817","address1": "1403 NORTH KINGS HWY","address2": "","city": "MYRTLE BEACH","state": "SC","zip": "29577","zip+4": "0000","phone": "8436262295"}
{"name": "RONS PHARMACY INC","address1": "2212 OLD FURNACE RD","address2": "","city": "BOILING SPRINGS","state": "SC","zip": "29316","zip+4": "0000","phone": "8645990889"}
{"name": "RITE AID PHARMACY #11607","address1": "334 EAST BAY STREET","address2": "SUITE D","city": "CHARLESTON","state": "SC","zip": "29401","zip+4": "0000","phone": "8437230263"}
{"name": "WAL-MART PHARMACY #100511","address1": "1283 BROAD ST","address2": "","city": "SUMTER","state": "SC","zip": "29150","zip+4": "0000","phone": "8039055510"}
{"name": "CVS PHARMACY #07036","address1": "690 BETHEL ST","address2": "","city": "CLOVER","state": "SC","zip": "29710","zip+4": "0000","phone": "8032221383"}
{"name": "WAL-MART PHARMACY #100638","address1": "165 WALTON DRIVE","address2": "","city": "GAFFNEY","state": "SC","zip": "29341","zip+4": "0000","phone": "8644898704"}
{"name": "CHILDRENS PHARMACY OF EASLEY","address1": "800 N A ST","address2": "","city": "EASLEY","state": "SC","zip": "29640","zip+4": "2144","phone": "8648590768"}
{"name": "PRONETICS HLTH CARE GROUP INC","address1": "4476 LEEDS PLACE WEST","address2": "","city": "NORTH CHARLESTON","state": "SC","zip": "29405","zip+4": "8549","phone": "8437470847"}
{"name": "WAL-MART PHARMACY #101603","address1": "1841 SUITE A JA COCHRAN BYPASS","address2": "","city": "CHESTER","state": "SC","zip": "29706","zip+4": "0000","phone": "8035813096"}
{"name": "CVS PHARMACY #05474","address1": "27 US HWY 321 BY PASS S","address2": "","city": "WINNSBORO","state": "SC","zip": "29180","zip+4": "0000","phone": "8036353012"}
{"name": "WAL-MART PHARMACY #100396","address1": "3812 LIBERTY HWY","address2": "","city": "ANDERSON","state": "SC","zip": "29621","zip+4": "0000","phone": "8642316071"}
{"name": "RITE AID PHARMACY #11626","address1": "1905 HIGHWAY 544","address2": "","city": "CONWAY","state": "SC","zip": "29526","zip+4": "0000","phone": "8433477617"}
{"name": "CVS PHARMACY #05470","address1": "3210 E PALMETTO ST","address2": "","city": "FLORENCE","state": "SC","zip": "29506","zip+4": "0000","phone": "8436623740"}
{"name": "CVS PHARMACY #07040","address1": "2492 HWY 9 EAST","address2": "","city": "LITTLE RIVER","state": "SC","zip": "29566","zip+4": "0000","phone": "8033991726"}
{"name": "MEDICINE CENTER","address1": "503 THURGOOD MARSHALL BLVD","address2": "","city": "KINGSTREE","state": "SC","zip": "29556","zip+4": "0000","phone": "8433553136"}
{"name": "PARKER ROAD DRUG STORE","address1": "1319 WOODSIDE AVE","address2": "","city": "GREENVILLE","state": "SC","zip": "29611","zip+4": "3769","phone": "8642324662"}
{"name": "CVS PHARMACY #05471","address1": "1071 SOUTH LAKE DRIVE","address2": "","city": "LEXINGTON","state": "SC","zip": "29073","zip+4": "0000","phone": "8039570605"}
{"name": "WAL-MART PHARMACY #100585","address1": "2377 DAVE LYLE BLVD","address2": "","city": "ROCK HILL","state": "SC","zip": "29730","zip+4": "0000","phone": "8033668191"}
{"name": "WAL-MART PHARMACY #101748","address1": "3951 W ASHLEY CIRCLE","address2": "","city": "CHARLESTON","state": "SC","zip": "29414","zip+4": "0000","phone": "8437632006"}
{"name": "WAL-MART PHARMACY #100621","address1": "230 KELLEY STREET","address2": "","city": "LAKE CITY","state": "SC","zip": "29560","zip+4": "0000","phone": "8433948125"}
{"name": "UPSTATE MEDICAL PHARMACY","address1": "701 GROVE ROAD","address2": "EMPLOYEE PAVILION","city": "GREENVILLE","state": "SC","zip": "29605","zip+4": "4253","phone": "8644558910"}
{"name": "WAL-MART PHARMACY #100795","address1": "11391 DUNBARTON BLVD","address2": "","city": "BARNWELL","state": "SC","zip": "29812","zip+4": "0000","phone": "8032590066"}
{"name": "DANIELS PHARMACY OF NORWAY","address1": "8412 SAVANNAH HWY","address2": "","city": "NORWAY","state": "SC","zip": "29113","zip+4": "0348","phone": "8032634795"}
{"name": "CVS PHARMACY #05475","address1": "1200 E BUTLER RD","address2": "","city": "GREENVILLE","state": "SC","zip": "29607","zip+4": "0000","phone": "8642347570"}
{"name": "WAL-MART PHARMACY #101829","address1": "305 COMMERCE DRIVE","address2": "","city": "MARION","state": "SC","zip": "29571","zip+4": "0000","phone": "8434239411"}
{"name": "CVS PHARMACY #04153","address1": "2446 HUDSON RD","address2": "","city": "GREER","state": "SC","zip": "29650","zip+4": "0000","phone": "8642448893"}
{"name": "WAL-MART PHARMACY #100631","address1": "1023 SOUTH PENDELTON STREET","address2": "","city": "EASLEY","state": "SC","zip": "29642","zip+4": "0000","phone": "8648559364"}
{"name": "WAL-MART PHARMACY #100627","address1": "805 ENTERPRISE RD","address2": "","city": "DILLON","state": "SC","zip": "29536","zip+4": "0000","phone": "8438412228"}
{"name": "KMART PHARMACY #4873","address1": "2209 WEST DEKALB","address2": "","city": "CAMDEN","state": "SC","zip": "29020","zip+4": "0000","phone": "8034259527"}
{"name": "KMART PHARMACY #7351","address1": "960 N MAIN STREET","address2": "","city": "LANCASTER","state": "SC","zip": "29720","zip+4": "0000","phone": "8032857515"}
{"name": "WAL-MART PHARMACY #100628","address1": "9880 DORCHESTER ROAD","address2": "","city": "NORTH CHARLESTON","state": "SC","zip": "29418","zip+4": "0000","phone": "8438712550"}
{"name": "MEDICINE SHOPPE PHARMACY #1224","address1": "3985 MEETING ST","address2": "","city": "LORIS","state": "SC","zip": "29569","zip+4": "0000","phone": "8437561600"}
{"name": "WINYAH PHARMACY SOLUTIONS","address1": "810 ELIZABETH ST","address2": "","city": "GEORGETOWN","state": "SC","zip": "29440","zip+4": "0000","phone": "8435458800"}
{"name": "CVS PHARMACY #05476","address1": "1728 AIRPORT RD","address2": "","city": "LANCASTER","state": "SC","zip": "29720","zip+4": "0000","phone": "8032858491"}
{"name": "SUP RX PHARMACY #90","address1": "1011 BROAD ST","address2": "","city": "SUMTER","state": "SC","zip": "29150","zip+4": "2504","phone": "8037736378"}
{"name": "THE MEDICINE SHOPPE #638","address1": "212 PEARL ST","address2": "","city": "DARLINGTON","state": "SC","zip": "29532","zip+4": "0000","phone": "8433931850"}
{"name": "PRICES PRESCRIPTION SHOP INC","address1": "110 S CONGRESS ST","address2": "","city": "WINNSBORO","state": "SC","zip": "29180","zip+4": "0000","phone": "8036353565"}
{"name": "DANIELS PHARMACY OF BARNWELL","address1": "178 WREN ST","address2": "","city": "BARNWELL","state": "SC","zip": "29812","zip+4": "0000","phone": "8032591234"}
{"name": "BI LO PHARMACY #286","address1": "1909 US HIGHWAY 17N","address2": "","city": "MT PLEASANT","state": "SC","zip": "29464","zip+4": "0000","phone": "8438812369"}
{"name": "CENTRAL PHARMACY","address1": "303 N MAIN ST","address2": "PO BOX 1248","city": "LAKE VIEW","state": "SC","zip": "29563","zip+4": "0000","phone": "8437592800"}
{"name": "APOTHECARE PHARMACY","address1": "134 E COLUMBIA AVE","address2": "","city": "LEESVILLE","state": "SC","zip": "29070","zip+4": "0000","phone": "8035327222"}
{"name": "RITE AID PHARMACY #11594","address1": "4010 ANDERSON MILL ROAD","address2": "","city": "SPARTANBURG","state": "SC","zip": "29301","zip+4": "0000","phone": "8645763788"}
{"name": "BI LO PHARMACY #158","address1": "2127 BOUNDRY STREET","address2": "","city": "BEAUFORT","state": "SC","zip": "29902","zip+4": "0000","phone": "8435246207"}
{"name": "WAL-MART PHARMACY #100728","address1": "25 PEMBROKE DRIVE","address2": "","city": "HILTON HD ISLAND","state": "SC","zip": "29926","zip+4": "0000","phone": "8436813010"}
{"name": "BARNETT-HONEYCUTT PHARMACY","address1": "1228 COLONIAL COMMONS","address2": "","city": "LANCASTER","state": "SC","zip": "29720","zip+4": "0000","phone": "8032868444"}
{"name": "PUBLIX PHARMACY #0449","address1": "1000 JOHNNIE DODDS BLVD","address2": "","city": "MT PLEASANT","state": "SC","zip": "29464","zip+4": "0000","phone": "8438563007"}
{"name": "BI LO PHARMACY #202","address1": "1735 HECKLE BLVD","address2": "","city": "ROCK HILL","state": "SC","zip": "29730","zip+4": "0000","phone": "8033668120"}
{"name": "CVS PHARMACY #05679","address1": "1746 HECKLE BLVD","address2": "","city": "ROCK HILL","state": "SC","zip": "29732","zip+4": "0000","phone": "8033669400"}
{"name": "CVS PHARMACY #05576","address1": "3312 DEVINE ST","address2": "","city": "COLUMBIA","state": "SC","zip": "29205","zip+4": "0000","phone": "8037389519"}
{"name": "CVS PHARMACY #06410","address1": "431 B ST JAMES AVE STE I","address2": "","city": "GOOSE CREEK","state": "SC","zip": "29445","zip+4": "0000","phone": "8035722606"}
{"name": "KROGER PHARMACY #11409","address1": "817 ST ANDREWS RD","address2": "","city": "COLUMBIA","state": "SC","zip": "29210","zip+4": "0000","phone": "8035511145"}
{"name": "CVS PHARMACY #03380","address1": "1922 AUGUSTA ST STE 100","address2": "","city": "GREENVILLE","state": "SC","zip": "29605","zip+4": "0000","phone": "8642711973"}
{"name": "WAL-MART PHARMACY #100514","address1": "2035 WHISKEY ROAD","address2": "","city": "AIKEN","state": "SC","zip": "29803","zip+4": "0000","phone": "8036487766"}
{"name": "WAL-MART PHARMACY #100632","address1": "1481 US HWY 17 NORTH","address2": "","city": "MT PLEASANT","state": "SC","zip": "29464","zip+4": "0000","phone": "8438819585"}
{"name": "CVS PHARMACY #04413","address1": "101 SOUTH BOYCE ST","address2": "","city": "UNION","state": "SC","zip": "29379","zip+4": "0000","phone": "8644271294"}
{"name": "MED CENTER PHCY AND MED SUPPLY","address1": "209 RUSSELL ST","address2": "","city": "DARLINGTON","state": "SC","zip": "29532","zip+4": "3311","phone": "8433987015"}
{"name": "PUBLIX PHARMACY #0459","address1": "208 C ST JAMES AVE","address2": "","city": "GOOSE CREEK","state": "SC","zip": "29445","zip+4": "0000","phone": "8435697942"}
{"name": "CVS PHARMACY #03928","address1": "700 EAST MAIN ST STE 11","address2": "","city": "DUNCAN","state": "SC","zip": "29334","zip+4": "0000","phone": "8644391574"}
{"name": "CVS PHARMACY #03977","address1": "1506 E MONTAGUE AVE","address2": "","city": "NORTH CHARLESTON","state": "SC","zip": "29405","zip+4": "0000","phone": "8435548867"}
{"name": "PUBLIX PHARMACY #0473","address1": "45 PEMBROKE DR","address2": "","city": "HILTON HEAD ISLAND","state": "SC","zip": "29926","zip+4": "0000","phone": "8436892276"}
{"name": "WAL-MART PHARMACY #100616","address1": "2795 NORTH ROAD","address2": "","city": "ORANGEBURG","state": "SC","zip": "29115","zip+4": "0000","phone": "8035337300"}
{"name": "PUBLIX PHARMACY #0483","address1": "1575 OLD TROLLEY RD","address2": "","city": "SUMMERVILLE","state": "SC","zip": "29485","zip+4": "0000","phone": "8438320557"}
{"name": "PUBLIX PHARMACY #0486","address1": "334 EAST MARTINTOWN RD","address2": "","city": "NORTH AUGUSTA","state": "SC","zip": "29841","zip+4": "0000","phone": "8034413906"}
{"name": "RITE AID PHARMACY #11624","address1": "204 WEST PINE STREET","address2": "","city": "FLORENCE","state": "SC","zip": "29503","zip+4": "0000","phone": "8436299440"}
{"name": "CVS PHARMACY #07305","address1": "65 SYCAMORE AVE","address2": "","city": "CHARLESTON","state": "SC","zip": "29407","zip+4": "0000","phone": "8435714461"}
{"name": "CVS PHARMACY #04026","address1": "1300 TIGER BLVD","address2": "","city": "CLEMSON","state": "SC","zip": "29631","zip+4": "0000","phone": "8646536724"}
{"name": "RIVERS PHARMACY INC","address1": "12927 MAIN ST","address2": "","city": "WILLISTON","state": "SC","zip": "29853","zip+4": "2521","phone": "8032667010"}
{"name": "EXPERT CARE PHARMACY","address1": "9516 HUGHWAY 707","address2": "","city": "MYRTLE BEACH","state": "SC","zip": "29588","zip+4": "0000","phone": "8436506510"}
{"name": "WAL-MART PHARMACY #102265","address1": "3950 GRANDVIEW DR","address2": "","city": "SIMPSONVILLE","state": "SC","zip": "29681","zip+4": "0000","phone": "8649630272"}
{"name": "OMNICARE OF FLORENCE","address1": "3203 W PALMETTO ST","address2": "STE G","city": "FLORENCE","state": "SC","zip": "29501","zip+4": "4417","phone": "8436658332"}
{"name": "CVS PHARMACY #05766","address1": "1520 TAYLOR ST","address2": "","city": "COLUMBIA","state": "SC","zip": "29201","zip+4": "0000","phone": "8032561611"}
{"name": "PUBLIX PHARMACY #0506","address1": "250 EASTGATE DRIVE","address2": "","city": "AIKEN","state": "SC","zip": "29803","zip+4": "0000","phone": "8036437976"}
{"name": "PUBLIX PHARMACY #0512","address1": "100 OLD CHEROKEE ROAD","address2": "","city": "LEXINGTON","state": "SC","zip": "29072","zip+4": "0000","phone": "8039511727"}
{"name": "MARGARET J WESTON CHC PHARMACY","address1": "4645 AUGUSTA RD","address2": "","city": "CLEARWATER","state": "SC","zip": "29822","zip+4": "0000","phone": "8035939283"}
{"name": "BI LO PHARMACY #150","address1": "3619 PELHAM RD","address2": "","city": "GREENVILLE","state": "SC","zip": "29615","zip+4": "0000","phone": "8642884147"}
{"name": "WAL-MART PHARMACY #102348","address1": "1231 FOLLY ROAD","address2": "","city": "JAMES ISLAND","state": "SC","zip": "29412","zip+4": "0000","phone": "8437629047"}
{"name": "MORGANS PHARMACY","address1": "309 BROAD ST","address2": "","city": "GILBERT","state": "SC","zip": "29054","zip+4": "0000","phone": "8038925572"}
{"name": "MEDICINE SHOPPE #1363","address1": "1315 N JEFFERIES","address2": "","city": "WALTERBORO","state": "SC","zip": "29488","zip+4": "9999","phone": "8435499565"}
{"name": "CVS PHARMACY #04628","address1": "500 KNOX ABBOTT DR","address2": "","city": "CAYCE","state": "SC","zip": "29033","zip+4": "0000","phone": "8037963116"}
{"name": "CAROLINAS UPSTATE PHCY AT GIBB","address1": "380 SERPENTINE DR STE 201","address2": "","city": "SPARTANBURG","state": "SC","zip": "29303","zip+4": "0000","phone": "8645601864"}
{"name": "CAREPLUS CVS PHARMACY #02923","address1": "3250 HARDEN ST EXT STE 300","address2": "","city": "COLUMBIA","state": "SC","zip": "29203","zip+4": "0000","phone": "8035511030"}
{"name": "KMART PHARMACY #7555","address1": "1610 U CHURCH ST","address2": "","city": "CONWAY","state": "SC","zip": "29526","zip+4": "0000","phone": "8432480505"}
{"name": "BI LO PHARMACY #092","address1": "3715 EAST NORTH STREET","address2": "","city": "GREENVILLE","state": "SC","zip": "29615","zip+4": "0000","phone": "8642449442"}
{"name": "PUBLIX PHARMACY #0530","address1": "1750 WOODRUFF RD","address2": "","city": "GREENVILLE","state": "SC","zip": "29615","zip+4": "0000","phone": "8649877086"}
{"name": "PUBLIX PHARMACY #0531","address1": "411 THE PARKWAY","address2": "","city": "GREER","state": "SC","zip": "29607","zip+4": "0000","phone": "8648487826"}
{"name": "CAROLINA HOME THERAPEUTICS INC","address1": "720 GRACERN RD","address2": "STE 123","city": "COLUMBIA","state": "SC","zip": "29210","zip+4": "7655","phone": "8037315076"}
{"name": "MEDICINE SHOPPE #1386","address1": "1061 N FRASER ST","address2": "","city": "GEORGETOWN","state": "SC","zip": "29440","zip+4": "0000","phone": "8435462880"}
{"name": "COMMUNITY MEDICAL CTR PHCY","address1": "10280 OLD HWY 6","address2": "","city": "VANCE","state": "SC","zip": "29115","zip+4": "0000","phone": "8034928432"}
{"name": "WAL-MART PHARMACY #102214","address1": "5420 FOREST DRIVE","address2": "","city": "COLUMBIA","state": "SC","zip": "29206","zip+4": "0000","phone": "8037828428"}
{"name": "BI LO PHARMACY #246","address1": "142 EAST ST JAMES AVENUE","address2": "","city": "GOOSE CREEK","state": "SC","zip": "29445","zip+4": "0000","phone": "8435725790"}
{"name": "PUBLIX PHARMACY #0543","address1": "2153 EAST MAIN STREET","address2": "","city": "DUNCAN","state": "SC","zip": "29334","zip+4": "0000","phone": "8644864706"}
{"name": "CVS PHARMACY #07609","address1": "3306 W PALMETTO ST","address2": "","city": "FLORENCE","state": "SC","zip": "29501","zip+4": "0000","phone": "8433179365"}
{"name": "SAM PHARMACY AND HEALTH FOOD L","address1": "1803 F AUGUSTA ST","address2": "","city": "GREENVILLE","state": "SC","zip": "29605","zip+4": "0000","phone": "8642339532"}
{"name": "BOLAND PHARMACY","address1": "715 S HARRY C RAYSOR DR","address2": "","city": "ST MATTHEWS","state": "SC","zip": "29135","zip+4": "0000","phone": "8036557753"}
{"name": "PUBLIX PHARMACY #0563","address1": "5997 S POINTE BLVD STE 106","address2": "","city": "ANDERSON","state": "SC","zip": "29621","zip+4": "0000","phone": "8642311176"}
{"name": "KROGER PHARMACY #11025","address1": "2939 HIGHWAY 17 SOUTH","address2": "","city": "GARDEN CITY BEACH","state": "SC","zip": "29576","zip+4": "0000","phone": "8433574300"}
{"name": "CVS PHARMACY #03199","address1": "1013 BROAD RIVER RD","address2": "","city": "COLUMBIA","state": "SC","zip": "29210","zip+4": "0000","phone": "8037506930"}
{"name": "CHAPIN PHARMACY","address1": "138A AMICKS FERRY RD","address2": "","city": "CHAPIN","state": "SC","zip": "29036","zip+4": "0000","phone": "8033451114"}
{"name": "MEDICAP PHARMACY #8201","address1": "10 SAMS POINT RD A 4","address2": "","city": "BEAUFORT","state": "SC","zip": "29907","zip+4": "0000","phone": "8435247979"}
{"name": "BI LO PHARMACY #519","address1": "140 FERNWOOD DRIVE","address2": "","city": "SPARTANBURG","state": "SC","zip": "29307","zip+4": "0000","phone": "8645971559"}
{"name": "PREFERRED CARE PHARMACEUTICAL","address1": "4794 A HWY 162","address2": "","city": "HOLLYWOOD","state": "SC","zip": "29449","zip+4": "0000","phone": "8437696522"}
{"name": "NETWORK HEALTHCARE SC","address1": "1200 WOODRUFF C28","address2": "","city": "GREENVILLE","state": "SC","zip": "29607","zip+4": "0000","phone": "8642880816"}
{"name": "GENERX PHARMACY","address1": "429 E BOUNDARY ST","address2": "","city": "CHAPIN","state": "SC","zip": "29036","zip+4": "0000","phone": "8033450708"}
{"name": "BI LO PHARMACY #526","address1": "200 FRIARSGATE PLAZA","address2": "","city": "IRMO","state": "SC","zip": "29063","zip+4": "0000","phone": "8034073108"}
{"name": "MAULDINS APOTHECARY","address1": "205 STORK WAY","address2": "","city": "SENECA","state": "SC","zip": "29678","zip+4": "0000","phone": "8648882232"}
{"name": "RITE AID PHARMACY #11670","address1": "137 MAIN STREET SOUTH","address2": "","city": "ALLENDALE","state": "SC","zip": "29810","zip+4": "0000","phone": "8035847735"}
{"name": "RITE AID PHARMACY #11569","address1": "3518 MAIN HIGHWAY","address2": "","city": "BAMBERG","state": "SC","zip": "29003","zip+4": "0000","phone": "8032457018"}
{"name": "RITE AID PHARMACY #11571","address1": "1401 CHAPIN ROAD","address2": "","city": "CHAPIN","state": "SC","zip": "29036","zip+4": "0000","phone": "8033450146"}
{"name": "RITE AID PHARMACY #11586","address1": "4730 FOREST DRIVE","address2": "","city": "COLUMBIA","state": "SC","zip": "29206","zip+4": "0000","phone": "8037877362"}
{"name": "RITE AID PHARMACY #11584","address1": "2708 ROSEWOOD DRIVE","address2": "","city": "COLUMBIA","state": "SC","zip": "29205","zip+4": "0000","phone": "8037990036"}
{"name": "RITE AID PHARMACY #11592","address1": "8921 TWO NOTCH ROAD","address2": "","city": "COLUMBIA","state": "SC","zip": "29223","zip+4": "0000","phone": "8037364945"}
{"name": "RITE AID PHARMACY #11582","address1": "5900 NORTH MAIN STREET","address2": "","city": "COLUMBIA","state": "SC","zip": "29203","zip+4": "0000","phone": "8036911690"}
{"name": "RITE AID PHARMACY #11587","address1": "6500 GARNERS FERRY ROAD","address2": "","city": "COLUMBIA","state": "SC","zip": "29209","zip+4": "0000","phone": "8036956015"}
{"name": "RITE AID PHARMACY #11600","address1": "5401 NORTH MAIN STREET","address2": "","city": "COWPENS","state": "SC","zip": "29330","zip+4": "0000","phone": "8644634986"}
{"name": "RITE AID PHARMACY #11627","address1": "406 LAMAR HIGHWAY","address2": "","city": "DARLINGTON","state": "SC","zip": "29532","zip+4": "0000","phone": "8433931965"}
{"name": "RITE AID PHARMACY #11628","address1": "611 HWY 301 NORTH","address2": "","city": "DILLON","state": "SC","zip": "29536","zip+4": "0000","phone": "8437743400"}
{"name": "RITE AID PHARMACY #11640","address1": "1 EAST STONE AVENUE","address2": "","city": "GREENVILLE","state": "SC","zip": "29609","zip+4": "0000","phone": "8642359115"}
{"name": "RITE AID PHARMACY #11642","address1": "3050 WHITE HORSE ROAD","address2": "","city": "GREENVILLE","state": "SC","zip": "29611","zip+4": "0000","phone": "8646051849"}
{"name": "RITE AID PHARMACY #11629","address1": "844 SOUTH FIFTH STREET","address2": "","city": "HARTSVILLE","state": "SC","zip": "29550","zip+4": "0000","phone": "8433830921"}
{"name": "RITE AID PHARMACY #11602","address1": "11156 ASHEVILLE HIGHWAY","address2": "","city": "INMAN","state": "SC","zip": "29349","zip+4": "8931","phone": "8644723540"}
{"name": "RITE AID PHARMACY #11573","address1": "515 SOUTH HAMPTON STREET","address2": "","city": "KERSHAW","state": "SC","zip": "29067","zip+4": "0000","phone": "8034757370"}
{"name": "RITE AID PHARMACY #11603","address1": "501 NORTH HARPER STREET","address2": "","city": "LAURENS","state": "SC","zip": "29360","zip+4": "0000","phone": "8649843026"}
{"name": "RITE AID PHARMACY #11669","address1": "605 NORTH MAIN STREET","address2": "","city": "NEW ELLENTON","state": "SC","zip": "29809","zip+4": "0000","phone": "8036522721"}
{"name": "RITE AID PHARMACY #11654","address1": "915 ANDERSON STREET","address2": "","city": "PIEDMONT","state": "SC","zip": "29673","zip+4": "0000","phone": "8648458323"}
{"name": "RITE AID PHARMACY #11675","address1": "8225 EAST MAIN STREET","address2": "SUITE F","city": "RIDGELAND","state": "SC","zip": "29936","zip+4": "9513","phone": "8437263067"}
{"name": "RITE AID PHARMACY #11599","address1": "8951 VALLEY FALLS ROAD","address2": "","city": "BOILING SPRINGS","state": "SC","zip": "29316","zip+4": "0000","phone": "8645783730"}
{"name": "RITE AID PHARMACY #11660","address1": "6414 STATE PARK ROAD","address2": "","city": "TRAVELERS REST","state": "SC","zip": "29690","zip+4": "1634","phone": "8648347936"}
{"name": "RITE AID PHARMACY #11661","address1": "300 EAST MAIN STREET","address2": "","city": "WESTMINSTER","state": "SC","zip": "29693","zip+4": "0000","phone": "8646475051"}
{"name": "RITE AID PHARMACY #11662","address1": "201 EAST MAIN STREET","address2": "","city": "WILLIAMSTON","state": "SC","zip": "29697","zip+4": "0000","phone": "8648479071"}
{"name": "RITE AID PHARMACY #11672","address1": "12845 MAIN STREET","address2": "","city": "WILLISTON","state": "SC","zip": "29853","zip+4": "0000","phone": "8032664345"}
{"name": "RITE AID PHARMACY #11606","address1": "121 NORTH MAIN STREET","address2": "","city": "WOODRUFF","state": "SC","zip": "29388","zip+4": "0000","phone": "8644765902"}
{"name": "RITE AID PHARMACY #11622","address1": "72 BELLS HIGHWAY","address2": "","city": "WALTERBORO","state": "SC","zip": "29488","zip+4": "0000","phone": "8435429202"}
{"name": "RITE AID PHARMACY #11605","address1": "6950 SOUTH PINE STREET","address2": "","city": "PACOLET","state": "SC","zip": "29372","zip+4": "0000","phone": "8644741145"}
{"name": "RITE AID PHARMACY #11658","address1": "930 NORTH EAST MAIN STREET","address2": "","city": "SIMPSONVILLE","state": "SC","zip": "29681","zip+4": "0000","phone": "8649632573"}
{"name": "CVS PHARMACY #05386","address1": "8523 OLD STATE RD","address2": "","city": "HOLLY HILL","state": "SC","zip": "29059","zip+4": "0000","phone": "8034963954"}
{"name": "RITE AID PHARMACY #11644","address1": "107 EAST GREENVILLE STREET","address2": "","city": "ANDERSON","state": "SC","zip": "29621","zip+4": "0000","phone": "8649641606"}
{"name": "RITE AID PHARMACY #11589","address1": "1501 BROAD RIVER ROAD","address2": "","city": "COLUMBIA","state": "SC","zip": "29210","zip+4": "0000","phone": "8035610515"}
{"name": "PUBLIX PHARMACY #0587","address1": "10128 TWO NOTCH ROAD","address2": "","city": "COLUMBIA","state": "SC","zip": "29223","zip+4": "0000","phone": "8037881655"}
{"name": "RITE AID PHARMACY #11647","address1": "5991 CALHOUN MEMORIAL HIGHWAY","address2": "","city": "EASLEY","state": "SC","zip": "29640","zip+4": "0000","phone": "8643063380"}
{"name": "WAL-MART PHARMACY #100881","address1": "5556 SUNSET BLVD","address2": "","city": "LEXINGTON","state": "SC","zip": "29072","zip+4": "0000","phone": "8038083747"}
{"name": "CVS PHARMACY #07654","address1": "2996 EAST HWY 501","address2": "","city": "CONWAY","state": "SC","zip": "29526","zip+4": "0000","phone": "8433472613"}
{"name": "CVS PHARMACY #02189","address1": "821 S BATESVILLE RD","address2": "","city": "GREER","state": "SC","zip": "29650","zip+4": "0000","phone": "8648791702"}
{"name": "CVS PHARMACY #02191","address1": "4102 OLD BUNCOMBE RD","address2": "","city": "GREENVILLE","state": "SC","zip": "29617","zip+4": "0000","phone": "8643713651"}
{"name": "CVS PHARMACY #02190","address1": "1141 STATE PARK RD","address2": "","city": "GREENVILLE","state": "SC","zip": "29609","zip+4": "0000","phone": "8642407421"}
{"name": "NCS HEALTHCARE","address1": "444 DEANNA LANE","address2": "STE D","city": "WAANDO","state": "SC","zip": "29492","zip+4": "0000","phone": "8888849229"}
{"name": "BI LO PHARMACY #161","address1": "1365 WEST WADE HAMPTON BLVD","address2": "","city": "GREER","state": "SC","zip": "29650","zip+4": "0000","phone": "8649688921"}
{"name": "CVS PHARMACY #02240","address1": "1509 ROPER MOUNTAIN RD","address2": "","city": "GREENVILLE","state": "SC","zip": "29615","zip+4": "0000","phone": "8643121082"}
{"name": "CVS PHARMACY #02250","address1": "121 CLEMSON RD","address2": "","city": "COLUMBIA","state": "SC","zip": "29229","zip+4": "0000","phone": "8034194002"}
{"name": "CVS PHARMACY #02248","address1": "1210 CHARLESTON HWY","address2": "","city": "W. COLUMBIA","state": "SC","zip": "29169","zip+4": "0000","phone": "8037395181"}
{"name": "SAINT MATTHEWS PHARMACY","address1": "708 F R HUFF DR NORTH","address2": "","city": "ST MATTHEWS","state": "SC","zip": "29135","zip+4": "0000","phone": "8036557800"}
{"name": "RITE AID PHARMACY #11570","address1": "811 WEST DEKALB STREET","address2": "UNIT 1","city": "CAMDEN","state": "SC","zip": "29020","zip+4": "0000","phone": "8034324646"}
{"name": "BI LO PHARMACY #283","address1": "1021 S PENDLETON ST","address2": "","city": "EASLEY","state": "SC","zip": "29642","zip+4": "0000","phone": "8643061539"}
{"name": "CVS PHARMACY #02194","address1": "224 E BUTLER RD","address2": "","city": "MAULDIN","state": "SC","zip": "29662","zip+4": "0000","phone": "8642341282"}
{"name": "CVS PHARMACY #02195","address1": "426 WADE HAMPTON BLVD","address2": "","city": "GREENVILLE","state": "SC","zip": "29609","zip+4": "0000","phone": "8642554461"}
{"name": "BI LO PHARMACY #615","address1": "2349 AUGUSTA ROAD","address2": "","city": "WEST COLUMBIA","state": "SC","zip": "29169","zip+4": "0000","phone": "8037964128"}
{"name": "RITE AID PHARMACY #11673","address1": "1294 RIBAUT ROAD","address2": "","city": "BEAUFORT","state": "SC","zip": "29902","zip+4": "0000","phone": "8435228503"}
{"name": "RITE AID PHARMACY #11581","address1": "702 MAIN STREET","address2": "","city": "WEST COLUMBIA","state": "SC","zip": "29170","zip+4": "0000","phone": "8039552302"}
{"name": "RITE AID PHARMACY #11633","address1": "788 INLET SQUARE DRIVE","address2": "","city": "MURRELLS INLET","state": "SC","zip": "29576","zip+4": "0000","phone": "8436511210"}
{"name": "RITE AID PHARMACY #11608","address1": "261 CALHOUN STREET","address2": "","city": "CHARLESTON","state": "SC","zip": "29401","zip+4": "0000","phone": "8438056022"}
{"name": "CVS PHARMACY #02242","address1": "2580 WOODRUFF RD","address2": "","city": "SIMPSONVILLE","state": "SC","zip": "29681","zip+4": "0000","phone": "8646277231"}
{"name": "RITE AID PHARMACY #11632","address1": "2701 DICK POND ROAD","address2": "","city": "SURFSIDE BEACH","state": "SC","zip": "29575","zip+4": "0000","phone": "8436506800"}
{"name": "WAL-MART PHARMACY #102606","address1": "721 US HWY 321 BYP S UNIT 1","address2": "","city": "WINNSBORO","state": "SC","zip": "29180","zip+4": "0000","phone": "8037129299"}
{"name": "KROGER PHARMACY #11448","address1": "10136 TWO NOTCH ROAD","address2": "","city": "COLUMBIA","state": "SC","zip": "29229","zip+4": "0000","phone": "8037884141"}
{"name": "CVS PHARMACY #07695","address1": "6323 SAVANNAH HWY UNIT D","address2": "","city": "RAVENEL","state": "SC","zip": "29470","zip+4": "0000","phone": "8438896055"}
{"name": "PUBLIX PHARMACY #0623","address1": "163 SEA ISLAND PARKWAY","address2": "","city": "BEAUFORT","state": "SC","zip": "29907","zip+4": "0000","phone": "8439869658"}
{"name": "CVS PHARMACY #07697","address1": "415 BROOKS RD","address2": "","city": "ANDREWS","state": "SC","zip": "29510","zip+4": "0000","phone": "8032643045"}
{"name": "CVS PHARMACY #04657","address1": "102 EXPRESS LANE","address2": "","city": "DARLINGTON","state": "SC","zip": "29532","zip+4": "0000","phone": "8433956448"}
{"name": "BI LO PHARMACY #284","address1": "110 SOUTH HWY 52","address2": "SUITE B","city": "MONCKS CORNER","state": "SC","zip": "29461","zip+4": "0000","phone": "8437615507"}
{"name": "FORT MILL PHARMACY","address1": "601 SPRINGCREST DR","address2": "","city": "FORT MILL","state": "SC","zip": "29715","zip+4": "0000","phone": "8035482851"}
{"name": "PUBLIX PHARMACY #0613","address1": "655 C FAIRVIEW ROAD","address2": "","city": "SIMPSONVILLE","state": "SC","zip": "29680","zip+4": "0000","phone": "8649620251"}
{"name": "BI LO PHARMACY #113","address1": "3720 BOILING SPRINGS ROAD","address2": "","city": "BOILING SPRING","state": "SC","zip": "29316","zip+4": "0000","phone": "8648142388"}
{"name": "CVS PHARMACY #02269","address1": "4310 HARDSCRABBLE RD","address2": "","city": "COLUMBIA","state": "SC","zip": "29229","zip+4": "0000","phone": "8038656684"}
{"name": "ATLANTIC PHARMACY SERVICES","address1": "2090 EXECUTIVE HALL RD","address2": "SUITE 100","city": "CHARLESTON","state": "SC","zip": "29407","zip+4": "0000","phone": "8435544000"}
{"name": "PUBLIX PHARMACY #0632","address1": "2801 WADE HAMPTON BLVD 120","address2": "","city": "TAYLORS","state": "SC","zip": "29687","zip+4": "0000","phone": "8646097306"}
{"name": "THE HUBBARD YOUNG PHARMACY INC","address1": "402 COLLEGE AVENUE","address2": "","city": "CLEMSON","state": "SC","zip": "29631","zip+4": "0000","phone": "8646541771"}
{"name": "PUBLIX PHARMACY #0633","address1": "520 FOLLY BEACH ROAD","address2": "","city": "CHARLESTON","state": "SC","zip": "29412","zip+4": "0000","phone": "8437625676"}
{"name": "CVS PHARMACY #07795","address1": "650 JOHNNIE DODDS BLVD","address2": "","city": "MT. PLEASANT","state": "SC","zip": "29464","zip+4": "0000","phone": "8438493473"}
{"name": "CVS PHARMACY #02331","address1": "718 MILLS AVE","address2": "","city": "GREENVILLE","state": "SC","zip": "29605","zip+4": "0000","phone": "8644211586"}
{"name": "BI LO PHARMACY #539","address1": "501 OLD GREENVILLE HWY","address2": "","city": "CLEMSON","state": "SC","zip": "29631","zip+4": "0000","phone": "8646537113"}
{"name": "MEDICAP PHARMACY #8236","address1": "203 S MAIN ST","address2": "","city": "DARLINGTON","state": "SC","zip": "29532","zip+4": "0000","phone": "8433956020"}
{"name": "RITE AID PHARMACY #11655","address1": "3455 HIGHWAY 153","address2": "","city": "PIEDMONT","state": "SC","zip": "29673","zip+4": "0000","phone": "8642209992"}
{"name": "PUBLIX PHARMACY #0602","address1": "235 S PLEASANTBURG DRIVE","address2": "","city": "GREENVILLE","state": "SC","zip": "29607","zip+4": "0000","phone": "8642504709"}
{"name": "CVS PHARMACY #02243","address1": "2566 ASHELY RIVER RD","address2": "","city": "CHARLESTON","state": "SC","zip": "29414","zip+4": "0000","phone": "8437696560"}
{"name": "BI LO PHARMACY #182","address1": "2401 REIDVILLE RD","address2": "","city": "SPARTANBURG","state": "SC","zip": "29301","zip+4": "0000","phone": "8645760401"}
{"name": "CVS PHARMACY #02192","address1": "698 FAIRVIEW RD","address2": "","city": "SIMPSONVILLE","state": "SC","zip": "29680","zip+4": "0000","phone": "8649628991"}
{"name": "WAL-MART PHARMACY #102687","address1": "14055 EAST WADE HAMPTON BLVD","address2": "","city": "GREER","state": "SC","zip": "29650","zip+4": "0000","phone": "8648772296"}
{"name": "RITE AID PHARMACY #11648","address1": "311 HAMPTON STREET","address2": "","city": "GREENWOOD","state": "SC","zip": "29646","zip+4": "0000","phone": "8642237511"}
{"name": "BI LO PHARMACY #568","address1": "3518 EARLE E MORRIS JR HIGHWAY","address2": "","city": "GREENVILLE","state": "SC","zip": "29611","zip+4": "0000","phone": "8642953013"}
{"name": "BI LO PHARMACY #277","address1": "1704 E GREENVILLE ST","address2": "","city": "ANDERSON","state": "SC","zip": "29621","zip+4": "0000","phone": "8643759401"}
{"name": "CVS PHARMACY #04489","address1": "1006 FORDING ISLAND RD","address2": "","city": "BLUFTON","state": "SC","zip": "29910","zip+4": "0000","phone": "8438152801"}
{"name": "CVS PHARMACY #02353","address1": "800 PAMPLICO HWY","address2": "","city": "FLORENCE","state": "SC","zip": "29505","zip+4": "0000","phone": "8432920621"}
{"name": "BI LO PHARMACY #016","address1": "NUMBER 6 K MART SHOPPING PLAZA","address2": "","city": "GREENVILLE","state": "SC","zip": "29605","zip+4": "0000","phone": "8642331069"}
{"name": "MUSC HOLLINGS CANCER CENTER PH","address1": "86 JONATHAN LUCAS ST","address2": "RM 219","city": "CHARLESTON","state": "SC","zip": "29425","zip+4": "0000","phone": "8437926440"}
{"name": "PUBLIX PHARMACY #0656","address1": "150 HARBISON BLVD","address2": "","city": "COLUMBIA","state": "SC","zip": "29212","zip+4": "0000","phone": "8034070923"}
{"name": "INGATE PROFESSIONAL PHARMACY","address1": "400 LAURENS ST NW","address2": "","city": "AIKEN","state": "SC","zip": "29801","zip+4": "0000","phone": "8036488330"}
{"name": "NEW HORIZON PHARMACY","address1": "130 MALLARD ST","address2": "","city": "GREENVILLE","state": "SC","zip": "29601","zip+4": "0000","phone": "8642331534"}
{"name": "CVS PHARMACY #02251","address1": "41 E CALHOUN ST","address2": "","city": "SUMTER","state": "SC","zip": "29150","zip+4": "0000","phone": "8034180919"}
{"name": "WAL-MART PHARMACY #102703","address1": "2014 SOUTH IRBY STREET","address2": "","city": "FLORENCE","state": "SC","zip": "29505","zip+4": "0000","phone": "8432920307"}
{"name": "RITE AID PHARMACY #11620","address1": "1799 HIGHWAY 17 NORTH","address2": "","city": "MT PLEASANT","state": "SC","zip": "29464","zip+4": "0000","phone": "8438568669"}
{"name": "WAL-MART PHARMACY #102712","address1": "541 SEABOARD ST","address2": "","city": "MYRTLE BEACH","state": "SC","zip": "29577","zip+4": "0000","phone": "8434457851"}
{"name": "WALGREEN DRUG STORE #4813","address1": "11 PALMETTO BAY RD","address2": "","city": "HILTON HEAD","state": "SC","zip": "29928","zip+4": "0000","phone": "8436866055"}
{"name": "BI LO PHARMACY #525","address1": "860 PARRIS ISLAND GATEWAY","address2": "","city": "BEAUFORT","state": "SC","zip": "29906","zip+4": "0000","phone": "8435242300"}
{"name": "BI LO PHARMACY #613","address1": "7 FARRS BRIDGE ROAD","address2": "","city": "GREENVILLE","state": "SC","zip": "29611","zip+4": "0000","phone": "8642461528"}
{"name": "WALGREEN DRUG STORE #4842","address1": "1008 OAKLAND AVE","address2": "","city": "ROCK HILL","state": "SC","zip": "29732","zip+4": "0000","phone": "8039801320"}
{"name": "BI LO PHARMACY #522","address1": "111 EDGEWOOD AVENUE","address2": "","city": "N AUGUSTA","state": "SC","zip": "29841","zip+4": "0000","phone": "8032791190"}
{"name": "TARGET PHARMACY #1182","address1": "1112 WOODRUFF ROAD","address2": "","city": "GREENVILLE","state": "SC","zip": "29607","zip+4": "0000","phone": "8642860867"}
{"name": "PAWLEYS ISLAND PHARMACY","address1": "9710 OCEAN HWY 17","address2": "UNIT 1","city": "PAWLEYS ISLAND","state": "SC","zip": "29585","zip+4": "0000","phone": "8432354666"}
{"name": "BI LO PHARMACY #550","address1": "500 PAMPLICO HWY","address2": "","city": "FLORENCE","state": "SC","zip": "29505","zip+4": "0000","phone": "8432921505"}
{"name": "WALGREEN DRUG STORE #4980","address1": "20 HATTON PLACE","address2": "","city": "HILTON HEAD","state": "SC","zip": "29926","zip+4": "0000","phone": "8433427481"}
{"name": "HEALTHCARE PARTNERS OF SC","address1": "1608 N MAIN ST","address2": "","city": "CONWAY","state": "SC","zip": "29526","zip+4": "0000","phone": "8434886341"}
{"name": "UPSTATE PHARMACY EASTSIDE","address1": "200 PATEWOOD DR","address2": "A 12","city": "GREENVILLE","state": "SC","zip": "29615","zip+4": "0000","phone": "8644542369"}
{"name": "TARGET PHARMACY #1198","address1": "3519 CLEMSON BLVD","address2": "","city": "ANDERSON","state": "SC","zip": "29621","zip+4": "0000","phone": "8642243972"}
{"name": "TARGET PHARMACY #1199","address1": "134 HARBISON BLVD","address2": "","city": "COLUMBIA","state": "SC","zip": "29212","zip+4": "0000","phone": "8034070328"}
{"name": "BI LO PHARMACY #104","address1": "1610 SOUTH 17 BUSINESS","address2": "","city": "SURFSIDE BEACH","state": "SC","zip": "29575","zip+4": "0000","phone": "8436504523"}
{"name": "BI LO PHARMACY #105","address1": "720 NORTH MAIN STREET","address2": "","city": "N MYRTLE BEACH","state": "SC","zip": "29582","zip+4": "0000","phone": "8432498553"}
{"name": "RITE AID PHARMACY #11649","address1": "1400 SOUTH MAIN STREET","address2": "","city": "GREENWOOD","state": "SC","zip": "29646","zip+4": "0000","phone": "8642276841"}
{"name": "CVS PHARMACY #02555","address1": "229 W BUFORD ST","address2": "","city": "GAFFNEY","state": "SC","zip": "29340","zip+4": "0000","phone": "8644893148"}
{"name": "CVS PHARMACY #02246","address1": "2210 LAURENS RD","address2": "","city": "GREENVILLE","state": "SC","zip": "29607","zip+4": "0000","phone": "8642888280"}
{"name": "WAL-MART PHARMACY #102806","address1": "4000 HWY 9","address2": "","city": "BOILING SPRINGS","state": "SC","zip": "29316","zip+4": "0000","phone": "8648146262"}
{"name": "LOREX MEDICAL SVS","address1": "1233 WILSON RD","address2": "","city": "NEWBERRY","state": "SC","zip": "29108","zip+4": "0000","phone": "8032760990"}
{"name": "BI LO PHARMACY #057","address1": "2607 WOODRUFF RD","address2": "","city": "SIMPSONVILLE","state": "SC","zip": "29681","zip+4": "0000","phone": "8642880136"}
{"name": "PUBLIX PHARMACY #0687","address1": "1905 EAST MAIN STREET","address2": "","city": "SPARTANBURG","state": "SC","zip": "29307","zip+4": "0000","phone": "8642531833"}
{"name": "RIDGELAND MAIN STREET PHARMACY","address1": "120 W MAIN ST","address2": "","city": "RIDGELAND","state": "SC","zip": "29936","zip+4": "0000","phone": "8437265444"}
{"name": "SAMS PHARMACY #108252","address1": "4900 CENTRE POINTE DRIVE","address2": "","city": "NORTH CHARLESTON","state": "SC","zip": "29418","zip+4": "0000","phone": "8435299908"}
{"name": "BI LO PHARMACY #214","address1": "1013 WEST FLOYD BAKER BLVD","address2": "","city": "GAFFNEY","state": "SC","zip": "29340","zip+4": "0000","phone": "8644892541"}
{"name": "KROGER PHARMACY #11026","address1": "3735 RENEE DRIVE","address2": "","city": "MYRTLE BEACH","state": "SC","zip": "29579","zip+4": "0000","phone": "8432364296"}
{"name": "WAL-MART PHARMACY #102832","address1": "4400 HIGHWAY 278","address2": "","city": "HARDEEVILLE","state": "SC","zip": "29927","zip+4": "0000","phone": "8432083010"}
{"name": "SUP RX PHARMACY #88","address1": "1455 S GUIGNARD PKWY","address2": "","city": "SUMTER","state": "SC","zip": "29150","zip+4": "0000","phone": "8037785758"}
{"name": "FOOD LION PHARMACY #1431","address1": "1605 BY PASS 72 NE","address2": "","city": "GREENWOOD","state": "SC","zip": "29649","zip+4": "0000","phone": "8649430151"}
{"name": "PEACH VALLEY PHARMACY","address1": "2306 CHESNEE HWY","address2": "STE 1","city": "SPARTANBURG","state": "SC","zip": "29303","zip+4": "0000","phone": "8645770087"}
{"name": "BI LO PHARMACY #256","address1": "330 LEBBY STREET","address2": "","city": "PELZER","state": "SC","zip": "29669","zip+4": "0000","phone": "8649479214"}
{"name": "KROGER PHARMACY #11499","address1": "125 TOWNE DRIVE","address2": "","city": "BLUFFTON","state": "SC","zip": "29910","zip+4": "0000","phone": "8438157070"}
{"name": "BI LO PHARMACY #578","address1": "2453 CHARLESTON HWY EDENWOOD P","address2": "","city": "CAYCE","state": "SC","zip": "29033","zip+4": "0000","phone": "8037966759"}
{"name": "BI LO PHARMACY #116","address1": "1241 38TH AVENUE NORTH","address2": "","city": "MYRTLE BEACH","state": "SC","zip": "29577","zip+4": "0000","phone": "8436267400"}
{"name": "BI LO PHARMACY #653","address1": "148 WALNUT LANE","address2": "","city": "TRAVELERS REST","state": "SC","zip": "29690","zip+4": "0000","phone": "8648345327"}
{"name": "BI LO PHARMACY #273","address1": "1818 WOODRUFF ROAD","address2": "","city": "GREENVILLE","state": "SC","zip": "29607","zip+4": "0000","phone": "8644588173"}
{"name": "BI LO PHARMACY #552","address1": "2700 GENTRY MEMORIAL HWY","address2": "","city": "PICKENS","state": "SC","zip": "29671","zip+4": "0000","phone": "8648785332"}
{"name": "LONG TERM CARE PHARMACY","address1": "454 BERRY HILL RD","address2": "","city": "COLUMBIA","state": "SC","zip": "29210","zip+4": "0000","phone": "8032548775"}
{"name": "CVS PHARMACY #02736","address1": "3710 HWY 17 BYPASS","address2": "","city": "MURRELLS INLET","state": "SC","zip": "29576","zip+4": "0000","phone": "8436518975"}
{"name": "BI LO PHARMACY #065","address1": "7830 GARNERS FERRY RD","address2": "","city": "COLUMBIA","state": "SC","zip": "29209","zip+4": "0000","phone": "8036477114"}
{"name": "BI LO PHARMACY #555","address1": "712 BYPASS 25 NE","address2": "","city": "GREENWOOD","state": "SC","zip": "29646","zip+4": "0000","phone": "8642291957"}
{"name": "WALGREEN DRUG STORE #6077","address1": "2872 HWY 17 S","address2": "","city": "GARDEN CITY","state": "SC","zip": "29576","zip+4": "0000","phone": "8433573962"}
{"name": "TARGET PHARMACY #1310","address1": "2545 WHISKEY ROAD","address2": "","city": "AIKEN","state": "SC","zip": "29803","zip+4": "0000","phone": "8036442711"}
{"name": "TARGET PHARMACY #1298","address1": "1050 FORDING ISLAND ROAD","address2": "","city": "BLUFFTON","state": "SC","zip": "29910","zip+4": "0000","phone": "8438158191"}
{"name": "LONGS PHARMACY AT GATEWAY","address1": "8810 FARROW RD","address2": "STE C","city": "COLUMBIA","state": "SC","zip": "29203","zip+4": "0000","phone": "8037365975"}
{"name": "WAL-MART PHARMACY #102928","address1": "605 ST JAMES AVENUE","address2": "","city": "GOOSE CREEK","state": "SC","zip": "29445","zip+4": "0000","phone": "8435533185"}
{"name": "BI LO PHARMACY #268","address1": "1436 JA COCHRAN BYPASS","address2": "","city": "CHESTER","state": "SC","zip": "29706","zip+4": "0000","phone": "8035816310"}
{"name": "BI LO PHARMACY #282","address1": "4464 DEVINE STREET","address2": "","city": "COLUMBIA","state": "SC","zip": "29205","zip+4": "0000","phone": "8037381108"}
{"name": "OKATIE PHARMACY INC","address1": "30 WILLIAM POPE DR","address2": "STE 103","city": "BLUFFTON","state": "SC","zip": "29909","zip+4": "0000","phone": "8437054444"}
{"name": "CYPRESS CENTER PHARMACY","address1": "50 HOSPITAL STREET","address2": "SUITE 1A","city": "MANNING","state": "SC","zip": "29102","zip+4": "0000","phone": "8034355224"}
{"name": "INGLES PHARMACY #69","address1": "1500 POINSETTE HWY","address2": "","city": "GREENVILLE","state": "SC","zip": "29609","zip+4": "0000","phone": "8642357183"}
{"name": "BI LO PHARMACY #107","address1": "5020 DICK POND ROAD","address2": "","city": "MYRTLE BEACH","state": "SC","zip": "29588","zip+4": "0000","phone": "8432936664"}
{"name": "WALGREEN DRUG STORE #6074","address1": "1000 BROAD ST","address2": "","city": "SUMTER","state": "SC","zip": "29150","zip+4": "0000","phone": "8037737310"}
{"name": "BRANCHVILLE PHARMACY","address1": "7615 FREEDOM RD","address2": "","city": "BRANCHVILLE","state": "SC","zip": "29432","zip+4": "0000","phone": "8032748585"}
{"name": "FOOD LION PHARMACY #232","address1": "1260 E MAIN ST","address2": "","city": "ROCK HILL","state": "SC","zip": "29730","zip+4": "0000","phone": "8033272049"}
{"name": "BLYTHEWOOD PHARMACY WEST","address1": "428 MCNULTY RD","address2": "STE 4","city": "BLYTHEWOOD","state": "SC","zip": "29016","zip+4": "0000","phone": "8037860331"}
{"name": "TARGET PHARMACY #1319","address1": "10204 TWO NOTCH ROAD","address2": "","city": "COLUMBIA","state": "SC","zip": "29229","zip+4": "0000","phone": "8037880951"}
{"name": "HAWHTORNE SUNSET PHARMACY","address1": "2854 SUNSET BLVD","address2": "","city": "WEST COLUMBIA","state": "SC","zip": "29169","zip+4": "0000","phone": "8037947990"}
{"name": "COSTCO PHARMACY #360","address1": "3050 ASHLEY TOWN CTR DRIVE","address2": "","city": "CHARLESTON","state": "SC","zip": "29414","zip+4": "0000","phone": "8434602002"}
{"name": "MEDICAP PHARMACY #8294","address1": "3160 NORTH ROAD","address2": "","city": "ORANGEBURG","state": "SC","zip": "29118","zip+4": "0000","phone": "8035390694"}
{"name": "INGLES PHARMACY #32","address1": "1335 STALLINGS RD","address2": "","city": "GREENVILLE","state": "SC","zip": "29609","zip+4": "0000","phone": "8643222813"}
{"name": "INGLES PHARMACY #37","address1": "8650 ASHEVILLE HWY","address2": "","city": "SPARTANBURG","state": "SC","zip": "29303","zip+4": "0000","phone": "8645786243"}
{"name": "TARGET PHARMACY #1349","address1": "8199 WARREN HABERNATHY HWY","address2": "","city": "SPARTANBURG","state": "SC","zip": "29301","zip+4": "0000","phone": "8645767591"}
{"name": "WALGREEN DRUG STORE #6686","address1": "300 S KINGS HWY","address2": "","city": "MYRTLE BEACH","state": "SC","zip": "29577","zip+4": "0000","phone": "8436262183"}
{"name": "LITTLE RIVER MEDICAL CTR PHCY","address1": "4303 LIVE OAK DR","address2": "PO BOX 547","city": "LITTLE RIVER","state": "SC","zip": "29566","zip+4": "0000","phone": "8432809544"}
{"name": "BI LO PHARMACY #409","address1": "1200 SAM RITTENBURG BLVD","address2": "SUITE A","city": "CHARLESTON","state": "SC","zip": "29407","zip+4": "0000","phone": "8435734776"}
{"name": "HARSEYS PHARMACY","address1": "280 US HWY 1 SOUTH","address2": "","city": "CHERAW","state": "SC","zip": "29520","zip+4": "0000","phone": "8435379991"}
{"name": "PIGGLY WIGGLYáPHARMACY # #97","address1": "7451 GARNERS FERRY RD","address2": "","city": "COLUMBIA","state": "SC","zip": "29209","zip+4": "0000","phone": "8036951710"}
{"name": "BI LO PHARMACY #153","address1": "3125 BEES FERRY ROAD","address2": "","city": "CHARLESTON","state": "SC","zip": "29414","zip+4": "0000","phone": "8437663360"}
{"name": "BI LO PHARMACY #408","address1": "2199 SOUTHPORT ROAD","address2": "","city": "SPARTANBURG","state": "SC","zip": "29302","zip+4": "0000","phone": "8643429558"}
{"name": "WALGREEN DRUG STORE #6076","address1": "8395 DORCHESTER RD","address2": "","city": "NORTH CHARLESTON","state": "SC","zip": "29406","zip+4": "0000","phone": "8432071278"}
{"name": "PUBLIX PHARMACY #0597","address1": "4840 FOREST DRIVE STE 10","address2": "","city": "COLUMBIA","state": "SC","zip": "29206","zip+4": "0000","phone": "8037904929"}
{"name": "NATIONAL DIRECT HOME PHARMACY","address1": "317 ZIMALCREST DR","address2": "","city": "COLUMBIA","state": "SC","zip": "29210","zip+4": "0000","phone": "8037720206"}
{"name": "INGLES PHARMACY #93","address1": "2150 MAIN ST","address2": "","city": "DUNCAN","state": "SC","zip": "29334","zip+4": "0000","phone": "8644330422"}
{"name": "TARGET PHARMACY #1371","address1": "1900 SPRINGSTEEN ROAD","address2": "","city": "ROCK HILL","state": "SC","zip": "29730","zip+4": "0000","phone": "8039853888"}
{"name": "DRIVE-THRU PHARMACY OF AMERICA","address1": "15891 WELLS HWY","address2": "","city": "SENECA","state": "SC","zip": "29678","zip+4": "0000","phone": "8648880405"}
{"name": "LATTA DRUG COMPANY INC","address1": "106 E MAIN STREET","address2": "","city": "LATTA","state": "SC","zip": "29565","zip+4": "0000","phone": "8437520023"}
{"name": "BI LO PHARMACY #267","address1": "1518 WEST MAIN STREET","address2": "","city": "LAURENS","state": "SC","zip": "29360","zip+4": "0000","phone": "8649842917"}
{"name": "BI LO PHARMACY #417","address1": "2055 WEDGEFIELD RD","address2": "","city": "SUMTER","state": "SC","zip": "29150","zip+4": "0000","phone": "8039389926"}
{"name": "PEE DEE HOME MED SUPPLY AND PH","address1": "608 N 4TH AVE","address2": "","city": "DILLON","state": "SC","zip": "29536","zip+4": "0000","phone": "8438419003"}
{"name": "BISHOPVILLE DRUG COMPANY #001","address1": "302 S MAIN ST","address2": "","city": "BISHOPVILLE","state": "SC","zip": "29010","zip+4": "0000","phone": "8034843784"}
{"name": "PALMETTO BREATHING SOLUTIONS","address1": "18 PUBLIC SQUARE","address2": "","city": "DARLINGTON","state": "SC","zip": "29532","zip+4": "0000","phone": "8433931001"}
{"name": "TARGET PHARMACY #1391","address1": "2070 SAM RITTENBERG BLVD","address2": "","city": "CHARLESTON","state": "SC","zip": "29407","zip+4": "0000","phone": "8437662130"}
{"name": "PEOPLES PHARMACY #2","address1": "134 S MAIN ST","address2": "","city": "CLOVER","state": "SC","zip": "29710","zip+4": "0000","phone": "8032223784"}
{"name": "BI LO PHARMACY #442","address1": "6021 ST ANDREWS RD","address2": "","city": "COLUMBIA","state": "SC","zip": "29212","zip+4": "0000","phone": "8037982258"}
{"name": "WALGREEN DRUG STORE #6262","address1": "3501 FOREST DR","address2": "","city": "COLUMBIA","state": "SC","zip": "29204","zip+4": "0000","phone": "8037434362"}
{"name": "BI LO PHARMACY #446","address1": "12189 GREENVILLE HWY","address2": "","city": "LYMAN","state": "SC","zip": "29365","zip+4": "0000","phone": "8649493420"}
{"name": "BUFORD ST DRUG STORE","address1": "113 W BUFORD ST","address2": "","city": "GAFFNEY","state": "SC","zip": "29340","zip+4": "3001","phone": "8644883036"}
{"name": "WALGREEN DRUG STORE #6075","address1": "915 FOLLY ROAD STE A","address2": "","city": "CHARLESTON","state": "SC","zip": "29412","zip+4": "0000","phone": "8437952294"}
{"name": "MULLINS DISCOUNT DRUG INC","address1": "310 S MAIN ST","address2": "","city": "MULLINS","state": "SC","zip": "29574","zip+4": "0000","phone": "8434641757"}
{"name": "PUBLIX PHARMACY #0829","address1": "4611 HARD SCRABBLE RD","address2": "","city": "COLUMBIA","state": "SC","zip": "29229","zip+4": "0000","phone": "8037369599"}
{"name": "PUBLIX PHARMACY #0824","address1": "8409 DORCHESTER RD SUITE 104","address2": "","city": "NORTH CHARLESTON","state": "SC","zip": "29420","zip+4": "0000","phone": "8437675976"}
{"name": "RITE AID PHARMACY #11663","address1": "2907 WEST HIGHWAY 160","address2": "","city": "FORT MILL","state": "SC","zip": "29708","zip+4": "0000","phone": "8035486495"}
{"name": "BI LO PHARMACY #188","address1": "207 W BUTLER RD","address2": "","city": "MAULDIN","state": "SC","zip": "29662","zip+4": "0000","phone": "8642973844"}
{"name": "HAWTHORNE CAMDEN PHARMACY","address1": "2339 BROAD ST","address2": "","city": "CAMDEN","state": "SC","zip": "29020","zip+4": "0000","phone": "8034258378"}
{"name": "WALGREEN DRUG STORE #6687","address1": "4300 HIGHWAY 17 S","address2": "","city": "NORTH MYRTLE BEACH","state": "SC","zip": "29582","zip+4": "0000","phone": "8432724188"}
{"name": "MEDI-SAVE PHARMACY","address1": "1023 A W DEKALB ST","address2": "","city": "CAMDEN","state": "SC","zip": "29020","zip+4": "0000","phone": "8034240064"}
{"name": "TARGET PHARMACY #1452","address1": "2791 DAVID MCLEOD BLVD","address2": "","city": "FLORENCE","state": "SC","zip": "29501","zip+4": "0000","phone": "8436676891"}
{"name": "WISES FAMILY PHARMACY INC","address1": "202 S MAIN ST","address2": "","city": "HEMINGWAY","state": "SC","zip": "29554","zip+4": "0000","phone": "8435583000"}
{"name": "WALGREEN DRUG STORE #7156","address1": "1810 N HIGHWAY 17","address2": "","city": "MOUNT PLEASANT","state": "SC","zip": "29464","zip+4": "0000","phone": "8433882575"}
{"name": "HEALTHQUEST PHARMACY INC","address1": "937 BOWMAN RD","address2": "","city": "MT PLEASANT","state": "SC","zip": "29464","zip+4": "0000","phone": "8439715492"}
{"name": "LONG POINT PHARMACY","address1": "616 LONG POINT RD","address2": "UNIT H","city": "MT PLEASANT","state": "SC","zip": "29464","zip+4": "0000","phone": "8438848806"}
{"name": "LEES INLET APOTHECARY AND GIFT","address1": "3579 HWY 17 B","address2": "","city": "MURRELLS INLET","state": "SC","zip": "29576","zip+4": "0000","phone": "8436517979"}
{"name": "YORKVILLE PHARMACY","address1": "822 B EAST LIBERTY ST","address2": "","city": "YORK","state": "SC","zip": "29745","zip+4": "0000","phone": "8036287934"}
{"name": "INGLES PHARMACY #208","address1": "1524 LOCUST HILL RD","address2": "","city": "GREER","state": "SC","zip": "29651","zip+4": "0000","phone": "8648013508"}
{"name": "PUBLIX PHARMACY #0035","address1": "2700 WOODRUFF RD","address2": "","city": "SIMPSONVILLE","state": "SC","zip": "29681","zip+4": "0000","phone": "8642343866"}
{"name": "MEDICINE MART PHARMACY","address1": "3729 ROSEWOOD DR","address2": "","city": "COLUMBIA","state": "SC","zip": "29205","zip+4": "0000","phone": "8032312003"}
{"name": "WALL DRUGS OF JOHNSONVILLE INC","address1": "239 STUCKEY ST","address2": "","city": "JOHNSONVILLE","state": "SC","zip": "29555","zip+4": "0000","phone": "8433866135"}
{"name": "PUBLIX PHARMACY #0845","address1": "80 BAYLOR DRIVE","address2": "","city": "BLUFFTON","state": "SC","zip": "29910","zip+4": "0000","phone": "8437063504"}
{"name": "WALGREEN DRUG STORE #6137","address1": "2224 AUGUSTA RD","address2": "","city": "WEST COLUMBIA","state": "SC","zip": "29169","zip+4": "0000","phone": "8037913586"}
{"name": "CARE PHARMACY LLC","address1": "1111 MEMORIAL LN","address2": "","city": "GEORGETOWN","state": "SC","zip": "29440","zip+4": "3311","phone": "8435459292"}
{"name": "PORT ROYAL HEALTH CENTER PHARM","address1": "1320 S RIBAUT RD","address2": "","city": "PORT ROYAL","state": "SC","zip": "29935","zip+4": "0000","phone": "8439860900"}
{"name": "PUBLIX PHARMACY #0205","address1": "6525 CALHOUN MEMORIAL HIGHWAY","address2": "","city": "EASLEY","state": "SC","zip": "29640","zip+4": "0000","phone": "8648502276"}
{"name": "INGLES PHARMACY #17","address1": "502 A ANN ST","address2": "","city": "PICKENS","state": "SC","zip": "29671","zip+4": "0000","phone": "8648782464"}
{"name": "WALGREEN DRUG STORE #6877","address1": "4779 HWY 501","address2": "","city": "MYRTLE BEACH","state": "SC","zip": "29579","zip+4": "0000","phone": "8439035484"}
{"name": "WALGREEN DRUG STORE #7154","address1": "1601 CHURCH ST","address2": "","city": "CONWAY","state": "SC","zip": "29526","zip+4": "0000","phone": "8434882300"}
{"name": "CVS PHARMACY #05044","address1": "9718 N KINGS HWY","address2": "","city": "MYRTE BEACH","state": "SC","zip": "29572","zip+4": "0000","phone": "8434978625"}
{"name": "NEW HORIZON PHARMACY #2","address1": "811 PENDLETON ST","address2": "11 MEDICAL COURT","city": "GREENVILLE","state": "SC","zip": "29601","zip+4": "0000","phone": "8647513200"}
{"name": "TARGET PHARMACY #1529","address1": "1300 LONG GROVE DRIVE","address2": "","city": "MT PLEASANT","state": "SC","zip": "29464","zip+4": "0000","phone": "8433888769"}
{"name": "WALGREEN DRUG STORE #6597","address1": "155 SEA ISLAND PKWY","address2": "","city": "BEAUFORT","state": "SC","zip": "29907","zip+4": "0000","phone": "8435221396"}
{"name": "INGLES PHARMACY #49","address1": "180 SCENIC HWY","address2": "","city": "WEST UNION","state": "SC","zip": "29696","zip+4": "0000","phone": "8646383976"}
{"name": "SAMS PHARMACY #108278","address1": "1211 WOODRUFF ROAD","address2": "","city": "GREENVILLE","state": "SC","zip": "29607","zip+4": "0000","phone": "8649871090"}
{"name": "SAMS PHARMACY #106203","address1": "350 HARBISON BLVD","address2": "","city": "COLUMBIA","state": "SC","zip": "29212","zip+4": "0000","phone": "8037494775"}
{"name": "FREDS PHARMACY #2106","address1": "480 NELSON BLVD","address2": "","city": "KINGSTREE","state": "SC","zip": "29556","zip+4": "0000","phone": "8433543373"}
{"name": "SAMS PHARMACY #108283","address1": "5426 FOREST DRIVE","address2": "","city": "COLUMBIA","state": "SC","zip": "29206","zip+4": "0000","phone": "8037907284"}
{"name": "INGLES PHARMACY #253","address1": "429 EAST MAIN ST","address2": "","city": "LIBERTY","state": "SC","zip": "29657","zip+4": "0000","phone": "8648439326"}
{"name": "STEPHENS PHARMACY","address1": "2 MARSHLAND RD","address2": "","city": "HILTON HEAD","state": "SC","zip": "29926","zip+4": "0000","phone": "8436863735"}
{"name": "INGLES PHARMACY #45","address1": "2000 SOUTH PINE ST","address2": "","city": "SPARTANBURG","state": "SC","zip": "29302","zip+4": "0000","phone": "8645421426"}
{"name": "PUBLIX PHARMACY #0874","address1": "215 PELHAM RD","address2": "","city": "GREENVILLE","state": "SC","zip": "29615","zip+4": "0000","phone": "8643708215"}
{"name": "PUBLIX PHARMACY #0360","address1": "1611 EAST GREENVILLE STREET","address2": "","city": "ANDERSON","state": "SC","zip": "29621","zip+4": "0000","phone": "8642315246"}
{"name": "SAMS PHARMACY #106353","address1": "1946 MR JOE WHITE AVE","address2": "","city": "MYRTLE BEACH","state": "SC","zip": "29577","zip+4": "0000","phone": "8434457179"}
{"name": "WALGREEN DRUG STORE #7155","address1": "1500 S IRBY ST","address2": "","city": "FLORENCE","state": "SC","zip": "29505","zip+4": "0000","phone": "8436298315"}
{"name": "PROFESSIONAL PHARMACY SERVICES","address1": "2213 D W PALMETTO ST","address2": "","city": "FLORENCE","state": "SC","zip": "29501","zip+4": "0000","phone": "8436654051"}
{"name": "FAMILY PHARMACY","address1": "206 N CAMBRIDGE ST","address2": "","city": "NINETY SIX","state": "SC","zip": "29666","zip+4": "0000","phone": "8645432852"}
{"name": "TARGET PHARMACY #1493","address1": "450 AZALEA SQUARE BLVD","address2": "","city": "SUMMERVILLE","state": "SC","zip": "29483","zip+4": "0000","phone": "8438716935"}
{"name": "WALGREEN DRUG STORE #7447","address1": "2700 WADE HAMPTON BLVD","address2": "","city": "GREENVILLE","state": "SC","zip": "29615","zip+4": "0000","phone": "8642687045"}
{"name": "RITE AID PHARMACY #11575","address1": "2723 MAIN STREET","address2": "","city": "NEWBERRY","state": "SC","zip": "29108","zip+4": "0000","phone": "8032767582"}
{"name": "TLC MEDICAL CENTRE INC","address1": "190 CREPE MYRTLE DR","address2": "","city": "AIKEN","state": "SC","zip": "29803","zip+4": "0000","phone": "8036487800"}
{"name": "WALGREEN DRUG STORE #7648","address1": "2410 REIDVILLE RD","address2": "","city": "SPARTANBURG","state": "SC","zip": "29301","zip+4": "0000","phone": "8645879404"}
{"name": "WALGREEN DRUG STORE #6136","address1": "4467 DEVINE ST","address2": "","city": "COLUMBIA","state": "SC","zip": "29205","zip+4": "0000","phone": "8037870916"}
{"name": "WALGREEN DRUG STORE #7593","address1": "3681 BOILING SPRINGS RD","address2": "","city": "BOILING SPRINGS","state": "SC","zip": "29316","zip+4": "0000","phone": "8645782345"}
{"name": "WALGREEN DRUG STORE #7279","address1": "101 W WADE HAMPTON BLVD","address2": "","city": "GREER","state": "SC","zip": "29650","zip+4": "0000","phone": "8649681919"}
{"name": "WALGREEN DRUG STORE #7399","address1": "423 W MAIN ST","address2": "","city": "LEXINGTON","state": "SC","zip": "29072","zip+4": "2637","phone": "8039573689"}
{"name": "WALGREEN DRUG STORE #7626","address1": "2498 SECOND LOOP RD","address2": "","city": "FLORENCE","state": "SC","zip": "29501","zip+4": "0000","phone": "8433171158"}
{"name": "OMNICARE OF BISHOP GADSDEN","address1": "1 BISHOP GADSDEN WAY","address2": "","city": "CHARLESTOWN","state": "SC","zip": "29412","zip+4": "0000","phone": "8434060902"}
{"name": "MORGANS PHARMACY","address1": "4079 AUGUSTA HWY","address2": "SUITE A","city": "GILBERT","state": "SC","zip": "29054","zip+4": "0000","phone": "8038925426"}
{"name": "PUBLIX PHARMACY #0883","address1": "2732 NORTH LAKE DRIVE","address2": "","city": "COLUMBIA","state": "SC","zip": "29212","zip+4": "0000","phone": "8034072632"}
{"name": "TARGET PHARMACY #1829","address1": "7250 RIVERS AVE","address2": "","city": "NORTH CHARLESTON","state": "SC","zip": "29406","zip+4": "0000","phone": "8435728918"}
{"name": "WALGREEN DRUG STORE #7446","address1": "1014 MONTAGUE AVE","address2": "","city": "GREENWOOD","state": "SC","zip": "29646","zip+4": "0000","phone": "8642236503"}
{"name": "WALGREEN DRUG STORE #7572","address1": "2323 E NORTH ST","address2": "","city": "GREENVILLE","state": "SC","zip": "29607","zip+4": "0000","phone": "8642335602"}
{"name": "BI LO PHARMACY #624","address1": "699 FAIRVIEW ROAD","address2": "","city": "SIMPSONVILLE","state": "SC","zip": "29680","zip+4": "0000","phone": "8649672660"}
{"name": "CVS PHARMACY #05845","address1": "640 LONG POINT RD","address2": "","city": "MT PLEASANT","state": "SC","zip": "29464","zip+4": "0000","phone": "8438815644"}
{"name": "IRMO FAMILY PHARMACY LLC","address1": "7001 ST ANDREWS RD","address2": "STE A 16","city": "COLUMBIA","state": "SC","zip": "29212","zip+4": "0000","phone": "8037499988"}
{"name": "PUBLIX PHARMACY #0017","address1": "7320 BROAD RIVER ROAD","address2": "","city": "IRMO","state": "SC","zip": "29063","zip+4": "0000","phone": "8034070436"}
{"name": "RITE AID PHARMACY #11659","address1": "202 SCUFFLETOWN ROAD","address2": "","city": "SIMPSONVILLE","state": "SC","zip": "29681","zip+4": "0000","phone": "8644588455"}
{"name": "RITE AID PHARMACY #11572","address1": "7338 BROAD RIVER ROAD","address2": "","city": "IRMO","state": "SC","zip": "29063","zip+4": "0000","phone": "8037498110"}
{"name": "MEDCARE PHARMACY","address1": "1114 COTTINGHAM BLVD","address2": "","city": "BENNETSVILLE","state": "SC","zip": "29512","zip+4": "0000","phone": "8434797101"}
{"name": "LANCASTER PHARMACY AND WELLNES","address1": "1755 AIRPORT RD","address2": "STE 100","city": "LANCASTER","state": "SC","zip": "29720","zip+4": "0000","phone": "8032866262"}
{"name": "APEXCARE PHARMACY SOLUTIONS","address1": "1514 E MAIN ST","address2": "","city": "ROCK HILL","state": "SC","zip": "29730","zip+4": "0000","phone": "8039800910"}
{"name": "WAL-MART PHARMACY #105087","address1": "550 HIGHWAY 17 NORTH","address2": "","city": "NORTH MYRTLE BEACH","state": "SC","zip": "29582","zip+4": "0000","phone": "8432818176"}
{"name": "MEDICAP PHARMACY #8334","address1": "1007 CREEKSIDE MEDICAL DRIVE","address2": "","city": "YORK","state": "SC","zip": "29745","zip+4": "0000","phone": "8036849096"}
{"name": "FREDS PHARMACY #1114","address1": "311 EAST MAIN STREET","address2": "","city": "ANDREWS","state": "SC","zip": "29510","zip+4": "0000","phone": "8432646656"}
{"name": "LONGS DRUGS GARNERS FERRY","address1": "9019 GARNERS FERRY RD","address2": "","city": "HOPKINS","state": "SC","zip": "29061","zip+4": "0000","phone": "8032276890"}
{"name": "TARGET PHARMACY #1870","address1": "694 FAIRVIEW ROAD","address2": "","city": "SIMPSONVILLE","state": "SC","zip": "29680","zip+4": "0000","phone": "8649634406"}
{"name": "PIGGLY WIGGLYáPHARMACY # #41","address1": "9616 HWY 78","address2": "","city": "LADSON","state": "SC","zip": "29456","zip+4": "0000","phone": "8437978510"}
{"name": "COSTCO PHARMACY #338","address1": "1021 OAK FOREST LANE","address2": "","city": "MYRTLE BEACH","state": "SC","zip": "29577","zip+4": "0000","phone": "8438396606"}
{"name": "PUBLIX PHARMACY #1081","address1": "1125 PARK WEST BLVD","address2": "","city": "MOUNT PLEASANT","state": "SC","zip": "29466","zip+4": "0000","phone": "8433882908"}
{"name": "WALGREEN DRUG STORE #7702","address1": "9998 DORCHESTER RD","address2": "","city": "SUMMERVILLE","state": "SC","zip": "29485","zip+4": "0000","phone": "8438512044"}
{"name": "PHARMACY EXPRESS DRUG STORE IN","address1": "209C S GRIFFIN ST","address2": "","city": "FLORENCE","state": "SC","zip": "29506","zip+4": "0000","phone": "8436659199"}
{"name": "UNION FAMILY PHARMACY LLC","address1": "528 A RICE AVE","address2": "","city": "UNION","state": "SC","zip": "29379","zip+4": "0000","phone": "8644273700"}
{"name": "RITE AID PHARMACY #11630","address1": "7800 NORTH KINGS HIGHWAY","address2": "","city": "MYRTLE BEACH","state": "SC","zip": "29572","zip+4": "0000","phone": "8434979579"}
{"name": "AGAPE PHARMACY","address1": "615 KNOX ABBOTT DR","address2": "","city": "COYCE","state": "SC","zip": "29033","zip+4": "0000","phone": "8037394278"}
{"name": "PIGGLY WIGGLYáPHARMACY # #42","address1": "1981 RIVIERA DR","address2": "","city": "CHARLESTON","state": "SC","zip": "29464","zip+4": "0000","phone": "8438491515"}
{"name": "INGLES PHARMACY #94","address1": "211 INGLES PLACE","address2": "","city": "SENECA","state": "SC","zip": "29678","zip+4": "0000","phone": "8648860615"}
{"name": "WALGREEN DRUG STORE #2681","address1": "6057 WHITE HORSE RD","address2": "","city": "GREENVILLE","state": "SC","zip": "29611","zip+4": "0000","phone": "8642950118"}
{"name": "PIGGLY WIGGLYáPHARMACY # #79","address1": "3353 HWY 72 221 EAST","address2": "","city": "GREENWOOD","state": "SC","zip": "29649","zip+4": "0000","phone": "8642295771"}
{"name": "CVS PHARMACY #07061","address1": "5895 REIDVILLE RD","address2": "","city": "MOORE","state": "SC","zip": "29369","zip+4": "0000","phone": "8644866990"}
{"name": "WAL-MART PHARMACY #103222","address1": "1286 EIGHTEEN MILE ROAD","address2": "","city": "CENTRAL","state": "SC","zip": "29630","zip+4": "0000","phone": "8646395665"}
{"name": "WALGREEN DRUG STORE #6073","address1": "54 OLD TROLLEY RD","address2": "","city": "SUMMERVILLE","state": "SC","zip": "29485","zip+4": "0000","phone": "8438711637"}
{"name": "PALMETTO PHARMACY ENTERPRISES","address1": "810 E ELM ST","address2": "","city": "HAMPTON","state": "SC","zip": "29924","zip+4": "0000","phone": "8039439327"}
{"name": "WALGREEN DRUG STORE #1073","address1": "1010 OLD BARNWELL RD","address2": "","city": "WEST COLUMBIA","state": "SC","zip": "29170","zip+4": "0000","phone": "8033580601"}
{"name": "WALGREEN DRUG STORE #2452","address1": "2811 N MAIN ST","address2": "","city": "ANDERSON","state": "SC","zip": "29621","zip+4": "0000","phone": "8642250196"}
{"name": "WALGREEN DRUG STORE #7506","address1": "1290 CHESTNUT ST","address2": "","city": "ORANGEBURG","state": "SC","zip": "29115","zip+4": "0000","phone": "8035310426"}
{"name": "CHUCKS PHARMACY","address1": "904 HOLLY ST","address2": "","city": "HOLLY HILL","state": "SC","zip": "29059","zip+4": "0370","phone": "8034960007"}
{"name": "WALGREEN DRUG STORE #7822","address1": "1790 EAST MAIN ST","address2": "","city": "SPARTANBURG","state": "SC","zip": "29307","zip+4": "0000","phone": "8645831597"}
{"name": "BI LO PHARMACY #101","address1": "1440 BEN SAWYER BLVD","address2": "","city": "MT PLEASANT","state": "SC","zip": "29464","zip+4": "0000","phone": "8433882504"}
{"name": "HARRIS TEETER PHARMACY #82","address1": "1750 HWY 160 W","address2": "","city": "FORT MILL","state": "SC","zip": "29708","zip+4": "0000","phone": "8033960450"}
{"name": "WALGREEN DRUG STORE #1072","address1": "1120 N MAIN ST","address2": "","city": "SUMMERVILLE","state": "SC","zip": "29483","zip+4": "0000","phone": "8438214873"}
{"name": "TARGET PHARMACY #1923","address1": "6090A GARNERS FERRY RD","address2": "","city": "COLUMBIA","state": "SC","zip": "29209","zip+4": "0000","phone": "8037833752"}
{"name": "TARGET PHARMACY #1937","address1": "6025 WADE HAMPTON BLVD","address2": "","city": "TAYLORS","state": "SC","zip": "29687","zip+4": "0000","phone": "8648799721"}
{"name": "SOUTH CAROLINA CANCER SPECIALI","address1": "45 HOSPITAL CENTER COMMONS","address2": "","city": "HILTON HEAD ISLAND","state": "SC","zip": "29926","zip+4": "0000","phone": "8436892895"}
{"name": "RITE AID PHARMACY #11617","address1": "600 ST JAMES AVENUE","address2": "","city": "GOOSE CREEK","state": "SC","zip": "29445","zip+4": "0000","phone": "8435693114"}
{"name": "DANIEL ISLAND PHARMACY","address1": "162 SEVEN FARMS DR","address2": "STE 330","city": "DANIEL ISLAND","state": "SC","zip": "29492","zip+4": "0000","phone": "8439713992"}
{"name": "PUBLIX PHARMACY #1012","address1": "111 WEST BUTLER ROAD","address2": "","city": "MAULDIN","state": "SC","zip": "29662","zip+4": "0000","phone": "8649871607"}
{"name": "RITE AID PHARMACY #11652","address1": "905 SOUTH BATESVILLE ROAD","address2": "","city": "GREER","state": "SC","zip": "29650","zip+4": "0000","phone": "8648770522"}
{"name": "PALMETTO LONG TERM CARE PHARMA","address1": "252 ST ANDREWS RD","address2": "","city": "COLUMBIA","state": "SC","zip": "29210","zip+4": "0000","phone": "8037812742"}
{"name": "SC ONCOLOGY PHARMACY","address1": "166 STONERIDGE DR","address2": "","city": "COLUMBIA","state": "SC","zip": "29210","zip+4": "0000","phone": "8034613709"}
{"name": "BLYTHEWOOD PHARMACY AND HOME M","address1": "420B MCNULTY RD","address2": "","city": "BLYTHEWOOD","state": "SC","zip": "29016","zip+4": "0533","phone": "8037868110"}
{"name": "WALGREEN DRUG STORE #9230","address1": "618 FAIRVIEW","address2": "","city": "SIMPSONVILLE","state": "SC","zip": "29680","zip+4": "0000","phone": "8649621838"}
{"name": "GASTON FAMILY PHARMACY","address1": "1118 MACK ST","address2": "","city": "GASTON","state": "SC","zip": "29053","zip+4": "0000","phone": "8039398489"}
{"name": "PLANTATION PHARMACY","address1": "776 DANIEL ELLIS DR","address2": "","city": "CHARLESTON","state": "SC","zip": "29412","zip+4": "0000","phone": "8437959554"}
{"name": "TEGA CAY FAMILY PHARMACY","address1": "729 CROSSROADS PLAZA","address2": "","city": "FORT MILL","state": "SC","zip": "29708","zip+4": "0000","phone": "8035476100"}
{"name": "RITE AID PHARMACY #11588","address1": "7900 GARNERS FERRY ROAD","address2": "","city": "COLUMBIA","state": "SC","zip": "29209","zip+4": "0000","phone": "8036951116"}
{"name": "BI LO PHARMACY #638","address1": "120 FORUM DRIVE","address2": "","city": "COLUMBIA","state": "SC","zip": "29223","zip+4": "0000","phone": "8036998332"}
{"name": "WALGREEN DRUG STORE #9284","address1": "1326 N JEFFERIES BLVD","address2": "","city": "WALTERBORO","state": "SC","zip": "29488","zip+4": "0000","phone": "8435493475"}
{"name": "FREDS PHARMACY OF TENNESSEE IN","address1": "106 JIMMY MARTIN CIR","address2": "","city": "GASTON","state": "SC","zip": "29053","zip+4": "0000","phone": "8037945233"}
{"name": "CAROLINA COMMUNITY PHARMACY #1","address1": "113 LINER DR","address2": "","city": "GREENWOOD","state": "SC","zip": "29646","zip+4": "0000","phone": "8643308227"}
{"name": "CARE PHARMACY OF SURFSIDE LLC","address1": "320 HWY 17 N","address2": "","city": "SURFSIDE BEACH","state": "SC","zip": "29575","zip+4": "0000","phone": "8432389292"}
{"name": "WALGREEN DRUG STORE #9232","address1": "2407 BROAD ST","address2": "","city": "CAMDEN","state": "SC","zip": "29020","zip+4": "2342","phone": "8034240988"}
{"name": "SAMS PHARMACY #108142","address1": "200 PEACHWOOD CENTRE DR","address2": "","city": "SPARTANBURG","state": "SC","zip": "29301","zip+4": "0000","phone": "8645952661"}
{"name": "PIGGLY WIGGLYáPHARMACY # #17","address1": "1985 FOLLY RD","address2": "","city": "CHARLESTON","state": "SC","zip": "29412","zip+4": "0000","phone": "8437626591"}
{"name": "WAL-MART PHARMACY #103367","address1": "4920 CENTRE POINTE DRIVE","address2": "","city": "NORTH CHARLESTON","state": "SC","zip": "29418","zip+4": "0000","phone": "8437405484"}
{"name": "TARGET PHARMACY #0963","address1": "1150 SEABOARD ST","address2": "","city": "MYRTLE BEACH","state": "SC","zip": "29577","zip+4": "0000","phone": "8436265034"}
{"name": "WALGREEN DRUG STORE #7652","address1": "868 FORDING ISLAND RD","address2": "","city": "BLUFFTON","state": "SC","zip": "29910","zip+4": "8663","phone": "8438159960"}
{"name": "KROGER PHARMACY #11675","address1": "1795 WHISKEY ROAD","address2": "","city": "AIKEN","state": "SC","zip": "29803","zip+4": "0000","phone": "8036425371"}
{"name": "VINCENTS DRUG STORE","address1": "110 PLANTED ROW LANE","address2": "","city": "JOHNS ISLAND","state": "SC","zip": "29455","zip+4": "0000","phone": "8432430007"}
{"name": "RX CARE PLUS ROEBUCK","address1": "4795 S CHURCH ST","address2": "","city": "ROEBUCK","state": "SC","zip": "29376","zip+4": "0000","phone": "8645951220"}
{"name": "RX CARE PLUS DUNCAN","address1": "2099 E MAIN ST","address2": "SUITE G","city": "DUNCAN","state": "SC","zip": "29334","zip+4": "0000","phone": "8644868252"}
{"name": "WALGREEN DRUG STORE #9273","address1": "2539 W WHITNER ST","address2": "","city": "ANDERSON","state": "SC","zip": "29624","zip+4": "0000","phone": "8642261955"}
{"name": "WALGREEN DRUG STORE #9082","address1": "104 W BUTLER","address2": "","city": "MAULDIN","state": "SC","zip": "29662","zip+4": "0000","phone": "8642970385"}
{"name": "CVS PHARMACY #07159","address1": "2884 HWY 17 N","address2": "","city": "MT. PLEASANT","state": "SC","zip": "29466","zip+4": "0000","phone": "8432167021"}
{"name": "WALGREEN DRUG STORE #9276","address1": "1990 MCCRAYS MILL RD","address2": "","city": "SUMTER","state": "SC","zip": "29150","zip+4": "0000","phone": "8034185212"}
{"name": "ASSOC MED SPECIALISTS PA DBA C","address1": "8121 ROURK ST","address2": "","city": "MYRTLE BEACH","state": "SC","zip": "29572","zip+4": "0000","phone": "8436925000"}
{"name": "PARK PLACE PHCY","address1": "12019 N RADIO STATION RD","address2": "STE G","city": "SENECA","state": "SC","zip": "29678","zip+4": "0000","phone": "8649851299"}
{"name": "ORANGE NURSING HOME SERVICES","address1": "145 SMOAK ALLEY","address2": "","city": "ORANGEBURG","state": "SC","zip": "29115","zip+4": "0000","phone": "8035345931"}
{"name": "WALGREEN DRUG STORE #1252","address1": "2018 AUGUSTA ST","address2": "","city": "GREENVILLE","state": "SC","zip": "29605","zip+4": "0000","phone": "8642320434"}
{"name": "WALGREEN DRUG STORE #9487","address1": "1223 SAINT ANDREWS RD","address2": "","city": "COLUMBIA","state": "SC","zip": "29210","zip+4": "0000","phone": "8037312369"}
{"name": "PIGGLY WIGGLYáPHARMACY # #54","address1": "4430 HIGHWAY 17 BYPASS","address2": "","city": "MURRELLS INLET","state": "SC","zip": "29576","zip+4": "0000","phone": "8436515164"}
{"name": "WALGREEN DRUG STORE #9542","address1": "1 S ALLIANCE DR","address2": "","city": "GOOSE CREEK","state": "SC","zip": "29456","zip+4": "0000","phone": "8438249361"}
{"name": "HARRIS TEETER PHARMACY #28","address1": "675 FOLLY RD","address2": "","city": "CHARLESTON","state": "SC","zip": "29412","zip+4": "0000","phone": "8434067085"}
{"name": "BI LO PHARMACY #723","address1": "300 KNOX ABBOTT DRIVE","address2": "","city": "CAYCE","state": "SC","zip": "29033","zip+4": "0000","phone": "8039264974"}
{"name": "BI LO PHARMACY #722","address1": "1419 CHAPIN ROAD","address2": "","city": "CHAPIN","state": "SC","zip": "29036","zip+4": "0000","phone": "8033450679"}
{"name": "BI LO PHARMACY #720","address1": "1329 WEST HWY160","address2": "","city": "FORT MILL","state": "SC","zip": "29715","zip+4": "0000","phone": "8035486877"}
{"name": "BI LO PHARMACY #719","address1": "1131 NORTH HWY 321","address2": "","city": "YORK","state": "SC","zip": "29745","zip+4": "0000","phone": "8036286372"}
{"name": "BI LO PHARMACY #718","address1": "158 HWY 274","address2": "","city": "LAKE WYLIE","state": "SC","zip": "29710","zip+4": "0000","phone": "8038312605"}
{"name": "BI LO PHARMACY #716","address1": "1401 E MAIN ST","address2": "","city": "ROCK HILL","state": "SC","zip": "29730","zip+4": "0000","phone": "8039803600"}
{"name": "BI LO PHARMACY #712","address1": "1703 ELM ST WEST","address2": "","city": "HAMPTON","state": "SC","zip": "29924","zip+4": "0000","phone": "8039430683"}
{"name": "OAKTREE MEDICAL CENTRE","address1": "3505 PELHAM RD","address2": "STE A","city": "GREENVILLE","state": "SC","zip": "29615","zip+4": "0000","phone": "8642888878"}
{"name": "INGLES PHARMACY #200","address1": "4600 HWY 9","address2": "","city": "INMAN","state": "SC","zip": "29349","zip+4": "0000","phone": "8648143643"}
{"name": "CAROLINA BLOOD AND CANCER CARE","address1": "1583 HEALTH CARE DR","address2": "","city": "ROCK HILL","state": "SC","zip": "29732","zip+4": "0000","phone": "8033297772"}
{"name": "CVS PHARMACY # #01540","address1": "3411 SOCASTEE BLVD","address2": "","city": "MYRTLE BEACH","state": "SC","zip": "29588","zip+4": "0000","phone": "8432941285"}
{"name": "CHARLESTON HEMATOLOGY ONCOLOGY","address1": "125 DOUGHTY ST","address2": "STE 500","city": "CHARLESTON","state": "SC","zip": "29403","zip+4": "0000","phone": "8435772276"}
{"name": "RX CARE PLUS PHARMACY REIDVILL","address1": "8147 WARREN H ABERNATHY HWY","address2": "","city": "SPARTANBURG","state": "SC","zip": "29301","zip+4": "0000","phone": "8645871001"}
{"name": "SEASHORE DRUGS","address1": "1304 HWY 17 N","address2": "","city": "LITTLE RIVER","state": "SC","zip": "29566","zip+4": "0000","phone": "8432819797"}
{"name": "RX CARE PLUS BOILING SPRINGS","address1": "2510 BOILING SPRINGS RD","address2": "UNIT A","city": "BOILING SPRINGS","state": "SC","zip": "29316","zip+4": "0000","phone": "8645780155"}
{"name": "RUPERT J MCCORMAC IV MD","address1": "WOODLANDS TREATMENT CENTER","address2": "155 BROZZINI COURT STE E","city": "GREENVILLE","state": "SC","zip": "29615","zip+4": "0000","phone": "8642887636"}
{"name": "CAROLINA FAMILY PHARMACY","address1": "315 LONG POINTE LANE 100","address2": "","city": "COLUMBIA","state": "SC","zip": "29229","zip+4": "0000","phone": "8034620588"}
{"name": "ST GEORGE MED CNTR PHCY","address1": "401 RIDGE ST","address2": "","city": "ST GEORGE","state": "SC","zip": "29477","zip+4": "0000","phone": "8436369130"}
{"name": "INGLES PHARMACY #53","address1": "864 HWY 93","address2": "","city": "CLEMSON","state": "SC","zip": "29631","zip+4": "0000","phone": "8646543094"}
{"name": "WAL-MART PHARMACY #105487","address1": "9 BENTON ROAD","address2": "","city": "TRAVELERS REST","state": "SC","zip": "29690","zip+4": "0000","phone": "8648349224"}
{"name": "MED CENTER LTC PHARMACY","address1": "209 RUSSELL ST","address2": "SUITE C","city": "DARLINGTON","state": "SC","zip": "29532","zip+4": "0000","phone": "8433987015"}
{"name": "S STRAND INTERNISTS","address1": "1945 GLENNS BAY RD","address2": "","city": "SURFSIDE BEACH","state": "SC","zip": "29575","zip+4": "0000","phone": "8436504006"}
{"name": "WALGREEN DRUG STORE #9597","address1": "1801 POINSETT HWY","address2": "","city": "GREENVILLE","state": "SC","zip": "29609","zip+4": "0000","phone": "8642405390"}
{"name": "DIABETIC SUPPLY SOURCE","address1": "2805 MILLWOOD AVE","address2": "","city": "COLUMBIA","state": "SC","zip": "29205","zip+4": "0000","phone": "8032561085"}
{"name": "WALGREEN DRUG STORE #7956","address1": "11 N CAUSEWAY RD","address2": "","city": "PAWLEYS ISLAND","state": "SC","zip": "29585","zip+4": "0000","phone": "8439791075"}
{"name": "CAROLINAS UPSTATE PHARMACY N G","address1": "1330 BOILING SPRINGS RD STE 18","address2": "","city": "SPARTANBURG","state": "SC","zip": "29303","zip+4": "0000","phone": "8642781414"}
{"name": "WALGREEN DRUG STORE #9637","address1": "106 HWY 28 BYP","address2": "","city": "ANDERSON","state": "SC","zip": "29624","zip+4": "0000","phone": "8642963127"}
{"name": "WALGREEN DRUG STORE #09805","address1": "7412 BROAD RIVER RD","address2": "","city": "IRMO","state": "SC","zip": "29063","zip+4": "9662","phone": "8037493046"}
{"name": "NEW HORIZON PHARMACY #3","address1": "111 A BERRY AVE","address2": "","city": "GREER","state": "SC","zip": "29651","zip+4": "0000","phone": "8648012035"}
{"name": "WALGREEN DRUG STORE #09737","address1": "1005 S GOVERNOR WILLIAMS HWY","address2": "","city": "DARLINGTON","state": "SC","zip": "29532","zip+4": "5657","phone": "8433932679"}
{"name": "WALGREEN DRUG STORE #9834","address1": "1098 FRASER ST","address2": "","city": "GEORGETOWN","state": "SC","zip": "29440","zip+4": "2848","phone": "8435451732"}
{"name": "CHARLESTON CANCER CENTER","address1": "2910 TRICOM ST","address2": "","city": "CHARLESTON","state": "SC","zip": "29406","zip+4": "0000","phone": "8435729211"}
{"name": "CVS PHARMACY #01571","address1": "1749 WEST HWY 160","address2": "","city": "FORT MILL","state": "SC","zip": "29708","zip+4": "0000","phone": "8038024424"}
{"name": "CHARLESTON HEMATOLOGY AND ONCO","address1": "125 DOUGHTY ST","address2": "STE 280","city": "CHARLESTON","state": "SC","zip": "29403","zip+4": "0000","phone": "8435776957"}
{"name": "WALGREEN DRUG STORE #10163","address1": "1601 SANDIFIER BLVD","address2": "","city": "SENECA","state": "SC","zip": "29678","zip+4": "0905","phone": "8648850889"}
{"name": "CVS PHARMACY #01194","address1": "4767 BROAD ST","address2": "","city": "LORIS","state": "SC","zip": "29569","zip+4": "0000","phone": "8437161220"}
{"name": "INGLES PHARMACY #204","address1": "8004 GREENVILLE HWY","address2": "","city": "SPARTANBURG","state": "SC","zip": "29301","zip+4": "0000","phone": "8645743130"}
{"name": "INGLES PHARMACY #44","address1": "901 E MAIN ST","address2": "","city": "LAURENS","state": "SC","zip": "29360","zip+4": "0000","phone": "8649841492"}
{"name": "WALGREEN DRUG STORE #09879","address1": "1106 JOHN C CALHOUN DR","address2": "","city": "ORANGEBURG","state": "SC","zip": "29115","zip+4": "6656","phone": "8035312079"}
{"name": "WALGREEN DRUG STORE #10257","address1": "395 N HWY 52","address2": "","city": "MONCKS CORNER","state": "SC","zip": "29461","zip+4": "3919","phone": "8438996601"}
{"name": "HARRIS TEETER PHARMACY #149","address1": "2750 CELANESE RD","address2": "","city": "ROCK HILL","state": "SC","zip": "29730","zip+4": "0000","phone": "8033296262"}
{"name": "WALGREEN DRUG STORE #09996","address1": "837 W FLOYD BAKER BLVD","address2": "","city": "GAFFNEY","state": "SC","zip": "29341","zip+4": "1805","phone": "8649020374"}
{"name": "WALGREEN DRUG STORE #10227","address1": "175 FORUM DR","address2": "","city": "COLUMBIA","state": "SC","zip": "29229","zip+4": "7938","phone": "8036997067"}
{"name": "WALGREEN DRUG STORE #09774","address1": "1 THE PARKWAY","address2": "","city": "GREENVILLE","state": "SC","zip": "29615","zip+4": "5026","phone": "8642889334"}
{"name": "WACCAMAW ONCOLOGY PA","address1": "4033 HWY 17 BYPASS","address2": "STE 110","city": "MURRELLS INLET","state": "SC","zip": "29576","zip+4": "0000","phone": "8436523600"}
{"name": "WALGREEN DRUG STORE #10448","address1": "1101 HIGHWAY 9 BYP W","address2": "","city": "LANCASTER","state": "SC","zip": "29720","zip+4": "1710","phone": "8032891223"}
{"name": "PALMETTO STATE PHARMACEUTICALS","address1": "2000 SAM RITTENBERG BLVD","address2": "SUITE 116","city": "CHARLESTON","state": "SC","zip": "29407","zip+4": "0000","phone": "8437697633"}
{"name": "PUBLIX PHARMACY #1120","address1": "1585 CENTRAL AVE","address2": "SUITE A","city": "SUMMERVILLE","state": "SC","zip": "29483","zip+4": "0000","phone": "8438324247"}
{"name": "RITE AID PHARMACY #11917","address1": "2901 NORTH KINGS HIGHWAY","address2": "","city": "MYRTLE BEACH","state": "SC","zip": "29577","zip+4": "0000","phone": "8434442479"}
{"name": "PALMETTO RX SOLUTIONS INC","address1": "8 HARBISON WY","address2": "","city": "COLUMBIA","state": "SC","zip": "29212","zip+4": "0000","phone": "8034542290"}
{"name": "HEALTH FIRST RAPID CARE","address1": "8740 RIVERS AVE","address2": "","city": "NORTH CHARLESTON","state": "SC","zip": "29406","zip+4": "0000","phone": "8435725990"}
{"name": "PUBLIX PHARMACY #1055","address1": "1435 BEN SAWYER BLVD","address2": "","city": "MT PLEASANT","state": "SC","zip": "29464","zip+4": "0000","phone": "8438563187"}
{"name": "FREDS PHARMACY #1606","address1": "1521 JEFFERSON DAVIS HWY","address2": "","city": "CAMDEN","state": "SC","zip": "29020","zip+4": "0000","phone": "8034258240"}
{"name": "CVS PHARMACY #00830","address1": "900 ASSEMBLY ST","address2": "","city": "COLUMBIA","state": "SC","zip": "29201","zip+4": "0000","phone": "8032127016"}
{"name": "WALGREEN DRUG STORE #10390","address1": "1232 W WADE HAMPTON BLVD","address2": "","city": "GREER","state": "SC","zip": "29650","zip+4": "1243","phone": "8648012337"}
{"name": "WALGREEN DRUG STORE #10447","address1": "1210 HWY 301 N","address2": "","city": "DILLON","state": "SC","zip": "29536","zip+4": "2445","phone": "8437742707"}
{"name": "CHILDRENS CARE PHARMACY","address1": "1530 MCCLURE CT","address2": "","city": "FLORENCE","state": "SC","zip": "29505","zip+4": "0000","phone": "8436791881"}
{"name": "WALGREEN DRUG STORE #10162","address1": "1716 PLEASANT RD","address2": "","city": "FT MILLS","state": "SC","zip": "29708","zip+4": "7815","phone": "8038027644"}
{"name": "PAGELAND FAMILY PHARMACY","address1": "214 SOUTH VAN LINGLE MUNGO BLV","address2": "","city": "PAGELAND","state": "SC","zip": "29728","zip+4": "0000","phone": "8436752323"}
{"name": "FOOD LION #2666","address1": "135 MARKET PLAZA DR","address2": "","city": "NO AUGUSTA","state": "SC","zip": "29860","zip+4": "0000","phone": "8032782476"}
{"name": "CVS PHARMACY #03113","address1": "1602 CENTRAL AVE","address2": "","city": "SUMMERVILLE","state": "SC","zip": "29483","zip+4": "0000","phone": "8438710801"}
{"name": "GREENWOOD FAMILY PRACTICE INC","address1": "1226 SPRING ST","address2": "","city": "GREENWOOD","state": "SC","zip": "29649","zip+4": "0000","phone": "8642236621"}
{"name": "WALGREEN DRUG STORE #10595","address1": "1146 CHERAW ST","address2": "","city": "BENNETTSVILLE","state": "SC","zip": "29512","zip+4": "4801","phone": "8434541818"}
{"name": "WALGREEN DRUG STORE #10226","address1": "1251 DUTCH FORK RD","address2": "","city": "IRMO","state": "SC","zip": "29063","zip+4": "0000","phone": "8037497099"}
{"name": "WALGREEN DRUG STORE #10229","address1": "1376 S MAIN ST","address2": "","city": "GREENWOOD","state": "SC","zip": "29646","zip+4": "3932","phone": "8649532251"}
{"name": "WAL-MART PHARMACY #104379","address1": "1326 BUSH RIVER ROAD","address2": "","city": "COLUMBIA","state": "SC","zip": "29210","zip+4": "0000","phone": "8037503284"}
{"name": "WAL-MART PHARMACY #104420","address1": "115 EAST CHURCH STREET","address2": "","city": "BATESBURG","state": "SC","zip": "29070","zip+4": "0000","phone": "8035325226"}
{"name": "PUBLIX PHARMACY","address1": "400 E MCBEE AVE","address2": "STE 100","city": "GREENVILLE","state": "SC","zip": "29601","zip+4": "0000","phone": "8642402020"}
{"name": "WALGREENS DRUG STORE #10389","address1": "902 PELHAM RD","address2": "","city": "GREENVILLE","state": "SC","zip": "29615","zip+4": "3639","phone": "8642346462"}
{"name": "WALGREENS DRUG STORE #10581","address1": "1228 KNOX AVE","address2": "","city": "NORTH AUGUSTA","state": "SC","zip": "29841","zip+4": "4055","phone": "8032793279"}
{"name": "WALGREENS DRUG STORE #10230","address1": "1537 CHARLESTON HWY","address2": "","city": "WEST COLUMBIA","state": "SC","zip": "29169","zip+4": "5047","phone": "8037963392"}
{"name": "TARGET PHARMACY #2277","address1": "5119 SUNSET BLVD","address2": "","city": "LEXINGTON","state": "SC","zip": "29072","zip+4": "0000","phone": "8035202859"}
{"name": "BI LO PHARMACY #704","address1": "101 VERDAE BLVD","address2": "","city": "GREENVILLE","state": "SC","zip": "29607","zip+4": "0000","phone": "8646274490"}
{"name": "BI LO PHARMACY #661","address1": "120 HWY 14","address2": "","city": "SIMPSONVILLE","state": "SC","zip": "29681","zip+4": "6050","phone": "8649674968"}
{"name": "CVS PHARMACY #01140","address1": "1101 FETLOCK DRIVE","address2": "","city": "MYRTLE BEACH","state": "SC","zip": "29588","zip+4": "0000","phone": "8432366300"}
{"name": "PUBLIX PHARMACY #1145","address1": "3642 SAVANNAH HWY","address2": "","city": "JOHNS ISLAND","state": "SC","zip": "29455","zip+4": "0000","phone": "8435738780"}
{"name": "CVS PHARMACY #01039","address1": "59 GEORGE ST","address2": "","city": "CHARLESTON","state": "SC","zip": "29401","zip+4": "0000","phone": "8437208523"}
{"name": "COSTCO PHARMACY #1005","address1": "1021 WOODRUFF RD","address2": "","city": "GREENVILLE","state": "SC","zip": "29607","zip+4": "0000","phone": "8642972569"}
{"name": "COSTCO PHARMACY #1008","address1": "211 W BLACKSTOCK RD","address2": "","city": "SPARTANBURG","state": "SC","zip": "29301","zip+4": "0000","phone": "8645154949"}
{"name": "HEALTH PHARMACY INC","address1": "1716 PEARMAN DAIRY RD","address2": "","city": "ANDERSON","state": "SC","zip": "29625","zip+4": "0000","phone": "8642253083"}
{"name": "WALGREENS DRUG STORE #06898","address1": "3701 N KINGS HWY","address2": "","city": "MYRTLE BEACH","state": "SC","zip": "29577","zip+4": "2977","phone": "8434489104"}
{"name": "HARRIS TEETER PHARMACY #87","address1": "620 LONG POINTE RD","address2": "STE H","city": "MT PLEASANT","state": "SC","zip": "29464","zip+4": "0000","phone": "8438564902"}
{"name": "WALGREENS DRUG STORE #09761","address1": "502 GAPWAY ST","address2": "","city": "MULLINS","state": "SC","zip": "29574","zip+4": "3419","phone": "8434640118"}
{"name": "COMMUNITY MEDICINE","address1": "1131 SALUDA ST","address2": "","city": "ROCK HILL","state": "SC","zip": "29730","zip+4": "0000","phone": "8034123352"}
{"name": "BI LO PHARMACY #709","address1": "4405 HWY 24","address2": "","city": "ANDERSON","state": "SC","zip": "29626","zip+4": "5216","phone": "8642267776"}
{"name": "WAL-MART PHARMACY #104384","address1": "3000 PROPRIETORS PLACE","address2": "","city": "MT PLEASANT","state": "SC","zip": "29466","zip+4": "0000","phone": "8438842824"}
{"name": "WAL-MART PHARMACY #104521","address1": "1780 SOUTH LAKE DRIVE","address2": "","city": "LEXINGTON","state": "SC","zip": "29073","zip+4": "0000","phone": "8039571321"}
{"name": "INGLES PHARMACY #39","address1": "4396 HWY 24","address2": "","city": "ANDERSON","state": "SC","zip": "29696","zip+4": "0000","phone": "8642262398"}
{"name": "CAROLINA HEALTH CARE RETAIL PH","address1": "506 E CHEVES STREET","address2": "","city": "FLORENCE","state": "SC","zip": "29506","zip+4": "0000","phone": "8434134130"}
{"name": "WALGREENS DRUG STORE #10814","address1": "601 HIGHWAY 17 N","address2": "","city": "NORTH MYRTLE BEACH","state": "SC","zip": "29582","zip+4": "2905","phone": "8436631459"}
{"name": "CHOICECARE PHARMACY","address1": "1910 BLANDING ST","address2": "","city": "COLUMBIA","state": "SC","zip": "29201","zip+4": "0000","phone": "8039313200"}
{"name": "TOWN AND COUNTRY PHARMACY LLC","address1": "606 N MAIN STREET","address2": "","city": "NEW ELLETON","state": "SC","zip": "29809","zip+4": "0000","phone": "8036523006"}
{"name": "SUMTER FAMILY HEALTH CENTER PH","address1": "1278 N LAFAYETTE DRIVE","address2": "","city": "SUMTER","state": "SC","zip": "29150","zip+4": "0000","phone": "8037744547"}
{"name": "WAL-MART PHARMACY #104487","address1": "3581 RICHLAND AVE SW","address2": "","city": "AIKEN","state": "SC","zip": "29803","zip+4": "0000","phone": "8036486464"}
{"name": "WALGREENS DRUG STORE #09738","address1": "1584 CENTRAL AVE","address2": "","city": "SUMMERVILLE","state": "SC","zip": "29483","zip+4": "5528","phone": "8438719289"}
{"name": "IRMO DRUG INC","address1": "1009 LAKE MURRAY BLVD","address2": "STE B","city": "IRMO","state": "SC","zip": "29063","zip+4": "0000","phone": "8037497485"}
{"name": "WALGREEN DRUG STORE #11400","address1": "5312 CALHOUN MEMORIAL HWY 123","address2": "","city": "EASLEY","state": "SC","zip": "29640","zip+4": "0000","phone": "8648552925"}
{"name": "WESTBURY PHARMACY INCORPORATED","address1": "701 NORTH PARLER AVE","address2": "","city": "SAINT GEORGE","state": "SC","zip": "29477","zip+4": "0000","phone": "8435639384"}
{"name": "BI LO PHARMACY #701","address1": "2186 CHERRY ROAD","address2": "STE 101","city": "ROCK HILL","state": "SC","zip": "29732","zip+4": "2160","phone": "8033667050"}
{"name": "PUBLIX PHARMACY #0576","address1": "5000 OLD BUNCOMBE RD","address2": "","city": "GREENVILLE","state": "SC","zip": "29617","zip+4": "8208","phone": "8636881188"}
{"name": "BI LO PHARMACY #707","address1": "550 ROBERTSON BLVD","address2": "","city": "WALTERBORO","state": "SC","zip": "29488","zip+4": "2788","phone": "8435491793"}
{"name": "GREENVILLE METRO TREATMENT CEN","address1": "602 AIRPORT RD","address2": "SUITE C","city": "GREENVILLE","state": "SC","zip": "29605","zip+4": "0000","phone": "8642347952"}
{"name": "KJ PHARMACY #159","address1": "2300 PAMPLICO HIGHWAY","address2": "","city": "FLORENCE","state": "SC","zip": "29505","zip+4": "0000","phone": "8434689803"}
{"name": "BANKS PHARMACY LLC","address1": "100 RIDGE MEDICAL PLAZA","address2": "STE 101","city": "EDGEFIELD","state": "SC","zip": "29824","zip+4": "0000","phone": "8036375757"}
{"name": "WALGREEN DRUG STORE #11210","address1": "2000 CELANESE RD","address2": "","city": "ROCK HILL","state": "SC","zip": "29732","zip+4": "0000","phone": "8039800095"}
{"name": "WALGREEN DRUG STORE #10614","address1": "997 E LIBERTY ST","address2": "","city": "YORK","state": "SC","zip": "29745","zip+4": "0000","phone": "8036843358"}
{"name": "CVS PHARMACY #06958","address1": "9625 HWY 78","address2": "","city": "LADSON","state": "SC","zip": "29456","zip+4": "0000","phone": "8438181190"}
{"name": "WALGREEN DRUG STORE #10100","address1": "2198 SOUTHPORT RD","address2": "","city": "SPARTANBURG","state": "SC","zip": "29306","zip+4": "6258","phone": "8645825822"}
{"name": "UPSTATE PHARMACY GREER","address1": "1018 S BATESVILLE RD","address2": "3 C","city": "GREER","state": "SC","zip": "29650","zip+4": "0000","phone": "8648489642"}
{"name": "WAL-MART PHARMACY #4506","address1": "KILLIAN RD I 77","address2": "","city": "KILLIAN","state": "SC","zip": "29203","zip+4": "0000","phone": "8037549999"}
{"name": "WAL-MART PHARMACY #3733","address1": "HWY 160","address2": "","city": "TEGA CAY","state": "SC","zip": "29715","zip+4": "0000","phone": "8035784140"}
{"name": "AGAPE RX","address1": "615 KNOX ABBOTT DRIVE","address2": "STE B","city": "CAYCE","state": "SC","zip": "29033","zip+4": "2713","phone": "8034517289"}
{"name": "CSC COMMUNITY PHARMACY","address1": "1268 SOUTH FOURTH ST","address2": "","city": "HARSTVILLE","state": "SC","zip": "29551","zip+4": "0000","phone": "8433395530"}
{"name": "WALGREEN DRUG STORE #11362","address1": "1903 S LAKE DR","address2": "","city": "LEXINGTON","state": "SC","zip": "29073","zip+4": "7760","phone": "8033561001"}
{"name": "INGLES PHARMACY #251","address1": "410 PELZER HWY","address2": "","city": "EASLEY","state": "SC","zip": "29640","zip+4": "0000","phone": "8648556856"}
{"name": "CVS PHARMACY #00205","address1": "914 W GEORGIA RD","address2": "","city": "SIMPONSVILLE","state": "SC","zip": "29680","zip+4": "6214","phone": "8642281723"}
{"name": "WALGREEN DRUG STORE #11432","address1": "4380 JEFFERSON DAVIS HWY","address2": "","city": "BEECH ISLAND","state": "SC","zip": "29829","zip+4": "0000","phone": "8035935506"}
{"name": "BI LO PHARMACY #042","address1": "351 SOUTH MAIN STREET","address2": "","city": "WOODRUFF","state": "SC","zip": "29388","zip+4": "1867","phone": "8644767154"}
{"name": "INGLES PHARMACY #202","address1": "2375 CHESNEE HWY","address2": "","city": "SPARTANBURG","state": "SC","zip": "29303","zip+4": "0000","phone": "8645739408"}
{"name": "PRESERVE HEALTH PA","address1": "135 BOTANICAL CIRCLE","address2": "","city": "TRAVELERS REST","state": "SC","zip": "29690","zip+4": "0000","phone": "8648365322"}
{"name": "SOUTH CHURCH HEALTH MART PHARM","address1": "550 SOUTH CHURCH STREET","address2": "UNIT #9","city": "SPARTANBURG","state": "SC","zip": "29306","zip+4": "0000","phone": "8645964501"}
{"name": "WALGREEN DRUG STORE #11851","address1": "1532 LAKE MURRAY BLVD","address2": "","city": "COLUMBIA","state": "SC","zip": "29212","zip+4": "8622","phone": "8037321975"}
{"name": "CVS PHARMACY #01200","address1": "1002 SAMS CROSSING ROAD","address2": "","city": "COLUBMIA","state": "SC","zip": "29229","zip+4": "0000","phone": "8037880535"}
{"name": "WALGREEN DRUG STORE #11270","address1": "1861 REMOUNT RD","address2": "","city": "NORTH CHARLESTON","state": "SC","zip": "29406","zip+4": "3288","phone": "8437406977"}
{"name": "WALGREEN DRUG STORE #11434","address1": "1630 RED BANK RD","address2": "","city": "GOOSE CREEK","state": "SC","zip": "29445","zip+4": "0000","phone": "8435537876"}
{"name": "WALGREENS #11849","address1": "1291 WHISKEY RD","address2": "","city": "AIKEN","state": "SC","zip": "29803","zip+4": "0000","phone": "8036488155"}
{"name": "WOODRUFF FAMILY PHARMACY LLC","address1": "914 N MAIN STREET","address2": "","city": "WOODRUFF","state": "SC","zip": "29388","zip+4": "0000","phone": "8644762800"}
{"name": "GEORGETOWN INTERNISTS AND PEDI","address1": "64 BUSINESS CENTER DR","address2": "","city": "PAWLEYS ISLAND","state": "SC","zip": "29585","zip+4": "0000","phone": "8433141305"}
{"name": "CHOICECARE PHARMACY #2","address1": "103 SALUDA RIDGE CT","address2": "","city": "W COLUMBIA","state": "SC","zip": "29169","zip+4": "0000","phone": "8037943320"}
{"name": "WALGREENS #11463","address1": "100 LITTLE TEXAS RD","address2": "","city": "TRAVELERS REST","state": "SC","zip": "29690","zip+4": "0000","phone": "8648344451"}
{"name": "CVS PHARMACY #04693","address1": "1504 BLUE RIDGE BLVD","address2": "","city": "SENECA","state": "SC","zip": "29672","zip+4": "6601","phone": "8648884022"}
{"name": "WALGREENS #11698","address1": "101 HAMPTON AVE","address2": "","city": "PICKENS","state": "SC","zip": "29671","zip+4": "2462","phone": "8648780599"}
{"name": "WALGREENS #10391","address1": "2586 WOODRUFF RD","address2": "","city": "SIMPSONVILLE","state": "SC","zip": "29681","zip+4": "5447","phone": "8642888836"}
{"name": "BI LO PHARMACY #726","address1": "1000 TANNER FORD BLVD","address2": "","city": "HANAHAN","state": "SC","zip": "29410","zip+4": "0000","phone": "8435534077"}
{"name": "WALGREENS #11724","address1": "201 N LAFAYETTE DR","address2": "","city": "SUMTER","state": "SC","zip": "29150","zip+4": "4341","phone": "8037734959"}
{"name": "WALGREENS #11563","address1": "4361 HIGHWAY 24","address2": "","city": "ANDERSON","state": "SC","zip": "29626","zip+4": "5214","phone": "8642248433"}
{"name": "PUBLIX PHARMACY #1205","address1": "101 BUCKWATER PLACE BLVD","address2": "","city": "BLUFFTON","state": "SC","zip": "29910","zip+4": "0000","phone": "8438156435"}
{"name": "WALGREENS #11252","address1": "2363 BOUNDARY ST","address2": "","city": "BEAUFORT","state": "SC","zip": "29902","zip+4": "3735","phone": "8433220308"}
{"name": "GLOBAL FAMILY MEDICINE","address1": "14 OAK FOREST ROAD","address2": "","city": "BLUFFTON","state": "SC","zip": "29910","zip+4": "0000","phone": "8438156468"}
{"name": "LONG'S DRUGS OF LEXINGTON","address1": "1216 WEST MAIN ST","address2": "","city": "LEXINGTON","state": "SC","zip": "29072","zip+4": "0000","phone": "8033583030"}
{"name": "OAKTREE MEDICAL CENTRE","address1": "115 BRUSHY CREEK RD","address2": "","city": "EASLEY","state": "SC","zip": "29641","zip+4": "0000","phone": "8648551633"}
{"name": "CVS PHARMACY #05479","address1": "7697 CHARLOTTE WAY","address2": "","city": "INDIAN LAND","state": "SC","zip": "29707","zip+4": "0000","phone": "8033961525"}
{"name": "MORPHIS PEDIATRIC GROUP","address1": "708 MEDICAL PARK DRIVE","address2": "","city": "HARTSVILLE","state": "SC","zip": "29550","zip+4": "0000","phone": "8433325121"}
{"name": "PALMETTO PRIMARY CARE PHYSICIA","address1": "213 W 4TH NORTH STREET","address2": "","city": "SUMMERVILLE","state": "SC","zip": "29483","zip+4": "0000","phone": "8438203311"}
{"name": "DELTA PHARMACY AND MEDICAL SUP","address1": "226 PORCHER AVENUE","address2": "","city": "EUTAWVILLE","state": "SC","zip": "29048","zip+4": "0000","phone": "8034929201"}
{"name": "WALGREENS #12164","address1": "2008 LAURENS RD","address2": "","city": "GREENVILLE","state": "SC","zip": "29607","zip+4": "2915","phone": "8642342451"}
{"name": "PAIN MANAGEMENT ASSOCIATES","address1": "15 PARK CREEK DR","address2": "","city": "GREENVILLE","state": "SC","zip": "29605","zip+4": "0000","phone": "8644043094"}
{"name": "WALGREENS #10869","address1": "1421 E GREENVILLE ST","address2": "","city": "ANDERSON","state": "SC","zip": "29621","zip+4": "0000","phone": "8642248873"}
{"name": "WAL-MART PHARMACY #4583","address1": "3925 PELHAM ROAD","address2": "","city": "GREENVILLE","state": "SC","zip": "29615","zip+4": "0000","phone": "8642888081"}
{"name": "WALGREENS #10329","address1": "901 S 5TH ST","address2": "","city": "HARTSVILLE","state": "SC","zip": "29550","zip+4": "0000","phone": "8433324523"}
{"name": "J RAPHA CLINIC LLC","address1": "1042 PROFESSIONAL COURT","address2": "","city": "MANNING","state": "SC","zip": "29102","zip+4": "0000","phone": "8034337991"}
{"name": "CAROLINA PHARMACY","address1": "8437 CHARLOTTE HIGHWAY","address2": "","city": "INDIAN LAND","state": "SC","zip": "29707","zip+4": "0000","phone": "8035788800"}
{"name": "K J PHARMACY INC #160","address1": "900 EAST ASHBY ROAD","address2": "","city": "QUINBY","state": "SC","zip": "29506","zip+4": "0000","phone": "8433892731"}
{"name": "THE KROGER PHARMACY #11640","address1": "1284 KNOX AVENUE","address2": "","city": "NORTH AUGUSTA","state": "SC","zip": "29841","zip+4": "0000","phone": "8034424510"}
{"name": "KELLY'S FAMILY PHARMACY INC","address1": "704 BRUSHY CREEK ROAD","address2": "","city": "EASLEY","state": "SC","zip": "29642","zip+4": "0000","phone": "8643430540"}
{"name": "EMMANUEL FAMILY CLINIC","address1": "2531 EVANS STREET","address2": "STE A","city": "NEWBERRY","state": "SC","zip": "29108","zip+4": "0000","phone": "8032767978"}
{"name": "LAKE MURRAY PEDIATRICS LLC","address1": "448 OLD CHEROKEE ROAD","address2": "","city": "LEXINGTON","state": "SC","zip": "29072","zip+4": "0000","phone": "8035205800"}
{"name": "TIDEWATER INTERNAL MEDICINE LL","address1": "2097 HENRY TECKLENBURG DRIVE","address2": "STE 220","city": "CHARLESTON","state": "SC","zip": "29414","zip+4": "0000","phone": "8435716868"}
{"name": "CYPRESS FAMILY MEDICINE","address1": "1036 PROFESSIONAL COURT","address2": "","city": "MANNING","state": "SC","zip": "29102","zip+4": "0000","phone": "8437697633"}
{"name": "PINE RIDGE PHARMACY","address1": "634 A PINE RIDGE DR","address2": "","city": "WEST COLUMBIA","state": "SC","zip": "29172","zip+4": "0000","phone": "8039553404"}
{"name": "WALGREENS #11379","address1": "7801 GARNERS FERRY RD","address2": "","city": "COLUMBIA","state": "SC","zip": "29209","zip+4": "0000","phone": "8036477638"}
{"name": "FRED'S PHARMACY #2869","address1": "437 N. MAIN STREET","address2": "","city": "SALUDA","state": "SC","zip": "29138","zip+4": "0000","phone": "8644452187"}
{"name": "HARRIS TEETER PHARMACY #372","address1": "6271 CAROLINA COMMONS DR","address2": "","city": "INDIAN LAND","state": "SC","zip": "29707","zip+4": "0000","phone": "8038025400"}
{"name": "RITE AID PHARMACY #06588","address1": "1215 LONGREEN PARKWAY","address2": "","city": "COLUMBIA","state": "SC","zip": "29229","zip+4": "0000","phone": "7177612633"}
{"name": "LOWCOUNTRY HEMATOLOGY & ONCOLO","address1": "900 BOWMAN ROAD","address2": "STE 103","city": "MT PLEASANT","state": "SC","zip": "29464","zip+4": "0000","phone": "8438815844"}
{"name": "MUSC ASHLEY RIVER TOWER PHARMA","address1": "25 COURTENAY DRIVE","address2": "RM M104","city": "CHARLESTON","state": "SC","zip": "29425","zip+4": "0000","phone": "3438765585"}
{"name": "MUSC UNIVERISTY HOSPITAL PHARM","address1": "169 ASHLEY AVENUE","address2": "ROOM 149","city": "CHARLESTON","state": "SC","zip": "29425","zip+4": "0000","phone": "8437925220"}
{"name": "NASON MEDICAL CENTER LLC","address1": "1101 BOWMAN ROAD","address2": "","city": "MT PLEASANT","state": "SC","zip": "29464","zip+4": "0000","phone": "8432844911"}
{"name": "WALGREENS #12568","address1": "814 E MAIN","address2": "","city": "LAURENS","state": "SC","zip": "29360","zip+4": "3535","phone": "8649845283"}
{"name": "FAMILY CARE SPECIALTY PHARMACY","address1": "2760 CELANESE ROAD","address2": "","city": "ROCK HILL","state": "SC","zip": "29732","zip+4": "0000","phone": "8039815330"}
{"name": "LAKE CITY FAMILY MEDICINE LLC","address1": "901 N MATTHEWS RD","address2": "","city": "LAKE CITY","state": "SC","zip": "29560","zip+4": "0000","phone": "8433748380"}
{"name": "WALGREENS #11769","address1": "1100 TIGER BLVD","address2": "","city": "CLEMSON","state": "SC","zip": "29631","zip+4": "1116","phone": "8646537962"}
{"name": "PALMETTO PODIATRY PA","address1": "1220 HOSPITAL DR","address2": "STE A","city": "MT PLEASANT","state": "SC","zip": "29464","zip+4": "0000","phone": "8438819159"}
{"name": "WALGREENS #12478","address1": "9001 TWO NOTCH RD","address2": "","city": "COLUMBIA","state": "SC","zip": "29223","zip+4": "5834","phone": "8034193664"}
{"name": "DELTA PHARMACY & MEDICAL SUPPL","address1": "320 E BAY ST STE A","address2": "","city": "CHARLESTON","state": "SC","zip": "29401","zip+4": "0000","phone": "8437615255"}
{"name": "SHERRY'S MEDS & MORE PHARMACY","address1": "3914 MAIN STREET","address2": "","city": "LORIS","state": "SC","zip": "29569","zip+4": "0000","phone": "8437564664"}
{"name": "PALMETTO FAMILY MEDICINE OF CO","address1": "109 BARTON CREEK CT","address2": "","city": "COLUMBIA","state": "SC","zip": "29229","zip+4": "0000","phone": "8032562286"}
{"name": "PALMETTO WOMENS HEALTH PC","address1": "1300 HOSPITAL DRIVE","address2": "STE 380","city": "MT PLEASANT","state": "SC","zip": "29464","zip+4": "0000","phone": "8438892206"}
{"name": "WALGREENS #12677","address1": "4520 HARD SCRABBLE RD","address2": "","city": "COLUMBIA","state": "SC","zip": "29229","zip+4": "0000","phone": "8034197507"}
{"name": "COASTAL URGENT CARE","address1": "13089 OCEAN HWY","address2": "UNIT D4","city": "PAWLEYS ISLAND","state": "SC","zip": "29585","zip+4": "0000","phone": "8884671117"}
{"name": "FAMILY PHARMACY-SOUTH AIKEN","address1": "110 PRICE AVE.","address2": "","city": "AIKEN","state": "SC","zip": "29803","zip+4": "0000","phone": "8036481776"}
{"name": "WAL-MART PHARMACY #104664","address1": "151 MYRTLE RIDGE RD","address2": "","city": "CONWAY","state": "SC","zip": "29526","zip+4": "0000","phone": "8432341420"}
{"name": "SPRING VALLEY FAMILY PRACTICE","address1": "229 LONGTOWN ROAD","address2": "","city": "COLUMBIA","state": "SC","zip": "29209","zip+4": "0000","phone": "8034194949"}
{"name": "GROSS FAMILY PRACTICE","address1": "970 HOLLY STREET","address2": "","city": "ORANGEBURG","state": "SC","zip": "29115","zip+4": "0000","phone": "8035312722"}
{"name": "CAROLINA COMMUNITY PHARMACY NO","address1": "577 BYPASS HWY 72 NW","address2": "","city": "GREENWOOD","state": "SC","zip": "29649","zip+4": "0000","phone": "8648899300"}
{"name": "WESTSIDE DERMATOLOGY LLC","address1": "1410 B JOHN B WHITE SR BLVD","address2": "","city": "SPARTANBURG","state": "SC","zip": "29306","zip+4": "0000","phone": "8645740017"}
{"name": "WALGREENS #12163","address1": "127 W COLUMBIA AVE","address2": "","city": "BATESBURG","state": "SC","zip": "29006","zip+4": "2124","phone": "8035322586"}
{"name": "WALGREENS #10838","address1": "5220 HIGHWAY 557","address2": "","city": "CLOVER","state": "SC","zip": "29710","zip+4": "8517","phone": "8036314144"}
{"name": "NEW HORIZON PHARMACY #4","address1": "1588 GEER HWY","address2": "","city": "TRAVELERS REST","state": "SC","zip": "29690","zip+4": "9204","phone": "8648361109"}
{"name": "WALGREENS # #11564","address1": "7686 CHARLOTTE HWY","address2": "","city": "INDIAN LAND","state": "SC","zip": "29707","zip+4": "7098","phone": "8035489201"}
{"name": "CVS PHARMACY #00443","address1": "1739 MAYBANK HWY","address2": "","city": "CHARLESTON","state": "SC","zip": "29412","zip+4": "0000","phone": "8437950792"}
{"name": "CVS PHARMACY #00483","address1": "983 HARBORVIEW RD","address2": "","city": "CHARLESTON","state": "SC","zip": "29412","zip+4": "0000","phone": "8437953216"}
{"name": "CVS PHARMACY #00487","address1": "1858 REMOUNT RD","address2": "","city": "HANAHAN","state": "SC","zip": "29406","zip+4": "0000","phone": "8437475213"}
{"name": "CVS PHARMACY #00528","address1": "3575 MAYBANK HWY","address2": "","city": "JOHNS ISLAND","state": "SC","zip": "29455","zip+4": "0000","phone": "8435590328"}
{"name": "CVS PHARMACY #00529","address1": "2803 MAYBANK HWY","address2": "","city": "JOHNS ISLAND","state": "SC","zip": "29455","zip+4": "0000","phone": "8435590871"}
{"name": "CVS PHARMACY #00563","address1": "1515 OLD TROLLY RD","address2": "","city": "SUMMERVILLE","state": "SC","zip": "29485","zip+4": "0000","phone": "8438212629"}
{"name": "CVS PHARMACY #00626","address1": "8995 UNIVERSITY BLVD","address2": "","city": "NORTH CHARLESTON","state": "SC","zip": "29406","zip+4": "0000","phone": "8434140710"}
{"name": "CVS PHARMACY #08936","address1": "101 FOUNDERS BAY RD","address2": "","city": "MURRELLS INLET","state": "SC","zip": "29576","zip+4": "8089","phone": "4017651500"}
{"name": "LONG'S DRUGS OF IRMO","address1": "7163 SAINT ANDREWS RD","address2": "","city": "COLUMBIA","state": "SC","zip": "29212","zip+4": "1146","phone": "8034046700"}
{"name": "FRED'S PHARMACY #2209","address1": "200 SPARTANBURG HWY","address2": "","city": "LYMAN","state": "SC","zip": "29365","zip+4": "1808","phone": "8649490800"}
{"name": "FRED'S PHARMACY #1914","address1": "518 E GREER ST","address2": "","city": "HONEA PATH","state": "SC","zip": "29654","zip+4": "1823","phone": "8643690707"}
{"name": "WALGREENS #12635","address1": "3621 SAVANNAH HWY","address2": "","city": "JOHNS ISLAND","state": "SC","zip": "29455","zip+4": "7937","phone": "8435710615"}
{"name": "PLANTATION PHARMACY #2","address1": "531 WAPPOO RD","address2": "","city": "CHARLESTON","state": "SC","zip": "29407","zip+4": "0000","phone": "8435561994"}
{"name": "NASON MEDICAL CENTER II LLC","address1": "8901 UNIVERSITY BLVD","address2": "","city": "NORTH CHARLESTON","state": "SC","zip": "29406","zip+4": "9116","phone": "8433772911"}
{"name": "WANNAMAKER DRUG","address1": "107 WEST BLVD","address2": "","city": "CHESTERFIELD","state": "SC","zip": "29709","zip+4": "1528","phone": "8436232999"}
{"name": "FRED'S STORES OF TENNESSEEIN","address1": "1876 E BLACKSTOCK RD","address2": "","city": "ROEBUCK","state": "SC","zip": "29376","zip+4": "2700","phone": "8645748323"}
{"name": "CVS PHARMACY #08492","address1": "930 82ND PKWY","address2": "","city": "MYRTLE BEACH","state": "SC","zip": "29572","zip+4": "4609","phone": "4017651500"}
{"name": "ROCK HILL PHARMACY #853","address1": "1030 OAKLAND AVE","address2": "","city": "ROCK HILL","state": "SC","zip": "29732","zip+4": "0000","phone": "8033241875"}
{"name": "WALGREENS #12447","address1": "2196 E MAIN ST","address2": "","city": "DUNCAN","state": "SC","zip": "29334","zip+4": "9456","phone": "8644861779"}
{"name": "WALGREENS #12512","address1": "5220 SUNSET BLVD","address2": "","city": "LEXINGTON","state": "SC","zip": "29072","zip+4": "9259","phone": "7872968463"}
{"name": "WALGREENS #12795","address1": "3510 RICHLAND AVE W","address2": "","city": "AIKEN","state": "SC","zip": "29801","zip+4": "6312","phone": "8036416959"}
{"name": "INSTITUTIONAL PHARMACY SOLUTIO","address1": "152 WACCAMAW MEDICAL PARK DR","address2": "","city": "CONWAY","state": "SC","zip": "29526","zip+4": "8901","phone": "8433478871"}
{"name": "HAWTHORNE LUGOFF PHARMACY","address1": "814 HIGHWAY 1 S UNIT 4","address2": "","city": "LUGOFF","state": "SC","zip": "29078","zip+4": "8855","phone": "8034089589"}
{"name": "FRED'S PHARMACY #3938","address1": "734 N GREENWOOD AVE","address2": "","city": "WARE SHOALS","state": "SC","zip": "29692","zip+4": "1233","phone": "8644562952"}
{"name": "DELTA PHARMACY & MEDICAL S","address1": "162 SEVEN FARMS DR STE 125","address2": "","city": "DANIEL ISLAND","state": "SC","zip": "29492","zip+4": "8034","phone": "8434712870"}
{"name": "FAMILYCARE NETWORK","address1": "PO BOX 6052","address2": "","city": "SPARTANBURG","state": "SC","zip": "29304","zip+4": "0000","phone": "8642538600"}
{"name": "PIGGLY WIGGLY CAROLINA CO","address1": "500 SECOND LOOP RD","address2": "","city": "FLORENCE","state": "SC","zip": "29505","zip+4": "0000","phone": "8435549880"}