{"name": "BIEN PHARMACY","address1": "222 S MAIN ST","address2": "","city": "MILBANK","state": "SD","zip": "57252","zip+4": "1809","phone": "6054325781"}
{"name": "LIEBE DRUG INC","address1": "109 S MAIN ST","address2": "","city": "MILBANK","state": "SD","zip": "57252","zip+4": "1725","phone": "6054325541"}
{"name": "LEWIS DRUG HURON #4","address1": "1950 DAKOTA AVENUE SOUTH","address2": "","city": "HURON","state": "SD","zip": "57350","zip+4": "0000","phone": "6053526495"}
{"name": "VANHOVE PRESCRIPTION SHOP","address1": "1200 S 7TH ST AVE","address2": "STE 100","city": "SIOUX FALLS","state": "SD","zip": "57105","zip+4": "0000","phone": "6053361816"}
{"name": "LEWIS DRUG # #1","address1": "500 W 41ST ST","address2": "","city": "SIOUX FALLS","state": "SD","zip": "57105","zip+4": "0000","phone": "6053672110"}
{"name": "LEWIS DRUG WESTGATE #2","address1": "2700 WEST 12TH STREET","address2": "","city": "SIOUX FALLS","state": "SD","zip": "57104","zip+4": "0000","phone": "6053672210"}
{"name": "CLINIC PHARMACIES INC","address1": "2333 W 57TH ST","address2": "STE 109","city": "SIOUX FALLS","state": "SD","zip": "57108","zip+4": "0000","phone": "6053313190"}
{"name": "HAISCH PHARMACY","address1": "303 E 5TH ST","address2": "","city": "CANTON","state": "SD","zip": "57013","zip+4": "1735","phone": "6059872661"}
{"name": "PARKER PHARMACY INC","address1": "27600 SD HWY 19","address2": "","city": "PARKER","state": "SD","zip": "57053","zip+4": "0000","phone": "6052973235"}
{"name": "GETSKOW PHARMACY","address1": "413 N BROADWAY","address2": "","city": "MARION","state": "SD","zip": "57043","zip+4": "0131","phone": "6056483751"}
{"name": "DAKOTA DRUG AND JEWELRY INC","address1": "123 N EGAN AVE","address2": "","city": "MADISON","state": "SD","zip": "57042","zip+4": "2899","phone": "6052564521"}
{"name": "LEWIS FAMILY DRUG #53","address1": "335 EAST 4TH STREET","address2": "","city": "DELL RAPIDS","state": "SD","zip": "57022","zip+4": "0000","phone": "6054285440"}
{"name": "MEDICINE SHOPPE #1654","address1": "1007 N MAIN STREET","address2": "","city": "MITCHELL","state": "SD","zip": "57301","zip+4": "0000","phone": "6059967751"}
{"name": "SHOPKO PHARMACY #22","address1": "1900 N MAIN ST","address2": "","city": "MITCHELL","state": "SD","zip": "57301","zip+4": "1160","phone": "6059966568"}
{"name": "GRAHAM PHARMACY INC","address1": "818 W HAVENS ST","address2": "","city": "MITCHELL","state": "SD","zip": "57301","zip+4": "3830","phone": "6059965321"}
{"name": "THORNTON DRUG","address1": "202 EAST MAIN ST","address2": "","city": "WESSINGTON SPRINGS","state": "SD","zip": "57382","zip+4": "0000","phone": "6055391421"}
{"name": "HERITAGE PHARMACY","address1": "609 S HWY 81","address2": "","city": "FREEMAN","state": "SD","zip": "57029","zip+4": "0000","phone": "6059254510"}
{"name": "LEWIS DRUG EASTGATE #3","address1": "1301 EAST 10TH STREET","address2": "","city": "SIOUX FALLS","state": "SD","zip": "57103","zip+4": "0000","phone": "6053672310"}
{"name": "MEDICINE SHOPPE #1655","address1": "102 WEST MAIN","address2": "","city": "PARKSTON","state": "SD","zip": "57366","zip+4": "0000","phone": "6059283661"}
{"name": "UNITED CLINIC PHARMACY","address1": "3015 3RD AVE SE","address2": "STE 110","city": "ABERDEEN","state": "SD","zip": "57401","zip+4": "1818","phone": "6052254001"}
{"name": "AVERA ST LUKES PHARMACY","address1": "305 S STATE ST","address2": "","city": "ABERDEEN","state": "SD","zip": "57401","zip+4": "4590","phone": "6056225545"}
{"name": "NELSON DRUG INC","address1": "125 S MAIN ST","address2": "","city": "ARLINGTON","state": "SD","zip": "57212","zip+4": "0000","phone": "6059835711"}
{"name": "QUARVE DRUG","address1": "710 MAIN ST","address2": "","city": "BRITTON","state": "SD","zip": "57430","zip+4": "0027","phone": "6054482471"}
{"name": "CASEY DRUG COMPANY","address1": "201 N MAIN ST","address2": "","city": "CHAMBERLAIN","state": "SD","zip": "57325","zip+4": "0000","phone": "6057345871"}
{"name": "PIONEER DRUG","address1": "107 E MAIN ST","address2": "","city": "ELK POINT","state": "SD","zip": "57025","zip+4": "0000","phone": "6053563336"}
{"name": "VILAS PHARMACY","address1": "103 E COMMERCIAL","address2": "","city": "GETTYSBURG","state": "SD","zip": "57442","zip+4": "0187","phone": "6057659458"}
{"name": "GREGORY DRUG","address1": "604 MAIN ST","address2": "","city": "GREGORY","state": "SD","zip": "57533","zip+4": "1349","phone": "6058358198"}
{"name": "RAFFERTY ROBBINS DRUG","address1": "108 S MAIN ST","address2": "","city": "HOWARD","state": "SD","zip": "57349","zip+4": "0000","phone": "6057725581"}
{"name": "WOLLMAN ANDES PHARMACY","address1": "332 MAIN ST","address2": "","city": "LAKE ANDES","state": "SD","zip": "57356","zip+4": "0000","phone": "6054877685"}
{"name": "LEWIS FAMILY DRUG #68","address1": "213 CALUMET SOUTH WEST","address2": "","city": "DESMET","state": "SD","zip": "57231","zip+4": "0000","phone": "6058549033"}
{"name": "SMITHS DRUG","address1": "301 MAIN ST","address2": "","city": "LEMMON","state": "SD","zip": "57638","zip+4": "0000","phone": "6053743897"}
{"name": "MARTIN DRUG AND MERCANTILE","address1": "304 MAIN ST","address2": "","city": "MARTIN","state": "SD","zip": "57551","zip+4": "0000","phone": "6056856200"}
{"name": "MILLER REXALL DRUG","address1": "209 N BROADWAY","address2": "","city": "MILLER","state": "SD","zip": "57362","zip+4": "0000","phone": "6058533647"}
{"name": "FAMILY PHARMACY","address1": "1317 10TH AVE W","address2": "","city": "MOBRIDGE","state": "SD","zip": "57601","zip+4": "0000","phone": "6058458140"}
{"name": "NEUMAYR PHARMACY","address1": "112 W ESTMAIN","address2": "","city": "PARKSTON","state": "SD","zip": "57366","zip+4": "0000","phone": "6059283125"}
{"name": "VILAS PHARMACY","address1": "100 MAC LANE 2","address2": "STE 2","city": "PIERRE","state": "SD","zip": "57501","zip+4": "0000","phone": "6052247334"}
{"name": "BOYDS DRUG MART EAST","address1": "909 E ST PATRICK ST","address2": "","city": "RAPID CITY","state": "SD","zip": "57701","zip+4": "0000","phone": "6053480741"}
{"name": "BOYDS DRUG MART WEST","address1": "655 MOUNTAIN VIEW RD","address2": "","city": "RAPID CITY","state": "SD","zip": "57702","zip+4": "2518","phone": "6053434445"}
{"name": "FAMILY THRIFT CENTER #253","address1": "1516 E ST PATRICK ST","address2": "","city": "RAPID CITY","state": "SD","zip": "57703","zip+4": "0000","phone": "6053436214"}
{"name": "OMNICARE OF SOUTH DAKOTA","address1": "709 NORTH KIWANIS AVE","address2": "","city": "SIOUX FALLS","state": "SD","zip": "57104","zip+4": "0000","phone": "6053389980"}
{"name": "PEARSON DRUG AND JEWELRY","address1": "420 VETERANS AVE","address2": "","city": "SISSETON","state": "SD","zip": "57262","zip+4": "0000","phone": "6056983622"}
{"name": "MEDICAP PHARMACY #8066","address1": "1330 NORTH AVENUE","address2": "","city": "SPEARFISH","state": "SD","zip": "57783","zip+4": "0000","phone": "6056422442"}
{"name": "COUNTY DRUG","address1": "1111 LAZELLE STREET","address2": "","city": "STURGIS","state": "SD","zip": "57785","zip+4": "0000","phone": "6053472466"}
{"name": "HOCH DRUG COMPANY","address1": "1619 MAIN ST","address2": "","city": "TYNDALL","state": "SD","zip": "57066","zip+4": "0000","phone": "6055893971"}
{"name": "DAVIS PHARMACY LTD","address1": "5 W CHERRY ST","address2": "","city": "VERMILLION","state": "SD","zip": "57069","zip+4": "0000","phone": "6056244444"}
{"name": "JAMES DRUG","address1": "201 S MAIN","address2": "PO BOX 130","city": "WAGNER","state": "SD","zip": "57380","zip+4": "0130","phone": "6053843541"}
{"name": "WALL DRUG STORE INC","address1": "510 MAIN","address2": "","city": "WALL","state": "SD","zip": "57790","zip+4": "0000","phone": "6052792175"}
{"name": "PRAIRIE LAKES CAMPUS PHARMACY","address1": "401 9TH AVE NW","address2": "","city": "WATERTOWN","state": "SD","zip": "57201","zip+4": "1599","phone": "6058827790"}
{"name": "CORNWELL DRUG","address1": "701 MAIN ST","address2": "","city": "WEBSTER","state": "SD","zip": "57274","zip+4": "0490","phone": "6053453351"}
{"name": "RANCHLAND DRUG","address1": "101 N MAIN","address2": "","city": "WHITE RIVER","state": "SD","zip": "57579","zip+4": "0000","phone": "6052593102"}
{"name": "PLAZA PHARMACY","address1": "201 S LLOYD ST","address2": "","city": "ABERDEEN","state": "SD","zip": "57401","zip+4": "4509","phone": "6052256344"}
{"name": "RAPID CITY REGIONAL OUTPATIENT","address1": "353 FAIRMONT BLVD","address2": "","city": "RAPID CITY","state": "SD","zip": "57701","zip+4": "7393","phone": "6057197141"}
{"name": "ZEEB PHARMACY","address1": "130 S CENTER","address2": "","city": "PHILIP","state": "SD","zip": "57567","zip+4": "0640","phone": "6058592833"}
{"name": "KMART PHARMACY #4170","address1": "1111 E NORTH ST","address2": "","city": "RAPID CITY","state": "SD","zip": "57701","zip+4": "0000","phone": "6053432248"}
{"name": "LYNNS DAKOTAMART PHARMACY","address1": "120 W SIOUX AVE","address2": "PO BOX 1158","city": "PIERRE","state": "SD","zip": "57501","zip+4": "1158","phone": "6052247396"}
{"name": "KMART PHARMACY #7023","address1": "18156TH AVE SE","address2": "","city": "ABERDEEN","state": "SD","zip": "57401","zip+4": "0000","phone": "6052295500"}
{"name": "CASEYS WELCOME WEST","address1": "ONE WELCOME W PLZ","address2": "","city": "CHAMBERLAIN","state": "SD","zip": "57325","zip+4": "0549","phone": "6057346530"}
{"name": "KMART PHARMACY #7306","address1": "3709 EAST 10TH STREET","address2": "","city": "SIOUX FALLS","state": "SD","zip": "57103","zip+4": "0000","phone": "6053320102"}
{"name": "KMART PHARMACY #7318","address1": "3020 W 12TH ST","address2": "","city": "SIOUX FALLS","state": "SD","zip": "57104","zip+4": "0000","phone": "6053393111"}
{"name": "LEWIS MADISON DRUG #5","address1": "741 SOUTH WASHINGTON AVENUE","address2": "","city": "MADISON","state": "SD","zip": "57042","zip+4": "0000","phone": "6052563733"}
{"name": "FAMILY THRIFT CENTER #257","address1": "3464 SRURGIS ROAD","address2": "","city": "RAPID CITY","state": "SD","zip": "57702","zip+4": "0000","phone": "6053484414"}
{"name": "SAFEWAY #1554","address1": "730 MOUNTAIN VIEW RD","address2": "","city": "RAPID CITY","state": "SD","zip": "57702","zip+4": "0000","phone": "6053428505"}
{"name": "DEUEL COUNTY PHARMACY","address1": "411 3RD AVE S","address2": "","city": "CLEAR LAKE","state": "SD","zip": "57226","zip+4": "0000","phone": "6058748220"}
{"name": "MEDICINE SHOPPE PHARMACY #0461","address1": "1304 MT RUSHMORE RD","address2": "","city": "RAPID CITY","state": "SD","zip": "57701","zip+4": "0000","phone": "6053486305"}
{"name": "SAFEWAY #0581","address1": "2120 MT RUSHMORE","address2": "","city": "RAPIDCITY","state": "SD","zip": "57701","zip+4": "0000","phone": "6053487552"}
{"name": "SALEM COMMUNITY DRUG","address1": "300 N MAIN","address2": "","city": "SALEM","state": "SD","zip": "57058","zip+4": "0316","phone": "6054252827"}
{"name": "HY VEE PHARMACY 3 #1632","address1": "3000 S MINNESOTA AVENUE","address2": "","city": "SIOUX FALLS","state": "SD","zip": "57105","zip+4": "0000","phone": "6053348012"}
{"name": "SHOPKO PHARMACY #49","address1": "500 N HIGHWAY 281","address2": "","city": "ABERDEEN","state": "SD","zip": "57401","zip+4": "1821","phone": "6052253577"}
{"name": "LEWIS DRUG SOUTHWEST #6","address1": "5500 WEST 41ST STREET","address2": "","city": "SIOUX FALLS","state": "SD","zip": "57106","zip+4": "0000","phone": "6053672610"}
{"name": "KESSLERS PHARMACY","address1": "621 6TH AVE SE","address2": "","city": "ABERDEEN","state": "SD","zip": "57401","zip+4": "4538","phone": "6052256673"}
{"name": "SHOPKO PHARMACY #54","address1": "700 9TH AVE SE","address2": "","city": "WATERTOWN","state": "SD","zip": "57201","zip+4": "5222","phone": "6058822011"}
{"name": "ECONOFOODS PHARMACY #487","address1": "2424 6TH AVE SE","address2": "","city": "ABERDEEN","state": "SD","zip": "57401","zip+4": "0000","phone": "6052262914"}
{"name": "ROGERS FAMILY PHARMACY","address1": "218 WEST 4TH STREET","address2": "","city": "YANKTON","state": "SD","zip": "57078","zip+4": "4301","phone": "6056658042"}
{"name": "SHOPKO PHARMACY #76","address1": "1601 W 41ST ST","address2": "","city": "SIOUX FALLS","state": "SD","zip": "57105","zip+4": "6371","phone": "6053383155"}
{"name": "AVERA MCKENNAN CAMPUS PHARMACY","address1": "800 E 21ST ST","address2": "","city": "SIOUX FALLS","state": "SD","zip": "57105","zip+4": "5045","phone": "6053228326"}
{"name": "SHOPKO PHARMACY #78","address1": "1845 HAINES AVE","address2": "","city": "RAPID CITY","state": "SD","zip": "57701","zip+4": "0663","phone": "6053421055"}
{"name": "LEWIS FAMILY DRUG #63","address1": "216 SOUTH MAIN STREET","address2": "","city": "LENNOX","state": "SD","zip": "57039","zip+4": "0000","phone": "6056472256"}
{"name": "PAMIDA PHARMACY #308","address1": "800 S WASHINGTON AVE","address2": "","city": "MADISON","state": "SD","zip": "57042","zip+4": "3520","phone": "6052566169"}
{"name": "LEWIS DRUG SOUTHEAST #7","address1": "4409 EAST 26TH STREET","address2": "","city": "SIOUX FALLS","state": "SD","zip": "57103","zip+4": "0000","phone": "6053672710"}
{"name": "SHOPKO PHARMACY #101","address1": "4501 E ARROWHEAD PKWY","address2": "","city": "SIOUX FALLS","state": "SD","zip": "57110","zip+4": "2701","phone": "6053358806"}
{"name": "WAL-MART PHARMACY #101483","address1": "3001 BROADWAY AVENUE","address2": "","city": "YANKTON","state": "SD","zip": "57078","zip+4": "0000","phone": "6056658197"}
{"name": "WAL-MART PHARMACY #101500","address1": "1201 29TH ST SE","address2": "","city": "WATERTOWN","state": "SD","zip": "57201","zip+4": "0000","phone": "6058868419"}
{"name": "WAL-MART PHARMACY #101520","address1": "3820 7TH AVENUE SE","address2": "","city": "ABERDEEN","state": "SD","zip": "57401","zip+4": "0000","phone": "6052291519"}
{"name": "WAL-MART PHARMACY #101543","address1": "2825 1ST AVENUE","address2": "","city": "SPEARFISH","state": "SD","zip": "57783","zip+4": "0000","phone": "6056423025"}
{"name": "WAL-MART PHARMACY #101535","address1": "3209 SOUTH LOUISE","address2": "","city": "SIOUX FALLS","state": "SD","zip": "57106","zip+4": "0000","phone": "6053621602"}
{"name": "WAL-MART PHARMACY #101538","address1": "2233 6TH ST","address2": "","city": "BROOKINGS","state": "SD","zip": "57006","zip+4": "0000","phone": "6056921858"}
{"name": "HY VEE PHARMACY #1624","address1": "1601 S SYCAMORE ROAD","address2": "","city": "SIOUX FALLS","state": "SD","zip": "57103","zip+4": "0000","phone": "6053341173"}
{"name": "KMART PHARMACY #3893","address1": "2323 COLORADO BOULEVARD","address2": "","city": "SPEARFISH","state": "SD","zip": "57783","zip+4": "0000","phone": "6056428749"}
{"name": "JONES DRUG INC","address1": "802 6TH AVE SE","address2": "","city": "ABERDEEN","state": "SD","zip": "57401","zip+4": "6319","phone": "6052253010"}
{"name": "WAL-MART PHARMACY #101604","address1": "1200 LACROSSE","address2": "","city": "RAPID CITY","state": "SD","zip": "57701","zip+4": "0000","phone": "6053420881"}
{"name": "HY VEE PHARMACY 2 #1631","address1": "4101 SOUTH LOUISE AVENUE","address2": "","city": "SIOUX FALLS","state": "SD","zip": "57106","zip+4": "0000","phone": "6053611382"}
{"name": "KMART PHARMACY #4735","address1": "1313 SOUTH BURR","address2": "","city": "MITCHELL","state": "SD","zip": "57301","zip+4": "0000","phone": "6059961384"}
{"name": "KMART PHARMACY #9184","address1": "1000 18TH STREET SW","address2": "","city": "HURON","state": "SD","zip": "57350","zip+4": "0000","phone": "6053524525"}
{"name": "VILAS PHARMACY","address1": "712 7TH ST","address2": "","city": "EUREKA","state": "SD","zip": "57437","zip+4": "0707","phone": "6052842752"}
{"name": "WAL-MART PHARMACY #101685","address1": "1730 NO GARFIELD ROAD","address2": "","city": "PIERRE","state": "SD","zip": "57501","zip+4": "0000","phone": "6052248766"}
{"name": "SAFEWAY #0583","address1": "1606 NORTH AVE SUITE 2","address2": "","city": "SPEARFISH","state": "SD","zip": "57783","zip+4": "0000","phone": "6056423039"}
{"name": "KMART PHARMACY #4813","address1": "2210 BROADWAY AVENUE","address2": "","city": "YANKTON","state": "SD","zip": "57078","zip+4": "0000","phone": "6056657920"}
{"name": "KMART PHARMACY #9273","address1": "1615 N HARRISON AVENUE","address2": "","city": "PIERRE","state": "SD","zip": "57501","zip+4": "0000","phone": "6052241655"}
{"name": "LEWIS FAMILY DRUG #65","address1": "6110 SOUTH MINNESOTA AVENUE","address2": "","city": "SIOUX FALLS","state": "SD","zip": "57108","zip+4": "0000","phone": "6053672810"}
{"name": "BURKE COMMUNITY PHARMACY","address1": "9TH AND JACKSON ST","address2": "","city": "BURKE","state": "SD","zip": "57523","zip+4": "0358","phone": "6057752294"}
{"name": "VALUE CARE PHARMACY INC","address1": "122 E KEMP AVE","address2": "","city": "WATERTOWN","state": "SD","zip": "57201","zip+4": "0000","phone": "6058824809"}
{"name": "HERITAGE PHARMACY","address1": "206 N MAIN","address2": "","city": "BRIDGEWATER","state": "SD","zip": "57319","zip+4": "0000","phone": "6057292744"}
{"name": "STATE STREET PHARMACY","address1": "105 S STATE ST STE 111","address2": "","city": "ABERDEEN","state": "SD","zip": "57401","zip+4": "4602","phone": "6052251945"}
{"name": "MEDICAP PHARMACY #8145","address1": "2210 JACKSON BLVD","address2": "","city": "RAPID CITY","state": "SD","zip": "57702","zip+4": "0000","phone": "6053993747"}
{"name": "PAMIDA PHARMACY #348","address1": "2701 HIGHWAY 18 W","address2": "","city": "HOT SPRINGS","state": "SD","zip": "57747","zip+4": "6601","phone": "6057454681"}
{"name": "LORIS PHARMACY","address1": "1205 N 1S ST","address2": "","city": "GROTON","state": "SD","zip": "57445","zip+4": "0000","phone": "6053972363"}
{"name": "ECONOFOODS PHARMACY #484","address1": "1000 9TH AVE SE","address2": "","city": "WATERTOWN","state": "SD","zip": "57201","zip+4": "0000","phone": "6058866744"}
{"name": "LEWIS DRUG BRANDON #9","address1": "117 NORTH SPLITROCK","address2": "","city": "BRANDON","state": "SD","zip": "57005","zip+4": "0000","phone": "6053672910"}
{"name": "PAMIDA PHARMACY #360","address1": "1 N 5TH AVE","address2": "","city": "BELLE FOURCHE","state": "SD","zip": "57717","zip+4": "1172","phone": "6058922252"}
{"name": "CLARK COMMUNITY PHARMACY","address1": "211 N COMMERCIAL STREET","address2": "","city": "CLARK","state": "SD","zip": "57225","zip+4": "0000","phone": "6055323400"}
{"name": "HY VEE PHARMACY #1871","address1": "1320 9TH AVENUE SE","address2": "","city": "WATERTOWN","state": "SD","zip": "57201","zip+4": "0000","phone": "6058860661"}
{"name": "LEWIS FAMILY DRUG #60","address1": "715 EAST 5TH STREET","address2": "","city": "CANTON","state": "SD","zip": "57013","zip+4": "0000","phone": "6059874284"}
{"name": "LEWIS FAMILY DRUG #58","address1": "100 SOUTH MAIN STREET","address2": "","city": "VIBORG","state": "SD","zip": "57070","zip+4": "0000","phone": "6053265211"}
{"name": "WALGREEN DRUG STORE #5242","address1": "4900 S CLIFF AVE","address2": "","city": "SIOUX FALLS","state": "SD","zip": "57108","zip+4": "4763","phone": "6053369366"}
{"name": "WALGREEN DRUG STORE #5243","address1": "2605 W 12TH ST","address2": "","city": "SIOUX FALLS","state": "SD","zip": "57104","zip+4": "0000","phone": "6053578663"}
{"name": "WALGREEN DRUG STORE #5745","address1": "3620 W 41ST ST","address2": "","city": "SIOUX FALLS","state": "SD","zip": "57106","zip+4": "0000","phone": "6053613400"}
{"name": "HY VEE PHARMACY 4 #1633","address1": "1900 SOUTH MARION ROAD","address2": "","city": "SIOUX FALLS","state": "SD","zip": "57106","zip+4": "0000","phone": "6053613347"}
{"name": "MEDICAP PHARMACY #8272","address1": "339 ST PATRICK STREET","address2": "","city": "RAPID CITY","state": "SD","zip": "57701","zip+4": "0000","phone": "6053883622"}
{"name": "WALGREEN DRUG STORE #5643","address1": "540 MOUNTAIN VIEW RD","address2": "","city": "RAPID CITY","state": "SD","zip": "57702","zip+4": "0000","phone": "6053420090"}
{"name": "HY VEE PHARMACY #1899","address1": "2100 N 21ST STREET","address2": "","city": "YANKTON","state": "SD","zip": "57078","zip+4": "0000","phone": "6056658261"}
{"name": "HY VEE PHARMACY 5 #1637","address1": "3020 EAST 10TH STREET","address2": "","city": "SIOUX FALLS","state": "SD","zip": "57103","zip+4": "0000","phone": "6053368998"}
{"name": "WAL-MART PHARMACY #102990","address1": "1101 EAST SPRUCE ST","address2": "","city": "MITCHELL","state": "SD","zip": "57301","zip+4": "0000","phone": "6059956845"}
{"name": "BOYDS DRUG RX EXPRESS","address1": "2650 MT RUSHMORE RD","address2": "","city": "RAPID CITY","state": "SD","zip": "57701","zip+4": "0000","phone": "6057184040"}
{"name": "COBORNS PHARMACY #24","address1": "2150 DAKOTA AVE S","address2": "","city": "HURON","state": "SD","zip": "57350","zip+4": "0000","phone": "6053521641"}
{"name": "PAMIDA PHARMACY #248","address1": "2105 LAZELLE ST","address2": "","city": "STURGIS","state": "SD","zip": "57785","zip+4": "3028","phone": "6053474553"}
{"name": "HY VEE PHARMACY #1820","address1": "525 WEST CHERRY STREET","address2": "","city": "VERMILLION","state": "SD","zip": "57069","zip+4": "0000","phone": "6056249591"}
{"name": "CENTERVILLE COMMUNITY PHARMACY","address1": "512 BROADWAY","address2": "","city": "CENTERVILLE","state": "SD","zip": "57014","zip+4": "0000","phone": "6055632243"}
{"name": "WAL-MART PHARMACY #103237","address1": "5521 E ARROWHEAD PARKWAY","address2": "","city": "SIOUX FALLS","state": "SD","zip": "57110","zip+4": "0000","phone": "6053673206"}
{"name": "AMERIPHARM INC","address1": "2503 E 54TH ST N","address2": "","city": "SIOUX FALLS","state": "SD","zip": "57104","zip+4": "0000","phone": "8667440621"}
{"name": "WALGREEN DRUG STORE #5514","address1": "1806 S MINNESOTA AVE","address2": "","city": "SIOUX FALLS","state": "SD","zip": "57105","zip+4": "0000","phone": "6052210575"}
{"name": "SAMS PHARMACY #108165","address1": "3201 SOUTH LOUISE AVE","address2": "","city": "SIOUX FALLS","state": "SD","zip": "57106","zip+4": "0000","phone": "6053622625"}
{"name": "LEWIS DRUG LONG TERM CARE PHAR","address1": "2701 SOUTH MINNESOTA AVENUE","address2": "","city": "SIOUX FALLS","state": "SD","zip": "57105","zip+4": "0000","phone": "6053672828"}
{"name": "PRAIRIE PHARMACY","address1": "1311 BRADDOCK ST","address2": "","city": "ARMOUR","state": "SD","zip": "57313","zip+4": "0000","phone": "6057242970"}
{"name": "TARGET PHARMACY #0076","address1": "3600 S LOUISE AVE","address2": "","city": "SIOUX FALLS","state": "SD","zip": "57106","zip+4": "0000","phone": "6052541100"}
{"name": "PAMIDA PHARMACY #12","address1": "1140 E 5TH ST","address2": "","city": "WINNER","state": "SD","zip": "57580","zip+4": "2149","phone": "6058423242"}
{"name": "LEWIS DRUG BROOKINGS #12","address1": "910 22ND AVENUE SOUTH","address2": "","city": "BROOKINGS","state": "SD","zip": "57006","zip+4": "0000","phone": "6056928881"}
{"name": "LEWIS FAMILY DRUG #64","address1": "1201 SOUTH EUCLID","address2": "","city": "SIOUX FALLS","state": "SD","zip": "57105","zip+4": "0000","phone": "6053282620"}
{"name": "DUNES FAMILY PHARMACY","address1": "101 TOWER ROAD","address2": "SUITE 130","city": "DAKOTA DUNES","state": "SD","zip": "57049","zip+4": "0000","phone": "6052425050"}
{"name": "BON HOMME PHARMACY","address1": "410 W 16TH AVE","address2": "","city": "TYNDALL","state": "SD","zip": "57066","zip+4": "0000","phone": "6055894418"}
{"name": "DT PHARMACY","address1": "815 1ST AVE SE","address2": "STE 202","city": "ABERDEEN","state": "SD","zip": "57401","zip+4": "0000","phone": "6057254001"}
{"name": "HY VEE PHARMACY #1039","address1": "790 22ND AVENUE SOUTH","address2": "","city": "BROOKINGS","state": "SD","zip": "57006","zip+4": "0000","phone": "6056927311"}
{"name": "LEWIS FAMILY DRUG #66","address1": "100 NORTH THIRD","address2": "","city": "BERESFORD","state": "SD","zip": "57004","zip+4": "0000","phone": "6057632633"}
{"name": "AVERA DOCTORS PLAZA 2 PHCY","address1": "1100 E 21ST ST","address2": "SUITE 200","city": "SIOUX FALLS","state": "SD","zip": "57105","zip+4": "1053","phone": "6053228360"}
{"name": "MEDICAP PHARMACY #8394","address1": "304 W HWY 38","address2": "STE 102","city": "HARTFORD","state": "SD","zip": "57033","zip+4": "0000","phone": "6055282000"}
{"name": "WALGREEN DRUG STORE #1975","address1": "1720 S SYCAMORE AVE","address2": "","city": "SIOUX FALLS","state": "SD","zip": "57110","zip+4": "0000","phone": "6052210834"}
{"name": "LEWIS FAMILY DRUG #67","address1": "7220 WEST 41ST STREET","address2": "","city": "SIOUX FALLS","state": "SD","zip": "57106","zip+4": "0000","phone": "6053672010"}
{"name": "WAL-MART PHARMACY #103734","address1": "1207 PRINCETON STREET","address2": "","city": "VERMILLION","state": "SD","zip": "57069","zip+4": "0000","phone": "6056244106"}
{"name": "YANKTON MEDICAL CLINIC PHARMAC","address1": "1104 W 8TH ST","address2": "","city": "YANKTON","state": "SD","zip": "57078","zip+4": "0000","phone": "6056652929"}
{"name": "GENOA HEALTHCARE #26","address1": "123 19TH ST NE","address2": "","city": "WATERTOWN","state": "SD","zip": "57201","zip+4": "0000","phone": "6058829400"}
{"name": "LYNNS DAKOTAMART BELL FOURCHE","address1": "600 NATIONAL ST","address2": "","city": "BELLE FOURCHE","state": "SD","zip": "57717","zip+4": "0000","phone": "6058922666"}
{"name": "LYNNS DAKOTAMART PHARMACY #268","address1": "505 S 6TH ST","address2": "","city": "HOT SPRINGS","state": "SD","zip": "57747","zip+4": "0000","phone": "6057453110"}
{"name": "WALGREEN DRUG STORE #10007","address1": "421 9TH AVE SE","address2": "","city": "WATERTOWN","state": "SD","zip": "57201","zip+4": "4955","phone": "6058828819"}
{"name": "VILAS LTC PHARMACY","address1": "200 E DAKOTA","address2": "STE 2","city": "PIERRE","state": "SD","zip": "57501","zip+4": "0000","phone": "6052240907"}
{"name": "WALGREEN DRUG STORE #9806","address1": "2020 BROADWAY AVE","address2": "","city": "YANKTON","state": "SD","zip": "57078","zip+4": "0000","phone": "6056652613"}
{"name": "WALGREEN DRUG STORE #10347","address1": "901 S BURR ST","address2": "","city": "MITCHELL","state": "SD","zip": "57301","zip+4": "4705","phone": "6059963179"}
{"name": "PRAIRIE PHARMACY CORSICA","address1": "230 MAIN ST","address2": "","city": "CORSICA","state": "SD","zip": "57328","zip+4": "0000","phone": "6059465690"}
{"name": "WAL-MART PHARMACY #103853","address1": "2791 DAKOTA AVENUE SOUTH","address2": "","city": "HURON","state": "SD","zip": "57350","zip+4": "0000","phone": "6053539513"}
{"name": "WALGREEN DRUG STORE #09512","address1": "1125 N LACROSSE ST","address2": "","city": "RAPID CITY","state": "SD","zip": "57701","zip+4": "6954","phone": "6053483265"}
{"name": "WALGREEN DRUG STORE #10572","address1": "100 E SIOUX AVE","address2": "","city": "PIERRE","state": "SD","zip": "57501","zip+4": "3196","phone": "6052244962"}
{"name": "LEWIS DRUGS AT 57TH AND CLIFF","address1": "1231 EAST 57TH STREET","address2": "","city": "SIOUX FALLS","state": "SD","zip": "57108","zip+4": "0000","phone": "6053672410"}
{"name": "WALGREEN DRUG STORE #10729","address1": "7120 W 41ST ST","address2": "","city": "SIOUX FALLS","state": "SD","zip": "57106","zip+4": "6006","phone": "6052210989"}
{"name": "PAMIDA PHARMACY #652","address1": "1710 SD HWY 10","address2": "","city": "SISSETON","state": "SD","zip": "57262","zip+4": "1401","phone": "6057420055"}
{"name": "WALGREENS DRUG STORE #10656","address1": "1902 MOUNT RUSHMORE RD","address2": "","city": "RAPID CITY","state": "SD","zip": "57701","zip+4": "0000","phone": "6053420194"}
{"name": "YOUR DAILY DOSE INC","address1": "220 S CLIFF AVE","address2": "STE 100","city": "HARRISBURG","state": "SD","zip": "57032","zip+4": "0000","phone": "6057432282"}
{"name": "LEWIS FAMILY DRUG #70","address1": "127 E 2ND AVE","address2": "","city": "FLANDREAU","state": "SD","zip": "57028","zip+4": "1222","phone": "6059972122"}
{"name": "RAPIDCARE RAPID CITY","address1": "408 KNOLLWOOD DR","address2": "","city": "RAPID CITY","state": "SD","zip": "57701","zip+4": "0000","phone": "6053416600"}
{"name": "SANFORD CANCER CENTER ONCOLOGY","address1": "1309 W 17TH ST STE 101","address2": "","city": "SIOUX FALLS","state": "SD","zip": "57104","zip+4": "0000","phone": "6053288040"}
{"name": "FAMILY THRIFT CENTER #254","address1": "855 OMAHA ST","address2": "","city": "RAPID CITY","state": "SD","zip": "57701","zip+4": "0000","phone": "6053438542"}
{"name": "LEWIS DRUGS INC #13","address1": "720 E 1ST STREET","address2": "","city": "TEA","state": "SD","zip": "57064","zip+4": "0000","phone": "6053689001"}
{"name": "TARGET PHARMACY #2457","address1": "1415 EGLIN ST","address2": "","city": "RAPID CITY","state": "SD","zip": "57703","zip+4": "9504","phone": "7632521316"}
{"name": "BOB'SA WALGREENS PHARMACY #1","address1": "1430 NORTH AVE","address2": "","city": "SPEARFISH","state": "SD","zip": "57783","zip+4": "1593","phone": "6056420650"}
{"name": "FAULKTON DRUG","address1": "118 8TH AVE S","address2": "","city": "FAULKTON","state": "SD","zip": "57438","zip+4": "0000","phone": "6055984187"}
{"name": "WHITE DRUG #70","address1": "71 CHARLES ST","address2": "","city": "DEADWOOD","state": "SD","zip": "57732","zip+4": "1394","phone": "6055781512"}
{"name": "NORM'S THRIFTY WHITE PHARMACY","address1": "389 S MAIN ST","address2": "","city": "FREEMAN","state": "SD","zip": "57029","zip+4": "0000","phone": "6059257059"}
{"name": "REDLERS LONG TERM CARE LLC","address1": "317 DAKOTA DUNES BLVD","address2": "STE A","city": "DAKOTA DUNES","state": "SD","zip": "57049","zip+4": "0000","phone": "4024945542"}
{"name": "TARGET PHARMACY #2540","address1": "1021 S HIGHLINE PL","address2": "","city": "SIOUX FALLS","state": "SD","zip": "57110","zip+4": "1000","phone": "6053335601"}