{"name": "WALGREEN DRUG STORE #5789","address1": "1800 N MISSOURI ST STE 2","address2": "","city": "WEST MEMPHIS","state": "AR","zip": "72301","zip+4": "0000","phone": "8707358996"}
{"name": "KROGER PHARMACY #25627","address1": "8824 GEYER SPRINGS RD","address2": "","city": "LITTLE ROCK","state": "AR","zip": "72209","zip+4": "0000","phone": "5015657584"}
{"name": "WALGREEN DRUG STORE #10198","address1": "2135 N WEST AVE","address2": "","city": "EL DORADO","state": "AR","zip": "71730","zip+4": "3351","phone": "8708625458"}
{"name": "KROGER PHARMACY #25642","address1": "6929 JFK BLVD","address2": "","city": "N LITTLE ROCK","state": "AR","zip": "72116","zip+4": "0000","phone": "5018356530"}
{"name": "USA DRUG #1021","address1": "1428 WEST WALNUT","address2": "","city": "ROGERS","state": "AR","zip": "72756","zip+4": "3318","phone": "4796362155"}
{"name": "STOTTS DRUG CO","address1": "103 W ARCH AVE","address2": "","city": "SEARCY","state": "AR","zip": "72143","zip+4": "7783","phone": "5012682536"}
{"name": "COLLEGE HILL DRUG","address1": "1 COLLEGE HILL CTR","address2": "","city": "TEXARKANA","state": "AR","zip": "71854","zip+4": "0000","phone": "8707726969"}
{"name": "ALLCARE PHARMACY #5","address1": "711 EAST ST","address2": "","city": "TEXARKANA","state": "AR","zip": "71854","zip+4": "0000","phone": "8707736789"}
{"name": "COLLIER DRUG DICKSON","address1": "100 W DICKSON ST","address2": "","city": "FAYETTEVILLE","state": "AR","zip": "72701","zip+4": "5219","phone": "4794426262"}
{"name": "THE HEALTH DEPOT #2","address1": "1610 FORT ST","address2": "","city": "BARLING","state": "AR","zip": "72923","zip+4": "2018","phone": "4794521237"}
{"name": "VAUGHN PRESCRIPTION","address1": "507 LEXINGTON AVE","address2": "","city": "FORT SMITH","state": "AR","zip": "72901","zip+4": "0000","phone": "4797828209"}
{"name": "MEDISAV HOMECARE PHARMACY #3","address1": "5701 JENNY LIND RD","address2": "","city": "FT SMITH","state": "AR","zip": "72908","zip+4": "0000","phone": "4796462971"}
{"name": "STRECKERS DRUG","address1": "770 S SAINT LOUIS ST","address2": "","city": "BATESVILLE","state": "AR","zip": "72501","zip+4": "5821","phone": "8707936816"}
{"name": "MIDLAND DRUG INC","address1": "2310 MIDLAND BLVD","address2": "","city": "FT SMITH","state": "AR","zip": "72904","zip+4": "5428","phone": "4797830221"}
{"name": "MCKINNEY DRUG STORE INC","address1": "601 W MAPLE AVE","address2": "STE 201","city": "SPRINGDALE","state": "AR","zip": "72764","zip+4": "0000","phone": "4797514536"}
{"name": "PRINCE DRUG STORE INC","address1": "1112 TOWSON AVE","address2": "","city": "FT SMITH","state": "AR","zip": "72901","zip+4": "5099","phone": "4797829210"}
{"name": "LANGSTON DRUG STORE INC","address1": "1202 E MAIN","address2": "","city": "VAN BUREN","state": "AR","zip": "72956","zip+4": "0000","phone": "4794743431"}
{"name": "KROGER PHARMACY #25638","address1": "4403 CAMP ROBINSON RD","address2": "","city": "N. LITTLE ROCK","state": "AR","zip": "72118","zip+4": "0000","phone": "5017586360"}
{"name": "USA DRUG EXPRESS #1030","address1": "1101 NORTH WALTON","address2": "","city": "BENTONVILLE","state": "AR","zip": "72712","zip+4": "0000","phone": "4792733394"}
{"name": "ECONOMY DRUG INC","address1": "300 PERRY ST","address2": "","city": "HELENA","state": "AR","zip": "72342","zip+4": "3325","phone": "8703386464"}
{"name": "USA DRUG EXPRESS #1029","address1": "100 HIGHWAY 412 W","address2": "","city": "SILOAM SPRINGS","state": "AR","zip": "72761","zip+4": "0000","phone": "4795246103"}
{"name": "OWENS DRUG STORE","address1": "523 N 6TH ST","address2": "","city": "BLYTHEVILLE","state": "AR","zip": "72315","zip+4": "2498","phone": "8707622024"}
{"name": "COBBS WESTSIDE PHARMACY INC","address1": "108 SKYLINE DR","address2": "STE B","city": "RUSSELLVILLE","state": "AR","zip": "72801","zip+4": "3362","phone": "4799687180"}
{"name": "MEDIC PHARMACY INC #1","address1": "5901 W 12TH ST","address2": "","city": "LITTLE ROCK","state": "AR","zip": "72204","zip+4": "1608","phone": "5016643907"}
{"name": "USA DRUG #1005","address1": "105 NORTH RODNEY PARHAM 3","address2": "","city": "LITTLE ROCK","state": "AR","zip": "72205","zip+4": "0000","phone": "5012256211"}
{"name": "MEDICAL ARTS PHARMACY","address1": "2515 HUNTSVILLE RD","address2": "","city": "FAYETTEVILLE","state": "AR","zip": "72701","zip+4": "0000","phone": "4794433411"}
{"name": "USA DRUG #1003","address1": "6115 BASELINE ROAD","address2": "","city": "LITTLE ROCK","state": "AR","zip": "72209","zip+4": "0000","phone": "5015622348"}
{"name": "ROLANDS DRUG STORE","address1": "116 N PINE ST","address2": "","city": "PERRYVILLE","state": "AR","zip": "72126","zip+4": "0000","phone": "5018895111"}
{"name": "USA DRUG EXPRESS #1006","address1": "4010 WEST 12TH STREET","address2": "","city": "LITTLE ROCK","state": "AR","zip": "72204","zip+4": "0000","phone": "5016639497"}
{"name": "USA DRUG EXPRESS #1001","address1": "500 SOUTH UNIVERSITY","address2": "","city": "LITTLE ROCK","state": "AR","zip": "72205","zip+4": "0000","phone": "5016644121"}
{"name": "DELTA DRUG INC","address1": "257 S HWY 18 BYPASS","address2": "","city": "MANILA","state": "AR","zip": "72442","zip+4": "0000","phone": "8705613113"}
{"name": "DONS PHARMACY INC","address1": "8609 WEST MARKHAM A","address2": "","city": "LITTLE ROCK","state": "AR","zip": "72205","zip+4": "0000","phone": "5012252222"}
{"name": "LANDMARK PHARMACY LLC","address1": "3401 ATWOOD RD","address2": "STE E","city": "LITTLE ROCK","state": "AR","zip": "72206","zip+4": "6099","phone": "5018882223"}
{"name": "MEDIC PHARMACY OF BRYANT INC","address1": "101 NW 3RD ST","address2": "STE A","city": "BRYANT","state": "AR","zip": "72022","zip+4": "3458","phone": "5018473596"}
{"name": "SHANNON HILLS PHARMACY","address1": "13907 HIGH RD","address2": "","city": "SHANNON HILLS","state": "AR","zip": "72103","zip+4": "0000","phone": "5014551086"}
{"name": "ASH FLAT PHARMACY INC","address1": "JUNCTION HWY 62 AND 167","address2": "","city": "ASH FLAT","state": "AR","zip": "72513","zip+4": "0000","phone": "8709947377"}
{"name": "CLARK DRUG STORE","address1": "2116 HWY 367 N","address2": "","city": "BALD KNOB","state": "AR","zip": "72010","zip+4": "1130","phone": "5017243261"}
{"name": "USA DRUG EXPRESS #1017","address1": "1024 MILITARY ROAD","address2": "","city": "BENTON","state": "AR","zip": "72015","zip+4": "0000","phone": "5017787456"}
{"name": "WEST SIDE PHARMACY INC","address1": "620 W SOUTH ST STE C","address2": "","city": "BENTON","state": "AR","zip": "72015","zip+4": "4258","phone": "5017783151"}
{"name": "POYNER DRUG STORE","address1": "408 PUBLIC SQUARE","address2": "","city": "BERRYVILLE","state": "AR","zip": "72616","zip+4": "3958","phone": "8704232737"}
{"name": "BIG WORLD PHARMACY","address1": "1531 E MAIN ST","address2": "","city": "BOONEVILLE","state": "AR","zip": "72927","zip+4": "0000","phone": "4796753900"}
{"name": "WINNINGHAM DRUG STORE","address1": "232 W MAIN ST","address2": "","city": "BRADFORD","state": "AR","zip": "72020","zip+4": "0000","phone": "5013442763"}
{"name": "MEDSKERS FAMILY PHARMACY AND G","address1": "121 N COURT","address2": "","city": "CARLISLE","state": "AR","zip": "72024","zip+4": "0000","phone": "8705527837"}
{"name": "ROSE DRUG","address1": "211 E MAIN ST","address2": "","city": "CLARKSVILLE","state": "AR","zip": "72830","zip+4": "3723","phone": "4797542180"}
{"name": "BAKER DRUG STORE","address1": "924 FRONT ST","address2": "","city": "CONWAY","state": "AR","zip": "72032","zip+4": "4387","phone": "5013295626"}
{"name": "BAKERS PHARMACY","address1": "300 MAIN ST","address2": "","city": "CROSSETT","state": "AR","zip": "71635","zip+4": "2988","phone": "8703645155"}
{"name": "ROSE DRUG","address1": "1736 STATE HIGHWAY 22 W","address2": "","city": "DARDANELLE","state": "AR","zip": "72834","zip+4": "0000","phone": "4792294040"}
{"name": "MEADOR PHARMACY","address1": "101 W WATERMAN ST","address2": "","city": "DUMAS","state": "AR","zip": "71639","zip+4": "2139","phone": "4793824343"}
{"name": "FONGS DRUGS","address1": "621 COMMERCE ST","address2": "","city": "EARLE","state": "AR","zip": "72331","zip+4": "1616","phone": "8707928763"}
{"name": "LARRYS REXALL PHARMACY","address1": "102 E ELM ST","address2": "","city": "EL DORADO","state": "AR","zip": "71730","zip+4": "6194","phone": "8708638111"}
{"name": "EUDORA DRUG STORE","address1": "140 S MAIN ST","address2": "","city": "EUDORA","state": "AR","zip": "71640","zip+4": "0000","phone": "8703554448"}
{"name": "MEDICAL PARK PHARMACY","address1": "146 PASSION PLAY RD","address2": "STE B","city": "EUREKA SPRINGS","state": "AR","zip": "72632","zip+4": "0000","phone": "4792539751"}
{"name": "USA EXPRESS #1013","address1": "1572 N COLLEGE AVE","address2": "","city": "FAYETTEVILLE","state": "AR","zip": "72703","zip+4": "1901","phone": "4795213200"}
{"name": "FOREMAN PHARMACY","address1": "106 SCHUMAN ST","address2": "","city": "FOREMAN","state": "AR","zip": "71836","zip+4": "0000","phone": "8705426544"}
{"name": "NATIONAL FAMILY PHARMACY","address1": "1615 DODSON AVE","address2": "","city": "FT SMITH","state": "AR","zip": "72901","zip+4": "5129","phone": "4797836135"}
{"name": "AMERICAN DRUG","address1": "1 E MAIN ST","address2": "","city": "GREENBRIER","state": "AR","zip": "72058","zip+4": "9601","phone": "5016792211"}
{"name": "THOMERSON DRUG STORE","address1": "113 E 1ST ST","address2": "","city": "GURDON","state": "AR","zip": "71743","zip+4": "0190","phone": "8703534442"}
{"name": "LA GRONE DRUG","address1": "201 N MAIN ST","address2": "","city": "HAMBURG","state": "AR","zip": "71646","zip+4": "3264","phone": "8708538666"}
{"name": "USA DRUG #1026","address1": "202 WEST BOWER","address2": "","city": "HARRISON","state": "AR","zip": "72601","zip+4": "0000","phone": "8707413453"}
{"name": "GLENNS DRUG INC #AR20265","address1": "401 W MAIN ST","address2": "","city": "HEBER SPRINGS","state": "AR","zip": "72543","zip+4": "3018","phone": "5013622633"}
{"name": "MITCHELLS MEDI MART","address1": "1523 S MAIN ST","address2": "","city": "HOPE","state": "AR","zip": "71801","zip+4": "0000","phone": "8707775555"}
{"name": "ALLCARE PHARMACY #2","address1": "318 W 3RD ST","address2": "","city": "HOPE","state": "AR","zip": "71801","zip+4": "5199","phone": "8707774643"}
{"name": "USA DRUG EXPRESS #1011","address1": "531 WEST GRAND","address2": "","city": "HOT SPRINGS","state": "AR","zip": "71901","zip+4": "0000","phone": "5016242538"}
{"name": "HOPKINS HEALTHMART","address1": "627 ALBERT PIKE RD","address2": "","city": "HOT SPRINGS","state": "AR","zip": "71913","zip+4": "3895","phone": "5016244491"}
{"name": "ECONOMY DRUGS OF HUNTSVILLE IN","address1": "601 N GASKILL","address2": "","city": "HUNTSVILLE","state": "AR","zip": "72740","zip+4": "0157","phone": "4797382620"}
{"name": "SUPER D DRUGS #1008","address1": "1328 STADIUM BLVD","address2": "","city": "JONESBORO","state": "AR","zip": "72401","zip+4": "0000","phone": "8709352242"}
{"name": "PARKER ROAD SPECIALITY PHARMAC","address1": "1109 W PARKER RD","address2": "","city": "JONESBORO","state": "AR","zip": "72404","zip+4": "0000","phone": "8709356400"}
{"name": "SOOS DRUG AND COMPOUNDING CENT","address1": "2905 E NETTLETON AVE","address2": "","city": "JONESBORO","state": "AR","zip": "72401","zip+4": "0000","phone": "8709326930"}
{"name": "HEALTH WAY PHARMACY","address1": "803 HWY 36 TN","address2": "","city": "JUDSONIA","state": "AR","zip": "72081","zip+4": "0000","phone": "5017293670"}
{"name": "LAKE VILLAGE DRUG STORE","address1": "2907 HWY 65 82 SO","address2": "","city": "LAKE VILLAGE","state": "AR","zip": "71653","zip+4": "2120","phone": "8702655555"}
{"name": "HUNTERS PHARMACY","address1": "401 MAIN ST","address2": "","city": "LAKE VILLAGE","state": "AR","zip": "71653","zip+4": "1799","phone": "8702655120"}
{"name": "KAVANAUGH PHARMACY, INC","address1": "5008 KAVANAUGH BLVD","address2": "","city": "LITTLE ROCK","state": "AR","zip": "72207","zip+4": "0000","phone": "5016643844"}
{"name": "UAMS OUTPATIENT PHARMACY","address1": "4301 W MARKHAM ST","address2": "STE 54710","city": "LITTLE ROCK","state": "AR","zip": "72205","zip+4": "7101","phone": "5016865530"}
{"name": "LACKIE DRUG STORE INC","address1": "179 N CENTER","address2": "","city": "LONOKE","state": "AR","zip": "72086","zip+4": "0000","phone": "5016766566"}
{"name": "LYONS DRUG STORE","address1": "115 W FRONT ST","address2": "","city": "LONOKE","state": "AR","zip": "72086","zip+4": "0000","phone": "5016762247"}
{"name": "MILLERS DRUG STORE INC","address1": "231 S MAIN ST","address2": "","city": "MALVERN","state": "AR","zip": "72104","zip+4": "3736","phone": "5013322351"}
{"name": "DONS DRUG","address1": "213 E HOWARD ST","address2": "","city": "MANSFIELD","state": "AR","zip": "72944","zip+4": "0000","phone": "4799284499"}
{"name": "BEST DRUG","address1": "906 N EDMONDS","address2": "","city": "MCCORY","state": "AR","zip": "72101","zip+4": "0000","phone": "8707312251"}
{"name": "KELLEY DRUG AND SELECTIONS","address1": "104 HOLLY ST","address2": "","city": "MCGEHEE","state": "AR","zip": "71654","zip+4": "0021","phone": "8702225071"}
{"name": "USA DRUG EXPRESS #1028","address1": "803 EAST HWY 71 NORTH","address2": "","city": "MENA","state": "AR","zip": "71953","zip+4": "0000","phone": "4793945144"}
{"name": "LEMONS PRESCRIPTION SHOP","address1": "1713 N BUSINESS ST","address2": "PO BOX 709","city": "MORRILTON","state": "AR","zip": "72110","zip+4": "0709","phone": "5013543318"}
{"name": "POWER PHARMACY","address1": "1310 S 4TH ST","address2": "","city": "NASHVILLE","state": "AR","zip": "71852","zip+4": "3007","phone": "8708451413"}
{"name": "USA DRUG EXPRESS #1002","address1": "5209 JFK BLVD","address2": "","city": "NORTH LITTLE ROCK","state": "AR","zip": "72116","zip+4": "0000","phone": "5017580850"}
{"name": "NEWCOMB DRUG STORE","address1": "100 E HALE AVE","address2": "","city": "OSCEOLA","state": "AR","zip": "72370","zip+4": "2647","phone": "8705632618"}
{"name": "OSCEOLA PHARMACY","address1": "600 W LEE AVE","address2": "","city": "OSCEOLA","state": "AR","zip": "72370","zip+4": "3099","phone": "8705636516"}
{"name": "STAR PHARMACY LTD","address1": "916 W KEISER AVE","address2": "","city": "OSCEOLA","state": "AR","zip": "72370","zip+4": "0000","phone": "8705635255"}
{"name": "SUPER D DRUGS #21","address1": "1703 PARAGOULD PLAZA","address2": "","city": "PARAGOULD","state": "AR","zip": "72450","zip+4": "0000","phone": "8702399588"}
{"name": "HOLCOMBS PHARMACY","address1": "231 W MAIN ST","address2": "","city": "PIGGOTT","state": "AR","zip": "72454","zip+4": "2039","phone": "8705983183"}
{"name": "SUPER D EXPRESS RX #1022","address1": "2711 HAZEL STREET","address2": "","city": "PINE BLUFF","state": "AR","zip": "71603","zip+4": "0000","phone": "8705366607"}
{"name": "JRMC RETAIL PHARMACY","address1": "1600 W 40TH AVE","address2": "","city": "PINE BLUFF","state": "AR","zip": "71603","zip+4": "0000","phone": "8705417902"}
{"name": "FUTRELL PHARMACY, INC.","address1": "115 E BROADWAY ST","address2": "","city": "POCAHONTAS","state": "AR","zip": "72455","zip+4": "3498","phone": "8708925615"}
{"name": "JOHNSON PHARMACY","address1": "6124 HEBER SPGS RD W","address2": "","city": "QUITMAN","state": "AR","zip": "72131","zip+4": "0164","phone": "5015892890"}
{"name": "CITY PHARMACY OF RISON","address1": "209 MAIN ST","address2": "","city": "RISON","state": "AR","zip": "71665","zip+4": "0000","phone": "8703256237"}
{"name": "C AND D DRUG STORE","address1": "121 N COMMERCE AVE","address2": "","city": "RUSSELLVILLE","state": "AR","zip": "72801","zip+4": "3790","phone": "4799682456"}
{"name": "NEWTONS PHARMACY","address1": "715 W MAIN ST","address2": "","city": "RUSSELLVILLE","state": "AR","zip": "72801","zip+4": "0000","phone": "4799681157"}
{"name": "BAKERS PHARMACY","address1": "106 W HWY 62 412","address2": "","city": "SALEM","state": "AR","zip": "72576","zip+4": "0247","phone": "8708953811"}
{"name": "MILLERS PHARMACY","address1": "172 HWY 62 E","address2": "SUITE 2","city": "SALEM","state": "AR","zip": "72576","zip+4": "0155","phone": "8708952143"}
{"name": "MEDICAL CENTER PHARMACY","address1": "2900 HAWKINS DR","address2": "","city": "SEARCY","state": "AR","zip": "72143","zip+4": "4802","phone": "5012683311"}
{"name": "MCCOY TYGART DRUG STORE","address1": "821 N ROCK ST","address2": "","city": "SHERIDAN","state": "AR","zip": "72150","zip+4": "0000","phone": "8709425121"}
{"name": "BRUCE DRUGS INC","address1": "711 BROADWAY ST","address2": "","city": "SMACKOVER","state": "AR","zip": "71762","zip+4": "1822","phone": "8707252401"}
{"name": "PEOPLES DRUG AND GIFT","address1": "237 MAIN ST","address2": "","city": "STAMPS","state": "AR","zip": "71860","zip+4": "0000","phone": "8705334311"}
{"name": "BEARD DRUG COMPANY","address1": "614 S LINCOLN AVE","address2": "","city": "STAR CITY","state": "AR","zip": "71667","zip+4": "1109","phone": "8706284277"}
{"name": "COKER HAMPTON DRUG CO","address1": "218 S MAIN ST","address2": "","city": "STUTTGART","state": "AR","zip": "72160","zip+4": "0902","phone": "8706732691"}
{"name": "TRUMANN DRUG COMPANY","address1": "213 HWY 463 NORTH","address2": "","city": "TRUMANN","state": "AR","zip": "72472","zip+4": "2619","phone": "8704836439"}
{"name": "GANNAWAY DRUG STORE","address1": "101 N MAIN ST","address2": "","city": "WARREN","state": "AR","zip": "71671","zip+4": "2785","phone": "8702263751"}
{"name": "WYNNE MEDICAL PHARMACY","address1": "718 S FALLS BLVD","address2": "","city": "WYNNE","state": "AR","zip": "72396","zip+4": "0000","phone": "8702388531"}
{"name": "SUPER D DRUGS #39","address1": "430 WEST BROADWAY","address2": "","city": "WEST MEMPHIS","state": "AR","zip": "72301","zip+4": "0000","phone": "8707322260"}
{"name": "THE CORNER PHARMACY","address1": "191 W MAIN ST","address2": "","city": "ASHDOWN","state": "AR","zip": "71822","zip+4": "0000","phone": "8708985151"}
{"name": "MEDISAV HOMECARE PHARMACY #1","address1": "101 S LOGAN ST","address2": "","city": "CHARLESTON","state": "AR","zip": "72933","zip+4": "0000","phone": "4799652244"}
{"name": "KROGER PHARMACY #25632","address1": "6420 ASHER AVENUE","address2": "","city": "LITTLE ROCK","state": "AR","zip": "72204","zip+4": "0000","phone": "5015650188"}
{"name": "USA DRUG EXPRESS #1027","address1": "100 AIRPORT ROAD","address2": "","city": "HOT SPRINGS","state": "AR","zip": "71913","zip+4": "0000","phone": "5016240669"}
{"name": "CATE PHARMACY INC","address1": "500 N MISSOURI","address2": "","city": "CORNING","state": "AR","zip": "72422","zip+4": "2797","phone": "8708576766"}
{"name": "BAPTIST MEDICAL TOWERS PHARMAC","address1": "9601 LILE DR","address2": "SUITE 109","city": "LITTLE ROCK","state": "AR","zip": "72205","zip+4": "6316","phone": "5012022462"}
{"name": "VILLAGE HEALTH MART DRUG #1","address1": "4440 HWY 7 NORTH","address2": "","city": "HOT SPRINGS VILLGE","state": "AR","zip": "71909","zip+4": "4020","phone": "5019220777"}
{"name": "YOUNGS HEALTHMART PHARMACY","address1": "1304 S MAIN ST","address2": "","city": "MALVERN","state": "AR","zip": "72104","zip+4": "5228","phone": "5013374901"}
{"name": "ECONOMY DRUG","address1": "1006 W TRIMBLE AVE","address2": "","city": "BERRYVILLE","state": "AR","zip": "72616","zip+4": "0000","phone": "8704232094"}
{"name": "LEES SUPER DRUG STORE","address1": "105 W CHOCTAW ST","address2": "","city": "DUMAS","state": "AR","zip": "71639","zip+4": "2005","phone": "8703824007"}
{"name": "MEDI QUIK PHARMACY","address1": "810 W COMMERCIAL ST","address2": "","city": "OZARK","state": "AR","zip": "72949","zip+4": "3010","phone": "4796674145"}
{"name": "PRESCRIPTION SHOP","address1": "158 S LIVERMORE","address2": "","city": "HAZEN","state": "AR","zip": "72064","zip+4": "0507","phone": "8702554403"}
{"name": "DAVIS DRUG STORE INC","address1": "HWY 62 412 MIDWAY PLAZA","address2": "STE 10","city": "HARDY","state": "AR","zip": "72542","zip+4": "0000","phone": "8708563080"}
{"name": "MEDISAV HOMECARE PHARMACY #2","address1": "8820 ROGERS AVE","address2": "","city": "FT SMITH","state": "AR","zip": "72903","zip+4": "0000","phone": "4794520278"}
{"name": "S AND H PHARMACY","address1": "711 N EDMONDS ST","address2": "","city": "MCCRORY","state": "AR","zip": "72101","zip+4": "0000","phone": "8707312361"}
{"name": "ALLCARE PHARMACY #4","address1": "310 E ELM ST","address2": "","city": "PRESCOTT","state": "AR","zip": "71857","zip+4": "2499","phone": "8708876664"}
{"name": "MARKS PHARMACY","address1": "7311 N HILLS BLVD STE 3","address2": "","city": "SHERWOOD","state": "AR","zip": "72116","zip+4": "5396","phone": "5018357775"}
{"name": "EAST AR FAMILY HLTH CTR PHCY","address1": "215 E BOND AVE","address2": "","city": "WEST MEMPHIS","state": "AR","zip": "72301","zip+4": "3100","phone": "4797353846"}
{"name": "USA DRUG #2","address1": "2514 WEST 28TH STREET","address2": "","city": "PINE BLUFF","state": "AR","zip": "71603","zip+4": "0000","phone": "8705367710"}
{"name": "WILSON WIL-SAV PHARMACY","address1": "10 ALLEN CHAPEL RD","address2": "","city": "BATESVILLE","state": "AR","zip": "72501","zip+4": "9787","phone": "8702512432"}
{"name": "ALLCARE PHARMACY #32","address1": "515 MAIN ST","address2": "","city": "ARKADELPHIA","state": "AR","zip": "71923","zip+4": "6091","phone": "8704039401"}
{"name": "ALLCARE PHARMACY #6","address1": "107 E NORTH ST","address2": "","city": "MAGNOLIA","state": "AR","zip": "71753","zip+4": "2822","phone": "8702348120"}
{"name": "WAL-MART PHARMACY #100004","address1": "2901 HWY 412 EAST","address2": "","city": "SILOAM SPRINGS","state": "AR","zip": "72761","zip+4": "0000","phone": "4795243156"}
{"name": "USA DRUG #1","address1": "1401 E HARDING AVE","address2": "","city": "PINE BLUFF","state": "AR","zip": "71601","zip+4": "0000","phone": "8705367140"}
{"name": "FLIPPIN PHARMACY","address1": "109 N 1ST ST","address2": "","city": "FLIPPIN","state": "AR","zip": "72634","zip+4": "0000","phone": "8704532218"}
{"name": "IMBODEN MEDICAL PHARMACY","address1": "203 WALNUT ST","address2": "","city": "IMBODEN","state": "AR","zip": "72434","zip+4": "0000","phone": "8708692046"}
{"name": "USA DRUG EXPRESS #1033","address1": "2111 W MARTIN LUTHER KING BLVD","address2": "","city": "FAYETTEVILLE","state": "AR","zip": "72701","zip+4": "0000","phone": "4794425225"}
{"name": "WAL-MART PHARMACY #100054","address1": "2004 SOUTH PLEASANT","address2": "","city": "SPRINGDALE","state": "AR","zip": "72764","zip+4": "0000","phone": "4797560860"}
{"name": "OAK GROVE PHARMACY INC","address1": "11114 MACARTHUR DR","address2": "","city": "NORTH LITTLE ROCK","state": "AR","zip": "72118","zip+4": "0000","phone": "5018513636"}
{"name": "USA DRUG # #8006","address1": "5462 CENTRAL AVE","address2": "","city": "HOT SPRINGS","state": "AR","zip": "71913","zip+4": "0000","phone": "5015253288"}
{"name": "VILONIA DRUG INC","address1": "1155 MAIN","address2": "","city": "VILONIA","state": "AR","zip": "72173","zip+4": "0145","phone": "5017962116"}
{"name": "WAL-MART PHARMACY #100144","address1": "2875 MARTIN LUTHER KING JR. BL","address2": "","city": "FAYETTEVILLE","state": "AR","zip": "72704","zip+4": "0000","phone": "4795214350"}
{"name": "PLAZA PHARMACY","address1": "3001 APACHE DR","address2": "","city": "JONESBORO","state": "AR","zip": "72401","zip+4": "0000","phone": "8709721751"}
{"name": "MEDI QUIK PHARMACY","address1": "442 N MAIN ST","address2": "","city": "MULBERRY","state": "AR","zip": "72947","zip+4": "0000","phone": "4799978033"}
{"name": "NEWSOMS FAMILY PHARMACY","address1": "9661 STRONG HWY","address2": "","city": "STRONG","state": "AR","zip": "71765","zip+4": "0000","phone": "8707972011"}
{"name": "WAL-MART PHARMACY #100100","address1": "406 SOUTH WALTON BLVD","address2": "","city": "BENTONVILLE","state": "AR","zip": "72712","zip+4": "0000","phone": "4792735080"}
{"name": "FOOTES SUPER DRUG INC #4","address1": "109 E ADAMS ST","address2": "","city": "HAMBURG","state": "AR","zip": "71646","zip+4": "3256","phone": "8708535275"}
{"name": "USA DRUG EXPRESS #1035","address1": "1300 EAST KIEHL","address2": "","city": "SHERWOOD","state": "AR","zip": "72120","zip+4": "0000","phone": "5018341480"}
{"name": "HAMPTON MEDICAL PHARMACY","address1": "344 S LEE","address2": "","city": "HAMPTON","state": "AR","zip": "71744","zip+4": "0732","phone": "8707984247"}
{"name": "WOODSPRINGS PHARMACY","address1": "1807 WOODSPRINGS RD","address2": "","city": "JONESBORO","state": "AR","zip": "72401","zip+4": "5643","phone": "8709728310"}
{"name": "ALLCARE PHARMACY - PONDER","address1": "400 S COLLEGE ST","address2": "","city": "MOUNTAIN HOME","state": "AR","zip": "72653","zip+4": "3923","phone": "8704255145"}
{"name": "SUPER V DRUGS","address1": "1000 E MATTHEWS AVE","address2": "STE A","city": "JONESBORO","state": "AR","zip": "72401","zip+4": "4307","phone": "8709726470"}
{"name": "WAL-MART PHARMACY #100052","address1": "1601 ALBERT PIKE BLV","address2": "","city": "HOT SPRINGS","state": "AR","zip": "71913","zip+4": "0000","phone": "5016240142"}
{"name": "COLEMAN PHARMACY INC","address1": "3610 GRAND AVE","address2": "","city": "FT SMITH","state": "AR","zip": "72904","zip+4": "6898","phone": "4797835171"}
{"name": "KROGER PHARMACY #25687","address1": "303 ST LOUIS STEET","address2": "","city": "BATESVILLE","state": "AR","zip": "72501","zip+4": "0000","phone": "8707933000"}
{"name": "KROGER PHARMACY #25652","address1": "101 WEST OAK ST","address2": "","city": "CONWAY","state": "AR","zip": "72032","zip+4": "0000","phone": "5013290795"}
{"name": "FLOWERS PHARMACY","address1": "1401 S STATE ST","address2": "STE A","city": "PINE BLUFF","state": "AR","zip": "71601","zip+4": "0000","phone": "8705348366"}
{"name": "NORMAN AND BAKER PHARMACY","address1": "1117 MCLAIN ST","address2": "","city": "NEWPORT","state": "AR","zip": "72112","zip+4": "3531","phone": "8705239472"}
{"name": "CITY PHARMACY INC","address1": "606 S PARK ST","address2": "","city": "POCAHONTAS","state": "AR","zip": "72455","zip+4": "0000","phone": "8708925517"}
{"name": "SUPER D DRUGS #45","address1": "1111 NORTH WASHINGTON AVENUE","address2": "","city": "FORREST CITY","state": "AR","zip": "72335","zip+4": "0000","phone": "8706334463"}
{"name": "MARKET PLACE PHARMACY","address1": "11316 HURON LN","address2": "","city": "LITTLE ROCK","state": "AR","zip": "72211","zip+4": "0000","phone": "5012255056"}
{"name": "WAL-MART PHARMACY #100001","address1": "2110 WEST WALNUT","address2": "","city": "ROGERS","state": "AR","zip": "72756","zip+4": "0000","phone": "4796368238"}
{"name": "SMITHS DRUG PLLC","address1": "695 E THIRD ST","address2": "","city": "GENTRY","state": "AR","zip": "72734","zip+4": "0000","phone": "4797362241"}
{"name": "WAL-MART PHARMACY #100318","address1": "109 W.P. MALONE DR","address2": "","city": "ARKADELPHIA","state": "AR","zip": "71923","zip+4": "0000","phone": "8702465410"}
{"name": "WAL-MART PHARMACY #100058","address1": "2409 EAST MAIN STREET","address2": "","city": "RUSSELLVILLE","state": "AR","zip": "72802","zip+4": "0000","phone": "4799682970"}
{"name": "PIGGOTT DISCOUNT DRUG","address1": "175 N 3RD AVE","address2": "","city": "PIGGOTT","state": "AR","zip": "72454","zip+4": "0000","phone": "8705985353"}
{"name": "WALDEN DRUG","address1": "320 S 12TH ST","address2": "","city": "PARAGOULD","state": "AR","zip": "72450","zip+4": "0000","phone": "8702366118"}
{"name": "MAGEE THOMAS PHARMACY","address1": "200 E 7TH ST","address2": "","city": "MOUNTAIN HOME","state": "AR","zip": "72653","zip+4": "0000","phone": "8704252221"}
{"name": "PARK WEST PHARMACY","address1": "11215 HERMITAGE RD","address2": "","city": "LITTLE ROCK","state": "AR","zip": "72211","zip+4": "3857","phone": "5012243499"}
{"name": "FREDS PHARMACY #2016","address1": "2308 SOUTH CARAWAY RD","address2": "","city": "JONESBORO","state": "AR","zip": "72401","zip+4": "0000","phone": "8709728751"}
{"name": "CORNER DRUG STORE","address1": "118 SPRING ST","address2": "","city": "MELBOURNE","state": "AR","zip": "72556","zip+4": "0000","phone": "8703687171"}
{"name": "SUPER D EXPRESS RX #1043","address1": "533 WEST NETTLETON","address2": "","city": "JONESBORO","state": "AR","zip": "72401","zip+4": "0000","phone": "8709321014"}
{"name": "WAL-MART PHARMACY #100083","address1": "60 79-BYPASS NORTH","address2": "","city": "MAGNOLIA","state": "AR","zip": "71753","zip+4": "0000","phone": "8702345421"}
{"name": "WAL-MART PHARMACY #100348","address1": "427 HWY 425 NORTH","address2": "","city": "MONTICELLO","state": "AR","zip": "71655","zip+4": "0000","phone": "8703673559"}
{"name": "BILLS PHARMACY","address1": "201 E BROADWAY ST","address2": "","city": "MORRILTON","state": "AR","zip": "72110","zip+4": "3403","phone": "5013543505"}
{"name": "KROGER PHARMACY #25550","address1": "1100 EAST ROOSEVELT","address2": "","city": "LITTLE ROCK","state": "AR","zip": "72206","zip+4": "0000","phone": "5013755645"}
{"name": "WAL-MART PHARMACY #100358","address1": "367 WEST CHERRY ST","address2": "","city": "ALMA","state": "AR","zip": "72921","zip+4": "0000","phone": "4796324330"}
{"name": "BOBBY TEETERS DRUG STORE INC #","address1": "200 W MAIN ST","address2": "","city": "CLARKSVILLE","state": "AR","zip": "72830","zip+4": "3097","phone": "4797542196"}
{"name": "CITY DRUG","address1": "201 E GAINES ST","address2": "","city": "MONTICELLO","state": "AR","zip": "71655","zip+4": "4903","phone": "8703675301"}
{"name": "THE MEDICINE CHEST PHARMACY","address1": "209 CARTER ST","address2": "","city": "BERRYVILLE","state": "AR","zip": "72616","zip+4": "4303","phone": "8704236677"}
{"name": "BELLA VISTA PHARMACY","address1": "408 TOWN CENTER AVE","address2": "","city": "BELLA VISTA","state": "AR","zip": "72714","zip+4": "1817","phone": "4798553791"}
{"name": "WAL-MART PHARMACY #100067","address1": "600 HWY 71 NORTH","address2": "","city": "MENA","state": "AR","zip": "71953","zip+4": "0000","phone": "4793943897"}
{"name": "MILLERS PHARMACY","address1": "111 S COURT SQUARE","address2": "","city": "MAGNOLIA","state": "AR","zip": "71753","zip+4": "3511","phone": "8702342012"}
{"name": "ALLCARE PHARMACY #8","address1": "3002 PINE ST","address2": "","city": "ARKADELPHIA","state": "AR","zip": "71923","zip+4": "5325","phone": "8702463044"}
{"name": "MYERS PHARMACY","address1": "226 MAIN ST","address2": "","city": "MAMMOTH SPRING","state": "AR","zip": "72554","zip+4": "0000","phone": "8706253214"}
{"name": "WAL-MART PHARMACY #100359","address1": "3919 NO. MALL AVE","address2": "","city": "FAYETTEVILLE","state": "AR","zip": "72703","zip+4": "0000","phone": "4794439267"}
{"name": "WAL-MART PHARMACY #100261","address1": "4019 CENTRAL AVENUE","address2": "","city": "HOT SPRINGS","state": "AR","zip": "71913","zip+4": "0000","phone": "5016237689"}
{"name": "CLINTON DRUG","address1": "2526 HWY 65 S","address2": "STE 101","city": "CLINTON","state": "AR","zip": "72031","zip+4": "0000","phone": "5017458414"}
{"name": "COLLIER DRUG PRAIRE GROVE","address1": "801 E DOUGLAS","address2": "","city": "PRAIRIE GROVE","state": "AR","zip": "72753","zip+4": "0000","phone": "4798462195"}
{"name": "WAL-MART PHARMACY #100085","address1": "17309 I-30","address2": "","city": "BENTON","state": "AR","zip": "72015","zip+4": "0000","phone": "5017785041"}
{"name": "WAL-MART PHARMACY #100127","address1": "1910 MARTIN LUTHER KING BLVD","address2": "","city": "MALVERN","state": "AR","zip": "72104","zip+4": "0000","phone": "5013371170"}
{"name": "PILE DRUG STORE","address1": "116 SOUTH MAIN STREET","address2": "","city": "NASHVILLE","state": "AR","zip": "71852","zip+4": "2497","phone": "8708451565"}
{"name": "HEALTH CARE PHARMACY","address1": "10 HOSPITAL DR","address2": "","city": "MORRILTON","state": "AR","zip": "72110","zip+4": "4500","phone": "5013541460"}
{"name": "WAL-MART PHARMACY #100062","address1": "3700 EAST HWY 18","address2": "","city": "BLYTHEVILLE","state": "AR","zip": "72315","zip+4": "0000","phone": "8707631013"}
{"name": "CHAMBERS DRUG INC","address1": "630 W MAIN ST","address2": "","city": "JACKSONVILLE","state": "AR","zip": "72076","zip+4": "4498","phone": "5019822117"}
{"name": "GRIFFINS PHARMACY","address1": "239 MAIN ST","address2": "","city": "STAMPS","state": "AR","zip": "71860","zip+4": "2827","phone": "8705334351"}
{"name": "BILLS PHARMACY","address1": "601 MAIN ST","address2": "","city": "AUGUSTA","state": "AR","zip": "72006","zip+4": "0270","phone": "8703472620"}
{"name": "CORNERSTONE PHARMACY AT GREERS","address1": "8470 EDGEMONT RD","address2": "","city": "GREERS FERRY","state": "AR","zip": "72067","zip+4": "1291","phone": "5018256265"}
{"name": "CITY PHARMACY","address1": "1801 S BROADWAY","address2": "","city": "LITTLE ROCK","state": "AR","zip": "72206","zip+4": "0000","phone": "5013746565"}
{"name": "HONS SAV ON DRUG","address1": "1610 HARRISON ST","address2": "","city": "BATESVILLE","state": "AR","zip": "72501","zip+4": "7301","phone": "8707934770"}
{"name": "WAL-MART PHARMACY #100125","address1": "2425 SOUTH ZERO ST","address2": "","city": "FORT SMITH","state": "AR","zip": "72901","zip+4": "0000","phone": "4796464983"}
{"name": "WAL-MART PHARMACY #100071","address1": "1415 HWY 67 SOUTH","address2": "","city": "POCAHONTAS","state": "AR","zip": "72455","zip+4": "0000","phone": "8708924441"}
{"name": "BUERKLE DRUG COMPANY","address1": "202 S MAIN ST","address2": "","city": "STUTTGART","state": "AR","zip": "72160","zip+4": "4355","phone": "8706733784"}
{"name": "GIBSONS PHARMACY OF JONESBORO","address1": "403 E MATTHEWS AVE","address2": "","city": "JONESBORO","state": "AR","zip": "72401","zip+4": "3142","phone": "8709729125"}
{"name": "VILLAGE PHARMACY","address1": "500 W COMMERCIAL ST","address2": "","city": "OZARK","state": "AR","zip": "72949","zip+4": "3198","phone": "4796672101"}
{"name": "HARRIS DRUG STORE","address1": "205 W DEQUEEN AVE","address2": "","city": "DE QUEEN","state": "AR","zip": "71832","zip+4": "2897","phone": "8705843555"}
{"name": "DL BAKER DRUG CO","address1": "4133 E BROADWAY ST","address2": "","city": "NO LITTLE ROCK","state": "AR","zip": "72117","zip+4": "4120","phone": "5019453264"}
{"name": "WAL-MART PHARMACY #100388","address1": "2100 NO 62ND ST","address2": "","city": "FT. SMITH","state": "AR","zip": "72904","zip+4": "0000","phone": "4797820606"}
{"name": "WAL-MART PHARMACY #100141","address1": "8301 ROGERS AVENUE","address2": "","city": "FORT SMITH","state": "AR","zip": "72903","zip+4": "0000","phone": "4794523695"}
{"name": "EAST END PHARMACY","address1": "20381 ARCH ST","address2": "","city": "LITTLE ROCK","state": "AR","zip": "72206","zip+4": "0000","phone": "5018882830"}
{"name": "DELTA DRUG OF DERMOTT INC","address1": "111 E PEDDICORD ST","address2": "PO DRAWER 348","city": "DERMOTT","state": "AR","zip": "71638","zip+4": "0348","phone": "8705385510"}
{"name": "WATSON PHARMACY INC","address1": "908 W 4TH ST","address2": "","city": "FORDYCE","state": "AR","zip": "71742","zip+4": "2299","phone": "8703522161"}
{"name": "WAL-MART PHARMACY #100074","address1": "1051 WEST KEISER AVENUE","address2": "","city": "OSCEOLA","state": "AR","zip": "72370","zip+4": "0000","phone": "8705636633"}
{"name": "ROSE DRUGS","address1": "1211 E WALNUT ST","address2": "","city": "PARIS","state": "AR","zip": "72855","zip+4": "4125","phone": "4799636400"}
{"name": "AUSTIN DRUGS","address1": "118 E MAIN NE","address2": "","city": "GRAVETTE","state": "AR","zip": "72736","zip+4": "0000","phone": "4797875432"}
{"name": "BRYANTS PHARMACY","address1": "2000 HARRISON ST","address2": "","city": "BATESVILLE","state": "AR","zip": "72501","zip+4": "7413","phone": "8707933999"}
{"name": "BLANFORD PHARMACY","address1": "5 SAINT VINCENT CIR","address2": "STE 110","city": "LITTLE ROCK","state": "AR","zip": "72205","zip+4": "5412","phone": "5016644466"}
{"name": "KROGER PHARMACY #25615","address1": "315 NORTH SHACKLEFORD","address2": "","city": "LITTLE ROCK","state": "AR","zip": "72211","zip+4": "0000","phone": "5012243872"}
{"name": "WAL-MART PHARMACY #100157","address1": "3509 EAST RACE AVENUE","address2": "","city": "SEARCY","state": "AR","zip": "72143","zip+4": "0000","phone": "5012684946"}
{"name": "STONEWOOD VILLAGE PHARMACY","address1": "7320 ROGERS AVE","address2": "SUITE 18","city": "FT SMITH","state": "AR","zip": "72903","zip+4": "4164","phone": "4794528290"}
{"name": "OAK PARK PHARMACY","address1": "1305 WHITE DR","address2": "","city": "BATESVILLE","state": "AR","zip": "72501","zip+4": "9467","phone": "8706981974"}
{"name": "TEASLEY DRUG","address1": "205 ATLANTA SE ST","address2": "","city": "GRAVETTE","state": "AR","zip": "72736","zip+4": "0000","phone": "4797875966"}
{"name": "SUPER SAV DRUG #2","address1": "1125 W 2ND","address2": "","city": "WALDRON","state": "AR","zip": "72958","zip+4": "0000","phone": "4796374197"}
{"name": "WAL-MART PHARMACY #100468","address1": "133 ARKANSAS BLVD","address2": "","city": "TEXARKANA","state": "AR","zip": "71854","zip+4": "0000","phone": "8707727872"}
{"name": "M AND S PHARMACY","address1": "415 HOSPITAL DR","address2": "STE 2","city": "CAMDEN","state": "AR","zip": "71701","zip+4": "4694","phone": "8708362212"}
{"name": "SMEE DRUG STORE","address1": "32 W MAIN ST","address2": "","city": "BOONEVILLE","state": "AR","zip": "72927","zip+4": "3635","phone": "4796752306"}
{"name": "FAMILY PHARMACY","address1": "810 S MAIN ST","address2": "","city": "HOPE","state": "AR","zip": "71801","zip+4": "6523","phone": "8707772263"}
{"name": "WAL-MART PHARMACY #100076","address1": "1000 WEST TRIMBLE","address2": "","city": "BERRYVILLE","state": "AR","zip": "72616","zip+4": "0000","phone": "8704236611"}
{"name": "RHEA DRUGSTORE INC","address1": "2801 KAVANAUGH BLVD","address2": "","city": "LITTLE ROCK","state": "AR","zip": "72205","zip+4": "3896","phone": "5016634131"}
{"name": "FREDS PHARMACY #1291","address1": "245 EAST OAK STREET","address2": "","city": "CONWAY","state": "AR","zip": "72032","zip+4": "0000","phone": "5013294067"}
{"name": "WAL-MART PHARMACY #100119","address1": "3150 HARRISON STREET","address2": "","city": "BATESVILLE","state": "AR","zip": "72501","zip+4": "0000","phone": "8707934464"}
{"name": "NORTHPARK PHARMACY INC","address1": "821 N MAPLE","address2": "","city": "DE QUEEN","state": "AR","zip": "71832","zip+4": "0000","phone": "8706423784"}
{"name": "PRICE CUTTER PHARMACY #108","address1": "1109 S THOMPSON","address2": "","city": "SPRINGDALE","state": "AR","zip": "72765","zip+4": "0000","phone": "4797510464"}
{"name": "WAL-MART PHARMACY #100002","address1": "1417 HWY 62/65 N","address2": "","city": "HARRISON","state": "AR","zip": "72601","zip+4": "0000","phone": "8707412327"}
{"name": "WAL-MART PHARMACY #100011","address1": "65 WAL-MART DRIVE","address2": "","city": "MOUNTAIN HOME","state": "AR","zip": "72653","zip+4": "0000","phone": "8704927733"}
{"name": "MARSHALL ROAD PHARMACY","address1": "811 MARSHALL RD","address2": "","city": "JACKSONVILLE","state": "AR","zip": "72076","zip+4": "3744","phone": "5019823551"}
{"name": "NASHVILLE DRUG COMPANY INC","address1": "100 S MAIN ST","address2": "","city": "NASHVILLE","state": "AR","zip": "71852","zip+4": "2499","phone": "8708452722"}
{"name": "ROSE DRUG OF RUSSELLVILLE INC","address1": "3103 W MAIN PL","address2": "","city": "RUSSELLVILLE","state": "AR","zip": "72801","zip+4": "3398","phone": "4799681323"}
{"name": "KMART PHARMACY #7356","address1": "2010 SOUTH CARAWAY ROAD","address2": "","city": "JONESBORO","state": "AR","zip": "72401","zip+4": "0000","phone": "8709726926"}
{"name": "WAL-MART PHARMACY #100005","address1": "1155 HWY 65 NORTH","address2": "","city": "CONWAY","state": "AR","zip": "72032","zip+4": "0000","phone": "5013291592"}
{"name": "WAL-MART PHARMACY #100045","address1": "1815 EAST HIGHLAND DRIVE","address2": "","city": "JONESBORO","state": "AR","zip": "72401","zip+4": "0000","phone": "8709721838"}
{"name": "WAL-MART PHARMACY #100068","address1": "800 HWY 64 EAST","address2": "","city": "WYNNE","state": "AR","zip": "72396","zip+4": "0000","phone": "8702387146"}
{"name": "WAL-MART PHARMACY #100167","address1": "910 UNITY ROAD","address2": "","city": "CROSSETT","state": "AR","zip": "71635","zip+4": "0000","phone": "8703647205"}
{"name": "WAL-MART PHARMACY #100070","address1": "798 WEST SERVICE ROAD","address2": "","city": "WEST MEMPHIS","state": "AR","zip": "72301","zip+4": "0000","phone": "8707352324"}
{"name": "WAL-MART PHARMACY #100279","address1": "926 E. COLLIN RAYE DR.","address2": "","city": "DE QUEEN","state": "AR","zip": "71832","zip+4": "0000","phone": "8706426921"}
{"name": "BURNS DRUG STORE INC","address1": "615 W COMMERCIAL ST","address2": "","city": "OZARK","state": "AR","zip": "72949","zip+4": "3196","phone": "4796673131"}
{"name": "FREDS PHARMACY #2041","address1": "428 S JAMES STREET","address2": "","city": "JACKSONVILLE","state": "AR","zip": "72076","zip+4": "0000","phone": "5019851535"}
{"name": "TOMMYS REXALL DRUG COMPANY","address1": "220 COURT SQUARE","address2": "","city": "DEWITT","state": "AR","zip": "72042","zip+4": "0000","phone": "8709464221"}
{"name": "ECONO MART PHARMACY INC","address1": "1595 HARRISON ST","address2": "","city": "BATESVILLE","state": "AR","zip": "72501","zip+4": "7298","phone": "8707934179"}
{"name": "WAL-MART PHARMACY #100788","address1": "1966 HWY 65 SOUTH","address2": "","city": "CLINTON","state": "AR","zip": "72031","zip+4": "0000","phone": "5017452888"}
{"name": "WAL-MART PHARMACY #100024","address1": "2000 JOHN HARDEN DR","address2": "","city": "JACKSONVILLE","state": "AR","zip": "72076","zip+4": "0000","phone": "5019823357"}
{"name": "KENS SAV ON DRUG","address1": "2221 BEEBE-CAPPS EXPY","address2": "","city": "SEARCY","state": "AR","zip": "72143","zip+4": "0000","phone": "5012681120"}
{"name": "MARMADUKE FAMILY PHARMACY","address1": "11901 HWY 49 N","address2": "","city": "MARMADUKE","state": "AR","zip": "72443","zip+4": "0000","phone": "8705972911"}
{"name": "ATKINS FAMILY PHARMACY #1085","address1": "408 N CHURCH STREET","address2": "","city": "ATKINS","state": "AR","zip": "72823","zip+4": "0000","phone": "4796417878"}
{"name": "WAL-MART PHARMACY #100160","address1": "219 HIGHWAY 412","address2": "","city": "ASH FLAT","state": "AR","zip": "72513","zip+4": "0000","phone": "8709942152"}
{"name": "WAL-MART PHARMACY #100126","address1": "700 SOUTH BOWMAN BLV","address2": "","city": "LITTLE ROCK","state": "AR","zip": "72211","zip+4": "0000","phone": "5012210096"}
{"name": "WAL-MART PHARMACY #100036","address1": "2802 WEST KINGS HIGHWAY","address2": "","city": "PARAGOULD","state": "AR","zip": "72450","zip+4": "0000","phone": "8702367785"}
{"name": "WAL-MART PHARMACY #100230","address1": "1501 EAST WALNUT STREET","address2": "","city": "PARIS","state": "AR","zip": "72855","zip+4": "0000","phone": "4799632189"}
{"name": "WAL-MART PHARMACY #100016","address1": "2214 FAYETTEVILLE RD","address2": "","city": "VAN BUREN","state": "AR","zip": "72956","zip+4": "0000","phone": "4794745051"}
{"name": "WAL-MART PHARMACY #100209","address1": "1516 NORTH 18TH STREET","address2": "","city": "OZARK","state": "AR","zip": "72949","zip+4": "0000","phone": "4796674448"}
{"name": "MEDIC PHARMACY INC","address1": "704 W FAULKNER ST","address2": "","city": "EL DORADO","state": "AR","zip": "71730","zip+4": "0000","phone": "8708624931"}
{"name": "WYNNE APOTHECARY INC","address1": "411 S FALLS BLVD","address2": "","city": "WYNNE","state": "AR","zip": "72396","zip+4": "0000","phone": "8702388511"}
{"name": "SAM ALEXANDER PHARMACY","address1": "127 N MAIN ST","address2": "","city": "HARRISON","state": "AR","zip": "72601","zip+4": "0000","phone": "8707416511"}
{"name": "ARGENTA DRUG COMPANY","address1": "324 MAIN STREET","address2": "","city": "NORTH LITTLE ROCK","state": "AR","zip": "72114","zip+4": "0000","phone": "5013744851"}
{"name": "WOODS PHARMACY","address1": "301 W MAIN ST","address2": "","city": "MOUNTAIN VIEW","state": "AR","zip": "72560","zip+4": "1229","phone": "8702693253"}
{"name": "HEALTH-WAY SAVE-ON DRUGS","address1": "1903 DEWITT HENRY DR","address2": "","city": "BEEBE","state": "AR","zip": "72012","zip+4": "2028","phone": "5018826471"}
{"name": "COLLIER DRUG FARMINGTON","address1": "197 E MAIN","address2": "","city": "FARMINGTON","state": "AR","zip": "72730","zip+4": "0000","phone": "4795217875"}
{"name": "PRINCE PHARMACY","address1": "211 E STADIUM DR","address2": "","city": "MAGNOLIA","state": "AR","zip": "71753","zip+4": "0000","phone": "8702347292"}
{"name": "BILLS PHARMACY","address1": "137 E VAN BUREN","address2": "","city": "EUREKA SPRINGS","state": "AR","zip": "72632","zip+4": "0000","phone": "4792539175"}
{"name": "FAMILY MEDICAL CENTER PHCY INC","address1": "4202 S UNIVERSITY AVE","address2": "","city": "LITTLE ROCK","state": "AR","zip": "72204","zip+4": "7857","phone": "5015623314"}
{"name": "KROGER PHARMACY #25590","address1": "3341 CENTRAL AVENUE","address2": "","city": "HOT SPRINGS","state": "AR","zip": "71901","zip+4": "0000","phone": "5016245542"}
{"name": "WAL-MART PHARMACY #100008","address1": "1621 NORTH BUSINESS 9","address2": "","city": "MORRILTON","state": "AR","zip": "72110","zip+4": "0000","phone": "5013544135"}
{"name": "THE PRESCRIPTION STORE","address1": "1115 W 4TH ST","address2": "","city": "FORDYCE","state": "AR","zip": "71742","zip+4": "2001","phone": "8703528631"}
{"name": "CALDWELL DISCOUNT DRUG CO #1","address1": "804 S FALLS BLVD","address2": "","city": "WYNNE","state": "AR","zip": "72396","zip+4": "0000","phone": "8702387085"}
{"name": "SUPER SAV DRUG #3","address1": "2215 ALMA HWY","address2": "","city": "VAN BUREN","state": "AR","zip": "72956","zip+4": "4824","phone": "4794745028"}
{"name": "WAL-MART PHARMACY #100296","address1": "1172 NO. HWY 7","address2": "","city": "DARDANELLE","state": "AR","zip": "72834","zip+4": "0000","phone": "4792292157"}
{"name": "WAL-MART PHARMACY #100281","address1": "1500 HWY 25B NORTH","address2": "","city": "HEBER SPRINGS","state": "AR","zip": "72543","zip+4": "0000","phone": "5013625837"}
{"name": "WAL-MART PHARMACY #101065","address1": "2400 N HERVEY ST","address2": "","city": "HOPE","state": "AR","zip": "71801","zip+4": "0000","phone": "8707771600"}
{"name": "SUPER D DRUGS #145","address1": "306 N 6TH STREET","address2": "","city": "BLYTHEVILLE","state": "AR","zip": "72315","zip+4": "0000","phone": "8707634507"}
{"name": "ANDERSONS DISCOUNT PHARMACY","address1": "700 LEXINGTON AVE","address2": "","city": "FT SMITH","state": "AR","zip": "72901","zip+4": "0000","phone": "4797822881"}
{"name": "ELMO HANEYS PHARMACY","address1": "201 E MAIN ST","address2": "","city": "ATKINS","state": "AR","zip": "72823","zip+4": "4527","phone": "4796411147"}
{"name": "WAL-MART PHARMACY #101114","address1": "409 SYLAMORE AVENUE","address2": "","city": "MOUNTAIN VIEW","state": "AR","zip": "72560","zip+4": "0000","phone": "8702694295"}
{"name": "WAL-MART PHARMACY #101147","address1": "168 WALMART DRIVE","address2": "","city": "FLIPPIN","state": "AR","zip": "72634","zip+4": "0000","phone": "8704538831"}
{"name": "WAL-MART PHARMACY #101105","address1": "4450 EAST MCCAIN BLVD","address2": "","city": "NORTH LITTLE ROCK","state": "AR","zip": "72117","zip+4": "0000","phone": "5019459400"}
{"name": "WAL-MART PHARMACY #100169","address1": "322 BROWNSVILLE LOOP","address2": "","city": "LONOKE","state": "AR","zip": "72086","zip+4": "0000","phone": "5016763184"}
{"name": "FREDS PHARMACY #2916","address1": "2706 EAST RACE STREET","address2": "","city": "SEARCY","state": "AR","zip": "72143","zip+4": "0000","phone": "5012680300"}
{"name": "FREDS PHARMACY #2421","address1": "1705 MALCOLM","address2": "","city": "NEWPORT","state": "AR","zip": "72112","zip+4": "0000","phone": "8705239228"}
{"name": "FREDS PHARMACY #1421","address1": "808 WEST COLLIN RAYE DR","address2": "","city": "DEQUEEN","state": "AR","zip": "71832","zip+4": "0000","phone": "8706428021"}
{"name": "WEINER PHARMACY","address1": "212 N VAN BUREN","address2": "","city": "WEINER","state": "AR","zip": "72479","zip+4": "0412","phone": "8706842214"}
{"name": "HUDSON PHARMACY","address1": "1609 MAIN ST","address2": "","city": "VAN BUREN","state": "AR","zip": "72956","zip+4": "4735","phone": "4794741193"}
{"name": "GARYS PHARMACY","address1": "322 HWY 463 SOUTH","address2": "","city": "TRUMANN","state": "AR","zip": "72472","zip+4": "3114","phone": "8704836325"}
{"name": "MEDICAL CENTER PHARMACY","address1": "421 W MAIN ST","address2": "","city": "TRUMANN","state": "AR","zip": "72472","zip+4": "3116","phone": "8704836391"}
{"name": "WAL-MART PHARMACY #100102","address1": "406 E 22ND STREET","address2": "","city": "STUTTGART","state": "AR","zip": "72160","zip+4": "0000","phone": "8706731834"}
{"name": "NATIONAL PARK PHARMACY","address1": "1534 MALVERN AVE","address2": "STE B","city": "HOT SPRINGS","state": "AR","zip": "71901","zip+4": "6535","phone": "5016232280"}
{"name": "LEACHVILLE DISCOUNT DRUG","address1": "109 MAIN ST","address2": "","city": "LEACHVILLE","state": "AR","zip": "72438","zip+4": "9748","phone": "8705396831"}
{"name": "ARCH STREET PHARMACY","address1": "11200 ARCH ST","address2": "","city": "LITTLE ROCK","state": "AR","zip": "72206","zip+4": "0000","phone": "5012617181"}
{"name": "CITY PHARMACY OF SPRINGDALE IN","address1": "701A SOUTH THOMPSON STREET","address2": "","city": "SPRINGDALE","state": "AR","zip": "72764","zip+4": "0000","phone": "4797512072"}
{"name": "WAL-MART PHARMACY #100055","address1": "1555 EAST MAIN","address2": "","city": "BOONEVILLE","state": "AR","zip": "72927","zip+4": "0000","phone": "4796755341"}
{"name": "USA DRUG EXPRESS #1044","address1": "215 NORTH BOWMAN ROAD","address2": "","city": "LITTLE ROCK","state": "AR","zip": "72211","zip+4": "0000","phone": "5012213666"}
{"name": "DRUG EMPORIUM #240","address1": "9112 N RODNEY PARHAM RD","address2": "STE 110","city": "LITTLE ROCK","state": "AR","zip": "72205","zip+4": "1663","phone": "5012232262"}
{"name": "WAGNER'S MOUNT IDA PHARMACY","address1": "734 HWY 270 E","address2": "","city": "MT IDA","state": "AR","zip": "71957","zip+4": "0066","phone": "8708673174"}
{"name": "SEXTON PHARMACY","address1": "218 W MAIN ST","address2": "","city": "WALNUT RIDGE","state": "AR","zip": "72476","zip+4": "0469","phone": "8708863461"}
{"name": "THOMAS LAKESIDE PHARMACY","address1": "902 CENTRAL BLVD","address2": "","city": "BULL SHOALS","state": "AR","zip": "72619","zip+4": "0000","phone": "8704457188"}
{"name": "WAL-MART PHARMACY #100033","address1": "1710 SO. 4TH ST","address2": "","city": "NASHVILLE","state": "AR","zip": "71852","zip+4": "0000","phone": "8708451573"}
{"name": "WAL-MART PHARMACY #100018","address1": "2500 MALCOLM ST/HWY 67 NORTH","address2": "","city": "NEWPORT","state": "AR","zip": "72112","zip+4": "0000","phone": "8705232383"}
{"name": "PEOPLES HEALTH MART INC","address1": "401 N 2ND ST","address2": "","city": "ASHDOWN","state": "AR","zip": "71822","zip+4": "0000","phone": "8708982400"}
{"name": "RECTOR DOWNTOWN DRUG","address1": "403 S MAIN ST","address2": "","city": "RECTOR","state": "AR","zip": "72461","zip+4": "1706","phone": "8705953523"}
{"name": "WAL-MART PHARMACY #100007","address1": "3801 CAMP ROBINSON RD","address2": "","city": "NORTH LITTLE ROCK","state": "AR","zip": "72118","zip+4": "0000","phone": "5017536454"}
{"name": "WAL-MART PHARMACY #100066","address1": "1230 MARKET STREET","address2": "","city": "CLARKSVILLE","state": "AR","zip": "72830","zip+4": "0000","phone": "4797546169"}
{"name": "MCHANEY DRUG PA","address1": "1400 W HUNT ST","address2": "","city": "PARAGOULD","state": "AR","zip": "72450","zip+4": "3574","phone": "8702367323"}
{"name": "HEALTH CARE PHARMACY INC","address1": "3401 ATWOOD RD STE F","address2": "","city": "LITTLE ROCK","state": "AR","zip": "72206","zip+4": "6012","phone": "5018887514"}
{"name": "WOODARD DRUG","address1": "210 E BROADWAY","address2": "","city": "GLENWOOD","state": "AR","zip": "71943","zip+4": "0000","phone": "8703562193"}
{"name": "DECATUR DISCOUNT PHARMACY","address1": "154 MAIN STREET","address2": "","city": "DECATUR","state": "AR","zip": "72722","zip+4": "0000","phone": "4797525888"}
{"name": "WAL-MART PHARMACY #100057","address1": "1600 WEST MAIN","address2": "","city": "WALNUT RIDGE","state": "AR","zip": "72476","zip+4": "0000","phone": "8708862806"}
{"name": "DARLING PHARMACY","address1": "1303 MCLAIN ST","address2": "","city": "NEWPORT","state": "AR","zip": "72112","zip+4": "3633","phone": "8705235888"}
{"name": "CLINIC DRUG STORE INC","address1": "1700 HARRISON ST","address2": "STE D","city": "BATESVILLE","state": "AR","zip": "72501","zip+4": "0000","phone": "8707935170"}
{"name": "HARPS PHARMACY #176","address1": "1189 NORTH GARLAND","address2": "","city": "FAYETTEVILLE","state": "AR","zip": "72703","zip+4": "0000","phone": "4794447967"}
{"name": "FAIRFIELD BAY PHARMACY","address1": "367 DAVE CREEK PKWY","address2": "","city": "FAIRFIELD BAY","state": "AR","zip": "72088","zip+4": "0000","phone": "5018843388"}
{"name": "MEDICINE SHOPPE #1064","address1": "116 HIGHWAY 201 NORTH","address2": "","city": "MOUNTAIN HOME","state": "AR","zip": "72653","zip+4": "0000","phone": "8704244010"}
{"name": "HYDE PHARMACY INC","address1": "1001 W KINGS HIGHWAY","address2": "","city": "PARAGOULD","state": "AR","zip": "72450","zip+4": "4638","phone": "8702394036"}
{"name": "FREDS PHARMACY #1621","address1": "2227 NORTH WASHINGTON","address2": "","city": "FORREST CITY","state": "AR","zip": "72335","zip+4": "0000","phone": "8706336015"}
{"name": "KROGER PHARMACY #25616","address1": "14000 CANTRELL RD","address2": "","city": "LITTLE ROCK","state": "AR","zip": "72212","zip+4": "0000","phone": "5012256006"}
{"name": "ALMA PHARMACY","address1": "108 HIGHWAY 71 NORTH","address2": "SUITE 105","city": "ALMA","state": "AR","zip": "72921","zip+4": "3201","phone": "4796322011"}
{"name": "KMART PHARMACY #3933","address1": "1 KMART PLAZA STATE HWY 89","address2": "","city": "CABOT","state": "AR","zip": "72023","zip+4": "0000","phone": "5018436265"}
{"name": "VILLAGE HEALTH MART DRUG #2","address1": "399 PONCE DELEON DR","address2": "STE 2","city": "HOT SPRINGS VILLAG","state": "AR","zip": "71909","zip+4": "5011","phone": "5019220909"}
{"name": "HARPS PHARMACY #174","address1": "3401 SOUTH 74TH","address2": "","city": "FORT SMITH","state": "AR","zip": "72903","zip+4": "0000","phone": "4794520993"}
{"name": "CAVE CITY PHARMACY #1","address1": "301 SOUTH MAIN","address2": "SUITE C","city": "CAVE CITY","state": "AR","zip": "72521","zip+4": "0147","phone": "8702835589"}
{"name": "MELVINS DISCOUNT PHARMACY","address1": "828 W HILLSBORO ST","address2": "","city": "EL DORADO","state": "AR","zip": "71730","zip+4": "0000","phone": "8708634155"}
{"name": "FREDS PHARMACY #2391","address1": "1201 HIGHWAY 71 SOUTH","address2": "","city": "MENA","state": "AR","zip": "71953","zip+4": "0000","phone": "4793947136"}
{"name": "USA DRUG #6","address1": "2300 WEST SUNSET","address2": "","city": "SPRINGDALE","state": "AR","zip": "72762","zip+4": "0000","phone": "4797566464"}
{"name": "PRICE CUTTER PHARMACY #107","address1": "805 WEST MAIN","address2": "","city": "CABOT","state": "AR","zip": "72023","zip+4": "0000","phone": "5018433374"}
{"name": "MEDICINE SHOPPE #0618","address1": "325 SOUTHWEST DR","address2": "","city": "JONESBORO","state": "AR","zip": "72401","zip+4": "0000","phone": "8709351340"}
{"name": "MED CENTER PHARMACY","address1": "2901 MEDICAL CENTER DR","address2": "","city": "POCAHONTAS","state": "AR","zip": "72455","zip+4": "9438","phone": "8708924495"}
{"name": "FREDS PHARMACY #1201","address1": "1212 MILITARY HIGHWAY","address2": "","city": "BENTON","state": "AR","zip": "72015","zip+4": "0000","phone": "5017782036"}
{"name": "JOHN AND FRANK PHARMACY","address1": "50 FRISCO ST","address2": "","city": "MARKED TREE","state": "AR","zip": "72365","zip+4": "2214","phone": "8703582484"}
{"name": "WAL-MART PHARMACY #100229","address1": "512 INDUSTRIAL DRIVE","address2": "","city": "TRUMANN","state": "AR","zip": "72472","zip+4": "0000","phone": "8704836157"}
{"name": "MEDICINE SHOPPE #1172","address1": "343 S JAMES","address2": "","city": "JACKSONVILLE","state": "AR","zip": "72076","zip+4": "4315","phone": "5019829433"}
{"name": "MONETTE DISCOUNT DRUG INC","address1": "214 W DREW AVE","address2": "","city": "MONETTE","state": "AR","zip": "72447","zip+4": "0487","phone": "8704862111"}
{"name": "FREDS PHARMACY #2261","address1": "601 N ST JOSEPH HWY 9","address2": "","city": "MORRILTON","state": "AR","zip": "72110","zip+4": "0000","phone": "4793544669"}
{"name": "CANTRELL DRUG COMPANY INC","address1": "7524 CANTRELL RD","address2": "","city": "LITTLE ROCK","state": "AR","zip": "72207","zip+4": "2591","phone": "5016662020"}
{"name": "WAL-MART PHARMACY #100373","address1": "EAST LEE STREET","address2": "","city": "HUNTSVILLE","state": "AR","zip": "72740","zip+4": "0000","phone": "4797381270"}
{"name": "CRAWFORD PHARMACY","address1": "107 CRAWFORD DR","address2": "","city": "HOT SPRINGS","state": "AR","zip": "71913","zip+4": "0000","phone": "5016244636"}
{"name": "FREDS PHARMACY #1896","address1": "535 NORTH HERVEY","address2": "","city": "HOPE","state": "AR","zip": "71801","zip+4": "0000","phone": "8707771402"}
{"name": "SAVON PHARMACY #4111","address1": "3710 N STATE LINE AVE","address2": "","city": "TEXARKANA","state": "AR","zip": "71854","zip+4": "0000","phone": "8707735521"}
{"name": "THE DRUG STORE INC","address1": "11715 RAINWOOD RD","address2": "STE B 1","city": "LITTLE ROCK","state": "AR","zip": "72212","zip+4": "3951","phone": "5012232636"}
{"name": "HARPS PHARMACY #119","address1": "2894 WEST SUNSET","address2": "","city": "SPRINGDALE","state": "AR","zip": "72765","zip+4": "0000","phone": "4797510882"}
{"name": "SAV MART PHARMACY","address1": "1007 HIGHWAY 65 S","address2": "","city": "MCGEHEE","state": "AR","zip": "71654","zip+4": "0000","phone": "8702226676"}
{"name": "DEANS PHARMACY","address1": "1640 S WHITEHEAD DR","address2": "","city": "DEWITT","state": "AR","zip": "72042","zip+4": "0000","phone": "8709462381"}
{"name": "DRUG MART","address1": "712 HOLLY ST","address2": "","city": "MC GEHEE","state": "AR","zip": "71654","zip+4": "2109","phone": "8702223080"}
{"name": "FREDS PHARMACY #1806","address1": "308 SOUTH 7TH STREET","address2": "","city": "HEBER SPRINGS","state": "AR","zip": "72543","zip+4": "0000","phone": "5013626514"}
{"name": "PHARMACY EXPRESS","address1": "1515 FAYETTVILLE RD","address2": "","city": "VAN BUREN","state": "AR","zip": "72956","zip+4": "2246","phone": "4794747171"}
{"name": "SUPER D EXPRESS RX #42","address1": "1340 HIGDON FERRY ROAD","address2": "","city": "HOT SPRINGS","state": "AR","zip": "71913","zip+4": "0000","phone": "5016238787"}
{"name": "WAL-MART PHARMACY #100124","address1": "8801 BASELINE ROAD","address2": "","city": "LITTLE ROCK","state": "AR","zip": "72209","zip+4": "0000","phone": "5015651164"}
{"name": "DOLORESS FAMILY PHARMACY","address1": "1008 E CHURCH ST","address2": "","city": "WARREN","state": "AR","zip": "71671","zip+4": "0000","phone": "8702269800"}
{"name": "WAL-MART PHARMACY #100289","address1": "US 65 SOUTH","address2": "","city": "MCGEHEE","state": "AR","zip": "71654","zip+4": "0000","phone": "8702226233"}
{"name": "STONES PHARMACY INC","address1": "417 E MATTHEWS AVE","address2": "","city": "JONESBORO","state": "AR","zip": "72401","zip+4": "3142","phone": "8709355538"}
{"name": "FREDS PHARMACY #2806","address1": "3303 W MAIN PLACE","address2": "SKYLINE S/C HWY 64","city": "RUSSELLVILLE","state": "AR","zip": "72801","zip+4": "0000","phone": "4799683540"}
{"name": "FREDS PHARMACY #1046","address1": "28TH AND PINE HWY 8","address2": "","city": "ARKADELPHIA","state": "AR","zip": "71923","zip+4": "0000","phone": "8702466751"}
{"name": "HOLLYS HEALTH MART","address1": "1430 W 1ST ST N","address2": "","city": "PRESCOTT","state": "AR","zip": "71857","zip+4": "0000","phone": "8708872717"}
{"name": "WAL-MART PHARMACY #100714","address1": "602 SHELIA STREET","address2": "","city": "WEST HELENA","state": "AR","zip": "72390","zip+4": "0000","phone": "8705726741"}
{"name": "WAL-MART PHARMACY #100128","address1": "1911 WEST PARKER RD","address2": "","city": "JONESBORO","state": "AR","zip": "72404","zip+4": "0000","phone": "8709721060"}
{"name": "USA DRUG #7","address1": "1105 WEST MAIN SUITE C","address2": "","city": "RUSSELVILLE","state": "AR","zip": "72801","zip+4": "0000","phone": "4799673738"}
{"name": "WAL-MART PHARMACY #100235","address1": "1900 WEST MAIN","address2": "","city": "CORNING","state": "AR","zip": "72422","zip+4": "0000","phone": "8708573411"}
{"name": "USA DRUG EXPRESS #8","address1": "424 CALIFORNIA","address2": "","city": "CAMDEN","state": "AR","zip": "71701","zip+4": "0000","phone": "8708364157"}
{"name": "KMART PHARMACY #9711","address1": "2821 E MAIN ST","address2": "","city": "RUSSELLVILLE","state": "AR","zip": "72802","zip+4": "9662","phone": "4799677301"}
{"name": "WAL-MART PHARMACY #102203","address1": "702 SW 8TH STREET","address2": "","city": "BENTONVILLE","state": "AR","zip": "72712","zip+4": "0000","phone": "4792734941"}
{"name": "JUNCTION CITY PHARMACY","address1": "500 N MAIN ST","address2": "","city": "JUNCTION CITY","state": "AR","zip": "71749","zip+4": "0000","phone": "8709244018"}
{"name": "TANGLEWOOD DRUG STORE","address1": "6815 CANTRELL RD","address2": "","city": "LITTLE ROCK","state": "AR","zip": "72207","zip+4": "0000","phone": "5016644444"}
{"name": "BROOKSHIRES PHARMACY #00000000","address1": "1600 FLORIDA","address2": "ATTENTION PHARMACY DEPT","city": "CROSSETT","state": "AR","zip": "71635","zip+4": "0000","phone": "8703648220"}
{"name": "BROOKSHIRES PHARMACY #00000000","address1": "2202 NORTH WEST AVENUE","address2": "ATTENTION PHARMACY DEPT","city": "EL DORADO","state": "AR","zip": "71730","zip+4": "0000","phone": "8708640107"}
{"name": "FREDS PHARMACY #2441","address1": "614 SOUTH MAIN STREET","address2": "","city": "NASHVILLE","state": "AR","zip": "71852","zip+4": "0000","phone": "8708454277"}
{"name": "FREDS PHARMACY #2281","address1": "438 SOUTH ALABAMA ST","address2": "","city": "MARIANNA","state": "AR","zip": "72360","zip+4": "0000","phone": "8702953405"}
{"name": "BEARDEN PHARMACY","address1": "26 N 1ST ST","address2": "","city": "BEARDEN","state": "AR","zip": "71720","zip+4": "0000","phone": "8706873814"}
{"name": "BROOKSHIRES PHARMACY #00000000","address1": "1623 EAST MAIN","address2": "ATTENTION PHARMACY DEPT","city": "MAGNOLIA","state": "AR","zip": "71753","zip+4": "0000","phone": "8702347073"}
{"name": "ALLCARE PHARMACY #15","address1": "1112 WINDOVER RD","address2": "","city": "JONESBORO","state": "AR","zip": "72401","zip+4": "3101","phone": "8709356364"}
{"name": "POLK PHARMACY","address1": "333 MADISON ST","address2": "","city": "CLARENDON","state": "AR","zip": "72029","zip+4": "2718","phone": "8707473304"}
{"name": "COLLIER DRUG NORTH HLLS","address1": "3380 N FUTRALL DR STE","address2": "STE 2","city": "FAYETTEVILLE","state": "AR","zip": "72703","zip+4": "0000","phone": "4794439200"}
{"name": "WAL-MART PHARMACY #100339","address1": "1123 HIGHWAY 79 167 BYPASS","address2": "","city": "FORDYCE","state": "AR","zip": "71742","zip+4": "0000","phone": "8703528034"}
{"name": "WAL-MART PHARMACY #100091","address1": "205 DEADRICK ROAD","address2": "","city": "FORREST CITY","state": "AR","zip": "72335","zip+4": "0000","phone": "8706330465"}
{"name": "WAL-MART PHARMACY #100336","address1": "1308 SOUTH ROCK STREET","address2": "","city": "SHERIDAN","state": "AR","zip": "72150","zip+4": "0000","phone": "8709425045"}
{"name": "FREDS PHARMACY #3246","address1": "826 N SEBASTIAN STREET","address2": "","city": "WEST HELENA","state": "AR","zip": "72390","zip+4": "0000","phone": "8705723996"}
{"name": "FREIDERICA PHARMACY","address1": "400 W CAPITOL AVE #100B","address2": "REGIONS CENTER","city": "LITTLE ROCK","state": "AR","zip": "72201","zip+4": "0000","phone": "5013742207"}
{"name": "HICKORY HILL PHARMACY","address1": "109 HICKORY HILL DR","address2": "","city": "HELENA","state": "AR","zip": "72342","zip+4": "0000","phone": "8703388351"}
{"name": "LITTLE ROCK COM MNTL HLTH","address1": "4400 SHUFIELD","address2": "","city": "LITTLE ROCK","state": "AR","zip": "72205","zip+4": "0000","phone": "5016869052"}
{"name": "SUPER 1 PHARMACY #0000000619","address1": "909 NORTH HERVEY","address2": "ATTENTION PHARMACY DEPT","city": "HOPE","state": "AR","zip": "71801","zip+4": "0000","phone": "8707776989"}
{"name": "BROOKSHIRES PHARMACY #00000000","address1": "1345 HWY 4 SPUR SW","address2": "ATTENTION PHARMACY DEPT","city": "CAMDEN","state": "AR","zip": "71701","zip+4": "0000","phone": "8708363324"}
{"name": "MEDICINE SHOPPE #1324","address1": "521 W MAIN ST","address2": "","city": "CABOT","state": "AR","zip": "72023","zip+4": "2402","phone": "5018435846"}
{"name": "MEDICINE SHOPPE #1330","address1": "4545 HIGHWAY 7N","address2": "","city": "HOT SPRINGS VILLAG","state": "AR","zip": "71910","zip+4": "0000","phone": "5019846101"}
{"name": "MEDICINE SHOPPE #1686","address1": "324 W PERSHING BLVD","address2": "","city": "NORTH LITTLE ROCK","state": "AR","zip": "72114","zip+4": "2100","phone": "5017581010"}
{"name": "WAL-MART PHARMACY #100171","address1": "950 CALIFORNIA AVE","address2": "","city": "CAMDEN","state": "AR","zip": "71701","zip+4": "0000","phone": "8708360500"}
{"name": "WALGREEN DRUG STORE #3425","address1": "159 EAST GRAND AVE","address2": "","city": "HOT SPRINGS","state": "AR","zip": "71901","zip+4": "0000","phone": "5016246733"}
{"name": "WALGREEN DRUG STORE #3411","address1": "3631 N CENTRAL AVE","address2": "","city": "HOT SPRINGS","state": "AR","zip": "71913","zip+4": "0000","phone": "5016231241"}
{"name": "JASPER PHARMACY","address1": "200 W CHURCH ST","address2": "","city": "JASPER","state": "AR","zip": "72641","zip+4": "0520","phone": "8704465515"}
{"name": "KONDO DRUG STORE INC","address1": "1100 DR M L KING DR","address2": "","city": "LITTLE ROCK","state": "AR","zip": "72203","zip+4": "0000","phone": "5013753131"}
{"name": "KMART PHARMACY #7308","address1": "7434 ROGERS AVENUE","address2": "","city": "FORT SMITH","state": "AR","zip": "72903","zip+4": "0000","phone": "4794520353"}
{"name": "GARDEN OAKS PHARMACY","address1": "200 GARDEN OAKS CTR","address2": "","city": "CAMDEN","state": "AR","zip": "71701","zip+4": "3712","phone": "8708368176"}
{"name": "LOWERY DRUG MART #2","address1": "123 CENTRAL AVE","address2": "","city": "SEARCY","state": "AR","zip": "72143","zip+4": "7329","phone": "5012681900"}
{"name": "WALGREEN DRUG STORE #3412","address1": "5917 BASELINE RD","address2": "","city": "LITTLE ROCK","state": "AR","zip": "72209","zip+4": "0000","phone": "5015650357"}
{"name": "WAL-MART PHARMACY #100380","address1": "1359 WEST 2ND STREET","address2": "","city": "WALDRON","state": "AR","zip": "72958","zip+4": "0000","phone": "4796371186"}
{"name": "WALGREEN DRUG STORE #2774","address1": "346 W BROADWAY","address2": "","city": "WEST MEMPHIS","state": "AR","zip": "72301","zip+4": "0000","phone": "8707330558"}
{"name": "WALGREEN DRUG STORE #3416","address1": "4823 JFK BLVD","address2": "","city": "N LITTLE ROCK","state": "AR","zip": "72116","zip+4": "0000","phone": "5017711662"}
{"name": "WALGREEN DRUG STORE #3413","address1": "5525 W 12TH STREET","address2": "","city": "LITTLE ROCK","state": "AR","zip": "72204","zip+4": "0000","phone": "5016637580"}
{"name": "KROGER PHARMACY #25619","address1": "215 AIRPORT RD","address2": "","city": "HOT SPRINGS","state": "AR","zip": "71901","zip+4": "0000","phone": "5016232650"}
{"name": "USA DRUG EXPRESS #1045","address1": "701 WEST GROVE STREET","address2": "","city": "EL DORADO","state": "AR","zip": "71730","zip+4": "0000","phone": "8708818434"}
{"name": "MEDICINE MAN PHARMACY","address1": "2623 PIKE AVENUE","address2": "","city": "N LITTLE ROCK","state": "AR","zip": "72114","zip+4": "0000","phone": "5017587581"}
{"name": "COLLIER DRUG WILLOW CREEK","address1": "5201 WILLOW CREEK","address2": "","city": "JOHNSON","state": "AR","zip": "72741","zip+4": "0000","phone": "4795217876"}
{"name": "USA DRUG #15","address1": "2743 LAKEWOOD VILLAGE DRIVE","address2": "","city": "NORTH LITTLE ROCK","state": "AR","zip": "72116","zip+4": "0000","phone": "5017588723"}
{"name": "REDFIELD PHARMACY","address1": "1017 C HWY 46","address2": "","city": "REDFIELD","state": "AR","zip": "72132","zip+4": "0326","phone": "5013975400"}
{"name": "COLLIER DRUG PEA RIDGE","address1": "885 CURTIS AVE","address2": "","city": "PEA RIDGE","state": "AR","zip": "72751","zip+4": "0000","phone": "4794511112"}
{"name": "MEDICINE SHOPPE #1397","address1": "2080 HARRISON ST","address2": "SUITE A","city": "BATESVILLE","state": "AR","zip": "72501","zip+4": "0000","phone": "8707932161"}
{"name": "KROGER PHARMACY #25625","address1": "855 SALEM RD","address2": "","city": "CONWAY","state": "AR","zip": "72034","zip+4": "0000","phone": "5013293981"}
{"name": "FOOD GIANT DISCOUNT PHARMACY","address1": "605 N ILLINOIS ST","address2": "","city": "HARRISBURG","state": "AR","zip": "72432","zip+4": "0000","phone": "8705783277"}
{"name": "HARVEST FOOD PHARMACY","address1": "129 BONE ST","address2": "","city": "CLINTON","state": "AR","zip": "72031","zip+4": "0000","phone": "5017454266"}
{"name": "PLAINVIEW CORNER DRUG","address1": "102 WEST MAIN STREET","address2": "","city": "PLAINVIEW","state": "AR","zip": "72857","zip+4": "0000","phone": "4792724291"}
{"name": "MARSHALL MEDIC PHARMACY","address1": "243 HWY 65 N","address2": "","city": "MARSHALL","state": "AR","zip": "72650","zip+4": "0427","phone": "8704483614"}
{"name": "SMITHS COUNTRY CLUB DRUG STORE","address1": "5114 KAVANAUGH BLVD","address2": "","city": "LITTLE ROCK","state": "AR","zip": "72207","zip+4": "4699","phone": "5016634118"}
{"name": "WAL-MART PHARMACY #100133","address1": "297 HWY 32 BY PASS EAST","address2": "","city": "ASHDOWN","state": "AR","zip": "71822","zip+4": "0000","phone": "8708982142"}
{"name": "KROGER PHARMACY #25637","address1": "1410 MILITARY RD","address2": "","city": "BENTON","state": "AR","zip": "72015","zip+4": "0000","phone": "5013153434"}
{"name": "SAV-ON DRUGS","address1": "1014 HARKRIDER ST","address2": "","city": "CONWAY","state": "AR","zip": "72032","zip+4": "4471","phone": "5013276777"}
{"name": "STEWART DRUGS","address1": "202 SOUTH COKER","address2": "","city": "GREENWOOD","state": "AR","zip": "72936","zip+4": "0000","phone": "4799962818"}
{"name": "WAL-MART PHARMACY #100530","address1": "2730 NORTHWEST AVE","address2": "","city": "EL DORADO","state": "AR","zip": "71730","zip+4": "0000","phone": "8708624866"}
{"name": "CLARKS FAMILY PHARMACY","address1": "708 COMMERCE","address2": "","city": "EARLE","state": "AR","zip": "72331","zip+4": "0000","phone": "8707927177"}
{"name": "PRICE CUTTER PHARMACY #357","address1": "103 NORTH DIXIELAND ROAD","address2": "","city": "ROGERS","state": "AR","zip": "72756","zip+4": "0000","phone": "4796310210"}
{"name": "KROGER PHARMACY #25445","address1": "1525 S CARAWAY RD","address2": "","city": "JONESBORO","state": "AR","zip": "72401","zip+4": "0000","phone": "8709724739"}
{"name": "STANLEY PHARMACY","address1": "2007 W BEEBE CAPPS EXP","address2": "","city": "SEARCY","state": "AR","zip": "72143","zip+4": "0000","phone": "5012799525"}
{"name": "SMITH CALDWELL DRUG INC","address1": "414 N MAIN ST","address2": "","city": "BENTON","state": "AR","zip": "72015","zip+4": "0000","phone": "5013157700"}
{"name": "COUNTRY MART","address1": "611 W HWY 62 AND 65 NORTH","address2": "","city": "HARRISON","state": "AR","zip": "72601","zip+4": "0000","phone": "8707412118"}
{"name": "MORRISONS PHARMACY #0","address1": "1286 HIGHWAY 278","address2": "","city": "CAMDEN","state": "AR","zip": "71701","zip+4": "0000","phone": "8708368132"}
{"name": "MORRISON CLINIC PHARMACY #1","address1": "353 CASH RD SW","address2": "","city": "CAMDEN","state": "AR","zip": "71701","zip+4": "0000","phone": "8708362727"}
{"name": "ALLCARE PHARMACY #23","address1": "216 S 13TH ST","address2": "","city": "ROGERS","state": "AR","zip": "72758","zip+4": "0000","phone": "4796210400"}
{"name": "MARKS PHARMACY","address1": "602 MAIN ST","address2": "","city": "MELBOURNE","state": "AR","zip": "72556","zip+4": "0000","phone": "8703685355"}
{"name": "FREDS PHARMACY #1881","address1": "2 FOREST PARK AVE","address2": "","city": "HOLIDAY ISLAND","state": "AR","zip": "72631","zip+4": "0000","phone": "4792537062"}
{"name": "WALGREEN DRUG STORE #4017","address1": "8521 HIGHWAY 107","address2": "","city": "SHERWOOD","state": "AR","zip": "72120","zip+4": "3893","phone": "5018332601"}
{"name": "ROSE DRUG","address1": "8880 MARKET ST","address2": "","city": "DOVER","state": "AR","zip": "72837","zip+4": "0000","phone": "4793312133"}
{"name": "KROGER PHARMACY #25469","address1": "300 INTERSTATE 40 SERVICE RD","address2": "","city": "WEST MEMPHIS","state": "AR","zip": "72301","zip+4": "0000","phone": "8707320283"}
{"name": "MEDIC 2","address1": "6221 COLONEL GLENN","address2": "","city": "LITTLE ROCK","state": "AR","zip": "72204","zip+4": "7760","phone": "5015623740"}
{"name": "KROGER PHARMACY #25639","address1": "2509 MCCAIN BLVD","address2": "","city": "N. LITTLE ROCK","state": "AR","zip": "72116","zip+4": "0000","phone": "5017589307"}
{"name": "KROGER PHARMACY #25630","address1": "8415 W MARKAM","address2": "","city": "LITTLE ROCK","state": "AR","zip": "72205","zip+4": "0000","phone": "5012278200"}
{"name": "KROGER PHARMACY #25540","address1": "101 COMMERCE","address2": "","city": "MAUMELLE","state": "AR","zip": "72113","zip+4": "0000","phone": "5018517528"}
{"name": "KROGER PHARMACY #25633","address1": "900 PERSHING RD","address2": "","city": "N. LITTLE ROCK","state": "AR","zip": "72114","zip+4": "0000","phone": "5017712903"}
{"name": "KROGER PHARMACY #25636","address1": "614 N BEECHWOOD","address2": "","city": "LITTLE ROCK","state": "AR","zip": "72205","zip+4": "0000","phone": "5016667997"}
{"name": "KROGER PHARMACY #25644","address1": "1900 NORTH POLK","address2": "","city": "LITTLE ROCK","state": "AR","zip": "72207","zip+4": "0000","phone": "5016633257"}
{"name": "BROOKSHIRES PHARMACY #00000001","address1": "1605 EAST HARDING AVENUE","address2": "ATTENTION PHARMACY DEPT","city": "PINE BLUFF","state": "AR","zip": "71601","zip+4": "0000","phone": "8705341380"}
{"name": "BROOKSHIRES PHARMACY #00000001","address1": "5805 DOLLARWAY ROAD","address2": "ATTENTION PHARMACY DEPT","city": "PINE BLUFF","state": "AR","zip": "71602","zip+4": "0000","phone": "8702475854"}
{"name": "BROOKSHIRES PHARMACY #00000001","address1": "2800 SOUTH HAZEL STREET","address2": "ATTENTION PHARMACY DEPT","city": "PINE BLUFF","state": "AR","zip": "71603","zip+4": "0000","phone": "8705354044"}
{"name": "BROOKSHIRES PHARMACY #00000000","address1": "2800 PINE STREET NO 5 PINE PLA","address2": "ATTENTION PHARMACY DEPT","city": "ARKADELPHIA","state": "AR","zip": "71923","zip+4": "0000","phone": "8702462015"}
{"name": "BROOKSHIRES PHARMACY #00000000","address1": "220 SOUTH WEST AVENUE","address2": "ATTENTION PHARMACY DEPT","city": "EL DORADO","state": "AR","zip": "71730","zip+4": "0000","phone": "8708637996"}
{"name": "BOB'S FOOD CITY #1450","address1": "800 MALVERN","address2": "","city": "HOT SPRINGS","state": "AR","zip": "71901","zip+4": "0000","phone": "5016241054"}
{"name": "COUNTRY MART","address1": "3106 SOUTHWEST DR","address2": "","city": "JONESBORO","state": "AR","zip": "72404","zip+4": "0000","phone": "8709332016"}
{"name": "HARPS PHARMACY #172","address1": "3100 GRAND AVENUE","address2": "","city": "FORT SMITH","state": "AR","zip": "72904","zip+4": "0000","phone": "4797833699"}
{"name": "KROGER PHARMACY #25614","address1": "103 GREGORY PLACE","address2": "","city": "JACKSONVILLE","state": "AR","zip": "72076","zip+4": "0000","phone": "5019850822"}
{"name": "PHILS EASTSIDE PHARMACY","address1": "253 HWY 70 EAST","address2": "STE A","city": "GLENWOOD","state": "AR","zip": "71943","zip+4": "0000","phone": "8703567445"}
{"name": "CENTRAL PHARMACY COMPANY OF LI","address1": "7301 INDUSTRY DRIVE","address2": "","city": "NORTH LITTLE ROCK","state": "AR","zip": "72217","zip+4": "0000","phone": "5017070152"}
{"name": "MID SOUTH HEALTH SYSTEMS PHARM","address1": "2707 BROWNS LANE","address2": "","city": "JONESBORO","state": "AR","zip": "72401","zip+4": "0000","phone": "8709724038"}
{"name": "HARPS PHARMACY #177","address1": "1780 NORTH CROSSOVER ROAD","address2": "","city": "FAYETTEVILLE","state": "AR","zip": "72703","zip+4": "0000","phone": "4795711214"}
{"name": "COMMUNITY DRUG STORE","address1": "615 N MAIN ST","address2": "","city": "BRINKLEY","state": "AR","zip": "72021","zip+4": "0000","phone": "8704592413"}
{"name": "WAL-MART PHARMACY #102587","address1": "304 SOUTH ROCKWOOD","address2": "","city": "CABOT","state": "AR","zip": "72023","zip+4": "0000","phone": "5019415300"}
{"name": "FREDS PHARMACY #3341","address1": "8515 DOLLAR WAY ROAD","address2": "","city": "WHITEHALL","state": "AR","zip": "71602","zip+4": "0000","phone": "8702470026"}
{"name": "FREDS PHARMACY #1891","address1": "3825 HWY 7 NORTH","address2": "","city": "HOT SPRINGS VILLAG","state": "AR","zip": "71909","zip+4": "0000","phone": "5016237002"}
{"name": "KROGER PHARMACY #25465","address1": "400 W MOUTRIE","address2": "","city": "BLYTHVILLE","state": "AR","zip": "72315","zip+4": "0000","phone": "8707637951"}
{"name": "FREDS PHARMACY #2461","address1": "1164 HIGHWAY 133 NORTH","address2": "","city": "NORTH CROSSETT","state": "AR","zip": "71635","zip+4": "0000","phone": "8703649345"}
{"name": "FREDS PHARMACY #2981","address1": "1309 NORTH LINCOLN","address2": "HWY 425 NORTH","city": "STAR CITY","state": "AR","zip": "71667","zip+4": "0000","phone": "8706285912"}
{"name": "BUCKS PHARMACY","address1": "408 N 1ST STREET","address2": "","city": "GLENWOOD","state": "AR","zip": "71943","zip+4": "0000","phone": "8703562288"}
{"name": "FREDS PHARMACY #1216","address1": "207 SOUTH 2ND STREET","address2": "","city": "CABOT","state": "AR","zip": "72023","zip+4": "0000","phone": "5018435814"}
{"name": "MEDICAP PHARMACY #8221","address1": "2818 W MARTIN LUTHER KING BLVD","address2": "","city": "FAYETTEVILLE","state": "AR","zip": "72704","zip+4": "0000","phone": "4795714545"}
{"name": "PRICE CHOPPER #2330","address1": "827 HWY 463 N","address2": "","city": "TRUMANN","state": "AR","zip": "72472","zip+4": "0000","phone": "8704838015"}
{"name": "FREDS PHARMACY #1846","address1": "615 HWY 62/65 NORTH","address2": "","city": "HARRISON","state": "AR","zip": "72601","zip+4": "0000","phone": "8707417631"}
{"name": "SALEM DRUG COMPANY","address1": "502 HIGHWAY 62 WEST","address2": "","city": "SALEM","state": "AR","zip": "72576","zip+4": "0000","phone": "8708957455"}
{"name": "HARPS PHARMACY #355","address1": "3055 NORTH COLLEGE","address2": "","city": "FAYETTEVILLE","state": "AR","zip": "72703","zip+4": "0000","phone": "4794427917"}
{"name": "SAMS PHARMACY #108209","address1": "3081 N HIGHWAY 112","address2": "","city": "FAYETTEVILLE","state": "AR","zip": "72704","zip+4": "0000","phone": "4795871853"}
{"name": "SALEM PHARMACY","address1": "1208 SALEM RD","address2": "","city": "BENTON","state": "AR","zip": "72019","zip+4": "0000","phone": "5013161600"}
{"name": "WAL-MART PHARMACY #102743","address1": "8801 HWY 107","address2": "","city": "SHERWOOD","state": "AR","zip": "72120","zip+4": "0000","phone": "5018333116"}
{"name": "WAL-MART PHARMACY #102741","address1": "3510 SE 14TH STREET","address2": "","city": "BENTONVILLE","state": "AR","zip": "72712","zip+4": "0000","phone": "4796216470"}
{"name": "FREDS PHARMACY #3311","address1": "507 WEST PINE","address2": "","city": "WARREN","state": "AR","zip": "71671","zip+4": "0000","phone": "8702265522"}
{"name": "WALGREEN DRUG STORE #4794","address1": "850 OAK ST","address2": "","city": "CONWAY","state": "AR","zip": "72032","zip+4": "0000","phone": "5013274887"}
{"name": "FREDS PHARMACY #1311","address1": "1125 MORNINGSIDE DRIVE","address2": "","city": "CONWAY","state": "AR","zip": "72032","zip+4": "0000","phone": "5013279746"}
{"name": "FREDS PHARMACY #2371","address1": "406 HWY 425 SOUTH","address2": "","city": "MONTICELLO","state": "AR","zip": "71655","zip+4": "0000","phone": "8703671101"}
{"name": "WAL-MART PHARMACY #102742","address1": "1375 MARKET SQUARE DRIVE","address2": "","city": "SPRINGDALE","state": "AR","zip": "72762","zip+4": "0000","phone": "4797507856"}
{"name": "WAL-MART PHARMACY #102744","address1": "4900 ROGERS AVE SUITE 101J","address2": "","city": "FORT SMITH","state": "AR","zip": "72903","zip+4": "0000","phone": "4794849125"}
{"name": "GAMMELS CLINIC PHARMACY","address1": "909 UNITY RD","address2": "","city": "CROSSETT","state": "AR","zip": "71635","zip+4": "0000","phone": "8703645100"}
{"name": "FREDS PHARMACY #2296","address1": "2695 HWY 77","address2": "","city": "MARION","state": "AR","zip": "72364","zip+4": "0000","phone": "8707395518"}
{"name": "USA DRUG EXPRESS #8022","address1": "300 EAST 8TH STREET","address2": "","city": "DANVILLE","state": "AR","zip": "72833","zip+4": "0000","phone": "4794955444"}
{"name": "WALGREEN DRUG STORE #5041","address1": "2002 S THOMPSON ST","address2": "","city": "SPRINGDALE","state": "AR","zip": "72764","zip+4": "6330","phone": "4797560087"}
{"name": "FREDS PHARMACY #2326","address1": "1042 HIGHLAND CIRCLE","address2": "","city": "MOUNTAIN HOME","state": "AR","zip": "72653","zip+4": "0000","phone": "8704255494"}
{"name": "KROGER PHARMACY #25608","address1": "16105 D CHENAL PARKWAY","address2": "","city": "LITTLE ROCK","state": "AR","zip": "72223","zip+4": "0000","phone": "5018216841"}
{"name": "WALGREEN DRUG STORE #5237","address1": "1722 WEST WALNUT ST","address2": "","city": "ROGERS","state": "AR","zip": "72756","zip+4": "0000","phone": "4792460193"}
{"name": "FREDS PHARMACY #1719","address1": "57 SOUTH BROADVIEW","address2": "","city": "GREENBRIER","state": "AR","zip": "72058","zip+4": "0000","phone": "5016794898"}
{"name": "WALGREEN DRUG STORE #5260","address1": "2701 ROGERS AVE","address2": "","city": "FORT SMITH","state": "AR","zip": "72901","zip+4": "0000","phone": "4797834780"}
{"name": "KROGER PHARMACY #25621","address1": "4407 CENTRAL SO STATE HWY7","address2": "","city": "HOT SPRINGS","state": "AR","zip": "71913","zip+4": "0000","phone": "5015257296"}
{"name": "HARPS PHARMACY #178","address1": "110 MIDTOWN SHOPPING CENTER","address2": "","city": "BENTONVILLE","state": "AR","zip": "72712","zip+4": "0000","phone": "4792735541"}
{"name": "CHAPEL PHARMACY","address1": "3800 CAMDEN RD","address2": "STE 1","city": "PINE BLUFF","state": "AR","zip": "71603","zip+4": "0000","phone": "8708791490"}
{"name": "WAL-MART PHARMACY #102745","address1": "2690 EAST CITIZENS DRIVE","address2": "","city": "FAYETTEVILLE","state": "AR","zip": "72703","zip+4": "0000","phone": "4795716673"}
{"name": "MEDICAP PHARMACY #8260","address1": "103 DYER ST","address2": "","city": "MOUNTAIN HOME","state": "AR","zip": "72653","zip+4": "0000","phone": "8704251538"}
{"name": "PRICE CUTTER PHARMACY #353","address1": "1617 SOUTH ZERO STREET","address2": "","city": "FORT SMITH","state": "AR","zip": "72901","zip+4": "0000","phone": "4796462222"}
{"name": "PRICE CUTTER PHARMACY #352","address1": "120 CLOVERLEAF PLAZA","address2": "","city": "VAN BUREN","state": "AR","zip": "72956","zip+4": "0000","phone": "4794710800"}
{"name": "WAL-MART PHARMACY #102575","address1": "3900 DAVE WARD DRIVE","address2": "","city": "CONWAY","state": "AR","zip": "72034","zip+4": "0000","phone": "5013285000"}
{"name": "MAYFLOWER FOOD AND DRUG","address1": "582 HWY 365","address2": "SUITE B","city": "MAYFLOWER","state": "AR","zip": "72106","zip+4": "0000","phone": "5014703773"}
{"name": "ECONO-MED PHARMACY INC","address1": "1 CHOCTAW CENTER","address2": "","city": "CHEROKEE VILLAGE","state": "AR","zip": "72529","zip+4": "0000","phone": "8708564696"}
{"name": "PRICE CUTTER PHARMACY #356","address1": "1600 HIGHWAY 412","address2": "","city": "SILOAM SPRINGS","state": "AR","zip": "72761","zip+4": "0000","phone": "4795493200"}
{"name": "KMART PHARMACY #3120","address1": "10901 RODNEY PARHAM","address2": "","city": "LITTLE ROCK","state": "AR","zip": "72212","zip+4": "0000","phone": "5012270131"}
{"name": "DEBBIES FAMILY PHARMACY","address1": "5403 PINNACLE POINT DR","address2": "","city": "ROGERS","state": "AR","zip": "72758","zip+4": "0000","phone": "4792716300"}
{"name": "SAMS PHARMACY #108104","address1": "900 SOUTH BOWMAN ROAD","address2": "","city": "LITTLE ROCK","state": "AR","zip": "72211","zip+4": "0000","phone": "5012190283"}
{"name": "FREDS PHARMACY #1206","address1": "3395 HWY 5 NORTH","address2": "","city": "BENTON","state": "AR","zip": "72015","zip+4": "0000","phone": "5016532241"}
{"name": "SAMS PHARMACY #108266","address1": "5600 LANDERS ROAD","address2": "","city": "SHERWOOD","state": "AR","zip": "72117","zip+4": "0000","phone": "5019559451"}
{"name": "WALGREEN DRUG STORE #5730","address1": "3710 S UNIVERSITY","address2": "","city": "LITTLE ROCK","state": "AR","zip": "72204","zip+4": "0000","phone": "5015681446"}
{"name": "BERRY DRUG OF DARDANELLE","address1": "417 UNION ST","address2": "","city": "DARDANELLE","state": "AR","zip": "72834","zip+4": "0000","phone": "4792294811"}
{"name": "THE HEALTH DEPOT #3","address1": "1530 WEST CENTER","address2": "","city": "GREENWOOD","state": "AR","zip": "72936","zip+4": "0000","phone": "4799969898"}
{"name": "FREDS PHARMACY #1086","address1": "901 DEWITT HENRY BLVD","address2": "","city": "BEEBE","state": "AR","zip": "72012","zip+4": "0000","phone": "5018825402"}
{"name": "FREDS PHARMACY #1866","address1": "1301 NORTH ILLINOIS AVENUE","address2": "","city": "HARRISBURG","state": "AR","zip": "72432","zip+4": "0000","phone": "8705785362"}
{"name": "FREDS PHARMACY #3411","address1": "320 HIGHWAY SOUTH","address2": "","city": "YELLVILLE","state": "AR","zip": "72687","zip+4": "0000","phone": "8704492255"}
{"name": "FREDS PHARMACY #2021","address1": "4212 EAST JOHNSON STREET","address2": "","city": "JONESBORO","state": "AR","zip": "72401","zip+4": "0000","phone": "8702689700"}
{"name": "WALGREEN DRUG STORE #5993","address1": "111 N BOWMAN RD","address2": "","city": "LITTLE ROCK","state": "AR","zip": "72211","zip+4": "0000","phone": "5012258569"}
{"name": "HARPS PHARMACY #135","address1": "924 EAST HIGHWAY 62","address2": "","city": "MOUNTAIN HOME","state": "AR","zip": "72653","zip+4": "0000","phone": "8704254127"}
{"name": "PARKIN DRUG STORE","address1": "1740 CHURCH ST","address2": "","city": "AUGUSTA","state": "AR","zip": "72006","zip+4": "0000","phone": "8703473300"}
{"name": "WALGREEN DRUG STORE #5475","address1": "300 E TOWNSHIP ST","address2": "","city": "FAYETTEVILLE","state": "AR","zip": "72703","zip+4": "0000","phone": "4795822338"}
{"name": "CAMPS MEDICAL PHARMACY INC","address1": "800 S CHURCH","address2": "STE 103","city": "JONESBORO","state": "AR","zip": "72401","zip+4": "0000","phone": "8709105550"}
{"name": "KROGER PHARMACY #25624","address1": "1003 W MAIN ST","address2": "","city": "RUSSELLVILLE","state": "AR","zip": "72801","zip+4": "0000","phone": "4798903402"}
{"name": "FREDS PHARMACY #2146","address1": "15700 ARCH STREET","address2": "","city": "LITTLE ROCK","state": "AR","zip": "72206","zip+4": "0000","phone": "5012617007"}
{"name": "WAL-MART PHARMACY #103230","address1": "400 BRYANT AVENUE","address2": "","city": "BRYANT","state": "AR","zip": "72022","zip+4": "0000","phone": "5018474615"}
{"name": "APRIA HEALTHCARE #212","address1": "1519 BOWMAN RD","address2": "SUITE B","city": "LITTLE ROCK","state": "AR","zip": "72211","zip+4": "0000","phone": "5013121655"}
{"name": "WALGREEN DRUG STORE #5535","address1": "4634 N HWY 7","address2": "","city": "HOT SPRINGS VILLAG","state": "AR","zip": "71909","zip+4": "0000","phone": "5019845280"}
{"name": "FAMILY CLINIC PHARMACY LLC","address1": "1208 W MAIN","address2": "","city": "WALNUT RIDGE","state": "AR","zip": "72476","zip+4": "0000","phone": "8708868100"}
{"name": "FREDS PHARMACY #1386","address1": "409 W MAIN STREET","address2": "","city": "CLARKSVILLE","state": "AR","zip": "72830","zip+4": "0000","phone": "4797549303"}
{"name": "SULLIVAN PHARMACY","address1": "731 N MAIN ST","address2": "STE B","city": "HARRISON","state": "AR","zip": "72601","zip+4": "0000","phone": "8707412119"}
{"name": "PALACE DRUG","address1": "270 MAIN ST","address2": "","city": "MAMMOTH SPRING","state": "AR","zip": "72554","zip+4": "0000","phone": "8706253222"}
{"name": "HARPS PHARMACY #170","address1": "1945 BUTTERFIELD COACH ROAD","address2": "","city": "SPRINGDALE","state": "AR","zip": "72764","zip+4": "0000","phone": "4799273379"}
{"name": "WOODLANDS PHARMACY","address1": "7197 SHERIDAN RD SUITE 109","address2": "","city": "WHITE HALL","state": "AR","zip": "71602","zip+4": "0000","phone": "8702473900"}
{"name": "BROOKSHIRES PHARMACY #00000000","address1": "1310 SOUTH CONSTITUTION AVE","address2": "ATTENTION PHARMACY DEPT","city": "ASHDOWN","state": "AR","zip": "71822","zip+4": "0000","phone": "8708985501"}
{"name": "MIDSOUTH PHARMACY","address1": "3215 N WEST AVE","address2": "","city": "EL DORADO","state": "AR","zip": "71730","zip+4": "0000","phone": "8708640730"}
{"name": "WAL-MART PHARMACY #103479","address1": "1819 SOUTH 8TH ST","address2": "","city": "ROGERS","state": "AR","zip": "72756","zip+4": "0000","phone": "4796330802"}
{"name": "FREDS PHARMACY #2926","address1": "624 SOUTH ROCK STREET","address2": "","city": "SHERIDAN","state": "AR","zip": "72150","zip+4": "0000","phone": "8709425800"}
{"name": "SHINABERYS COMMUNITY PHARMACY","address1": "1150 E MATTHEWS AVE STE 103","address2": "","city": "JONESBORO","state": "AR","zip": "72401","zip+4": "0000","phone": "8709336369"}
{"name": "WALGREEN DRUG STORE #6765","address1": "108 E HIGHLAND DR","address2": "","city": "JONESBORO","state": "AR","zip": "72401","zip+4": "0000","phone": "8708022173"}
{"name": "WALGREEN DRUG STORE #6959","address1": "702 MILITARY RD","address2": "","city": "BENTON","state": "AR","zip": "72015","zip+4": "0000","phone": "5018607352"}
{"name": "TARGET PHARMACY #1470","address1": "3545 NORTH SHILOH DRIVE","address2": "","city": "FAYETTEVILLE","state": "AR","zip": "72703","zip+4": "0000","phone": "4794435628"}
{"name": "ALLCARE PHARMACY #29","address1": "521 MAIN ST","address2": "","city": "ARKADELPHIA","state": "AR","zip": "71923","zip+4": "0000","phone": "8704039400"}
{"name": "CORNERSTONE PHARMACY","address1": "4220 N RODNEY PARHAM RD","address2": "STE 101","city": "LITTLE ROCK","state": "AR","zip": "72212","zip+4": "0000","phone": "5012232224"}
{"name": "DEANS PHARMACY # #2","address1": "803 N BUERKLE","address2": "","city": "STUTTGART","state": "AR","zip": "72160","zip+4": "0000","phone": "8706724790"}
{"name": "FREDS PHARMACY #1531","address1": "440 SOUTH BRADLEY","address2": "","city": "EL DORADO","state": "AR","zip": "71730","zip+4": "0000","phone": "8708634157"}
{"name": "FREDS PHARMACY #1096","address1": "170 HWY 167","address2": "","city": "BALD KNOB","state": "AR","zip": "72010","zip+4": "0000","phone": "5017249113"}
{"name": "WALGREEN DRUG STORE #7234","address1": "8500 ROGERS AVE","address2": "","city": "FORT SMITH","state": "AR","zip": "72903","zip+4": "0000","phone": "4794523243"}
{"name": "WAL-MART PHARMACY #103231","address1": "551 LIBERTY DRIVE","address2": "","city": "GREENWOOD","state": "AR","zip": "72936","zip+4": "0000","phone": "4799968533"}
{"name": "KROGER PHARMACY #25576","address1": "301 PINE BLUFF HIGHWAY","address2": "","city": "ENGLAND","state": "AR","zip": "72046","zip+4": "0000","phone": "5018423471"}
{"name": "PHARMACY SOLUTIONS JONESBORO #","address1": "2929 S CARAWAY RD","address2": "STE 9","city": "JONESBORO","state": "AR","zip": "72401","zip+4": "0000","phone": "8709322822"}
{"name": "WALGREEN DRUG STORE #7235","address1": "1601 FAYETTEVILLE RD","address2": "","city": "VAN BUREN","state": "AR","zip": "72956","zip+4": "0000","phone": "4794748834"}
{"name": "WALGREEN DRUG STORE #7284","address1": "14820 CANTRELL RD","address2": "","city": "LITTLE ROCK","state": "AR","zip": "72223","zip+4": "0000","phone": "5018686053"}
{"name": "SAMS PHARMACY #108134","address1": "7700 ROGERS AVE","address2": "","city": "FT SMITH","state": "AR","zip": "72903","zip+4": "0000","phone": "4794848008"}
{"name": "FREDS PHARMACY #2596","address1": "198 NORTH CURTIS","address2": "","city": "PEA RIDGE","state": "AR","zip": "72751","zip+4": "0000","phone": "4794518400"}
{"name": "WALGREEN DRUG STORE #7283","address1": "1404 ALBERT PIKE","address2": "","city": "HOT SPRINGS","state": "AR","zip": "71913","zip+4": "0000","phone": "5013181305"}
{"name": "FREDS PHARMACY #2236","address1": "HWY 65 N","address2": "","city": "MARSHALL","state": "AR","zip": "72650","zip+4": "0000","phone": "8704483841"}
{"name": "USA DRUG #17","address1": "11108 NORTH RODNEY PARHAM ROAD","address2": "","city": "LITTLE ROCK","state": "AR","zip": "72212","zip+4": "0000","phone": "5012236944"}
{"name": "MARVELL CLINIC PHARMACY INC","address1": "406 S MILL ST","address2": "","city": "MARVELL","state": "AR","zip": "72366","zip+4": "0000","phone": "8708291044"}
{"name": "WAL-MART PHARMACY #103331","address1": "5501 SOUTH OLIVE STREET","address2": "","city": "PINE BLUFF","state": "AR","zip": "71603","zip+4": "0000","phone": "8708791420"}
{"name": "MCFARLIN PHARMACY INC","address1": "101 WEST DREW","address2": "","city": "MONETTE","state": "AR","zip": "72447","zip+4": "0000","phone": "8704865220"}
{"name": "WALGREEN DRUG STORE #7847","address1": "524 S SCHOOL RD","address2": "","city": "FAYETTEVILLE","state": "AR","zip": "72701","zip+4": "0000","phone": "4792517413"}
{"name": "KROGER PHARMACY #25613","address1": "1295 WEST MAIN ST","address2": "","city": "CABOT","state": "AR","zip": "72023","zip+4": "0000","phone": "5016285187"}
{"name": "LOWELL PHARMACY","address1": "114 HARRISON AVE","address2": "","city": "LOWELL","state": "AR","zip": "72745","zip+4": "0000","phone": "4797700111"}
{"name": "MEDI SHOP PHARMACY","address1": "204 HWY 71 SOUTH","address2": "","city": "MENA","state": "AR","zip": "71953","zip+4": "0000","phone": "4793943254"}
{"name": "TARGET PHARMACY #1891","address1": "501 ELSINGER BLVD","address2": "","city": "CONWAY","state": "AR","zip": "72032","zip+4": "0000","phone": "5013285316"}
{"name": "WAL-MART PHARMACY #105244","address1": "19301 CANTRELL ROAD","address2": "","city": "LITTLE ROCK","state": "AR","zip": "72223","zip+4": "0000","phone": "5018689854"}
{"name": "WILSON PHARMACY","address1": "5 N JEFFERSON STREET","address2": "","city": "WILSON","state": "AR","zip": "72395","zip+4": "0000","phone": "8706558415"}
{"name": "WALGREEN DRUG STORE #1952","address1": "1330 S CARAWAY RD","address2": "","city": "JONESBORO","state": "AR","zip": "72401","zip+4": "0000","phone": "8702681424"}
{"name": "WALGREEN DRUG STORE #2364","address1": "819 W MAIN ST","address2": "","city": "JACKSONVILLE","state": "AR","zip": "72076","zip+4": "0000","phone": "5012410222"}
{"name": "WALGREEN DRUG STORE #7718","address1": "4007 N SHILOH DR","address2": "","city": "FAYETTEVILLE","state": "AR","zip": "72701","zip+4": "0000","phone": "4794423615"}
{"name": "WAL-MART PHARMACY #105433","address1": "3604 NORTH HIGHWAY 7","address2": "","city": "HOT SPRINGS VILLAG","state": "AR","zip": "71909","zip+4": "0000","phone": "5013180902"}
{"name": "USA DRUG #18","address1": "3525 HWY 5 NORTH","address2": "","city": "BENTON","state": "AR","zip": "72015","zip+4": "0000","phone": "5018475410"}
{"name": "HECTOR PHARMACY","address1": "11167 SR 27","address2": "","city": "HECTOR","state": "AR","zip": "72843","zip+4": "0000","phone": "4792842011"}
{"name": "BELL PHARMACY","address1": "113 BOYER AVE","address2": "","city": "LINCOLN","state": "AR","zip": "72744","zip+4": "0000","phone": "4798243256"}
{"name": "BROWNFIELD PHARMACY INC","address1": "675 W CENTER","address2": "","city": "GREENWOOD","state": "AR","zip": "72936","zip+4": "0000","phone": "4799962424"}
{"name": "WAL-MART PHARMACY #105260","address1": "4208 PLEASANT CROSSING BLVD","address2": "","city": "ROGERS","state": "AR","zip": "72758","zip+4": "0000","phone": "4796210629"}
{"name": "WALGREEN DRUG STORE #9593","address1": "3499 BELLA VISTA WAY","address2": "","city": "BELLA VISTA","state": "AR","zip": "72712","zip+4": "0000","phone": "4792732437"}
{"name": "JACKSONS PHARMACY","address1": "434 HWY 18","address2": "SUITE C","city": "MANILA","state": "AR","zip": "72442","zip+4": "0000","phone": "8705613032"}
{"name": "MEDICAL CENTER PHARMACY WEST","address1": "2505 W BEEBE CAPPS EXPRESSWAY","address2": "STE 100","city": "SEARCY","state": "AR","zip": "72143","zip+4": "0000","phone": "5012683456"}
{"name": "FREDS XPRESS #3696","address1": "1601 HIGHWAY 270 W 301","address2": "","city": "MALVERN","state": "AR","zip": "72104","zip+4": "0000","phone": "5013322101"}
{"name": "TARGET PHARMACY #1919","address1": "3000 E HIGHLAND DR STE A","address2": "","city": "JONESBORO","state": "AR","zip": "72401","zip+4": "0000","phone": "8709349668"}
{"name": "WALGREEN DRUG STORE #9624","address1": "705 HWY 62 65 N","address2": "","city": "HARRISON","state": "AR","zip": "72601","zip+4": "2007","phone": "8703650139"}
{"name": "HARPS PHARMACY #124","address1": "1274 COLORADO DRIVE","address2": "","city": "SPRINGDALE","state": "AR","zip": "72704","zip+4": "0000","phone": "4792519130"}
{"name": "WALGREEN DRUG STORE #9766","address1": "200 E RACE AVE","address2": "","city": "SEARCY","state": "AR","zip": "72143","zip+4": "0000","phone": "5012797816"}
{"name": "HARVEST FOODS PHARMACY #3219","address1": "1739 AIRPORT RD","address2": "","city": "HOT SPRINGS","state": "AR","zip": "71913","zip+4": "0000","phone": "5017671919"}
{"name": "WALGREEN DRUG STORE #9743","address1": "350 HWY 62 E","address2": "","city": "MOUNTAIN HOME","state": "AR","zip": "72653","zip+4": "0000","phone": "8704243812"}
{"name": "FREDS PHARMACY #1609","address1": "611 US HWY 65 SOUTH","address2": "SUITE A","city": "DUMAS","state": "AR","zip": "71639","zip+4": "0000","phone": "8703822955"}
{"name": "HARPS PHARMACY #123","address1": "1007 JONES ROAD","address2": "","city": "SPRINGDALE","state": "AR","zip": "72765","zip+4": "0000","phone": "4793611950"}
{"name": "HARPS PHARMACY #349","address1": "100 SOUTH KNOXVILLE","address2": "","city": "RUSSELLVILLE","state": "AR","zip": "72801","zip+4": "0000","phone": "4796974099"}
{"name": "AMITY DRUG AND SUNDRY","address1": "109 W THOMPSON","address2": "","city": "AMITY","state": "AR","zip": "71921","zip+4": "0000","phone": "8703425080"}
{"name": "ROGERS PHARMACY","address1": "221 SW 2ND","address2": "","city": "WALNUT RIDGE","state": "AR","zip": "72476","zip+4": "0000","phone": "8708865700"}
{"name": "SMITH CALDWELL LTC","address1": "403 N MARKET","address2": "","city": "BENTON","state": "AR","zip": "72015","zip+4": "0000","phone": "5013266153"}
{"name": "CABOT MEDICAL PARK PHCY INC","address1": "2039 W MAIN ST","address2": "STE D","city": "CABOT","state": "AR","zip": "72023","zip+4": "0000","phone": "5019412626"}
{"name": "WALGREEN DRUG STORE #10240","address1": "5500 HWY 5 N","address2": "","city": "BRYANT","state": "AR","zip": "72022","zip+4": "7000","phone": "5018477420"}
{"name": "COUNTY DISCOUNT PHARMACY","address1": "48 S GARLAND","address2": "","city": "MAGAZINE","state": "AR","zip": "72943","zip+4": "0000","phone": "4799692727"}
{"name": "WALGREEN DRUG STORE #10199","address1": "1100 E MAIN ST","address2": "","city": "RUSSELLVILLE","state": "AR","zip": "72801","zip+4": "5319","phone": "4799671573"}
{"name": "WALGREEN DRUG STORE #09594","address1": "1925 ZERO ST","address2": "","city": "FOREST SMITH","state": "AR","zip": "72901","zip+4": "8415","phone": "4796465336"}
{"name": "SMACKOVER PHARMACY","address1": "1402 PERSHING HWY","address2": "","city": "SMACKOVER","state": "AR","zip": "71762","zip+4": "0000","phone": "8707252220"}
{"name": "WALGREEN DRUG STORE #09813","address1": "2503 W PLEASANT GROVE RD","address2": "","city": "ROGERS","state": "AR","zip": "72758","zip+4": "0000","phone": "4799368096"}
{"name": "WALGREEN DRUG STORE #09880","address1": "1500 W KINGS HWY","address2": "","city": "PARAGOULD","state": "AR","zip": "72450","zip+4": "4009","phone": "8702408091"}
{"name": "QOL MEDS LLC #010","address1": "125 DONS WAY","address2": "","city": "HOT SPRINGS","state": "AR","zip": "71913","zip+4": "0000","phone": "5015251001"}
{"name": "POLK PHARMACY ENGLAND","address1": "815 E FORDYCE","address2": "","city": "ENGLAND","state": "AR","zip": "72046","zip+4": "0000","phone": "5018422575"}
{"name": "SAMS PHARMACY #104969","address1": "3500 SOUTHEAST CLUB BLVD","address2": "","city": "BENTONVILLE","state": "AR","zip": "72712","zip+4": "0000","phone": "4796210283"}
{"name": "WALGREEN DRUG STORE #10170","address1": "505 SALEM RD","address2": "","city": "CONWAY","state": "AR","zip": "72034","zip+4": "6195","phone": "5013283117"}
{"name": "HORSESHOE HEALTH AND MEDICINE","address1": "600 MARKET ST","address2": "","city": "HORSESHOE BEND","state": "AR","zip": "72512","zip+4": "0000","phone": "8706704580"}
{"name": "TARGET PHARMACY #2204","address1": "7377 ALCOA ROAD","address2": "","city": "BRYANT","state": "AR","zip": "72022","zip+4": "0000","phone": "5017764361"}
{"name": "MARKET STREET DRUGS","address1": "404 MARKET ST","address2": "","city": "HORSESHOE BEND","state": "AR","zip": "72512","zip+4": "3871","phone": "8706705098"}
{"name": "WALGREEN DRUG STORE #10352","address1": "2500 MCCAIN BLVD","address2": "","city": "NORTH LITTLE ROCK","state": "AR","zip": "72116","zip+4": "7609","phone": "5018126228"}
{"name": "WALGREEN DRUG STORE #10365","address1": "308 S MAIN ST","address2": "","city": "MALVERN","state": "AR","zip": "72104","zip+4": "0000","phone": "5014678197"}
{"name": "WALGREEN DRUG STORE #10586","address1": "440 HWY 412 E","address2": "","city": "SILOAM SPRINGS","state": "AR","zip": "72761","zip+4": "4701","phone": "4795243671"}
{"name": "WALGREEN DRUG STORE #10418","address1": "1004 COMMERCE BLVD","address2": "","city": "HOPE","state": "AR","zip": "71801","zip+4": "0000","phone": "8707774830"}
{"name": "HIGHLANDS PHARMACY","address1": "3232 N NORTH HILLS BLVD","address2": "","city": "FAYETTEVILLE","state": "AR","zip": "72703","zip+4": "0000","phone": "4796951199"}
{"name": "WALGREEN DRUG STORE #10364","address1": "9220 N RODNEY PARHAM RD","address2": "","city": "LITTLE ROCK","state": "AR","zip": "72227","zip+4": "6202","phone": "5012239814"}
{"name": "NEWTONS INHOUSE PHARMACY","address1": "715 W MAIN ST","address2": "","city": "RUSSELLVILLE","state": "AR","zip": "72801","zip+4": "0000","phone": "4799681157"}
{"name": "WALGREEN DRUG STORE #10059","address1": "1325 W MAIN ST","address2": "","city": "CABOT","state": "AR","zip": "72023","zip+4": "2458","phone": "5019413131"}
{"name": "WALGREEN DRUG STORE #10715","address1": "131 N 26TH ST","address2": "","city": "ARKADELPHIA","state": "AR","zip": "71923","zip+4": "4348","phone": "8702301809"}
{"name": "WESTSIDE FAMILY PHARMACY INC","address1": "3819 W SUNSET AVE","address2": "","city": "SPRINGDALE","state": "AR","zip": "72762","zip+4": "0000","phone": "4797563232"}
{"name": "CORNERSTONE PHARMACY AT CHENAL","address1": "1811 RAHLING RD","address2": "STE 110","city": "LITTLE ROCK","state": "AR","zip": "72223","zip+4": "0000","phone": "5018212300"}
{"name": "MED QUICK DISCOUNT PHARMACY #3","address1": "406 E WALNUT ST","address2": "","city": "PARIS","state": "AR","zip": "72855","zip+4": "0000","phone": "4799631555"}
{"name": "WALGREENS DRUG STORE #10666","address1": "640 W GAINES ST","address2": "","city": "MONTICELLO","state": "AR","zip": "71655","zip+4": "4675","phone": "8703676146"}
{"name": "MORRILTON FOOD AND DRUG","address1": "100 SOUTH SAINT JOSESPH ST","address2": "","city": "MORRILTON","state": "AR","zip": "72110","zip+4": "0000","phone": "5014775048"}
{"name": "HARPS PHARMACY #117","address1": "715 N 2ND ST","address2": "","city": "ROGERS","state": "AR","zip": "72756","zip+4": "0000","phone": "4796317013"}
{"name": "GENUINE CARE PHARMACY","address1": "7337 HWY 62 W","address2": "","city": "GASSVILLE","state": "AR","zip": "72635","zip+4": "0000","phone": "8704355757"}
{"name": "WALGREENS DRUG STORE #10897","address1": "1644 E MAIN ST","address2": "","city": "MAGNOLIA","state": "AR","zip": "71753","zip+4": "3804","phone": "8702343493"}
{"name": "WALGREEN DRUG STORE #11344","address1": "2110 N WASHINGTON ST","address2": "","city": "FORREST CITY","state": "AR","zip": "72335","zip+4": "1846","phone": "8706309042"}
{"name": "HARPS PHARMACY #137","address1": "2507 MARKET TRACE","address2": "","city": "FT SMITH","state": "AR","zip": "72908","zip+4": "8677","phone": "4796465505"}
{"name": "FREDS PHARMACY #2616","address1": "303 EAST MAIN ST","address2": "","city": "PIGGOTT","state": "AR","zip": "72454","zip+4": "0000","phone": "8705981700"}
{"name": "HARPS PHARMACY #136","address1": "2525 W BEEBE CAPPS EXPRESSWAY","address2": "","city": "SEARCY","state": "AR","zip": "72143","zip+4": "0000","phone": "5012684171"}
{"name": "WAL-MART PHARMACY #104460","address1": "12001 MAUMELLE BOULEVARD","address2": "","city": "N LITTLE ROCK","state": "AR","zip": "72113","zip+4": "0000","phone": "5018516459"}
{"name": "WALGREEN DRUG STORE #11161","address1": "2401 MALCOLM AVE","address2": "","city": "NEWPORT","state": "AR","zip": "72112","zip+4": "0000","phone": "8702170170"}
{"name": "WAL-MART PHARMACY #105822","address1": "2708 RIFE DR","address2": "","city": "ROGERS","state": "AR","zip": "72758","zip+4": "0000","phone": "4796364101"}
{"name": "ALLCARE PHARMACY #2","address1": "1523 S BOWMAN RD","address2": "STE G","city": "LITTLE ROCK","state": "AR","zip": "72211","zip+4": "0000","phone": "5012178881"}
{"name": "BEST DRUG STORE","address1": "415 EAST MAIN STREET","address2": "","city": "MOUNTAIN VIEW","state": "AR","zip": "72560","zip+4": "0000","phone": "8702694329"}
{"name": "WALGREEN DRUG STORE #11345","address1": "7601 CANTRELL RD","address2": "","city": "LITTLE ROCK","state": "AR","zip": "72227","zip+4": "3319","phone": "5012211601"}
{"name": "WAL-MART PHARMACY #105783","address1": "117 AUDUBON DRIVE","address2": "","city": "MAUMELLE","state": "AR","zip": "72113","zip+4": "0000","phone": "5018518896"}
{"name": "WALGREEN DRUG STORE #11933","address1": "15500 CHENAL PKWY","address2": "","city": "LITTLE ROCK","state": "AR","zip": "72211","zip+4": "2018","phone": "5012173872"}
{"name": "ROSE DRUG OF DANVILLE","address1": "708 E 8TH STREET","address2": "","city": "DANVILLE","state": "AR","zip": "72833","zip+4": "0000","phone": "4794957673"}
{"name": "WALGREENS #11781","address1": "2964 W 6TH ST","address2": "","city": "FAYETTEVILLE","state": "AR","zip": "72704","zip+4": "0000","phone": "4795215103"}
{"name": "PRESCRIPTION CORNER DRUG INC","address1": "320 W KINGS HIGHWAY","address2": "","city": "PARAGOULD","state": "AR","zip": "72450","zip+4": "0000","phone": "8702399535"}
{"name": "TARGET PHARMACY #2284","address1": "4001 PHOENIX AVE","address2": "","city": "FORT SMITH","state": "AR","zip": "72903","zip+4": "0000","phone": "4797098941"}
{"name": "WALGREENS #11988","address1": "2750 E MISSION RD","address2": "","city": "FAYETTEVILLE","state": "AR","zip": "72703","zip+4": "3262","phone": "4794422134"}
{"name": "TARGET PHARMACY #1114","address1": "12700 CHENAL PARKWAY","address2": "","city": "LITTLE ROCK","state": "AR","zip": "72211","zip+4": "0000","phone": "5017071996"}
{"name": "WALGREENS #11987","address1": "323 HIGHWAY 64 E","address2": "","city": "ALMA","state": "AR","zip": "72921","zip+4": "0000","phone": "4796329080"}
{"name": "FRED'S PHARMACY #2651","address1": "2809 SOUTH CAMDEN RD.","address2": "","city": "PINE BLUFF","state": "AR","zip": "71603","zip+4": "0000","phone": "8708793948"}
{"name": "FRED'S STORES OF TENNESSEE INC","address1": "6027 US HWY 67","address2": "","city": "HASKELL","state": "AR","zip": "72015","zip+4": "0000","phone": "5017787505"}
{"name": "WAL-MART PHARMACY #105738","address1": "3553 E ROBINSON AVE","address2": "","city": "SPRINGDALE","state": "AR","zip": "72764","zip+4": "0000","phone": "4797502903"}
{"name": "TARGET PHARMACY #2498","address1": "2404 PROMENADE BLVD","address2": "","city": "ROGERS","state": "AR","zip": "72758","zip+4": "0000","phone": "4799861101"}
{"name": "MEDICINE SHOPPE #1890","address1": "2425 DAVE WARD DR","address2": "","city": "CONWAY","state": "AR","zip": "72034","zip+4": "0000","phone": "5013293777"}
{"name": "MEDICINE SHOPPE #1883","address1": "1701 CLUB MANOR DRIVE","address2": "SUITE D","city": "MAUMELLE","state": "AR","zip": "72113","zip+4": "0000","phone": "5018514949"}
{"name": "STAGECOACH PHARMACY","address1": "1 STAGECOACH VILLAGE DR.","address2": "STE 2","city": "LITTLE ROCK","state": "AR","zip": "72210","zip+4": "0000","phone": "5014556295"}
{"name": "MEDICINE SHOPPE #1906","address1": "2125 COLLEGE AVE","address2": "SUITE 1","city": "CONWAY","state": "AR","zip": "72034","zip+4": "0000","phone": "5013278088"}
{"name": "WALGREENS #12670","address1": "3234 E ROBINSON AVE","address2": "","city": "SPRINGDALE","state": "AR","zip": "72764","zip+4": "0000","phone": "4797564368"}
{"name": "DEAN'S PHARMACY # #3","address1": "425 W CHESTNUT ST","address2": "","city": "MARIANNA","state": "AR","zip": "72360","zip+4": "0000","phone": "8702954100"}
{"name": "GENOA HEALTHCARE #68","address1": "2400 SOUTH 48TH ST.","address2": "","city": "SPRINGDALE","state": "AR","zip": "72762","zip+4": "6683","phone": "4794199285"}
{"name": "WALGREENS #12417","address1": "1045 S SAINT LOUIS ST","address2": "","city": "BATESVILLE","state": "AR","zip": "72501","zip+4": "7224","phone": "8703070262"}
{"name": "DOCTOR'S ORDERS PHARMACY #0001","address1": "1600 W HOLLAND AVE STE 101A","address2": "","city": "WHITE HALL","state": "AR","zip": "71602","zip+4": "9636","phone": "8708508010"}
{"name": "USA DRUG EXPRESS # #8418","address1": "1701 MAIN ST","address2": "","city": "LITTLE ROCK","state": "AR","zip": "72206","zip+4": "1471","phone": "5013719229"}
{"name": "FRED'S PHARMACY #3524","address1": "111 N MAIN ST","address2": "","city": "BRINKLEY","state": "AR","zip": "72021","zip+4": "2819","phone": "8707343161"}
{"name": "FRED'S PHARMACY #3528","address1": "1415 PINECREST ST.","address2": "","city": "BRINKLEY","state": "AR","zip": "72021","zip+4": "0000","phone": "8707343088"}
{"name": "LEPANTO DISCOUNT DRUGS","address1": "216 GREENWOOD AVE","address2": "","city": "LEPANTO","state": "AR","zip": "72354","zip+4": "3213","phone": "8704752617"}
{"name": "USA DRUG EXPRESS # #8419","address1": "10320 STAGECOACH RD","address2": "","city": "LITTLE ROCK","state": "AR","zip": "72210","zip+4": "5746","phone": "5014558080"}
{"name": "COLEMAN PHARMACY OF ALMA","address1": "18 HWY 162 SOUTH","address2": "","city": "ALMA","state": "AR","zip": "72921","zip+4": "0000","phone": "4796322248"}
{"name": "WALGREENS #12418","address1": "115 COMMONS DR","address2": "","city": "MAUMELLE","state": "AR","zip": "72113","zip+4": "7266","phone": "5018033274"}
{"name": "WALGREENS #12384","address1": "1800 AIRPORT RD","address2": "","city": "HOT SPRINGS","state": "AR","zip": "71913","zip+4": "5396","phone": "5017602089"}
{"name": "WALGREENS #12912","address1": "705 W CENTER ST","address2": "","city": "GREENWOOD","state": "AR","zip": "72936","zip+4": "3726","phone": "4799965522"}
{"name": "WALGREENS #12500","address1": "4206 W NEW HOPE RD","address2": "","city": "ROGERS","state": "AR","zip": "72758","zip+4": "8236","phone": "4796210958"}
{"name": "HARPS FOOD STORES INC","address1": "918 S GUTENSHON","address2": "","city": "SPRINGDALE","state": "AR","zip": "72762","zip+4": "0000","phone": ""}
{"name": "WAL-MART PHARMACY DIVISION","address1": "MAIL STOP 0230","address2": "702 SW 8TH ST","city": "BENTONVILLE","state": "AR","zip": "72716","zip+4": "9113","phone": "4792771242"},
{"name": "USA/SUPER D DRUG","address1": "3017 N MIDLAND DR","address2": "","city": "PINE BLUFF","state": "AR","zip": "71613","zip+4": "0000","phone": "8705355171"}