{"name": "M D PHARMACY","address1": "4550 N 51ST AVE","address2": "","city": "PHOENIX","state": "AZ","zip": "85031","zip+4": "1708","phone": "6238461888"}
{"name": "WESTERN DRUG INC","address1": "106 E MAIN","address2": "","city": "SPRINGERVILLE","state": "AZ","zip": "85938","zip+4": "0111","phone": "9283334321"}
{"name": "COMMUNITY PHCY","address1": "17233 N HOLMES BLVD","address2": "STE 1615","city": "PHOENIX","state": "AZ","zip": "85053","zip+4": "0000","phone": "6029932600"}
{"name": "CLINIC PHARMACY","address1": "1601 N TUCSON BLVD","address2": "SUITE 38","city": "TUCSON","state": "AZ","zip": "85716","zip+4": "0000","phone": "5203264224"}
{"name": "OLD PUEBLO PHCY UNITED DRUGS #","address1": "3272 HWY 82","address2": "","city": "SONOITA","state": "AZ","zip": "85637","zip+4": "0000","phone": "5204550058"}
{"name": "SANT DRUG INC","address1": "419 W 8TH ST","address2": "","city": "YUMA","state": "AZ","zip": "85364","zip+4": "2996","phone": "9287837856"}
{"name": "SCOTTSDALE PROFESSIONAL PHCY","address1": "10900 N SCOTTSDALE RD","address2": "SUITE 403","city": "SCOTTSDALE","state": "AZ","zip": "85254","zip+4": "0000","phone": "4809469477"}
{"name": "WALGREEN DRUG STORE #6063","address1": "1825 W BETHANY HOME","address2": "","city": "PHOENIX","state": "AZ","zip": "85015","zip+4": "0000","phone": "6022491288"}
{"name": "WALGREEN DRUG STORE #1272","address1": "5101 W INDIAN SCHOOL RD","address2": "","city": "PHOENIX","state": "AZ","zip": "85031","zip+4": "0000","phone": "6232471011"}
{"name": "WALGREEN DRUG STORE #3464","address1": "3402 N CENTRAL AVE","address2": "","city": "PHOENIX","state": "AZ","zip": "85012","zip+4": "0000","phone": "6022640848"}
{"name": "WALGREEN DRUG STORE #809","address1": "8911 N 7TH ST","address2": "","city": "PHOENIX","state": "AZ","zip": "85020","zip+4": "0000","phone": "6029441505"}
{"name": "WALGREEN DRUG STORE #7375","address1": "1840 W SOUTHERN AVE","address2": "","city": "PHOENIX","state": "AZ","zip": "85041","zip+4": "0000","phone": "6022830102"}
{"name": "WALGREEN DRUG STORE #3789","address1": "3605 E THOMAS ROAD","address2": "","city": "PHOENIX","state": "AZ","zip": "85018","zip+4": "0000","phone": "6022670648"}
{"name": "WALGREEN DRUG STORE #950","address1": "1900 EAST GRANT ROAD","address2": "","city": "TUCSON","state": "AZ","zip": "85719","zip+4": "0000","phone": "5203239304"}
{"name": "WALGREEN DRUG STORE #11183","address1": "3200 E SPEEDWAY BLVD","address2": "","city": "TUCSON","state": "AZ","zip": "85716","zip+4": "0000","phone": "5205461378"}
{"name": "WALGREEN DRUG STORE #6953","address1": "605 W AJO WAY","address2": "","city": "TUCSON","state": "AZ","zip": "85713","zip+4": "0000","phone": "5202940362"}
{"name": "WALGREEN DRUG STORE #2219","address1": "2801 S 4TH AVE","address2": "","city": "YUMA","state": "AZ","zip": "85364","zip+4": "0000","phone": "9283440350"}
{"name": "FRYS FOOD AND DRUG #660129","address1": "4724 N 20TH STREET","address2": "","city": "PHOENIX","state": "AZ","zip": "85016","zip+4": "0000","phone": "6022630771"}
{"name": "GRUNOW UNITED PHARMACY INC","address1": "926 E MCDOWELL RD","address2": "STE 109","city": "PHOENIX","state": "AZ","zip": "85006","zip+4": "2503","phone": "6022547397"}
{"name": "BUCKEYE HEALTH MART PHARMACY #","address1": "310 E MONROE","address2": "","city": "BUCKEYE","state": "AZ","zip": "85326","zip+4": "0000","phone": "6233864341"}
{"name": "ST JOHNS DRUG","address1": "1155 W CLEVELAND","address2": "","city": "ST JOHNS","state": "AZ","zip": "85936","zip+4": "0000","phone": "9283372229"}
{"name": "WALGREEN DRUG STORE #3120","address1": "10615 N 32ND STREET","address2": "","city": "PHOENIX","state": "AZ","zip": "85028","zip+4": "0000","phone": "6029961150"}
{"name": "WALGREEN DRUG STORE #5892","address1": "3910 E 22ND ST","address2": "","city": "TUCSON","state": "AZ","zip": "85711","zip+4": "0000","phone": "5207450968"}
{"name": "WALGREEN DRUG STORE #4102","address1": "6767 E BROADWAY BLVD","address2": "","city": "TUCSON","state": "AZ","zip": "85710","zip+4": "0000","phone": "5202900599"}
{"name": "WALGREEN DRUG STORE #2451","address1": "4220 N ORACLE RD","address2": "","city": "TUCSON","state": "AZ","zip": "85705","zip+4": "0000","phone": "5208875632"}
{"name": "WALGREEN DRUG STORE #1197","address1": "1745 E SOUTHERN AVE","address2": "","city": "TEMPE","state": "AZ","zip": "85282","zip+4": "0000","phone": "4808383640"}
{"name": "WALGREEN DRUG STORE #5504","address1": "4249 W GLENDALE AVE","address2": "","city": "PHOENIX","state": "AZ","zip": "85051","zip+4": "0000","phone": "6239374765"}
{"name": "WALGREEN DRUG STORE #5505","address1": "3502 W CAMELBACK RD","address2": "","city": "PHOENIX","state": "AZ","zip": "85019","zip+4": "0000","phone": "6025896298"}
{"name": "WALGREEN DRUG STORE #3593","address1": "2610 W THUNDERBIRD RD","address2": "","city": "PHOENIX","state": "AZ","zip": "85023","zip+4": "0000","phone": "6029939950"}
{"name": "WALGREEN DRUG STORE #5568","address1": "10707 W PEORIA AVE","address2": "","city": "SUN CITY","state": "AZ","zip": "85351","zip+4": "0000","phone": "6239728127"}
{"name": "WALGREEN DRUG STORE #813","address1": "15442 99TH AVE","address2": "","city": "SUN CITY","state": "AZ","zip": "85351","zip+4": "0000","phone": "6239742524"}
{"name": "WALGREEN DRUG STORE #10879","address1": "7111 E GOLF LINKS RD","address2": "","city": "TUCSON","state": "AZ","zip": "85730","zip+4": "1113","phone": "5207907734"}
{"name": "WALGREEN DRUG STORE #4045","address1": "4685 E GRANT RD","address2": "","city": "TUCSON","state": "AZ","zip": "85712","zip+4": "0000","phone": "5203251539"}
{"name": "WALGREEN DRUG STORE #07828","address1": "6002 E MAIN ST","address2": "","city": "MESA","state": "AZ","zip": "85205","zip+4": "8928","phone": "4809850155"}
{"name": "PALACE HEALTH MART PHARMACY #2","address1": "100 N BROAD ST","address2": "","city": "GLOBE","state": "AZ","zip": "85501","zip+4": "0000","phone": "9284255777"}
{"name": "MACK'S PHARMACY","address1": "3628 E THOMAS RD","address2": "","city": "PHOENIX","state": "AZ","zip": "85018","zip+4": "0000","phone": "6029568540"}
{"name": "WALGREEN DRUG STORE #6400","address1": "8030 N 19TH AVE","address2": "","city": "PHOENIX","state": "AZ","zip": "85021","zip+4": "0000","phone": "6029951285"}
{"name": "KMART PHARMACY #3188","address1": "2840 E MAIN ST","address2": "","city": "MESA","state": "AZ","zip": "85213","zip+4": "9377","phone": "4808323340"}
{"name": "WALGREEN DRUG STORE #3768","address1": "6404 S MCCLINTOCK DR","address2": "","city": "TEMPE","state": "AZ","zip": "85283","zip+4": "0000","phone": "4808388484"}
{"name": "WALGREEN DRUG STORE #1969","address1": "6006 N 67TH AVE","address2": "","city": "GLENDALE","state": "AZ","zip": "85301","zip+4": "0000","phone": "6239398323"}
{"name": "KMART PHARMACY #3108","address1": "3401 W GREENWAY RD","address2": "","city": "PHOENIX","state": "AZ","zip": "85053","zip+4": "0000","phone": "6029935200"}
{"name": "FRYS FOOD AND DRUG #660101","address1": "3232 S MILL AVE","address2": "","city": "TEMPE","state": "AZ","zip": "85282","zip+4": "3656","phone": "4808589044"}
{"name": "WALGREEN DRUG STORE #3087","address1": "5625 E THOMAS RD","address2": "","city": "PHOENIX","state": "AZ","zip": "85018","zip+4": "0000","phone": "4809490503"}
{"name": "SUN LIFE FAMILY HEALTH CENTER","address1": "865 N ARIZOLA RD","address2": "","city": "CASA GRANDE","state": "AZ","zip": "85222","zip+4": "0000","phone": "5208363446"}
{"name": "TOMS PHARMACY","address1": "40 N PLAZA ST","address2": "","city": "AJO","state": "AZ","zip": "85321","zip+4": "0087","phone": "5203877080"}
{"name": "WALGREEN DRUG STORE #3097","address1": "7115 E TANQUE VERDE RD","address2": "","city": "TUCSON","state": "AZ","zip": "85715","zip+4": "0000","phone": "5202967133"}
{"name": "KMART PHARMACY #3228","address1": "2526 W NORTHERN AVENUE","address2": "","city": "PHOENIX","state": "AZ","zip": "85021","zip+4": "0000","phone": "6029959068"}
{"name": "GOOTS PHARMACY #7106","address1": "1728 WEST GLENDALE AVE","address2": "","city": "PHOENIX","state": "AZ","zip": "85021","zip+4": "0000","phone": "6029950832"}
{"name": "WALGREEN DRUG STORE #6527","address1": "710 E CAMELBACK RD","address2": "","city": "PHOENIX","state": "AZ","zip": "85014","zip+4": "0000","phone": "6022662672"}
{"name": "TWO TWENTY TWO PHARMACY","address1": "222 W THOMAS RD","address2": "SUITE 108","city": "PHOENIX","state": "AZ","zip": "85013","zip+4": "4419","phone": "6024063970"}
{"name": "WALGREEN DRUG STORE #6128","address1": "19003 RH JOHNSON BLVD","address2": "","city": "SUN CITY WEST","state": "AZ","zip": "85375","zip+4": "0000","phone": "6235843000"}
{"name": "FRYS FOOD AND DRUG #660033","address1": "7050 E GOLF LINKS RD","address2": "","city": "TUCSON","state": "AZ","zip": "85730","zip+4": "0000","phone": "5207453003"}
{"name": "FRYS FOOD AND DRUG #660034","address1": "7812 E SPEEDWAY BLVD","address2": "","city": "TUCSON","state": "AZ","zip": "85710","zip+4": "0000","phone": "5208853540"}
{"name": "THE APOTHECARY SHOP","address1": "1840 MESQUITE AVE","address2": "STE E","city": "LAKE HAVASU CITY","state": "AZ","zip": "86403","zip+4": "5771","phone": "9288550106"}
{"name": "FRYS FOOD AND DRUG #660055","address1": "1915 S POWER ROAD","address2": "","city": "MESA","state": "AZ","zip": "85206","zip+4": "0000","phone": "4809240868"}
{"name": "FRYS FOOD AND DRUG #660005","address1": "7770 E MC DOWELL RD","address2": "","city": "SCOTTSDALE","state": "AZ","zip": "85257","zip+4": "0000","phone": "4809414704"}
{"name": "SAFEWAY #0247","address1": "1225 W GUADALUPE","address2": "","city": "MESA","state": "AZ","zip": "85202","zip+4": "0000","phone": "4808387720"}
{"name": "WALGREEN DRUG STORE #225","address1": "1549 WEST ST MARYS","address2": "","city": "TUCSON","state": "AZ","zip": "85745","zip+4": "0000","phone": "5206220944"}
{"name": "WALGREEN DRUG STORE #5668","address1": "8301 W CAMELBACK RD","address2": "","city": "PHOENIX","state": "AZ","zip": "85037","zip+4": "0000","phone": "6238490756"}
{"name": "WALGREEN DRUG STORE #4506","address1": "8015 E INDIAN SCHOOL RD","address2": "","city": "SCOTTSDALE","state": "AZ","zip": "85251","zip+4": "0000","phone": "4809900055"}
{"name": "WALGREEN DRUG STORE #4508","address1": "3431 W UNION HILLS","address2": "","city": "PHOENIX","state": "AZ","zip": "85027","zip+4": "0000","phone": "6025646424"}
{"name": "SAFEWAY #2042","address1": "3132 E CAMELBACK RD","address2": "","city": "PHOENIX","state": "AZ","zip": "85016","zip+4": "0000","phone": "6029574265"}
{"name": "WALGREEN DRUG STORE #4139","address1": "3450 W DUNLAP RD","address2": "","city": "PHOENIX","state": "AZ","zip": "85051","zip+4": "0000","phone": "6029730592"}
{"name": "WALGREEN DRUG STORE #4228","address1": "5125 W NORTHERN AVE","address2": "","city": "GLENDALE","state": "AZ","zip": "85301","zip+4": "0000","phone": "6238421229"}
{"name": "UPTOWN DRUG #1","address1": "2820 E ANDY DEVINE AVE","address2": "","city": "KINGMAN","state": "AZ","zip": "86401","zip+4": "4205","phone": "9287532226"}
{"name": "WALGREEN DRUG STORE #3670","address1": "1159 E SOUTHERN AVE","address2": "","city": "MESA","state": "AZ","zip": "85204","zip+4": "0000","phone": "4805078702"}
{"name": "FRYS FOOD AND DRUG #660048","address1": "1385 E FLORENCE BLVD","address2": "","city": "CASA GRANDE","state": "AZ","zip": "85222","zip+4": "5318","phone": "5208360901"}
{"name": "THRIFTY UNITED DRUG","address1": "755 S CENTRAL AVE","address2": "","city": "SAFFORD","state": "AZ","zip": "85546","zip+4": "2722","phone": "9284281156"}
{"name": "FRYS FOOD AND DRUG #660006","address1": "5771 W THUNDERBIRD RD","address2": "","city": "GLENDALE","state": "AZ","zip": "85306","zip+4": "0000","phone": "6029784998"}
{"name": "FRYS FOOD AND DRUG #660020","address1": "3640 S 16TH AVENUE","address2": "","city": "TUCSON","state": "AZ","zip": "85713","zip+4": "0000","phone": "5206246936"}
{"name": "SAFEWAY #0274","address1": "450 WHITE SPAR RD","address2": "","city": "PRESCOTT","state": "AZ","zip": "86303","zip+4": "0000","phone": "9287783098"}
{"name": "SUNSHINE PHARMACY","address1": "7725 N 43RD AVE","address2": "STE 311","city": "PHOENIX","state": "AZ","zip": "85051","zip+4": "0000","phone": "6239310457"}
{"name": "FRYS FOOD AND DRUG #660039","address1": "1625 W CAMELBACK RD","address2": "","city": "PHOENIX","state": "AZ","zip": "85015","zip+4": "0000","phone": "6022644820"}
{"name": "WILMONT CENTER PHARMACY","address1": "6369 E TANQUE VERDE STE 100","address2": "","city": "TUCSON","state": "AZ","zip": "85715","zip+4": "3833","phone": "5207213088"}
{"name": "UPTOWN NORTH UNITED DRUG #2","address1": "4495 N BANK ST","address2": "STE 1","city": "KINGMAN","state": "AZ","zip": "86409","zip+4": "0000","phone": "9287571131"}
{"name": "WALGREEN DRUG STORE #4104","address1": "2411 N ORACLE ROAD","address2": "","city": "TUCSON","state": "AZ","zip": "85705","zip+4": "0000","phone": "5206233125"}
{"name": "WALGREEN DRUG STORE #4018","address1": "2345 E BASELINE RD","address2": "","city": "GILBERT","state": "AZ","zip": "85234","zip+4": "0000","phone": "4808924942"}
{"name": "WALGREEN DRUG STORE #3727","address1": "1919 N DOBSON ROAD","address2": "","city": "CHANDLER","state": "AZ","zip": "85224","zip+4": "0000","phone": "4808996711"}
{"name": "WALGREEN DRUG STORE #4344","address1": "1514 E FLORENCE BLVD","address2": "","city": "CASA GRANDE","state": "AZ","zip": "85222","zip+4": "0000","phone": "5208361940"}
{"name": "WALGREEN DRUG STORE #4764","address1": "5455 E SPEEDWAY BLVD","address2": "","city": "TUCSON","state": "AZ","zip": "85712","zip+4": "4997","phone": "5203237590"}
{"name": "WALGREEN DRUG STORE #7209","address1": "3800 W INA RD","address2": "","city": "TUCSON","state": "AZ","zip": "85741","zip+4": "0000","phone": "5207443903"}
{"name": "FRYS FOOD AND DRUG #660019","address1": "3920 E GRANT RD","address2": "","city": "TUCSON","state": "AZ","zip": "85712","zip+4": "0000","phone": "5203232695"}
{"name": "WALGREEN DRUG STORE #3767","address1": "2737 E MCKELLIPS RD","address2": "","city": "MESA","state": "AZ","zip": "85213","zip+4": "0000","phone": "4808350898"}
{"name": "FRYS FOOD AND DRUG #660021","address1": "555 E GRANT ROAD","address2": "","city": "TUCSON","state": "AZ","zip": "85705","zip+4": "0000","phone": "5206289428"}
{"name": "FRYS FOOD AND DRUG #660036","address1": "3770 W INA ROAD","address2": "","city": "TUCSON","state": "AZ","zip": "85741","zip+4": "0000","phone": "5207442777"}
{"name": "WALGREEN DRUG STORE #5208","address1": "25 LAKE HAVASU AVE S","address2": "","city": "LAKE HAVASU CITY","state": "AZ","zip": "86403","zip+4": "0000","phone": "9284531110"}
{"name": "WALGREEN DRUG STORE #6766","address1": "1880 E IRVINGTON RD","address2": "","city": "TUCSON","state": "AZ","zip": "85714","zip+4": "0000","phone": "5208893902"}
{"name": "THE COMPOUNDING CENTER INC","address1": "4045 E BELL RD","address2": "STE 163","city": "PHOENIX","state": "AZ","zip": "85032","zip+4": "2208","phone": "6029716950"}
{"name": "FRYS FOOD AND DRUG #660038","address1": "731 E BELL ROAD","address2": "","city": "PHOENIX","state": "AZ","zip": "85022","zip+4": "0000","phone": "6023750477"}
{"name": "FRYS FOOD AND DRUG #660041","address1": "825 W UNIVERSITY DR","address2": "","city": "MESA","state": "AZ","zip": "85201","zip+4": "0000","phone": "4808447197"}
{"name": "FRYS FOOD AND DRUG #660037","address1": "981 W ELLIOTT RD","address2": "","city": "CHANDLER","state": "AZ","zip": "85225","zip+4": "1881","phone": "4808212298"}
{"name": "FRYS FOOD AND DRUG #660040","address1": "3421 W THUNDERBIRD RD","address2": "","city": "PHOENIX","state": "AZ","zip": "85053","zip+4": "5602","phone": "6023750193"}
{"name": "WALGREEN DRUG STORE #1065","address1": "4827 E GREENWAY","address2": "","city": "SCOTTSDALE","state": "AZ","zip": "85254","zip+4": "0000","phone": "6029962531"}
{"name": "WALGREEN DRUG STORE #9202","address1": "1142 W GUADALUPE RD","address2": "","city": "MESA","state": "AZ","zip": "85210","zip+4": "0000","phone": "4803457365"}
{"name": "WALGREEN DRUG STORE #3769","address1": "1616 E THOMAS","address2": "","city": "PHOENIX","state": "AZ","zip": "85016","zip+4": "0000","phone": "6022638205"}
{"name": "CAMELBACK VILLAGE","address1": "4416 E CAMELBACK RD","address2": "","city": "PHOENIX","state": "AZ","zip": "85018","zip+4": "2824","phone": "6029552880"}
{"name": "WALGREEN DRUG STORE #3477","address1": "204 E BELL ROAD","address2": "","city": "PHOENIX","state": "AZ","zip": "85022","zip+4": "0000","phone": "6023750091"}
{"name": "WALGREEN DRUG STORE #1599","address1": "4747 E ELLIOT","address2": "","city": "AHWATUKEE","state": "AZ","zip": "85044","zip+4": "0000","phone": "4804960017"}
{"name": "WALGREEN DRUG STORE #6736","address1": "4410 W CACTUS RD","address2": "","city": "GLENDALE","state": "AZ","zip": "85304","zip+4": "0000","phone": "6029385044"}
{"name": "WALGREEN DRUG STORE #6645","address1": "5525 E RIVER RD","address2": "","city": "TUCSON","state": "AZ","zip": "85750","zip+4": "0000","phone": "5205778757"}
{"name": "WALGREEN DRUG STORE #9262","address1": "8469 E MCDONALD DR","address2": "","city": "SCOTTSDALE","state": "AZ","zip": "85250","zip+4": "6335","phone": "4804831045"}
{"name": "MG PHARMACY","address1": "4025 W BELL","address2": "STE 1A","city": "PHOENIX","state": "AZ","zip": "85053","zip+4": "0000","phone": "6024393366"}
{"name": "WALGREEN DRUG STORE #3856","address1": "5480 E 22ND ST","address2": "","city": "TUCSON","state": "AZ","zip": "85711","zip+4": "0000","phone": "5207904024"}
{"name": "WALGREEN DRUG STORE #6571","address1": "2180 W GRANT RD","address2": "","city": "TUCSON","state": "AZ","zip": "85745","zip+4": "0000","phone": "5206235285"}
{"name": "WALGREEN DRUG STORE #6872","address1": "2930 N 67TH AVENUE","address2": "","city": "PHOENIX","state": "AZ","zip": "85033","zip+4": "0000","phone": "6238495995"}
{"name": "SMITHS PHARMACY #190 #706190","address1": "3490 STOCKTON HILL RD","address2": "","city": "KINGMAN","state": "AZ","zip": "86401","zip+4": "0738","phone": "9287573338"}
{"name": "SMITHS PHARMACY #191 #706191","address1": "1775 LAKESIDE DR","address2": "","city": "BULLHEAD","state": "AZ","zip": "86442","zip+4": "0000","phone": "9287638777"}
{"name": "WALGREEN DRUG STORE #5776","address1": "1451 N DYSART RD","address2": "","city": "AVONDALE","state": "AZ","zip": "85323","zip+4": "0000","phone": "6239250270"}
{"name": "WALGREEN DRUG STORE #4019","address1": "7455 W PEORIA AVE","address2": "","city": "PEORIA","state": "AZ","zip": "85345","zip+4": "0000","phone": "6238787838"}
{"name": "WALGREEN DRUG STORE #4376","address1": "1825 E WARNER RD","address2": "","city": "TEMPE","state": "AZ","zip": "85284","zip+4": "0000","phone": "4808209982"}
{"name": "FRYS FOOD AND DRUG #660012","address1": "18420 N 19TH AVENUE","address2": "","city": "PHOENIX","state": "AZ","zip": "85023","zip+4": "0000","phone": "6029936610"}
{"name": "FRYS FOOD AND DRUG #660025","address1": "7628A E INDIAN SCHOOL RD","address2": "","city": "SCOTTSDALE","state": "AZ","zip": "85251","zip+4": "0000","phone": "4809940212"}
{"name": "FRYS FOOD AND DRUG #660026","address1": "5116 W OLIVE AVE","address2": "","city": "GLENDALE","state": "AZ","zip": "85302","zip+4": "0000","phone": "6239374771"}
{"name": "FRYS FOOD AND DRUG #660028","address1": "4315 W BELL ROAD","address2": "","city": "GLENDALE","state": "AZ","zip": "85308","zip+4": "0000","phone": "6029382600"}
{"name": "GENRICH PHARMACY","address1": "333 E VIRGINIA AVE","address2": "STE 120","city": "PHOENIX","state": "AZ","zip": "85004","zip+4": "1206","phone": "6022571196"}
{"name": "FRYS FOOD AND DRUG #660116","address1": "950 FAIR STREET","address2": "","city": "PRESCOTT","state": "AZ","zip": "86301","zip+4": "0000","phone": "9287786887"}
{"name": "MAYO PHARMACY SCOTTSDALE #201","address1": "13400 E SHEA BLVD","address2": "","city": "SCOTTSDALE","state": "AZ","zip": "85259","zip+4": "5499","phone": "4803018195"}
{"name": "SUN DRUGS","address1": "10810 E VIA LINDA","address2": "","city": "SCOTTSDALE","state": "AZ","zip": "85259","zip+4": "0000","phone": "4808606866"}
{"name": "FRYS FOOD AND DRUG #660042","address1": "9401 E 22ND ST","address2": "","city": "TUCSON","state": "AZ","zip": "85710","zip+4": "7343","phone": "5207219250"}
{"name": "FRYS FOOD AND DRUG #660043","address1": "2700 W BASELINE RD","address2": "","city": "TEMPE","state": "AZ","zip": "85283","zip+4": "0000","phone": "6024382807"}
{"name": "WALGREEN DRUG STORE #4435","address1": "4420 E BROWN","address2": "","city": "MESA","state": "AZ","zip": "85205","zip+4": "0000","phone": "4803968191"}
{"name": "WALGREEN DRUG STORE #6697","address1": "7606 S 7TH ST","address2": "","city": "PHOENIX","state": "AZ","zip": "85041","zip+4": "0000","phone": "6022431344"}
{"name": "WALGREEN DRUG STORE #1950","address1": "10135 E VIA LINDA","address2": "","city": "SCOTTSDALE","state": "AZ","zip": "85258","zip+4": "0000","phone": "4803913759"}
{"name": "FRYS FOOD AND DRUG #660104","address1": "201 N SWITZER CANYON ROAD","address2": "","city": "FLAGSTAFF","state": "AZ","zip": "86001","zip+4": "0000","phone": "9287743389"}
{"name": "FRYS FOOD AND DRUG #660046","address1": "520 E BASELINE RD","address2": "","city": "PHOENIX","state": "AZ","zip": "85042","zip+4": "6554","phone": "6022433014"}
{"name": "WALGREEN DRUG STORE #6533","address1": "100 S BEELINE HWY","address2": "","city": "PAYSON","state": "AZ","zip": "85541","zip+4": "0000","phone": "9284741289"}
{"name": "WALGREEN DRUG STORE #09057","address1": "18433 N 19TH AVE","address2": "","city": "PHOENIX","state": "AZ","zip": "85023","zip+4": "1359","phone": "6235829894"}
{"name": "FRYS FOOD AND DRUG #660138","address1": "4036 N 1ST STREET","address2": "","city": "TUCSON","state": "AZ","zip": "85719","zip+4": "0000","phone": "5202938997"}
{"name": "FRYS FOOD AND DRUG #660137","address1": "7050 E 22ND ST","address2": "","city": "TUCSON","state": "AZ","zip": "85710","zip+4": "5113","phone": "5207909492"}
{"name": "FRYS FOOD AND DRUG #660131","address1": "2480 N SWAN RD","address2": "","city": "TUCSON","state": "AZ","zip": "85712","zip+4": "5701","phone": "5203277016"}
{"name": "WALGREEN DRUG STORE #3913","address1": "2360 S HIGHWAY 95","address2": "","city": "BULLHEAD CITY","state": "AZ","zip": "86442","zip+4": "0000","phone": "9287636777"}
{"name": "FRYS FOOD AND DRUG #660045","address1": "7455 W CACTUS RD","address2": "","city": "PEORIA","state": "AZ","zip": "85345","zip+4": "0000","phone": "6234860441"}
{"name": "WAL-MART PHARMACY #101149","address1": "755 SO 20TH AVE","address2": "","city": "SAFFORD","state": "AZ","zip": "85546","zip+4": "0000","phone": "9284282291"}
{"name": "FRYS FOOD AND DRUG #660058","address1": "2001 E IRVINGTON RD","address2": "","city": "TUCSON","state": "AZ","zip": "85714","zip+4": "0000","phone": "5202947165"}
{"name": "WALGREEN DRUG STORE #3837","address1": "1550 W VALENCIA","address2": "","city": "TUCSON","state": "AZ","zip": "85746","zip+4": "0000","phone": "5207412346"}
{"name": "S AND G PHARMACY INC","address1": "3201 W PEORIA","address2": "STE 401 B","city": "PHOENIX","state": "AZ","zip": "85029","zip+4": "4610","phone": "6023753377"}
{"name": "WALGREEN DRUG STORE #2079","address1": "3131 E THUNDERBIRD RD","address2": "","city": "PHOENIX","state": "AZ","zip": "85032","zip+4": "0000","phone": "6029923885"}
{"name": "WALGREEN DRUG STORE #1900","address1": "9115 E TANQUE VERDE","address2": "","city": "TUCSON","state": "AZ","zip": "85749","zip+4": "0000","phone": "5207490616"}
{"name": "FRYS FOOD AND DRUG #660022","address1": "1835 E GUADALUPE RD","address2": "","city": "TEMPE","state": "AZ","zip": "85283","zip+4": "0000","phone": "4808380448"}
{"name": "SAFEWAY #1055","address1": "7720 E HWY 69","address2": "","city": "PRESCOTT VALLEY","state": "AZ","zip": "86314","zip+4": "0000","phone": "9287727673"}
{"name": "SAFEWAY #1202","address1": "3131 E THUNDERBIRD RD","address2": "","city": "PHOENIX","state": "AZ","zip": "85032","zip+4": "0000","phone": "6029717482"}
{"name": "WALGREEN DRUG STORE #5937","address1": "4315 W MCDOWELL RD","address2": "","city": "PHOENIX","state": "AZ","zip": "85035","zip+4": "0000","phone": "6023520076"}
{"name": "WALGREEN DRUG STORE #4722","address1": "4111 N 24TH ST","address2": "","city": "PHOENIX","state": "AZ","zip": "85016","zip+4": "0000","phone": "6023810275"}
{"name": "WAL-MART PHARMACY #101240","address1": "657 STATE HWY 90","address2": "","city": "SIERRA VISTA","state": "AZ","zip": "85635","zip+4": "0000","phone": "5204589690"}
{"name": "SAFEWAY #1515","address1": "810 E GLENDALE AVE","address2": "","city": "PHOENIX","state": "AZ","zip": "85020","zip+4": "0000","phone": "6023310440"}
{"name": "SAFEWAY #1170","address1": "18631 N 19TH AVE","address2": "","city": "PHOENIX","state": "AZ","zip": "85027","zip+4": "0000","phone": "6237801035"}
{"name": "WAL-MART PHARMACY #101175","address1": "2750 S WOODLANDS VILLAGE BLVD","address2": "","city": "FLAGSTAFF","state": "AZ","zip": "86001","zip+4": "0000","phone": "9287731013"}
{"name": "WAL-MART PHARMACY #101218","address1": "1741 EAST FLORENCE BLVD","address2": "","city": "CASA GRANDE","state": "AZ","zip": "85222","zip+4": "0000","phone": "5204211234"}
{"name": "WAL-MART PHARMACY #101230","address1": "5401 SOUTH WHITE MOUNTAIN ROAD","address2": "","city": "SHOW LOW","state": "AZ","zip": "85901","zip+4": "0000","phone": "9285373010"}
{"name": "KMART PHARMACY #9528","address1": "3340 E ANDY DEVINE AVE","address2": "","city": "KINGMAN","state": "AZ","zip": "86401","zip+4": "0000","phone": "9287573909"}
{"name": "KMART PHARMACY #3707","address1": "1870 MC CULLOCH BLVD","address2": "","city": "LAKE HAVASU CITY","state": "AZ","zip": "86403","zip+4": "0000","phone": "9284538118"}
{"name": "FRYS FOOD AND DRUG #660002","address1": "3036 E THOMAS ROAD","address2": "","city": "PHOENIX","state": "AZ","zip": "85016","zip+4": "0000","phone": "6024689188"}
{"name": "WAL-MART PHARMACY #101299","address1": "2003 E RODEO DRIVE","address2": "","city": "COTTONWOOD","state": "AZ","zip": "86326","zip+4": "0000","phone": "9286340440"}
{"name": "FLAGSTAFF PHARMACY","address1": "77 W FOREST AVE","address2": "STE 104","city": "FLAGSTAFF","state": "AZ","zip": "86001","zip+4": "0000","phone": "9287732565"}
{"name": "FRYS FOOD AND DRUG #660049","address1": "390 N LITCHFIELD ROAD","address2": "","city": "GOODYEAR","state": "AZ","zip": "85338","zip+4": "0000","phone": "6239250233"}
{"name": "WALGREEN DRUG STORE #4046","address1": "3960 E CHANDLER BLVD","address2": "","city": "PHOENIX","state": "AZ","zip": "85044","zip+4": "0000","phone": "4807590687"}
{"name": "WAL-MART PHARMACY #101325","address1": "455 EAST WETMORE","address2": "","city": "TUCSON","state": "AZ","zip": "85705","zip+4": "0000","phone": "5208877007"}
{"name": "WAL-MART PHARMACY #101291","address1": "7150 EAST SPEEDWAY","address2": "","city": "TUCSON","state": "AZ","zip": "85710","zip+4": "0000","phone": "5207228669"}
{"name": "WAL-MART PHARMACY #101324","address1": "100 WEST WHITE PARK DRIVE","address2": "","city": "NOGALES","state": "AZ","zip": "85621","zip+4": "0000","phone": "5202812594"}
{"name": "WAL-MART PHARMACY #101328","address1": "700 MIKES PIKE ST","address2": "","city": "WINSLOW","state": "AZ","zip": "86047","zip+4": "0000","phone": "9282893301"}
{"name": "FRYS FOOD AND DRUG #660103","address1": "1100 HIGHWAY 279","address2": "","city": "COTTONWOOD","state": "AZ","zip": "86326","zip+4": "0000","phone": "9286349338"}
{"name": "SAFEWAY #1201","address1": "4005 E CHANDLER BLVD","address2": "","city": "PHOENIX","state": "AZ","zip": "85044","zip+4": "0000","phone": "4807594479"}
{"name": "CIVIC CENTER PHARMACY","address1": "7331 E OSBORN DR","address2": "","city": "SCOTTSDALE","state": "AZ","zip": "85251","zip+4": "6450","phone": "4809459519"}
{"name": "WAL-MART PHARMACY #101334","address1": "100 SOUTH RAGUS RD","address2": "","city": "CLAYPOOL","state": "AZ","zip": "85532","zip+4": "0000","phone": "9284257661"}
{"name": "KMART PHARMACY #3375","address1": "2250 S HWY 95 SUITE 256","address2": "","city": "BULLHEAD CITY","state": "AZ","zip": "86442","zip+4": "6012","phone": "9287637272"}
{"name": "WALGREEN DRUG STORE #7623","address1": "1959 N GRAND AVE","address2": "","city": "NOGALES","state": "AZ","zip": "85621","zip+4": "0000","phone": "5202819231"}
{"name": "WALGREEN DRUG STORE #2248","address1": "840 S ALMA SCHOOL","address2": "","city": "MESA","state": "AZ","zip": "85210","zip+4": "0000","phone": "4804611285"}
{"name": "MEDICAL ARTS PHARMACY","address1": "1946 S DOBSON RD","address2": "STE 3","city": "MESA","state": "AZ","zip": "85202","zip+4": "6456","phone": "4803452555"}
{"name": "OSCO DRUG #940","address1": "750 E GUADALUPE","address2": "","city": "TEMPE","state": "AZ","zip": "85283","zip+4": "0000","phone": "4808204478"}
{"name": "FRYS FOOD AND DRUG #660121","address1": "4025 E THUNDERBIRD RD","address2": "","city": "PHOENIX","state": "AZ","zip": "85032","zip+4": "5836","phone": "6029533540"}
{"name": "FRYS FOOD AND DRUG #660122","address1": "10660 NW GRAND AVENUE","address2": "","city": "SUN CITY","state": "AZ","zip": "85351","zip+4": "0000","phone": "6238768220"}
{"name": "FRYS FOOD AND DRUG #660123","address1": "2727 E BROADWAY RD","address2": "","city": "MESA","state": "AZ","zip": "85204","zip+4": "0000","phone": "4804644742"}
{"name": "FRYS FOOD AND DRUG #660128","address1": "744 W CAMELBACK RD","address2": "","city": "PHOENIX","state": "AZ","zip": "85013","zip+4": "0000","phone": "6022799337"}
{"name": "WAL-MART PHARMACY #101369","address1": "300 N BEELINE HWY","address2": "","city": "PAYSON","state": "AZ","zip": "85541","zip+4": "0000","phone": "0928470434"}
{"name": "WALGREEN DRUG STORE #06582","address1": "9230 E MAIN ST","address2": "","city": "MESA","state": "AZ","zip": "85207","zip+4": "8803","phone": "4803800087"}
{"name": "KMART PHARMACY #3695","address1": "2011 EAST FRY BLVD","address2": "","city": "SIERRA VISTA","state": "AZ","zip": "85635","zip+4": "0000","phone": "5204583388"}
{"name": "WAL-MART PHARMACY #101364","address1": "5695 HWY 95 N","address2": "","city": "LAKE HAVASU CITY","state": "AZ","zip": "86403","zip+4": "0000","phone": "9284538515"}
{"name": "WAL-MART PHARMACY #101411","address1": "18680 S NOGALES HWY","address2": "","city": "SAHUARITA","state": "AZ","zip": "85629","zip+4": "0000","phone": "5206253824"}
{"name": "WALGREEN DRUG STORE #2273","address1": "1500 E CEDAR","address2": "","city": "FLAGSTAFF","state": "AZ","zip": "86004","zip+4": "0000","phone": "9287731011"}
{"name": "OSCO DRUG #941","address1": "5040 W CACTUS RD","address2": "","city": "GLENDALE","state": "AZ","zip": "85304","zip+4": "0000","phone": "6028430351"}
{"name": "SAFEWAY #1225","address1": "1500 E CEDAR AVE","address2": "","city": "FLAGSTAFF","state": "AZ","zip": "86004","zip+4": "0000","phone": "9287743750"}
{"name": "FRYS FOOD AND DRUG #660126","address1": "6601 W INDIAN SCHOOL ROAD","address2": "","city": "PHOENIX","state": "AZ","zip": "85033","zip+4": "0000","phone": "6238461533"}
{"name": "FRYS FOOD AND DRUG #660127","address1": "4202 W CACTUS ROAD","address2": "","city": "PHOENIX","state": "AZ","zip": "85029","zip+4": "0000","phone": "6024399045"}
{"name": "SAFEWAY #1733","address1": "900 W DEUCE OF CLUBS","address2": "","city": "SHOW LOW","state": "AZ","zip": "85901","zip+4": "0000","phone": "9285325659"}
{"name": "SAFEWAY #0255","address1": "1551 W ST MARYS RD","address2": "","city": "TUCSON","state": "AZ","zip": "85745","zip+4": "0000","phone": "5206248230"}
{"name": "APOTHECARY SHOP OF SCOTTSDALE","address1": "9777 N 91ST ST","address2": "STE 102","city": "SCOTTSDALE","state": "AZ","zip": "85258","zip+4": "0000","phone": "4804513771"}
{"name": "WALGREEN DRUG STORE #6177","address1": "1135 N MESA DR","address2": "","city": "MESA","state": "AZ","zip": "85201","zip+4": "0000","phone": "4808988023"}
{"name": "WALGREEN DRUG STORE #2232","address1": "313 W ESPERANZA","address2": "","city": "GREEN VALLEY","state": "AZ","zip": "85614","zip+4": "0000","phone": "5206259187"}
{"name": "WALGREEN DRUG STORE #2398","address1": "925 WEST BASELINE STE 108","address2": "","city": "TEMPE","state": "AZ","zip": "85283","zip+4": "0000","phone": "4808201566"}
{"name": "KEARNY HEALTH MART PHARMACY #2","address1": "338 ALDEN RD","address2": "","city": "KEARNY","state": "AZ","zip": "85237","zip+4": "1150","phone": "5203635503"}
{"name": "FRYS FOOD AND DRUG #660015","address1": "3751 E BASELINE RD","address2": "","city": "GILBERT","state": "AZ","zip": "85234","zip+4": "0000","phone": "4808922217"}
{"name": "WAL-MART PHARMACY #101512","address1": "800 WEST WARNER ROAD","address2": "","city": "CHANDLER","state": "AZ","zip": "85224","zip+4": "0000","phone": "4807860682"}
{"name": "WAL-MART PHARMACY #101532","address1": "5845 WEST BELL ROAD","address2": "","city": "GLENDALE","state": "AZ","zip": "85306","zip+4": "0000","phone": "6029788323"}
{"name": "SAFEWAY #1207","address1": "2300 W HWY 89A","address2": "","city": "SEDONA","state": "AZ","zip": "86336","zip+4": "0000","phone": "9282821712"}
{"name": "SAFEWAY #0216","address1": "1650 MCCULLOCH","address2": "","city": "LAKE HAVASU","state": "AZ","zip": "86403","zip+4": "0000","phone": "9288559200"}
{"name": "FRYS FOOD AND DRUG #660107","address1": "500 W 24TH STREET","address2": "","city": "YUMA","state": "AZ","zip": "85364","zip+4": "0000","phone": "9287822529"}
{"name": "KMART PHARMACY #3924","address1": "750 W DEUCE OF CLUBS","address2": "","city": "SHOW LOW","state": "AZ","zip": "85901","zip+4": "0000","phone": "9285375234"}
{"name": "WAL-MART PHARMACY #101533","address1": "7975 W PEORIA AVENUE","address2": "","city": "PEORIA","state": "AZ","zip": "85345","zip+4": "0000","phone": "6238784307"}
{"name": "OSCO DRUG #948","address1": "441 N VAL VISTA","address2": "","city": "MESA","state": "AZ","zip": "85213","zip+4": "0000","phone": "4808305185"}
{"name": "WAL-MART PHARMACY #101474","address1": "2900 S PACIFIC AVE","address2": "","city": "YUMA","state": "AZ","zip": "85364","zip+4": "0000","phone": "9283411288"}
{"name": "GOODWIN ST PHARMACY","address1": "406 W GOODWIN ST","address2": "","city": "PRESCOTT","state": "AZ","zip": "86303","zip+4": "3737","phone": "9284453550"}
{"name": "WALGREEN DRUG STORE #4065","address1": "1995 HIGHWAY 89A","address2": "","city": "SEDONA","state": "AZ","zip": "86336","zip+4": "0000","phone": "9282822528"}
{"name": "WAL-MART PHARMACY #101442","address1": "1017 WEST HAUL ROAD","address2": "","city": "PAGE","state": "AZ","zip": "86040","zip+4": "0000","phone": "9286452917"}
{"name": "WAL-MART PHARMACY #101598","address1": "4617 EAST BELL ROAD","address2": "","city": "PHOENIX","state": "AZ","zip": "85032","zip+4": "0000","phone": "6024825511"}
{"name": "SAFEWAY #1253","address1": "23565 N SCOTTSDALE RD","address2": "","city": "SCOTTSDALE","state": "AZ","zip": "85255","zip+4": "0000","phone": "4805859650"}
{"name": "FRYS FOOD AND DRUG #660130","address1": "2075 N ALMA SCHOOL RD","address2": "","city": "CHANDLER","state": "AZ","zip": "85224","zip+4": "2823","phone": "4809633109"}
{"name": "FRYS FOOD AND DRUG #660109","address1": "2115 US HIGHWAY 60 SUITE 200","address2": "","city": "MIAMI","state": "AZ","zip": "85539","zip+4": "0000","phone": "9284258165"}
{"name": "WAL-MART PHARMACY #101381","address1": "2555 WEST APACHE TRAIL","address2": "","city": "APACHE JUNCTION","state": "AZ","zip": "85220","zip+4": "0000","phone": "4803803300"}
{"name": "WAL-MART PHARMACY #101646","address1": "6131 EAST SOUTHERN AVE.","address2": "","city": "MESA","state": "AZ","zip": "85206","zip+4": "0000","phone": "4808304229"}
{"name": "WALGREEN DRUG STORE #6060","address1": "16415 E PALISADES BLVD","address2": "","city": "FOUNTAIN HILLS","state": "AZ","zip": "85268","zip+4": "0000","phone": "4808376745"}
{"name": "FRYS FOOD AND DRUG #660124","address1": "3255 S RURAL RD","address2": "","city": "TEMPE","state": "AZ","zip": "85282","zip+4": "3853","phone": "4808291857"}
{"name": "FRYS FOOD AND DRUG #660119","address1": "902 W IRVINGTON RD","address2": "","city": "TUCSON","state": "AZ","zip": "85714","zip+4": "2437","phone": "5208896551"}
{"name": "WAL-MART PHARMACY #101549","address1": "2020 NORTH 75TH AVE.","address2": "","city": "PHOENIX","state": "AZ","zip": "85035","zip+4": "0000","phone": "6238494055"}
{"name": "SAFEWAY #1291","address1": "13733 FOUNTAIN HILLS BLVD","address2": "","city": "FOUNTAIN HILLS","state": "AZ","zip": "85268","zip+4": "0000","phone": "4808371690"}
{"name": "WAL-MART PHARMACY #101417","address1": "3050 NORTH HWY 69","address2": "","city": "PRESCOTT","state": "AZ","zip": "86301","zip+4": "0000","phone": "9284453020"}
{"name": "WAL-MART PHARMACY #101612","address1": "1650 WEST VALENCIA","address2": "","city": "TUCSON","state": "AZ","zip": "85746","zip+4": "0000","phone": "5205733167"}
{"name": "SMITHS PHARMACY #188 #706188","address1": "80 N ACOMA BLVD","address2": "","city": "LAKE HAVASU CITY","state": "AZ","zip": "86403","zip+4": "0000","phone": "9286804449"}
{"name": "FRYS FOOD AND DRUG #660125","address1": "10450 N 90TH ST","address2": "","city": "SCOTTSDALE","state": "AZ","zip": "85258","zip+4": "4406","phone": "4806610238"}
{"name": "OSCO DRUG #952","address1": "8035 N 19TH AVE","address2": "","city": "PHOENIX","state": "AZ","zip": "85021","zip+4": "0000","phone": "6026780594"}
{"name": "OSCO DRUG #955","address1": "2785 N SCOTTSDALE RD","address2": "","city": "SCOTTSDALE","state": "AZ","zip": "85257","zip+4": "0000","phone": "4809477574"}
{"name": "WALGREEN DRUG STORE #2555","address1": "178 E SHELDON","address2": "","city": "PRESCOTT","state": "AZ","zip": "86301","zip+4": "0000","phone": "9287761614"}
{"name": "WALGREEN DRUG STORE #2599","address1": "7337 PASEO DEL SUR","address2": "","city": "SCOTTSDALE","state": "AZ","zip": "85258","zip+4": "0000","phone": "4809510713"}
{"name": "SAFEWAY #0239","address1": "1601 N PARK DRRIVE","address2": "","city": "WINSLOW","state": "AZ","zip": "86047","zip+4": "0000","phone": "9282894615"}
{"name": "SAFEWAY #1747","address1": "1031 N HIGHWAY 89","address2": "","city": "CHINO VALLEY","state": "AZ","zip": "86323","zip+4": "0000","phone": "9286368425"}
{"name": "SAFEWAY #0240","address1": "3450 W BELL RD","address2": "","city": "PHOENIX","state": "AZ","zip": "85023","zip+4": "0000","phone": "6027899643"}
{"name": "WAL-MART PHARMACY #101746","address1": "1380 WEST ELLIOTT ROAD","address2": "","city": "TEMPE","state": "AZ","zip": "85283","zip+4": "0000","phone": "4803451114"}
{"name": "WELLS","address1": "239 N LITCHFIELD RD","address2": "","city": "GOODYEAR","state": "AZ","zip": "85338","zip+4": "1288","phone": "6239323040"}
{"name": "KMART PHARMACY #3923","address1": "300 WEST MARIPOSA ROAD","address2": "","city": "NOGALES","state": "AZ","zip": "85621","zip+4": "0000","phone": "5207614117"}
{"name": "KMART PHARMACY #4880","address1": "7550 E HIGHWAY 69","address2": "","city": "PRESCOTT VALLEY","state": "AZ","zip": "86314","zip+4": "0000","phone": "9287720747"}
{"name": "WALGREEN DRUG STORE #2056","address1": "1925 WEST CHANDLER","address2": "","city": "CHANDLER","state": "AZ","zip": "85224","zip+4": "0000","phone": "4809632216"}
{"name": "WALGREEN DRUG STORE #3669","address1": "10324 E RIGGS ROAD","address2": "","city": "SUN LAKES","state": "AZ","zip": "85248","zip+4": "0000","phone": "4808950762"}
{"name": "WALGREEN DRUG STORE #5890","address1": "11250 E VIA LINDA","address2": "","city": "SCOTTSDALE","state": "AZ","zip": "85259","zip+4": "0000","phone": "4806619960"}
{"name": "WALGREEN DRUG STORE #2372","address1": "7114 N ORACLE","address2": "","city": "TUCSON","state": "AZ","zip": "85704","zip+4": "0000","phone": "5202972755"}
{"name": "WAL-MART PHARMACY #101846","address1": "199 WEST 5TH ST","address2": "","city": "DOUGLAS","state": "AZ","zip": "85607","zip+4": "0000","phone": "5203641279"}
{"name": "WADHAMS APOTHECARY INC","address1": "3100 N WEST ST","address2": "STE 200A","city": "FLAGSTAFF","state": "AZ","zip": "86004","zip+4": "0000","phone": "9287745004"}
{"name": "FOOD CITY UNITED DRUG #164","address1": "900 W REX ALLEN DR","address2": "","city": "WILLCOX","state": "AZ","zip": "85644","zip+4": "0000","phone": "5203842321"}
{"name": "SOUTHERN DESERT PHARMACY PRESC","address1": "123 E MERRITT AVE","address2": "STE 100","city": "PRESCOTT","state": "AZ","zip": "86301","zip+4": "0000","phone": "9287769939"}
{"name": "SAFEWAY #1126","address1": "11275 E VIA LINDA","address2": "","city": "SCOTTSDALE","state": "AZ","zip": "85259","zip+4": "0000","phone": "4804511177"}
{"name": "OSCO DRUG #956","address1": "4747 E GREENWAY RD","address2": "","city": "PHOENIX","state": "AZ","zip": "85032","zip+4": "0000","phone": "6027886005"}
{"name": "FRYS FOOD AND DRUG #660051","address1": "1950 W RAY ROAD","address2": "","city": "CHANDLER","state": "AZ","zip": "85224","zip+4": "0000","phone": "4808140178"}
{"name": "SAFEWAY #0272","address1": "650 N BISBEE AVE","address2": "","city": "WILLCOX","state": "AZ","zip": "85643","zip+4": "0000","phone": "5203844612"}
{"name": "SAFEWAY #1275","address1": "599 W 4TH ST","address2": "","city": "BENSON","state": "AZ","zip": "85602","zip+4": "0000","phone": "5205867323"}
{"name": "SAFEWAY #1255","address1": "7110 N ORACLE RD","address2": "","city": "TUCSON","state": "AZ","zip": "85704","zip+4": "0000","phone": "5205751052"}
{"name": "FRYS FOOD AND DRUG #660010","address1": "4353 W BETHANY HOME RD","address2": "","city": "GLENDALE","state": "AZ","zip": "85301","zip+4": "0000","phone": "6234357197"}
{"name": "SAFEWAY #1732","address1": "1449 N ARIZONA BLVD","address2": "","city": "COOLIDGE","state": "AZ","zip": "85228","zip+4": "0000","phone": "5207235552"}
{"name": "SAFEWAY #2028","address1": "1201 S PLAZA WAY","address2": "","city": "FLAGSTAFF","state": "AZ","zip": "86001","zip+4": "0000","phone": "9285569170"}
{"name": "VILLAGE SOUTHERN DESERT PHARMA","address1": "10800 N 115TH AVE STE 420","address2": "","city": "YOUNGTOWN","state": "AZ","zip": "85363","zip+4": "1400","phone": "6238150448"}
{"name": "WALGREEN DRUG STORE #2851","address1": "7000 N 16TH ST","address2": "","city": "PHOENIX","state": "AZ","zip": "85020","zip+4": "0000","phone": "6029431148"}
{"name": "OSCO DRUG #958","address1": "325 S POWER RD","address2": "","city": "MESA","state": "AZ","zip": "85208","zip+4": "0000","phone": "4809248928"}
{"name": "RANCH PHARMACY","address1": "9619 N HAYDEN RD","address2": "STE A114","city": "SCOTTSDALE","state": "AZ","zip": "85258","zip+4": "0000","phone": "4804434656"}
{"name": "SAFEWAY #2054","address1": "13503 CAMINO DEL SOL","address2": "","city": "SUN CITY WEST","state": "AZ","zip": "85375","zip+4": "0000","phone": "6235840501"}
{"name": "SAFEWAY #0249","address1": "650 ELM ST","address2": "","city": "PAGE","state": "AZ","zip": "86040","zip+4": "0000","phone": "9286455714"}
{"name": "WALGREEN DRUG STORE #2771","address1": "1305 S GREENFIELD","address2": "","city": "MESA","state": "AZ","zip": "85206","zip+4": "0000","phone": "4808309124"}
{"name": "FRYS FOOD AND DRUG #660117","address1": "10450 N LA CANADA DR","address2": "","city": "ORO VALLEY","state": "AZ","zip": "85737","zip+4": "7027","phone": "5208779269"}
{"name": "SAFEWAY #0270","address1": "4910 N HWY 89","address2": "","city": "FLAGSTAFF","state": "AZ","zip": "86004","zip+4": "0000","phone": "9285265686"}
{"name": "SAFEWAY #1139","address1": "90 FIFTH ST","address2": "","city": "DOUGLAS","state": "AZ","zip": "85607","zip+4": "0000","phone": "5203647568"}
{"name": "WALGREEN DRUG STORE #2963","address1": "11545 E APACHE TRAIL","address2": "","city": "APACHE JUNCTION","state": "AZ","zip": "85220","zip+4": "0000","phone": "4809860776"}
{"name": "BASHAS UNITED DRUG #48","address1": "1761 E WARNER RD","address2": "","city": "TEMPE","state": "AZ","zip": "85284","zip+4": "0488","phone": "4808972980"}
{"name": "WALGREEN DRUG STORE #2910","address1": "8730 EAST BROADWAY","address2": "","city": "TUCSON","state": "AZ","zip": "85710","zip+4": "0000","phone": "5202901165"}
{"name": "APOTHECARY SHOP OF PHOENIXIN","address1": "1701 E THOMAS STE 203","address2": "","city": "PHOENIX","state": "AZ","zip": "85006","zip+4": "0000","phone": "6022526120"}
{"name": "WALGREEN DRUG STORE #3163","address1": "3420 N SCOTTSDALE RD","address2": "","city": "SCOTTSDALE","state": "AZ","zip": "85251","zip+4": "0000","phone": "4809410525"}
{"name": "FRYS FOOD AND DRUG #660018","address1": "10661 N ORACLE RD","address2": "","city": "ORO VALLEY","state": "AZ","zip": "85737","zip+4": "0000","phone": "5207426667"}
{"name": "FRYS FOOD AND DRUG #660027","address1": "3616 E RAY ROAD","address2": "","city": "PHOENIX","state": "AZ","zip": "85044","zip+4": "0000","phone": "4807060609"}
{"name": "WALGREEN DRUG STORE #3049","address1": "4965 WEST BELL ROAD","address2": "","city": "GLENDALE","state": "AZ","zip": "85306","zip+4": "0000","phone": "6028431610"}
{"name": "WALGREEN DRUG STORE #3048","address1": "9050 W UNION HILLS","address2": "","city": "PEORIA","state": "AZ","zip": "85382","zip+4": "0000","phone": "6235661973"}
{"name": "WALGREEN DRUG STORE #3008","address1": "785 SOUTH COOPER ROAD","address2": "","city": "GILBERT","state": "AZ","zip": "85234","zip+4": "0000","phone": "4804972790"}
{"name": "WALGREEN DRUG STORE #3003","address1": "6690 W UNION HILLS","address2": "","city": "GLENDALE","state": "AZ","zip": "85308","zip+4": "0000","phone": "6235615367"}
{"name": "OSCO DRUG #961","address1": "2854 N CAMPBELL","address2": "","city": "TUCSON","state": "AZ","zip": "85719","zip+4": "0000","phone": "5203276767"}
{"name": "OSCO DRUG #963","address1": "6600 E GRANT RD","address2": "","city": "TUCSON","state": "AZ","zip": "85715","zip+4": "0000","phone": "5208859192"}
{"name": "WAL-MART PHARMACY #102051","address1": "3396 N STOCKTON HILL ROAD","address2": "","city": "KINGMAN","state": "AZ","zip": "86401","zip+4": "0000","phone": "9286920444"}
{"name": "WALGREEN DRUG STORE #3007","address1": "9470 E GOLF LINKS ROAD","address2": "","city": "TUCSON","state": "AZ","zip": "85730","zip+4": "0000","phone": "5202960511"}
{"name": "KMART PHARMACY #7655","address1": "1445 POWER ROAD","address2": "","city": "MESA","state": "AZ","zip": "85208","zip+4": "0000","phone": "4809857623"}
{"name": "WALGREENS # #11610","address1": "2000 S MILL AVE","address2": "","city": "TEMPE","state": "AZ","zip": "85282","zip+4": "0000","phone": "4809218013"}
{"name": "COSTCO PHARMACY #407","address1": "6255 EAST GRANT ROAD","address2": "","city": "TUCSON","state": "AZ","zip": "85712","zip+4": "0000","phone": "5202987094"}
{"name": "SAFEWAY #0174","address1": "520 W OSBORN ROAD","address2": "","city": "PHOENIX","state": "AZ","zip": "85013","zip+4": "0000","phone": "6022850661"}
{"name": "WALGREEN DRUG STORE #2611","address1": "1150 W 8TH ST","address2": "","city": "YUMA","state": "AZ","zip": "85364","zip+4": "0000","phone": "9287836530"}
{"name": "OSCO DRUG #964","address1": "9595 E BROADWAY","address2": "","city": "TUCSON","state": "AZ","zip": "85748","zip+4": "0000","phone": "5207517549"}
{"name": "WALGREEN DRUG STORE #3245","address1": "3487 STOCKTON HILL RD","address2": "","city": "KINGMAN","state": "AZ","zip": "86401","zip+4": "0000","phone": "9286921711"}
{"name": "WALGREEN DRUG STORE #3177","address1": "7011 E SHEA BLVD","address2": "","city": "SCOTTSDALE","state": "AZ","zip": "85254","zip+4": "0000","phone": "4809486332"}
{"name": "FRYS FOOD AND DRUG #660024","address1": "4949 W RAY ROAD","address2": "","city": "CHANDLER","state": "AZ","zip": "85226","zip+4": "0000","phone": "4809407797"}
{"name": "TARGET PHARMACY #0936","address1": "15444 N LLOYD WRIGHT BLVD","address2": "","city": "SCOTTSDALE","state": "AZ","zip": "85260","zip+4": "0000","phone": "4808600219"}
{"name": "FOOD CITY #69","address1": "3923 N FLOWING WELLS RD","address2": "","city": "TUCSON","state": "AZ","zip": "85705","zip+4": "0000","phone": "5208874422"}
{"name": "WALGREEN DRUG STORE #3132","address1": "2415 E UNION HILLS DR","address2": "","city": "PHOENIX","state": "AZ","zip": "85050","zip+4": "0000","phone": "6028670554"}
{"name": "WALGREEN DRUG STORE #3184","address1": "1585 E GUADALUPE RD","address2": "","city": "GILBERT","state": "AZ","zip": "85234","zip+4": "0000","phone": "4808928410"}
{"name": "WALGREEN DRUG STORE #3249","address1": "4910 N FIRST AVE","address2": "","city": "TUCSON","state": "AZ","zip": "85718","zip+4": "0000","phone": "5202932990"}
{"name": "WAL-MART PHARMACY #102112","address1": "4915 NORTH PIMA ROAD","address2": "","city": "SCOTTSDALE","state": "AZ","zip": "85251","zip+4": "0000","phone": "4809413131"}
{"name": "COSTCO PHARMACY #431","address1": "3901 WEST COSTCO DRIVE","address2": "","city": "TUCSON","state": "AZ","zip": "85741","zip+4": "0000","phone": "5207978190"}
{"name": "BASHAS UNITED DRUGS #71","address1": "6900 E SUNRISE DR","address2": "","city": "TUCSON","state": "AZ","zip": "85750","zip+4": "0000","phone": "5202993378"}
{"name": "WALGREEN DRUG STORE #3377","address1": "1900 S 6TH AVE","address2": "","city": "SOUTH TUCSON","state": "AZ","zip": "85713","zip+4": "0000","phone": "5206226907"}
{"name": "THE APOTHECARY UNITED DRUGS #8","address1": "1002 ARIZONA AVE","address2": "","city": "PARKER","state": "AZ","zip": "85344","zip+4": "5744","phone": "9286692147"}
{"name": "COSTCO PHARMACY #1028","address1": "1444 S SOSSAMAN RD","address2": "","city": "MESA","state": "AZ","zip": "85209","zip+4": "3400","phone": "4803336559"}
{"name": "OSCO DRUG #960","address1": "7300 N LACHOLLA BLVD","address2": "","city": "TUCSON","state": "AZ","zip": "85741","zip+4": "0000","phone": "5205750662"}
{"name": "COSTCO PHARMACY #427","address1": "15255 NORTH HAYDEN ROAD","address2": "","city": "SCOTTSDALE","state": "AZ","zip": "85260","zip+4": "0000","phone": "4809487216"}
{"name": "COSTCO PHARMACY #674","address1": "17550 N 79TH AVE","address2": "","city": "GLENDALE","state": "AZ","zip": "85308","zip+4": "0000","phone": "6237764002"}
{"name": "COSTCO PHARMACY #436","address1": "1445 WEST ELLIOT","address2": "","city": "TEMPE","state": "AZ","zip": "85284","zip+4": "0000","phone": "4808939027"}
{"name": "COSTCO PHARMACY #465","address1": "4502 EAST OAK STREET","address2": "","city": "PHOENIX","state": "AZ","zip": "85008","zip+4": "0000","phone": "6028080111"}
{"name": "WAL-MART PHARMACY #102113","address1": "1607 WEST BETHANY HOME RD","address2": "","city": "PHOENIX","state": "AZ","zip": "85015","zip+4": "0000","phone": "6022466601"}
{"name": "OSCO DRUG #966","address1": "6965 N HAYDEN RD","address2": "","city": "SCOTTSDALE","state": "AZ","zip": "85250","zip+4": "0000","phone": "4809919557"}
{"name": "FRYS FOOD AND DRUG #660023","address1": "5941 E MC KELLIPS RD","address2": "","city": "MESA","state": "AZ","zip": "85215","zip+4": "0000","phone": "4808306343"}
{"name": "WALGREEN DRUG STORE #3387","address1": "10705 W INDIAN SCHOOL","address2": "","city": "AVONDALE","state": "AZ","zip": "85323","zip+4": "0000","phone": "6238772696"}
{"name": "TARGET PHARMACY #0950","address1": "4515 EAST THOMAS RD","address2": "","city": "PHOENIX","state": "AZ","zip": "85018","zip+4": "0000","phone": "6028409787"}
{"name": "FRYS FOOD AND DRUG #660135","address1": "4505 E THOMAS ROAD","address2": "","city": "PHOENIX","state": "AZ","zip": "85018","zip+4": "0000","phone": "6029521491"}
{"name": "WALGREEN DRUG STORE #3385","address1": "5421 W THUNDERBIRD","address2": "","city": "GLENDALE","state": "AZ","zip": "85306","zip+4": "0000","phone": "6025479615"}
{"name": "WALGREEN DRUG STORE #1899","address1": "9495 E SPEEDWAY BLVD","address2": "","city": "TUCSON","state": "AZ","zip": "85710","zip+4": "0000","phone": "5202902966"}
{"name": "FRYS FOOD AND DRUG #660052","address1": "855 W WARNER RD","address2": "","city": "GILBERT","state": "AZ","zip": "85233","zip+4": "7267","phone": "4808137762"}
{"name": "OSCO DRUG #969","address1": "15660 N FRANK LLOYD WRIGHT BLV","address2": "","city": "SCOTTSDALE","state": "AZ","zip": "85260","zip+4": "0000","phone": "4804519882"}
{"name": "WALGREEN DRUG STORE #3215","address1": "1935 N POWER ROAD","address2": "","city": "MESA","state": "AZ","zip": "85205","zip+4": "0000","phone": "4809854178"}
{"name": "WALGREEN DRUG STORE #3427","address1": "7448 W THUNDERBIRD RD","address2": "","city": "PEORIA","state": "AZ","zip": "85381","zip+4": "0000","phone": "6239790405"}
{"name": "TARGET PHARMACY #1429","address1": "1230 S LONGMORE AVE","address2": "","city": "MESA","state": "AZ","zip": "85202","zip+4": "0000","phone": "4802810106"}
{"name": "TARGET PHARMACY #0363","address1": "9000 E INDIAN BEND RD","address2": "","city": "SCOTTSDALE","state": "AZ","zip": "85256","zip+4": "0000","phone": "4809515633"}
{"name": "TARGET PHARMACY #2354","address1": "5715 N 19TH AVE","address2": "","city": "PHOENIX","state": "AZ","zip": "85013","zip+4": "0000","phone": "6023083605"}
{"name": "TARGET PHARMACY #0639","address1": "1525 S POWER RD","address2": "","city": "MESA","state": "AZ","zip": "85206","zip+4": "0000","phone": "4803962307"}
{"name": "TARGET PHARMACY #2341","address1": "10404 N 43RD AVE","address2": "","city": "GLENDALE","state": "AZ","zip": "85302","zip+4": "0000","phone": "6239315748"}
{"name": "TARGET PHARMACY #0825","address1": "8055 W BELL RD","address2": "","city": "PEORIA","state": "AZ","zip": "85382","zip+4": "0000","phone": "6239794484"}
{"name": "TARGET PHARMACY #0233","address1": "12602 PARADISE VILL PKYN","address2": "","city": "PHOENIX","state": "AZ","zip": "85032","zip+4": "0000","phone": "6029530253"}
{"name": "TARGET PHARMACY #0251","address1": "10135 SOUTH GILBERT RD","address2": "","city": "MESA","state": "AZ","zip": "85204","zip+4": "0000","phone": "4809261108"}
{"name": "TARGET PHARMACY #0851","address1": "7409 W VIRGINIA AVE","address2": "","city": "PHOENIX","state": "AZ","zip": "85035","zip+4": "0000","phone": "6232453033"}
{"name": "TARGET PHARMACY #0252","address1": "2151 N ARIZONA AVE","address2": "","city": "CHANDLER","state": "AZ","zip": "85225","zip+4": "0000","phone": "4808996872"}
{"name": "TARGET PHARMACY #0909","address1": "4734 E RAY RD","address2": "","city": "PHOENIX","state": "AZ","zip": "85044","zip+4": "0000","phone": "4808930588"}
{"name": "TARGET PHARMACY #2236","address1": "16806 N 7TH ST","address2": "","city": "PHOENIX","state": "AZ","zip": "85022","zip+4": "0000","phone": "6027943602"}
{"name": "TARGET PHARMACY #0319","address1": "1818 EAST BASELINE RD","address2": "","city": "TEMPE","state": "AZ","zip": "85283","zip+4": "0000","phone": "4808312292"}
{"name": "OSCO DRUG #965","address1": "7450 E HWY 69","address2": "","city": "PRESCOTT VALLEY","state": "AZ","zip": "86314","zip+4": "0000","phone": "9287752244"}
{"name": "OSCO DRUG #968","address1": "1116 E FLORENCE BLVD","address2": "","city": "CASA GRANDE","state": "AZ","zip": "85222","zip+4": "0000","phone": "5204219920"}
{"name": "ONEPOINT PATIENT CARE","address1": "3006 S PRIEST DRIVE","address2": "","city": "TEMPE","state": "AZ","zip": "85282","zip+4": "3400","phone": "4802401111"}
{"name": "FRYS FOOD AND DRUG #660134","address1": "6080 E THOMAS ROAD","address2": "","city": "SCOTTSDALE","state": "AZ","zip": "85251","zip+4": "0000","phone": "4804250601"}
{"name": "WALGREEN DRUG STORE #3591","address1": "2811 E BROADWAY RD","address2": "","city": "MESA","state": "AZ","zip": "85204","zip+4": "0000","phone": "4808306702"}
{"name": "WALGREEN DRUG STORE #3543","address1": "755 E MAIN STREET","address2": "","city": "MESA","state": "AZ","zip": "85203","zip+4": "0000","phone": "4808332858"}
{"name": "FRYS FOOD AND DRUG #660136","address1": "4329 W NORTHERN AVE","address2": "","city": "GLENDALE","state": "AZ","zip": "85301","zip+4": "1647","phone": "6239313739"}
{"name": "TOMBSTONE PHARMACY","address1": "524 E ALLEN STREET","address2": "","city": "TOMBSTONE","state": "AZ","zip": "85638","zip+4": "0000","phone": "5204573543"}
{"name": "CORAM SPECIALTY INFUSION SERVI","address1": "4310 E COTTON CENTER BLVD STE","address2": "","city": "PHOENIX","state": "AZ","zip": "85040","zip+4": "8857","phone": "6024387888"}
{"name": "BASHAS UNITED DRUGS #55","address1": "275 N TEGNER","address2": "","city": "WICKENBURG","state": "AZ","zip": "85390","zip+4": "0000","phone": "9286842726"}
{"name": "WALGREEN DRUG STORE #3657","address1": "3361 N LITCHFIELD RD","address2": "","city": "GOODYEAR","state": "AZ","zip": "85338","zip+4": "0000","phone": "6239352667"}
{"name": "WALGREEN DRUG STORE #3447","address1": "12965 NORTH ORACLE RD","address2": "","city": "ORO VALLEY","state": "AZ","zip": "85739","zip+4": "0000","phone": "5208254483"}
{"name": "SAFEWAY #1491","address1": "7920 E CHAPARRAL","address2": "","city": "SCOTTSDALE","state": "AZ","zip": "85250","zip+4": "0000","phone": "4809943708"}
{"name": "OSCO DRUG #959","address1": "6363 E 22ND ST","address2": "","city": "TUCSON","state": "AZ","zip": "85710","zip+4": "0000","phone": "5205719237"}
{"name": "WALGREEN DRUG STORE #3630","address1": "9220 N THORNYDALE RD","address2": "","city": "TUCSON","state": "AZ","zip": "85742","zip+4": "0000","phone": "5205799988"}
{"name": "WALGREEN DRUG STORE #3531","address1": "4949 W CHANDLER","address2": "","city": "CHANDLER","state": "AZ","zip": "85226","zip+4": "0000","phone": "4805929346"}
{"name": "OSCO DRUG #967","address1": "1416 E ROUTE 66","address2": "","city": "FLAGSTAFF","state": "AZ","zip": "86001","zip+4": "0000","phone": "9287737960"}
{"name": "BASHAS UNITED DRUG #22","address1": "10715 E APACHE TRAIL","address2": "","city": "APACHE JUNCTION","state": "AZ","zip": "85220","zip+4": "0000","phone": "4803579280"}
{"name": "WALGREEN DRUG STORE #3728","address1": "7059 E BASELINE RD","address2": "","city": "MESA","state": "AZ","zip": "85208","zip+4": "0000","phone": "4808301022"}
{"name": "WALGREEN DRUG STORE #3463","address1": "1415 W RIVER RD","address2": "","city": "TUCSON","state": "AZ","zip": "85704","zip+4": "0000","phone": "5202932713"}
{"name": "OSCO DRUG #970","address1": "10665 N TATUM BLVD","address2": "","city": "PHOENIX","state": "AZ","zip": "85028","zip+4": "0000","phone": "4804434286"}
{"name": "APRIA HEALTHCARE #005","address1": "2909 E BROADWAY","address2": "","city": "PHOENIX","state": "AZ","zip": "85040","zip+4": "0000","phone": "8004291598"}
{"name": "OSCO DRUG #971","address1": "8950 W BELL RD","address2": "","city": "PEORIA","state": "AZ","zip": "85382","zip+4": "0000","phone": "6238768935"}
{"name": "OSCO DRUG #974","address1": "20255 N 59TH AVE","address2": "","city": "GLENDALE","state": "AZ","zip": "85306","zip+4": "0000","phone": "6235727192"}
{"name": "WALGREEN DRUG STORE #3725","address1": "1630 W GUADALUPE RD","address2": "","city": "GILBERT","state": "AZ","zip": "85233","zip+4": "0000","phone": "4805075984"}
{"name": "WALGREEN DRUG STORE #3602","address1": "8816 E PINNACLE PEAK","address2": "","city": "SCOTTSDALE","state": "AZ","zip": "85255","zip+4": "0000","phone": "4804738962"}
{"name": "COSTCO PHARMACY #466","address1": "3911 HIGHWAY 69","address2": "","city": "PRESCOTT","state": "AZ","zip": "86301","zip+4": "0000","phone": "9285412218"}
{"name": "FRYS FOOD AND DRUG #660120","address1": "6321 E GREENWAY RD","address2": "","city": "PHOENIX","state": "AZ","zip": "85254","zip+4": "0000","phone": "4803688940"}
{"name": "WALGREEN DRUG STORE #3766","address1": "34402 N SCOTTSDALE RD","address2": "","city": "SCOTTSDALE","state": "AZ","zip": "85262","zip+4": "0000","phone": "4805958014"}
{"name": "WAL-MART PHARMACY #102482","address1": "857 N DOBSON","address2": "","city": "MESA","state": "AZ","zip": "85201","zip+4": "0000","phone": "4809624033"}
{"name": "WALGREEN DRUG STORE #3726","address1": "1985 E CHANDLER BLVD","address2": "","city": "CHANDLER","state": "AZ","zip": "85249","zip+4": "0000","phone": "4808997877"}
{"name": "SAFEWAY #1474","address1": "4823 S HWY 95","address2": "","city": "FORT MOHAVE","state": "AZ","zip": "86426","zip+4": "0000","phone": "9287044443"}
{"name": "SAFEWAY #1510","address1": "20205 N 67TH AVE","address2": "","city": "GLENDALE","state": "AZ","zip": "85308","zip+4": "0000","phone": "6235728844"}
{"name": "BASHAS #14","address1": "1954 E MCKELLIPS","address2": "","city": "MESA","state": "AZ","zip": "85203","zip+4": "0000","phone": "4808337177"}
{"name": "OSCO DRUG #979","address1": "34442 N SCOTTSDALE RD","address2": "","city": "SCOTTSDALE","state": "AZ","zip": "85262","zip+4": "0000","phone": "4805959464"}
{"name": "FRYS FOOD AND DRUG #660054","address1": "4842 E BELL ROAD","address2": "","city": "SCOTTSDALE","state": "AZ","zip": "85254","zip+4": "0000","phone": "6028674060"}
{"name": "SAFEWAY #1536","address1": "401 E HWY 260","address2": "","city": "PAYSON","state": "AZ","zip": "85541","zip+4": "0000","phone": "9284728242"}
{"name": "FRYS FOOD AND DRUG #660056","address1": "9043 W OLIVE AVE","address2": "","city": "PEORIA","state": "AZ","zip": "85345","zip+4": "0000","phone": "6239791383"}
{"name": "WAL-MART PHARMACY #102512","address1": "1825 W BELL ROAD","address2": "","city": "PHOENIX","state": "AZ","zip": "85023","zip+4": "0000","phone": "6029424764"}
{"name": "MEDICAP PHARMACY #8177","address1": "1520 THATCHER BLVD","address2": "","city": "SAFFORD","state": "AZ","zip": "85546","zip+4": "0000","phone": "9284286366"}
{"name": "WALGREEN DRUG STORE #3191","address1": "10865 N TATUM BLVD","address2": "","city": "PHOENIX","state": "AZ","zip": "85028","zip+4": "0000","phone": "4809222646"}
{"name": "FRYS FOOD AND DRUG #660113","address1": "1245 W MAIN STREET","address2": "","city": "MESA","state": "AZ","zip": "85201","zip+4": "0000","phone": "4808338838"}
{"name": "SAFEWAY #1535","address1": "1515 E ELLIOT RD","address2": "","city": "TEMPE","state": "AZ","zip": "85284","zip+4": "0000","phone": "4807551944"}
{"name": "WALGREEN DRUG STORE #4266","address1": "2150 W ORANGE GROVE ROAD","address2": "","city": "TUCSON","state": "AZ","zip": "85741","zip+4": "0000","phone": "5205443196"}
{"name": "SAFEWAY #1511","address1": "14175 W INDIAN SCHOOL RD SUITE","address2": "","city": "GOODYEAR","state": "AZ","zip": "85338","zip+4": "0000","phone": "6239353531"}
{"name": "SAFEWAY #0261","address1": "101 NACO HWY","address2": "","city": "BISBEE","state": "AZ","zip": "85603","zip+4": "0000","phone": "5204322274"}
{"name": "SAFEWAY #1567","address1": "2740 EAST UNIVERSITY","address2": "","city": "MESA","state": "AZ","zip": "85213","zip+4": "0000","phone": "4808339383"}
{"name": "WALGREEN DRUG STORE #4103","address1": "10405 LA CANADA DRIVE","address2": "","city": "ORO VALLEY","state": "AZ","zip": "85737","zip+4": "0000","phone": "5202971035"}
{"name": "BASHAS #79","address1": "8360 N THORNYDALE RD","address2": "","city": "TUCSON","state": "AZ","zip": "85741","zip+4": "0000","phone": "5207441370"}
{"name": "WALGREEN DRUG STORE #4020","address1": "5895 W PEORIA AVE","address2": "","city": "GLENDALE","state": "AZ","zip": "85301","zip+4": "0000","phone": "6239348027"}
{"name": "SAFEWAY #1549","address1": "14696 N FRANK LLOYD WRIGHT","address2": "","city": "SCOTTSDALE","state": "AZ","zip": "85260","zip+4": "0000","phone": "4803911186"}
{"name": "FRYS FOOD AND DRUG #660057","address1": "7870 N SILVERBELL ROAD","address2": "","city": "MARANA","state": "AZ","zip": "85743","zip+4": "0000","phone": "5207447832"}
{"name": "WALGREEN DRUG STORE #4188","address1": "55 W APACHE TRAIL","address2": "","city": "APACHE JUNCTION","state": "AZ","zip": "85220","zip+4": "0000","phone": "4802881236"}
{"name": "OSCO DRUG #980","address1": "1951 W BASELINE","address2": "","city": "MESA","state": "AZ","zip": "85202","zip+4": "0000","phone": "4804564850"}
{"name": "FRYS FOOD AND DRUG #660059","address1": "4351 E HIGHWAY 90","address2": "","city": "SIERRA VISTA","state": "AZ","zip": "85635","zip+4": "0000","phone": "5204580997"}
{"name": "SAFEWAY #1534","address1": "90 S VAL VISTA DR","address2": "","city": "GILBERT","state": "AZ","zip": "85296","zip+4": "0000","phone": "4808922090"}
{"name": "WALGREEN DRUG STORE #3912","address1": "29660 N TATUM BLVD","address2": "","city": "CAVE CREEK","state": "AZ","zip": "85331","zip+4": "0000","phone": "4804730488"}
{"name": "WALGREEN DRUG STORE #4138","address1": "7923 E MCDOWELL","address2": "","city": "SCOTTSDALE","state": "AZ","zip": "85257","zip+4": "0000","phone": "4808749174"}
{"name": "WAL-MART PHARMACY #102554","address1": "13055 W RANCHO SANTE FE BLVD","address2": "","city": "AVONDALE","state": "AZ","zip": "85323","zip+4": "0000","phone": "6239354022"}
{"name": "OSCO DRUG #977","address1": "14551 W GRAND AVE","address2": "","city": "SURPRISE","state": "AZ","zip": "85375","zip+4": "0000","phone": "6235464085"}
{"name": "WEBER CORP","address1": "100 VERDE VALLEY SCHOOL RD","address2": "","city": "SEDONA","state": "AZ","zip": "86351","zip+4": "0000","phone": "9282842202"}
{"name": "BASHAS #43","address1": "10325 E RIGGS RD","address2": "","city": "SUN LAKES","state": "AZ","zip": "85248","zip+4": "0000","phone": "4808027182"}
{"name": "SAFEWAY #1520","address1": "14505 W GRAND AVE","address2": "","city": "SURPRISE","state": "AZ","zip": "85374","zip+4": "0000","phone": "6239754030"}
{"name": "OSCO DRUG #981","address1": "3145 S ALMA SCHOOL RD","address2": "","city": "CHANDLER","state": "AZ","zip": "85248","zip+4": "0000","phone": "4808997713"}
{"name": "SAFEWAY #1543","address1": "29834 N CAVE CREEK RD","address2": "","city": "CAVE CREEK","state": "AZ","zip": "85331","zip+4": "0000","phone": "4805639395"}
{"name": "SAFEWAY #0253","address1": "3185 W APACHE TRAIL","address2": "","city": "APACHE JUNCTION","state": "AZ","zip": "85220","zip+4": "0000","phone": "4802882728"}
{"name": "OSCO DRUG #983","address1": "11475 E VIA LINDA","address2": "","city": "SCOTTSDALE","state": "AZ","zip": "85259","zip+4": "0000","phone": "4807677274"}
{"name": "OSCO DRUG #988","address1": "5085 N LA CANADA DR","address2": "","city": "TUCSON","state": "AZ","zip": "85704","zip+4": "0000","phone": "5206960346"}
{"name": "OSCO DRUG #985","address1": "18411 N CAVE CREEK RD","address2": "","city": "PHOENIX","state": "AZ","zip": "85032","zip+4": "0000","phone": "6024947424"}
{"name": "TARGET PHARMACY #1141","address1": "2727 W AGUA FRIA FREEWAY","address2": "","city": "PHOENIX","state": "AZ","zip": "85027","zip+4": "0000","phone": "6238697330"}
{"name": "SILVER CREEK PHARMACY #2","address1": "2841 HWY 260","address2": "STE 4","city": "OVERGAARD","state": "AZ","zip": "85933","zip+4": "0000","phone": "9285356626"}
{"name": "WALGREEN DRUG STORE #4434","address1": "22280 N 67TH AVE","address2": "","city": "GLENDALE","state": "AZ","zip": "85310","zip+4": "0000","phone": "6235728122"}
{"name": "FRYS FOOD AND DRUG #660062","address1": "554 W BASELINE ROAD","address2": "","city": "MESA","state": "AZ","zip": "85210","zip+4": "0000","phone": "4809696234"}
{"name": "MEDICINE SHOPPE PHARMACY #1569","address1": "795 W 4TH ST","address2": "","city": "BENSON","state": "AZ","zip": "85602","zip+4": "0000","phone": "5205861299"}
{"name": "FRYS FOOD AND DRUG #660066","address1": "10675 W INDIAN SCHOOL RD","address2": "","city": "AVONDALE","state": "AZ","zip": "85392","zip+4": "5645","phone": "6237720502"}
{"name": "WALGREEN DRUG STORE #4422","address1": "3945 E SOUTHERN AVE","address2": "","city": "PHOENIX","state": "AZ","zip": "85040","zip+4": "0000","phone": "6024260497"}
{"name": "FRYS FOOD AND DRUG #660064","address1": "714 S VAL VISTA DR","address2": "","city": "GILBERT","state": "AZ","zip": "85296","zip+4": "3140","phone": "4806549337"}
{"name": "BASHAS #85","address1": "1920 W CHANDLER BLVD","address2": "","city": "CHANDLER","state": "AZ","zip": "85224","zip+4": "0000","phone": "4809631162"}
{"name": "SAFEWAY #2058","address1": "5080 W OLIVE","address2": "","city": "GLENDALE","state": "AZ","zip": "85302","zip+4": "0000","phone": "6239300735"}
{"name": "SAFEWAY #0257","address1": "8021 N 35TH AVE","address2": "","city": "PHOENIX","state": "AZ","zip": "85051","zip+4": "0000","phone": "6022429570"}
{"name": "BASHAS #86","address1": "100 S HAUGHTON RD","address2": "","city": "TUCSON","state": "AZ","zip": "85748","zip+4": "0000","phone": "5205460406"}
{"name": "SAFEWAY #1566","address1": "4970 S ALMA SCHOOL RD","address2": "","city": "CHANDLER","state": "AZ","zip": "85248","zip+4": "0000","phone": "4808830260"}
{"name": "SAFEWAY #0248","address1": "1751 HWY 95","address2": "","city": "BULLHEAD CITY","state": "AZ","zip": "86442","zip+4": "0000","phone": "9287631888"}
{"name": "SAFEWAY #1591","address1": "6202 S 16TH ST","address2": "","city": "PHOENIX","state": "AZ","zip": "85040","zip+4": "0000","phone": "6022680634"}
{"name": "SAMS PHARMACY #106213","address1": "700 NORTH 54TH STREET","address2": "","city": "CHANDLER","state": "AZ","zip": "85226","zip+4": "0000","phone": "4808936999"}
{"name": "WALGREEN DRUG STORE #4909","address1": "2921 N 83RD AVE","address2": "","city": "PHOENIX","state": "AZ","zip": "85033","zip+4": "0000","phone": "6238490782"}
{"name": "WALGREEN DRUG STORE #4951","address1": "4006 E BELL RD","address2": "","city": "PHOENIX","state": "AZ","zip": "85032","zip+4": "0000","phone": "6029711096"}
{"name": "FRYS FOOD AND DRUG #660114","address1": "9245 W UNION HILLS DR","address2": "","city": "PEORIA","state": "AZ","zip": "85382","zip+4": "8154","phone": "6239728425"}
{"name": "FRYS FOOD AND DRUG #660112","address1": "1575 N DYSART RD","address2": "","city": "AVONDALE","state": "AZ","zip": "85392","zip+4": "1204","phone": "6239250851"}
{"name": "FRYS FOOD AND DRUG #660115","address1": "435 E ELLSWORTH RD","address2": "","city": "MESA","state": "AZ","zip": "85208","zip+4": "0000","phone": "4803803868"}
{"name": "TARGET PHARMACY #0700","address1": "10555 NORTH ORACLE ROAD","address2": "","city": "ORO VALLEY","state": "AZ","zip": "85737","zip+4": "0000","phone": "5202194151"}
{"name": "FRYS FOOD AND DRUG #660065","address1": "185 W APACHE TRAIL","address2": "","city": "APACHE JUNCTION","state": "AZ","zip": "85220","zip+4": "0000","phone": "4802882143"}
{"name": "SAFEWAY #1521","address1": "12122 N RANCHO VISTOSO BLVD","address2": "","city": "ORO VALLEY","state": "AZ","zip": "85737","zip+4": "0000","phone": "5202970260"}
{"name": "SAFEWAY #1639","address1": "637 W ROUTE 66","address2": "","city": "WILLIAMS","state": "AZ","zip": "85046","zip+4": "0000","phone": "9286355977"}
{"name": "SAFEWAY #3154","address1": "6817 W PEORIA AVE","address2": "","city": "PEORIA","state": "AZ","zip": "85345","zip+4": "0000","phone": "6238785028"}
{"name": "WALGREEN DRUG STORE #5027","address1": "1950 E FRY BLVD","address2": "","city": "SIERRA VISTA","state": "AZ","zip": "85635","zip+4": "2705","phone": "5204585415"}
{"name": "WALGREEN DRUG STORE #4762","address1": "2435 E GREENWAY PKWY","address2": "","city": "PHOENIX","state": "AZ","zip": "85032","zip+4": "0000","phone": "6029960001"}
{"name": "WALGREEN DRUG STORE #4543","address1": "805 S VAL VISTA DRIVE","address2": "","city": "GILBERT","state": "AZ","zip": "85296","zip+4": "0000","phone": "4808927884"}
{"name": "WALGREEN DRUG STORE #5156","address1": "7800 N CORTARO RD","address2": "","city": "TUCSON","state": "AZ","zip": "85743","zip+4": "0000","phone": "5205728565"}
{"name": "OSCO DRUG #989","address1": "2727 N POWER RD","address2": "","city": "MESA","state": "AZ","zip": "85215","zip+4": "0000","phone": "4803963838"}
{"name": "WALGREEN DRUG STORE #4620","address1": "15490 W BELL RD","address2": "","city": "SURPRISE","state": "AZ","zip": "85374","zip+4": "3496","phone": "6235468600"}
{"name": "WALGREEN DRUG STORE #5221","address1": "1025 S MILTON RD","address2": "","city": "FLAGSTAFF","state": "AZ","zip": "86001","zip+4": "6349","phone": "9287799888"}
{"name": "WALGREEN DRUG STORE #5222","address1": "9040 W PEORIA AVE","address2": "","city": "PEORIA","state": "AZ","zip": "85345","zip+4": "0000","phone": "6239792110"}
{"name": "WALGREEN DRUG STORE #4791","address1": "14285 W GRAND AVE","address2": "","city": "SURPRISE","state": "AZ","zip": "85375","zip+4": "0000","phone": "6239754444"}
{"name": "SAFEWAY #1605","address1": "1060 E RAY RD","address2": "","city": "CHANDLER","state": "AZ","zip": "85225","zip+4": "0000","phone": "4808559922"}
{"name": "SAFEWAY #3189","address1": "702 W HOPI DR","address2": "","city": "HOLBROOK","state": "AZ","zip": "86025","zip+4": "0000","phone": "9285242661"}
{"name": "SAFEWAY #1604","address1": "1159 W CHANDLER BLVD","address2": "","city": "CHANDLER","state": "AZ","zip": "85224","zip+4": "0000","phone": "4807267775"}
{"name": "WALGREEN DRUG STORE #05823","address1": "8350 S RIVER PKWY","address2": "","city": "TEMPE","state": "AZ","zip": "85284","zip+4": "0000","phone": "8772505823"}
{"name": "COSTCO PHARMACY #481","address1": "1415 N ARIZONA AVE","address2": "","city": "GILBERT","state": "AZ","zip": "85233","zip+4": "0000","phone": "4802930052"}
{"name": "FRYS FOOD AND DRUG #660060","address1": "20220 N 59TH AVENUE","address2": "","city": "GLENDALE","state": "AZ","zip": "85308","zip+4": "0000","phone": "6238253311"}
{"name": "WALGREEN DRUG STORE #4742","address1": "8310 W DEER VALLEY RD","address2": "","city": "PEORIA","state": "AZ","zip": "85382","zip+4": "0000","phone": "6233622889"}
{"name": "SAFEWAY #0245","address1": "1044 WILLOW CREEK RD","address2": "","city": "PRESCOTT","state": "AZ","zip": "86301","zip+4": "0000","phone": "9284430300"}
{"name": "TARGET PHARMACY #1242","address1": "1515 NORTH LITCHFIELD ROAD","address2": "","city": "GOODYEAR","state": "AZ","zip": "85338","zip+4": "0000","phone": "6239353233"}
{"name": "TARGET PHARMACY #1209","address1": "1515 E WARNER ROAD","address2": "","city": "GILBERT","state": "AZ","zip": "85296","zip+4": "0000","phone": "4808921348"}
{"name": "SAFEWAY #1636","address1": "5860 W THUNDERBIRD RD","address2": "","city": "GLENDALE","state": "AZ","zip": "85306","zip+4": "0000","phone": "6028630015"}
{"name": "SALIBAS EXTENDED CARE PHARMACY","address1": "2401 W BEHREND DR","address2": "STE 17","city": "PHOENIX","state": "AZ","zip": "85027","zip+4": "0000","phone": "6238158965"}
{"name": "WAL-MART PHARMACY #102768","address1": "1955 SO STAPLEY DRIVE","address2": "","city": "MESA","state": "AZ","zip": "85204","zip+4": "0000","phone": "4808920306"}
{"name": "OMNICARE OF CHANDLER #00111","address1": "6825 WEST GALVESTON ST","address2": "","city": "CHANDLER","state": "AZ","zip": "85226","zip+4": "0000","phone": "4807180774"}
{"name": "WALGREEN DRUG STORE #4792","address1": "55 E RAY RD","address2": "","city": "CHANDLER","state": "AZ","zip": "85225","zip+4": "6692","phone": "4807827555"}
{"name": "WALGREEN DRUG STORE #5392","address1": "420 S SOSSAMAN RD","address2": "","city": "MESA","state": "AZ","zip": "85208","zip+4": "0000","phone": "4803254700"}
{"name": "WALGREEN DRUG STORE #5266","address1": "21632 N 35TH AVE","address2": "","city": "GLENDALE","state": "AZ","zip": "85308","zip+4": "2070","phone": "6235829322"}
{"name": "WALGREEN DRUG STORE #5039","address1": "746 W UNIVERSITY DR","address2": "","city": "MESA","state": "AZ","zip": "85201","zip+4": "5613","phone": "4806686477"}
{"name": "KMART PHARMACY #4996","address1": "7055 EAST BROADWAY","address2": "","city": "TUCSON","state": "AZ","zip": "85710","zip+4": "0000","phone": "5205466535"}
{"name": "SAFEWAY #1637","address1": "3622 E SOUTHERN AVE","address2": "","city": "MESA","state": "AZ","zip": "85206","zip+4": "0000","phone": "4808078760"}
{"name": "SAFEWAY #1654","address1": "4811 N 83RD AVE","address2": "","city": "PHOENIX","state": "AZ","zip": "85033","zip+4": "0000","phone": "6232474445"}
{"name": "WALGREEN DRUG STORE #5090","address1": "5160 S WHITE MOUNTAIN RD","address2": "","city": "SHOW LOW","state": "AZ","zip": "85901","zip+4": "0000","phone": "9285325494"}
{"name": "SMITHS PHARMACY #473 #706473","address1": "4747 HWY 95","address2": "","city": "FT MOHAVE","state": "AZ","zip": "86427","zip+4": "0000","phone": "9283303704"}
{"name": "SAMS PHARMACY #106241","address1": "15255 N NORTHSIGHT BLVD","address2": "","city": "SCOTTSDALE","state": "AZ","zip": "85260","zip+4": "0000","phone": "4809988302"}
{"name": "WAL-MART PHARMACY #101370","address1": "2840 HWY 95","address2": "","city": "BULLHEAD CITY","state": "AZ","zip": "86442","zip+4": "0000","phone": "9287583447"}
{"name": "WAL-MART PHARMACY #102766","address1": "15355 NORTH NORTHSIGHT BLVD","address2": "","city": "SCOTTSDALE","state": "AZ","zip": "85260","zip+4": "0000","phone": "4803480401"}
{"name": "SUN LIFE FAMILY HEALTH CENTER","address1": "23 MCNAB PRKWY","address2": "","city": "SAN MANUEL","state": "AZ","zip": "85631","zip+4": "0000","phone": "5203852236"}
{"name": "WALGREEN DRUG STORE #5353","address1": "20266 N LAKE PLEASANT RD","address2": "","city": "PEORIA","state": "AZ","zip": "85382","zip+4": "0000","phone": "6235615300"}
{"name": "OSCO DRUG #991","address1": "8240 W DEER VALLEY RD","address2": "","city": "PEORIA","state": "AZ","zip": "85382","zip+4": "0000","phone": "6235727487"}
{"name": "APOTHECARY SHOP OF TEMPE","address1": "2155 E CONFERENCE DR","address2": "STE 101","city": "TEMPE","state": "AZ","zip": "85284","zip+4": "0000","phone": "4807754784"}
{"name": "WALGREEN DRUG STORE #5567","address1": "550 S MAIN ST","address2": "","city": "COTTONWOOD","state": "AZ","zip": "86326","zip+4": "0000","phone": "9286493855"}
{"name": "UPTOWN DRUG GOLDEN VALLEY #3","address1": "4263 E HWY 68","address2": "STE B","city": "GOLDEN VALLEY","state": "AZ","zip": "86413","zip+4": "0000","phone": "9285653900"}
{"name": "BASHAS #82","address1": "5311 S SUPERSTITION MTN DR","address2": "","city": "GOLD CANYON","state": "AZ","zip": "85218","zip+4": "1918","phone": "4804749406"}
{"name": "SAFEWAY #1706","address1": "1637 N TREKELL RD","address2": "","city": "CASA GRANDE","state": "AZ","zip": "85222","zip+4": "0000","phone": "5204214499"}
{"name": "WAL-MART PHARMACY #102777","address1": "13770 WEST BELL ROAD","address2": "","city": "SURPRISE","state": "AZ","zip": "85374","zip+4": "0000","phone": "6235442226"}
{"name": "SAFEWAY #2052","address1": "1635 E COTTONWOOD ST","address2": "","city": "COTTONWOOD","state": "AZ","zip": "86326","zip+4": "0000","phone": "9286342464"}
{"name": "WAL-MART PHARMACY #102515","address1": "3721 EAST THOMAS ROAD","address2": "","city": "PHOENIX","state": "AZ","zip": "85018","zip+4": "0000","phone": "6026850440"}
{"name": "COSTCO PHARMACY #490","address1": "19001 N 27TH AVE","address2": "","city": "PHOENIX","state": "AZ","zip": "85027","zip+4": "0000","phone": "6232934402"}
{"name": "SAFEWAY #1662","address1": "10641 W OLIVE AVE","address2": "","city": "PEORIA","state": "AZ","zip": "85345","zip+4": "0000","phone": "6235836688"}
{"name": "WALGREEN DRUG STORE #4507","address1": "15025 N THOMPSON PEAK PKWY","address2": "","city": "SCOTTSDALE","state": "AZ","zip": "85260","zip+4": "0000","phone": "4805510115"}
{"name": "TARGET PHARMACY #1240","address1": "2880 S ALMA SCHOOL RD","address2": "","city": "CHANDLER","state": "AZ","zip": "85248","zip+4": "0000","phone": "4807821992"}
{"name": "OSCO DRUG #972","address1": "1350 N SILVERBELL RD","address2": "","city": "TUCSON","state": "AZ","zip": "85745","zip+4": "0000","phone": "5206239540"}
{"name": "SAFEWAY #1726","address1": "3655 W ANTHEM WAY","address2": "","city": "ANTHEM","state": "AZ","zip": "85086","zip+4": "0000","phone": "6235510300"}
{"name": "SAFEWAY #2088","address1": "4857 E GREENWAY ROAD","address2": "","city": "PHOENIX","state": "AZ","zip": "85254","zip+4": "0000","phone": "6022821974"}
{"name": "SAFEWAY #0236","address1": "10926 W BELL RD","address2": "","city": "SUN CITY","state": "AZ","zip": "85373","zip+4": "0000","phone": "6239770160"}
{"name": "FRYS FOOD AND DRUG #660061","address1": "15510 W BELL ROAD","address2": "","city": "SURPRISE","state": "AZ","zip": "85347","zip+4": "0000","phone": "6235462565"}
{"name": "BASHAS #113","address1": "731 E UNIONS HILLS","address2": "","city": "PHOENIX","state": "AZ","zip": "85024","zip+4": "0000","phone": "6026529521"}
{"name": "WALGREEN DRUG STORE #4793","address1": "1975 S ALMA SCHOOL","address2": "","city": "CHANDLER","state": "AZ","zip": "85248","zip+4": "0000","phone": "4807221088"}
{"name": "WAL-MART PHARMACY #102922","address1": "7635 N LA CHOLLA BLVD","address2": "","city": "TUCSON","state": "AZ","zip": "85741","zip+4": "0000","phone": "5202972418"}
{"name": "SAFEWAY #0267","address1": "2940 W VALENCIA RD","address2": "","city": "TUCSON","state": "AZ","zip": "85746","zip+4": "0000","phone": "5205787246"}
{"name": "SAFEWAY #2044","address1": "260 W CONTINENTAL","address2": "","city": "GREEN VALLEY","state": "AZ","zip": "85614","zip+4": "0000","phone": "5206251941"}
{"name": "APOTHECARY SHOP AT GRAYHAWK IN","address1": "20201 N SCOTTSDALE HEALTHCARE","address2": "STE 100","city": "SCOTTSDALE","state": "AZ","zip": "85255","zip+4": "0000","phone": "4805380699"}
{"name": "FRYS FOOD AND DRUG #660610","address1": "4230 WEST MCDOWELL RD","address2": "","city": "PHOENIX","state": "AZ","zip": "85009","zip+4": "0000","phone": "6024155733"}
{"name": "SAMS PHARMACY #106607","address1": "2005 E INDIAN SCHOOL RD","address2": "","city": "PHOENIX","state": "AZ","zip": "85016","zip+4": "0000","phone": "6028082007"}
{"name": "WALGREEN DRUG STORE #5887","address1": "6739 W CACTUS RD","address2": "","city": "PEORIA","state": "AZ","zip": "85381","zip+4": "0000","phone": "6233343482"}
{"name": "FRYS FOOD AND DRUG #660619","address1": "8325 W INDIAN SCHOOL RD","address2": "","city": "PHOENIX","state": "AZ","zip": "85033","zip+4": "0000","phone": "6232457353"}
{"name": "FRYS FOOD AND DRUG #660607","address1": "5100 S MCCLINTOCK DR","address2": "","city": "TEMPE","state": "AZ","zip": "85282","zip+4": "0000","phone": "4807529733"}
{"name": "FRYS FOOD AND DRUG #660611","address1": "4440 EAST MAIN STREET","address2": "","city": "MESA","state": "AZ","zip": "85205","zip+4": "0000","phone": "4802188573"}
{"name": "FRYS FOOD AND DRUG #660612","address1": "4707 EAST SHEA BLVD","address2": "","city": "PHOENIX","state": "AZ","zip": "85028","zip+4": "0000","phone": "4803673973"}
{"name": "FRYS FOOD AND DRUG #660617","address1": "2727 WEST BELL ROAD","address2": "","city": "PHOENIX","state": "AZ","zip": "85023","zip+4": "0000","phone": "6028962533"}
{"name": "FRYS FOOD AND DRUG #660618","address1": "3246 EAST BELL ROAD","address2": "","city": "PHOENIX","state": "AZ","zip": "85032","zip+4": "0000","phone": "6027654633"}
{"name": "FRYS FOOD AND DRUG #660621","address1": "8900 E VIA LINDA","address2": "","city": "SCOTTSDALE","state": "AZ","zip": "85258","zip+4": "0000","phone": "4806576433"}
{"name": "FRYS FOOD AND DRUG #660622","address1": "1935 NORTH STAPLEY DRIVE","address2": "","city": "MESA","state": "AZ","zip": "85203","zip+4": "0000","phone": "4806104173"}
{"name": "FRYS FOOD AND DRUG #660623","address1": "1815 W GLENDALE AVENUE","address2": "","city": "PHOENIX","state": "AZ","zip": "85015","zip+4": "0000","phone": "6023352273"}
{"name": "FRYS FOOD AND DRUG #660624","address1": "1845 EAST BASELINE ROAD","address2": "","city": "GILBERT","state": "AZ","zip": "85234","zip+4": "0000","phone": "4805393733"}
{"name": "FRYS FOOD AND DRUG #660625","address1": "6611 WEST BELL ROAD","address2": "","city": "GLENDALE","state": "AZ","zip": "85308","zip+4": "0000","phone": "6233342973"}
{"name": "FRYS FOOD AND DRUG #660627","address1": "9900 SOUTH RURAL ROAD","address2": "","city": "TEMPE","state": "AZ","zip": "85284","zip+4": "0000","phone": "4807836233"}
{"name": "FRYS FOOD AND DRUG #660628","address1": "3949 EAST CHANDLER BLVD","address2": "","city": "PHOENIX","state": "AZ","zip": "85044","zip+4": "0000","phone": "4807067373"}
{"name": "FRYS FOOD AND DRUG #660641","address1": "3511 WEST PEORIA AVENUE","address2": "","city": "PHOENIX","state": "AZ","zip": "85029","zip+4": "0000","phone": "6028665453"}
{"name": "FRYS FOOD AND DRUG #660609","address1": "850 EAST HATCHER RD","address2": "","city": "PHOENIX","state": "AZ","zip": "85020","zip+4": "0000","phone": "6022161473"}
{"name": "SUNSCRIPT PHARMACY LONG TERM","address1": "5395 E ERICKSON DR","address2": "STE 101","city": "TUCSON","state": "AZ","zip": "85712","zip+4": "0000","phone": "5207954271"}
{"name": "SAFEWAY #1717","address1": "1960 W MAIN ST","address2": "","city": "MESA","state": "AZ","zip": "85201","zip+4": "0000","phone": "4806448873"}
{"name": "COSTCO PHARMACY #665","address1": "1646 W MONTEBELLO","address2": "","city": "PHOENIX","state": "AZ","zip": "85015","zip+4": "0000","phone": "6022934523"}
{"name": "WALGREEN DRUG STORE #5453","address1": "6501 E GREENWAY RD","address2": "","city": "SCOTTSDALE","state": "AZ","zip": "85254","zip+4": "0000","phone": "4809514209"}
{"name": "SAFEWAY #1584","address1": "1999 W WICKENBURG WAY","address2": "","city": "WICKENBURG","state": "AZ","zip": "85390","zip+4": "0000","phone": "9286842995"}
{"name": "WAL-MART PHARMACY #102778","address1": "1695 N ARIZONA BLVD","address2": "","city": "COOLIDGE","state": "AZ","zip": "85228","zip+4": "0000","phone": "5207230950"}
{"name": "WALGREEN DRUG STORE #6129","address1": "2021 N PINAL AVE","address2": "","city": "CASA GRANDE","state": "AZ","zip": "85222","zip+4": "0000","phone": "5208760262"}
{"name": "WALGREEN DRUG STORE #5888","address1": "4315 E MAIN ST","address2": "","city": "MESA","state": "AZ","zip": "85205","zip+4": "0000","phone": "4806540110"}
{"name": "WALGREEN DRUG STORE #6025","address1": "1960 S COUNTRY CLUB DR","address2": "","city": "MESA","state": "AZ","zip": "85210","zip+4": "0000","phone": "4806681395"}
{"name": "WALGREEN DRUG STORE #5799","address1": "754 N HIGLEY","address2": "","city": "GILBERT","state": "AZ","zip": "85234","zip+4": "0000","phone": "4805585117"}
{"name": "WALGREEN DRUG STORE #6244","address1": "4700 E BROADWAY","address2": "","city": "TUCSON","state": "AZ","zip": "85711","zip+4": "0000","phone": "5203270045"}
{"name": "WALGREEN DRUG STORE #5851","address1": "5011 W UNION HILLS DR","address2": "","city": "GLENDALE","state": "AZ","zip": "85308","zip+4": "0000","phone": "6028960034"}
{"name": "WALGREEN DRUG STORE #6245","address1": "7877 E SNYDER RD","address2": "","city": "TUCSON","state": "AZ","zip": "85750","zip+4": "0000","phone": "5202329346"}
{"name": "NORTH COUNTRY HEALTHCARE PHARM","address1": "2920 N 4TH STREET","address2": "","city": "FLAGSTAFF","state": "AZ","zip": "86004","zip+4": "0000","phone": "9282136103"}
{"name": "WALGREEN DRUG STORE #6021","address1": "1620 N 59TH AVE","address2": "","city": "PHOENIX","state": "AZ","zip": "85035","zip+4": "0000","phone": "6238492084"}
{"name": "WALGREEN DRUG STORE #5938","address1": "4134 N 44TH ST","address2": "","city": "PHOENIX","state": "AZ","zip": "85018","zip+4": "0000","phone": "6029548443"}
{"name": "WALGREEN DRUG STORE #5209","address1": "3180 N CAMPBELL","address2": "","city": "TUCSON","state": "AZ","zip": "85719","zip+4": "0000","phone": "5203264509"}
{"name": "WALGREEN DRUG STORE #6095","address1": "9045 W INDIAN SCHOOL RD","address2": "","city": "PHOENIX","state": "AZ","zip": "85037","zip+4": "0000","phone": "6238772278"}
{"name": "WALGREEN DRUG STORE #5893","address1": "705 E MCDOWELL RD","address2": "","city": "PHOENIX","state": "AZ","zip": "85006","zip+4": "0000","phone": "6022583864"}
{"name": "OSCO PHARMACY #1002","address1": "9243 E BASELINE RD","address2": "","city": "MESA","state": "AZ","zip": "85209","zip+4": "0000","phone": "4809864660"}
{"name": "KACHINA PHARMACY","address1": "2451 S AVENUE A","address2": "","city": "YUMA","state": "AZ","zip": "85364","zip+4": "0000","phone": "9287264081"}
{"name": "WALGREEN DRUG STORE #5569","address1": "1315 E CHANDLER BLVD","address2": "","city": "PHOENIX","state": "AZ","zip": "85048","zip+4": "0000","phone": "4804601640"}
{"name": "WALGREEN DRUG STORE #6065","address1": "9009 NORTH 67TH AVE","address2": "","city": "GLENDALE","state": "AZ","zip": "85302","zip+4": "0000","phone": "6239310113"}
{"name": "WALGREEN DRUG STORE #5775","address1": "8309 W GLENDALE AVE","address2": "","city": "GLENDALE","state": "AZ","zip": "85305","zip+4": "0000","phone": "6237728018"}
{"name": "WALGREEN DRUG STORE #6026","address1": "3624 N POWER RD","address2": "","city": "MESA","state": "AZ","zip": "85215","zip+4": "0000","phone": "4809243442"}
{"name": "SAFEWAY #1979","address1": "13440 N 7TH ST","address2": "","city": "PHOENIX","state": "AZ","zip": "85022","zip+4": "0000","phone": "6025473883"}
{"name": "SAFEWAY #1980","address1": "1334 E CHANDLER BLVD","address2": "","city": "PHOENIX","state": "AZ","zip": "85048","zip+4": "0000","phone": "4802830119"}
{"name": "SAFEWAY #2821","address1": "3800 W. HAPPY VALLEY RD","address2": "","city": "PHOENIX","state": "AZ","zip": "85310","zip+4": "0000","phone": "6238696507"}
{"name": "SAFEWAY #1983","address1": "2140 W GRANT RD","address2": "","city": "TUCSON","state": "AZ","zip": "85745","zip+4": "0000","phone": "5207920334"}
{"name": "SAFEWAY #1986","address1": "9050 E VALENCIA RD","address2": "","city": "TUCSON","state": "AZ","zip": "85747","zip+4": "0000","phone": "5206630700"}
{"name": "SAFEWAY #1988","address1": "7177 E TANQUE VERDE","address2": "","city": "TUCSON","state": "AZ","zip": "85715","zip+4": "0000","phone": "5207310147"}
{"name": "SAFEWAY #1989","address1": "9460 E GOLF LINKS ROAD","address2": "","city": "TUCSON","state": "AZ","zip": "85730","zip+4": "0000","phone": "5202964532"}
{"name": "WALGREEN DRUG STORE #6440","address1": "6951 S KINGS RANCH RD","address2": "","city": "GOLD CANYON","state": "AZ","zip": "85218","zip+4": "0000","phone": "4802885060"}
{"name": "WALGREEN DRUG STORE #5889","address1": "1138 S HIGLEY","address2": "","city": "MESA","state": "AZ","zip": "85206","zip+4": "0000","phone": "4803253853"}
{"name": "FRYS FOOD AND DRUG #660017","address1": "4150 E 22ND ST","address2": "","city": "TUSCON","state": "AZ","zip": "85711","zip+4": "0000","phone": "5205712080"}
{"name": "WALGREEN DRUG STORE #5312","address1": "375 W CONTINENTAL RD","address2": "","city": "GREEN VALLEY","state": "AZ","zip": "85614","zip+4": "0000","phone": "5206482306"}
{"name": "CAREPLUS CVS PHARMACY #03129","address1": "1002 E MCDOWELL RD","address2": "","city": "PHOENIX","state": "AZ","zip": "85006","zip+4": "0000","phone": "6022587051"}
{"name": "WALGREEN DRUG STORE #5701","address1": "1158 S CRISMON","address2": "","city": "MESA","state": "AZ","zip": "85208","zip+4": "0000","phone": "4803800704"}
{"name": "FRYS FOOD AND DRUG #660063","address1": "3100 N GLASSFORD HILL RD","address2": "","city": "PRESCOTT VALLEY","state": "AZ","zip": "86314","zip+4": "0000","phone": "9284450607"}
{"name": "CHILCHINBETO CLINIC","address1": "BEHIND CHILCHENBETO CHAPTER HI","address2": "","city": "KAYENTA","state": "AZ","zip": "86033","zip+4": "0000","phone": "9286973236"}
{"name": "TARGET PHARMACY #1316","address1": "1225 WEST IRVINGTON ROAD","address2": "","city": "TUCSON","state": "AZ","zip": "85714","zip+4": "0000","phone": "5202953608"}
{"name": "TARGET PHARMACY #1327","address1": "32351 NORTH SCOTTSDALE ROAD","address2": "","city": "SCOTTSDALE","state": "AZ","zip": "85262","zip+4": "0000","phone": "4805755910"}
{"name": "TARGET PHARMACY #1335","address1": "013731 WEST BELL ROAD","address2": "","city": "SURPRISE","state": "AZ","zip": "85374","zip+4": "0000","phone": "6239754379"}
{"name": "SAFEWAY #1663","address1": "20901 N PIMA RD","address2": "","city": "SCOTTSDALE","state": "AZ","zip": "85255","zip+4": "0000","phone": "4805853026"}
{"name": "FOOD CITY #126","address1": "115 E DUNLAP AVE","address2": "","city": "PHOENIX","state": "AZ","zip": "85020","zip+4": "0000","phone": "6028613677"}
{"name": "PAYSON APOTHECARY PHARMACY","address1": "201 MAIN ST","address2": "SUITE D","city": "PAYSON","state": "AZ","zip": "85541","zip+4": "0000","phone": "9284688299"}
{"name": "BASHAS #19","address1": "3115 S MCCLINTOCK","address2": "","city": "TEMPE","state": "AZ","zip": "85282","zip+4": "0000","phone": "4804912139"}
{"name": "WALGREEN DRUG STORE #6534","address1": "20631 N SCOTTSDALE RD","address2": "","city": "SCOTTSDALE","state": "AZ","zip": "85255","zip+4": "0000","phone": "4805631265"}
{"name": "WALGREEN DRUG STORE #6333","address1": "2440 S IRONWOOD DR","address2": "","city": "APACHE JUNCTION","state": "AZ","zip": "85220","zip+4": "0000","phone": "4802880379"}
{"name": "WALGREEN DRUG STORE #6428","address1": "15385 N DYSART RD","address2": "","city": "EL MIRAGE","state": "AZ","zip": "85335","zip+4": "0000","phone": "6235839435"}
{"name": "SAFEWAY #1750","address1": "6501 E GREENWAY PKWY","address2": "","city": "SCOTTSDALE","state": "AZ","zip": "85254","zip+4": "0000","phone": "4809912373"}
{"name": "SAFEWAY #1841","address1": "12320 N 83RD AVE","address2": "","city": "PEORIA","state": "AZ","zip": "85381","zip+4": "0000","phone": "6239791282"}
{"name": "BASHAS #97","address1": "20745 N SCOTTSDALE RD","address2": "","city": "SCOTTSDALE","state": "AZ","zip": "85255","zip+4": "0000","phone": "4804196186"}
{"name": "FOOD CITY #111","address1": "85 S HWY 92","address2": "","city": "SIERRA VISTA","state": "AZ","zip": "85635","zip+4": "0000","phone": "5204396081"}
{"name": "WALGREEN DRUG STORE #5532","address1": "2929 W VALENCIA RD","address2": "","city": "TUCSON","state": "AZ","zip": "85746","zip+4": "0000","phone": "5205780076"}
{"name": "WALGREEN DRUG STORE #6491","address1": "1351 PRINCE RD","address2": "","city": "TUCSON","state": "AZ","zip": "85705","zip+4": "0000","phone": "5208877113"}
{"name": "TARGET PHARMACY #1360","address1": "21001 NORTH TATUM BLVD","address2": "","city": "PHOENIX","state": "AZ","zip": "85050","zip+4": "0000","phone": "4804199670"}
{"name": "TARGET PHARMACY #1361","address1": "9350 WEST NORTHERN AVENUE","address2": "","city": "GLENDALE","state": "AZ","zip": "85305","zip+4": "0000","phone": "6238773481"}
{"name": "TARGET PHARMACY #1386","address1": "2151 NORTH POWER ROAD","address2": "","city": "MESA","state": "AZ","zip": "85207","zip+4": "0000","phone": "4808302465"}
{"name": "SAFEWAY #1748","address1": "5137 E BASELINE RD","address2": "","city": "GILBERT","state": "AZ","zip": "85234","zip+4": "0000","phone": "4803255856"}
{"name": "SAFEWAY #1874","address1": "6360 E GOLF LINKS RD","address2": "","city": "TUCSON","state": "AZ","zip": "85730","zip+4": "0000","phone": "5205149567"}
{"name": "SAMS PHARMACY #106604","address1": "1851 E BUTLER AVENUE","address2": "","city": "FLAGSTAFF","state": "AZ","zip": "86001","zip+4": "0000","phone": "9287743294"}
{"name": "WALGREEN DRUG STORE #5215","address1": "2363 S LINDSAY RD","address2": "","city": "GILBERT","state": "AZ","zip": "85296","zip+4": "0000","phone": "4808570493"}
{"name": "WALGREEN DRUG STORE #6666","address1": "2880 N CENTRE COURT","address2": "","city": "PRESCOTT VALLEY","state": "AZ","zip": "86314","zip+4": "0000","phone": "9287724874"}
{"name": "APOTHECARY SHOP OF PHOENIX II","address1": "5040 N 15TH AVE STE 102","address2": "","city": "PHOENIX","state": "AZ","zip": "85015","zip+4": "0000","phone": "6022773181"}
{"name": "SAFEWAY #1849","address1": "32551 N SCOTTSDALE RD","address2": "","city": "SCOTTSDALE","state": "AZ","zip": "85262","zip+4": "0000","phone": "4805959845"}
{"name": "SAFEWAY #1819","address1": "18495 E QUEEN CREEK RD","address2": "","city": "QUEEN CREEK","state": "AZ","zip": "85242","zip+4": "0000","phone": "4802790521"}
{"name": "SAFEWAY #0413","address1": "550 E BELL RD","address2": "","city": "PHOENIX","state": "AZ","zip": "85022","zip+4": "0000","phone": "6025485597"}
{"name": "FRYS FOOD AND DRUG #660067","address1": "4815 E CAREFREE HWY BLDG 1 SUI","address2": "","city": "CAVE CREEK","state": "AZ","zip": "85085","zip+4": "0000","phone": "4805750694"}
{"name": "WALGREEN DRUG STORE #6062","address1": "76 W GUADALUPE RD","address2": "","city": "GILBERT","state": "AZ","zip": "85233","zip+4": "0000","phone": "4808135668"}
{"name": "SAFEWAY #2611","address1": "10380 E BROADWAY BLVD","address2": "","city": "TUCSON","state": "AZ","zip": "85748","zip+4": "0000","phone": "5205463936"}
{"name": "SAFEWAY #2069","address1": "20 W WHITE MOUNTAIN RD","address2": "","city": "LAKESIDE","state": "AZ","zip": "85929","zip+4": "0000","phone": "9283675442"}
{"name": "WALGREEN DRUG STORE #6241","address1": "1055 E RIGGS ROAD","address2": "","city": "CHANDLER","state": "AZ","zip": "85249","zip+4": "0000","phone": "4808023843"}
{"name": "FRYS FOOD AND DRUG #660069","address1": "2010 S ALMA SCHOOL RD","address2": "","city": "CHANDLER","state": "AZ","zip": "85286","zip+4": "7072","phone": "4809178546"}
{"name": "APOTHECARY SHOP OF TUCSON INC","address1": "4512 E CAMP LOWELL DR","address2": "","city": "TUCSON","state": "AZ","zip": "85712","zip+4": "0000","phone": "5209180044"}
{"name": "WALGREEN DRUG STORE #6729","address1": "10929 E DYNAMITE BLVD","address2": "","city": "SCOTTSDALE","state": "AZ","zip": "85255","zip+4": "0000","phone": "4805389304"}
{"name": "WALGREEN DRUG STORE #6535","address1": "2420 E BASELINE RD","address2": "","city": "PHOENIX","state": "AZ","zip": "85042","zip+4": "0000","phone": "6022680640"}
{"name": "SAMS PHARMACY #106608","address1": "1525 W BELL ROAD","address2": "","city": "PHOENIX","state": "AZ","zip": "85023","zip+4": "0000","phone": "6024399867"}
{"name": "APOTHECARY SHOP OF GILBERT INC","address1": "2450 E GUADALUPE RD","address2": "STE 110","city": "GILBERT","state": "AZ","zip": "85234","zip+4": "0000","phone": "4806336934"}
{"name": "BASHAS #99","address1": "10111 E BELL ROAD","address2": "","city": "SCOTTSDALE","state": "AZ","zip": "85260","zip+4": "0000","phone": "4805137561"}
{"name": "WALGREEN DRUG STORE #6411","address1": "11951 N 1ST AVE","address2": "","city": "ORO VALLEY","state": "AZ","zip": "85737","zip+4": "0000","phone": "5205318537"}
{"name": "FRYS FOOD AND DRUG #660070","address1": "14845 E SHEA BLVD","address2": "","city": "FOUNTAIN HILLS","state": "AZ","zip": "85268","zip+4": "0000","phone": "4808367313"}
{"name": "OSCO PHARMACY #1023","address1": "861 E WARNER RD","address2": "","city": "GILBERT","state": "AZ","zip": "85296","zip+4": "0000","phone": "4805580369"}
{"name": "SAFEWAY #2651","address1": "340 E MCDOWELL RD","address2": "","city": "PHOENIX","state": "AZ","zip": "85004","zip+4": "0000","phone": "6022523379"}
{"name": "OSCO PHARMACY #997","address1": "4060 W RAY RD","address2": "","city": "CHANDLER","state": "AZ","zip": "85226","zip+4": "0000","phone": "4804911510"}
{"name": "WALGREEN DRUG STORE #7041","address1": "9184 E VALENCIA RD","address2": "","city": "TUCSON","state": "AZ","zip": "85747","zip+4": "0000","phone": "5205749313"}
{"name": "ARIZONA SENIOR CARE PHARMACY I","address1": "2727 W BASELINE RD","address2": "STE 1","city": "TEMPE","state": "AZ","zip": "85283","zip+4": "0000","phone": "6024389301"}
{"name": "SAMS PHARMACY #106692","address1": "4701 N STONE AVE","address2": "","city": "TUCSON","state": "AZ","zip": "85704","zip+4": "0000","phone": "5202920009"}
{"name": "SAFEWAY #1887","address1": "3970 STOCKTON HILL RD","address2": "","city": "KINGMAN","state": "AZ","zip": "86401","zip+4": "0000","phone": "9286814903"}
{"name": "WALGREEN DRUG STORE #6806","address1": "17088 W BELL RD","address2": "","city": "SURPRISE","state": "AZ","zip": "85374","zip+4": "0000","phone": "6235440121"}
{"name": "WALGREEN DRUG STORE #5750","address1": "10315 E BROADWAY BLVD","address2": "","city": "TUCSON","state": "AZ","zip": "85748","zip+4": "0000","phone": "5208860837"}
{"name": "SAFEWAY #1771","address1": "1305 W DUVALL MINE RD","address2": "","city": "SAHUARITA","state": "AZ","zip": "85629","zip+4": "0000","phone": "5203930084"}
{"name": "WALGREEN DRUG STORE #7026","address1": "12244 W CACTUS","address2": "","city": "EL MIRAGE","state": "AZ","zip": "85335","zip+4": "0000","phone": "6238761529"}
{"name": "FRYS FOOD AND DRUG #660074","address1": "8375 W DEER VALLEY RD","address2": "","city": "PEORIA","state": "AZ","zip": "85382","zip+4": "0000","phone": "6235615196"}
{"name": "COSTCO PHARMACY #691","address1": "10000 W MCDOWELL RD","address2": "","city": "AVONDALE","state": "AZ","zip": "85323","zip+4": "0000","phone": "6239075662"}
{"name": "TARGET PHARMACY #1432","address1": "16825 EAST SHEA BLVD","address2": "","city": "FOUNTAIN HILLS","state": "AZ","zip": "85268","zip+4": "0000","phone": "4808378563"}
{"name": "CVS PHARMACY #03143","address1": "990 E WARNER RD","address2": "","city": "CHANDLER","state": "AZ","zip": "85225","zip+4": "0000","phone": "4808996048"}
{"name": "BASHAS #128","address1": "13940 W MEEKER RD","address2": "","city": "SUN CITY WEST","state": "AZ","zip": "85375","zip+4": "0000","phone": "6239756221"}
{"name": "SAFESCRIPT PHARMACY #5","address1": "310 N WILMOT RD","address2": "STE 310","city": "TUCSON","state": "AZ","zip": "85711","zip+4": "0000","phone": "5202988449"}
{"name": "SAMS PHARMACY #106605","address1": "1225 N GILBERT ROAD","address2": "","city": "GILBERT","state": "AZ","zip": "85234","zip+4": "0000","phone": "4809266509"}
{"name": "APOTHECARY SHOP OF ARROWHEAD I","address1": "17612 N 59TH AVE","address2": "","city": "GLENDALE","state": "AZ","zip": "85308","zip+4": "0000","phone": "6029428270"}
{"name": "FRYS FOOD AND DRUG #660073","address1": "6625 W HAPPY VALLEY ROAD","address2": "","city": "GLENDALE","state": "AZ","zip": "85310","zip+4": "0000","phone": "6235615092"}
{"name": "WALGREEN DRUG STORE #7018","address1": "6838 N 7TH ST","address2": "","city": "PHOENIX","state": "AZ","zip": "85014","zip+4": "0000","phone": "6022740722"}
{"name": "FOOD CITY #112","address1": "1300 SAN ANTONIO AVE","address2": "","city": "DOUGLAS","state": "AZ","zip": "85607","zip+4": "0000","phone": "5203643770"}
{"name": "WALGREEN DRUG STORE #7232","address1": "9250 N COACHLINE BLVD","address2": "","city": "TUCSON","state": "AZ","zip": "85653","zip+4": "0000","phone": "5207441801"}
{"name": "FREDONIA CLINIC","address1": "100 E WOOD HILL ROAD","address2": "","city": "FREDONIA","state": "AZ","zip": "86040","zip+4": "0000","phone": "9286436215"}
{"name": "CVS PHARMACY #03268","address1": "765 S LINDSAY RD","address2": "","city": "GILBERT","state": "AZ","zip": "85296","zip+4": "0000","phone": "4806358518"}
{"name": "CVS PHARMACY #03272","address1": "2371 E GUAGALUPE RD","address2": "","city": "GILBERT","state": "AZ","zip": "85234","zip+4": "0000","phone": "4805076536"}
{"name": "CVS PHARMACY #03436","address1": "2809 S SOSSAMAN RD","address2": "","city": "MESA","state": "AZ","zip": "85212","zip+4": "0000","phone": "4803546075"}
{"name": "CVS PHARMACY #03491","address1": "9546 E RIGGS RD","address2": "","city": "SUN LAKES","state": "AZ","zip": "85248","zip+4": "0000","phone": "4808953149"}
{"name": "CVS PHARMACY #03965","address1": "5975 W CHANDLER BLVD","address2": "","city": "CHANDLER","state": "AZ","zip": "85226","zip+4": "0000","phone": "4807531829"}
{"name": "SAFEWAY #1955","address1": "20713 N 83RD AVE","address2": "","city": "PEORIA","state": "AZ","zip": "85382","zip+4": "0000","phone": "6234761650"}
{"name": "FRYS FOOD AND DRUG #660072","address1": "87 E WILLIAMS FIELD RD","address2": "","city": "GILBERT","state": "AZ","zip": "85295","zip+4": "5202","phone": "4807263813"}
{"name": "BASHAS #120","address1": "7586 W THUNDERBIRD RD","address2": "","city": "PEORIA","state": "AZ","zip": "85381","zip+4": "0000","phone": "6233342081"}
{"name": "BASHAS #100","address1": "3275 N SWAN RD","address2": "","city": "TUCSON","state": "AZ","zip": "85712","zip+4": "0000","phone": "5203235821"}
{"name": "TATUM DRUGS","address1": "28248 N TATUM BLVD","address2": "STE B4","city": "CAVE CREEK","state": "AZ","zip": "85331","zip+4": "0000","phone": "4804739746"}
{"name": "WAL-MART PHARMACY #103241","address1": "18551 N 83RD AVENUE","address2": "","city": "GLENDALE","state": "AZ","zip": "85308","zip+4": "0000","phone": "6238257978"}
{"name": "SAMS PHARMACY #104732","address1": "18501 NORTH 83RD AVENUE","address2": "","city": "GLENDALE","state": "AZ","zip": "85308","zip+4": "0000","phone": "6238259705"}
{"name": "ST MICHAELS CLINIC","address1": "359A W HWY 264","address2": "","city": "ST MICHAELS","state": "AZ","zip": "86511","zip+4": "0000","phone": "9288103800"}
{"name": "CVS PHARMACY #00007","address1": "9901B W THUNDERBIRD BLVD","address2": "","city": "SUN CITY","state": "AZ","zip": "85351","zip+4": "0000","phone": "6239337233"}
{"name": "OSCO PHARMACY #1004","address1": "3130 W CAREFREE HWY","address2": "","city": "PHOENIX","state": "AZ","zip": "85086","zip+4": "0000","phone": "6235822743"}
{"name": "OSCO PHARMACY #1021","address1": "2935 E RIGGS RD","address2": "","city": "CHANDLER","state": "AZ","zip": "85249","zip+4": "0000","phone": "4808021980"}
{"name": "WALGREEN DRUG STORE #6599","address1": "13227 N 7TH ST","address2": "","city": "PHOENIX","state": "AZ","zip": "85022","zip+4": "0000","phone": "6024397216"}
{"name": "CVS PHARMACY #03264","address1": "3210 E UNION HILLS DR","address2": "","city": "PHOENIX","state": "AZ","zip": "85050","zip+4": "0000","phone": "6027884796"}
{"name": "CVS PHARMACY #03625","address1": "8245 WEST THOMAS RD","address2": "","city": "PHOENIX","state": "AZ","zip": "85033","zip+4": "0000","phone": "6238492439"}
{"name": "CVS PHARMACY #03745","address1": "10727 W OLIVE AVE","address2": "","city": "PEORIA","state": "AZ","zip": "85345","zip+4": "0000","phone": "6238158238"}
{"name": "CVS PHARMACY #03749","address1": "2840 N DYSART","address2": "","city": "GOODYEAR","state": "AZ","zip": "85395","zip+4": "0000","phone": "6235365312"}
{"name": "WALGREEN DRUG STORE #7387","address1": "10710 W MCDOWELL RD","address2": "","city": "AVONDALE","state": "AZ","zip": "85323","zip+4": "0000","phone": "6239361721"}
{"name": "SAVON PHARMACY #1027","address1": "1980 MCCULLOCH BLVD","address2": "","city": "LAKE HAVASU CITY","state": "AZ","zip": "86403","zip+4": "0000","phone": "9288545311"}
{"name": "OSCO PHARMACY #926","address1": "12970 W INDIAN SCHOOL RD","address2": "","city": "LITCHFIELD PARK","state": "AZ","zip": "85340","zip+4": "0000","phone": "6235357153"}
{"name": "SOUTHERN DESERT PHCY","address1": "123 E MERRITT ST","address2": "STE 200","city": "PRESCOTT","state": "AZ","zip": "86301","zip+4": "0000","phone": "9287769939"}
{"name": "WAL-MART PHARMACY #103465","address1": "5010 NORTH 95TH AVE","address2": "","city": "GLENDALE","state": "AZ","zip": "85305","zip+4": "0000","phone": "6238720563"}
{"name": "WAL-MART PHARMACY #105031","address1": "8280 NORTH CORTARO","address2": "","city": "MARANA","state": "AZ","zip": "85743","zip+4": "0000","phone": "5207446604"}
{"name": "BASHAS UNITED DRUG #116","address1": "3269 MARICOPA AVE","address2": "STE 120","city": "LAKE HAVASU CITY","state": "AZ","zip": "86406","zip+4": "0000","phone": "9288549551"}
{"name": "CVS PHARMACY #00033","address1": "1750 E BROADWAY RD","address2": "","city": "TEMPE","state": "AZ","zip": "85282","zip+4": "0000","phone": "4805570970"}
{"name": "FRYS FOOD AND DRUG #660079","address1": "2626 SOUTH 83RD AVENUE","address2": "","city": "PHOENIX","state": "AZ","zip": "85043","zip+4": "0000","phone": "6239072472"}
{"name": "WALGREEN DRUG STORE #6933","address1": "16749 E SHEA BLVD","address2": "","city": "FOUNTAIN HILLS","state": "AZ","zip": "85268","zip+4": "0000","phone": "4808371437"}
{"name": "SAFEWAY #1749","address1": "9100 N SILVERBELL RD","address2": "","city": "TUCSON","state": "AZ","zip": "85743","zip+4": "0000","phone": "5205798826"}
{"name": "WALGREEN DRUG STORE #7110","address1": "6640 W HAPPY VALLEY","address2": "","city": "GLENDALE","state": "AZ","zip": "85310","zip+4": "0000","phone": "6235617802"}
{"name": "FRYS FOOD AND DRUG #660668","address1": "985 E RIGGS RD","address2": "","city": "CHANDLER","state": "AZ","zip": "85249","zip+4": "0000","phone": "4808836533"}
{"name": "SAVON PHARMACY #931","address1": "2378 W 24TH ST","address2": "","city": "YUMA","state": "AZ","zip": "85364","zip+4": "0000","phone": "9283432311"}
{"name": "CVS PHARMACY #04795","address1": "6015 EAST BROWN RD","address2": "","city": "MESA","state": "AZ","zip": "85205","zip+4": "0000","phone": "4803255869"}
{"name": "CVS PHARMACY #00017","address1": "18591 N 59TH AVE","address2": "","city": "GLENDALE","state": "AZ","zip": "85308","zip+4": "0000","phone": "6027891166"}
{"name": "CVS PHARMACY #00052","address1": "4657 E CHANDLER BLVD","address2": "","city": "PHOENIX","state": "AZ","zip": "85048","zip+4": "0000","phone": "4805986776"}
{"name": "TARGET PHARMACY #0855","address1": "06500 EAST GRANT ROAD","address2": "","city": "TUCSON","state": "AZ","zip": "85715","zip+4": "0000","phone": "5209170050"}
{"name": "COMMUNITY CLINICAL PHARMACY","address1": "1450 S DOBSON RD","address2": "STE A102","city": "MESA","state": "AZ","zip": "85202","zip+4": "0000","phone": "4809690600"}
{"name": "WALGREEN DRUG STORE #6784","address1": "2024 W MAIN ST","address2": "","city": "MESA","state": "AZ","zip": "85201","zip+4": "0000","phone": "4802140371"}
{"name": "BASHAS #102","address1": "20351 N LAKE PLEASANT RD","address2": "","city": "PEORIA","state": "AZ","zip": "85382","zip+4": "0000","phone": "6235372321"}
{"name": "OSCO PHARMACY #929","address1": "8454 S POWER RD","address2": "","city": "GILBERT","state": "AZ","zip": "85297","zip+4": "0000","phone": "4809887285"}
{"name": "SAFEWAY #2644","address1": "1855 N POWER RD","address2": "","city": "MESA","state": "AZ","zip": "85207","zip+4": "0000","phone": "4802812990"}
{"name": "CVS PHARMACY #00032","address1": "5400 E CAREFREE HWY","address2": "","city": "CAREFREE","state": "AZ","zip": "85377","zip+4": "0000","phone": "4805956755"}
{"name": "CVS PHARMACY #00040","address1": "1424 W BASELINE RD","address2": "","city": "TEMPE","state": "AZ","zip": "85283","zip+4": "0000","phone": "4808979774"}
{"name": "WALGREEN DRUG STORE #7304","address1": "2175 W INA RD","address2": "","city": "TUCSON","state": "AZ","zip": "85745","zip+4": "0000","phone": "5202970261"}
{"name": "FRYS FOOD AND DRUG #660111","address1": "11274 S FORTUNA","address2": "","city": "YUMA","state": "AZ","zip": "85367","zip+4": "0000","phone": "9283421332"}
{"name": "WALGREEN DRUG STORE #7582","address1": "13014 W CAMELBACK RD","address2": "","city": "GLENDALE","state": "AZ","zip": "85340","zip+4": "0000","phone": "6239350454"}
{"name": "WALGREEN DRUG STORE #7663","address1": "8280 LOWER BUCKEYE RD","address2": "","city": "PHOENIX","state": "AZ","zip": "85043","zip+4": "0000","phone": "6239365196"}
{"name": "CVS PHARMACY #00086","address1": "1686 E FLORENCE BLVD","address2": "","city": "CASA GRANDE","state": "AZ","zip": "85222","zip+4": "0000","phone": "5208764357"}
{"name": "CVS PHARMACY #05477","address1": "15474 W GREENWAY RD","address2": "","city": "SURPRISE","state": "AZ","zip": "85374","zip+4": "0000","phone": "6235841964"}
{"name": "TARGET PHARMACY #0179","address1": "5255 E BROADWAY BLVD","address2": "","city": "TUCSON","state": "AZ","zip": "85711","zip+4": "0000","phone": "5209170130"}
{"name": "TARGET PHARMACY #1838","address1": "3425 W FRYE ROAD","address2": "","city": "CHANDLER","state": "AZ","zip": "85226","zip+4": "0000","phone": "4802810008"}
{"name": "BASHAS #73","address1": "2864 N POWER RD","address2": "","city": "MESA","state": "AZ","zip": "85215","zip+4": "0000","phone": "4806540200"}
{"name": "FOOD CITY #154","address1": "9020 W THOMAS RD","address2": "","city": "PHOENIX","state": "AZ","zip": "85037","zip+4": "0000","phone": "6238726201"}
{"name": "SAFEWAY #2648","address1": "2125 N US HWY 70","address2": "","city": "THATCHER","state": "AZ","zip": "85552","zip+4": "0000","phone": "9284287244"}
{"name": "WALGREEN DRUG STORE #6692","address1": "4766 E QUEEN CREEK RD","address2": "","city": "GILBERT","state": "AZ","zip": "85297","zip+4": "0000","phone": "4809885858"}
{"name": "FRYS FOOD AND DRUG #660077","address1": "3198 WILLOW CREEK RD","address2": "","city": "PRESCOTT","state": "AZ","zip": "86305","zip+4": "0000","phone": "9287783181"}
{"name": "WALGREEN DRUG STORE #7463","address1": "525 W VALENCIA RD","address2": "","city": "TUCSON","state": "AZ","zip": "85706","zip+4": "0000","phone": "5202940216"}
{"name": "AJS #63","address1": "7141 E LINCOLN DR","address2": "","city": "SCOTTSDALE","state": "AZ","zip": "85253","zip+4": "0000","phone": "4809982378"}
{"name": "WALGREEN DRUG STORE #7203","address1": "2415 N ALVERNON WAY","address2": "","city": "TUCSON","state": "AZ","zip": "85711","zip+4": "0000","phone": "5203230514"}
{"name": "CVS PHARMACY #08366","address1": "1610 E CAMELBACK RD","address2": "","city": "PHOENIX","state": "AZ","zip": "85016","zip+4": "0000","phone": "6022771727"}
{"name": "CVS PHARMACY #05315","address1": "2005 N DOBSON RD","address2": "","city": "CHANDLER","state": "AZ","zip": "85224","zip+4": "0000","phone": "4808120063"}
{"name": "CVS PHARMACY #05814","address1": "9950 E GUADALUPE RD","address2": "","city": "MESA","state": "AZ","zip": "85212","zip+4": "0000","phone": "4803543758"}
{"name": "BASHAS #11","address1": "4855 E WARNER RD","address2": "","city": "PHOENIX","state": "AZ","zip": "85044","zip+4": "0000","phone": "4809406396"}
{"name": "CVS PHARMACY #00089","address1": "10010 N SCOTTSDALE RD","address2": "","city": "SCOTTSDALE","state": "AZ","zip": "85253","zip+4": "0000","phone": "4806075025"}
{"name": "BASHAS #130","address1": "5115 N DYSART RD","address2": "","city": "LITCHFIELD PARK","state": "AZ","zip": "85340","zip+4": "0000","phone": "6235474581"}
{"name": "CVS PHARMACY #05026","address1": "1212 S GREENFIELD RD","address2": "","city": "MESA","state": "AZ","zip": "85204","zip+4": "0000","phone": "4806548920"}
{"name": "CVS PHARMACY #05812","address1": "5954 E MC DOWELL RD","address2": "","city": "MESA","state": "AZ","zip": "85215","zip+4": "0000","phone": "4808304518"}
{"name": "CVS PHARMACY #00069","address1": "8332 W THUNDERBIRD RD","address2": "","city": "PEORIA","state": "AZ","zip": "85381","zip+4": "0000","phone": "6237763006"}
{"name": "CVS PHARMACY #01759","address1": "10 E DUNLOP AVE","address2": "","city": "PHOENIX","state": "AZ","zip": "85020","zip+4": "0000","phone": "6023713709"}
{"name": "CVS PHARMACY #00091","address1": "8705 E SPEEDWAY BLVD","address2": "","city": "TUCSON","state": "AZ","zip": "85710","zip+4": "0000","phone": "5207217631"}
{"name": "FOOD CITY #156","address1": "1221 W IRVINGTON RD","address2": "","city": "TUCSON","state": "AZ","zip": "85714","zip+4": "0000","phone": "5204346921"}
{"name": "CVS PHARMACY #08365","address1": "2428 S VAL VISTA DR","address2": "","city": "GILBERT","state": "AZ","zip": "85296","zip+4": "0000","phone": "4809177467"}
{"name": "FRYS FOOD AND DRUG #660084","address1": "542 E HUNT HWY","address2": "","city": "QUEEN CREEK","state": "AZ","zip": "85243","zip+4": "5212","phone": "4808881781"}
{"name": "WAL-MART PHARMACY #105257","address1": "5122 EAST UNIVERSITY DRIVE","address2": "","city": "MESA","state": "AZ","zip": "85205","zip+4": "0000","phone": "4808329660"}
{"name": "WAL-MART PHARMACY #105332","address1": "730 EAST MCKELLIPS ROAD","address2": "","city": "MESA","state": "AZ","zip": "85203","zip+4": "0000","phone": "4809649427"}
{"name": "WAL-MART PHARMACY #102767","address1": "4505 EAST MCKELLIPS ROAD","address2": "","city": "MESA","state": "AZ","zip": "85215","zip+4": "0000","phone": "4806416740"}
{"name": "SAMS PHARMACY #104830","address1": "1459 NORTH DYSART ROAD","address2": "","city": "AVONDALE","state": "AZ","zip": "85323","zip+4": "0000","phone": "6238823871"}
{"name": "CVS PHARMACY #08420","address1": "7740 N CORTARO RD","address2": "","city": "MARANA","state": "AZ","zip": "85743","zip+4": "0000","phone": "5205799918"}
{"name": "WALGREEN DRUG STORE #7558","address1": "9233 E GUADALUPE RD","address2": "","city": "MESA","state": "AZ","zip": "85212","zip+4": "0000","phone": "4809848521"}
{"name": "OSCO PHARMACY #1026","address1": "16750 W BELL RD","address2": "","city": "SURPRISE","state": "AZ","zip": "85374","zip+4": "0000","phone": "6235468246"}
{"name": "TARGET PHARMACY #1863","address1": "9615 E OLD SPANISH TRL","address2": "","city": "TUCSON","state": "AZ","zip": "85748","zip+4": "0000","phone": "5202963775"}
{"name": "FRYS FOOD AND DRUG #660089","address1": "11425 W BUCKEYE ROAD","address2": "","city": "AVONDALE","state": "AZ","zip": "85323","zip+4": "0000","phone": "6239076161"}
{"name": "WALGREEN DRUG STORE #7516","address1": "2411 W ANTHEM WAY","address2": "","city": "ANTHEM","state": "AZ","zip": "85086","zip+4": "0000","phone": "6235510022"}
{"name": "WALGREEN DRUG STORE #7104","address1": "1145 S HARRISON RD","address2": "","city": "TUCSON","state": "AZ","zip": "85748","zip+4": "0000","phone": "5202960917"}
{"name": "CVS PHARMACY #05779","address1": "360 N VAL VISTA DRIVE","address2": "","city": "MESA","state": "AZ","zip": "85213","zip+4": "0000","phone": "4808070251"}
{"name": "CVS PHARMACY #05778","address1": "4040 N 19TH AVE","address2": "","city": "PHOENIX","state": "AZ","zip": "85015","zip+4": "0000","phone": "6022653167"}
{"name": "CVS PHARMACY #05794","address1": "9069 W LAKE PLEASANT PARKWAY","address2": "","city": "PEORIA","state": "AZ","zip": "85382","zip+4": "0000","phone": "6233760549"}
{"name": "KORMAN HEALTHCARE PHARMACY","address1": "5787 W ERIE ST","address2": "","city": "CHANDLER","state": "AZ","zip": "85226","zip+4": "0000","phone": "4807073390"}
{"name": "SAFEWAY #2618","address1": "440 N ESTRELLA PKWY","address2": "","city": "GOODYEAR","state": "AZ","zip": "85338","zip+4": "0000","phone": "6234761720"}
{"name": "SAFEWAY #2676","address1": "9101 E BASELINE RD","address2": "","city": "MESA","state": "AZ","zip": "85208","zip+4": "0000","phone": "4802810180"}
{"name": "CVS PHARMACY #07839","address1": "32331 N SCOTTSDALE RD","address2": "","city": "SCOTTSDALE","state": "AZ","zip": "85262","zip+4": "0000","phone": "4805750220"}
{"name": "WALGREEN DRUG STORE #6880","address1": "2431 S HIGLEY RD","address2": "","city": "GILBERT","state": "AZ","zip": "85297","zip+4": "0000","phone": "4809880492"}
{"name": "WAL-MART PHARMACY #105124","address1": "5605 WEST NORTHERN AVENUE","address2": "","city": "GLENDALE","state": "AZ","zip": "85301","zip+4": "0000","phone": "6239347926"}
{"name": "MIXTURES PHARMACY LLC","address1": "16515 S 40TH ST","address2": "STE 123","city": "PHOENIX","state": "AZ","zip": "85048","zip+4": "0000","phone": "4807060620"}
{"name": "CVS PHARMACY #07841","address1": "4365 N ORACLE RD","address2": "","city": "TUCSON","state": "AZ","zip": "85705","zip+4": "0000","phone": "5204072127"}
{"name": "FRYS FOOD AND DRUG #660075","address1": "3261 E PECOS RD","address2": "","city": "GILBERT","state": "AZ","zip": "85295","zip+4": "1200","phone": "4809886301"}
{"name": "SAMS PHARMACY #106606","address1": "8340 W MCDOWELL","address2": "","city": "PHOENIX","state": "AZ","zip": "85037","zip+4": "0000","phone": "6239360468"}
{"name": "WAL-MART PHARMACY #105304","address1": "1916 SOUTH LINDSAY ROAD","address2": "","city": "MESA","state": "AZ","zip": "85204","zip+4": "0000","phone": "4808926772"}
{"name": "BASHAS #28","address1": "160 COFFEE POT DR","address2": "","city": "SEDONA","state": "AZ","zip": "86336","zip+4": "0000","phone": "9282829541"}
{"name": "BASHAS #6","address1": "1625 E GLENDALE AVE","address2": "","city": "PHOENIX","state": "AZ","zip": "85020","zip+4": "0000","phone": "6022776133"}
{"name": "TARGET PHARMACY #1439","address1": "3699 E BROADWAY BLVD","address2": "","city": "TUCSON","state": "AZ","zip": "85716","zip+4": "0000","phone": "5209170117"}
{"name": "BASHAS #109","address1": "21044 N JOHN WAYNE PKWY","address2": "","city": "MARICOPA","state": "AZ","zip": "85239","zip+4": "0000","phone": "5208364401"}
{"name": "WALGREEN DRUG STORE #2429","address1": "1995 THATCHER BLVD","address2": "","city": "SAFFORD","state": "AZ","zip": "85546","zip+4": "0000","phone": "9284285059"}
{"name": "WAL-MART PHARMACY #105189","address1": "5250 WEST INDIAN SCHOOL ROAD","address2": "","city": "PHOENIX","state": "AZ","zip": "85031","zip+4": "0000","phone": "6238458724"}
{"name": "CVS PHARMACY #05303","address1": "9152 E BROWN RD","address2": "","city": "MESA","state": "AZ","zip": "85207","zip+4": "0000","phone": "4803574833"}
{"name": "FOOD CITY #94","address1": "3442 W VAN BUREN RD","address2": "","city": "PHOENIX","state": "AZ","zip": "85009","zip+4": "0000","phone": "6022788831"}
{"name": "WAL-MART PHARMACY #105349","address1": "8335 E. GUADALUPE ROAD","address2": "","city": "MESA","state": "AZ","zip": "85212","zip+4": "0000","phone": "4803579583"}
{"name": "FRYS FOOD AND DRUG #660081","address1": "2250 E BASELINE ROAD","address2": "","city": "PHOENIX","state": "AZ","zip": "85040","zip+4": "0000","phone": "6023054421"}
{"name": "CVS PHARMACY #05891","address1": "3170 S HIGLEY RD","address2": "","city": "GILBERT","state": "AZ","zip": "85295","zip+4": "0000","phone": "4802795517"}
{"name": "VALLEY OF THE SUN PHARMACY","address1": "15600 N BLACK CANYON FRWY","address2": "STE C 107","city": "PHOENIX","state": "AZ","zip": "85053","zip+4": "0000","phone": "6028960454"}
{"name": "MAYO HOSPITAL OUTPATIENT PHARM","address1": "5777 E MAYO BLVD","address2": "","city": "PHOENIX","state": "AZ","zip": "85054","zip+4": "0000","phone": "4803421500"}
{"name": "TARGET PHARMACY #1905","address1": "2140 E BASELINE","address2": "","city": "PHOENIX","state": "AZ","zip": "85040","zip+4": "0000","phone": "6022811120"}
{"name": "CVS PHARMACY #05039","address1": "30 E WILLIAMS FIELD RD","address2": "","city": "GILBERT","state": "AZ","zip": "85295","zip+4": "0000","phone": "4807227621"}
{"name": "CVS PHARMACY #06719","address1": "44274 WEST SMITH ENKE RD","address2": "","city": "MARICOPA","state": "AZ","zip": "85239","zip+4": "0000","phone": "5205688290"}
{"name": "GREEN TREE PHARMACY","address1": "642 DAMERON DR","address2": "","city": "PRESCOTT","state": "AZ","zip": "86301","zip+4": "0000","phone": "9284454360"}
{"name": "SAMS PHARMACY #106205","address1": "1462 S. PACIFIC AVENUE","address2": "","city": "YUMA","state": "AZ","zip": "85365","zip+4": "0000","phone": "9287836575"}
{"name": "WAL-MART PHARMACY #105331","address1": "7575 WEST LOWER BUCKEYE ROAD","address2": "","city": "PHOENIX","state": "AZ","zip": "85043","zip+4": "0000","phone": "0623900712"}
{"name": "WAL-MART PHARMACY #105342","address1": "2501 SOUTH AVENUE B","address2": "","city": "YUMA","state": "AZ","zip": "85364","zip+4": "0000","phone": "9283176863"}
{"name": "WALGREEN DRUG STORE #1076","address1": "333 E HUNT HWY","address2": "","city": "QUEEN CREEK","state": "AZ","zip": "85242","zip+4": "0000","phone": "4809874047"}
{"name": "FRYS FOOD AND DRUG #660087","address1": "5140 W BASELINE ROAD","address2": "","city": "LAVEEN","state": "AZ","zip": "85339","zip+4": "0000","phone": "6022377001"}
{"name": "BASHAS #7","address1": "8035 E INDIAN SCHOOL RD","address2": "","city": "SCOTTSDALE","state": "AZ","zip": "85251","zip+4": "0000","phone": "4806631043"}
{"name": "CVS PHARMACY #03967","address1": "3990 W RAY RD","address2": "","city": "CHANDLER","state": "AZ","zip": "85226","zip+4": "0000","phone": "4807863478"}
{"name": "CVS PHARMACY #05791","address1": "4890 N LITCHFIELD RD","address2": "","city": "LITCHFIELD PARK","state": "AZ","zip": "85340","zip+4": "0000","phone": "6235474799"}
{"name": "CVS PHARMACY #07836","address1": "1151 E MCKELLIPS RD","address2": "","city": "MESA","state": "AZ","zip": "85203","zip+4": "0000","phone": "4807330437"}
{"name": "CVS PHARMACY #07837","address1": "2807 N POWER RD","address2": "","city": "MESA","state": "AZ","zip": "85215","zip+4": "1728","phone": "4803968301"}
{"name": "CVS PHARMACY #07867","address1": "5100 E GRANT RD","address2": "","city": "TUSCON","state": "AZ","zip": "85712","zip+4": "0000","phone": "5203230012"}
{"name": "BASHAS #110","address1": "1133 N ELLSWORTH RD","address2": "","city": "MESA","state": "AZ","zip": "85207","zip+4": "0000","phone": "4803573301"}
{"name": "WALGREEN DRUG STORE #7784","address1": "2650 GLENDALE AVE","address2": "","city": "PHOENIX","state": "AZ","zip": "85051","zip+4": "0000","phone": "6022830779"}
{"name": "BASHAS UNITED DRUG #46","address1": "23760 S POWER RD","address2": "","city": "QUEEN CREEK","state": "AZ","zip": "85242","zip+4": "0000","phone": "4802795701"}
{"name": "WAL-MART PHARMACY #103315","address1": "4230 WEST UNION HILLS DRIVE","address2": "","city": "PHOENIX","state": "AZ","zip": "85308","zip+4": "0000","phone": "6238697928"}
{"name": "WAL-MART PHARMACY #105186","address1": "2501 SOUTH MARKET STREET","address2": "","city": "GILBERT","state": "AZ","zip": "85296","zip+4": "0000","phone": "4802246911"}
{"name": "WAL-MART PHARMACY #105190","address1": "2501 W HAPPY VALLEY RD S 34","address2": "","city": "PHOENIX","state": "AZ","zip": "85085","zip+4": "0000","phone": "6237805713"}
{"name": "WAL-MART PHARMACY #105303","address1": "1280 GAIL GARDNER WAY","address2": "","city": "PRESCOTT","state": "AZ","zip": "86305","zip+4": "0000","phone": "9285410562"}
{"name": "WAL-MART PHARMACY #105330","address1": "6145 NORTH 35TH AVENUE","address2": "","city": "PHOENIX","state": "AZ","zip": "85017","zip+4": "0000","phone": "6029736561"}
{"name": "MOUNTAIN PARK HEALTH CENTER PH","address1": "4616 N 51ST AVE","address2": "STE 101","city": "PHOENIX","state": "AZ","zip": "85031","zip+4": "0000","phone": "6023238176"}
{"name": "FRYS FOOD AND DRUG #660674","address1": "13982 W WADDELL ROAD","address2": "","city": "SURPRISE","state": "AZ","zip": "85379","zip+4": "0000","phone": "6235379663"}
{"name": "BASHAS #155","address1": "9925 E BASELINE RD","address2": "","city": "MESA","state": "AZ","zip": "85209","zip+4": "8325","phone": "4803572634"}
{"name": "BASHAS #54","address1": "142 E HIGHWAY 260","address2": "","city": "PAYSON","state": "AZ","zip": "85541","zip+4": "0000","phone": "9284747039"}
{"name": "CVS PHARMACY #07845","address1": "7552 E INDIAN SCHOOL RD","address2": "","city": "SCOTTSDALE","state": "AZ","zip": "85251","zip+4": "0000","phone": "4809456660"}
{"name": "CVS PHARMACY #05950","address1": "855 EAST ELLIOT RD","address2": "","city": "TEMPE","state": "AZ","zip": "85284","zip+4": "0000","phone": "4804563602"}
{"name": "CVS PHARMACY #07852","address1": "28138 N TATUM BLVD","address2": "","city": "CAVE CREEK","state": "AZ","zip": "85331","zip+4": "0000","phone": "4805856097"}
{"name": "WALGREEN DRUG STORE #9264","address1": "21274 N JOHN WAYNE PKWY","address2": "","city": "MARICOPA","state": "AZ","zip": "85239","zip+4": "0000","phone": "5205680658"}
{"name": "TARGET PHARMACY #1959","address1": "5110 S POWER RD","address2": "","city": "MESA","state": "AZ","zip": "85212","zip+4": "0000","phone": "4802810269"}
{"name": "TARGET PHARMACY #1960","address1": "3931 S GILBERT RD","address2": "","city": "GILBERT","state": "AZ","zip": "85296","zip+4": "0000","phone": "4802810202"}
{"name": "WALGREEN DRUG STORE #10017","address1": "13640 PLAZA DEL RIO","address2": "SUITE 110","city": "PEORIA","state": "AZ","zip": "85381","zip+4": "0000","phone": "6239740436"}
{"name": "WALGREEN DRUG STORE #10018","address1": "10503 W THUNDERBIRD","address2": "","city": "SUN CITY","state": "AZ","zip": "85351","zip+4": "0000","phone": "6239727868"}
{"name": "WALGREEN DRUG STORE #10349","address1": "14418 W MEEKER STE 101","address2": "","city": "SUN CITY WEST","state": "AZ","zip": "85375","zip+4": "0000","phone": "6235848401"}
{"name": "CVS PHARMACY #07859","address1": "6370 N CAMPBELL AVE 120","address2": "","city": "TUCSON","state": "AZ","zip": "85718","zip+4": "0000","phone": "5202997390"}
{"name": "WAL-MART PHARMACY #103316","address1": "8921 WEST THOMAS ROAD","address2": "","city": "PHOENIX","state": "AZ","zip": "85037","zip+4": "0000","phone": "6239361785"}
{"name": "WAL-MART PHARMACY #103357","address1": "3925 EAST GRANT ROAD","address2": "","city": "TUCSON","state": "AZ","zip": "85712","zip+4": "0000","phone": "5203279555"}
{"name": "WAL-MART PHARMACY #103314","address1": "7450 WEST GLENDALE AVE.","address2": "","city": "GLENDALE","state": "AZ","zip": "85303","zip+4": "0000","phone": "6239152639"}
{"name": "SAMS PHARMACY #104927","address1": "1375 S ARIZONA AVE","address2": "","city": "CHANDLER","state": "AZ","zip": "85286","zip+4": "0000","phone": "4807269762"}
{"name": "CVS PHARMACY #05029","address1": "9230 E BROADWAY RD","address2": "","city": "MESA","state": "AZ","zip": "85208","zip+4": "0000","phone": "4809863004"}
{"name": "CVS PHARMACY #07860","address1": "1615 E BASELINE RD","address2": "","city": "PHOENIX","state": "AZ","zip": "85042","zip+4": "0000","phone": "6022766001"}
{"name": "FRYS FOOD AND DRUG #660675","address1": "1300 S WATSON ROAD","address2": "","city": "BUCKEYE","state": "AZ","zip": "85326","zip+4": "0000","phone": "6236916633"}
{"name": "FRYS FOOD AND DRUG #660090","address1": "8080 S HOUGHTON ROAD","address2": "","city": "TUCSON","state": "AZ","zip": "85747","zip+4": "0000","phone": "5206631961"}
{"name": "CVS PHARMACY #05849","address1": "990 E PECOS RD","address2": "","city": "CHANDLER","state": "AZ","zip": "85225","zip+4": "0000","phone": "4808572508"}
{"name": "CVS PHARMACY #07876","address1": "3832 E SPEEDWAY","address2": "","city": "TUCSON","state": "AZ","zip": "85716","zip+4": "0000","phone": "5203233923"}
{"name": "WAL-MART PHARMACY #105329","address1": "4435 WEST ANTHEM WAY","address2": "","city": "PHOENIX","state": "AZ","zip": "85086","zip+4": "0000","phone": "6235516327"}
{"name": "CVS PHARMACY #01716","address1": "21087 W MAIN ST","address2": "","city": "BUCKEYE","state": "AZ","zip": "85396","zip+4": "0000","phone": "6238532113"}
{"name": "CVS PHARMACY #07872","address1": "7499 W BETHANY HOME RD","address2": "","city": "GLENDALE","state": "AZ","zip": "85303","zip+4": "0000","phone": "6232474091"}
{"name": "CVS PHARMACY #06718","address1": "5835 W INDIAN SCHOOL RD","address2": "","city": "PHOENIX","state": "AZ","zip": "85031","zip+4": "0000","phone": "6232474030"}
{"name": "WAL-MART PHARMACY #105428","address1": "1710 SOUTH GREENFIELD ROAD","address2": "","city": "MESA","state": "AZ","zip": "85206","zip+4": "0000","phone": "4808926809"}
{"name": "SAFEWAY #2699","address1": "13828 W WADDELL RD","address2": "","city": "SURPRISE","state": "AZ","zip": "85379","zip+4": "0000","phone": "6234761811"}
{"name": "MCKESSON SPECIALTY LIMITED SVC","address1": "4343 N SCOTTSDALE RD","address2": "STE 150","city": "SCOTTSDALE","state": "AZ","zip": "85024","zip+4": "0000","phone": "4806634000"
{"name": "WAL-MART PHARMACY #102671","address1": "1175 SOUTH ARIZONA AVENUE","address2": "","city": "CHANDLER","state": "AZ","zip": "85248","zip+4": "0000","phone": "4807260910"}
{"name": "CVS PHARMACY #06862","address1": "1850 W DUNLAP AVE","address2": "","city": "PHOENIX","state": "AZ","zip": "85021","zip+4": "0000","phone": "6028611537"}
{"name": "CVS PHARMACY #07115","address1": "7530 W CACTUS RD","address2": "","city": "PEORIA","state": "AZ","zip": "85381","zip+4": "0000","phone": "6233344635"}
{"name": "CVS PHARMACY #05038","address1": "2010 S DOBSON RD","address2": "","city": "CHANDLER","state": "AZ","zip": "85248","zip+4": "0000","phone": "4808992183"}
{"name": "CVS PHARMACY #07078","address1": "3303 S RURAL ST","address2": "","city": "TEMPE","state": "AZ","zip": "85282","zip+4": "0000","phone": "4803456328"}
{"name": "FRYS FOOD AND DRUG #660672","address1": "20797 N JOHN WAYNE PARKWAY","address2": "","city": "MARICOPA","state": "AZ","zip": "85239","zip+4": "0000","phone": "5205686233"}
{"name": "SAFEWAY #0752","address1": "4747 EAST ELLIOT RD","address2": "","city": "PHOENIX","state": "AZ","zip": "85044","zip+4": "0000","phone": "4802811019"}
{"name": "FOOTHILLS PROFESSIONAL PHARMAC","address1": "4545 E CHANDLER BLVD","address2": "STE 100","city": "PHOENIX","state": "AZ","zip": "85048","zip+4": "0000","phone": "4804964444"}
{"name": "WALGREEN DRUG STORE #9261","address1": "4710 E ROSE GARDEN LANE","address2": "","city": "PHOENIX","state": "AZ","zip": "85050","zip+4": "0000","phone": "4802140966"}
{"name": "FOOD CITY #26","address1": "1005 N ARIZONA AVE","address2": "","city": "CHANDLER","state": "AZ","zip": "85225","zip+4": "0000","phone": "4808552000"}
{"name": "WAL-MART PHARMACY #103360","address1": "2750 E GERMANN ROAD","address2": "","city": "CHANDLER","state": "AZ","zip": "85249","zip+4": "0000","phone": "4808122942"}
{"name": "WAL-MART PHARMACY #105369","address1": "1100 NORTH ESTRELLA PARKWAY","address2": "","city": "GOODYEAR","state": "AZ","zip": "85338","zip+4": "0000","phone": "6239259883"}
{"name": "TARGET PHARMACY #0854","address1": "3901 W INA RD","address2": "","city": "TUCSON NW","state": "AZ","zip": "85741","zip+4": "0000","phone": "5209183602"}
{"name": "TARGET PHARMACY #0935","address1": "10650 S MILTON RD","address2": "","city": "FLAGSTAFF","state": "AZ","zip": "86001","zip+4": "0000","phone": "9287792661"}
{"name": "MELROSE PHARMACY","address1": "704 W MONTECITO AVE","address2": "","city": "PHOENIX","state": "AZ","zip": "85013","zip+4": "0000","phone": "6022774714"}
{"name": "TARGET PHARMACY #2083","address1": "1450 S YUMA PALMS PKWY","address2": "","city": "YUMA","state": "AZ","zip": "85365","zip+4": "0000","phone": "9283437466"}
{"name": "WALGREEN DRUG STORE #7747","address1": "3233 E GERMANN RD","address2": "","city": "GILBERT","state": "AZ","zip": "85297","zip+4": "0000","phone": "4802140978"}
{"name": "PACIFIC PULMONARY SERVICES","address1": "7850 S HARDY DR","address2": "STE 105","city": "TEMPE","state": "AZ","zip": "85284","zip+4": "0000","phone": "4804773085"}
{"name": "WALGREEN DRUG STORE #7933","address1": "15514 W WADDELL RD","address2": "","city": "SURPRISE","state": "AZ","zip": "85379","zip+4": "0000","phone": "6232150541"}
{"name": "WALGREEN DRUG STORE #7723","address1": "975 E OCOTILLO RD","address2": "","city": "CHANDLER","state": "AZ","zip": "85249","zip+4": "0000","phone": "4802141364"}
{"name": "SANDERS CLINIC","address1": "PARKER ESTATES SUN LANE 49","address2": "7 TENTHS MILES E OF TIRE SHOP","city": "SANDERS","state": "AZ","zip": "86512","zip+4": "0000","phone": "9286882506"}
{"name": "KINGMAN HOMETOWN PHARMACY","address1": "2370 NORTHERN AVE STE A","address2": "","city": "KINGMAN","state": "AZ","zip": "86409","zip+4": "0000","phone": "9286814888"}
{"name": "SPECTRUM PHARMACY","address1": "6250 E GRANT RD","address2": "STE 388","city": "TUCSON","state": "AZ","zip": "85712","zip+4": "0000","phone": "5202960317"}
{"name": "SAMS PHARMACY #104915","address1": "600 HIGHWAY 95 SUITE 200","address2": "","city": "BULLHEAD CITY","state": "AZ","zip": "86429","zip+4": "0000","phone": "9287543961"}
{"name": "BASHAS UNITED DRUG #161","address1": "4940 S GILBERT RD","address2": "","city": "CHANDLER","state": "AZ","zip": "85249","zip+4": "0000","phone": "4808832241"}
{"name": "BASHAS UNITED DRUG #160","address1": "2000 W RIVER RD","address2": "","city": "TUCSON","state": "AZ","zip": "85704","zip+4": "0000","phone": "5206903681"}
{"name": "COSTCO PHARMACY #738","address1": "2450 E BEARDSLEY RD","address2": "","city": "PHOENIX","state": "AZ","zip": "85050","zip+4": "0000","phone": "4803752878"}
{"name": "COSTCO PHARMACY #736","address1": "595 S GALLERIA WAY","address2": "","city": "CHANDLER","state": "AZ","zip": "85226","zip+4": "0000","phone": "4803752078"}
{"name": "WAL-MART PHARMACY #103377","address1": "2823 WEST VALENCIA ROAD","address2": "","city": "TUCSON","state": "AZ","zip": "85746","zip+4": "0000","phone": "5209082563"}
{"name": "WAL-MART PHARMACY #103604","address1": "14200 WEST INDIAN SCHOOL ROAD","address2": "","city": "GOODYEAR","state": "AZ","zip": "85338","zip+4": "0000","phone": "6239357578"}
{"name": "SAFEWAY #1997","address1": "17049 W BELL ROAD","address2": "","city": "SURPRISE","state": "AZ","zip": "85374","zip+4": "0000","phone": "6235181063"}
{"name": "SALIBAS SKILLED CARE PHARMACY","address1": "2501 WEST BEHREND DRIVE","address2": "STE 69","city": "PHOENIX","state": "AZ","zip": "85027","zip+4": "0000","phone": "6235875425"}
{"name": "WALGREEN DRUG STORE #9292","address1": "1310 WILLOW CREEK RD","address2": "","city": "PRESCOTT","state": "AZ","zip": "86301","zip+4": "0000","phone": "9282279962"}
{"name": "RIO RICO PHARMACY LLC","address1": "1103 CIRCULO MERCADO STE A","address2": "","city": "RIO RICO","state": "AZ","zip": "85648","zip+4": "0000","phone": "5207613338"}
{"name": "WALGREEN DRUG STORE #9742","address1": "2491 W 24TH ST","address2": "","city": "YUMA","state": "AZ","zip": "85364","zip+4": "0000","phone": "9283410079"}
{"name": "WALGREEN DRUG STORE #9175","address1": "23477 W YUMA RD","address2": "","city": "BUCKEYE","state": "AZ","zip": "85326","zip+4": "0000","phone": "6233379158"}
{"name": "CVS PHARMACY #07262","address1": "18460 N 7TH ST","address2": "","city": "PHOENIX","state": "AZ","zip": "85022","zip+4": "0000","phone": "6029935781"}
{"name": "CVS PHARMACY #07075","address1": "2995 E CHANDLER HEIGHTS RD","address2": "","city": "CHANDLER","state": "AZ","zip": "85249","zip+4": "0000","phone": "4808958369"}
{"name": "CVS PHARMACY #07855","address1": "2601 S HOUGHTON RD","address2": "","city": "TUCSON","state": "AZ","zip": "85730","zip+4": "0000","phone": "5207518523"}
{"name": "APOTHECARY SHOP OF TUCSON II I","address1": "2181 W ORANGE GROVE RD","address2": "STE 135","city": "TUCSON","state": "AZ","zip": "85741","zip+4": "0000","phone": "5207977799"}
{"name": "WAL-MART PHARMACY #103751","address1": "1725 WEST HUNT HIGHWAY","address2": "","city": "QUEEN CREEK","state": "AZ","zip": "85242","zip+4": "0000","phone": "4806772540"}
{"name": "PARK CENTRAL PHARMACY","address1": "500 W THOMAS","address2": "190","city": "PHOENIX","state": "AZ","zip": "85013","zip+4": "0000","phone": "6022775444"}
{"name": "WALGREEN DRUG STORE #2243","address1": "387 N ESTRELLA PKWY","address2": "","city": "GOODYEAR","state": "AZ","zip": "85338","zip+4": "0000","phone": "6232151043"}
{"name": "CVS PHARMACY #07849","address1": "1015 E RAY RD","address2": "","city": "CHANDLER","state": "AZ","zip": "85225","zip+4": "0000","phone": "4809173041"}
{"name": "XPRESS CARE PHARMACY #1","address1": "13055 W MCDOWELL RD","address2": "STE 103","city": "AVONDALE","state": "AZ","zip": "85323","zip+4": "0000","phone": "6235355288"}
{"name": "WALGREEN DRUG STORE #9953","address1": "7885 E SPEEDWAY BLVD","address2": "","city": "TUCSON","state": "AZ","zip": "85710","zip+4": "0000","phone": "5202041006"}
{"name": "BASHAS #52","address1": "15310 N ORACLE RD","address2": "","city": "TUCSON","state": "AZ","zip": "85739","zip+4": "0000","phone": "5205757301"}
{"name": "COSTCO PHARMACY #644","address1": "2887 S MARKET ST","address2": "","city": "GILBERT","state": "AZ","zip": "85296","zip+4": "0000","phone": "4803663959"}
{"name": "AVONDALE NEIGHBORHOOD PHARMACY","address1": "10750 W. MCDOWELL RD","address2": "BLDG. A STE. 110","city": "AVONDALE","state": "AZ","zip": "85392","zip+4": "0000","phone": "6239329800"}
{"name": "SUNWEST PHARMACY","address1": "1300 N 12TH ST","address2": "STE 555","city": "PHOENIX","state": "AZ","zip": "85006","zip+4": "0000","phone": "6025953555"}
{"name": "WALGREEN DRUG STORE #09652","address1": "1575 N ARIZONA BLVD","address2": "","city": "COOLIDGE","state": "AZ","zip": "85228","zip+4": "3215","phone": "5207235480"}
{"name": "CVS PHARMACY #07264","address1": "39510 N GAVILAN PEAK PKWY","address2": "","city": "ANTHEM","state": "AZ","zip": "85086","zip+4": "0000","phone": "6235511031"}
{"name": "CVS PHARMACY #09218","address1": "1137 S DOBSON RD","address2": "","city": "MESA","state": "AZ","zip": "85202","zip+4": "0000","phone": "4809640304"}
{"name": "CVS PHARMACY #09223","address1": "3320 NORTH 7TH AVENUE","address2": "","city": "PHOENIX","state": "AZ","zip": "85013","zip+4": "0000","phone": "6022665501"}
{"name": "CVS PHARMACY #09225","address1": "2406 EAST THOMAS RD","address2": "","city": "PHOENIX","state": "AZ","zip": "85016","zip+4": "0000","phone": "6029561800"}
{"name": "CVS PHARMACY #09256","address1": "3560 W PEORIA AVE","address2": "","city": "PHOENIX","state": "AZ","zip": "85029","zip+4": "0000","phone": "6029383400"}
{"name": "CVS PHARMACY #09304","address1": "7434 W INDIAN SCHOOL RD","address2": "","city": "PHOENIX","state": "AZ","zip": "85033","zip+4": "0000","phone": "6238465065"}
{"name": "CVS PHARMACY #09202","address1": "4742 E INDIAN SCHOOL","address2": "","city": "PHOENIX","state": "AZ","zip": "85018","zip+4": "0000","phone": "6028402950"}
{"name": "CVS PHARMACY #09205","address1": "802 S MILL AVE","address2": "","city": "TEMPE","state": "AZ","zip": "85281","zip+4": "0000","phone": "4809666271"}
{"name": "CVS PHARMACY #09245","address1": "12409 N TATUM BLVD","address2": "","city": "PHOENIX","state": "AZ","zip": "85032","zip+4": "0000","phone": "6029967320"}
{"name": "CVS PHARMACY #09293","address1": "325 W APACHE TRAIL","address2": "","city": "APACHE JUNCTION","state": "AZ","zip": "85220","zip+4": "0000","phone": "4809831129"}
{"name": "CVS PHARMACY #09274","address1": "615 N ALVERNON","address2": "","city": "TUCSON","state": "AZ","zip": "85711","zip+4": "0000","phone": "5203201184"}
{"name": "CVS PHARMACY #09207","address1": "865 E GRANT","address2": "","city": "TUCSON","state": "AZ","zip": "85719","zip+4": "0000","phone": "5206224853"}
{"name": "CVS PHARMACY #09211","address1": "6484 N ORACLE","address2": "","city": "TUCSON","state": "AZ","zip": "85704","zip+4": "0000","phone": "5202978397"}
{"name": "CVS PHARMACY #09272","address1": "7499 E BROADWAY","address2": "","city": "TUCSON","state": "AZ","zip": "85710","zip+4": "0000","phone": "5202966222"}
{"name": "CVS PHARMACY #09213","address1": "305 E BROWN RD","address2": "","city": "MESA","state": "AZ","zip": "85201","zip+4": "0000","phone": "4808332986"}
{"name": "CVS PHARMACY #09273","address1": "3785 W INA RD","address2": "","city": "MARANA","state": "AZ","zip": "85741","zip+4": "0000","phone": "5207441054"}
{"name": "CVS PHARMACY #08828","address1": "2090 EAST FRY BLVD","address2": "","city": "SIERRA VISTA","state": "AZ","zip": "85635","zip+4": "0000","phone": "5204581254"}
{"name": "CVS PHARMACY #09217","address1": "10720 WEST BELL RD","address2": "","city": "SUN CITY","state": "AZ","zip": "85351","zip+4": "0000","phone": "6239722124"}
{"name": "CVS PHARMACY #09210","address1": "10653 N SCOTTSDALE","address2": "","city": "SCOTTSDALE","state": "AZ","zip": "85254","zip+4": "0000","phone": "4809983500"}
{"name": "CVS PHARMACY #09283","address1": "180 N. DOBSON ROAD","address2": "","city": "CHANDLER","state": "AZ","zip": "85224","zip+4": "0000","phone": "4808120149"}
{"name": "CVS PHARMACY #09314","address1": "3440 WEST GLENDALE AVE","address2": "","city": "PHOENIX","state": "AZ","zip": "85051","zip+4": "0000","phone": "6023364590"}
{"name": "CVS PHARMACY #09312","address1": "4323 EAST BELL ROAD","address2": "","city": "PHOENIX","state": "AZ","zip": "85032","zip+4": "0000","phone": "6024043147"}
{"name": "CVS PHARMACY #09237","address1": "9856 W PEORIA AVE","address2": "","city": "PEORIA","state": "AZ","zip": "85345","zip+4": "0000","phone": "6239778065"}
{"name": "CVS PHARMACY #09297","address1": "6002 NORTH 7TH STREET","address2": "","city": "PHOENIX","state": "AZ","zip": "85014","zip+4": "0000","phone": "6027280437"}
{"name": "CVS PHARMACY #09343","address1": "506 NORTH MILLER VALLEY ROAD","address2": "","city": "PRESCOTT","state": "AZ","zip": "86301","zip+4": "0000","phone": "9284420312"}
{"name": "CVS PHARMACY #09231","address1": "3506 EAST ROUTE 66","address2": "","city": "FLAGSTAFF","state": "AZ","zip": "86004","zip+4": "0000","phone": "9285266506"}
{"name": "CVS PHARMACY #09232","address1": "4748 E SUNRISE","address2": "","city": "TUCSON","state": "AZ","zip": "85718","zip+4": "0000","phone": "5202999195"}
{"name": "CVS PHARMACY #09374","address1": "1900 W VALENCIA RD","address2": "","city": "TUCSON","state": "AZ","zip": "85746","zip+4": "0000","phone": "5208072288"}
{"name": "CVS PHARMACY #09266","address1": "522 FINNEY FLAT SUITE A","address2": "","city": "CAMP VERDE","state": "AZ","zip": "86322","zip+4": "0000","phone": "9285672274"}
{"name": "CVS PHARMACY #09319","address1": "1179 SOUTH HIGHWAY 260","address2": "","city": "COTTONWOOD","state": "AZ","zip": "86326","zip+4": "0000","phone": "9286342147"}
{"name": "CVS PHARMACY #08802","address1": "131 W RIVERSIDE DR","address2": "","city": "PARKER","state": "AZ","zip": "85344","zip+4": "0000","phone": "9286696168"}
{"name": "CVS PHARMACY #09270","address1": "2033 W WICKENBURG WAY","address2": "","city": "WICKENBURG","state": "AZ","zip": "85390","zip+4": "0000","phone": "9286847841"}
{"name": "CVS PHARMACY #09222","address1": "4275 W THOMAS RD","address2": "","city": "PHOENIX","state": "AZ","zip": "85019","zip+4": "0000","phone": "6022725601"}
{"name": "CVS PHARMACY #09327","address1": "6021 S CENTRAL AVE","address2": "","city": "PHOENIX","state": "AZ","zip": "85042","zip+4": "0000","phone": "6022761191"}
{"name": "CVS PHARMACY #09254","address1": "240 W CONTINENTAL RD","address2": "","city": "GREEN VALLEY","state": "AZ","zip": "85614","zip+4": "0000","phone": "5206251319"}
{"name": "CVS PHARMACY #09290","address1": "4430 EAST RAY ROAD","address2": "","city": "PHOENIX","state": "AZ","zip": "85044","zip+4": "0000","phone": "4807851006"}
{"name": "CVS PHARMACY #08826","address1": "2350 MIRACLE MILE","address2": "","city": "BULLHEAD CITY","state": "AZ","zip": "86442","zip+4": "0000","phone": "9287582212"}
{"name": "CVS PHARMACY #09230","address1": "19602 R H JOHNSON","address2": "","city": "SUN CITY WEST","state": "AZ","zip": "85375","zip+4": "0000","phone": "6232141015"}
{"name": "CVS PHARMACY #09264","address1": "23215 NO PIMA RD","address2": "","city": "SCOTTSDALE","state": "AZ","zip": "85255","zip+4": "0000","phone": "4804732711"}
{"name": "CVS PHARMACY #09252","address1": "14672 N FRANK LLOYD WRIGHT","address2": "","city": "SCOTTSDALE","state": "AZ","zip": "85260","zip+4": "0000","phone": "4806612936"}
{"name": "CVS PHARMACY #09294","address1": "9172 W UNION HILLS DR","address2": "","city": "PEORIA","state": "AZ","zip": "85382","zip+4": "0000","phone": "6235720054"}
{"name": "CVS PHARMACY #09278","address1": "1555 S AVENUE B","address2": "","city": "YUMA","state": "AZ","zip": "85364","zip+4": "0000","phone": "9288190208"}
{"name": "CVS PHARMACY #09277","address1": "6895 E SUNRISE","address2": "","city": "TUCSON","state": "AZ","zip": "85750","zip+4": "0000","phone": "5206154800"}
{"name": "CVS PHARMACY #09279","address1": "16545 EAST PALISADES BLVD","address2": "","city": "FOUNTAIN HILLS","state": "AZ","zip": "85268","zip+4": "0000","phone": "4808368337"}
{"name": "CVS PHARMACY #09334","address1": "2800 S 4TH AVE","address2": "","city": "YUMA","state": "AZ","zip": "85364","zip+4": "0000","phone": "9283442341"}
{"name": "CVS PHARMACY #09302","address1": "8920 E TANQUE VERDE","address2": "","city": "TUCSON","state": "AZ","zip": "85749","zip+4": "0000","phone": "5207609188"}
{"name": "CVS PHARMACY #09336","address1": "7901 E GOLF LINKS ROAD","address2": "","city": "TUCSON","state": "AZ","zip": "85730","zip+4": "0000","phone": "5207313098"}
{"name": "CVS PHARMACY #09306","address1": "19505 N SUNRISE BLVD","address2": "","city": "SURPRISE","state": "AZ","zip": "85374","zip+4": "0000","phone": "6235564778"}
{"name": "CVS PHARMACY #09340","address1": "3610 W ANTHEM WAY","address2": "","city": "PHOENIX","state": "AZ","zip": "85086","zip+4": "0000","phone": "6235514299"}
{"name": "CVS PHARMACY #09339","address1": "21001 N TATUM BLVD STE 82","address2": "","city": "PHOENIX","state": "AZ","zip": "85050","zip+4": "0000","phone": "4804193921"}
{"name": "CVS PHARMACY #09328","address1": "7901 E THOMAS ROAD","address2": "","city": "SCOTTSDALE","state": "AZ","zip": "85251","zip+4": "0000","phone": "4809450396"}
{"name": "CVS PHARMACY #09347","address1": "1525 NORTH CENTRAL AVENUE","address2": "","city": "PHOENIX","state": "AZ","zip": "85004","zip+4": "0000","phone": "6022562124"}
{"name": "ESTRELLA PHARMACY","address1": "9305 W THOMAS RD","address2": "STE 185","city": "PHOENIX","state": "AZ","zip": "85037","zip+4": "0000","phone": "6233885025"}
{"name": "FRYS FOOD AND DRUG #660673","address1": "20427 N HAYDEN RD","address2": "","city": "SCOTTSDALE","state": "AZ","zip": "85255","zip+4": "0000","phone": "4804192273"}
{"name": "PAUL IRVING WASSERMANN MD","address1": "3501 N SCOTTSDALE RD","address2": "STE 300","city": "SCOTTSDALE","state": "AZ","zip": "85251","zip+4": "0000","phone": "4809497808"}
{"name": "TARGET PHARMACY #0735","address1": "4151 E HIGHWAY 90","address2": "","city": "SIERRA VISTA","state": "AZ","zip": "85635","zip+4": "0000","phone": "5204529035"}
{"name": "TARGET PHARMACY #2149","address1": "9830 W LOWER BUCKEYE","address2": "","city": "TOLLESON","state": "AZ","zip": "85353","zip+4": "0000","phone": "6236872137"}
{"name": "FOOD CITY UNITED DRUG #108","address1": "1831 KIOWA AVE","address2": "STE 100","city": "LAKE HAVASU CITY","state": "AZ","zip": "86403","zip+4": "0000","phone": "9288552494"}
{"name": "CVS PHARMACY #05892","address1": "5050 W BASELINE RD","address2": "","city": "LAVEEN","state": "AZ","zip": "85339","zip+4": "0000","phone": "6022378681"}
{"name": "CVS PHARMACY #07116","address1": "1855 W THUNDERBIRD RD","address2": "","city": "PHOENIX","state": "AZ","zip": "85023","zip+4": "0000","phone": "6024396892"}
{"name": "ARIZONA CENTER FOR HEMOTOLOGY","address1": "5750 W THUNDERBIRD RD","address2": "STE C300","city": "GLENDALE","state": "AZ","zip": "85306","zip+4": "0000","phone": "6029382848"}
{"name": "WAL-MART PHARMACY #104264","address1": "7951 NORTH ORACLE ROAD","address2": "","city": "ORO VALLEY","state": "AZ","zip": "85704","zip+4": "0000","phone": "5205699563"}
{"name": "INTOWN PHARMACY LLC","address1": "150 E TYSON RD","address2": "","city": "QUARTZSITE","state": "AZ","zip": "85359","zip+4": "0000","phone": "9289275300"}
{"name": "WALGREEN DRUG STORE #09186","address1": "18600 S NOGALES HWY","address2": "","city": "GREEN VALLEY","state": "AZ","zip": "85629","zip+4": "0000","phone": "5202041092"}
{"name": "FOOD CITY UNITED DRUG #60","address1": "450 N GRAND COURT PLZ","address2": "","city": "NOGALES","state": "AZ","zip": "85621","zip+4": "0000","phone": "5202873984"}
{"name": "FRYS FOOD AND DRUG #660011","address1": "6710 W BETHANY HOME RD","address2": "","city": "GLENDALE","state": "AZ","zip": "85303","zip+4": "0000","phone": "6239349243"}
{"name": "CVS PHARMACY #1743","address1": "13870 W GREENWAY RD","address2": "","city": "SURPRISE","state": "AZ","zip": "85374","zip+4": "0000","phone": "6235460512"}
{"name": "WAL-MART PHARMACY #103807","address1": "201 SOUTH PRICKLY PEAR AVE","address2": "","city": "BENSON","state": "AZ","zip": "85602","zip+4": "0000","phone": "5205860754"}
{"name": "WALGREEN DRUG STORE #09179","address1": "5115 W BASELINE RD","address2": "","city": "LAVEEN","state": "AZ","zip": "85339","zip+4": "0000","phone": "6022831603"}
{"name": "CVS PHARMACY #01744","address1": "6650 W LOWER BUCKEYE RD","address2": "","city": "PHOENIX","state": "AZ","zip": "85043","zip+4": "0000","phone": "6239079254"}
{"name": "BASHAS UNITED DRUG #167","address1": "12100 N DOVE MOUNTAIN BLVD","address2": "","city": "MARANA","state": "AZ","zip": "85658","zip+4": "4208","phone": "5205725281"}
{"name": "THE GUIDANCE CENTER PHARMACY","address1": "2695 E INDUSTRIAL DR","address2": "","city": "FLAGSTAFF","state": "AZ","zip": "86004","zip+4": "0000","phone": "9285276485"}
{"name": "FRYS FOOD AND DRUG #660078","address1": "39508 N DAISY MOUNTAIN DR","address2": "","city": "ANTHEM","state": "AZ","zip": "85086","zip+4": "0000","phone": "6235517221"}
{"name": "SAFEWAY #1684","address1": "1940 EAST BROADWAY RD","address2": "","city": "TUCSON","state": "AZ","zip": "85719","zip+4": "0000","phone": "5202069052"}
{"name": "WAL-MART PHARMACY #103771","address1": "6150 SOUTH 35TH AVE","address2": "","city": "PHOENIX","state": "AZ","zip": "85041","zip+4": "0000","phone": "6022438517"}
{"name": "WAL-MART PHARMACY #103799","address1": "240 WEST BASELINE ROAD","address2": "","city": "MESA","state": "AZ","zip": "85210","zip+4": "0000","phone": "4806689512"}
{"name": "WAL-MART PHARMACY #103833","address1": "1606 SOUTH SIGNAL BUTTE ROAD","address2": "","city": "MESA","state": "AZ","zip": "85206","zip+4": "0000","phone": "4803589731"}
{"name": "FRYS FOOD AND DRUG #660474","address1": "29411 N CAVE CREEK RD","address2": "","city": "CAVE CREEK","state": "AZ","zip": "85331","zip+4": "0000","phone": "4805387132"}
{"name": "WALGREEN DRUG STORE #09804","address1": "3111 W HUNT HWY","address2": "","city": "QUEEN CREEK","state": "AZ","zip": "85242","zip+4": "0000","phone": "4802142561"}
{"name": "TARGET PHARMACY #2227","address1": "24890 N LAKE PLEASANT PRKY","address2": "","city": "PEORIA","state": "AZ","zip": "85383","zip+4": "0000","phone": "6233767301"}
{"name": "SPRING VALLEY PHARMACY","address1": "17031 E SPRING VALLEY RD","address2": "STE B","city": "MAYER","state": "AZ","zip": "86333","zip+4": "0000","phone": "9286324538"}
{"name": "APOTHECARY SHOP OF DEER VALLEY","address1": "23620 N 20TH DR","address2": "STE 12","city": "PHOENIX","state": "AZ","zip": "85085","zip+4": "0000","phone": "8777927684"}
{"name": "WAL-MART PHARMACY #104325","address1": "8151 EAST 32ND STREET","address2": "","city": "YUMA","state": "AZ","zip": "85365","zip+4": "0000","phone": "9283446175"}
{"name": "WEST KINGMAN PHARMACY LLC","address1": "3505 WESTERN AVE","address2": "","city": "KINGMAN","state": "AZ","zip": "86401","zip+4": "0000","phone": "9286815599"}
{"name": "WALGREEN DRUG STORE #09571","address1": "1020 HWY 89","address2": "","city": "CHINO VALLEY","state": "AZ","zip": "86323","zip+4": "1810","phone": "9286362986"}
{"name": "CVS PHARMACY #05937","address1": "6030 N 43RD AVE","address2": "","city": "GLENDALE","state": "AZ","zip": "85301","zip+4": "0000","phone": "6239341831"}
{"name": "WAL-MART PHARMACY #103846","address1": "2725 EAST MCKELLIPS","address2": "","city": "MESA","state": "AZ","zip": "85213","zip+4": "0000","phone": "4808982849"}
{"name": "TARGET PHARMACY #2176","address1": "1800 E RIO SALADO PKWY","address2": "","city": "TEMPE","state": "AZ","zip": "85281","zip+4": "0000","phone": "4802142668"}
{"name": "BASHAS UNITED DRUG #172","address1": "99 S HIGLEY","address2": "","city": "GILBERT","state": "AZ","zip": "85296","zip+4": "1168","phone": "4809265221"}
{"name": "WAL-MART PHARMACY #104336","address1": "12900 WEST THUNDERBIRD","address2": "","city": "EL MIRAGE","state": "AZ","zip": "85335","zip+4": "0000","phone": "6235838725"}
{"name": "SAFETY DRUGS","address1": "20612 N CAVE CREEK RD","address2": "STE 150","city": "PHOENIX","state": "AZ","zip": "85024","zip+4": "0000","phone": "6022521299"}
{"name": "MESA VERDE MEDICAL GROUP PC","address1": "1773 W ST MARYS RD","address2": "STE 102","city": "TUCSON","state": "AZ","zip": "85745","zip+4": "0000","phone": "5246242194"}
{"name": "HABOR VISTA PHARMACY","address1": "9133 W THUNDERBIRD","address2": "STE 102","city": "PEORIA","state": "AZ","zip": "85381","zip+4": "0000","phone": "6232426503"}
{"name": "WAL-MART PHARMACY #103407","address1": "1060 SOUTH WATSON","address2": "","city": "BUCKEYE","state": "AZ","zip": "85326","zip+4": "0000","phone": "6234746860"}
{"name": "WAL-MART PHARMACY #103861","address1": "5290 S POWER RD","address2": "","city": "GILBERT","state": "AZ","zip": "85295","zip+4": "0000","phone": "4809884071"}
{"name": "CVS PHARMACY #07862","address1": "10160 E BELL ROAD","address2": "","city": "SCOTTSDALE","state": "AZ","zip": "85260","zip+4": "0000","phone": "4804734608"}
{"name": "WALGREEN DRUG STORE #10111","address1": "3434 W SOUTHERN AVE","address2": "","city": "PHOENIX","state": "AZ","zip": "85041","zip+4": "0000","phone": "6022832071"}
{"name": "DOUGLAS HEALTH MART PHARMACY","address1": "94 W 5TH ST","address2": "","city": "DOUGLAS","state": "AZ","zip": "85607","zip+4": "0000","phone": "5203642315"}
{"name": "CVS PHARMACY #01720","address1": "21200 EAST OCOTILLO RD","address2": "","city": "QUEEN CREEK","state": "AZ","zip": "85242","zip+4": "0000","phone": "4809871615"}
{"name": "APOTHECARY SHOP OF PHOENIX III","address1": "1144 E MCDOWELL RD","address2": "STE 402","city": "PHOENIX","state": "AZ","zip": "85006","zip+4": "2664","phone": "6022571133"}
{"name": "SAFEWAY #2835","address1": "3325 NORTH HUNT HIGHWAY","address2": "","city": "FLORENCE","state": "AZ","zip": "85232","zip+4": "0000","phone": "5207234885"}
{"name": "TARGET PHARMACY #2353","address1": "951 N PROMENADE PKWY","address2": "","city": "CASA GRANDE","state": "AZ","zip": "85294","zip+4": "0000","phone": "5204136972"}
{"name": "WAL-MART PHARMACY #103845","address1": "6645 WEST PEORIA","address2": "","city": "GLENDALE","state": "AZ","zip": "85301","zip+4": "0000","phone": "6237732954"}
{"name": "ROSYS FARMACIA LA ESPERANZA","address1": "7828 N 12TH ST","address2": "","city": "PHOENIX","state": "AZ","zip": "85020","zip+4": "0000","phone": "6023312458"}
{"name": "BASHAS UNITED DRUG #137","address1": "15367 W WADDELL RD","address2": "","city": "SURPRISE","state": "AZ","zip": "85379","zip+4": "0000","phone": "6232146461"}
{"name": "COMMUNITY PHARMACY II","address1": "777 SOUTHERN AVE","address2": "415","city": "MESA","state": "AZ","zip": "85210","zip+4": "0000","phone": "4804645472"}
{"name": "WALGREEN DRUG STORE #09472","address1": "2707 W CAREFREE HWY","address2": "","city": "PHOENIX","state": "AZ","zip": "85085","zip+4": "0000","phone": "6232150699"}
{"name": "WAL-MART PHARMACY #104232","address1": "4747 EAST CACTUS ROAD","address2": "","city": "PHOENIX","state": "AZ","zip": "85032","zip+4": "0000","phone": "6024043722"}
{"name": "FRYS FOOD AND DRUG #660689","address1": "12100 N THORNEYDALE RD","address2": "","city": "MARANA","state": "AZ","zip": "85653","zip+4": "0000","phone": "5205726041"}
{"name": "FRYS FOOD AND DRUG #660679","address1": "15950 S RANCHO SAHUARITA BLVD","address2": "","city": "SAHUARITA","state": "AZ","zip": "85629","zip+4": "0000","phone": "5206487701"}
{"name": "SAFEWAY #2799","address1": "28455 N VISTANCIA BLVD","address2": "","city": "PEORIA","state": "AZ","zip": "85383","zip+4": "0000","phone": "6232717617"}
{"name": "WALGREEN DRUG STORE #10260","address1": "3230 E CHANDLER HEIGHTS","address2": "","city": "GILBERT","state": "AZ","zip": "85297","zip+4": "0000","phone": "4802144894"}
{"name": "CVS PHARMACY #03383","address1": "7550 SOUTH 19TH AVE","address2": "","city": "PHOENIX","state": "AZ","zip": "85041","zip+4": "0000","phone": "6023230583"}
{"name": "WAL-MART PHARMACY #104218","address1": "15431 WEST GREENWAY RD","address2": "","city": "SURPRISE","state": "AZ","zip": "85374","zip+4": "0000","phone": "6235840189"}
{"name": "WAL-MART PHARMACY #104293","address1": "2435 EAST BASELINE RD","address2": "","city": "PHOENIX","state": "AZ","zip": "85042","zip+4": "0000","phone": "6022322982"}
{"name": "SAMS PHARMACY #104829","address1": "2621 S MARKET ST","address2": "","city": "GILBERT","state": "AZ","zip": "85296","zip+4": "0000","phone": "4807229972"}
{"name": "AVE MARIA PHARMACY PLLC","address1": "8098 E VALLEY RD","address2": "STE 3","city": "PRESCOTT VALLEY","state": "AZ","zip": "86314","zip+4": "0000","phone": "9287728674"}
{"name": "TARGET PHARMACY #2365","address1": "21398 S ELLSWORTH LOOP RD","address2": "","city": "QUEEN CREEK","state": "AZ","zip": "85242","zip+4": "0000","phone": "4802144811"}
{"name": "TARGET PHARMACY #2368","address1": "3699 HWY 95","address2": "","city": "BULLHEAD CITY","state": "AZ","zip": "86442","zip+4": "0000","phone": "9287045065"}
{"name": "CVS PHARMACY #07022","address1": "75 LAKE HAVASU AVE N","address2": "","city": "LAKE HAVASU","state": "AZ","zip": "86403","zip+4": "0000","phone": "9288546300"}
{"name": "WAL-MART PHARMACY #4337","address1": "1613 MAIN STREET","address2": "","city": "SAN LUIS","state": "AZ","zip": "85364","zip+4": "0000","phone": "9287227288"}
{"name": "WAL-MART PHARMACY #4603","address1": "5500 E 22ND ST","address2": "","city": "TUCSON","state": "AZ","zip": "85711","zip+4": "0000","phone": "5207454527"}
{"name": "QOL MEDS #090","address1": "3220 B E 40TH STREET","address2": "","city": "YUMA","state": "AZ","zip": "85636","zip+4": "0000","phone": "9287265900"}
{"name": "CVS PHARMACY #01719","address1": "7587 S POWER RD","address2": "","city": "QUEEN CREEK","state": "AZ","zip": "85242","zip+4": "0000","phone": "4809883182"}
{"name": "WAL-MART PHARMACY #4233","address1": "6550 WEST HAPPY VALLEY RD","address2": "","city": "PHOENIX","state": "AZ","zip": "85085","zip+4": "0000","phone": "6235666795"}
{"name": "WAL-MART PHARMACY #3896","address1": "21655 NORTH LAKE PLEASANT PARK","address2": "","city": "PEORIA","state": "AZ","zip": "85382","zip+4": "0000","phone": "6235374591"}
{"name": "FOOD CITY UNITED DRUG #171","address1": "2000 E IRVINGTON","address2": "","city": "TUCSON","state": "AZ","zip": "85714","zip+4": "1809","phone": "5204342544"}
{"name": "NANNI B BACHENHEIMER MD LLC","address1": "9377 E BELL RD","address2": "STE 361","city": "SCOTTSDALE","state": "AZ","zip": "85260","zip+4": "1502","phone": "4802893467"}
{"name": "WINDHAVEN PHARMACY","address1": "3347 N WINDSONG DR","address2": "","city": "PRESCOTT VALLEY","state": "AZ","zip": "86314","zip+4": "0000","phone": "9287752878"}
{"name": "WAL-MART PHARMACY #104451","address1": "21055 SOUTH RITTENHOUSE RD","address2": "","city": "QUEEN CREEK","state": "AZ","zip": "85242","zip+4": "0000","phone": "4804571158"}
{"name": "FRYS FOOD AND DRUG #660682","address1": "155 W COMBS RD","address2": "","city": "QUEEN CREEK","state": "AZ","zip": "85240","zip+4": "0000","phone": "4804746001"}
{"name": "HAVASU HEALTH CARE PHARM","address1": "3560 CHALLENGER","address2": "STE 106","city": "LAKE HAVASU CITY","state": "AZ","zip": "86406","zip+4": "0000","phone": "9288559888"}
{"name": "FRYS FOOD AND DRUG #660669","address1": "2858 N PINAL AVE","address2": "","city": "CASA GRANDE","state": "AZ","zip": "85222","zip+4": "0000","phone": "5204264701"}
{"name": "CVS PHARMACY #00193","address1": "4990 S ARIZONA AVENUE","address2": "","city": "CHANDLER","state": "AZ","zip": "85248","zip+4": "0000","phone": "4808026748"}
{"name": "WALGREEN DRUG STORE #10241","address1": "28516 N EL MIRAGE RD","address2": "","city": "PEORIA","state": "AZ","zip": "85382","zip+4": "0000","phone": "6232158104"}
{"name": "CVS PHARMACY #03500","address1": "1625 N 44TH ST","address2": "","city": "PHOENIX","state": "AZ","zip": "85008","zip+4": "0000","phone": "6022750120"}
{"name": "WALGREEN DRUG STORE #11181","address1": "5975 W RAY RD","address2": "","city": "CHANDLER","state": "AZ","zip": "85226","zip+4": "1827","phone": "4802149120"}
{"name": "WAL-MART PHARMACY #104473","address1": "2175 W RUTHRAUFF RD","address2": "","city": "TUCSON","state": "AZ","zip": "85705","zip+4": "0000","phone": "5202922542"}
{"name": "WALGREENS #11116","address1": "21212 E OCOTILLO RD","address2": "","city": "QUEEN CREEK","state": "AZ","zip": "85242","zip+4": "0000","phone": "4802149044"}
{"name": "SAFEWAY PHARMACY #2709","address1": "5035 WEST BASELINE ROAD","address2": "","city": "PHOENIX","state": "AZ","zip": "85339","zip+4": "0000","phone": "4808944293"}
{"name": "WAL-MART PHARMACY #3379","address1": "2150 EAST TANGERINE RD","address2": "","city": "ORO VALLEY","state": "AZ","zip": "85737","zip+4": "0000","phone": "5205440016"}
{"name": "TARGET PHARMACY #2400","address1": "995 S COTTON LN","address2": "","city": "GOODYEAR","state": "AZ","zip": "85338","zip+4": "4604","phone": "4806273276"}
{"name": "WALGREENS #10505","address1": "2785 N PINAL AVE","address2": "","city": "CASA GRANDE","state": "AZ","zip": "85222","zip+4": "7916","phone": "5204210031"}
{"name": "SAMS PHARMACY #4977","address1": "5757 EAST STATE RT 69","address2": "","city": "PRESCOTT VALLEY","state": "AZ","zip": "86314","zip+4": "0000","phone": "9287785042"}
{"name": "PATTY'S PHARMACY","address1": "2640 W THIRD ST","address2": "","city": "WINSLOW","state": "AZ","zip": "86047","zip+4": "0000","phone": "9282892561"}
{"name": "INTEL HEALTH FOR LIFE CHANDLER","address1": "5000 WEST CHANDLER BLVD","address2": "MAIL STOP CH3 17","city": "CHANDLER","state": "AZ","zip": "85266","zip+4": "0000","phone": "4805542323"}
{"name": "CORAM SPECIALTY INFUSION SERVI","address1": "6375 E TANQUE VERDE RD","address2": "STE 50","city": "TUCSON","state": "AZ","zip": "85715","zip+4": "0000","phone": "5202902112"}
{"name": "WALGREENS # #12036","address1": "301 W JEFFERSON ST","address2": "","city": "PHOENIX","state": "AZ","zip": "85003","zip+4": "2143","phone": "6022839925"}
{"name": "CVS PHARMACY #07263","address1": "10707 W CAMELBACK RD","address2": "","city": "PHOENIX","state": "AZ","zip": "85037","zip+4": "0000","phone": "6238725316"}
{"name": "WALGREENS # #10684","address1": "13542 E COLOSSAL CAVE RD","address2": "","city": "VAIL","state": "AZ","zip": "85641","zip+4": "0000","phone": "5202322763"}
{"name": "WALGREENS # #10998","address1": "2483 E FLORENCE BLVD","address2": "","city": "CASA GRANDE","state": "AZ","zip": "85222","zip+4": "0000","phone": "5208361185"}
{"name": "URGENT CARE EXPRESS","address1": "920 E WILLIAMS FIELD ROAD","address2": "","city": "GILBERT","state": "AZ","zip": "85296","zip+4": "0000","phone": "4808559400"}
{"name": "PIMA HEART PHYSICIANS","address1": "445 N SILVERBELL ROAD","address2": "STE 200","city": "TUCSON","state": "AZ","zip": "85745","zip+4": "0000","phone": "5206248935"}
{"name": "NEW PUEBLO MEDICINE PC","address1": "6365 E TANQUE VERDE RD","address2": "STE 120","city": "TUCSON","state": "AZ","zip": "85715","zip+4": "0000","phone": "5202900300"}
{"name": "INTEL HEALTH FOR LIFE CENTER S","address1": "4500 S. DOBSON RD.","address2": "OC2 - 112","city": "CHANDLER","state": "AZ","zip": "85248","zip+4": "0000","phone": "4807156112"}
{"name": "SAM'S PHARMACY #104955","address1": "16573 W BELL RD","address2": "","city": "SURPRISE","state": "AZ","zip": "85374","zip+4": "0000","phone": "6235840728"}
{"name": "COMMUNITY DRUGSTORE #3","address1": "2222 E HIGHLAND AVE","address2": "","city": "PHOENIX","state": "AZ","zip": "85016","zip+4": "0000","phone": "4805751103"}
{"name": "THE GUIDANCE CENTER- SHOW LOW","address1": "2500 E SHOW LOW LAKE ROAD","address2": "","city": "SHOW LOW","state": "AZ","zip": "85901","zip+4": "0000","phone": "9287146485"}
{"name": "THE GUIDANCE CENTER PHARMACY W","address1": "125 S 3RD STREET","address2": "","city": "WILLIAMS","state": "AZ","zip": "86046","zip+4": "0000","phone": "9286352228"}
{"name": "SIERRA HEALTH MART PHARMACY","address1": "1939 S FRONTAGE RD","address2": "STE B","city": "SIERRA VISTA","state": "AZ","zip": "85635","zip+4": "0000","phone": "5204590705"}
{"name": "CVC - CO","address1": "3805 E. BELL ROAD","address2": "SUITE 3100","city": "PHEONIX","state": "AZ","zip": "85032","zip+4": "0000","phone": "6028678644"}
{"name": "CVC - TBO","address1": "5422 W. THUNDERBIRD","address2": "SUITE 8","city": "GLENDALE","state": "AZ","zip": "85306","zip+4": "0000","phone": "6029780698"}
{"name": "CVC - TBW","address1": "5620 W THUNDERBIRD ROAD","address2": "SUITE D-3","city": "PHEONIX","state": "AZ","zip": "85306","zip+4": "0000","phone": "6029786111"}
{"name": "CVC - AWO","address1": "18700 N. 64TH DRIVE","address2": "STE 101","city": "GLENDALE","state": "AZ","zip": "85308","zip+4": "0000","phone": "6235616211"}
{"name": "CVC - PBO","address1": "6036 N 19TH AVE.","address2": "STE 312","city": "PHOENIX","state": "AZ","zip": "85015","zip+4": "0000","phone": "6022465570"}
{"name": "MY DOCTOR LLC","address1": "10229 N 92ND STREET","address2": "STE I-103","city": "SCOTTSDALE","state": "AZ","zip": "85258","zip+4": "0000","phone": "4804553000"}
{"name": "CVC - DVO","address1": "19636 N 27TH AVENUE","address2": "STE 201","city": "PHOENIX","state": "AZ","zip": "85027","zip+4": "0000","phone": "6235821465"}
{"name": "CVC - SSO","address1": "3501 N SCOTTSDALE ROAD","address2": "STE 348","city": "SCOTTSDALE","state": "AZ","zip": "85251","zip+4": "0000","phone": "4809473575"}
{"name": "CVC - SNO","address1": "10210 N. 92ND STREET","address2": "STE 301","city": "SCOTTSDALE","state": "AZ","zip": "85258","zip+4": "0000","phone": "4803910555"}
{"name": "CVC - LO","address1": "50 E DUNLAP AVENUE","address2": "STE 101","city": "PHOENIX","state": "AZ","zip": "85020","zip+4": "0000","phone": "6028701789"}
{"name": "FOUNTAIN HILLS FAMILY PRACTICE","address1": "16838 E PALISADES BLVD","address2": "STE #153","city": "FOUNTAIN HILLS","state": "AZ","zip": "85268","zip+4": "0000","phone": "4808163131"}
{"name": "WALGREENS #13677","address1": "1432 S DOBSON RD STE 101","address2": "","city": "MESA","state": "AZ","zip": "85202","zip+4": "4768","phone": "4805126979"}
{"name": "DESERT SKY PHARMACY","address1": "6750 W. THUNDERBIRD ROAD","address2": "SUITE 103","city": "PEORIA","state": "AZ","zip": "85381","zip+4": "0000","phone": "6232090870"}
{"name": "WALGREENS #09952","address1": "12050 N DOVE MOUNTAIN BLVD","address2": "","city": "MARANA","state": "AZ","zip": "85658","zip+4": "0000","phone": "5202250770"}
{"name": "BASHAS UNITED DRUG #47","address1": "16605 E PALISADES","address2": "","city": "FOUNTAIN HILLS","state": "AZ","zip": "85268","zip+4": "0000","phone": "4803914021"}
{"name": "CARDIOVASCULAR ASSOCIATES OF M","address1": "6116 E ARBOR AVENUE","address2": "STE 112","city": "MESA","state": "AZ","zip": "85206","zip+4": "0000","phone": "4806415400"}
{"name": "NALLY FAMILY PRACTICE","address1": "14800 W MOUNTAIN VIEW BLVD","address2": "STE 250","city": "SURPRISE","state": "AZ","zip": "85374","zip+4": "0000","phone": "6235847805"}
{"name": "COMMUNITY PHARMACY #IV","address1": "3050 N WINDSONG DR","address2": "STE 103","city": "PRESCOTT VALLEY","state": "AZ","zip": "86314","zip+4": "0000","phone": "9283501500"}
{"name": "COMMUNITY PHARMACY #V","address1": "16222 N 59TH AVE","address2": "D-175","city": "GLENDALE","state": "AZ","zip": "85306","zip+4": "0000","phone": "6023545261"}
{"name": "WAL-MART PHARMACY #104430","address1": "41650 W MARICOPA CASA GRANDE","address2": "","city": "MARICOPA","state": "AZ","zip": "85238","zip+4": "0000","phone": "5205683302"}
{"name": "BASHAS UNITED DRUG #16","address1": "8423 E MCDONALD DR","address2": "","city": "SCOTTSDALE","state": "AZ","zip": "85250","zip+4": "0000","phone": "4803684801"}
{"name": "POTTER'S HOUSE APOTHECARY INC.","address1": "21755 N 77TH AVE","address2": "STE 1200","city": "PEORIA","state": "AZ","zip": "85382","zip+4": "0000","phone": "6233629322"}
{"name": "WILMOT CENTER PHARMACY #2","address1": "6369 E TANQUE VERDE ROAD #165","address2": "","city": "TUCSON","state": "AZ","zip": "85715","zip+4": "0000","phone": "5207213088"}
{"name": "WALGREENS #11470","address1": "25073 W SOUTHERN AVE","address2": "","city": "BUCKEYE","state": "AZ","zip": "85326","zip+4": "0000","phone": "6232151113"}
{"name": "WALGREENS #02209","address1": "11420 S FORTUNA RD","address2": "","city": "YUMA","state": "AZ","zip": "85367","zip+4": "0000","phone": "9283421034"}
{"name": "FRYS FOOD AND DRUG #660680","address1": "15215 N COTTON LANE","address2": "","city": "SURPRISE","state": "AZ","zip": "85388","zip+4": "0000","phone": "6234557092"}
{"name": "WALGREENS #04077","address1": "3005 E RIGGS RD","address2": "","city": "CHANDLER","state": "AZ","zip": "85249","zip+4": "5130","phone": "4802141402"}
{"name": "CVS PHARMACY # #05983","address1": "3025 N. WINDSONG DR","address2": "","city": "PRESCOTT VALLEY","state": "AZ","zip": "86314","zip+4": "0000","phone": "9287721613"}
{"name": "BASHAS UNITED DRUG #170B","address1": "7333 WEST THOMAS RD","address2": "","city": "PHOENIX","state": "AZ","zip": "85033","zip+4": "0000","phone": "8669022541"}
{"name": "RED MOUNTAIN PHARMACY","address1": "6828 E BROWN RD","address2": "2A","city": "MESA","state": "AZ","zip": "85207","zip+4": "0000","phone": "4802041442"}
{"name": "CVS PHARMACY # #08977","address1": "3501 STOCKTON HILL RD","address2": "","city": "KINGMAN","state": "AZ","zip": "86409","zip+4": "0000","phone": "9287571999"}
{"name": "WALGREENS #09460","address1": "40663 N GANTZEL RD","address2": "","city": "QUEEN CREEK","state": "AZ","zip": "85242","zip+4": "0000","phone": "4802141680"}
{"name": "PARADISE VALLEY PHARMACY","address1": "3805 E BELL RD STE 1900","address2": "","city": "PHOENIX","state": "AZ","zip": "85032","zip+4": "2105","phone": "6024045944"}
{"name": "VALLEY PHARMACY LLC","address1": "2960 N. LITCHFIELD RD. SUITE #","address2": "","city": "GOODYEAR","state": "AZ","zip": "85395","zip+4": "0000","phone": "6235056500"}
{"name": "GENOA HEALTHCARE #71","address1": "1210 EAST PENNSYLVANIA","address2": "","city": "TUCSON","state": "AZ","zip": "85714","zip+4": "0000","phone": "5208348794"}
{"name": "MARICOPA URGENT CARE","address1": "21300 N JOHN WAYNE PARKWAY","address2": "","city": "MARICOPA","state": "AZ","zip": "85239","zip+4": "0000","phone": "5203813811"}
{"name": "WALGREENS #12385","address1": "475 W FINNIE FLATS RD","address2": "","city": "CAMP VERDE","state": "AZ","zip": "86322","zip+4": "7279","phone": "9282393187"}
{"name": "SUN VALLEY PHARMACY","address1": "219 W PIMA","address2": "","city": "GILA BEND","state": "AZ","zip": "85353","zip+4": "0000","phone": "9289275300"}
{"name": "FASTRAX URGENT CARE CENTER","address1": "2002 N STOCKTON HILL RD STE 10","address2": "","city": "KINGMAN","state": "AZ","zip": "86401","zip+4": "4698","phone": "9287533303"}
{"name": "COSTCO PHARMACY #1058","address1": "4570 E CACTUS ROAD","address2": "","city": "PHOENIX","state": "AZ","zip": "85032","zip+4": "0000","phone": "4803087049"}
{"name": "TARGET PHARMACY #2140","address1": "4040 N ORACLE RD","address2": "","city": "TUCSON","state": "AZ","zip": "85705","zip+4": "2720","phone": "5202021502"}
{"name": "XPRESS CARE PHARMACY #2","address1": "4290 S MILLER RD STE 101","address2": "","city": "BUCKEYE","state": "AZ","zip": "85326","zip+4": "6307","phone": "6235355822"}
{"name": "CARDIOLOGY CARE OF ARIZONA","address1": "6750 E BAYWOOD AVE STE 503","address2": "","city": "MESA","state": "AZ","zip": "85206","zip+4": "1749","phone": "4806543303"}
{"name": "ARCADIA URGENT CARE","address1": "4730 E INDIAN SCHOOL RD","address2": "STE 211","city": "PHOENIX","state": "AZ","zip": "85018","zip+4": "0000","phone": "6023543491"}
{"name": "CVS PHARMACY # #09309","address1": "4744 S HIGHWAY 95","address2": "","city": "FORT MOHAVE","state": "AZ","zip": "86426","zip+4": "9377","phone": "9287636822"}
{"name": "ADVANCED URGENT CARE","address1": "1804 W ELLIOT RD","address2": "","city": "TEMPE","state": "AZ","zip": "85284","zip+4": "1004","phone": "9526532568"}
{"name": "WILLCOX HEALTH MART PHARMACY","address1": "902 W REX ALLEN DR","address2": "STE A","city": "WILLCOX","state": "AZ","zip": "85643","zip+4": "1016","phone": "5203842321"}
{"name": "CARDIOLOGY CARE OF ARIZONA","address1": "6750 EAST BAYWOOD AVENUE","address2": "SUITE 503","city": "MESA","state": "AZ","zip": "85206","zip+4": "0000","phone": "4806543303"}
{"name": "FRY'S FOOD & DRUG/CENTRAL","address1": "500 S. 99TH AVE","address2": "","city": "TOLLESON","state": "AZ","zip": "85353","zip+4": "0000","phone": "6239077176"}
{"name": "BASHAS' UNITED DRUG","address1": "22402 S BASHA RD","address2": "","city": "CHANDLER","state": "AZ","zip": "85248","zip+4": "0000","phone": "4808955370"}
{"name": "UNITED DRUGS","address1": "7227 NORTH 16TH STREET","address2": "SUITE 160","city": "PHOENIX","state": "AZ","zip": "85020","zip+4": "5256","phone": "6026781179"}
{"name": "UNITED DRUGS RURAL NETWORK","address1": "7227 NORTH 16TH STREET","address2": "SUITE 160","city": "PHOENIX","state": "AZ","zip": "85020","zip+4": "5256","phone": "6026781179"}
{"name": "UNITED DRUG COMPREHENSIVE","address1": "7227 NORTH 16TH STREET","address2": "SUITE 160","city": "PHOENIX","state": "AZ","zip": "85020","zip+4": "5256","phone": "6026781179"}
{"name": "POC MANAGEMENT GROUP LLC","address1": "2060 W WHISPERING WIND","address2": "STE 2648-11","city": "PHOENIX","state": "AZ","zip": "85085","zip+4": "0000","phone": "6234344628"}