{"name": "RITE AID PHARMACY #11183","address1": "501 EAST BASIN ROAD","address2": "","city": "NEW CASTLE","state": "DE","zip": "19720","zip+4": "0000","phone": "3023284173"}
{"name": "RITE AID PHARMACY #11186","address1": "4609 KIRKWOOD HIGHWAY","address2": "","city": "WILMINGTON","state": "DE","zip": "19808","zip+4": "0000","phone": "3029942591"}
{"name": "RITE AID PHARMACY #11177","address1": "2713 PHILADELPHIA PIKE","address2": "","city": "CLAYMONT","state": "DE","zip": "19703","zip+4": "0000","phone": "3027989520"}
{"name": "RITE AID PHARMACY #11181","address1": "4607 STANTON OGLETOWN ROAD","address2": "","city": "NEWARK","state": "DE","zip": "19713","zip+4": "0000","phone": "3027374440"}
{"name": "RITE AID PHARMACY #11178","address1": "641 NAAMANS ROAD","address2": "","city": "CLAYMONT","state": "DE","zip": "19703","zip+4": "0000","phone": "3027986866"}
{"name": "RITE AID PHARMACY #11179","address1": "399 NEW LONDON ROAD","address2": "","city": "NEWARK","state": "DE","zip": "19711","zip+4": "0000","phone": "3027314400"}
{"name": "MANOR PHARMACY INC","address1": "1412 N DUPONT HIGHWAY","address2": "","city": "NEW CASTLE","state": "DE","zip": "19720","zip+4": "1844","phone": "3023283175"}
{"name": "HAPPY HARRYS INC #11002","address1": "3601 SILVERSIDE RD","address2": "","city": "WILMINGTON","state": "DE","zip": "19803","zip+4": "0000","phone": "3024784335"}
{"name": "RITE AID PHARMACY #11182","address1": "25 CHESTNUT HILL PLAZA","address2": "","city": "NEWARK","state": "DE","zip": "19713","zip+4": "0000","phone": "3027319335"}
{"name": "RITE AID PHARMACY #00731","address1": "2080 NAAMANS ROAD","address2": "","city": "WILMINGTON","state": "DE","zip": "19810","zip+4": "3624","phone": "3024754690"}
{"name": "HAPPY HARRYS INC #11134","address1": "700 JIMMY DR.","address2": "","city": "SMYRNA","state": "DE","zip": "19977","zip+4": "5806","phone": "3023660335"}
{"name": "RITE AID PHARMACY #00814","address1": "801 MARKET STREET","address2": "","city": "WILMINGTON","state": "DE","zip": "19801","zip+4": "0000","phone": "3026557432"}
{"name": "HAPPY HARRYS INC #11006","address1": "2119 CONCORD PIKE","address2": "FAIRFAX","city": "WILMINGTON","state": "DE","zip": "19803","zip+4": "2911","phone": "3026564333"}
{"name": "HAPPY HARRYS INC #11005","address1": "1325 MCKENNANS CHURCH RD","address2": "MILLTOWN","city": "WILMINGTON","state": "DE","zip": "19808","zip+4": "0000","phone": "3029990515"}
{"name": "HAPPY HARRYS INC #11003","address1": "15 UNIVERSITY PLZ","address2": "UNIVERSITY PLAZA","city": "NEWARK","state": "DE","zip": "19702","zip+4": "0000","phone": "3027376400"}
{"name": "HAPPY HARRYS INC #11008","address1": "124 E MAIN ST","address2": "","city": "NEWARK","state": "DE","zip": "19711","zip+4": "0000","phone": "3027386333"}
{"name": "RITE AID PHARMACY #00839","address1": "1718 MARSH ROAD","address2": "","city": "WILMINGTON","state": "DE","zip": "19810","zip+4": "0000","phone": "3024787200"}
{"name": "STANTON DISCOUNT PHARMACY","address1": "2006 W NEWPORT PIKE","address2": "","city": "WILMINGTON","state": "DE","zip": "19804","zip+4": "0000","phone": "3029990131"}
{"name": "MILFORD PHARMACY INC","address1": "112 N E FRONT STREET","address2": "","city": "MILFORD","state": "DE","zip": "19963","zip+4": "0000","phone": "3024228077"}
{"name": "HAPPY HARRYS INC #11133","address1": "2659 CAPITOL TRAIL","address2": "","city": "NEWARK","state": "DE","zip": "19711","zip+4": "0000","phone": "3024531010"}
{"name": "MILLSBORO PHARMACY INC","address1": "321 OLD LANDING ROAD","address2": "","city": "MILLSBORO","state": "DE","zip": "19966","zip+4": "0000","phone": "3029349398"}
{"name": "OUTPATIENT PHARMACY OF THE NEM","address1": "1600 ROCKLAND RD","address2": "","city": "WILMINGTON","state": "DE","zip": "19803","zip+4": "0000","phone": "3026514649"}
{"name": "HAPPY HARRYS INC #11001","address1": "1812 MARSH RD","address2": "","city": "WILMINGTON","state": "DE","zip": "19810","zip+4": "4533","phone": "3024754265"}
{"name": "HAPPY HARRYS INC #11011","address1": "1900 MARYLAND AVE","address2": "","city": "WILMINGTON","state": "DE","zip": "19805","zip+4": "0000","phone": "3026525543"}
{"name": "BAYHEALTH AMBULATORY PHARMACY","address1": "640 S STATE ST","address2": "","city": "DOVER","state": "DE","zip": "19901","zip+4": "0000","phone": "3027446615"}
{"name": "BAY PHARMACY","address1": "10 SE FRONT ST","address2": "","city": "MILFORD","state": "DE","zip": "19963","zip+4": "0000","phone": "3024223351"}
{"name": "HAPPY HARRYS INC #09687","address1": "1001 FOREST AVE","address2": "OLDE OAK CTR","city": "DOVER","state": "DE","zip": "19904","zip+4": "0000","phone": "3026789820"}
{"name": "RITE AID PHARMACY #11195","address1": "66 SMYRNA MART","address2": "","city": "SMYRNA","state": "DE","zip": "19977","zip+4": "0000","phone": "3026536649"}
{"name": "PATHMARK PHARMACY #586","address1": "4365 KIRKWOOD HIGHWAY","address2": "","city": "WILMINGTON","state": "DE","zip": "19808","zip+4": "0000","phone": "3029952291"}
{"name": "RITE AID PHARMACY #00129","address1": "263 ELKTON ROAD","address2": "","city": "NEWARK","state": "DE","zip": "19711","zip+4": "4564","phone": "3023681614"}
{"name": "HAPPY HARRYS INC #11014","address1": "1 TROLLEY SQ","address2": "TROLLEY SQUARE","city": "WILMINGTON","state": "DE","zip": "19806","zip+4": "0000","phone": "3026556397"}
{"name": "HAPPY HARRYS # #12462","address1": "700 S RIDGE AVE.","address2": "MIDDLETOWN SQUARE","city": "MIDDLETOWN","state": "DE","zip": "19709","zip+4": "0000","phone": "3023789512"}
{"name": "RITE AID PHARMACY #00172","address1": "2034 NEW CASTLE AVENUE","address2": "","city": "NEW CASTLE","state": "DE","zip": "19720","zip+4": "7703","phone": "3026589824"}
{"name": "RITE AID PHARMACY #11187","address1": "4718 LIMESTONE ROAD","address2": "","city": "WILMINGTON","state": "DE","zip": "19808","zip+4": "0000","phone": "3029952286"}
{"name": "RITE AID PHARMACY #11188","address1": "3209 KIRKWOOD HIGHWAY","address2": "","city": "WILMINGTON","state": "DE","zip": "19808","zip+4": "0000","phone": "3029956124"}
{"name": "PATHMARK PHARMACY #589","address1": "3901 LANCASTER PIKE","address2": "","city": "WILMINGTON","state": "DE","zip": "19805","zip+4": "0000","phone": "3029956677"}
{"name": "HAPPY HARRYS INC #11010","address1": "3301 LANCASTER PIKE","address2": "","city": "WILMINGTON","state": "DE","zip": "19805","zip+4": "0000","phone": "3026650826"}
{"name": "MILTON PHARMACY INC","address1": "614 MULBERRY STREET","address2": "","city": "MILTON","state": "DE","zip": "19968","zip+4": "0000","phone": "3026848561"}
{"name": "HAPPY HARRYS INC #11009","address1": "1410 DUPONT HWY","address2": "","city": "NEW CASTLE","state": "DE","zip": "19720","zip+4": "0000","phone": "3023288237"}
{"name": "RITE AID PHARMACY #01294","address1": "636 SOUTH MARYLAND AVENUE","address2": "BOXWOOD SHOPPING CENTER","city": "WILMINGTON","state": "DE","zip": "19804","zip+4": "1632","phone": "3029943473"}
{"name": "RITE AID PHARMACY #11192","address1": "101 EAST DUPONT HIGHWAY","address2": "","city": "MILLSBORO","state": "DE","zip": "19966","zip+4": "0000","phone": "3029348175"}
{"name": "RITE AID PHARMACY #11193","address1": "18898 REHOBOTH MALL BLVD","address2": "SUITE 1","city": "REHOBOTH BEACH","state": "DE","zip": "19971","zip+4": "0000","phone": "3026458451"}
{"name": "RITE AID PHARMACY #11189","address1": "245 NORTH DUPONT HIGHWAY","address2": "","city": "DOVER","state": "DE","zip": "19901","zip+4": "0000","phone": "3026742945"}
{"name": "PATHMARK PHARMACY #590","address1": "100 COLLEGE SQUARE","address2": "","city": "NEWARK","state": "DE","zip": "19711","zip+4": "0000","phone": "3027370393"}
{"name": "RITE AID PHARMACY #11191","address1": "115 NORTHEAST FRONT STREET","address2": "","city": "MILFORD","state": "DE","zip": "19963","zip+4": "0000","phone": "3024228004"}
{"name": "RITE AID PHARMACY #11194","address1": "900 WEST STEIN HIGHWAY","address2": "","city": "SEAFORD","state": "DE","zip": "19973","zip+4": "0000","phone": "3026296686"}
{"name": "MOORES LAKE PHARMACY","address1": "18 LEBANON ROAD","address2": "","city": "DOVER","state": "DE","zip": "19901","zip+4": "0000","phone": "3026970200"}
{"name": "RITE AID PHARMACY #01411","address1": "1698 PULASKI HIGHWAY","address2": "","city": "BEAR","state": "DE","zip": "19701","zip+4": "1315","phone": "3028361004"}
{"name": "RITE AID PHARMACY #01600","address1": "1602 KIRKWOOD HIGHWAY","address2": "","city": "NEWARK","state": "DE","zip": "19711","zip+4": "5718","phone": "3024531337"}
{"name": "HEALTH CENTER AT CHRISTIANA","address1": "200 HYGEIA DR","address2": "","city": "NEWARK","state": "DE","zip": "19713","zip+4": "2049","phone": "3024212526"}
{"name": "RITE AID PHARMACY #01658","address1": "800 W 4TH STREET","address2": "SUITE 501","city": "WILMINGTON","state": "DE","zip": "19801","zip+4": "2054","phone": "3026544493"}
{"name": "HAPPY HARRYS INC #11020","address1": "839 N MARKET ST","address2": "MARKET STREET MALL","city": "WILMINGTON","state": "DE","zip": "19801","zip+4": "0000","phone": "3026541834"}
{"name": "HAPPY HARRYS INC #11019","address1": "241 COLLEGE SQ","address2": "COLLEGE SQUARE","city": "NEWARK","state": "DE","zip": "19711","zip+4": "0000","phone": "3027380478"}
{"name": "RITE AID PHARMACY #01751","address1": "400 PEOPLES PLAZA","address2": "","city": "NEWARK","state": "DE","zip": "19702","zip+4": "4797","phone": "3028340532"}
{"name": "RITE AID PHARMACY #01782","address1": "3801 N MARKET STREET","address2": "","city": "WILMINGTON","state": "DE","zip": "19802","zip+4": "2215","phone": "3027621127"}
{"name": "RITE AID PHARMACY #03748","address1": "1580 SOUTH DUPONT HIGHWAY","address2": "","city": "DOVER","state": "DE","zip": "19901","zip+4": "4900","phone": "3027344788"}
{"name": "RITE AID PHARMACY #03749","address1": "677 NORTH DUPONT BLVD","address2": "","city": "MILFORD","state": "DE","zip": "19963","zip+4": "1002","phone": "3024223341"}
{"name": "RITE AID PHARMACY #03756","address1": "41 GREENTREE DRIVE","address2": "GREENTREE VILLAGE SHOPPING CEN","city": "DOVER","state": "DE","zip": "19901","zip+4": "2685","phone": "3026782101"}
{"name": "SHOPRITE PHARMACY #538","address1": "1600 WEST NEWPORT PIKE","address2": "","city": "WILMINGTON","state": "DE","zip": "19804","zip+4": "0000","phone": "3029991303"}
{"name": "HAPPY HARRYS INC #11021","address1": "4396 HWY 1","address2": "ROHOBETH BEACH","city": "REHOBOTH","state": "DE","zip": "19971","zip+4": "0000","phone": "3022260220"}
{"name": "PATHMARK PHARMACY #593","address1": "148 SUNSET BLVD","address2": "","city": "NEW CASTLE","state": "DE","zip": "19720","zip+4": "0000","phone": "3023239612"}
{"name": "HAPPY HARRYS INC #11022","address1": "128 FOX HUNT DR","address2": "FOX RUN","city": "BEAR","state": "DE","zip": "19701","zip+4": "0000","phone": "3028349209"}
{"name": "SAVON PHARMACY #7817","address1": "146 FOX HUNT DR ROUTE 40","address2": "","city": "BEAR","state": "DE","zip": "19701","zip+4": "0000","phone": "3028369387"}
{"name": "SAVON PHARMACY #7822","address1": "1001 N DUPONT HWY RT 13","address2": "","city": "DOVER","state": "DE","zip": "19901","zip+4": "0000","phone": "3026748376"}
{"name": "MEDICINE SHOPPE #1039","address1": "630 STEIN HIGHWAY","address2": "","city": "SEAFORD","state": "DE","zip": "19973","zip+4": "0000","phone": "3026289928"}
{"name": "HAPPY HARRYS INC #11080","address1": "6317 LIMESTONE RD","address2": "LANTANA SQUARE","city": "HOCKESSIN","state": "DE","zip": "19707","zip+4": "9170","phone": "3022345440"}
{"name": "HAPPY HARRYS INC #11024","address1": "4575 NEW LINDEN HILL RD","address2": "LINDEN HILL","city": "WILMINGTON","state": "DE","zip": "19808","zip+4": "0000","phone": "3024563000"}
{"name": "SAVON PHARMACY #7828","address1": "RT 7 AND VALLEY RD","address2": "","city": "HOCKESSIN","state": "DE","zip": "19707","zip+4": "0000","phone": "3022349004"}
{"name": "HAPPY HARRYS INC #11025","address1": "4011 KENNETT PIKE","address2": "","city": "WILMINGTON","state": "DE","zip": "19807","zip+4": "0000","phone": "3024275650"}
{"name": "HAPPY HARRYS INC #11026","address1": "110 E DUPONT HWY","address2": "","city": "MILLSBORO","state": "DE","zip": "19966","zip+4": "0000","phone": "3029343190"}
{"name": "RITE AID PHARMACY #11176","address1": "701 GOVERNORS PLACE","address2": "","city": "BEAR","state": "DE","zip": "19701","zip+4": "0000","phone": "3028362966"}
{"name": "WAL-MART PHARMACY #101741","address1": "939 N.DUPONT HWY","address2": "","city": "MILFORD","state": "DE","zip": "19963","zip+4": "0000","phone": "3024220429"}
{"name": "WAL-MART PHARMACY #101736","address1": "1574 NORTH DUPONT HWY","address2": "","city": "DOVER","state": "DE","zip": "19901","zip+4": "0000","phone": "3026744827"}
{"name": "HAPPY HARRYS INC #11028","address1": "216 SUBURBAN DR","address2": "SUBURBAN PLAZA","city": "NEWARK","state": "DE","zip": "19711","zip+4": "0000","phone": "3024566760"}
{"name": "SAVON PHARMACY #7806","address1": "950 ELKTON RD","address2": "","city": "NEWARK","state": "DE","zip": "19711","zip+4": "0000","phone": "3024532335"}
{"name": "RITE AID PHARMACY #11180","address1": "4 POLLY DRUMMOND SHOPPING CENT","address2": "","city": "NEWARK","state": "DE","zip": "19711","zip+4": "0000","phone": "3027319111"}
{"name": "HAPPY HARRYS INC #11029","address1": "2103 KIRKWOOD HWY","address2": "","city": "WILMINGTON","state": "DE","zip": "19805","zip+4": "0000","phone": "3026333770"}
{"name": "SHOPRITE PHARMACY #558","address1": "1300ROCKY RUN PARKWAY","address2": "","city": "WILMINGTON","state": "DE","zip": "19803","zip+4": "0000","phone": "3024773274"}
{"name": "HAPPY HARRYS INC #11017","address1": "1120 PULASKI HWY","address2": "EDEN QUARE","city": "BEAR","state": "DE","zip": "19701","zip+4": "0000","phone": "3028322300"}
{"name": "HAPPY HARRYS INC #10031","address1": "1 BACK BAY PARK CTR","address2": "LONG NECK","city": "MILLSBORO","state": "DE","zip": "19966","zip+4": "0000","phone": "3029456060"}
{"name": "SUPER G PHARMACY #385","address1": "300 EDEN SQUARE","address2": "","city": "BEAR","state": "DE","zip": "19701","zip+4": "0000","phone": "3028320156"}
{"name": "FAMILY PHARMACY","address1": "1416 LANCASTER AVE","address2": "BAYARD SQUARE","city": "WILMINGTON","state": "DE","zip": "19805","zip+4": "3905","phone": "3026521994"}
{"name": "CHRISTIANA CARE PHARMACY-WILMI","address1": "501 W 14TH ST","address2": "","city": "WILMINGTON","state": "DE","zip": "19801","zip+4": "0000","phone": "3024286843"}
{"name": "KMART PHARMACY #7725","address1": "19563 COASTAL HWY UNIT A","address2": "","city": "REHOBOTH BEACH","state": "DE","zip": "19971","zip+4": "1141","phone": "3022260251"}
{"name": "SUPER G PHARMACY #386","address1": "4301 CONCORD PIKE","address2": "","city": "WILMINGTON","state": "DE","zip": "19803","zip+4": "0000","phone": "3024756572"}
{"name": "SAVON PHARMACY #7872","address1": "1308 CENTERVILLE RD","address2": "","city": "WILMINGTON","state": "DE","zip": "19808","zip+4": "0000","phone": "3029943848"}
{"name": "HAPPY HARRYS INC #11033","address1": "729 S COASTAL HWY","address2": "BETHANY CENTER","city": "BETHANY BEACH","state": "DE","zip": "19930","zip+4": "0000","phone": "3025392200"}
{"name": "HAPPY HARRYS INC #11035","address1": "4114 STANTON OGLETOWN RD","address2": "HARMONY PLAZA","city": "NEWARK","state": "DE","zip": "19713","zip+4": "0000","phone": "3023665660"}
{"name": "HAPPY HARRYS INC #11034","address1": "740 FERRY CUT OFF","address2": "RIVER PLAZA","city": "NEW CASTLE","state": "DE","zip": "19720","zip+4": "5072","phone": "3023264630"}
{"name": "WAL-MART PHARMACY #102460","address1": "751 NORTH DUAL HWY","address2": "","city": "SEAFORD","state": "DE","zip": "19973","zip+4": "0000","phone": "3026289824"}
{"name": "HAPPY HARRYS INC #11036","address1": "261 N DUPONT HWY","address2": "CENTER AT DOVER","city": "DOVER","state": "DE","zip": "19901","zip+4": "0000","phone": "3027305280"}
{"name": "HAPPY HARRYS INC #11052","address1": "2012 BRACKENVILLE RD","address2": "HOCKESSIN VILLAGE","city": "HOCKESSIN","state": "DE","zip": "19707","zip+4": "0000","phone": "3022345710"}
{"name": "HAPPY HARRYS INC #11039","address1": "210 GATEWAY SOUTH","address2": "","city": "DOVER","state": "DE","zip": "19901","zip+4": "0000","phone": "3026981265"}
{"name": "HAPPY HARRYS INC #11132","address1": "648 NW FRONT ST","address2": "","city": "MILFORD","state": "DE","zip": "19963","zip+4": "1033","phone": "3024246300"}
{"name": "COSTCO PHARMACY #246","address1": "900 CENTER BLVD","address2": "","city": "NEWARK","state": "DE","zip": "19702","zip+4": "0000","phone": "3028940250"}
{"name": "TARGET PHARMACY #1146","address1": "1050 BRANDYWINE PARKWAY","address2": "","city": "WILMINGTON","state": "DE","zip": "19803","zip+4": "0000","phone": "3024783200"}
{"name": "STUDENT HEALTH SRVC DISPENSARY","address1": "UNIVERSITY OF DELAWARE LAUREL","address2": "","city": "NEWARK","state": "DE","zip": "19716","zip+4": "0000","phone": "3028314251"}
{"name": "HAPPY HARRYS INC #11016","address1": "RT 13 AND CR 468","address2": "LAUREL SQUARE","city": "LAUREL","state": "DE","zip": "19956","zip+4": "0000","phone": "3028758560"}
{"name": "HAPPY HARRYS INC #11041","address1": "16864 SAVANNAH RD","address2": "","city": "LEWES","state": "DE","zip": "19958","zip+4": "0000","phone": "3026447880"}
{"name": "SUPER FRESH PHARMACY #559","address1": "4575 HWY 1","address2": "STE 50","city": "REHOBOTH BEACH","state": "DE","zip": "19971","zip+4": "0000","phone": "3026447530"}
{"name": "RITE AID PHARMACY #04913","address1": "444 SAVANNAH ROAD","address2": "","city": "LEWES","state": "DE","zip": "19958","zip+4": "1462","phone": "3026456243"}
{"name": "RITE AID PHARMACY #04914","address1": "1120 SOUTH CENTRAL AVENUE","address2": "","city": "LAUREL","state": "DE","zip": "19956","zip+4": "1418","phone": "3028757844"}
{"name": "RITE AID PHARMACY #04916","address1": "24832 JOHN J WILLIAMS HWY 3","address2": "","city": "MILLSBORO","state": "DE","zip": "19966","zip+4": "9511","phone": "3029471204"}
{"name": "RITE AID PHARMACY #04918","address1": "40 GEORGETOWN PLAZA","address2": "","city": "GEORGETOWN","state": "DE","zip": "19947","zip+4": "0000","phone": "3028562015"}
{"name": "RITE AID PHARMACY #04924","address1": "17069 SOUTH DUPONT HIGHWAY","address2": "","city": "HARRINGTON","state": "DE","zip": "19952","zip+4": "7403","phone": "3023984420"}
{"name": "RITE AID PHARMACY #04919","address1": "219 ATLANTIC AVENUE","address2": "","city": "MILLVILLE","state": "DE","zip": "19967","zip+4": "6701","phone": "3025393334"}
{"name": "RITE AID PHARMACY #04910","address1": "10 MASON DIXON SHOPPING CENTER","address2": "","city": "SELBYVILLE","state": "DE","zip": "19975","zip+4": "9614","phone": "3024369226"}
{"name": "RITE AID PHARMACY #04926","address1": "455 WEST MAIN STREET","address2": "","city": "MIDDLETOWN","state": "DE","zip": "19709","zip+4": "1064","phone": "3023767833"}
{"name": "SUPER G PHARMACY #387","address1": "19312 LIGHTHOUSE PLAZA BLVD","address2": "","city": "REHOBOTH BEACH","state": "DE","zip": "19971","zip+4": "0000","phone": "3022275954"}
{"name": "WAL-MART PHARMACY #102555","address1": "117 WILTON BLVD","address2": "","city": "NEW CASTLE","state": "DE","zip": "19720","zip+4": "0000","phone": "3023240905"}
{"name": "RITE AID PHARMACY #11175","address1": "1999 PULASKI HWY ROUTE 40","address2": "","city": "BEAR","state": "DE","zip": "19701","zip+4": "0000","phone": "3028329772"}
{"name": "HAPPY HARRYS INC #11042","address1": "2000 MIDWAY DR","address2": "","city": "HARRINGTON","state": "DE","zip": "19952","zip+4": "0000","phone": "3023981200"}
{"name": "KMART PHARMACY #4807","address1": "401 GOVERNOR PLACE","address2": "","city": "BEAR","state": "DE","zip": "19701","zip+4": "0000","phone": "3028349052"}
{"name": "SUPER FRESH PHARMACY #562","address1": "2105 PHILADELPHIA PIKE","address2": "","city": "CLAYMONT","state": "DE","zip": "19703","zip+4": "0000","phone": "3027984618"}
{"name": "HAPPY HARRYS INC #11044","address1": "RR 2 BOX 21B","address2": "","city": "CLARKSVILLE","state": "DE","zip": "19970","zip+4": "0000","phone": "3025373970"}
{"name": "HAPPY HARRYS INC #11045","address1": "372 POSSUM PARK RD","address2": "","city": "NEWARK","state": "DE","zip": "19711","zip+4": "0000","phone": "3024551707"}
{"name": "HAPPY HARRYS INC #11621","address1": "22898 SUSSEX HWY","address2": "","city": "SEAFORD","state": "DE","zip": "19973","zip+4": "0000","phone": "3026286100"}
{"name": "HAPPY HARRYS INC #11047","address1": "2 COLLEGE PARK LN","address2": "","city": "GEORGETOWN","state": "DE","zip": "19947","zip+4": "0000","phone": "3028545200"}
{"name": "KMART PHARMACY #7110","address1": "333 NAAMANS ROAD","address2": "","city": "CLAYMONT","state": "DE","zip": "19703","zip+4": "2894","phone": "3027929741"}
{"name": "HAPPY HARRYS INC #11048","address1": "2719 PULASKI HWY","address2": "DEER PARK","city": "NEWARK","state": "DE","zip": "19702","zip+4": "0000","phone": "3024534800"}
{"name": "WAL-MART PHARMACY #102791","address1": "4 COLLEGE PARK LANE","address2": "","city": "GEORGETOWN","state": "DE","zip": "19947","zip+4": "0000","phone": "3028549464"}
{"name": "HAPPY HARRYS INC #11049","address1": "802 PHILADELPHIA PIKE","address2": "","city": "WILMINGTON","state": "DE","zip": "19809","zip+4": "0000","phone": "3027611700"}
{"name": "HAPPY HARRYS INC #11050","address1": "500 PLAZA DR","address2": "FOUR SEASONS","city": "NEWARK","state": "DE","zip": "19702","zip+4": "0000","phone": "3026311900"}
{"name": "HAPPY HARRYS INC #11053","address1": "RD 3 BOX 512A","address2": "","city": "FENWICK ISLAND","state": "DE","zip": "19944","zip+4": "0000","phone": "3025391800"}
{"name": "TARGET PHARMACY #1312","address1": "148 JOHN HUNN BROWN ROAD","address2": "","city": "DOVER","state": "DE","zip": "19901","zip+4": "0000","phone": "3027410466"}
{"name": "HAPPY HARRYS INC #11051","address1": "536 MAIN ST","address2": "","city": "STANTON","state": "DE","zip": "19804","zip+4": "0000","phone": "3026330569"}
{"name": "HAPPY HARRYS INC #11055","address1": "4465 SUMMIT BRIDGE RD","address2": "","city": "MIDDLETOWN","state": "DE","zip": "19709","zip+4": "0000","phone": "3023761600"}
{"name": "HAPPY HARRYS INC #11058","address1": "287 CHRISTIANA RD","address2": "COMMUNITY PLAZA","city": "NEW CASTLE","state": "DE","zip": "19720","zip+4": "0000","phone": "3023251098"}
{"name": "WAL-MART PHARMACY #102419","address1": "18922 REHOBOTH MALL BLVD","address2": "","city": "REHOBOTH BEACH","state": "DE","zip": "19971","zip+4": "0000","phone": "3026448022"}
{"name": "SAFEWAY #1763","address1": "190 JOHN HUNN BROWN ROAD","address2": "","city": "DOVER","state": "DE","zip": "19901","zip+4": "0000","phone": "3027309101"}
{"name": "HAPPY HARRYS INC #11060","address1": "5506 S DUPONT HWY","address2": "WOODSIDE","city": "DOVER","state": "DE","zip": "19901","zip+4": "0000","phone": "3026986320"}
{"name": "HAPPY HARRYS INC #11061","address1": "1215 S STATE ST","address2": "","city": "DOVER","state": "DE","zip": "19901","zip+4": "0000","phone": "3027301170"}
{"name": "SAVON PHARMACY #7836","address1": "236 E GLENWOOD AVE","address2": "","city": "SMYRNA","state": "DE","zip": "19977","zip+4": "0000","phone": "3026533610"}
{"name": "HAPPY HARRYS INC #11063","address1": "52 W BIRDIE LN","address2": "","city": "MAGNOLIA","state": "DE","zip": "19962","zip+4": "0000","phone": "3026977435"}
{"name": "HAPPY HARRYS INC #11065","address1": "9561 BRIDGEVILLE CENTRE","address2": "","city": "BRIDGEVILLE","state": "DE","zip": "19933","zip+4": "0000","phone": "3023379785"}
{"name": "HAPPY HARRYS INC #11066","address1": "19 MARROWS RD","address2": "","city": "NEWARK","state": "DE","zip": "19713","zip+4": "0000","phone": "3023692510"}
{"name": "HAPPY HARRYS INC #11067","address1": "396 E MAIN ST","address2": "","city": "MIDDLETOWN","state": "DE","zip": "19709","zip+4": "0000","phone": "3023781891"}
{"name": "RITE AID PHARMACY #11190","address1": "3004 SOUTH DUPONT HIGHWAY","address2": "","city": "CAMDEN","state": "DE","zip": "19934","zip+4": "0000","phone": "3026983966"}
{"name": "CHRISTIANA CARE PHARMACY #1","address1": "4755 OGLETOWN STATION RD","address2": "","city": "NEWARK","state": "DE","zip": "19718","zip+4": "0000","phone": "3027332182"}
{"name": "CVS PHARMACY #03738","address1": "4298 HWY ONE","address2": "","city": "REHOBOTH BEACH","state": "DE","zip": "19971","zip+4": "0000","phone": "3022267791"}
{"name": "HAPPY HARRYS INC #11069","address1": "1710 FAULKLAND RD","address2": "","city": "WILMINGTON","state": "DE","zip": "19805","zip+4": "0000","phone": "3029941971"}
{"name": "WAL-MART PHARMACY #105039","address1": "263 WAL-MART DRIVE","address2": "","city": "CAMDEN","state": "DE","zip": "19934","zip+4": "0000","phone": "3026989287"}
{"name": "SAVON PHARMACY #7816","address1": "460 E MAIN ST","address2": "","city": "MIDDLETOWN","state": "DE","zip": "19709","zip+4": "0000","phone": "3024491868"}
{"name": "SAMS PHARMACY #106330","address1": "1572 NO DUPONT HWY","address2": "","city": "DOVER","state": "DE","zip": "19901","zip+4": "0000","phone": "3026782161"}
{"name": "CAPE PHARMACY LLC","address1": "17252 N VILLAGE MAIN BLVD","address2": "UNIT 3","city": "LEWES","state": "DE","zip": "19958","zip+4": "0000","phone": "3026450090"}
{"name": "HAPPY HARRYS INC #11070","address1": "1313 N UNION ST","address2": "","city": "WILMINGTON","state": "DE","zip": "19806","zip+4": "2533","phone": "3026581381"}
{"name": "FULCRUM PHARMACY","address1": "501 N SHIPLEY ST","address2": "","city": "WILMINGTON","state": "DE","zip": "19805","zip+4": "0000","phone": "3026588020"}
{"name": "MARKET STREET PHARMACY INC","address1": "1914 N MARKET ST","address2": "","city": "WILMINGTON","state": "DE","zip": "19802","zip+4": "0000","phone": "3024219200"}
{"name": "HAPPY HARRYS INC #11073","address1": "120 BROADKILL RD","address2": "","city": "MILTON","state": "DE","zip": "19968","zip+4": "0000","phone": "3026843184"}
{"name": "SUPER G PHARMACY #388","address1": "200 DOVE RUN CENTER","address2": "","city": "MIDDLETOWN","state": "DE","zip": "19709","zip+4": "0000","phone": "3028289181"}
{"name": "HAPPY HARRYS INC #11075","address1": "2470 S DUPONT PKWY","address2": "","city": "MIDDLETOWN","state": "DE","zip": "19709","zip+4": "0000","phone": "3023769743"}
{"name": "SAFEWAY #2706","address1": "NW CORNER ROUTE 1 AND MILLER R","address2": "","city": "REHOBOTH BEACH","state": "DE","zip": "19971","zip+4": "0000","phone": "3022268410"}
{"name": "WAL-MART PHARMACY #105436","address1": "1251 CENTERVILLE RD","address2": "","city": "WILMINGTON","state": "DE","zip": "19808","zip+4": "0000","phone": "3029982626"}
{"name": "HAPPY HARRYS INC #11078","address1": "1500 BEAVER BROOK PLZ","address2": "","city": "NEW CASTLE","state": "DE","zip": "19720","zip+4": "0000","phone": "3023271060"}
{"name": "GIANT PHARMACY #389","address1": "220 TOWN CENTER DR","address2": "","city": "MILLVILLE","state": "DE","zip": "19967","zip+4": "0000","phone": "3025378210"}
{"name": "BI STATE PHARMACY INC","address1": "5 E STATE ST","address2": "","city": "DELMAR","state": "DE","zip": "19940","zip+4": "0000","phone": "3028469101"}
{"name": "HAPPY HARRYS INC #11079","address1": "38627 BENRO DRIVE","address2": "","city": "DELMAR","state": "DE","zip": "19940","zip+4": "0000","phone": "3029071001"}
{"name": "PILL BOX PHARMACY #1","address1": "115 AERENSON DR","address2": "","city": "MILFORD","state": "DE","zip": "19963","zip+4": "0000","phone": "3024300995"}
{"name": "CURASCRIPT SP SPECIALTY PHARMA","address1": "2 BOULDER CIR","address2": "STE 1","city": "NEW CASTLE","state": "DE","zip": "19720","zip+4": "0000","phone": "3023958943"}
{"name": "MS RX PHARMACY","address1": "908 EAST 16TH ST","address2": "STE B","city": "WILMINGTON","state": "DE","zip": "19802","zip+4": "0000","phone": "3022251790"}
{"name": "HARRIS TEETER PHARMACY #327","address1": "31221 AMERICANA PKWY","address2": "","city": "SELBYVILLE","state": "DE","zip": "19975","zip+4": "0000","phone": "3024364858"}
{"name": "WALGREEN DRUG STORE #11135","address1": "5999 SUMMIT BRIDGE RD","address2": "","city": "TOWNSEND","state": "DE","zip": "19734","zip+4": "9613","phone": "3026961002"}
{"name": "WALGREEN DRUG STORE #11136","address1": "37088 W FENWICK BLVD","address2": "","city": "WEST FENWICK","state": "DE","zip": "19975","zip+4": "0000","phone": "3024367191"}
{"name": "ATLANTIC APOTHECARY A HEALTH M","address1": "100 S MAIN ST","address2": "STE 104","city": "SMYRNA","state": "DE","zip": "19977","zip+4": "0000","phone": "3026539355"}
{"name": "WALGREEN DRUG STORE #11032","address1": "1508 PHILADELPHIA PIKE","address2": "","city": "WILMINGTON","state": "DE","zip": "19809","zip+4": "1826","phone": "3022461111"}
{"name": "RITE AID PHARMACY #07891","address1": "200 PHARMACY DRIVE","address2": "","city": "SMYRNA","state": "DE","zip": "19977","zip+4": "2886","phone": "3026591267"}
{"name": "RENAISSANCE FAMILY PHARMACY","address1": "2618 PHILADELPHIA PIKE","address2": "","city": "CLAYMONT","state": "DE","zip": "19703","zip+4": "0000","phone": "3027984801"}
{"name": "GIANT PHARMACY #2351","address1": "25939 PLAZA DRIVE","address2": "","city": "MILLSBORO","state": "DE","zip": "19966","zip+4": "0000","phone": "3029474380"}
{"name": "NEW CASTLE RX","address1": "263 QUIGLEY BLVD","address2": "STE 1B","city": "NEW CASTLE","state": "DE","zip": "19720","zip+4": "8112","phone": "3023565600"}
{"name": "HAPPY HARRY'S #11322","address1": "200 BANNING ST","address2": "STE 100","city": "DOVER","state": "DE","zip": "19904","zip+4": "0000","phone": "3027349303"}
{"name": "WAL-MART PHARMACY #3802","address1": "705 MIDDLETOWN WARWICK RD","address2": "","city": "MIDDLETOWN","state": "DE","zip": "19709","zip+4": "0000","phone": "3024491254"}
{"name": "PROGRESS PHARMACY AT NEWARK","address1": "600 WHITE CLAY CENTER DRIVE","address2": "","city": "NEWARK","state": "DE","zip": "19711","zip+4": "0000","phone": "3025333120"}
{"name": "RADIUS RX DIRECT","address1": "501 N. SHIPLEY STREET","address2": "UNIT 2","city": "WILMINGTON","state": "DE","zip": "19801","zip+4": "0000","phone": "3026589196"}
{"name": "SHOPRITE OF CHRISTINA LANDING","address1": "501 S WALNUT STREET","address2": "","city": "WILIMINGTON","state": "DE","zip": "19801","zip+4": "0000","phone": "7325218439"}
{"name": "DARLEY PHARMACY #1","address1": "111 DARLEY ROAD","address2": "","city": "CLAYMONT","state": "DE","zip": "19703","zip+4": "0000","phone": "3027980202"}
{"name": "PATHMARK PHARMACY #540","address1": "700 PLAZA DR","address2": "","city": "NEWARK","state": "DE","zip": "19702","zip+4": "6370","phone": "3027373802"}
{"name": "CVS PHARMACY #00088","address1": "1005 DELAWARE AVE.","address2": "","city": "WILMINGTON","state": "DE","zip": "19806","zip+4": "0000","phone": "3025749836"}
