{"name": "SORG PHARMACY INC","address1": "1138 7TH AVENUE","address2": "","city": "MARION","state": "IA","zip": "52302","zip+4": "0000","phone": "3193771533"}
{"name": "WEIRICK PHARMACY","address1": "101 N WALNUT ST","address2": "","city": "COLFAX","state": "IA","zip": "50054","zip+4": "1039","phone": "5156743503"}
{"name": "ADEL HEALTHMART","address1": "113 N 9TH ST","address2": "","city": "ADEL","state": "IA","zip": "50003","zip+4": "1443","phone": "5159933644"}
{"name": "BENNETT PHARMACY INC","address1": "1 W MAIN ST","address2": "","city": "NEW HAMPTON","state": "IA","zip": "50659","zip+4": "0000","phone": "6413944156"}
{"name": "HUGHES HEALTH MART PHARMACY","address1": "2216 MAIN ST","address2": "","city": "EMMETSBURG","state": "IA","zip": "50536","zip+4": "2447","phone": "7128522886"}
{"name": "HOINES HEALTHMART PHARMACY","address1": "113 N ELM ST","address2": "","city": "CRESCO","state": "IA","zip": "52136","zip+4": "1523","phone": "5635473401"}
{"name": "PRESCRIPTION CENTER","address1": "616 N 8TH ST","address2": "","city": "OSAGE","state": "IA","zip": "50461","zip+4": "0000","phone": "6417326161"}
{"name": "WALGREEN DRUG STORE #6553","address1": "830 MIDDLE ROAD","address2": "","city": "BETTENDORF","state": "IA","zip": "52722","zip+4": "0000","phone": "5633554773"}
{"name": "MEYER HEALTHMART PHARMACY","address1": "110 10TH ST SW","address2": "","city": "WAVERLY","state": "IA","zip": "50677","zip+4": "0000","phone": "3193523120"}
{"name": "WALGREEN DRUG STORE #5119","address1": "806 S 4TH ST","address2": "","city": "CLINTON","state": "IA","zip": "52732","zip+4": "0000","phone": "5632424616"}
{"name": "WALGREENS #11709","address1": "1805 BRADY ST","address2": "","city": "DAVENPORT","state": "IA","zip": "52803","zip+4": "0000","phone": "5633862909"}
{"name": "WALGREEN DRUG STORE #4405","address1": "2508 W BROADWAY","address2": "","city": "COUNCIL BLUFFS","state": "IA","zip": "51501","zip+4": "0000","phone": "7123282314"}
{"name": "WALGREEN DRUG STORE #359","address1": "2545 EAST EUCLID","address2": "","city": "DES MOINES","state": "IA","zip": "50317","zip+4": "0000","phone": "5152663171"}
{"name": "WALGREEN DRUG STORE #4973","address1": "7000 DOUGLAS AVE","address2": "","city": "DES MOINES","state": "IA","zip": "50322","zip+4": "0000","phone": "5152781617"}
{"name": "WALGREEN DRUG STORE #3252","address1": "606 WALNUT ST","address2": "","city": "DES MOINES","state": "IA","zip": "50309","zip+4": "0000","phone": "5152831793"}
{"name": "WALGREEN DRUG STORE #5361","address1": "2503 5TH AVE S","address2": "","city": "FORT DODGE","state": "IA","zip": "50501","zip+4": "5552","phone": "5155767111"}
{"name": "WALGREEN DRUG STORE #910","address1": "100 PIERCE STREET","address2": "","city": "SIOUX CITY","state": "IA","zip": "51101","zip+4": "0000","phone": "7122521841"}
{"name": "HAMMER PHARMACY","address1": "600 E GRAND AVENUE","address2": "","city": "DES MOINES","state": "IA","zip": "50309","zip+4": "0000","phone": "5152434177"}
{"name": "WALGREEN DRUG STORE #9708","address1": "55 JFK RD","address2": "","city": "DUBUQUE","state": "IA","zip": "52002","zip+4": "0000","phone": "5635563613"}
{"name": "WAGNER PHARMACY #1","address1": "200 5TH AVE SOUTH","address2": "SUITE 1","city": "CLINTON","state": "IA","zip": "52732","zip+4": "4309","phone": "5632420626"}
{"name": "CONNERS CLINIC PHARMACY","address1": "1501 S MAIN ST","address2": "STE 2","city": "CHARLES CITY","state": "IA","zip": "50616","zip+4": "0000","phone": "6412284136"}
{"name": "WALGREEN DRUG STORE #5885","address1": "1703 PARK AVE","address2": "","city": "MUSCATINE","state": "IA","zip": "52761","zip+4": "0000","phone": "5632637840"}
{"name": "OSCO PHARMACY #3118","address1": "1309 N SECOND","address2": "","city": "CLINTON","state": "IA","zip": "52732","zip+4": "0000","phone": "5632436641"}
{"name": "KOERNER WHIPPLE DRUG","address1": "104 1ST NW","address2": "","city": "HAMPTON","state": "IA","zip": "50441","zip+4": "0000","phone": "6414562510"}
{"name": "MEDICAP PHARMACY #8010","address1": "5802 FRANKLIN AVE","address2": "","city": "DES MOINES","state": "IA","zip": "50322","zip+4": "6132","phone": "5152744609"}
{"name": "HY VEE DRUGSTORE #7055","address1": "1706 S CENTER STREET","address2": "","city": "MARSHALLTOWN","state": "IA","zip": "50158","zip+4": "0000","phone": "6417524685"}
{"name": "HY VEE DRUGSTORE 2 #7022","address1": "1440 32ND STREET NE","address2": "","city": "CEDAR RAPIDS","state": "IA","zip": "52402","zip+4": "0000","phone": "3193633587"}
{"name": "HY VEE DRUGSTORE 1 #7020","address1": "1520 SIXTH STREET SW","address2": "","city": "CEDAR RAPIDS","state": "IA","zip": "52404","zip+4": "0000","phone": "3193630219"}
{"name": "A AVENUE PHARMACY","address1": "717 A AVE NE","address2": "SUITE 202","city": "CEDAR RAPIDS","state": "IA","zip": "52401","zip+4": "1024","phone": "3193641586"}
{"name": "REUTZEL PHARMACY","address1": "617 8TH AVE SE","address2": "","city": "CEDAR RAPIDS","state": "IA","zip": "52401","zip+4": "0000","phone": "3193644181"}
{"name": "LAGRANGE PHARMACY INC","address1": "111 W 4TH ST","address2": "","city": "VINTON","state": "IA","zip": "52349","zip+4": "1138","phone": "3194724274"}
{"name": "WALGREEN DRUG STORE #5077","address1": "2214 MUSCATINE AVE","address2": "","city": "IOWA CITY","state": "IA","zip": "52240","zip+4": "6600","phone": "3193541315"}
{"name": "AMANA SOCIETY PHARMACY","address1": "507 39TH AVE","address2": "","city": "AMANA","state": "IA","zip": "52203","zip+4": "0000","phone": "3196223341"}
{"name": "CLINGMAN PHARMACY INC","address1": "106 E 4TH ST","address2": "","city": "VINTON","state": "IA","zip": "52349","zip+4": "0000","phone": "3194724731"}
{"name": "TIPTON PHARMACY","address1": "124 E 5TH ST","address2": "","city": "TIPTON","state": "IA","zip": "52772","zip+4": "1731","phone": "5638862158"}
{"name": "WIDNER DRUG","address1": "111 S FRANKLIN ST","address2": "","city": "MANCHESTER","state": "IA","zip": "52057","zip+4": "0000","phone": "5639274463"}
{"name": "WESTER DRUG INC","address1": "315 E 2ND ST","address2": "","city": "MUSCATINE","state": "IA","zip": "52761","zip+4": "4109","phone": "5632637044"}
{"name": "WALGREEN DRUG STORE #3196","address1": "5 EAST ANSON","address2": "","city": "MARSHALLTOWN","state": "IA","zip": "50158","zip+4": "0000","phone": "6417526308"}
{"name": "WALGREEN DRUG STORE #5721","address1": "3140 SE 14TH ST","address2": "","city": "DES MOINES","state": "IA","zip": "50320","zip+4": "0000","phone": "5152822177"}
{"name": "SAC CITY DRUG","address1": "514 MAIN","address2": "","city": "SAC CITY","state": "IA","zip": "50583","zip+4": "1727","phone": "7126627146"}
{"name": "SCHWENKE PHARMACY","address1": "126 SOUTH CODY ROAD","address2": "","city": "LECLAIRE","state": "IA","zip": "52753","zip+4": "0000","phone": "5632895656"}
{"name": "RICHARDS PHARMACY","address1": "5625 HICKMAN ROAD","address2": "","city": "DES MOINES","state": "IA","zip": "50310","zip+4": "1119","phone": "5152744001"}
{"name": "MEDICINE SHOPPE #1691","address1": "212 1ST STREET NORTH","address2": "","city": "NEWTON","state": "IA","zip": "50208","zip+4": "0000","phone": "6417923111"}
{"name": "MEDICAL CENTER PHARMACY","address1": "1720 CENTRAL AVE EAST","address2": "","city": "HAMPTON","state": "IA","zip": "50441","zip+4": "0000","phone": "6414564146"}
{"name": "FIFTH AVENUE PHARMACY","address1": "411 10TH ST SE","address2": "","city": "CEDAR RAPIDS","state": "IA","zip": "52403","zip+4": "2426","phone": "3193642406"}
{"name": "WALGREEN DRUG STORE #3595","address1": "1720 WEST KIMBERLY RD","address2": "","city": "DAVENPORT","state": "IA","zip": "52806","zip+4": "0000","phone": "5633861110"}
{"name": "OSTERHAUS PHARMACY","address1": "918 W PLATT","address2": "STE 2","city": "MAQUOKETA","state": "IA","zip": "52060","zip+4": "0000","phone": "5636525611"}
{"name": "BROWER DRUG COMPANY","address1": "308 W 4TH ST","address2": "","city": "ST ANSGAR","state": "IA","zip": "50472","zip+4": "0000","phone": "6417364381"}
{"name": "MEDICAP PHARMACY #8002","address1": "3825 SW 9TH ST","address2": "","city": "DES MOINES","state": "IA","zip": "50315","zip+4": "0000","phone": "5152831754"}
{"name": "FIFIELD DRUG STORE #2","address1": "501 UNIVERSITY AVENUE","address2": "","city": "DES MOINES","state": "IA","zip": "50314","zip+4": "0000","phone": "5152443221"}
{"name": "WESTSIDE MERCY FAMILY PHARMACY","address1": "910 N EISENHOWER","address2": "","city": "MASON CITY","state": "IA","zip": "50401","zip+4": "1597","phone": "6414225630"}
{"name": "DRILLING REXALL PHARMACY","address1": "4010 MORNINGSIDE AVE","address2": "","city": "SIOUX CITY","state": "IA","zip": "51106","zip+4": "2486","phone": "7122764621"}
{"name": "THOMPSON DEAN DRUG","address1": "911 W 7TH ST","address2": "","city": "SIOUX CITY","state": "IA","zip": "51103","zip+4": "5397","phone": "7122522761"}
{"name": "RASHID DRUG","address1": "2404 AVE L","address2": "","city": "FORT MADISON","state": "IA","zip": "52627","zip+4": "0000","phone": "3193722300"}
{"name": "HY VEE PHARMACY #1170","address1": "1221 CENTRAL AVENUE","address2": "","city": "ESTHERVILLE","state": "IA","zip": "51334","zip+4": "0000","phone": "7123625551"}
{"name": "MANSMITH PHARMACY INC","address1": "3204 W 1ST ST","address2": "","city": "EMMETSBURG","state": "IA","zip": "50536","zip+4": "2515","phone": "7128522727"}
{"name": "MANLY DRUG STORE #1","address1": "621 G AVE","address2": "","city": "GRUNDY CENTER","state": "IA","zip": "50638","zip+4": "1597","phone": "3198245446"}
{"name": "KEASLINGS DRUG","address1": "1414 MAIN ST","address2": "","city": "KEOKUK","state": "IA","zip": "52632","zip+4": "3926","phone": "3195245435"}
{"name": "GREENVILLE PHARMACY","address1": "2705 CORRECTIONVILLE RD","address2": "","city": "SIOUX CITY","state": "IA","zip": "51105","zip+4": "3627","phone": "7122580113"}
{"name": "KAME PHARMACY","address1": "420 N 17TH ST","address2": "","city": "KEOKUK","state": "IA","zip": "52632","zip+4": "0000","phone": "3195248144"}
{"name": "EVANSDALE PHARMACY","address1": "3506 LAFAYETTE ROAD","address2": "","city": "EVANSDALE","state": "IA","zip": "50707","zip+4": "0000","phone": "3192333395"}
{"name": "FALLS ROAD DRUG","address1": "2027 FALLS AVE","address2": "","city": "WATERLOO","state": "IA","zip": "50701","zip+4": "2359","phone": "3192342634"}
{"name": "KIMBALL AVENUE DRUG","address1": "2104 KIMBALL AVE","address2": "","city": "WATERLOO","state": "IA","zip": "50702","zip+4": "5094","phone": "3192346673"}
{"name": "LEEDS PHARMACY INC","address1": "4029 FLOYD BLVD","address2": "","city": "SIOUX CITY","state": "IA","zip": "51108","zip+4": "1550","phone": "7122392051"}
{"name": "COVENANT FAMILY PHARMACY","address1": "2710 ST FRANCIS DR","address2": "STE 101","city": "WATERLOO","state": "IA","zip": "50702","zip+4": "5493","phone": "3192725700"}
{"name": "DONS PHARMACY","address1": "32 S FREDERICK AVE","address2": "","city": "OELWEIN","state": "IA","zip": "50662","zip+4": "2384","phone": "3192835254"}
{"name": "TAMMYS PHARMACY INC","address1": "930 HWY 18 W","address2": "","city": "GARNER","state": "IA","zip": "50438","zip+4": "0000","phone": "6419232649"}
{"name": "OARD AND ROSS DRUG INC","address1": "701 16TH AVE","address2": "","city": "COUNCIL BLUFFS","state": "IA","zip": "51501","zip+4": "6396","phone": "7123222501"}
{"name": "BAUDER PHARMACY","address1": "3802 INGERSOLL AVE","address2": "","city": "DES MOINES","state": "IA","zip": "50312","zip+4": "0000","phone": "5152551124"}
{"name": "SCHUCHMANNS HEALTHMART PHARMAC","address1": "12 S FREDERICK AVE","address2": "","city": "OELWEIN","state": "IA","zip": "50662","zip+4": "2390","phone": "3192832161"}
{"name": "UNION DRUG","address1": "315 HWY 150 N","address2": "","city": "WEST UNION","state": "IA","zip": "52175","zip+4": "1115","phone": "5634223721"}
{"name": "WARD EAST SIDE PHARMACY INC","address1": "2501 EAST WALNUT STREET","address2": "","city": "DES MOINES","state": "IA","zip": "50317","zip+4": "7951","phone": "5152625615"}
{"name": "HY VEE DRUGSTORE #7028","address1": "218 EAST MAIN STREET","address2": "","city": "CHEROKEE","state": "IA","zip": "51012","zip+4": "0000","phone": "7122255783"}
{"name": "THORSON DRUG","address1": "233 REED ST","address2": "","city": "AKRON","state": "IA","zip": "51001","zip+4": "0000","phone": "7125682013"}
{"name": "DANIEL PHARMACY","address1": "1114 CENTRAL AVE","address2": "","city": "FT DODGE","state": "IA","zip": "50501","zip+4": "4097","phone": "5155733431"}
{"name": "MAIN STREET PHARMACY","address1": "103 N MAIN ST","address2": "BOX 70","city": "HOLSTEIN","state": "IA","zip": "51025","zip+4": "5016","phone": "7123684549"}
{"name": "DAHLS PHARMACY","address1": "3425 INGERSOLL AVE","address2": "","city": "DES MOINES","state": "IA","zip": "50312","zip+4": "3976","phone": "5152558642"}
{"name": "DAHLS PHARMACY","address1": "1819 BEAVER AVE","address2": "","city": "DES MOINES","state": "IA","zip": "50310","zip+4": "3899","phone": "5152794382"}
{"name": "DAHLS PHARMACY","address1": "4121 FLEUR DR","address2": "","city": "DES MOINES","state": "IA","zip": "50321","zip+4": "0000","phone": "5152855927"}
{"name": "DAHLS PHARMACY","address1": "1320 E EUCLID","address2": "","city": "DES MOINES","state": "IA","zip": "50316","zip+4": "1218","phone": "5152655946"}
{"name": "DAHLS PHARMACY","address1": "3400 E 33RD ST","address2": "","city": "DES MOINES","state": "IA","zip": "50317","zip+4": "4393","phone": "5152627342"}
{"name": "UNION PHARMACY","address1": "235 W BROADWAY","address2": "","city": "COUNCIL BLUFFS","state": "IA","zip": "51503","zip+4": "0000","phone": "7123283344"}
{"name": "HY VEE DRUGSTORE #7065","address1": "1140 N JEFFERSON STREET","address2": "","city": "OTTUMWA","state": "IA","zip": "52501","zip+4": "0000","phone": "6416845467"}
{"name": "WILLIAMS DRUG CO INC","address1": "611 2ND ST","address2": "","city": "WEBSTER CITY","state": "IA","zip": "50595","zip+4": "1709","phone": "5158321150"}
{"name": "MED EQUIP PHARMACY","address1": "141 S CENTRAL AVE","address2": "","city": "HARTLEY","state": "IA","zip": "51346","zip+4": "1494","phone": "7127282165"}
{"name": "HY VEE PHARMACY #1092","address1": "1706 N 16TH STREET","address2": "","city": "COUNCIL BLUFFS","state": "IA","zip": "51501","zip+4": "0000","phone": "7123223111"}
{"name": "MCMAHON DRUG STORE","address1": "625 DAVIS AVE","address2": "","city": "CORNING","state": "IA","zip": "50841","zip+4": "0000","phone": "6413223454"}
{"name": "WOODLAWN PHARMACY","address1": "101 N WOODLAWN AVE","address2": "","city": "LAKE CITY","state": "IA","zip": "51449","zip+4": "1723","phone": "7124648811"}
{"name": "LEHAN PHARMACY","address1": "317 MAIN ST","address2": "","city": "MINDEN","state": "IA","zip": "51553","zip+4": "0000","phone": "7124832884"}
{"name": "HY VEE DRUGSTORE #7008","address1": "849 SOUTH ANKENY BLVD","address2": "","city": "ANKENY","state": "IA","zip": "50021","zip+4": "0000","phone": "5159640656"}
{"name": "BLOEMKE PHARMACY","address1": "443 EAST MAIN ST","address2": "","city": "BELMOND","state": "IA","zip": "50421","zip+4": "1223","phone": "6414443451"}
{"name": "DAHLS PHARMACY","address1": "1208 PROSPECT AVE","address2": "","city": "WEST DES MOINES","state": "IA","zip": "50265","zip+4": "3592","phone": "5152234626"}
{"name": "DAHLS PHARMACY","address1": "8700 HICKMAN RD","address2": "","city": "DES MOINES","state": "IA","zip": "50325","zip+4": "0000","phone": "5152768784"}
{"name": "DUTCH MILL PHARMACY","address1": "104 ALBANY AVE NE","address2": "","city": "ORANGE CITY","state": "IA","zip": "51041","zip+4": "1423","phone": "7127374844"}
{"name": "MOVILLE PHARMACY INC","address1": "216 E MAIN ST","address2": "","city": "MOVILLE","state": "IA","zip": "51039","zip+4": "5040","phone": "7128733401"}
{"name": "HY VEE PHARMACY #1887","address1": "1700 VALLEY WEST DRIVE","address2": "","city": "WEST DES MOINES","state": "IA","zip": "50265","zip+4": "0000","phone": "5152259330"}
{"name": "HY VEE DRUGSTORE #7050","address1": "2790 SEVENTH AVENUE","address2": "","city": "MARION","state": "IA","zip": "52302","zip+4": "0000","phone": "3193770959"}
{"name": "HARTIG DRUG CO #12","address1": "21 W MAIN ST","address2": "","city": "WAUKON","state": "IA","zip": "52172","zip+4": "1637","phone": "5635686315"}
{"name": "HY VEE DRUGSTORE 3 #7024","address1": "2405 MT VERNON AVENUE SE","address2": "","city": "CEDAR RAPIDS","state": "IA","zip": "52402","zip+4": "0000","phone": "3193657579"}
{"name": "MCGREGOR PHARMACY","address1": "230 MAIN ST","address2": "","city": "MCGREGOR","state": "IA","zip": "52157","zip+4": "0000","phone": "5638733781"}
{"name": "HY VEE PHARMACY #1522","address1": "1215 141ST STREET","address2": "","city": "PERRY","state": "IA","zip": "50220","zip+4": "0000","phone": "5154653543"}
{"name": "MEDICAP PHARMACY #8207","address1": "403 STORY ST","address2": "","city": "BOONE","state": "IA","zip": "50036","zip+4": "3533","phone": "5154322311"}
{"name": "SOUTH SIDE DRUG INC","address1": "337 CHURCH ST","address2": "","city": "OTTUMWA","state": "IA","zip": "52501","zip+4": "4212","phone": "6416823467"}
{"name": "BOONE MEDICAL ASSOCIATES P","address1": "120 S STORY ST","address2": "SUITE C","city": "BOONE","state": "IA","zip": "50036","zip+4": "4739","phone": "5154323460"}
{"name": "LUTZ PHARMACY","address1": "120 8TH ST SE","address2": "","city": "ALTOONA","state": "IA","zip": "50009","zip+4": "1994","phone": "5159674213"}
{"name": "DECATUR FAMILY PHARMACY","address1": "204 N MAIN ST","address2": "","city": "LEON","state": "IA","zip": "50144","zip+4": "0000","phone": "6414464136"}
{"name": "MONTROSS PHARMACY INC","address1": "118 N 1ST AVE","address2": "","city": "WINTERSET","state": "IA","zip": "50273","zip+4": "1594","phone": "5154622282"}
{"name": "MEDICAP PHARMACY #8004","address1": "11 NORTH 3RD AVENUE","address2": "","city": "MARSHALLTOWN","state": "IA","zip": "50158","zip+4": "0000","phone": "6417527139"}
{"name": "CAMANCHE PHARMACY","address1": "818 7TH AVE","address2": "","city": "CAMANCHE","state": "IA","zip": "52730","zip+4": "1811","phone": "5632598361"}
{"name": "IOWA HLTH SYSTMS PHCY","address1": "1026 A AVE NE","address2": "","city": "CEDAR RAPIDS","state": "IA","zip": "52402","zip+4": "5036","phone": "3193697528"}
{"name": "CARROLL APOTHECARY","address1": "707 N MAIN ST","address2": "","city": "CARROLL","state": "IA","zip": "51401","zip+4": "0000","phone": "7127922671"}
{"name": "VER HELST SNYDER DRUG","address1": "98 N 10TH ST","address2": "","city": "NORTHWOOD","state": "IA","zip": "50459","zip+4": "1438","phone": "6413242116"}
{"name": "DISCO DRUG-MEDICAL ARTS DVSN","address1": "1428 2ND AVE N","address2": "","city": "FT DODGE","state": "IA","zip": "50501","zip+4": "4119","phone": "5159555430"}
{"name": "NESSEN PHARMACY","address1": "104 S FRANKLIN ST","address2": "","city": "CORYDON","state": "IA","zip": "50060","zip+4": "1518","phone": "6418722512"}
{"name": "DONLON HEALTHMART PHARMACY","address1": "201 W WATER ST","address2": "","city": "DECORAH","state": "IA","zip": "52101","zip+4": "1727","phone": "5633822626"}
{"name": "HARTIG DRUG CO #4","address1": "2225 CENTRAL AVE","address2": "","city": "DUBUQUE","state": "IA","zip": "52001","zip+4": "3506","phone": "5635888704"}
{"name": "HARTIG DRUG CO #2","address1": "157 LOCUST ST","address2": "","city": "DUBUQUE","state": "IA","zip": "52001","zip+4": "7660","phone": "5635888702"}
{"name": "HARTIG DRUG CO #3","address1": "2255 JOHN F KENNEDY RD","address2": "","city": "DUBUQUE","state": "IA","zip": "52002","zip+4": "2846","phone": "5635888703"}
{"name": "HARTIG PHARMACY SERVICES #9","address1": "2216 WOODLAND DR","address2": "","city": "DUBUQUE","state": "IA","zip": "52002","zip+4": "3879","phone": "5635888709"}
{"name": "MERCY FAMILY PHARMACY-ELM","address1": "1920 ELM ST","address2": "","city": "DUBUQUE","state": "IA","zip": "52001","zip+4": "0000","phone": "5635837379"}
{"name": "MERCY FAMILY PHARMACY EAST","address1": "1000 LANGWORTHY ST","address2": "","city": "DUBUQUE","state": "IA","zip": "52001","zip+4": "7365","phone": "5635843405"}
{"name": "DUNLAP FAMILY PHARMACY","address1": "612 IOWA AVE","address2": "","city": "DUNLAP","state": "IA","zip": "51529","zip+4": "0000","phone": "7126435162"}
{"name": "WESTFAIR DRUG INC","address1": "621 5TH ST","address2": "","city": "DURANT","state": "IA","zip": "52747","zip+4": "9774","phone": "5637854930"}
{"name": "MILLER PHARMACY","address1": "635 HWY 9 E","address2": "","city": "FOREST CITY","state": "IA","zip": "50436","zip+4": "0169","phone": "6415853931"}
{"name": "FRIENDSHIP HAVEN PHARMACY","address1": "420 KENYON RD","address2": "","city": "FT DODGE","state": "IA","zip": "50501","zip+4": "5254","phone": "5155736015"}
{"name": "DOWD DRUG INC","address1": "307 STATE ST","address2": "","city": "GUTHRIE CENTER","state": "IA","zip": "50115","zip+4": "0099","phone": "6417478317"}
{"name": "GUTTENBERG PHARMACY INC #5","address1": "807 S HWY 52","address2": "","city": "GUTTENBERG","state": "IA","zip": "52052","zip+4": "0000","phone": "5632521172"}
{"name": "STONER DRUG #1","address1": "1105 MAIN ST","address2": "","city": "HAMBURG","state": "IA","zip": "51640","zip+4": "1233","phone": "7123822551"}
{"name": "PEXTON PHARMACY","address1": "1812 CHATBURN PLAZA","address2": "","city": "HARLAN","state": "IA","zip": "51537","zip+4": "1395","phone": "7127552101"}
{"name": "BOOTH PHARMACY INC","address1": "903 CENTRAL AVE","address2": "","city": "HAWARDEN","state": "IA","zip": "51023","zip+4": "0000","phone": "7125512374"}
{"name": "HULL PHARMACY","address1": "1044 MAIN ST","address2": "","city": "HULL","state": "IA","zip": "51239","zip+4": "0000","phone": "7124391611"}
{"name": "IDA GROVE PHARMACY","address1": "506 SECOND ST","address2": "","city": "IDA GROVE","state": "IA","zip": "51445","zip+4": "0000","phone": "7123642734"}
{"name": "CORNER PHARMACY","address1": "504 ROCKSYLVANIA","address2": "","city": "IOWA FALLS","state": "IA","zip": "50126","zip+4": "0000","phone": "6416485550"}
{"name": "EBY DRUG STORE INC","address1": "103 N 4TH AVE","address2": "","city": "LOGAN","state": "IA","zip": "51546","zip+4": "0000","phone": "7126442160"}
{"name": "MAIER FAMILY PHARMACY","address1": "411 MAIN ST","address2": "","city": "MAPLETON","state": "IA","zip": "51034","zip+4": "0000","phone": "7128811033"}
{"name": "NOELS PHARMACY","address1": "132 S MAIN ST","address2": "","city": "NORTH ENGLISH","state": "IA","zip": "52316","zip+4": "9612","phone": "3196643115"}
{"name": "STANGEL PHARMACY","address1": "821 IOWA AVE","address2": "","city": "ONAWA","state": "IA","zip": "51040","zip+4": "1629","phone": "7124231131"}
{"name": "HOMETOWN PHARMACY #1","address1": "512 8TH ST SE","address2": "","city": "ORANGE CITY","state": "IA","zip": "51041","zip+4": "0000","phone": "7127374919"}
{"name": "MEDICAP PHARMACY #8211","address1": "615 E MAIN ST","address2": "","city": "PANORA","state": "IA","zip": "50216","zip+4": "0000","phone": "6417552312"}
{"name": "MERCY FAMILY PHARMACY-SHEFFIEL","address1": "115 GILMAN","address2": "","city": "SHEFFIELD","state": "IA","zip": "50475","zip+4": "0000","phone": "6418924640"}
{"name": "PENN DRUG CO","address1": "714 ILLINOIS ST","address2": "","city": "SIDNEY","state": "IA","zip": "51652","zip+4": "0575","phone": "7123742513"}
{"name": "HONEYMAN DRUG","address1": "408 S 3RD AVE","address2": "","city": "VILLISCA","state": "IA","zip": "50864","zip+4": "0000","phone": "7128264112"}
{"name": "PETERSON DRUG COMPANY","address1": "514 ELM ST","address2": "","city": "WILLIAMSBURG","state": "IA","zip": "52361","zip+4": "0360","phone": "3196681664"}
{"name": "MEDICAP PHARMACY #8006","address1": "1551 FIRST AVE SE","address2": "","city": "CEDAR RAPIDS","state": "IA","zip": "52402","zip+4": "0000","phone": "3193668351"}
{"name": "MEDICAP PHARMACY #8003","address1": "105 LINCOLN WAY","address2": "","city": "AMES","state": "IA","zip": "50010","zip+4": "3323","phone": "5152321653"}
{"name": "DAHLS PHARMACY","address1": "4343 MERLE HAY RD","address2": "","city": "DES MOINES","state": "IA","zip": "50310","zip+4": "1499","phone": "5152764845"}
{"name": "ESTHERVILLE DRUG","address1": "522 CENTRAL AVE","address2": "","city": "ESTHERVILLE","state": "IA","zip": "51334","zip+4": "0000","phone": "7123623154"}
{"name": "HY VEE PHARMACY #1622","address1": "1951 SOUTH MAIN","address2": "","city": "SIOUX CENTER","state": "IA","zip": "51250","zip+4": "0000","phone": "7127223516"}
{"name": "CASSADY PHARMACY #2","address1": "4505 SW 9TH ST","address2": "","city": "DES MOINES","state": "IA","zip": "50315","zip+4": "0000","phone": "5152852474"}
{"name": "MEDICAP PHARMACY #8058","address1": "504 A AVENUE WEST","address2": "","city": "OSKALOOSA","state": "IA","zip": "52577","zip+4": "0000","phone": "6416738486"}
{"name": "PARKERSBURG PHARMACY","address1": "226 3RD ST","address2": "","city": "PARKERSBURG","state": "IA","zip": "50665","zip+4": "0000","phone": "3193461970"}
{"name": "HY VEE PHARMACY 5 #1151","address1": "1107 SE ARMY POST ROAD","address2": "","city": "DES MOINES","state": "IA","zip": "50315","zip+4": "0000","phone": "5152871022"}
{"name": "JESUP PHARMACY","address1": "1094 220TH ST","address2": "","city": "JESUP","state": "IA","zip": "50648","zip+4": "0000","phone": "3198276889"}
{"name": "MONTROSS PHARMACY","address1": "134 MAIN ST","address2": "","city": "ST CHARLES","state": "IA","zip": "50240","zip+4": "1522","phone": "6413962445"}
{"name": "HY VEE DRUGSTORE #7056","address1": "875 SW 4TH ST","address2": "","city": "MASON CITY","state": "IA","zip": "50401","zip+4": "0000","phone": "6414245522"}
{"name": "MILLER MEDICINE CABINET","address1": "214 5TH ST","address2": "","city": "KALONA","state": "IA","zip": "52247","zip+4": "0000","phone": "3196563134"}
{"name": "VALLEY DRUG STORE","address1": "318 E ERIE ST","address2": "","city": "MISSOURI VALLEY","state": "IA","zip": "51555","zip+4": "1692","phone": "7126422747"}
{"name": "SAMPLE MEDICAL PHARMACY","address1": "2310 JOHNSON AVENUE NW","address2": "","city": "CEDAR RAPIDS","state": "IA","zip": "52404","zip+4": "0000","phone": "3193653239"}
{"name": "MEDICAP PHARMACY #8008","address1": "7641 DOUGLAS AVENUE","address2": "","city": "URBANDALE","state": "IA","zip": "50322","zip+4": "0000","phone": "5152763471"}
{"name": "REX PHARMACY INC","address1": "507 CHESTNUT ST","address2": "","city": "ATLANTIC","state": "IA","zip": "50022","zip+4": "1249","phone": "7122432110"}
{"name": "KMART PHARMACY #4158","address1": "3810 UNIVERSITY AVE","address2": "","city": "WATERLOO","state": "IA","zip": "50701","zip+4": "0000","phone": "3192341507"}
{"name": "HY VEE PHARMACY #1610","address1": "2827 HAMILTON BLVD","address2": "","city": "SIOUX CITY","state": "IA","zip": "51104","zip+4": "0000","phone": "7122778734"}
{"name": "MONTROSS PHARMACY INC","address1": "105 S CHESTNUT AVE","address2": "","city": "EARLHAM","state": "IA","zip": "50072","zip+4": "0000","phone": "5157582174"}
{"name": "METHODIST PLAZA PHARMACY LTD","address1": "1212 PLEASANT ST","address2": "SUITE 105","city": "DES MOINES","state": "IA","zip": "50309","zip+4": "1410","phone": "5152448855"}
{"name": "IOWA STATE UNIVERSITY","address1": "2260 THIELEN STUDENT HEALTH CN","address2": "","city": "AMES","state": "IA","zip": "50011","zip+4": "2260","phone": "5152947983"}
{"name": "PARK PHARMACY","address1": "804 6TH ST","address2": "","city": "SIBLEY","state": "IA","zip": "51249","zip+4": "1712","phone": "7127543859"}
{"name": "KMART PHARMACY #3441","address1": "3616 W KIMBERLY RD","address2": "","city": "DAVENPORT","state": "IA","zip": "52806","zip+4": "0000","phone": "5633863742"}
{"name": "FOREST PARK PHARMACY","address1": "1010 4TH ST SW STE 110","address2": "","city": "MASON CITY","state": "IA","zip": "50401","zip+4": "0000","phone": "6414226100"}
{"name": "SCOTT THRIFTY WHITE DRUG","address1": "629 6TH AVE","address2": "","city": "DEWITT","state": "IA","zip": "52742","zip+4": "1635","phone": "5636595042"}
{"name": "CARLEY DRUG COMPANY","address1": "102 N ELM ST","address2": "","city": "AVOCA","state": "IA","zip": "51521","zip+4": "0000","phone": "7123436777"}
{"name": "INDIAN HILLS PHARMACY","address1": "1551 INDIAN HILLS DR","address2": "SUITE 101","city": "SIOUX CITY","state": "IA","zip": "51104","zip+4": "1800","phone": "7122559150"}
{"name": "FAY PHARMACY","address1": "400 AUDUBON ST","address2": "","city": "ADAIR","state": "IA","zip": "50002","zip+4": "0608","phone": "6417423440"}
{"name": "CLINTON MEDICAL CLINIC PHARMAC","address1": "221 MAIN AVE","address2": "","city": "CLINTON","state": "IA","zip": "52732","zip+4": "2241","phone": "5632421724"}
{"name": "ATLANTIC MEDICAL CENTER PHCY","address1": "1501 E 10TH ST","address2": "","city": "ATLANTIC","state": "IA","zip": "50022","zip+4": "0000","phone": "7122433367"}
{"name": "KMART PHARMACY #4314","address1": "2727 16TH AVE SW","address2": "","city": "CEDAR RAPIDS","state": "IA","zip": "52404","zip+4": "0000","phone": "3193667815"}
{"name": "KMART PHARMACY #4289","address1": "180 COLLINS RD NE","address2": "","city": "CEDAR RAPIDS","state": "IA","zip": "52402","zip+4": "0000","phone": "3193773338"}
{"name": "KMART PHARMACY #4485","address1": "2006 4TH ST SW","address2": "","city": "MASON CITY","state": "IA","zip": "50401","zip+4": "0000","phone": "6414235178"}
{"name": "KMART PHARMACY #4315","address1": "901 HOLLYWOOD BLVD","address2": "","city": "IOWA CITY","state": "IA","zip": "52240","zip+4": "0000","phone": "3193511768"}
{"name": "DENVER DRUG","address1": "340 S STATE ST","address2": "","city": "DENVER","state": "IA","zip": "50622","zip+4": "0000","phone": "3199845691"}
{"name": "WAGNER CLINIC PHARMACY","address1": "915 13TH AVE NORTH","address2": "","city": "CLINTON","state": "IA","zip": "52732","zip+4": "0000","phone": "5632425944"}
{"name": "HY VEE PHARMACY #1013","address1": "3800 WEST LINCOLN WAY","address2": "","city": "AMES","state": "IA","zip": "50010","zip+4": "0000","phone": "5152928375"}
{"name": "HY VEE PHARMACY 2 #1101","address1": "1745 MADISON AVENUE","address2": "","city": "COUNCIL BLUFFS","state": "IA","zip": "51501","zip+4": "0000","phone": "7123229222"}
{"name": "KMART PHARMACY #3097","address1": "2803 EAST KANESVILLE BLVD","address2": "","city": "COUNCIL BLUFFS","state": "IA","zip": "51503","zip+4": "0000","phone": "7123250987"}
{"name": "KMART PHARMACY #4465","address1": "5700 GORDON DRIVE","address2": "","city": "SIOUX CITY","state": "IA","zip": "51106","zip+4": "0000","phone": "7122761461"}
{"name": "HY VEE PHARMACY #1759","address1": "8601 DOUGLAS AVENUE","address2": "","city": "URBANDALE","state": "IA","zip": "50322","zip+4": "0000","phone": "5152702225"}
{"name": "BELLEVUE PHARMACY","address1": "115 STATE ST","address2": "","city": "BELLEVUE","state": "IA","zip": "52031","zip+4": "1307","phone": "5638724259"}
{"name": "MAIN AT LOCUST PHARMACY AND ME","address1": "129 W LOCUST ST","address2": "","city": "DAVENPORT","state": "IA","zip": "52803","zip+4": "0000","phone": "5633241641"}
{"name": "ANDERSON PHCY UNITED DRUGS #20","address1": "61 W GILLETT ST","address2": "","city": "PRESTON","state": "IA","zip": "52069","zip+4": "0040","phone": "5636893301"}
{"name": "CLARION PHARMACY","address1": "210 N MAIN ST","address2": "","city": "CLARION","state": "IA","zip": "50525","zip+4": "1494","phone": "5155326626"}
{"name": "KMART PHARMACY #7002","address1": "3200 AGENCY ST","address2": "","city": "BURLINGTON","state": "IA","zip": "52601","zip+4": "0000","phone": "3197536515"}
{"name": "KMART PHARMACY #4160","address1": "2535 HUBBELL AVE","address2": "","city": "DES MOINES","state": "IA","zip": "50317","zip+4": "0000","phone": "5152629578"}
{"name": "KMART PHARMACY #4156","address1": "7501 HICKMAN","address2": "","city": "URBANDALE","state": "IA","zip": "50322","zip+4": "0000","phone": "5152702623"}
{"name": "SCOTT PHARMACY","address1": "238 S MAIN","address2": "","city": "FAYETTE","state": "IA","zip": "52142","zip+4": "0000","phone": "5634254530"}
{"name": "ECONOFOODS PHARMACY #507","address1": "522 N HANCOCK","address2": "","city": "OTTUMWA","state": "IA","zip": "52501","zip+4": "0000","phone": "6416826403"}
{"name": "LARRYS PHARMACY #1","address1": "1310 10TH AVE N","address2": "","city": "HUMBOLDT","state": "IA","zip": "50548","zip+4": "0384","phone": "5153321627"}
{"name": "MEDICAP PHARMACY #8012","address1": "400 N ELM","address2": "","city": "JEFFERSON","state": "IA","zip": "50129","zip+4": "0000","phone": "5153862164"}
{"name": "CROWN PHARMACY","address1": "802 WASHINGTON ST","address2": "","city": "PELLA","state": "IA","zip": "50219","zip+4": "1525","phone": "6416281612"}
{"name": "WALGREEN DRUG STORE #5239","address1": "1660 W LOCUST ST","address2": "","city": "DAVENPORT","state": "IA","zip": "52804","zip+4": "0000","phone": "5633243504"}
{"name": "MEDICAP PHARMACY #8016","address1": "443 S FREDERICK AVE","address2": "","city": "OELWEIN","state": "IA","zip": "50662","zip+4": "0000","phone": "3192832028"}
{"name": "HY VEE PHARMACY 3 #1288","address1": "1201 NORTH DODGE","address2": "","city": "IOWA CITY","state": "IA","zip": "52245","zip+4": "0000","phone": "3193376310"}
{"name": "WALGREEN DRUG STORE #4041","address1": "1525 E KIMBERLY","address2": "","city": "DAVENPORT","state": "IA","zip": "52807","zip+4": "0000","phone": "5633866277"}
{"name": "CARRUTHERS PHARMACY","address1": "526 MAIN STREET","address2": "","city": "MEDIAPOLIS","state": "IA","zip": "52637","zip+4": "0000","phone": "3193943420"}
{"name": "SHEPLEY PHARMACY","address1": "113 FIRST ST E","address2": "","city": "MOUNT VERNON","state": "IA","zip": "52314","zip+4": "0000","phone": "3198956248"}
{"name": "HY VEE PHARMACY #1281","address1": "1720 WATERFRONT DRIVE","address2": "","city": "IOWA CITY","state": "IA","zip": "52240","zip+4": "0000","phone": "3193547121"}
{"name": "MEDICAP PHARMACY #8019","address1": "108 2ND AVE W","address2": "","city": "TOLEDO","state": "IA","zip": "52342","zip+4": "0000","phone": "6414846198"}
{"name": "COMMUNITY PHARMACY","address1": "215 13TH AVE SW","address2": "","city": "CLARION","state": "IA","zip": "50525","zip+4": "2078","phone": "5155322801"}
{"name": "HARTIG DRUG CO #14","address1": "200 1ST ST E","address2": "","city": "INDEPENDENCE","state": "IA","zip": "50644","zip+4": "0000","phone": "3193347155"}
{"name": "MEDICAL ARTS PHARMACY","address1": "116 E 11TH ST","address2": "","city": "SPENCER","state": "IA","zip": "51301","zip+4": "4363","phone": "7122622343"}
{"name": "MEDICAP PHARMACY #8022","address1": "300 WEST WASHINGTON","address2": "","city": "MT PLEASANT","state": "IA","zip": "52641","zip+4": "0000","phone": "3199865151"}
{"name": "BLAKESLEY DRUG","address1": "124 W MAIN","address2": "","city": "MANCHESTER","state": "IA","zip": "52057","zip+4": "0000","phone": "5639273509"}
{"name": "CLARKS PHARMACY","address1": "1946 42ND STREET NE","address2": "","city": "CEDAR RAPIDS","state": "IA","zip": "52402","zip+4": "0000","phone": "3193933210"}
{"name": "LINCOLN HIGHWAY PHARMACY","address1": "859 E US HIGHWAY 30","address2": "","city": "CARROLL","state": "IA","zip": "51401","zip+4": "0000","phone": "7127756337"}
{"name": "MEDICAP PHARMACY #8024","address1": "214 S MAIN","address2": "","city": "OSCEOLA","state": "IA","zip": "50213","zip+4": "0000","phone": "6413426557"}
{"name": "WALGREEN DRUG STORE #4714","address1": "4555 FLEUR DR","address2": "","city": "DES MOINES","state": "IA","zip": "50321","zip+4": "0000","phone": "5152875550"}
{"name": "KMART PHARMACY #7161","address1": "1131 N QUINCY AVE","address2": "","city": "OTTUMWA","state": "IA","zip": "52501","zip+4": "0000","phone": "6416833814"}
{"name": "POCAHONTAS PHARMACY","address1": "701 W ELM AVE","address2": "","city": "POCAHONTAS","state": "IA","zip": "50574","zip+4": "1439","phone": "7123353119"}
{"name": "MEDICAP PHARMACY #8029","address1": "601 1ST AVE","address2": "","city": "PERRY","state": "IA","zip": "50220","zip+4": "0000","phone": "5154653391"}
{"name": "ECONOFOODS PHARMACY #511","address1": "20 SOUTH 4TH STREET","address2": "","city": "CLEAR LAKE","state": "IA","zip": "50428","zip+4": "0000","phone": "6413572169"}
{"name": "COON RAPIDS PHARMACY","address1": "515 MAIN ST","address2": "","city": "COON RAPIDS","state": "IA","zip": "50058","zip+4": "1611","phone": "7129997979"}
{"name": "MEDICAP PHARMACY # #8032","address1": "702 MONTGOMERY","address2": "","city": "DECORAH","state": "IA","zip": "52101","zip+4": "0000","phone": "5633828765"}
{"name": "BIG CREEK PHARMACY","address1": "119 2ND ST","address2": "","city": "POLK CITY","state": "IA","zip": "50226","zip+4": "0000","phone": "5159846554"}
{"name": "LA PORTE CITY PHARMACY","address1": "601 HWY 218 N","address2": "","city": "LA PORTE CITY","state": "IA","zip": "50651","zip+4": "1012","phone": "3193423620"}
{"name": "SUN DRUG VILLAGE SQUARE LTD","address1": "6105 MERLE HAY RD","address2": "","city": "JOHNSTON","state": "IA","zip": "50131","zip+4": "0288","phone": "5152785503"}
{"name": "WHITE DRUG #42","address1": "400 GRAND AVENUE","address2": "","city": "SPENCER","state": "IA","zip": "51301","zip+4": "4037","phone": "7122621523"}
{"name": "MEDICAP PHARMACY #8033","address1": "2030 6TH STREET SW","address2": "","city": "CEDAR RAPIDS","state": "IA","zip": "52404","zip+4": "0000","phone": "3193646930"}
{"name": "KMART PHARMACY #7583","address1": "1720 S CENTER","address2": "","city": "MARSHALLTOWN","state": "IA","zip": "50158","zip+4": "0000","phone": "6417530957"}
{"name": "HERITAGE PARK PHARMACY","address1": "1223 S GEAR AVE","address2": "STE 105","city": "WEST BURLINGTON","state": "IA","zip": "52655","zip+4": "0000","phone": "3197683950"}
{"name": "REMSEN PHARMACY","address1": "111 S WASHINGTON ST","address2": "BOX 407","city": "REMSEN","state": "IA","zip": "51050","zip+4": "0000","phone": "7127862093"}
{"name": "MEDICAP PHARMACY #8034","address1": "405 S SUMNER","address2": "","city": "CRESTON","state": "IA","zip": "50801","zip+4": "0000","phone": "6417826558"}
{"name": "CARROLL CLINIC PHARMACY","address1": "405 S CLARK ST","address2": "STE 150","city": "CARROLL","state": "IA","zip": "51401","zip+4": "0000","phone": "7127923212"}
{"name": "SHOPKO PHARMACY #40","address1": "3025 HAMILTON BLVD","address2": "","city": "SIOUX CITY","state": "IA","zip": "51104","zip+4": "2407","phone": "7122558055"}
{"name": "MONONA PHARMACY","address1": "200 WEST IOWA ST","address2": "","city": "MONONA","state": "IA","zip": "52159","zip+4": "0000","phone": "5635392348"}
{"name": "HY VEE DRUGSTORE #7057","address1": "129 S JEFFERSON STREET","address2": "","city": "MT PLEASANT","state": "IA","zip": "52641","zip+4": "0000","phone": "3193853163"}
{"name": "KWIK RX PHARMACY","address1": "2308 12TH ST","address2": "","city": "HARLAN","state": "IA","zip": "51537","zip+4": "0000","phone": "7127553823"}
{"name": "APPLE PHARMACY","address1": "9255 ATLANTIC DR SW","address2": "","city": "CEDAR RAPIDS","state": "IA","zip": "52404","zip+4": "0000","phone": "3193961386"}
{"name": "RICKS PHARMACY","address1": "6 1ST ST NW","address2": "","city": "HAMPTON","state": "IA","zip": "50441","zip+4": "0000","phone": "6414563538"}
{"name": "MEDICAP PHARMACY #8036","address1": "208 E EUCLID","address2": "","city": "INDIANOLA","state": "IA","zip": "50125","zip+4": "0000","phone": "5159615303"}
{"name": "TOWNCREST PHARMACY","address1": "2306 MUSCATINE AVE","address2": "","city": "IOWA CITY","state": "IA","zip": "52240","zip+4": "6637","phone": "3193373526"}
{"name": "MERCY OUTPATIENT PHARMACY","address1": "1111 6TH AVE","address2": "","city": "DES MOINES","state": "IA","zip": "50314","zip+4": "0000","phone": "5156434429"}
{"name": "HY VEE DRUGSTORE #7035","address1": "214 SOUTH 25TH STREET","address2": "","city": "FT DODGE","state": "IA","zip": "50501","zip+4": "0000","phone": "5155763652"}
{"name": "MEDICAP PHARMACY #8043","address1": "901 W PLEASANT ST","address2": "","city": "KNOXVILLE","state": "IA","zip": "50138","zip+4": "2743","phone": "6418287312"}
{"name": "WAL-MART PHARMACY #100750","address1": "302 ENTERPRISE DRIVE","address2": "","city": "INDEPENDENCE","state": "IA","zip": "50644","zip+4": "0000","phone": "3193347131"}
{"name": "WAL-MART PHARMACY #100751","address1": "1650 WASHINGTON ST","address2": "","city": "PELLA","state": "IA","zip": "50219","zip+4": "0000","phone": "6416289227"}
{"name": "BALANCERX INTEGRATIVE PHARMACY","address1": "4927 MAPLE DR","address2": "","city": "PLEASANT HILL","state": "IA","zip": "50327","zip+4": "0000","phone": "5152641503"}
{"name": "GEORGE JAY DRUG COMPANY","address1": "612 W SHERIDAN AVE","address2": "","city": "SHENANDOAH","state": "IA","zip": "51601","zip+4": "0000","phone": "7122462635"}
{"name": "OAKLAND PHARMACY INC","address1": "106 N MAIN","address2": "","city": "OAKLAND","state": "IA","zip": "51560","zip+4": "0000","phone": "7124823015"}
{"name": "WAL-MART PHARMACY #100646","address1": "101 115TH ST","address2": "","city": "ANAMOSA","state": "IA","zip": "52205","zip+4": "0000","phone": "3194624314"}
{"name": "EAGLE GROVE PHARMACY INC","address1": "311 W BROADWAY ST","address2": "","city": "EAGLE GROVE","state": "IA","zip": "50533","zip+4": "0000","phone": "5154483814"}
{"name": "WAL-MART PHARMACY #100647","address1": "415 INDUSTRIAL AVE","address2": "","city": "GRINNELL","state": "IA","zip": "50112","zip+4": "0000","phone": "6412366333"}
{"name": "WAL-MART PHARMACY #100748","address1": "300 IOWA SPEEDWAY DRIVE","address2": "","city": "NEWTON","state": "IA","zip": "50208","zip+4": "0000","phone": "6417915327"}
{"name": "WAL-MART PHARMACY #100784","address1": "1045 NO. GRAND AVENUE","address2": "","city": "MT PLEASANT","state": "IA","zip": "52641","zip+4": "0000","phone": "3193858600"}
{"name": "KINGSLEY PHARMACY INC","address1": "7 W 2ND ST","address2": "","city": "KINGSLEY","state": "IA","zip": "51028","zip+4": "0000","phone": "7123782700"}
{"name": "WAL-MART PHARMACY #100810","address1": "4151 FOURTH STREET SW","address2": "","city": "MASON CITY","state": "IA","zip": "50401","zip+4": "0000","phone": "6414233494"}
{"name": "WAL-MART PHARMACY #100749","address1": "3015 GRAND AVE","address2": "","city": "AMES","state": "IA","zip": "50010","zip+4": "0000","phone": "5152331736"}
{"name": "WAL-MART PHARMACY #100797","address1": "324 WEST AGENCY ROAD","address2": "","city": "WEST BURLINGTON","state": "IA","zip": "52655","zip+4": "0000","phone": "3197532269"}
{"name": "MEDICAP PHARMACY #8051","address1": "316 BROADWAY","address2": "","city": "AUDUBON","state": "IA","zip": "50025","zip+4": "0000","phone": "7125632655"}
{"name": "WRIGHT PHARMACY","address1": "303S W 7TH ST","address2": "","city": "STUART","state": "IA","zip": "50250","zip+4": "0000","phone": "5155231525"}
{"name": "Q AND T PHARMACY","address1": "920 W 5TH ST","address2": "","city": "WATERLOO","state": "IA","zip": "50702","zip+4": "2198","phone": "3192335216"}
{"name": "WAL-MART PHARMACY #100841","address1": "1126 HIGHWAY 38 NORTH","address2": "","city": "TIPTON","state": "IA","zip": "52772","zip+4": "0000","phone": "5638862117"}
{"name": "BAX INC","address1": "401 WASHINGTON ST","address2": "","city": "FONTANELLE","state": "IA","zip": "50846","zip+4": "0000","phone": "6417453221"}
{"name": "SWANSON DRUG INC","address1": "305 W WALNUT ST","address2": "","city": "OGDEN","state": "IA","zip": "50212","zip+4": "0000","phone": "5152752362"}
{"name": "SHOPKO PHARMACY #52","address1": "615 S MONROE AVE","address2": "","city": "MASON CITY","state": "IA","zip": "50401","zip+4": "5061","phone": "6414244302"}
{"name": "STEEGE PHARMACY","address1": "119 N VINE ST","address2": "","city": "WEST UNION","state": "IA","zip": "52175","zip+4": "1346","phone": "5634223151"}
{"name": "HARTIG DRUG CO #6","address1": "711 16TH AVE SE","address2": "","city": "DYERSVILLE","state": "IA","zip": "52040","zip+4": "2158","phone": "5638752552"}
{"name": "HY VEE PHARMACY #1105","address1": "3019 ROCKINGHAM ROAD","address2": "","city": "DAVENPORT","state": "IA","zip": "52802","zip+4": "0000","phone": "5633227573"}
{"name": "HY VEE PHARMACY #1136","address1": "3330 MARTIN LUTHER KING JR EXP","address2": "","city": "DES MOINES","state": "IA","zip": "50310","zip+4": "0000","phone": "5152556213"}
{"name": "HY VEE PHARMACY 2 #1888","address1": "1990 GRAND AVENUE","address2": "","city": "WEST DES MOINES","state": "IA","zip": "50265","zip+4": "0000","phone": "5152238506"}
{"name": "MEDICAP PHARMACY #8057","address1": "904 N JOHN WAYNE DR","address2": "","city": "WINTERSET","state": "IA","zip": "50273","zip+4": "0000","phone": "5154622880"}
{"name": "WAL-MART PHARMACY #100886","address1": "3036 1ST AVE. SOUTH","address2": "","city": "FT DODGE","state": "IA","zip": "50501","zip+4": "0000","phone": "5155767405"}
{"name": "WAL-MART PHARMACY #100892","address1": "1002 SE NATIONAL DR","address2": "","city": "ANKENY","state": "IA","zip": "50021","zip+4": "0000","phone": "5159643992"}
{"name": "DAHLS PHARMACY","address1": "15500 HICKMAN RD","address2": "","city": "CLIVE","state": "IA","zip": "50325","zip+4": "0000","phone": "5159870377"}
{"name": "WALGREEN DRUG STORE #09476","address1": "201 S CENTRAL AVE","address2": "","city": "BURLINGTON","state": "IA","zip": "52601","zip+4": "0000","phone": "3197531639"}
{"name": "WALGREEN DRUG STORE #5044","address1": "3245 AGENCY ST","address2": "","city": "BURLINGTON","state": "IA","zip": "52601","zip+4": "0000","phone": "3197589888"}
{"name": "WAL-MART PHARMACY #100913","address1": "1798 OLD STAGE ROAD","address2": "","city": "DECORAH","state": "IA","zip": "52101","zip+4": "0000","phone": "5633828456"}
{"name": "ECONOFOODS PHARMACY #471","address1": "3355 JFK CIRCLE","address2": "","city": "DUBUQUE","state": "IA","zip": "52002","zip+4": "0000","phone": "5635821724"}
{"name": "HY VEE DRUGSTORE #7045","address1": "100 NORTH WILSON","address2": "","city": "JEFFERSON","state": "IA","zip": "50129","zip+4": "0000","phone": "5153864152"}
{"name": "RYAN PHARMACY","address1": "1100 1ST ST E","address2": "","city": "INDEPENDENCE","state": "IA","zip": "50644","zip+4": "0000","phone": "3193347171"}
{"name": "KMART PHARMACY #4018","address1": "2600 DODGE STREET","address2": "","city": "DUBUQUE","state": "IA","zip": "52002","zip+4": "0000","phone": "5635889097"}
{"name": "MEDICAP PHARMACY #8065","address1": "303 2ND AVE SW","address2": "","city": "CRESCO","state": "IA","zip": "52136","zip+4": "0000","phone": "5635475111"}
{"name": "WAL-MART PHARMACY #100985","address1": "1800 W BURLINGTON AVE","address2": "","city": "FAIRFIELD","state": "IA","zip": "52556","zip+4": "0000","phone": "6414726199"}
{"name": "WALGREEN DRUG STORE #5306","address1": "301 W BENNETT AVE","address2": "","city": "COUNCIL BLUFFS","state": "IA","zip": "51503","zip+4": "0000","phone": "7123250600"}
{"name": "HY VEE DRUGSTORE 4 #7025","address1": "4825 JOHNSON AVENUE NW","address2": "","city": "CEDAR RAPIDS","state": "IA","zip": "52405","zip+4": "0000","phone": "3193967419"}
{"name": "COMMUNITY PHARMACY #1","address1": "1321 W MAIN ST","address2": "","city": "LAKE CITY","state": "IA","zip": "51449","zip+4": "7704","phone": "7124647281"}
{"name": "COMMUNITY PHARMACY #2","address1": "1800 MAIN ST","address2": "","city": "GOWRIE","state": "IA","zip": "50543","zip+4": "0109","phone": "5153523876"}
{"name": "MOSER FAMILY PHARMACY #1","address1": "135 N MAIN","address2": "","city": "ELKADER","state": "IA","zip": "52043","zip+4": "0000","phone": "5632452530"}
{"name": "WAL-MART PHARMACY #101005","address1": "2700 4TH STREET SW","address2": "","city": "WAVERLY","state": "IA","zip": "50677","zip+4": "0000","phone": "3193522735"}
{"name": "WALGREEN DRUG STORE #7833","address1": "3501 INGERSOLL AVE","address2": "","city": "DES MOINES","state": "IA","zip": "50312","zip+4": "0000","phone": "5152715031"}
{"name": "FIRST MED PHARMACY","address1": "1227 E RUSHOLME ST","address2": "","city": "DAVENPORT","state": "IA","zip": "52803","zip+4": "2459","phone": "5634216366"}
{"name": "COMMUNITY PHARMACY #3","address1": "1160 3RD ST","address2": "","city": "LAKE VIEW","state": "IA","zip": "51450","zip+4": "0000","phone": "7126578554"}
{"name": "GREENWOOD DRUG INC","address1": "224 BYRON AVE","address2": "","city": "WATERLOO","state": "IA","zip": "50702","zip+4": "3796","phone": "3192341589"}
{"name": "WAL-MART PHARMACY #101152","address1": "255 16TH ST SW","address2": "","city": "SIOUX CENTER","state": "IA","zip": "51250","zip+4": "0000","phone": "7127222326"}
{"name": "MEDICAP PHARMACY #8075","address1": "2201 W BROADWAY","address2": "BAY 8","city": "COUNCIL BLUFFS","state": "IA","zip": "51501","zip+4": "0000","phone": "7123258676"}
{"name": "HY VEE PHARMACY 2 #1106","address1": "2200 W KIMBERLY ROAD","address2": "","city": "DAVENPORT","state": "IA","zip": "52806","zip+4": "0000","phone": "5633911543"}
{"name": "MANNING PHARMACY INC","address1": "317 MAIN ST","address2": "","city": "MANNING","state": "IA","zip": "51455","zip+4": "1030","phone": "7126559490"}
{"name": "WALGREEN DRUG STORE #7454","address1": "901 N ANKENY BLVD","address2": "","city": "ANKENY","state": "IA","zip": "50023","zip+4": "0000","phone": "5159647148"}
{"name": "WAL-MART PHARMACY #101285","address1": "1940 VENTURE DRIVE","address2": "","city": "OTTUMWA","state": "IA","zip": "52501","zip+4": "0000","phone": "6416831357"}
{"name": "WAL-MART PHARMACY #101241","address1": "5811 ELMORE AVENUE","address2": "","city": "DAVENPORT","state": "IA","zip": "52807","zip+4": "0000","phone": "5633594874"}
{"name": "COMMUNITY PHARMACY #4","address1": "507 E LAKE ST","address2": "","city": "ROCKWELL CITY","state": "IA","zip": "50579","zip+4": "1407","phone": "7122977337"}
{"name": "PETERSON PHARMACY","address1": "104 E WASHINGTON ST","address2": "","city": "MARENGO","state": "IA","zip": "52301","zip+4": "1545","phone": "3196423312"}
{"name": "LIBERTY PHARMACY","address1": "555 W CHERRY ST","address2": "","city": "NORTH LIBERTY","state": "IA","zip": "52317","zip+4": "0000","phone": "3196266188"}
{"name": "WAL-MART PHARMACY #101361","address1": "3400 SINGING HILLS BLVD","address2": "","city": "SIOUX CITY","state": "IA","zip": "51106","zip+4": "0000","phone": "7122524905"}
{"name": "WAL-MART PHARMACY #101393","address1": "2203 AVENUE A WEST","address2": "","city": "OSKALOOSA","state": "IA","zip": "52577","zip+4": "0000","phone": "6416736811"}
{"name": "WAL-MART PHARMACY #101435","address1": "806 LAUREL ST.","address2": "","city": "CRESTON","state": "IA","zip": "50801","zip+4": "0000","phone": "6417826951"}
{"name": "WAL-MART PHARMACY #101415","address1": "2200 17TH ST.","address2": "","city": "SPIRIT LAKE","state": "IA","zip": "51360","zip+4": "0000","phone": "7123361756"}
{"name": "WAL-MART PHARMACY #101431","address1": "300 NO. PARK DRIVE","address2": "","city": "KEOKUK","state": "IA","zip": "52632","zip+4": "0000","phone": "3195244071"}
{"name": "WAL-MART PHARMACY #101389","address1": "1815 SOUTH STORY","address2": "","city": "BOONE","state": "IA","zip": "50036","zip+4": "0000","phone": "5154323484"}
{"name": "WAL-MART PHARMACY #101526","address1": "1831 LAKE AVENUE","address2": "","city": "STORM LAKE","state": "IA","zip": "50588","zip+4": "0000","phone": "7127327960"}
{"name": "WAL-MART PHARMACY #101475","address1": "530 HWY 1 SOUTH","address2": "","city": "WASHINGTON","state": "IA","zip": "52353","zip+4": "0000","phone": "3196537218"}
{"name": "WALGREEN DRUG STORE #7452","address1": "4415 DOUGLAS AVE","address2": "","city": "DES MOINES","state": "IA","zip": "50310","zip+4": "0000","phone": "5152794405"}
{"name": "CENTRAL CITY FAMILY PHARMACY #","address1": "402 MAIN ST","address2": "","city": "CENTRAL CITY","state": "IA","zip": "52214","zip+4": "0000","phone": "3194381988"}
{"name": "WAL-MART PHARMACY #101491","address1": "1500 NORTH JEFFERSON","address2": "","city": "INDIANOLA","state": "IA","zip": "50125","zip+4": "0000","phone": "5159618960"}
{"name": "WAL-MART PHARMACY #101496","address1": "1334 FLAMMANG DRIVE","address2": "","city": "WATERLOO","state": "IA","zip": "50702","zip+4": "0000","phone": "3192323514"}
{"name": "WAL-MART PHARMACY #101506","address1": "1220 WEST MAIN","address2": "","city": "MANCHESTER","state": "IA","zip": "52057","zip+4": "0000","phone": "5639274988"}
{"name": "WAL-MART PHARMACY #101509","address1": "103 E CARLISLE","address2": "","city": "MAQUOKETA","state": "IA","zip": "52060","zip+4": "0000","phone": "5636526733"}
{"name": "HERITAGE FAMILY PHARMACY","address1": "1201 W AGENCY","address2": "","city": "WEST BURLINGTON","state": "IA","zip": "52655","zip+4": "0000","phone": "3197533681"}
{"name": "WAL-MART PHARMACY #101528","address1": "2645 BLAIRS FERRY RD","address2": "","city": "CEDAR RAPIDS","state": "IA","zip": "52402","zip+4": "0000","phone": "3193932110"}
{"name": "WAL-MART PHARMACY #101546","address1": "840 S OAK","address2": "","city": "IOWA FALLS","state": "IA","zip": "50126","zip+4": "0000","phone": "6416485109"}
{"name": "MEDICAL PLAZA PHARMACY INC","address1": "540 E JEFFERSON ST","address2": "SUITE 104","city": "IOWA CITY","state": "IA","zip": "52245","zip+4": "2462","phone": "3193373966"}
{"name": "WAL-MART PHARMACY #101621","address1": "1101 NORTH 18TH STREET","address2": "","city": "CENTERVILLE","state": "IA","zip": "52544","zip+4": "0000","phone": "6414377185"}
{"name": "WAL-MART PHARMACY #101625","address1": "1111 HOLTON DRIVE","address2": "","city": "LE MARS","state": "IA","zip": "51031","zip+4": "0000","phone": "7125465150"}
{"name": "WALGREEN DRUG STORE #6678","address1": "1999 GRAND AVE","address2": "","city": "WEST DES MOINES","state": "IA","zip": "50265","zip+4": "0000","phone": "5152221543"}
{"name": "FEDDERS PHARMACY","address1": "52 MAIN AVE N","address2": "","city": "BRITT","state": "IA","zip": "50423","zip+4": "1698","phone": "6418433885"}
{"name": "HY VEE PHARMACY 2 #1138","address1": "2540 E EUCLID AVENUE","address2": "","city": "DES MOINES","state": "IA","zip": "50317","zip+4": "0000","phone": "5152622108"}
{"name": "ELK HORN PHARMACY INC","address1": "4022 MAIN ST BOX 355","address2": "","city": "ELK HORN","state": "IA","zip": "51531","zip+4": "0000","phone": "7127642334"}
{"name": "MEDICAP PHARMACY #8052","address1": "1300 E 14TH","address2": "","city": "DES MOINES","state": "IA","zip": "50316","zip+4": "0000","phone": "5152631782"}
{"name": "THE PRESCRIPTION SHOPPE","address1": "212 4TH ST SE","address2": "","city": "DYERSVILLE","state": "IA","zip": "52040","zip+4": "1814","phone": "5638757455"}
{"name": "KMART PHARMACY #9220","address1": "1501 HIGHWAY 169N","address2": "","city": "ALGONA","state": "IA","zip": "50511","zip+4": "0000","phone": "5152957704"}
{"name": "WAL-MART PHARMACY #101683","address1": "524 S FREMONT","address2": "","city": "SHENANDOAH","state": "IA","zip": "51601","zip+4": "0000","phone": "7122464033"}
{"name": "HY VEE PHARMACY #1010","address1": "1500 HIGHWAY 169 NORTH","address2": "","city": "ALGONA","state": "IA","zip": "50511","zip+4": "0000","phone": "5152959238"}
{"name": "ELDORA PRESCRIPTION PHARMACY","address1": "1274 EDGINGTON AVE","address2": "","city": "ELDORA","state": "IA","zip": "50627","zip+4": "1739","phone": "6419393091"}
{"name": "WAL-MART PHARMACY #101721","address1": "1001 HWY 1 WEST","address2": "","city": "IOWA CITY","state": "IA","zip": "52246","zip+4": "0000","phone": "3193378862"}
{"name": "WAL-MART PHARMACY #101732","address1": "404 ARROWHEAD","address2": "","city": "DENISON","state": "IA","zip": "51442","zip+4": "0000","phone": "7122632012"}
{"name": "WALGREEN DRUG STORE #2637","address1": "2501 GRAND AVENUE","address2": "","city": "AMES","state": "IA","zip": "50010","zip+4": "0000","phone": "5152328276"}
{"name": "MERCY FAMILY PHARMACY","address1": "1111 3RD ST SW","address2": "","city": "DYERSVILLE","state": "IA","zip": "52040","zip+4": "0000","phone": "5638757624"}
{"name": "WAL-MART PHARMACY #101723","address1": "5101 SE 14TH STREET","address2": "","city": "DES MOINES","state": "IA","zip": "50320","zip+4": "0000","phone": "5152877748"}
{"name": "HY VEE DRUGSTORE CLINIC #7008","address1": "1541 SOUTH 3RD SUITE 100","address2": "","city": "GRIMES","state": "IA","zip": "50111","zip+4": "0000","phone": "5159864527"}
{"name": "HY VEE PHARMACY 6 #1063","address1": "4035 MT VERNON ROAD","address2": "","city": "CEDAR RAPIDS","state": "IA","zip": "52403","zip+4": "0000","phone": "3193627900"}
{"name": "HY VEE PHARMACY 4 #1148","address1": "4605 FLEUR DR","address2": "","city": "DES MOINES","state": "IA","zip": "50321","zip+4": "0000","phone": "5152857133"}
{"name": "HY VEE PHARMACY #1396","address1": "3600 BUSINESS HWY 151","address2": "","city": "MARION","state": "IA","zip": "52302","zip+4": "0000","phone": "3193777216"}
{"name": "WAL-MART PHARMACY #101764","address1": "1001 73RD STREET","address2": "","city": "DES MOINES","state": "IA","zip": "50311","zip+4": "0000","phone": "5152746359"}
{"name": "PHARMACY CARE CENTRE","address1": "1791 HWY 64 EAST","address2": "STE 1","city": "ANAMOSA","state": "IA","zip": "52205","zip+4": "0000","phone": "3194623306"}
{"name": "HARTIG DRUG CO #8","address1": "1600 UNIVERSITY AVE","address2": "","city": "DUBUQUE","state": "IA","zip": "52001","zip+4": "0000","phone": "5635888708"}
{"name": "MAIN HEALTHCARE PHARMACY","address1": "2151 KIMBERLY RD","address2": "","city": "BETTENDORF","state": "IA","zip": "52722","zip+4": "0000","phone": "5633245004"}
{"name": "WAL-MART PHARMACY #101787","address1": "2014 KITTY HAWK AVE","address2": "","city": "CARROLL","state": "IA","zip": "51401","zip+4": "0000","phone": "7127923033"}
{"name": "KMART PHARMACY #3585","address1": "715 US HIGHWAY 30 WEST","address2": "","city": "CARROLL","state": "IA","zip": "51401","zip+4": "0000","phone": "7127925835"}
{"name": "WAL-MART PHARMACY #100581","address1": "2802 S CENTER STREET","address2": "","city": "MARSHALLTOWN","state": "IA","zip": "50158","zip+4": "0000","phone": "6417533204"}
{"name": "PHARMACY CARE ASSOCIATES","address1": "5801 16TH AVE SW","address2": "","city": "CEDAR RAPIDS","state": "IA","zip": "52404","zip+4": "0000","phone": "3193632398"}
{"name": "MERCY CAREMOR","address1": "535 HILL ST","address2": "STE B","city": "DUBUQUE","state": "IA","zip": "52001","zip+4": "0000","phone": "5635884033"}
{"name": "MEDICAL PHARMACY","address1": "1030 5TH AVE SE","address2": "","city": "CEDAR RAPIDS","state": "IA","zip": "52403","zip+4": "2467","phone": "3193628976"}
{"name": "STONER DRUG #3","address1": "712 MAIN ST","address2": "","city": "TABOR","state": "IA","zip": "51653","zip+4": "0097","phone": "7126292945"}
{"name": "HY VEE PHARMACY 4 #1869","address1": "4000 UNIVERSITY AVENUE","address2": "","city": "WATERLOO","state": "IA","zip": "50701","zip+4": "0000","phone": "3192361786"}
{"name": "HY VEE PHARMACY 3 #1866","address1": "1422 FLAMMANG","address2": "","city": "WATERLOO","state": "IA","zip": "50702","zip+4": "0000","phone": "3192341774"}
{"name": "HY VEE PHARMACY 2 #1614","address1": "4500 SERGEANT ROAD","address2": "","city": "SIOUX CITY","state": "IA","zip": "51106","zip+4": "0000","phone": "7122742949"}
{"name": "HY VEE PHARMACY #1022","address1": "410 N ANKENY BLVD","address2": "","city": "ANKENY","state": "IA","zip": "50021","zip+4": "0000","phone": "5159649464"}
{"name": "WALGREEN DRUG STORE #7453","address1": "104 E EUCLID","address2": "","city": "DES MOINES","state": "IA","zip": "50313","zip+4": "0000","phone": "5152438661"}
{"name": "SUPER SAVER PHARMACY #12","address1": "1141 N BROADWAY","address2": "","city": "COUNCIL BLUFFS","state": "IA","zip": "51503","zip+4": "0000","phone": "7123229019"}
{"name": "DAHLS PHARMACY","address1": "5003 EP TRUE PKWY","address2": "","city": "WEST DES MOINES","state": "IA","zip": "50265","zip+4": "2852","phone": "5152242111"}
{"name": "MAHASKA DRUGS INC","address1": "205 NORTH E ST","address2": "","city": "OSKALOOSA","state": "IA","zip": "52577","zip+4": "2000","phone": "6416733439"}
{"name": "HY VEE PHARMACY #1247","address1": "611 TENTH AVENUE N","address2": "","city": "HUMBOLDT","state": "IA","zip": "50548","zip+4": "0000","phone": "5153325082"}
{"name": "THE PRESCRIPTION SHOPPE","address1": "304 E 1ST ST","address2": "","city": "MONTICELLO","state": "IA","zip": "52310","zip+4": "1503","phone": "3194654404"}
{"name": "PAMIDA PHARMACY #336","address1": "1501 PARK ST","address2": "","city": "SHELDON","state": "IA","zip": "51201","zip+4": "1304","phone": "7123243552"}
{"name": "ROCKWELL COLLINS PHARMACY","address1": "5070 ROCKWELL DR NE","address2": "","city": "CEDAR RAPIDS","state": "IA","zip": "52402","zip+4": "0000","phone": "3192959365"}
{"name": "WAL-MART PHARMACY #101965","address1": "3201 MANAWA DR","address2": "","city": "COUNCIL BLUFFS","state": "IA","zip": "51503","zip+4": "0000","phone": "7123661315"}
{"name": "HY VEE PHARMACY #1080","address1": "HWY 6 WEST 2000 8TH STREET","address2": "LANTERN PARK PLAZA","city": "CORALVILLE","state": "IA","zip": "52241","zip+4": "0000","phone": "3193513880"}
{"name": "HY VEE PHARMACY #1074","address1": "901 KELLY STREET","address2": "","city": "CHARLES CITY","state": "IA","zip": "50616","zip+4": "0000","phone": "6412281222"}
{"name": "WAL-MART PHARMACY #102004","address1": "4200 DODGE STREET","address2": "","city": "DUBUQUE","state": "IA","zip": "52003","zip+4": "0000","phone": "5635821519"}
{"name": "AMICARE PHARMACY INC","address1": "1015 S HACKETT RD","address2": "","city": "WATERLOO","state": "IA","zip": "50701","zip+4": "0000","phone": "3192926600"}
{"name": "PARKVIEW HEALTHMART PHARMACY","address1": "1727 SOUTH B AVE","address2": "","city": "NEVADA","state": "IA","zip": "50201","zip+4": "0000","phone": "5153822134"}
{"name": "HY VEE PHARMACY #1403","address1": "802 SOUTH CENTER STREET","address2": "","city": "MARSHALLTOWN","state": "IA","zip": "50158","zip+4": "0000","phone": "6417522266"}
{"name": "HY VEE PHARMACY #1052","address1": "A 3 COLLEGE SQUARE MALL","address2": "","city": "CEDAR FALLS","state": "IA","zip": "50613","zip+4": "0000","phone": "3192669874"}
{"name": "HY VEE PHARMACY 2 #1055","address1": "279 COLLINS ROAD NE","address2": "","city": "CEDAR RAPIDS","state": "IA","zip": "52402","zip+4": "0000","phone": "3193934480"}
{"name": "HY VEE DRUGSTORE 5 #7026","address1": "2001 BLAIRS FERRY ROAD NE","address2": "","city": "CEDAR RAPIDS","state": "IA","zip": "52402","zip+4": "0000","phone": "3193930561"}
{"name": "AMICARE PHARMACY INC","address1": "3740 UTICA RIDGE RD","address2": "","city": "BETTENDORF","state": "IA","zip": "52722","zip+4": "0000","phone": "5633447450"}
{"name": "SIOUXLAND COMMUNITY HEALTH CEN","address1": "1021 NEBRASKA ST","address2": "","city": "SIOUX CITY","state": "IA","zip": "51102","zip+4": "0000","phone": "7122554204"}
{"name": "HY VEE PHARMACY #1037","address1": "2900 DEVILS GLEN ROAD","address2": "","city": "BETTENDORF","state": "IA","zip": "52722","zip+4": "0000","phone": "5633322983"}
{"name": "WALGREEN DRUG STORE #3590","address1": "3910 UNIVERSITY AVE","address2": "","city": "WATERLOO","state": "IA","zip": "50701","zip+4": "0000","phone": "3192369924"}
{"name": "CORAM SPECIALTY INFUSION SERVI","address1": "3513 VINE COURT","address2": "","city": "DAVENPORT","state": "IA","zip": "52806","zip+4": "0000","phone": "5633863220"}
{"name": "HY VEE DRUGSTORE #7007","address1": "500 MAIN STREET","address2": "SUITE A","city": "AMES","state": "IA","zip": "50010","zip+4": "0000","phone": "5152339858"}
{"name": "IOWA PHARMACEUTICAL SERVICES L","address1": "525 TENTH STREET SE","address2": "","city": "CEDAR RAPIDS","state": "IA","zip": "52403","zip+4": "0000","phone": "3193662236"}
{"name": "HY VEE PHARMACY #1054","address1": "1843 JOHNSON AVENUE NE","address2": "","city": "CEDAR RAPIDS","state": "IA","zip": "52405","zip+4": "0000","phone": "3193655343"}
{"name": "MASSENA CLINIC PHARMACY","address1": "92 MAIN ST","address2": "","city": "MASSENA","state": "IA","zip": "50853","zip+4": "0000","phone": "7127792266"}
{"name": "THE RICEVILLE PHARMACY","address1": "120 W MAIN ST","address2": "","city": "RICEVILLE","state": "IA","zip": "50466","zip+4": "0000","phone": "6419854114"}
{"name": "KMART PHARMACY #3971","address1": "1405 BUCKEYE AVENUE","address2": "","city": "AMES","state": "IA","zip": "50010","zip+4": "0000","phone": "5152328414"}
{"name": "TARGET PHARMACY #0804","address1": "3450 4TH STREET S W","address2": "","city": "MASON CITY","state": "IA","zip": "50401","zip+4": "0000","phone": "6414231325"}
{"name": "KMART PHARMACY #7767","address1": "1405 S GRAND","address2": "","city": "CHARLES CITY","state": "IA","zip": "50616","zip+4": "0000","phone": "6412287940"}
{"name": "WALGREEN DRUG STORE #3773","address1": "4600 86TH STREET","address2": "","city": "URBANDALE","state": "IA","zip": "50322","zip+4": "0000","phone": "5152527076"}
{"name": "OMNICARE OF THE QUAD CITIES","address1": "127 W 76TH ST","address2": "","city": "DAVENPORT","state": "IA","zip": "52806","zip+4": "0000","phone": "5633881887"}
{"name": "PAMIDA PHARMACY #355","address1": "402 E HIGHWAY 92","address2": "","city": "WINTERSET","state": "IA","zip": "50273","zip+4": "2416","phone": "5154622192"}
{"name": "TARGET PHARMACY #0533","address1": "5225 ELMORE AVENUE","address2": "","city": "DAVENPORT","state": "IA","zip": "52807","zip+4": "0000","phone": "5633449629"}
{"name": "MARION FAMILY PHARMACY #2","address1": "3701 KATZ DR","address2": "","city": "MARION","state": "IA","zip": "52302","zip+4": "3871","phone": "3193778709"}
{"name": "WAL-MART PHARMACY #100753","address1": "525 BRANDILYNN BLVD","address2": "","city": "CEDAR FALLS","state": "IA","zip": "50613","zip+4": "0000","phone": "3192777793"}
{"name": "HY VEE PHARMACY 3 #1107","address1": "1823 EAST KIMBERLY","address2": "","city": "DAVENPORT","state": "IA","zip": "52807","zip+4": "0000","phone": "5633595313"}
{"name": "BLAIRS FERRY FAMILY PHARMACY #","address1": "1790 BLAIRS FERRY RD","address2": "","city": "HIAWATHA","state": "IA","zip": "52233","zip+4": "0000","phone": "3193934944"}
{"name": "ALLEN CLINIC PHARMACY","address1": "146 W DALE ST","address2": "SUITE 103","city": "WATERLOO","state": "IA","zip": "50703","zip+4": "0000","phone": "3192353777"}
{"name": "MERCY FAMILY PHARMACY WEST","address1": "1500 ASSOCIATES DR","address2": "","city": "DUBUQUE","state": "IA","zip": "52002","zip+4": "2260","phone": "5635844405"}
{"name": "HY VEE PHARMACY #1437","address1": "2400 2ND AVENUE","address2": "","city": "MUSCATINE","state": "IA","zip": "52761","zip+4": "0000","phone": "5632645810"}
{"name": "HY VEE PHARMACY #1192","address1": "115 S 29TH STREET","address2": "","city": "FT DODGE","state": "IA","zip": "50501","zip+4": "0000","phone": "5155765320"}
{"name": "HY VEE DRUGSTORE #7060","address1": "510 E SIXTH STREET","address2": "","city": "MUSCATINE","state": "IA","zip": "52761","zip+4": "0000","phone": "5632636461"}
{"name": "HY VEE DRUGSTORE #7034","address1": "507 W BURLINGTON AVENUE","address2": "","city": "FAIRFIELD","state": "IA","zip": "52556","zip+4": "0000","phone": "6414733542"}
{"name": "HY VEE PHARMACY #1159","address1": "3500 DODGE STREET","address2": "","city": "DUBUQUE","state": "IA","zip": "52003","zip+4": "0000","phone": "5635833858"}
{"name": "WAL-MART PHARMACY #100559","address1": "3003 NORTH HWY 61","address2": "","city": "MUSCATINE","state": "IA","zip": "52761","zip+4": "0000","phone": "5632623755"}
{"name": "HY VEE PHARMACY #1075","address1": "901 SOUTH 4TH STREET","address2": "","city": "CLINTON","state": "IA","zip": "52733","zip+4": "0000","phone": "5632436063"}
{"name": "HY VEE DRUGSTORE 6 #7019","address1": "505 BOYSON ROAD NE","address2": "","city": "CEDAR RAPIDS","state": "IA","zip": "52402","zip+4": "0000","phone": "3192948095"}
{"name": "HY VEE PHARMACY 2 #1285","address1": "812 SOUTH 1ST AVENUE","address2": "","city": "IOWA CITY","state": "IA","zip": "52245","zip+4": "0000","phone": "3193374279"}
{"name": "WALGREEN DRUG STORE #3875","address1": "2821 1ST AVE SE","address2": "","city": "CEDAR RAPIDS","state": "IA","zip": "52402","zip+4": "0000","phone": "3193656335"}
{"name": "HY VEE DRUGSTORE CLINIC #7055","address1": "303 NICHOLAS DRIVE","address2": "","city": "MARSHALLTOWN","state": "IA","zip": "50158","zip+4": "0000","phone": "6417524712"}
{"name": "HARTIG DRUG CO #10","address1": "701 MORMON TREK BLVD","address2": "","city": "IOWA CITY","state": "IA","zip": "52246","zip+4": "0000","phone": "3193385778"}
{"name": "WALGREEN DRUG STORE #3700","address1": "535 E BROADWAY","address2": "","city": "COUNCIL BLUFFS","state": "IA","zip": "51503","zip+4": "0000","phone": "7123290901"}
{"name": "KMART PHARMACY #3447","address1": "10331 UNIVERSITY AVENUE","address2": "","city": "CLIVE","state": "IA","zip": "50325","zip+4": "0868","phone": "5152252694"}
{"name": "HY VEE PHARMACY #1026","address1": "1630 E 7TH STREET","address2": "","city": "ATLANTIC","state": "IA","zip": "50022","zip+4": "0000","phone": "7122432240"}
{"name": "MEDICAP PHARMACY #8229","address1": "1224 10TH AVENUE","address2": "","city": "MANSON","state": "IA","zip": "50563","zip+4": "0000","phone": "7124692214"}
{"name": "NUCARA PHARMACY 14 CONRAD","address1": "118 CENTER STREET","address2": "","city": "CONRAD","state": "IA","zip": "50621","zip+4": "0000","phone": "6413662774"}
{"name": "FIRST MED PHARMACY","address1": "1803 E KIMBERLY RD","address2": "","city": "DAVENPORT","state": "IA","zip": "52807","zip+4": "0000","phone": "5634213308"}
{"name": "HY VEE PHARMACY #1895","address1": "7101 UNIVERSITY AVENUE","address2": "","city": "WINDSOR HEIGHTS","state": "IA","zip": "50311","zip+4": "0000","phone": "5152794408"}
{"name": "HY VEE PHARMACY 3 #1889","address1": "1725 JORDAN CREEK PARKWAY","address2": "","city": "WEST DES MOINES","state": "IA","zip": "50266","zip+4": "0000","phone": "5152268921"}
{"name": "MERCY FAMILY PHARMACY MERCY","address1": "250 MERCY DR","address2": "","city": "DUBUQUE","state": "IA","zip": "52001","zip+4": "0000","phone": "5635899370"}
{"name": "HY VEE PHARMACY #1628","address1": "1500 18TH STREET","address2": "","city": "SPIRIT LAKE","state": "IA","zip": "51360","zip+4": "0000","phone": "7123364551"}
{"name": "WALGREEN DRUG STORE #3876","address1": "1225 7TH AVE","address2": "","city": "MARION","state": "IA","zip": "52302","zip+4": "0000","phone": "3193735380"}
{"name": "UNITED MED PARK CLINIC PHARMAC","address1": "1731 W RIDGEWAY AVE","address2": "","city": "WATERLOO","state": "IA","zip": "50701","zip+4": "0000","phone": "3198335725"}
{"name": "HY VEE PHARMACY 2 #1018","address1": "640 LINCOLN WAY","address2": "","city": "AMES","state": "IA","zip": "50010","zip+4": "0000","phone": "5152335645"}
{"name": "OMNICARE OF URBANDALE","address1": "4621 121ST STREET","address2": "","city": "URBANDALE","state": "IA","zip": "50322","zip+4": "0000","phone": "5157278090"}
{"name": "HY VEE PHARMACY 3 #1615","address1": "3301 GORDON DRIVE","address2": "","city": "SIOUX CITY","state": "IA","zip": "51105","zip+4": "0000","phone": "7122341949"}
{"name": "MEDICAP PHARMACY #8230","address1": "1128 SUNSET DRIVE","address2": "","city": "NORWALK","state": "IA","zip": "50211","zip+4": "1340","phone": "5159810139"}
{"name": "HY VEE PHARMACY #1038","address1": "1111 8TH STREET","address2": "","city": "BOONE","state": "IA","zip": "50036","zip+4": "0000","phone": "5154321304"}
{"name": "SHOPKO PHARMACY #141","address1": "313 N ROOSEVELT AVE","address2": "","city": "BURLINGTON","state": "IA","zip": "52601","zip+4": "1757","phone": "3197589526"}
{"name": "SHOPKO PHARMACY #142","address1": "4810 AVENUE O","address2": "","city": "FORT MADISON","state": "IA","zip": "52627","zip+4": "9677","phone": "3193728629"}
{"name": "PAMIDA PHARMACY #375","address1": "616 E US HIGHWAY 9","address2": "","city": "FOREST CITY","state": "IA","zip": "50436","zip+4": "1012","phone": "6415822780"}
{"name": "PAMIDA PHARMACY #364","address1": "819 11TH AVE SW","address2": "","city": "WAUKON","state": "IA","zip": "52172","zip+4": "7593","phone": "5635683668"}
{"name": "KMART PHARMACY #9359","address1": "3808 BRADY STREET","address2": "","city": "DAVENPORT","state": "IA","zip": "52806","zip+4": "0000","phone": "5633918587"}
{"name": "MERCY FAMILY PHARMACY-CASCADE","address1": "805 JOHNSON ST SW","address2": "","city": "CASCADE","state": "IA","zip": "52033","zip+4": "0000","phone": "5638527757"}
{"name": "LEWIS FAMILY DRUG #55","address1": "703 WEST HIGHWAY 175","address2": "STE 2","city": "IDA GROVE","state": "IA","zip": "51445","zip+4": "0000","phone": "7123642120"}
{"name": "LEWIS FAMILY DRUG #59","address1": "143 SOUTH MAIN AVENUE","address2": "","city": "SIOUX CENTER","state": "IA","zip": "51250","zip+4": "0000","phone": "7127222704"}
{"name": "LEWIS FAMILY DRUG #61","address1": "106 NORTH BOONE","address2": "","city": "ROCK RAPIDS","state": "IA","zip": "51246","zip+4": "0000","phone": "7124724044"}
{"name": "LEWIS FAMILY DRUG #52","address1": "610 PARK STREET","address2": "","city": "SHELDON","state": "IA","zip": "51201","zip+4": "0000","phone": "7123244331"}
{"name": "LEWIS FAMILY DRUG #54","address1": "2308 17TH STREET","address2": "","city": "SPIRIT LAKE","state": "IA","zip": "51360","zip+4": "0000","phone": "7123364731"}
{"name": "HY VEE PHARMACY #1634","address1": "1250 N LAKE AVENUE","address2": "","city": "STORM LAKE","state": "IA","zip": "50588","zip+4": "0000","phone": "7127321364"}
{"name": "PAMIDA PHARMACY #379","address1": "1305 141ST ST","address2": "","city": "PERRY","state": "IA","zip": "50220","zip+4": "8128","phone": "5154655484"}
{"name": "LEWIS FAMILY DRUG #62","address1": "402 SOUTH 2ND AVENUE","address2": "","city": "ROCK RAPIDS","state": "IA","zip": "51246","zip+4": "0000","phone": "7124724220"}
{"name": "CENTER POINT FAMILY PHARMACY #","address1": "900 BANK CT","address2": "","city": "CENTER POINT","state": "IA","zip": "52213","zip+4": "0000","phone": "3198492799"}
{"name": "MEDICAP PHARMACY #8247","address1": "800 SCHOOL ST","address2": "","city": "CARLISLE","state": "IA","zip": "50047","zip+4": "0000","phone": "5159893261"}
{"name": "HERITAGE PARTNERS PHARMACY","address1": "1223 S GEAR AVE","address2": "SUITE 006","city": "WEST BURLINGTON","state": "IA","zip": "52655","zip+4": "1683","phone": "3197683960"}
{"name": "TARGET PHARMACY #1170","address1": "320 S DUFF AVE","address2": "","city": "AMES","state": "IA","zip": "50010","zip+4": "0000","phone": "5156639645"}
{"name": "WALGREEN DRUG STORE #5144","address1": "1905 N SECOND ST","address2": "","city": "CLINTON","state": "IA","zip": "52732","zip+4": "0000","phone": "5632432116"}
{"name": "HY VEE DRUGSTORE #7042","address1": "310 N 1ST AVENUE","address2": "","city": "IOWA CITY","state": "IA","zip": "52240","zip+4": "0000","phone": "3193512921"}
{"name": "SHOPKO PHARMACY #164","address1": "255 JOHN F KENNEDY RD","address2": "","city": "DUBUQUE","state": "IA","zip": "52002","zip+4": "5313","phone": "5635835808"}
{"name": "HY VEE PHARMACY #1058","address1": "609 N 18TH STREET","address2": "","city": "CENTERVILLE","state": "IA","zip": "52544","zip+4": "0000","phone": "6418563832"}
{"name": "WAL-MART PHARMACY #102716","address1": "3601 29TH AVENUE S.W.","address2": "","city": "CEDAR RAPIDS","state": "IA","zip": "52404","zip+4": "0000","phone": "3193909925"}
{"name": "WAL-MART PHARMACY #102714","address1": "500 11TH ST. S.W.","address2": "","city": "SPENCER","state": "IA","zip": "51301","zip+4": "0000","phone": "7122625011"}
{"name": "MEDICAP PHARMACY #8023","address1": "400 1ST AVE W","address2": "","city": "NEWTON","state": "IA","zip": "50208","zip+4": "0000","phone": "6417923528"}
{"name": "WALGREEN DRUG STORE #5060","address1": "12753 UNIVERSITY","address2": "","city": "CLIVE","state": "IA","zip": "50325","zip+4": "0000","phone": "5152261477"}
{"name": "WALGREEN DRUG STORE #5042","address1": "3325 16TH AVE SW","address2": "","city": "CEDAR RAPIDS","state": "IA","zip": "52404","zip+4": "0000","phone": "3192211911"}
{"name": "HY VEE PHARMACY #1324","address1": "3111 MAIN STREET","address2": "","city": "KEOKUK","state": "IA","zip": "52632","zip+4": "0000","phone": "3195249535"}
{"name": "WALGREEN DRUG STORE #5362","address1": "1330 E UNIVERSITY","address2": "","city": "DES MOINES","state": "IA","zip": "50316","zip+4": "0000","phone": "5152999798"}
{"name": "MEDICAP PHARMACY #8269","address1": "504 14TH STREET","address2": "","city": "DALLAS CENTER","state": "IA","zip": "50063","zip+4": "0000","phone": "5159923784"}
{"name": "THRIFTY WHITE DRUG #49","address1": "909 WILLSON AVENUE","address2": "","city": "WEBSTER CITY","state": "IA","zip": "50595","zip+4": "0000","phone": "5158324137"}
{"name": "HY VEE PHARMACY #1271","address1": "910 N JEFFERSON","address2": "","city": "INDIANOLA","state": "IA","zip": "50125","zip+4": "0000","phone": "5159629444"}
{"name": "MEDICAP PHARMACY #8259","address1": "103 E 18TH ST","address2": "","city": "CEDAR FALLS","state": "IA","zip": "50613","zip+4": "0000","phone": "3192771829"}
{"name": "WHITING FAMILY PHARMACY","address1": "723 WHITTIER ST","address2": "","city": "WHITING","state": "IA","zip": "51063","zip+4": "0000","phone": "7124582500"}
{"name": "MEDICAP PHARMACY #8256","address1": "10 WARRIOR LN","address2": "","city": "WAUKEE","state": "IA","zip": "50263","zip+4": "0000","phone": "5159878111"}
{"name": "HY VEE PHARMACY #1850","address1": "528 S HWY 1","address2": "","city": "WASHINGTON","state": "IA","zip": "52353","zip+4": "0000","phone": "3196532155"}
{"name": "HY VEE PHARMACY #1051","address1": "905 US HIGHWAY 30 WEST","address2": "","city": "CARROLL","state": "IA","zip": "51401","zip+4": "0000","phone": "7127929093"}
{"name": "WALGREEN DRUG STORE #5470","address1": "4650 MORNINGSIDE AVE","address2": "","city": "SIOUX CITY","state": "IA","zip": "51106","zip+4": "0000","phone": "7122763100"}
{"name": "MED EQUIP HOMECARE PHARMACY #3","address1": "141 S CENTRAL AVE","address2": "","city": "HARTLEY","state": "IA","zip": "51346","zip+4": "0000","phone": "7127282165"}
{"name": "HY VEE DRUGSTORE #7070","address1": "2627 PIERCE STREET","address2": "","city": "SIOUX CITY","state": "IA","zip": "51104","zip+4": "0000","phone": "7122580117"}
{"name": "HY VEE PHARMACY 2 #1160","address1": "2395 NW ARTERIAL","address2": "","city": "DUBUQUE","state": "IA","zip": "52002","zip+4": "0000","phone": "5635823436"}
{"name": "HY VEE PHARMACY #1202","address1": "2606 AVENUE L","address2": "","city": "FT MADISON","state": "IA","zip": "52627","zip+4": "0000","phone": "3193729396"}
{"name": "WAL-MART PHARMACY #102764","address1": "3501 8TH STREET S.W.","address2": "","city": "ALTOONA","state": "IA","zip": "50009","zip+4": "0000","phone": "5159671794"}
{"name": "WALGREEN DRUG STORE #5512","address1": "3425 MIDDLE RD","address2": "","city": "BETTENDORF","state": "IA","zip": "52722","zip+4": "0000","phone": "5633326155"}
{"name": "HY VEE PHARMACY #1011","address1": "108 8TH STREET","address2": "","city": "ALTOONA","state": "IA","zip": "50009","zip+4": "0000","phone": "5159673765"}
{"name": "HY VEE PHARMACY 3 #1142","address1": "3221 SE 14TH STREET","address2": "","city": "DES MOINES","state": "IA","zip": "50320","zip+4": "0000","phone": "5152461390"}
{"name": "HY VEE PHARMACY #1353","address1": "809 WEST ROCK ISLAND STREET","address2": "","city": "KNOXVILLE","state": "IA","zip": "50138","zip+4": "0000","phone": "6418422512"}
{"name": "WAL-MART PHARMACY #102889","address1": "2715 S. 25TH ST.","address2": "","city": "CLINTON","state": "IA","zip": "52732","zip+4": "0000","phone": "5632430600"}
{"name": "HY VEE PHARMACY #1530","address1": "4815 MAPLE DRIVE","address2": "","city": "PLEASANT HILL","state": "IA","zip": "50327","zip+4": "0000","phone": "5152656144"}
{"name": "HY VEE DRUGSTORE #7031","address1": "4100 UNIVERSITY AVENUE","address2": "","city": "DES MOINES","state": "IA","zip": "50311","zip+4": "0000","phone": "5156338606"}
{"name": "MEDICAP PHARMACY #8240","address1": "325 8TH ST SE","address2": "","city": "ALTOONA","state": "IA","zip": "50009","zip+4": "0000","phone": "5159570001"}
{"name": "TARGET PHARMACY #1767","address1": "2135 SE DELAWARE AVE","address2": "","city": "ANKENY","state": "IA","zip": "50021","zip+4": "0000","phone": "5159647000"}
{"name": "CONTINUE CARE","address1": "2609 APACHE COURT","address2": "","city": "SIOUX CITY","state": "IA","zip": "51104","zip+4": "0000","phone": "7122242845"}
{"name": "WALGREEN DRUG STORE #5941","address1": "1251 4TH STREET SW","address2": "","city": "MASON CITY","state": "IA","zip": "50401","zip+4": "0000","phone": "6414231472"}
{"name": "WAL-MART PHARMACY #102935","address1": "814 WEST BELL AVENUE","address2": "","city": "KNOXVILLE","state": "IA","zip": "50138","zip+4": "0000","phone": "6418286183"}
{"name": "HY VEE PHARMACY #1318","address1": "5750 MERLE HAY ROAD","address2": "BOX 9","city": "JOHNSTON","state": "IA","zip": "50131","zip+4": "0000","phone": "5152709212"}
{"name": "WALGREEN DRUG STORE #5777","address1": "2930 E UNIVERSITY AVE","address2": "","city": "DES MOINES","state": "IA","zip": "50317","zip+4": "0000","phone": "5152995171"}
{"name": "TARGET PHARMACY #1771","address1": "3400 EDGEWOOD ROAD SW","address2": "","city": "CEDAR RAPIDS","state": "IA","zip": "52404","zip+4": "0000","phone": "3193964777"}
{"name": "DAHLS PHARMACY","address1": "5440 NW 86TH ST","address2": "","city": "JOHNSTON","state": "IA","zip": "50131","zip+4": "0000","phone": "5153310300"}
{"name": "WAL-MART PHARMACY #102827","address1": "2801 COMMERCE DRIVE","address2": "","city": "CORALVILLE","state": "IA","zip": "52241","zip+4": "0000","phone": "3195456412"}
{"name": "HY VEE PHARMACY #1410","address1": "2400 FOURTH STREET SW","address2": "","city": "MASON CITY","state": "IA","zip": "50401","zip+4": "0000","phone": "6414241343"}
{"name": "HY VEE PHARMACY 2 #1044","address1": "3140 AGENCY STREET","address2": "","city": "BURLINGTON","state": "IA","zip": "52601","zip+4": "0000","phone": "3197522773"}
{"name": "WALGREEN DRUG STORE #5943","address1": "1000 N JEFFERSON ST","address2": "","city": "INDIANOLA","state": "IA","zip": "50125","zip+4": "0000","phone": "5159612976"}
{"name": "WALGREEN DRUG STORE #5942","address1": "1204 1ST AVE E","address2": "","city": "NEWTON","state": "IA","zip": "50208","zip+4": "0000","phone": "6417926506"}
{"name": "MEDICAP PHARMACY #8282","address1": "600 SENATE AVE","address2": "","city": "RED OAK","state": "IA","zip": "51566","zip+4": "0000","phone": "7126231900"}
{"name": "HY VEE PHARMACY #1042","address1": "939 ANGULAR STREET","address2": "","city": "BURLINGTON","state": "IA","zip": "52601","zip+4": "0000","phone": "3197530112"}
{"name": "WALGREEN DRUG STORE #5852","address1": "3030 UNIVERSITY","address2": "","city": "DES MOINES","state": "IA","zip": "50311","zip+4": "0000","phone": "5152793004"}
{"name": "HY VEE PHARMACY #1544","address1": "1605 BROADWAY","address2": "BOX 45","city": "RED OAK","state": "IA","zip": "51566","zip+4": "0000","phone": "7126233370"}
{"name": "WALGREEN DRUG STORE #6154","address1": "2260 J F KENNEDY RD","address2": "","city": "DUBUQUE","state": "IA","zip": "52002","zip+4": "0000","phone": "5635821414"}
{"name": "WALGREEN DRUG STORE #5886","address1": "1215 MAIN ST","address2": "","city": "KEOKUK","state": "IA","zip": "52632","zip+4": "0000","phone": "3195240142"}
{"name": "PAMIDA PHARMACY #884","address1": "902 S LOCUST ST","address2": "","city": "GLENWOOD","state": "IA","zip": "51534","zip+4": "1834","phone": "7125279200"}
{"name": "HY VEE PHARMACY #1065","address1": "2001 WEST COURT","address2": "","city": "CHARITON","state": "IA","zip": "50049","zip+4": "0000","phone": "6417742111"}
{"name": "MERCY FAMILY PHARMACY-REGENCY","address1": "621 S ILLINOIS AVE STE 101","address2": "","city": "MASON CITY","state": "IA","zip": "50401","zip+4": "0000","phone": "6414226940"}
{"name": "MERCY LONG TERM CARE PHARMACY","address1": "621 S ILLINOIS AVE","address2": "STE 104","city": "MASON CITY","state": "IA","zip": "50401","zip+4": "0000","phone": "6414226944"}
{"name": "ANITA CLINIC PHARMACY","address1": "710 MAIN ST","address2": "","city": "ANITA","state": "IA","zip": "50020","zip+4": "1060","phone": "7127623945"}
{"name": "HY VEE DRUGSTORE CLINIC #7060","address1": "111 E WALNUT ST","address2": "","city": "COLUMBUS JUNCTION","state": "IA","zip": "52738","zip+4": "0000","phone": "3197283144"}
{"name": "WALGREEN DRUG STORE #5977","address1": "102 SECOND ST","address2": "","city": "CORALVILLE","state": "IA","zip": "52241","zip+4": "0000","phone": "3193415985"}
{"name": "HY VEE PHARMACY #1875","address1": "823 2ND STREET","address2": "","city": "WEBSTER CITY","state": "IA","zip": "50595","zip+4": "0000","phone": "5158324025"}
{"name": "HY VEE DRUGSTORE CLINIC #7060","address1": "312 N 2ND STREET","address2": "","city": "WAPELLO","state": "IA","zip": "52653","zip+4": "0000","phone": "3195233784"}
{"name": "TARGET PHARMACY #1791","address1": "11148 PLUM DRIVE","address2": "","city": "URBANDALE","state": "IA","zip": "50322","zip+4": "0000","phone": "5152706884"}
{"name": "TARGET PHARMACY #1792","address1": "1501 EAST SANMARNAN DRIVE","address2": "","city": "WATERLOO","state": "IA","zip": "50702","zip+4": "0000","phone": "3192266761"}
{"name": "PAMIDA PHARMACY #889","address1": "201 N FILLMORE ST","address2": "","city": "MOUNT AYR","state": "IA","zip": "50854","zip+4": "1627","phone": "6414644527"}
{"name": "HY VEE PHARMACY #1009","address1": "301 HWY 34 WEST","address2": "","city": "ALBIA","state": "IA","zip": "52531","zip+4": "0000","phone": "6419322188"}
{"name": "SAMS PHARMACY #106344","address1": "1101 73RD STREET","address2": "","city": "DES MOINES","state": "IA","zip": "50311","zip+4": "0000","phone": "5152749676"}
{"name": "WALGREEN DRUG STORE #6677","address1": "4900 MILLS CIVIC PKWY","address2": "","city": "WEST DES MOINES","state": "IA","zip": "50265","zip+4": "0000","phone": "5152238128"}
{"name": "MEDICAP PHARMACY #8318","address1": "250 SE GATEWAY DR","address2": "","city": "GRIMES","state": "IA","zip": "50111","zip+4": "2045","phone": "5159860101"}
{"name": "HY VEE DRUGSTORE CLINIC #7007","address1": "1215 DUFF AVENUE","address2": "","city": "AMES","state": "IA","zip": "50010","zip+4": "0000","phone": "5152327315"}
{"name": "WALGREEN DRUG STORE #5944","address1": "6200 MERLE HAY RD","address2": "","city": "JOHNSTON","state": "IA","zip": "50131","zip+4": "0000","phone": "5153311343"}
{"name": "WALGREEN DRUG STORE #6623","address1": "1660 22ND ST","address2": "","city": "WEST DES MOINES","state": "IA","zip": "50266","zip+4": "0000","phone": "5152239961"}
{"name": "CUSTOM CARE COMPOUNDING PHARMA","address1": "405 S CLARK ST","address2": "SUITE 150","city": "CARROLL","state": "IA","zip": "51401","zip+4": "0000","phone": "7127923212"}
{"name": "WALGREEN DRUG STORE #6186","address1": "4011 E 53RD ST","address2": "","city": "DAVENPORT","state": "IA","zip": "52807","zip+4": "0000","phone": "5633593267"}
{"name": "TARGET PHARMACY #1768","address1": "1030 BLAIRS FERRY RD NE","address2": "","city": "CEDAR RAPIDS","state": "IA","zip": "52402","zip+4": "0000","phone": "3193934348"}
{"name": "GRISWOLD CLINIC PHARMACY","address1": "1109 MORNINGSIDE DR","address2": "","city": "GRISWOLD","state": "IA","zip": "51535","zip+4": "0000","phone": "7127785145"}
{"name": "HY VEE PHARMACY #1636","address1": "819 GRAND AVE","address2": "","city": "SPENCER","state": "IA","zip": "51301","zip+4": "0000","phone": "7122625611"}
{"name": "HY VEE DRUGSTORE 2 #7082","address1": "1010 60TH STREET","address2": "","city": "WEST DES MOINES","state": "IA","zip": "50266","zip+4": "0000","phone": "5154401620"}
{"name": "HY VEE PHARMACY 4 #1060","address1": "1556 1ST AVENUE NE","address2": "","city": "CEDAR RAPIDS","state": "IA","zip": "52402","zip+4": "0000","phone": "3193662239"}
{"name": "HY VEE PHARMACY #1516","address1": "118 SE 9TH STREET","address2": "","city": "PELLA","state": "IA","zip": "50219","zip+4": "0000","phone": "6416281280"}
{"name": "PAMIDA PHARMACY #888","address1": "413 W HURON ST","address2": "","city": "MISSOURI VALLEY","state": "IA","zip": "51555","zip+4": "1436","phone": "7126422716"}
{"name": "PHILS PHARMACY","address1": "401 MAIN ST","address2": "","city": "REINBECK","state": "IA","zip": "50643","zip+4": "0000","phone": "3197887445"}
{"name": "HY VEE PHARMACY 2 #1505","address1": "2453 N COURT","address2": "","city": "OTTUMWA","state": "IA","zip": "52501","zip+4": "0000","phone": "6416841853"}
{"name": "MEDICAP PHARMACY #8015","address1": "107 NE DELAWARE AVE","address2": "STE 6","city": "ANKENY","state": "IA","zip": "50021","zip+4": "0000","phone": "5159648550"}
{"name": "TARGET PHARMACY #0086","address1": "3500 DODGE STREET","address2": "","city": "DUBUQUE","state": "IA","zip": "52003","zip+4": "0000","phone": "5635570304"}
{"name": "HY VEE PHARMACY #1504","address1": "1025 N QUINCY","address2": "","city": "OTTUMWA","state": "IA","zip": "52501","zip+4": "0000","phone": "6416834483"}
{"name": "ENGLAND MEDICAL CLINIC","address1": "506 MAIN ST","address2": "","city": "GRISWOLD","state": "IA","zip": "51535","zip+4": "0000","phone": "7127782395"}
{"name": "MERCY WEST PHARMACY","address1": "1601 NW 114TH ST","address2": "SUITE 234","city": "CLIVE","state": "IA","zip": "50325","zip+4": "0000","phone": "5152227979"}
{"name": "LOWDEN FAMILY MEDICAL CLINIC","address1": "305 MCKINLEY AVE","address2": "","city": "LOWDEN","state": "IA","zip": "52255","zip+4": "0000","phone": "5639445361"}
{"name": "LONE TREE FAMILY PRACTICE","address1": "109 W JAYNE STREET","address2": "","city": "LONE TREE","state": "IA","zip": "52755","zip+4": "0000","phone": "3196294214"}
{"name": "THRIFTY WHITE DRUG #56","address1": "1320 BROADWAY","address2": "","city": "DENISON","state": "IA","zip": "51442","zip+4": "0000","phone": "7122634646"}
{"name": "MEDICAP PHARMACY #8308","address1": "628 NILE KINNICK DR S","address2": "STE A","city": "ADEL","state": "IA","zip": "50003","zip+4": "0000","phone": "5159931119"}
{"name": "HY VEE PHARMACY 4 #1108","address1": "4064 EAST 53RD STREET","address2": "","city": "DAVENPORT","state": "IA","zip": "52807","zip+4": "0000","phone": "5633593120"}
{"name": "HY VEE DRUGSTORE CLINIC #7028","address1": "321 NORTH MAIN","address2": "","city": "MARCUS","state": "IA","zip": "51035","zip+4": "0000","phone": "7123762844"}
{"name": "HY VEE PHARMACY #1235","address1": "320 WEST STREET SOUTH","address2": "","city": "GRINNELL","state": "IA","zip": "50112","zip+4": "0000","phone": "6412364287"}
{"name": "HY VEE PHARMACY #1433","address1": "1700 E WASHINGTON STREET","address2": "","city": "MT PLEASANT","state": "IA","zip": "52641","zip+4": "0000","phone": "3199866979"}
{"name": "HY VEE CLINIC #1433","address1": "501 S WHITE","address2": "","city": "MT PLEASANT","state": "IA","zip": "52641","zip+4": "0000","phone": "3193856745"}
{"name": "PAMIDA PHARMACY #261","address1": "2099 CHATBURN AVE","address2": "","city": "HARLAN","state": "IA","zip": "51537","zip+4": "1845","phone": "7127551112"}
{"name": "WALGREEN DRUG STORE #7455","address1": "111 W RIDGEWAY AVENUE","address2": "","city": "WATERLOO","state": "IA","zip": "50701","zip+4": "0000","phone": "3194330488"}
{"name": "TARGET PHARMACY #1800","address1": "5775 SUNNYBROOK DR","address2": "","city": "SIOUX CITY","state": "IA","zip": "51106","zip+4": "0000","phone": "7122748854"}
{"name": "WAL-MART PHARMACY #103590","address1": "3101 FLOYD BLVD","address2": "","city": "SIOUX CITY","state": "IA","zip": "51108","zip+4": "0000","phone": "7122398913"}
{"name": "MEDICAP #8350","address1": "411 ANNEX ROAD","address2": "","city": "MADRID","state": "IA","zip": "50156","zip+4": "0000","phone": "5157954252"}
{"name": "HY VEE CLINIC #1022","address1": "301 S HWY 69","address2": "","city": "HUXLEY","state": "IA","zip": "50124","zip+4": "0000","phone": "5155974100"}
{"name": "MEDICAP PHARMACY #8095","address1": "1602 EDGINGTON AVE","address2": "","city": "ELDORA","state": "IA","zip": "50627","zip+4": "0000","phone": "6418583567"}
{"name": "MARTIN HEALTH SERVICES INC","address1": "700 S STATE ST","address2": "","city": "DENVER","state": "IA","zip": "50622","zip+4": "0000","phone": "3199845680"}
{"name": "MEDICAP PHARMACY #8347","address1": "2804 BEAVER AVENUE","address2": "","city": "DES MOINES","state": "IA","zip": "50310","zip+4": "0000","phone": "5152773702"}
{"name": "TARGET PHARMACY #0069","address1": "1800 VALLEY WEST DRIVE","address2": "","city": "WEST DES MOINES","state": "IA","zip": "50266","zip+4": "0000","phone": "5152253170"}
{"name": "PAMIDA PHARMACY #174","address1": "1006 S COUNTY RD","address2": "","city": "TOLEDO","state": "IA","zip": "52342","zip+4": "1062","phone": "6414848801"}
{"name": "NORTH SCOTT PHARMACY","address1": "225 E LECLAIRE RD","address2": "","city": "ELDRIDGE","state": "IA","zip": "52748","zip+4": "0000","phone": "5632852001"}
{"name": "PLAZA FAMILY PHARMACY #5","address1": "5264 COUNCIL ST NE","address2": "","city": "CEDAR RAPIDS","state": "IA","zip": "52402","zip+4": "0000","phone": "3192218861"}
{"name": "PAMIDA PHARMACY #85","address1": "1901 W COURT AVE","address2": "","city": "CHARITON","state": "IA","zip": "50049","zip+4": "1905","phone": "6417745505"}
{"name": "WAL-MART PHARMACY #105115","address1": "3101 WEST KIMBERLY ROAD","address2": "","city": "DAVENPORT","state": "IA","zip": "52806","zip+4": "0000","phone": "5634451098"}
{"name": "MEDICAP PHARMACY #8007","address1": "320 6TH AVE","address2": "","city": "GRINNELL","state": "IA","zip": "50112","zip+4": "1845","phone": "6412363663"}
{"name": "MEDICAP PHARMACY VITAL CARE #1","address1": "404 E EUCLID","address2": "","city": "INDIANOLA","state": "IA","zip": "50125","zip+4": "0000","phone": "5159622656"}
{"name": "HY VEE PHARMACY 5 #1109","address1": "2351 W LOCUST","address2": "","city": "DAVENPORT","state": "IA","zip": "52804","zip+4": "0000","phone": "5633243900"}
{"name": "SCOTT DRUG CLINIC PHARMACY","address1": "1021 11TH ST","address2": "","city": "DEWITT","state": "IA","zip": "52742","zip+4": "0000","phone": "5636598910"}
{"name": "UNION FAMILY PHARMACY","address1": "2541 CENTRAL AVE","address2": "","city": "DUBUQUE","state": "IA","zip": "52001","zip+4": "3305","phone": "5635561493"}
{"name": "WALGREEN DRUG STORE #7968","address1": "6200 SE 14TH ST","address2": "","city": "DES MOINES","state": "IA","zip": "50320","zip+4": "0000","phone": "5153095465"}
{"name": "HY VEE PHARMACY #1382","address1": "1201 12TH AVENUE SW","address2": "","city": "LEMARS","state": "IA","zip": "51031","zip+4": "0000","phone": "7125484503"}
{"name": "HY VEE PHARMACY #1481","address1": "110 S D STREET","address2": "","city": "OSKALOOSA","state": "IA","zip": "52577","zip+4": "0000","phone": "6416730259"}
{"name": "THRIFTY WHITE DRUG #64","address1": "2 NORTH 4TH STREET","address2": "","city": "CLEAR LAKE","state": "IA","zip": "50428","zip+4": "0000","phone": "6413575271"}
{"name": "PAMIDA PHARMACY #876","address1": "109 N MARKET ST","address2": "","city": "AUDUBON","state": "IA","zip": "50025","zip+4": "1173","phone": "7125633302"}
{"name": "HY VEE PHARMACY #1124","address1": "1426 BROADWAY","address2": "","city": "DENISON","state": "IA","zip": "51442","zip+4": "0000","phone": "7122636161"}
{"name": "PHILS PHARMACY II","address1": "101 EDDY STONE DR","address2": "","city": "HUDSON","state": "IA","zip": "50643","zip+4": "0000","phone": "3199883800"}
{"name": "HY VEE PHARMACY #1295","address1": "632 S OAK RIVER HILLS","address2": "","city": "IOWA FALLS","state": "IA","zip": "50126","zip+4": "0000","phone": "6416484255"}
{"name": "HY VEE PHARMACY #1095","address1": "600 SHELDON","address2": "","city": "CRESTON","state": "IA","zip": "50801","zip+4": "0000","phone": "6417828417"}
{"name": "TARGET PHARMACY #1901","address1": "5405 MILL CIVIC PARKWAY","address2": "","city": "WEST DES MOINES","state": "IA","zip": "50266","zip+4": "0000","phone": "5152233597"}
{"name": "WALGREEN DRUG STORE #1301","address1": "327 W 4TH ST","address2": "","city": "OTTUMWA","state": "IA","zip": "52501","zip+4": "0000","phone": "6412265074"}
{"name": "MEDICAP PHARMACY #8325","address1": "516 S OAK STREET","address2": "","city": "IOWA FALLS","state": "IA","zip": "50126","zip+4": "0000","phone": "6416484263"}
{"name": "HY VEE DRUGSTORE #7030","address1": "757 W BROADWAY","address2": "","city": "COUNCIL BLUFFS","state": "IA","zip": "51501","zip+4": "0000","phone": "7123283277"}
{"name": "TARGET PHARMACY #1939","address1": "3414 8TH ST SW","address2": "","city": "ALTOONA","state": "IA","zip": "50009","zip+4": "0000","phone": "5159671885"}
{"name": "WESTER DRUG INC","address1": "400 OVESEN RD","address2": "STE 102","city": "WILTON","state": "IA","zip": "52778","zip+4": "0000","phone": "5637325238"}
{"name": "PAMIDA PHARMACY #152","address1": "660 W MILWAUKEE ST","address2": "","city": "NEW HAMPTON","state": "IA","zip": "50659","zip+4": "1013","phone": "6413946404"}
{"name": "WALGREEN DRUG STORE #7967","address1": "15601 HICKMAN RD","address2": "","city": "CLIVE","state": "IA","zip": "50325","zip+4": "0000","phone": "5159876612"}
{"name": "COSTCO PHARMACY #788","address1": "7205 MILLS CIVIC PARKWAY","address2": "","city": "WEST DES MOINES","state": "IA","zip": "50266","zip+4": "0000","phone": "5152222948"}
{"name": "CARROLL CLINIC NURSING HOME PH","address1": "405 S CLARK ST","address2": "STE 150A","city": "CARROLL","state": "IA","zip": "51401","zip+4": "0000","phone": "7127923212"}
{"name": "MERCY NORTH PHARMACY","address1": "800 E 1ST ST","address2": "STE 1800","city": "ANKENY","state": "IA","zip": "50021","zip+4": "0000","phone": "5156437590"}
{"name": "CENTER PHARMACY","address1": "312 9TH ST SW","address2": "SUITE 1000","city": "WAVERLY","state": "IA","zip": "50677","zip+4": "0000","phone": "3194834100"}
{"name": "SAMS PHARMACY #108238","address1": "3887 ELMORE AVENUE","address2": "","city": "DAVENPORT","state": "IA","zip": "52807","zip+4": "0000","phone": "5633444232"}
{"name": "HY VEE PHARMACY #1872","address1": "1311 4TH STREET SW","address2": "","city": "WAVERLY","state": "IA","zip": "50677","zip+4": "0000","phone": "3193522021"}
{"name": "PAMIDA PHARMACY #130","address1": "2220 HWY 175 W","address2": "","city": "ONAWA","state": "IA","zip": "51040","zip+4": "0149","phone": "7124239648"}
{"name": "WAL-MART PHARMACY #103394","address1": "1905 EAST 7TH STREET","address2": "","city": "ATLANTIC","state": "IA","zip": "50022","zip+4": "0000","phone": "7122439223"}
{"name": "SCHNUCKS PHARMACY #745","address1": "858 MIDDLE RD","address2": "","city": "BETTENDORF","state": "IA","zip": "52722","zip+4": "0000","phone": "5633557838"}
{"name": "TARGET PHARMACY #2041","address1": "5901 DOUGLAS AVE","address2": "","city": "DES MOINES","state": "IA","zip": "50310","zip+4": "0000","phone": "5153310599"}
{"name": "HY VEE PHARMACY 2 #1863","address1": "2181 LOGAN","address2": "","city": "WATERLOO","state": "IA","zip": "50703","zip+4": "0000","phone": "3192326366"}
{"name": "HY VEE PHARMACY #1241","address1": "2003 CHATBURN","address2": "PO BOX 719","city": "HARLAN","state": "IA","zip": "51537","zip+4": "0000","phone": "7127552525"}
{"name": "DEWITT PHARMACY INC","address1": "609 7TH AVE","address2": "","city": "DEWITT","state": "IA","zip": "52742","zip+4": "0000","phone": "5636595042"}
{"name": "WAL-MART PHARMACY #103630","address1": "5491 BUSINESS HIGHWAY 151","address2": "","city": "MARION","state": "IA","zip": "52302","zip+4": "0000","phone": "3194472870"}
{"name": "SAMS PHARMACY #108162","address1": "2605 BLAIRS FERRY ROAD NE","address2": "","city": "CEDAR RAPIDS","state": "IA","zip": "52402","zip+4": "0000","phone": "3192949461"}
{"name": "HY VEE PHARMACY 7 #1064","address1": "5050 EDGEWOOD ROAD","address2": "","city": "CEDAR RAPIDS","state": "IA","zip": "52411","zip+4": "0000","phone": "3192949193"}
{"name": "HY VEE CLINIC #1504","address1": "301 W JEFFERSON","address2": "","city": "BLOOMFIELD","state": "IA","zip": "52537","zip+4": "0000","phone": "6416642975"}
{"name": "WALGREEN DRUG STORE #9791","address1": "101 8TH ST SE","address2": "","city": "ALTOONA","state": "IA","zip": "50009","zip+4": "0000","phone": "5159671486"}
{"name": "HY VEE PHARMACY 4 #1890","address1": "555 SOUTH 51ST STREET","address2": "","city": "WEST DES MOINES","state": "IA","zip": "50265","zip+4": "0000","phone": "5152212751"}
{"name": "SAMS PHARMACY #106472","address1": "3221 MANAWA SENTRE DRIVE","address2": "","city": "COUNCIL BLUFFS","state": "IA","zip": "51501","zip+4": "0000","phone": "7123667032"}
{"name": "HY VEE PHARMACY 3 #1162","address1": "400 S LOCUST","address2": "","city": "DUBUQUE","state": "IA","zip": "52003","zip+4": "0000","phone": "5635821143"}
{"name": "DUTCH MILL CLINIC PHCY","address1": "1000 LINCOLN CIR SE","address2": "","city": "ORANGE CITY","state": "IA","zip": "51041","zip+4": "0000","phone": "7127375347"}
{"name": "CAREPLUS CVS PHARMACY #03829","address1": "711 HIGH ST","address2": "BLDG 1 THIRD FLOOR","city": "DES MOINES","state": "IA","zip": "50309","zip+4": "0000","phone": "5152448100"}
{"name": "PELLA REGIONAL HEALTH CENTER","address1": "404 JEFFERSON ST","address2": "","city": "PELLA","state": "IA","zip": "50219","zip+4": "0000","phone": "6416283150"}
{"name": "CVS PHARMACY #08539","address1": "201 S CLINTON","address2": "","city": "IOWA CITY","state": "IA","zip": "52240","zip+4": "0000","phone": "3193586462"}
{"name": "CVS PHARMACY #08633","address1": "2314 SPRUCE HILLS DRIVE","address2": "","city": "BETTENDORF","state": "IA","zip": "52722","zip+4": "0000","phone": "5633590374"}
{"name": "CVS PHARMACY #08544","address1": "2060 CROSSROADS","address2": "","city": "WATERLOO","state": "IA","zip": "50702","zip+4": "0000","phone": "3192356249"}
{"name": "CVS PHARMACY #08532","address1": "2711 MOUNT VERNON ROAD SE","address2": "","city": "CEDAR RAPIDS","state": "IA","zip": "52403","zip+4": "0000","phone": "3193643051"}
{"name": "CVS PHARMACY #08538","address1": "2302 W FIRST ST","address2": "","city": "CEDAR FALLS","state": "IA","zip": "50613","zip+4": "0000","phone": "3192775181"}
{"name": "CVS PHARMACY #08659","address1": "1777 DIVISION ST","address2": "","city": "DAVENPORT","state": "IA","zip": "52804","zip+4": "0000","phone": "5633231074"}
{"name": "CVS PHARMACY #08546","address1": "2068 LOGAN AVE","address2": "","city": "WATERLOO","state": "IA","zip": "50703","zip+4": "0000","phone": "3192344736"}
{"name": "CVS PHARMACY #08526","address1": "4116 CENTER POINT RD NE","address2": "","city": "CEDAR RAPIDS","state": "IA","zip": "52402","zip+4": "0000","phone": "3193937480"}
{"name": "CVS PHARMACY #08658","address1": "1655 WEST KIMBERLY ROAD","address2": "","city": "DAVENPORT","state": "IA","zip": "52806","zip+4": "0000","phone": "5633887856"}
{"name": "CVS PHARMACY #08547","address1": "2425 MUSCATINE AVENUE","address2": "","city": "IOWA CITY","state": "IA","zip": "52240","zip+4": "0000","phone": "3193581056"}
{"name": "STANGEL PHARMACY LTC","address1": "821 IOWA AVE","address2": "","city": "ONAWA","state": "IA","zip": "51040","zip+4": "0000","phone": "7124231131"}
{"name": "DAHLS PHARMACY","address1": "1802N ANKENY BLVD","address2": "","city": "ANKENY","state": "IA","zip": "50023","zip+4": "0000","phone": "5152890911"}
{"name": "MEDICAP PHARMACY #8403","address1": "702 MONTGOMERY ST","address2": "STE B","city": "DECORAH","state": "IA","zip": "52101","zip+4": "0000","phone": "5633828765"}
{"name": "TARGET PHARMACY #0878","address1": "2910 1ST AVE S","address2": "","city": "FORT DODGE","state": "IA","zip": "50501","zip+4": "0000","phone": "5155737202"}
{"name": "WAL-MART PHARMACY #103762","address1": "6365 STAGECOACH DRIVE","address2": "","city": "WEST DE MOINES","state": "IA","zip": "50266","zip+4": "0000","phone": "5154532760"}
{"name": "PAMIDA PHARMACY #295","address1": "1012 JEFFREYS DR","address2": "","city": "OSCEOLA","state": "IA","zip": "50213","zip+4": "9500","phone": "6413421568"}
{"name": "IOWA BLOOD AND CANCER CARE","address1": "855 A AVENUE NE","address2": "STE 420","city": "CEDAR RAPIDS","state": "IA","zip": "52402","zip+4": "0000","phone": "3193697091"}
{"name": "SOMERSET PHARMACY INC","address1": "2709 NORTHRIDGE PARKWAY","address2": "","city": "AMES","state": "IA","zip": "50010","zip+4": "0000","phone": "5152923604"}
{"name": "WALGREEN DRUG STORE #07996","address1": "2702 SE DELAWARE AVE","address2": "","city": "ANKENY","state": "IA","zip": "50021","zip+4": "0000","phone": "5154736069"}
{"name": "WALGREEN DRUG STORE #11153","address1": "800 GRAND AVE","address2": "","city": "SPENCER","state": "IA","zip": "51301","zip+4": "0000","phone": "7122620231"}
{"name": "SERGEANT BLUFF PHARMACY","address1": "110 GAUL DR","address2": "SUITE A","city": "SERGEANT BLUFF","state": "IA","zip": "51054","zip+4": "0000","phone": "7129431494"}
{"name": "LEWIS FAMILY DRUG #69","address1": "1319 E TENTH STREET","address2": "","city": "ROCK VALLEY","state": "IA","zip": "51247","zip+4": "0000","phone": "7124765405"}
{"name": "MEDICAP PHARMACY LTC #8405","address1": "404 E EUCLID","address2": "","city": "INDIANOLA","state": "IA","zip": "50125","zip+4": "0000","phone": "5159629399"}
{"name": "WALGREEN DRUG STORE #10557","address1": "2509 WHITE TAIL DR","address2": "","city": "CEDAR FALLS","state": "IA","zip": "50613","zip+4": "7222","phone": "3195530206"}
{"name": "SAMS PHARMACY #104973","address1": "4400 ASBURY ROAD","address2": "","city": "DUBUQUE","state": "IA","zip": "52002","zip+4": "0000","phone": "5635870586"}
{"name": "VALUMED PHARMACY","address1": "224 4TH ST","address2": "STE 100","city": "SIOUX CITY","state": "IA","zip": "51101","zip+4": "0000","phone": "7122244040"}
{"name": "HY VEE PHARMACY 3 #1056","address1": "20 WILSON AVE SW","address2": "","city": "CEDAR RAPIDS","state": "IA","zip": "52404","zip+4": "0000","phone": "3193623649"}
{"name": "HY VEE PROFESSIONAL COMPOUNDIN","address1": "800 N 2ND ST STE 2","address2": "","city": "CHEROKEE","state": "IA","zip": "51012","zip+4": "0000","phone": "7122256121"}
{"name": "HEMATOLOGY MEDICAL ONCOLOGY CO","address1": "1351 W CENTRAL PARK","address2": "","city": "DAVENPORT","state": "IA","zip": "52804","zip+4": "0000","phone": "5634211960"}
{"name": "HY VEE PHARMACY #1068","address1": "800 N 2ND ST","address2": "","city": "CHEROKEE","state": "IA","zip": "51012","zip+4": "0000","phone": "7122256121"}
{"name": "PAMIDA PHARMACY #885","address1": "202 SW KENT ST","address2": "","city": "GREENFIELD","state": "IA","zip": "50849","zip+4": "1379","phone": "6417432201"}
{"name": "WALGREENS DRUG STORE #10770","address1": "105 E SIXTH ST","address2": "","city": "CARROLL","state": "IA","zip": "51401","zip+4": "2418","phone": "7127924566"}
{"name": "WRIGHTWAY LTC PHARMACY #2","address1": "200 5TH AVE SOUTH","address2": "SUITE 2","city": "CLINTON","state": "IA","zip": "52732","zip+4": "0000","phone": "5632429376"}
{"name": "PHILCARE PHARMACY","address1": "207 2ND AVE SE STE B","address2": "","city": "CEDAR RAPIDS","state": "IA","zip": "52401","zip+4": "0000","phone": "3192211050"}
{"name": "RUFFNER PHARMACY","address1": "409 S LOCUST","address2": "","city": "GLENWOOD","state": "IA","zip": "51534","zip+4": "0000","phone": "7125274006"}
{"name": "MEDICAP PHARMACY #8406","address1": "1206 S LOCUST ST","address2": "","city": "GLENWOOD","state": "IA","zip": "51534","zip+4": "0000","phone": "7125271200"}
{"name": "LUTZ LONG TERM CARE","address1": "120 8TH ST SE","address2": "STE B","city": "ALTOONA","state": "IA","zip": "50009","zip+4": "0000","phone": "5159674214"}
{"name": "MEDICAP PHARMACY #8011","address1": "2527 EASTON BLVD","address2": "","city": "DES MOINES","state": "IA","zip": "50317","zip+4": "0000","phone": "5152662694"}
{"name": "WALGREENS DRUG STORE #11193","address1": "310 STORY ST","address2": "","city": "BOONE","state": "IA","zip": "50036","zip+4": "3530","phone": "5154324093"}
{"name": "HY VEE CLINIC PHARMACY #1628","address1": "1012 OKLOBOJI AVE","address2": "","city": "MILFORD","state": "IA","zip": "51351","zip+4": "1375","phone": "7123384865"}
{"name": "HY VEE PHARMACY #1449","address1": "1501 1ST AVE E","address2": "STE 24","city": "NEWTON","state": "IA","zip": "50208","zip+4": "0000","phone": "6417926100"}
{"name": "REMEDY DRUG INC #1332","address1": "221 8TH AVE","address2": "","city": "WELLMAN","state": "IA","zip": "52356","zip+4": "0000","phone": "3196464466"}
{"name": "WALGREEN DRUG STORE #10985","address1": "2751 HEARTLAND DR","address2": "","city": "CORALVILLE","state": "IA","zip": "52241","zip+4": "2731","phone": "3195454600"}
{"name": "HY VEE CLINIC PHARMACY #1634","address1": "606 LAKE AVE","address2": "","city": "STORM LAKE","state": "IA","zip": "50588","zip+4": "1852","phone": "7127325067"}
{"name": "HY VEE RESSLERS CLINIC PHARMAC","address1": "113 N 3 RD ST","address2": "","city": "LAURENS","state": "IA","zip": "50554","zip+4": "0000","phone": "7128414374"}
{"name": "CORNERSTONE APOTHECARY","address1": "122 MAIN ST","address2": "","city": "VAN HORNE","state": "IA","zip": "52346","zip+4": "0000","phone": "3192288100"}
{"name": "WALGREEN DRUG STORE #11330","address1": "800 LAKE AVE","address2": "","city": "STORM LAKE","state": "IA","zip": "50588","zip+4": "2055","phone": "7127320005"}
{"name": "HY VEE DRUGSTORE CLINIC PHARMA","address1": "50 NORTH MAIN ST","address2": "","city": "FAIRFIELD","state": "IA","zip": "52556","zip+4": "3296","phone": "6414722122"}
{"name": "HY VEE RX PHARMACY","address1": "409 W 5TH ST","address2": "","city": "STORM LAKE","state": "IA","zip": "50588","zip+4": "1725","phone": "7127324819"}
{"name": "HYVEE CLINIC COMPOUNDING CENTE","address1": "606 LAKE AVE","address2": "SUITE A","city": "STORM LAKE","state": "IA","zip": "50588","zip+4": "0000","phone": "7127325067"}
{"name": "HY VEE PHARMACY #1619","address1": "1208 W NISHNA ROAD","address2": "","city": "SHENANDOAH","state": "IA","zip": "51601","zip+4": "0000","phone": "7122463440"}
{"name": "CHARLES CITY LONG TERM CARE PH","address1": "1203 N GRAND AVENUE","address2": "","city": "CHARLES CITY","state": "IA","zip": "50616","zip+4": "0000","phone": "6412283196"}
{"name": "WAL-MART PHARMACY #104256","address1": "534 SO DUFF AVE","address2": "","city": "AMES","state": "IA","zip": "50010","zip+4": "0000","phone": "5159563547"}
{"name": "WAL-MART PHARMACY #104606","address1": "2400 COLLEGE DRIVE","address2": "","city": "OSCEOLA","state": "IA","zip": "50213","zip+4": "0000","phone": "6413421662"}
{"name": "BEANS PHARMACY","address1": "222 S IOWA AVENUE","address2": "","city": "WASHINGTON","state": "IA","zip": "52353","zip+4": "0000","phone": "3196534646"}
{"name": "PLEASANTVILLE CLINIC","address1": "104 N WASHINGTON ST","address2": "","city": "PLEASANTVILLE","state": "IA","zip": "50225","zip+4": "0000","phone": "5158483113"}
{"name": "MARTIN HEALTH SERVICES INC #2","address1": "5550 JOHNSTON DRIVE","address2": "STE B C","city": "JOHNSTON","state": "IA","zip": "50131","zip+4": "0000","phone": "5153312594"}
{"name": "HEMATOLOGY AND ONCOLOGY CARE","address1": "1409 E KIMBERLY RD","address2": "STE 100","city": "DAVENPORT","state": "IA","zip": "52807","zip+4": "0000","phone": "5633599876"}
{"name": "MERWIN LTC PHARMACY","address1": "1555 SE DELAWARE AVE","address2": "STE R","city": "ANKENY","state": "IA","zip": "50021","zip+4": "0000","phone": "5159631640"}
{"name": "WALGREEN DRUG STORE #10855","address1": "1850 LOGAN AVENUE","address2": "","city": "WATERLOO","state": "IA","zip": "50703","zip+4": "0000","phone": "3192967761"}
{"name": "REMEDY DRUG INC #2","address1": "323 E MAIN","address2": "","city": "MONTEZUMA","state": "IA","zip": "50171","zip+4": "0000","phone": "6416235710"}
{"name": "PAMIDA PHARMACY #697","address1": "100 N MAIN ST","address2": "","city": "SIGOURNEY","state": "IA","zip": "52591","zip+4": "0000","phone": "6416223184"}
{"name": "THOMPSON AND THOMSPON LONG TER","address1": "222 S. IOWA AVE","address2": "STE B","city": "WASHINGTON","state": "IA","zip": "52353","zip+4": "0000","phone": "3196531043"}
{"name": "MEDICAP PHARMACY #8347","address1": "2804 BEAVER AVE","address2": "","city": "DES MOINES","state": "IA","zip": "50310","zip+4": "0000","phone": "5152773702"}
{"name": "KNOXVILLE AREA COMMUNITY HOSPI","address1": "1002 SOUTH LINCOLN STREET","address2": "","city": "KNOXVILLE","state": "IA","zip": "50138","zip+4": "0000","phone": "6418422151"}
{"name": "CARE INITIATIVES PHARMACY","address1": "2165 NW 108TH STREET","address2": "STE E","city": "CLIVE","state": "IA","zip": "50325","zip+4": "0000","phone": "5152244442"}
{"name": "HY-VEE PHARMACY #1071","address1": "201 S 16TH STREET","address2": "","city": "CLARINDA","state": "IA","zip": "51632","zip+4": "0000","phone": "7125426546"}
{"name": "TARGET PHARMACY #2454","address1": "3804 METRO DR","address2": "","city": "COUNCIL BLUFFS","state": "IA","zip": "51501","zip+4": "0000","phone": "7123093381"}
{"name": "NO FRILLS PHARMACY #1","address1": "1817 WEST BROADWAY","address2": "","city": "COUNCIL BLUFFS","state": "IA","zip": "51501","zip+4": "0000","phone": "7123298976"}
{"name": "NORTHWEST FAMILY PHARMACY #6","address1": "75 SHORT ST. NW","address2": "","city": "CEDAR RAPIDS","state": "IA","zip": "52405","zip+4": "0000","phone": "3193963395"}
{"name": "NO FRILLS PHARMACY #6","address1": "1801 VALLEY VIEW DRIVE","address2": "","city": "COUNCIL BLUFFS","state": "IA","zip": "51503","zip+4": "0000","phone": "7123298990"}
{"name": "ZEARING MEDICAL CLINIC","address1": "112 WEST MAIN ST","address2": "","city": "ZEARING","state": "IA","zip": "50278","zip+4": "0000","phone": "6414877779"}
{"name": "WALGREENS #11759","address1": "2639 AVENUE L","address2": "","city": "FORT MADISON","state": "IA","zip": "52627","zip+4": "3840","phone": "3193728794"}
{"name": "SHOPKO PHARMACY #180","address1": "3271 MARKETPLACE DR","address2": "","city": "COUNCIL BLUFFS","state": "IA","zip": "51501","zip+4": "0000","phone": "7123660377"}
{"name": "CHEROKEE MAIN STREET PHARMACY","address1": "206 W MAIN ST","address2": "","city": "CHEROKEE","state": "IA","zip": "51012","zip+4": "0000","phone": "7122252320"}
{"name": "CORNERSTONE APOTHECARY #2","address1": "1099 COURT AVE","address2": "","city": "MARENGO","state": "IA","zip": "52301","zip+4": "0000","phone": "3197416300"}
{"name": "WALGREENS #11942","address1": "345 E 20TH ST","address2": "","city": "DUBUQUE","state": "IA","zip": "52001","zip+4": "3514","phone": "5636901836"}
{"name": "TARGET PHARMACY #2526","address1": "214 VIKING PLAZA DR","address2": "","city": "CEDAR FALLS","state": "IA","zip": "50613","zip+4": "6936","phone": "3195531121"}
{"name": "WALGREENS #12148","address1": "320 W BREMER AVE","address2": "","city": "WAVERLY","state": "IA","zip": "50677","zip+4": "3102","phone": "3195961085"}
{"name": "M&M CARE","address1": "918 W. PLATT ST.","address2": "SUITE #3","city": "MAQUOKETA","state": "IA","zip": "52060","zip+4": "0000","phone": "5636525611"}
{"name": "DAHLS FOODS","address1": "4343 MERLE HAY ROAD","address2": "","city": "DES MOINES","state": "IA","zip": "50310","zip+4": "1411","phone": "5152764845"}
{"name": "HARTIG DRUG CO.INC.","address1": "703 TOWN CLOCK PLAZA","address2": "","city": "DUBUQUE","state": "IA","zip": "52004","zip+4": "0709","phone": "3195888700"},
{"name": "HY-VEE FOOD STORES INC","address1": "5820 WESTOWN PKWY","address2": "","city": "W DES MOINES","state": "IA","zip": "50266","zip+4": "0000","phone": "5152672800"}