{"name": "TERRE HAUTE PRESCRIPTION SHOP","address1": "3020 S 7TH STREET","address2": "","city": "TERRE HAUTE","state": "IN","zip": "47802","zip+4": "0000","phone": "8122329646"}
{"name": "PARKSIDE PHARMACY INC","address1": "2200 FERRY ST","address2": "","city": "LAFAYETTE","state": "IN","zip": "47904","zip+4": "3078","phone": "7654471000"}
{"name": "CROWDERS DRUG STORE INC","address1": "631 E 16TH ST","address2": "","city": "BEDFORD","state": "IN","zip": "47421","zip+4": "0966","phone": "8122755949"}
{"name": "HENDERSON DRUGS","address1": "100 E JEFFERSON ST","address2": "","city": "FRANKLIN","state": "IN","zip": "46131","zip+4": "2375","phone": "3177365631"}
{"name": "MIDTOWN PRESCRIPTION CENTER","address1": "11 S 9TH STREET","address2": "","city": "RICHMOND","state": "IN","zip": "47374","zip+4": "5587","phone": "7659620025"}
{"name": "MADISON APOTHECARY","address1": "835 W MAIN ST","address2": "","city": "MADISON","state": "IN","zip": "47250","zip+4": "3196","phone": "8122654621"}
{"name": "RUSHVILLE PHARMACY","address1": "302 N MAIN ST","address2": "","city": "RUSHVILLE","state": "IN","zip": "46173","zip+4": "1694","phone": "7659323328"}
{"name": "SANDLEBEN PHARMACY INC","address1": "1000 HARRIET ST","address2": "","city": "EVANSVILLE","state": "IN","zip": "47710","zip+4": "2199","phone": "8124253555"}
{"name": "WERNER DRUG STORE","address1": "1134 WASHINGTON","address2": "","city": "TELL CITY","state": "IN","zip": "47586","zip+4": "1827","phone": "8125475586"}
{"name": "BEVERS FAMILY PHARMACY","address1": "105 W 2ND ST","address2": "","city": "SEYMOUR","state": "IN","zip": "47274","zip+4": "2100","phone": "8125225409"}
{"name": "GWINNS DRUG STORE","address1": "505 MADISON AVE","address2": "","city": "ANDERSON","state": "IN","zip": "46016","zip+4": "1069","phone": "7656433716"}
{"name": "MERRILL PHARMACY","address1": "606 N MAIN ST","address2": "","city": "MISHAWAKA","state": "IN","zip": "46545","zip+4": "6620","phone": "5742552988"}
{"name": "CLAY CITY PHARMACY","address1": "730 MAIN ST","address2": "","city": "CLAY CITY","state": "IN","zip": "47841","zip+4": "1332","phone": "8129392173"}
{"name": "WALGREEN DRUG STORE #3223","address1": "220 E LEWIS AND CLARK PKWY","address2": "","city": "CLARKSVILLE","state": "IN","zip": "47129","zip+4": "0000","phone": "8129446116"}
{"name": "WALGREENS # #10529","address1": "2123 E COLUMBUS DR","address2": "","city": "EAST CHICAGO","state": "IN","zip": "46312","zip+4": "0000","phone": "2193976911"}
{"name": "WALGREEN DRUG STORE #5940","address1": "5830 N CLINTON ST","address2": "","city": "FORT WAYNE","state": "IN","zip": "46825","zip+4": "0000","phone": "2604832193"}
{"name": "WALGREEN DRUG STORE #3410","address1": "222 E PETTIT AVENUE","address2": "","city": "FORT WAYNE","state": "IN","zip": "46806","zip+4": "0000","phone": "2607444353"}
{"name": "WALGREEN DRUG STORE #1149","address1": "4425 W 5TH","address2": "","city": "GARY","state": "IN","zip": "46406","zip+4": "0000","phone": "2199493632"}
{"name": "WALGREEN DRUG STORE #5999","address1": "7 SIBLEY RD","address2": "","city": "HAMMOND","state": "IN","zip": "46320","zip+4": "0000","phone": "2199316621"}
{"name": "WALGREEN DRUG STORE #4635","address1": "101 W HWY 20","address2": "","city": "MICHIGAN CITY","state": "IN","zip": "46360","zip+4": "0000","phone": "2198799598"}
{"name": "CVS PHARMACY #06251","address1": "630 SONNTAG AVENUE","address2": "","city": "EVANSVILLE","state": "IN","zip": "47712","zip+4": "0000","phone": "8124243894"}
{"name": "CVS PHARMACY #06252","address1": "4480 FIRST AVENUE","address2": "","city": "EVANSVILLE","state": "IN","zip": "47710","zip+4": "0000","phone": "8124251525"}
{"name": "CVS PHARMACY #06583","address1": "1825 ALBANY ST","address2": "","city": "BEECH GROVE","state": "IN","zip": "46107","zip+4": "0000","phone": "3177849037"}
{"name": "CVS PHARMACY #06547","address1": "5310 ROCKVILLE ROAD","address2": "","city": "INDIANAPOLIS","state": "IN","zip": "46224","zip+4": "0000","phone": "3172418901"}
{"name": "CVS PHARMACY #06548","address1": "3705 KENTUCKY AVE","address2": "","city": "INDIANAPOLIS","state": "IN","zip": "46221","zip+4": "0000","phone": "3178561253"}
{"name": "CVS PHARMACY #06549","address1": "1545 N MERIDIAN ST","address2": "","city": "INDIANAPOLIS","state": "IN","zip": "46202","zip+4": "0000","phone": "3179231491"}
{"name": "CVS PHARMACY #06585","address1": "5605 NORTH POST ROAD","address2": "","city": "INDIANAPOLIS","state": "IN","zip": "46216","zip+4": "0000","phone": "3175472926"}
{"name": "CVS PHARMACY #06587","address1": "505 EAST THOMPSON ROAD","address2": "","city": "INDIANAPOLIS","state": "IN","zip": "46227","zip+4": "0000","phone": "3177849716"}
{"name": "CVS PHARMACY #06567","address1": "111 WEST 38TH STREET","address2": "","city": "INDIANAPOLIS","state": "IN","zip": "46208","zip+4": "0000","phone": "3179259445"}
{"name": "CVS PHARMACY #06553","address1": "2320 CUNNINGHAM RD","address2": "","city": "INDIANAPOLIS","state": "IN","zip": "46224","zip+4": "0000","phone": "3172416374"}
{"name": "CVS PHARMACY #06569","address1": "6290 92 N COLLEGE AVE","address2": "","city": "INDIANAPOLIS","state": "IN","zip": "46220","zip+4": "0000","phone": "3172514145"}
{"name": "CVS PHARMACY #06554","address1": "7325 W 10TH ST","address2": "","city": "INDIANAPOLIS","state": "IN","zip": "46214","zip+4": "0000","phone": "3172712469"}
{"name": "CVS PHARMACY #06592","address1": "6005 E WASHINGTON STREET","address2": "","city": "INDIANAPOLIS","state": "IN","zip": "46219","zip+4": "0000","phone": "3173593911"}
{"name": "CVS PHARMACY #06572","address1": "1225 WEST 86TH STREET","address2": "","city": "INDIANAPOLIS","state": "IN","zip": "46260","zip+4": "0000","phone": "3172536427"}
{"name": "CVS PHARMACY #06557","address1": "5502 WEST 38TH STREET","address2": "","city": "INDIANAPOLIS","state": "IN","zip": "46254","zip+4": "0000","phone": "3172937266"}
{"name": "CVS PHARMACY #06666","address1": "207 SOUTH LEBANON STREET","address2": "","city": "LEBANON","state": "IN","zip": "46052","zip+4": "0000","phone": "7654823630"}
{"name": "CVS PHARMACY #06667","address1": "460 W WALNUT STREET","address2": "","city": "FRANKFORT","state": "IN","zip": "46041","zip+4": "0000","phone": "7656592462"}
{"name": "CVS PHARMACY #06636","address1": "298 SOUTH WEST 18TH STREET","address2": "","city": "RICHMOND","state": "IN","zip": "47374","zip+4": "0000","phone": "7659625032"}
{"name": "CVS PHARMACY #06531","address1": "3404 EAST MARKET ST","address2": "","city": "LOGANSPORT","state": "IN","zip": "46947","zip+4": "0000","phone": "5747532312"}
{"name": "CVS PHARMACY #06637","address1": "200 S HARRISON","address2": "","city": "SHELBYVILLE","state": "IN","zip": "46176","zip+4": "0000","phone": "3173899791"}
{"name": "CVS PHARMACY #06749","address1": "2154 STATE ST","address2": "","city": "COLUMBUS","state": "IN","zip": "47201","zip+4": "0000","phone": "8123767776"}
{"name": "CVS PHARMACY #06616","address1": "425 E MEMORIAL DR","address2": "","city": "MUNCIE","state": "IN","zip": "47302","zip+4": "0000","phone": "7652882157"}
{"name": "CVS PHARMACY #06638","address1": "2419 W NICHOL AVENUE","address2": "","city": "ANDERSON","state": "IN","zip": "46016","zip+4": "0000","phone": "7656434313"}
{"name": "CVS PHARMACY #06668","address1": "106 EAST MARKET STREET","address2": "","city": "CRAWFORDSVILLE","state": "IN","zip": "47933","zip+4": "0000","phone": "7653621139"}
{"name": "CVS PHARMACY #06640","address1": "265 SOUTH SCATTERFIELD ROAD","address2": "","city": "ANDERSON","state": "IN","zip": "46012","zip+4": "0000","phone": "7656433400"}
{"name": "CVS PHARMACY #06513","address1": "486 NORTH CASS STREET","address2": "","city": "WABASH","state": "IN","zip": "46992","zip+4": "0000","phone": "2195636941"}
{"name": "CVS PHARMACY #06550","address1": "1700 E MAIN STREET","address2": "","city": "PLAINFIELD","state": "IN","zip": "46168","zip+4": "0000","phone": "3178396822"}
{"name": "CVS PHARMACY #06697","address1": "2701 EAST 3RD STREET","address2": "","city": "BLOOMINGTON","state": "IN","zip": "47401","zip+4": "0000","phone": "8123321419"}
{"name": "CVS PHARMACY #06682","address1": "307 EAST NATIONAL AVENUE","address2": "","city": "BRAZIL","state": "IN","zip": "47834","zip+4": "0000","phone": "8124462301"}
{"name": "CVS PHARMACY #06551","address1": "523 SOUTH STATE ROAD 67","address2": "","city": "MOORESVILLE","state": "IN","zip": "46158","zip+4": "0000","phone": "3178312661"}
{"name": "CVS PHARMACY #06566","address1": "2550 EAST CONNER ST","address2": "","city": "NOBLESVILLE","state": "IN","zip": "46060","zip+4": "0000","phone": "3177730194"}
{"name": "CVS PHARMACY #06617","address1": "100 N ANDERSON STREET","address2": "","city": "ELWOOD","state": "IN","zip": "46036","zip+4": "0000","phone": "7655529565"}
{"name": "CVS PHARMACY #06698","address1": "2650 S WALNUT ST","address2": "","city": "BLOOMINGTON","state": "IN","zip": "47401","zip+4": "0000","phone": "8123366223"}
{"name": "CVS PHARMACY #06756","address1": "201 EAST TIPTON STREET","address2": "","city": "SEYMOUR","state": "IN","zip": "47274","zip+4": "0000","phone": "8125222628"}
{"name": "CVS PHARMACY #06757","address1": "2423 N NATIONAL ROAD","address2": "","city": "COLUMBUS","state": "IN","zip": "47201","zip+4": "0000","phone": "8123727814"}
{"name": "CVS PHARMACY #06463","address1": "2210 EAST EDISON","address2": "","city": "SOUTH BEND","state": "IN","zip": "46615","zip+4": "3514","phone": "5744723233"}
{"name": "CVS PHARMACY #06758","address1": "1512 N LINCOLN AVE","address2": "","city": "GREENSBURG","state": "IN","zip": "47240","zip+4": "0000","phone": "8126632756"}
{"name": "CVS PHARMACY #06684","address1": "905 POPLAR STREET","address2": "","city": "TERRE HAUTE","state": "IN","zip": "47807","zip+4": "0000","phone": "8122321316"}
{"name": "CVS PHARMACY #06464","address1": "210 N MAIN ST","address2": "","city": "MISHAWAKA","state": "IN","zip": "46544","zip+4": "0000","phone": "2192591130"}
{"name": "CVS PHARMACY #06643","address1": "220 S MEMORIAL DR","address2": "","city": "NEW CASTLE","state": "IN","zip": "47362","zip+4": "0000","phone": "7655299209"}
{"name": "CVS PHARMACY #06645","address1": "101 WEST 1ST ST","address2": "","city": "RUSHVILLE","state": "IN","zip": "46173","zip+4": "0000","phone": "7659324070"}
{"name": "CVS PHARMACY #06533","address1": "401 EAST MORGAN STREET","address2": "","city": "KOKOMO","state": "IN","zip": "46901","zip+4": "0000","phone": "7654520552"}
{"name": "CVS PHARMACY #06618","address1": "105 NORTH PARK AVENUE","address2": "","city": "ALEXANDRIA","state": "IN","zip": "46001","zip+4": "0000","phone": "7657242210"}
{"name": "CVS PHARMACY #06620","address1": "943 EAST WASHINGTON STREET","address2": "","city": "WINCHESTER","state": "IN","zip": "47394","zip+4": "0000","phone": "7655841001"}
{"name": "CVS PHARMACY #06555","address1": "21 WEST MAIN ST","address2": "","city": "BROWNSBURG","state": "IN","zip": "46112","zip+4": "0000","phone": "3178522763"}
{"name": "CVS PHARMACY #06621","address1": "415 W 3RD ST","address2": "","city": "MARION","state": "IN","zip": "46952","zip+4": "0000","phone": "7656621316"}
{"name": "CVS PHARMACY #06622","address1": "1700 N WALNUT ST","address2": "","city": "HARTFORD CITY","state": "IN","zip": "47348","zip+4": "0000","phone": "7653484134"}
{"name": "CVS PHARMACY #06646","address1": "1122 SOUTH STATE ROAD 1","address2": "","city": "CAMBRIDGE CITY","state": "IN","zip": "47327","zip+4": "0000","phone": "7654783431"}
{"name": "CVS PHARMACY #06571","address1": "13640 N MERIDIAN ST","address2": "","city": "CARMEL","state": "IN","zip": "46032","zip+4": "0000","phone": "3178461377"}
{"name": "CVS PHARMACY #06556","address1": "651 E MAIN ST","address2": "","city": "DANVILLE","state": "IN","zip": "46122","zip+4": "0000","phone": "3177455828"}
{"name": "CVS PHARMACY #06481","address1": "901 NORTH KARWICK ROAD","address2": "","city": "MICHIGAN CITY","state": "IN","zip": "46360","zip+4": "0000","phone": "2198726811"}
{"name": "CVS PHARMACY #06534","address1": "717 NORTH 3RD STREET","address2": "","city": "LOGANSPORT","state": "IN","zip": "46947","zip+4": "0000","phone": "2197222289"}
{"name": "CVS PHARMACY #06703","address1": "789 STATE ROAD 39 BY PASS","address2": "","city": "MARTINSVILLE","state": "IN","zip": "46151","zip+4": "0000","phone": "7653422121"}
{"name": "CVS PHARMACY #06535","address1": "831 N MAIN ST","address2": "","city": "MONTICELLO","state": "IN","zip": "47960","zip+4": "0000","phone": "5745838220"}
{"name": "CVS PHARMACY #06706","address1": "1709 E STATE HIGHWAY 54","address2": "","city": "LINTON","state": "IN","zip": "47441","zip+4": "9589","phone": "8128472226"}
{"name": "CVS PHARMACY #06647","address1": "1515 EAST MAIN STREET","address2": "","city": "RICHMOND","state": "IN","zip": "47374","zip+4": "0000","phone": "7659628822"}
{"name": "CVS PHARMACY #06648","address1": "655 SOUTH US HWY 31","address2": "","city": "GREENWOOD","state": "IN","zip": "46142","zip+4": "0000","phone": "3178811655"}
{"name": "CVS PHARMACY #06515","address1": "1203 SOUTH MAIN STREET","address2": "","city": "BLUFFTON","state": "IN","zip": "46714","zip+4": "0000","phone": "2608241646"}
{"name": "CVS PHARMACY #06652","address1": "301 N GRAND AVE","address2": "","city": "CONNERSVILLE","state": "IN","zip": "47331","zip+4": "0000","phone": "7658253661"}
{"name": "CVS PHARMACY #06707","address1": "15622 NORTH STATE ROAD 79","address2": "","city": "EDINBURGH","state": "IN","zip": "46124","zip+4": "0000","phone": "8125262487"}
{"name": "CVS PHARMACY #06685","address1": "1320 MAPLE STREET","address2": "","city": "TERRE HAUTE","state": "IN","zip": "47804","zip+4": "0000","phone": "8122422787"}
{"name": "CVS PHARMACY #06520","address1": "3918 SOUTH CALHOUN STREET","address2": "","city": "FORT WAYNE","state": "IN","zip": "40807","zip+4": "0000","phone": "2607442310"}
{"name": "CVS PHARMACY #06484","address1": "3253 FRANKLIN ST","address2": "","city": "MICHIGAN CITY","state": "IN","zip": "46360","zip+4": "0000","phone": "2198725854"}
{"name": "SWADLEYS REXALL DRUGS","address1": "300 S PERRY ST","address2": "","city": "ATTICA","state": "IN","zip": "47918","zip+4": "1492","phone": "7657623287"}
{"name": "CVS PHARMACY #06077","address1": "405 GREEN BLVD","address2": "","city": "AURORA","state": "IN","zip": "47001","zip+4": "0000","phone": "8129262144"}
{"name": "CVS PHARMACY #06522","address1": "2811 GETZ ROAD","address2": "","city": "FORT WAYNE","state": "IN","zip": "46804","zip+4": "0000","phone": "2604326151"}
{"name": "CVS PHARMACY #06558","address1": "2975 LAFAYETTE RD","address2": "","city": "INDIANAPOLIS","state": "IN","zip": "46222","zip+4": "0000","phone": "3172836713"}
{"name": "WALGREEN DRUG STORE #3530","address1": "505 COLLEGE AVE","address2": "","city": "VINCENNES","state": "IN","zip": "47591","zip+4": "0000","phone": "8128821367"}
{"name": "PHILLIPS DRUGS","address1": "631 E MAIN ST","address2": "","city": "RICHMOND","state": "IN","zip": "47374","zip+4": "4330","phone": "7659665544"}
{"name": "CVS PHARMACY #06516","address1": "1221 WEST MONROE STREET","address2": "","city": "DECATUR","state": "IN","zip": "46733","zip+4": "0000","phone": "2607242568"}
{"name": "CVS PHARMACY #06536","address1": "2340 WEST SYCAMORE","address2": "","city": "KOKOMO","state": "IN","zip": "46901","zip+4": "0000","phone": "7654524437"}
{"name": "CVS PHARMACY #06573","address1": "2330 EAST 46TH STREET","address2": "","city": "INDIANAPOLIS","state": "IN","zip": "46205","zip+4": "0000","phone": "3172531636"}
{"name": "CVS PHARMACY #06905","address1": "1805 CALUMET AVE","address2": "","city": "VALPARAISO","state": "IN","zip": "46383","zip+4": "3130","phone": "2194642141"}
{"name": "CVS PHARMACY #06874","address1": "307 EAST NATIONAL HIGHWAY","address2": "","city": "WASHINGTON","state": "IN","zip": "47501","zip+4": "0000","phone": "8122546298"}
{"name": "CVS PHARMACY #06494","address1": "700 NORTH WAYNE ST","address2": "","city": "ANGOLA","state": "IN","zip": "46703","zip+4": "0000","phone": "2606652106"}
{"name": "WALGREEN DRUG STORE #4241","address1": "1225 E RIDGE RD","address2": "","city": "GRIFFITH","state": "IN","zip": "46319","zip+4": "0000","phone": "2198387080"}
{"name": "GRANDVIEW PHARMACY","address1": "2230 N PARK ROAD","address2": "","city": "CONNERSVILLE","state": "IN","zip": "47331","zip+4": "0000","phone": "7658270847"}
{"name": "CVS PHARMACY #06906","address1": "107 N CULLEN ST","address2": "","city": "RENSSELAER","state": "IN","zip": "47978","zip+4": "0000","phone": "2198665400"}
{"name": "CVS PHARMACY #06517","address1": "1901 NORTH JEFFERSON ST","address2": "","city": "HUNTINGTON","state": "IN","zip": "46750","zip+4": "0000","phone": "2603566600"}
{"name": "PAULS PHARMACY","address1": "2345 W FRANKLIN ST","address2": "","city": "EVANSVILLE","state": "IN","zip": "47712","zip+4": "5172","phone": "8124254364"}
{"name": "OAK HILL PHARMACY","address1": "1924 E MORGAN AVE","address2": "","city": "EVANSVILLE","state": "IN","zip": "47711","zip+4": "0000","phone": "8124254422"}
{"name": "DAYWALT PHARMACY","address1": "948 N CASS ST","address2": "","city": "WABASH","state": "IN","zip": "46992","zip+4": "1044","phone": "2605634155"}
{"name": "CVS PHARMACY #06908","address1": "310 N HALLECK ST","address2": "","city": "DEMOTTE","state": "IN","zip": "46310","zip+4": "0000","phone": "2199873301"}
{"name": "MARSH DRUGS LLC #7077787","address1": "2300 TEAL ROAD","address2": "","city": "LAFAYETTE","state": "IN","zip": "47905","zip+4": "2219","phone": "7654746524"}
{"name": "MARSH DRUGS LLC #7089786","address1": "899 EAST JEFFERSON STREET","address2": "","city": "TIPTON","state": "IN","zip": "46072","zip+4": "8750","phone": "7656756794"}
{"name": "CVS PHARMACY #06875","address1": "930 N GOSPEL ST","address2": "","city": "PAOLI","state": "IN","zip": "47454","zip+4": "0000","phone": "8127232650"}
{"name": "CVS PHARMACY #06594","address1": "8935 EAST 21ST STREET","address2": "","city": "INDIANAPOLIS","state": "IN","zip": "46219","zip+4": "0000","phone": "3178976536"}
{"name": "CVS PHARMACY #06876","address1": "1000 WEST BROADWAY","address2": "","city": "PRINCETON","state": "IN","zip": "47670","zip+4": "0000","phone": "8123853747"}
{"name": "CVS PHARMACY #06624","address1": "802 N MERIDIAN ST","address2": "","city": "PORTLAND","state": "IN","zip": "47371","zip+4": "0000","phone": "2607269393"}
{"name": "CVS PHARMACY #06687","address1": "1010 INDIANAPOLIS ROAD","address2": "","city": "GREENCASTLE","state": "IN","zip": "46135","zip+4": "0000","phone": "7656539029"}
{"name": "WEBB'S FAMILY PHARMACY #2","address1": "101 W ROCHESTER ST","address2": "","city": "AKRON","state": "IN","zip": "46910","zip+4": "0278","phone": "5748934413"}
{"name": "CVS PHARMACY #06910","address1": "505 EAST 1100 NORTH","address2": "","city": "CHESTERTON","state": "IN","zip": "46304","zip+4": "0000","phone": "2199261420"}
{"name": "CVS PHARMACY #06537","address1": "850 N PLYMOUTH RD","address2": "","city": "WINAMAC","state": "IN","zip": "46996","zip+4": "0000","phone": "5749463554"}
{"name": "CVS PHARMACY #06651","address1": "2003 BROADWAY","address2": "","city": "ANDERSON","state": "IN","zip": "46012","zip+4": "0000","phone": "7656431515"}
{"name": "CVS PHARMACY #06495","address1": "934 W 7TH ST","address2": "","city": "AUBURN","state": "IN","zip": "46706","zip+4": "0000","phone": "2609251590"}
{"name": "CVS PHARMACY #06911","address1": "3240 WILLOWCREEK ROAD","address2": "","city": "PORTAGE","state": "IN","zip": "46368","zip+4": "0000","phone": "2197623998"}
{"name": "CVS PHARMACY #06912","address1": "9905 W 133 AVE","address2": "","city": "CEDAR LAKE","state": "IN","zip": "46303","zip+4": "0000","phone": "2193745688"}
{"name": "CVS PHARMACY #06670","address1": "512 E SEYMOUR STREET","address2": "","city": "KENTLAND","state": "IN","zip": "47951","zip+4": "0000","phone": "2194746787"}
{"name": "CVS PHARMACY #06878","address1": "617 W 6TH ST","address2": "","city": "JASPER","state": "IN","zip": "47546","zip+4": "0000","phone": "8124823300"}
{"name": "PHARMA CARD HOBART INC #9","address1": "174 BRACKEN PARKWAY","address2": "","city": "HOBART","state": "IN","zip": "46342","zip+4": "0000","phone": "2199421159"}
{"name": "CVS PHARMACY #06712","address1": "292 VAN BUREN STSOUTH","address2": "","city": "NASHVILLE","state": "IN","zip": "47448","zip+4": "0000","phone": "8129887463"}
{"name": "GA TRIPLETT AND SON","address1": "111 N BUCKEYE ST","address2": "","city": "OSGOOD","state": "IN","zip": "47037","zip+4": "1133","phone": "8126894748"}
{"name": "HANCOCKS DRUG STORE","address1": "120 W MCCLAIN AVE","address2": "","city": "SCOTTSBURG","state": "IN","zip": "47170","zip+4": "2046","phone": "8127522021"}
{"name": "CVS PHARMACY #06538","address1": "907 SOUTH HEATON","address2": "","city": "KNOX","state": "IN","zip": "46534","zip+4": "0000","phone": "5747726544"}
{"name": "CVS PHARMACY #06467","address1": "1654 E MARKET ST","address2": "","city": "NAPPANEE","state": "IN","zip": "46550","zip+4": "0000","phone": "5747734311"}
{"name": "CVS PHARMACY #06671","address1": "1948 E WALNUT STREET","address2": "","city": "FRANKFORT","state": "IN","zip": "46041","zip+4": "0000","phone": "7656548566"}
{"name": "WALGREEN DRUG STORE #6906","address1": "6097 BROADWAY","address2": "","city": "MERRILLVILLE","state": "IN","zip": "46410","zip+4": "0000","phone": "2199800494"}
{"name": "FREDS NEIGHBORHOOD PHARMACY","address1": "320 S MAIN","address2": "","city": "NEW CASTLE","state": "IN","zip": "47362","zip+4": "0000","phone": "7655293313"}
{"name": "CVS PHARMACY #06468","address1": "1150 W PLYMOUTH","address2": "","city": "BREMEN","state": "IN","zip": "46506","zip+4": "0000","phone": "2195463797"}
{"name": "H AND R PHARMACY INC","address1": "27 MAIN ST","address2": "","city": "POSEYVILLE","state": "IN","zip": "47633","zip+4": "0000","phone": "8128742815"}
{"name": "CVS PHARMACY #06469","address1": "900 EAST BRISTOL STREET","address2": "","city": "ELKHART","state": "IN","zip": "46514","zip+4": "0000","phone": "5742646562"}
{"name": "DOCTORS PARK PHARMACY INC","address1": "2010 DOCTORS PARK DR","address2": "","city": "COLUMBUS","state": "IN","zip": "47203","zip+4": "2221","phone": "8123721829"}
{"name": "CVS PHARMACY #06644","address1": "640 S STATE RD 135","address2": "","city": "GREENWOOD","state": "IN","zip": "46142","zip+4": "0000","phone": "3178820465"}
{"name": "CVS PHARMACY #06498","address1": "224 W. NORTH ST.","address2": "","city": "KENDALLVILLE","state": "IN","zip": "46755","zip+4": "0000","phone": "2603471499"}
{"name": "CVS PHARMACY #06500","address1": "101 WEST US HWY 6","address2": "","city": "LIGONIER","state": "IN","zip": "46767","zip+4": "0000","phone": "2608944700"}
{"name": "CVS PHARMACY #06499","address1": "308 S HUNTINGTON ST","address2": "","city": "SYRACUSE","state": "IN","zip": "46567","zip+4": "0000","phone": "5744574000"}
{"name": "CVS PHARMACY #06595","address1": "3808 EAST WASHINGTON STREET","address2": "","city": "INDIANAPOLIS","state": "IN","zip": "46201","zip+4": "0000","phone": "3173575437"}
{"name": "CVS PHARMACY #06501","address1": "975N OOEW","address2": "","city": "LAGRANGE","state": "IN","zip": "46761","zip+4": "0000","phone": "2604632583"}
{"name": "MEDICAL ARTS PHARMACY","address1": "1366 N GARDNER","address2": "","city": "SCOTTSBURG","state": "IN","zip": "47170","zip+4": "0346","phone": "8127524226"}
{"name": "MILBURN PHARMACY","address1": "13 W JACKSON ST","address2": "","city": "SULLIVAN","state": "IN","zip": "47882","zip+4": "1597","phone": "8122684737"}
{"name": "CVS PHARMACY #06673","address1": "200 WEST JACKSON STREET","address2": "","city": "ATTICA","state": "IN","zip": "47918","zip+4": "0000","phone": "7657623390"}
{"name": "CVS PHARMACY #06483","address1": "325 J ST","address2": "","city": "LAPORTE","state": "IN","zip": "46350","zip+4": "0000","phone": "2193623446"}
{"name": "CVS PHARMACY #06626","address1": "301 EMAIN STREET","address2": "","city": "GAS CITY","state": "IN","zip": "46933","zip+4": "0000","phone": "7656746613"}
{"name": "CVS PHARMACY #06502","address1": "286 W WALKER WAY","address2": "","city": "COLUMBIA CITY","state": "IN","zip": "46725","zip+4": "0000","phone": "2192443113"}
{"name": "CVS PHARMACY #06654","address1": "8970 SOUTH MERIDIAN STREET","address2": "","city": "INDIANAPOLIS","state": "IN","zip": "46217","zip+4": "0000","phone": "3178820335"}
{"name": "PAYNES PRESCRIPTION PHARMACY","address1": "53 S CENTER ST","address2": "","city": "FLORA","state": "IN","zip": "46929","zip+4": "1315","phone": "5749673762"}
{"name": "CVS PHARMACY #06503","address1": "618 SOUTH MAIN STREET","address2": "","city": "N WEBSTER","state": "IN","zip": "46555","zip+4": "0000","phone": "5748342860"}
{"name": "CVS PHARMACY #06539","address1": "103 S OHIO ST","address2": "","city": "CULVER","state": "IN","zip": "46511","zip+4": "0000","phone": "5748423400"}
{"name": "KEMVIEW PHARMACY","address1": "119 N BALDWIN AVE","address2": "","city": "MARION","state": "IN","zip": "46952","zip+4": "0000","phone": "7656647463"}
{"name": "CVS PHARMACY #06653","address1": "39 SOUTH US 31","address2": "","city": "WHITELAND","state": "IN","zip": "46184","zip+4": "0000","phone": "3175359001"}
{"name": "CVS PHARMACY #06485","address1": "300 LIBERTY ST","address2": "","city": "WALKERTON","state": "IN","zip": "46574","zip+4": "0000","phone": "5745867154"}
{"name": "BUTT DRUGS INC","address1": "115 E CHESTNUT ST","address2": "","city": "CORYDON","state": "IN","zip": "47112","zip+4": "1105","phone": "8127383272"}
{"name": "CVS PHARMACY #06486","address1": "8989 EAST US 20","address2": "","city": "NEW CARLISLE","state": "IN","zip": "46552","zip+4": "0000","phone": "5746543148"}
{"name": "MATHES PHARMACY INC","address1": "1621 CHARLESTOWN RD","address2": "","city": "NEW ALBANY","state": "IN","zip": "47150","zip+4": "3339","phone": "8129443612"}
{"name": "CVS PHARMACY #06559","address1": "7990 E US HIGHWAY 36","address2": "","city": "AVON","state": "IN","zip": "46123","zip+4": "0000","phone": "3172720242"}
{"name": "STEWARTS PHARMACY","address1": "57 W MAIN ST","address2": "","city": "AUSTIN","state": "IN","zip": "47102","zip+4": "1399","phone": "8127943001"}
{"name": "CVS PHARMACY #06656","address1": "3824 MAIN STREET","address2": "","city": "ANDERSON","state": "IN","zip": "46013","zip+4": "0000","phone": "7656425758"}
{"name": "CVS PHARMACY #06525","address1": "302 E MAIN STREET","address2": "","city": "N MANCHESTER","state": "IN","zip": "46962","zip+4": "0000","phone": "2199824713"}
{"name": "CVS PHARMACY #06688","address1": "820 WEST OHIO ST","address2": "","city": "ROCKVILLE","state": "IN","zip": "47872","zip+4": "0000","phone": "7655692313"}
{"name": "CVS PHARMACY #06913","address1": "1352 S LAKE PARK AVE","address2": "","city": "HOBART","state": "IN","zip": "46342","zip+4": "0000","phone": "2199420616"}
{"name": "CVS PHARMACY #06669","address1": "511 THIRD STREET","address2": "","city": "COVINGTON","state": "IN","zip": "47932","zip+4": "0000","phone": "7657934511"}
{"name": "PEOPLE'S DRUG STORE","address1": "301 N MICHIGAN ST","address2": "","city": "PLYMOUTH","state": "IN","zip": "46563","zip+4": "1735","phone": "5749363167"}
{"name": "CVS PHARMACY #06527","address1": "6220 ST JOSEPH CENTER RD","address2": "","city": "FORT WAYNE","state": "IN","zip": "46835","zip+4": "0000","phone": "2604857998"}
{"name": "STRATMANS PHARMACY INC","address1": "401 MAIN ST","address2": "","city": "EVANSVILLE","state": "IN","zip": "47708","zip+4": "0000","phone": "8124255293"}
{"name": "CVS PHARMACY #06713","address1": "4444 STATE ROAD WEST 46","address2": "","city": "BLOOMINGTON","state": "IN","zip": "47404","zip+4": "0000","phone": "8128762915"}
{"name": "WALGREEN DRUG STORE #10929","address1": "1650 E RAYMOND ST","address2": "","city": "INDIANAPOLIS","state": "IN","zip": "46203","zip+4": "0000","phone": "3177847979"}
{"name": "CVS PHARMACY #06658","address1": "620 EAST STATE STREET","address2": "","city": "PENDLETON","state": "IN","zip": "46064","zip+4": "0000","phone": "7657784884"}
{"name": "CVS PHARMACY #06914","address1": "5765 EAST STATE ROAD 10","address2": "","city": "DEMOTTE","state": "IN","zip": "46310","zip+4": "0000","phone": "2193454742"}
{"name": "CVS PHARMACY #06674","address1": "505 WEST MAIN STREET","address2": "","city": "DELPHI","state": "IN","zip": "46923","zip+4": "0000","phone": "7655644117"}
{"name": "CVS PHARMACY #06915","address1": "1054 STATE RD 2 SOUTH","address2": "","city": "VALPARAISO","state": "IN","zip": "46385","zip+4": "0000","phone": "2194622994"}
{"name": "CVS PHARMACY #06504","address1": "601 S MAIN ST","address2": "","city": "CHURUBUSCO","state": "IN","zip": "46723","zip+4": "0000","phone": "2606933483"}
{"name": "MEDICINE SHOPPE #1221","address1": "1405 N PARK AVE","address2": "","city": "ALEXANDRIA","state": "IN","zip": "46001","zip+4": "0000","phone": "7657242355"}
{"name": "NOLTES PHARMACY","address1": "1 E GEORGE ST","address2": "","city": "BATESVILLE","state": "IN","zip": "47006","zip+4": "1395","phone": "8129342414"}
{"name": "GEORGES FAMILY PHARMACY INC","address1": "480 MAIN ST","address2": "","city": "BROOKVILLE","state": "IN","zip": "47012","zip+4": "1406","phone": "7656476251"}
{"name": "FAMILY DRUG","address1": "810 W COMMERCE","address2": "","city": "BROWNSTOWN","state": "IN","zip": "47220","zip+4": "1233","phone": "8123584502"}
{"name": "CLOVERDALE DRUGS","address1": "235 S MAIN ST","address2": "","city": "CLOVERDALE","state": "IN","zip": "46120","zip+4": "0000","phone": "7657954100"}
{"name": "FAGEN PHARMACY #1","address1": "325 N HALLECK ST","address2": "","city": "DEMOTTE","state": "IN","zip": "46310","zip+4": "0000","phone": "2199872971"}
{"name": "DENNYS PHARMACY","address1": "500 S GRANT AVE","address2": "","city": "FOWLER","state": "IN","zip": "47944","zip+4": "1636","phone": "7658841520"}
{"name": "FAGEN PHARMACY #7","address1": "448 E MONTOGOMERY","address2": "","city": "FRANCESVILLE","state": "IN","zip": "47946","zip+4": "0000","phone": "2195672222"}
{"name": "FAGEN PHARMACY # #22","address1": "3612 VILLAGE COURT","address2": "","city": "GARY","state": "IN","zip": "46408","zip+4": "0000","phone": "2198871815"}
{"name": "RANBURN DRUGS","address1": "3977 CLEVELAND ST","address2": "","city": "GARY","state": "IN","zip": "46408","zip+4": "2476","phone": "2199804898"}
{"name": "DOCTORS PHARMACY","address1": "2727 HIGHWAY AVE","address2": "","city": "HIGHLAND","state": "IN","zip": "46322","zip+4": "0000","phone": "2199232520"}
{"name": "SAFE DOSE","address1": "8770 GUION RD","address2": "STE G","city": "INDIANAPOLIS","state": "IN","zip": "46268","zip+4": "0000","phone": "3178290550"}
{"name": "EAST SIDE PRESCRIPTION SHOP","address1": "5317 E 16TH ST","address2": "","city": "INDIANAPOLIS","state": "IN","zip": "46218","zip+4": "4892","phone": "3173598278"}
{"name": "FLICK HOMETOWN PHARMACY","address1": "201 W 6TH ST","address2": "","city": "JASPER","state": "IN","zip": "47546","zip+4": "3122","phone": "8124822787"}
{"name": "HANGERS MED ARTS PHARMACY","address1": "207 SPARKS AVE","address2": "","city": "JEFFERSONVILLE","state": "IN","zip": "47130","zip+4": "3739","phone": "8122833591"}
{"name": "HILBISH DRUGS INC","address1": "606 LINCOLNWAY","address2": "","city": "LA PORTE","state": "IN","zip": "46350","zip+4": "3392","phone": "2193622247"}
{"name": "PHILS DISCOUNT DRUG","address1": "702 E LINCOLN WAY","address2": "","city": "LA PORTE","state": "IN","zip": "46350","zip+4": "0000","phone": "2193627133"}
{"name": "BALL STATE HEALTHCENTER PHARMA","address1": "1500 NEELY AVE","address2": "","city": "MUNCIE","state": "IN","zip": "47306","zip+4": "0000","phone": "7652851079"}
{"name": "PROFESSIONAL ARTS PHARMACY","address1": "1919 STATE ST","address2": "SUITE 106","city": "NEW ALBANY","state": "IN","zip": "47150","zip+4": "4981","phone": "8129446725"}
{"name": "BUCHANAN HOMETOWN PHARMACY","address1": "901 MAIN ST","address2": "","city": "PETERSBURG","state": "IN","zip": "47567","zip+4": "1354","phone": "8123549212"}
{"name": "BUEHLERS BUY LOW PHARMACY #465","address1": "509 MAIN ST","address2": "","city": "ROCKPORT","state": "IN","zip": "47635","zip+4": "0000","phone": "8126492227"}
{"name": "A P AND S PHARMACY INC","address1": "221 S 6TH ST","address2": "","city": "TERRE HAUTE","state": "IN","zip": "47807","zip+4": "4214","phone": "8122423855"}
{"name": "UNION HOSPITAL INC","address1": "1606 N 7TH ST","address2": "","city": "TERRE HAUTE","state": "IN","zip": "47804","zip+4": "2780","phone": "8122384935"}
{"name": "GIL DRUGS","address1": "52 LINCOLNWAY","address2": "","city": "VALPARAISO","state": "IN","zip": "46383","zip+4": "5574","phone": "2194624146"}
{"name": "FAGEN PHARMACY #18","address1": "390 US HWY 6 STE 1131","address2": "","city": "VALPARAISO","state": "IN","zip": "46385","zip+4": "0000","phone": "2197627726"}
{"name": "VALPARAISO PROFESSIONAL PHCY","address1": "2102 EVANS AVE","address2": "STE 101","city": "VALPARAISO","state": "IN","zip": "46383","zip+4": "4008","phone": "2194621484"}
{"name": "NORTH SIDE PHARMACY","address1": "1160 E SAINT CLAIR","address2": "","city": "VINCENNES","state": "IN","zip": "47591","zip+4": "0000","phone": "8128821064"}
{"name": "DUESTERBERG DRUG CO INC","address1": "402 S 6TH STREET","address2": "","city": "VINCENNES","state": "IN","zip": "47591","zip+4": "1023","phone": "8128826193"}
{"name": "ZALE DRUGS","address1": "1775 E CENTER ST","address2": "","city": "WARSAW","state": "IN","zip": "46580","zip+4": "0000","phone": "5742677194"}
{"name": "WESTFIELD PHARMACY","address1": "103 S UNION ST","address2": "","city": "WESTFIELD","state": "IN","zip": "46074","zip+4": "0000","phone": "3178969378"}
{"name": "FAIRMEADOWS PHARMACY","address1": "800 MACARTHUR BLVD","address2": "SUITE 32","city": "MUNSTER","state": "IN","zip": "46321","zip+4": "2985","phone": "2198368700"}
{"name": "CVS PHARMACY #06256","address1": "700 E 4TH ST","address2": "","city": "MT VERNON","state": "IN","zip": "47620","zip+4": "0000","phone": "8128385089"}
{"name": "LYNNS PHARMACY","address1": "22 WEST NATIONAL AVE","address2": "","city": "BRAZIL","state": "IN","zip": "47834","zip+4": "0000","phone": "8124462381"}
{"name": "CVS PHARMACY #06542","address1": "4026 SOUTH 00 EAST WEST","address2": "","city": "KOKOMO","state": "IN","zip": "46902","zip+4": "0000","phone": "7654533979"}
{"name": "CVS PHARMACY #06675","address1": "366 W MAIN STREET","address2": "","city": "ROSSVILLE","state": "IN","zip": "46065","zip+4": "0000","phone": "7653792424"}
{"name": "CVS PHARMACY #06508","address1": "529 WEST MAIN ST","address2": "","city": "BUTLER","state": "IN","zip": "46721","zip+4": "0000","phone": "2608682427"}
{"name": "CVS PHARMACY #06714","address1": "8830 STATE ROAD 60 W","address2": "","city": "MITCHELL","state": "IN","zip": "47446","zip+4": "7547","phone": "8128492425"}
{"name": "CVS PHARMACY #06509","address1": "2802 EAST STATE BLVD","address2": "","city": "FORT WAYNE","state": "IN","zip": "46805","zip+4": "0000","phone": "2604715521"}
{"name": "CVS PHARMACY #06629","address1": "415 EAST MCGALLIARD ROAD","address2": "","city": "MUNCIE","state": "IN","zip": "47303","zip+4": "0000","phone": "7652887336"}
{"name": "CVS PHARMACY #06528","address1": "928 US 27 NORTH","address2": "PO BOX 4105","city": "BERNE","state": "IN","zip": "46711","zip+4": "0000","phone": "2605892701"}
{"name": "REID HOSP PHARMACY","address1": "1401 CHESTER BLVD","address2": "","city": "RICHMOND","state": "IN","zip": "47374","zip+4": "1986","phone": "7659833014"}
{"name": "PARKSIDE PHARMACY","address1": "1639 N LEBANON STREET","address2": "","city": "LEBANON","state": "IN","zip": "46052","zip+4": "0000","phone": "7654821600"}
{"name": "HOLIDAY PHARMACY","address1": "1202 W BUENA VISTA RD","address2": "","city": "EVANSVILLE","state": "IN","zip": "47710","zip+4": "5185","phone": "8124290711"}
{"name": "ELKHART OUTPATIENT PHARMACY","address1": "600 E BOULEVARD","address2": "","city": "ELKHART","state": "IN","zip": "46514","zip+4": "1111","phone": "5745233101"}
{"name": "LUTHERAN HOSPITAL OUTPATIENT P","address1": "7950 W JEFFERSON BLVD","address2": "","city": "FT WAYNE","state": "IN","zip": "46804","zip+4": "4140","phone": "2604357390"}
{"name": "THE MEDICINE CHEST PHARMACY","address1": "2803 E STATE BLVD","address2": "","city": "FT WAYNE","state": "IN","zip": "46805","zip+4": "0000","phone": "2604833169"}
{"name": "CVS PHARMACY #06879","address1": "240 W MAIN STREET","address2": "","city": "PETERSBURG","state": "IN","zip": "47567","zip+4": "0000","phone": "8123548939"}
{"name": "MARSH DRUGS LLC #7052791","address1": "2002 STAFFORD ROAD","address2": "","city": "PLAINFIELD","state": "IN","zip": "46168","zip+4": "2167","phone": "3178396561"}
{"name": "MARSH DRUGS LLC #7055790","address1": "3600 WEST THIRD STREET","address2": "","city": "BLOOMINGTON","state": "IN","zip": "47404","zip+4": "4860","phone": "8123322882"}
{"name": "CVS PHARMACY #06700","address1": "275 S SECTION ST","address2": "","city": "SULLIVAN","state": "IN","zip": "47882","zip+4": "0000","phone": "8122686827"}
{"name": "ROYALE PHARMACY","address1": "1937 W ROYALE DR","address2": "","city": "MUNCIE","state": "IN","zip": "47304","zip+4": "2265","phone": "7652826739"}
{"name": "MARSH DRUGS LLC #7091788","address1": "2938 NORTH BROADWAY","address2": "","city": "ANDERSON","state": "IN","zip": "46012","zip+4": "1341","phone": "7656499289"}
{"name": "THE DRUG STORE INC","address1": "1044 N LUTHER RD","address2": "","city": "GEORGETOWN","state": "IN","zip": "47122","zip+4": "9122","phone": "8129238845"}
{"name": "CVS PHARMACY #06630","address1": "711 E JEFFERSON ST","address2": "","city": "TIPTON","state": "IN","zip": "46072","zip+4": "0000","phone": "7656757807"}
{"name": "CVS PHARMACY #06780","address1": "815 W MCCLAIN ST","address2": "","city": "SCOTTSBURG","state": "IN","zip": "47170","zip+4": "0000","phone": "8127524448"}
{"name": "CVS PHARMACY #06597","address1": "11524 E WASHINGTON STREET","address2": "","city": "CUMBERLAND","state": "IN","zip": "46229","zip+4": "0000","phone": "3178944484"}
{"name": "CVS PHARMACY #06631","address1": "3310 E JACKSON STREET","address2": "","city": "MUNCIE","state": "IN","zip": "47303","zip+4": "0000","phone": "7652860933"}
{"name": "KROGER PHARMACY #21910","address1": "3110 NATIONAL RD","address2": "","city": "COLUMBUS","state": "IN","zip": "47201","zip+4": "0000","phone": "8123769566"}
{"name": "MISHAWAKA MEDICAL ARTS PHARMAC","address1": "303 S MAIN ST","address2": "","city": "MISHAWAKA","state": "IN","zip": "46544","zip+4": "2189","phone": "5742553331"}
{"name": "MARSH DRUGS LLC #7046792","address1": "6121 CRAWFORDSVILLE ROAD","address2": "","city": "INDIANAPOLIS","state": "IN","zip": "46224","zip+4": "3711","phone": "3172482427"}
{"name": "WALGREEN DRUG STORE #3502","address1": "907 LINCOLN HWY WEST","address2": "","city": "NEW HAVEN","state": "IN","zip": "46774","zip+4": "0000","phone": "2604933538"}
{"name": "SCHNUCKS PHARMACY #704","address1": "3700 FIRST AVE","address2": "","city": "EVANSVILLE","state": "IN","zip": "47710","zip+4": "0000","phone": "8124643952"}
{"name": "SCHNUCKS PHARMACY #703","address1": "4600 WASHINGTON AVE","address2": "","city": "EVANSVILLE","state": "IN","zip": "47715","zip+4": "0000","phone": "8124730113"}
{"name": "PHYSICIANS CENTER PHARMACY","address1": "350 W COLUMBIA ST","address2": "","city": "EVANSVILLE","state": "IN","zip": "47710","zip+4": "0000","phone": "8124649083"}
{"name": "HERBST APOTHECARY INC","address1": "3109 W SYCAMORE ST","address2": "","city": "KOKOMO","state": "IN","zip": "46901","zip+4": "4097","phone": "7654571191"}
{"name": "CVS PHARMACY #06487","address1": "2101 EAST IRELAND ROAD","address2": "","city": "SOUTH BEND","state": "IN","zip": "46614","zip+4": "0000","phone": "5742911303"}
{"name": "CVS PHARMACY #06472","address1": "410 SOUTH MAIN ST","address2": "","city": "GOSHEN","state": "IN","zip": "46526","zip+4": "0000","phone": "5745332510"}
{"name": "CVS PHARMACY #06722","address1": "103 E HACKBERRY ST","address2": "","city": "SALEM","state": "IN","zip": "47167","zip+4": "0000","phone": "8128836929"}
{"name": "CVS PHARMACY #06576","address1": "1421 S RANGE LINE RD","address2": "","city": "CARMEL","state": "IN","zip": "46032","zip+4": "0000","phone": "3178448393"}
{"name": "CVS PHARMACY #06510","address1": "7330 LIMA ROAD","address2": "","city": "FORT WAYNE","state": "IN","zip": "46818","zip+4": "1130","phone": "2604896064"}
{"name": "CVS PHARMACY #06724","address1": "1206 16TH STREET","address2": "","city": "BEDFORD","state": "IN","zip": "47421","zip+4": "0000","phone": "8122753393"}
{"name": "CVS PHARMACY #06574","address1": "1080 S PERU ST","address2": "","city": "CICERO","state": "IN","zip": "46034","zip+4": "0000","phone": "3179843623"}
{"name": "CVS PHARMACY #06543","address1": "607 E TALMER AVE","address2": "","city": "NORTH JUDSON","state": "IN","zip": "46366","zip+4": "0000","phone": "2198963111"}
{"name": "KROGER PHARMACY #21911","address1": "2140 FT HARRISON RD","address2": "","city": "TERRE HAUTE","state": "IN","zip": "47805","zip+4": "0000","phone": "8124666545"}
{"name": "KROGER PHARMACY #21987","address1": "4714 S US HWY 41","address2": "","city": "TERRE HAUTE","state": "IN","zip": "47802","zip+4": "0000","phone": "8122328379"}
{"name": "CVS PHARMACY #06632","address1": "1130 S MAIN STREET","address2": "","city": "DUNKIRK","state": "IN","zip": "47336","zip+4": "0000","phone": "7657686131"}
{"name": "DEXTER PROFESSIONAL PHARMACY","address1": "800 FULTON ST","address2": "","city": "LOGANSPORT","state": "IN","zip": "46947","zip+4": "1517","phone": "5747225600"}
{"name": "CVS PHARMACY #06473","address1": "12544 ST RD 23","address2": "","city": "GRANGER","state": "IN","zip": "46530","zip+4": "0000","phone": "5742725773"}
{"name": "CVS PHARMACY #06600","address1": "1530 N SHADELAND AVENUE","address2": "","city": "INDIANAPOLIS","state": "IN","zip": "46219","zip+4": "0000","phone": "3173567337"}
{"name": "CVS PHARMACY #06599","address1": "715 E BROADWAY","address2": "","city": "FORTVILLE","state": "IN","zip": "46040","zip+4": "0000","phone": "3174857111"}
{"name": "CVS PHARMACY #06791","address1": "500 CLIFTY DRIVE","address2": "","city": "MADISON","state": "IN","zip": "47250","zip+4": "0000","phone": "8122732117"}
{"name": "CVS PHARMACY #06784","address1": "1112 MAIN ST","address2": "","city": "BROOKVILLE","state": "IN","zip": "47012","zip+4": "0000","phone": "7656743533"}
{"name": "WALGREEN DRUG STORE #322","address1": "720 W CHICAGO AVE","address2": "","city": "EAST CHICAGO","state": "IN","zip": "46312","zip+4": "0000","phone": "2193976208"}
{"name": "CVS PHARMACY #06258","address1": "2020 E MORGAN AVENUE","address2": "","city": "EVANSVILLE","state": "IN","zip": "47711","zip+4": "0000","phone": "8124224824"}
{"name": "LOW COST RX #1","address1": "4076 S KEYSTONE AVE","address2": "","city": "INDIANAPOLIS","state": "IN","zip": "46227","zip+4": "0000","phone": "3177877205"}
{"name": "CVS PHARMACY #06787","address1": "100 E HIGHWAY 46 E","address2": "","city": "BATESVILLE","state": "IN","zip": "47006","zip+4": "0000","phone": "8129345711"}
{"name": "CVS PHARMACY #06661","address1": "263 W MORGAN STREET","address2": "","city": "KNIGHTSTOWN","state": "IN","zip": "46148","zip+4": "0000","phone": "7653457163"}
{"name": "CVS PHARMACY #06602","address1": "11501 ALLISONVILLE ROAD","address2": "","city": "FISHERS","state": "IN","zip": "46038","zip+4": "0000","phone": "3178427773"}
{"name": "CVS PHARMACY #06474","address1": "1900 N MICHIGAN ST","address2": "","city": "PLYMOUTH","state": "IN","zip": "46563","zip+4": "0000","phone": "5749355697"}
{"name": "FAMILY PHARMACY INC","address1": "508 W 11TH STREET","address2": "","city": "BICKNELL","state": "IN","zip": "47512","zip+4": "0000","phone": "8127354444"}
{"name": "CVS PHARMACY #06880","address1": "1500 HART ST","address2": "","city": "VINCENNES","state": "IN","zip": "47591","zip+4": "0000","phone": "8128864869"}
{"name": "CVS PHARMACY #06792","address1": "4495 WEST STATE ROAD 46","address2": "","city": "COLUMBUS","state": "IN","zip": "47201","zip+4": "0000","phone": "8123426817"}
{"name": "CVS PHARMACY #06881","address1": "610 NORTH MAIN STREET","address2": "","city": "HUNTINGBURG","state": "IN","zip": "47542","zip+4": "0000","phone": "8126833309"}
{"name": "KROGER PHARMACY #21915","address1": "901 JOHNSON ST","address2": "","city": "ELKHART","state": "IN","zip": "46514","zip+4": "0000","phone": "5742645996"}
{"name": "CVS PHARMACY #06795","address1": "201 W HIGH ST","address2": "","city": "LIBERTY","state": "IN","zip": "47353","zip+4": "0000","phone": "7654586882"}
{"name": "OSCO PHARMACY #3076","address1": "1276 N MAIN ST","address2": "","city": "CROWN POINT","state": "IN","zip": "46307","zip+4": "0000","phone": "2196620200"}
{"name": "KMART PHARMACY #3180","address1": "101 WEST LINCOLN","address2": "","city": "MERRILLVILLE","state": "IN","zip": "46410","zip+4": "0000","phone": "2197381957"}
{"name": "WALGREEN DRUG STORE #5452","address1": "2410 N COLISEUM BLVD","address2": "","city": "FORT WAYNE","state": "IN","zip": "46805","zip+4": "0000","phone": "2604832128"}
{"name": "CVS PHARMACY #06603","address1": "5005 EAST 56TH ST","address2": "","city": "INDIANAPOLIS","state": "IN","zip": "46226","zip+4": "0000","phone": "3175427303"}
{"name": "CVS PHARMACY #06677","address1": "3630 S 18TH STREET","address2": "","city": "LAFAYETTE","state": "IN","zip": "47909","zip+4": "0000","phone": "7654743834"}
{"name": "KROGER PHARMACY #21920","address1": "120 S MEMORIAL DR","address2": "","city": "NEW CASTLE","state": "IN","zip": "47362","zip+4": "0000","phone": "7655297330"}
{"name": "PHARMA CARD HAMMOND INC","address1": "5500 HOHMAN AVE","address2": "","city": "HAMMOND","state": "IN","zip": "46320","zip+4": "0000","phone": "2199322920"}
{"name": "FAGEN PHARMACY #2","address1": "3892 W STATE RD 10","address2": "","city": "WHEATFIELD","state": "IN","zip": "46392","zip+4": "0000","phone": "2199563992"}
{"name": "FAGEN PHARMACY # #14","address1": "10809 RANDOLPH ST","address2": "","city": "CROWN POINT","state": "IN","zip": "46307","zip+4": "0000","phone": "2196639075"}
{"name": "METHODIST MEDICAL PLAZA EAST","address1": "9650 E WASHINGTON ST","address2": "","city": "INDIANAPOLIS","state": "IN","zip": "46229","zip+4": "0000","phone": "3178905527"}
{"name": "CVS PHARMACY #06260","address1": "225 12TH STREET","address2": "","city": "TELL CITY","state": "IN","zip": "47586","zip+4": "0000","phone": "8125474201"}
{"name": "CVS PHARMACY #06735","address1": "ROUTE 6 BOX 8 US 231 S","address2": "","city": "BLOOMFIELD","state": "IN","zip": "47424","zip+4": "0000","phone": "8123844820"}
{"name": "WALGREEN DRUG STORE #1016","address1": "7236 CALUMET","address2": "","city": "HAMMOND","state": "IN","zip": "46324","zip+4": "0000","phone": "2199370242"}
{"name": "KROGER PHARMACY #21138","address1": "916 N MAIN ST","address2": "","city": "MONTICELLO","state": "IN","zip": "47960","zip+4": "0000","phone": "5745834489"}
{"name": "MARSH DRUGS LLC #7027793","address1": "2410 NORTH SALISBURY STREET","address2": "","city": "WEST LAFAYETTE","state": "IN","zip": "47906","zip+4": "1942","phone": "7654635313"}
{"name": "DILLSBORO DRUGS","address1": "12836 NORTH ST","address2": "","city": "DILLSBORO","state": "IN","zip": "47018","zip+4": "0000","phone": "8124325684"}
{"name": "KROGER PHARMACY #21926","address1": "5615 W 38TH ST","address2": "","city": "INDIANAPOLIS","state": "IN","zip": "46254","zip+4": "0000","phone": "3172996783"}
{"name": "FAGEN PHARMACY # #3","address1": "10064 N 600 E","address2": "","city": "DEMOTTE","state": "IN","zip": "46310","zip+4": "0000","phone": "2193452200"}
{"name": "KMART PHARMACY #7498","address1": "750 INDIAN BOUNDARY ROAD","address2": "","city": "CHESTERTON","state": "IN","zip": "46304","zip+4": "0000","phone": "2199267571"}
{"name": "KMART PHARMACY #7527","address1": "975 N GREEN ST","address2": "","city": "BROWNSBURG","state": "IN","zip": "46112","zip+4": "0000","phone": "3178522213"}
{"name": "VILLAGE DRUG STORE INC","address1": "1313 HOMEWOOD AVE","address2": "","city": "CRAWFORDSVILLE","state": "IN","zip": "47933","zip+4": "0000","phone": "7653640324"}
{"name": "KROGER PHARMACY #21928","address1": "1175 COLLEGE MALL RD","address2": "","city": "BLOOMINGTON","state": "IN","zip": "47401","zip+4": "0000","phone": "8123335760"}
{"name": "WALGREEN DRUG STORE #10534","address1": "1939 INDIANAPOLIS BLVD","address2": "","city": "WHITING","state": "IN","zip": "46394","zip+4": "1509","phone": "2196593541"}
{"name": "GUTHRIE'S PHARMACY","address1": "520 W LINCOLN AVE","address2": "","city": "CHANDLER","state": "IN","zip": "47610","zip+4": "0000","phone": "8129253347"}
{"name": "OSCO PHARMACY #3096","address1": "740 RIDGE RD","address2": "","city": "MUNSTER","state": "IN","zip": "46321","zip+4": "0000","phone": "2198367978"}
{"name": "CVS PHARMACY #06798","address1": "110 EAST LAGRANGE ROAD","address2": "","city": "HANOVER","state": "IN","zip": "47243","zip+4": "0000","phone": "8128665599"}
{"name": "CVS PHARMACY #06917","address1": "5301 BROADWAY","address2": "","city": "MERRILLVILLE","state": "IN","zip": "46410","zip+4": "0000","phone": "2198840004"}
{"name": "OSCO PHARMACY #3127","address1": "805 JOLIET ST","address2": "","city": "DYER","state": "IN","zip": "46311","zip+4": "0000","phone": "2198644314"}
{"name": "MEMORIAL FAMILY PHARMACY","address1": "714 N MICHIGAN ST","address2": "","city": "SOUTH BEND","state": "IN","zip": "46601","zip+4": "1033","phone": "5746477176"}
{"name": "KMART PHARMACY #7474","address1": "9550 WICKER","address2": "","city": "ST JOHN","state": "IN","zip": "46373","zip+4": "0000","phone": "2193653121"}
{"name": "CVS PHARMACY #06475","address1": "104 W HIVELY AVE","address2": "","city": "ELKHART","state": "IN","zip": "46517","zip+4": "0000","phone": "5742932231"}
{"name": "KMART PHARMACY #7042","address1": "2801 CALUMET AVE","address2": "","city": "VALPARAISO","state": "IN","zip": "46383","zip+4": "0000","phone": "2194657153"}
{"name": "CVS PHARMACY #06578","address1": "7202 N MICHIGAN RD","address2": "","city": "INDIANAPOLIS","state": "IN","zip": "46268","zip+4": "0000","phone": "3172911220"}
{"name": "CVS PHARMACY #06662","address1": "711 W MILL ST","address2": "","city": "MIDDLETOWN","state": "IN","zip": "47356","zip+4": "0000","phone": "7653544692"}
{"name": "CVS PHARMACY #06604","address1": "175 N ILLINOIS STREET","address2": "","city": "INDIANAPOLIS","state": "IN","zip": "46204","zip+4": "0000","phone": "3176366664"}
{"name": "PHILLIPS DRUGS EAST","address1": "1626 EAST MAIN","address2": "","city": "RICHMOND","state": "IN","zip": "47374","zip+4": "0000","phone": "7659662225"}
{"name": "COWAN DRUGS","address1": "112 N LEBANON STREET","address2": "","city": "LEBANON","state": "IN","zip": "46052","zip+4": "0000","phone": "7654820180"}
{"name": "WALGREEN DRUG STORE #4668","address1": "1003 N MAIN STREET","address2": "","city": "CROWN POINT","state": "IN","zip": "46307","zip+4": "0000","phone": "2196634311"}
{"name": "MEDICINE PLUS PHARMACY","address1": "2412 W 16TH ST","address2": "","city": "BEDFORD","state": "IN","zip": "47421","zip+4": "0000","phone": "8122753383"}
{"name": "CVS PHARMACY #06605","address1": "9550 ALLISONVILLE ROAD","address2": "","city": "INDIANAPOLIS","state": "IN","zip": "46250","zip+4": "0000","phone": "3178424458"}
{"name": "LEE PHARMACY AND HEALTHCAR","address1": "1299 E MORGAN","address2": "","city": "MARTINSVILLE","state": "IN","zip": "46151","zip+4": "0000","phone": "7653421801"}
{"name": "CVS PHARMACY #06808","address1": "10 NORTH STATE STREET","address2": "","city": "NORTH VERNON","state": "IN","zip": "47265","zip+4": "0000","phone": "8123461200"}
{"name": "CVS PHARMACY #06739","address1": "RR 4 BOX 582 SR 46 W","address2": "","city": "SPENCER","state": "IN","zip": "47460","zip+4": "0000","phone": "8128292484"}
{"name": "CVS PHARMACY #06813","address1": "703 E MAIN ST","address2": "","city": "VEVAY","state": "IN","zip": "47043","zip+4": "0000","phone": "8124273777"}
{"name": "KMART PHARMACY #4108","address1": "6050 US HIGHWAY 6","address2": "","city": "PORTAGE","state": "IN","zip": "46368","zip+4": "0000","phone": "2197626912"}
{"name": "CVS PHARMACY #06882","address1": "665 EAST STATE ROAD 64","address2": "","city": "ENGLISH","state": "IN","zip": "47118","zip+4": "0000","phone": "8123383686"}
{"name": "KMART PHARMACY #4152","address1": "420 W MC KINLEY AVE","address2": "","city": "MISHAWAKA","state": "IN","zip": "46544","zip+4": "0000","phone": "5742597066"}
{"name": "KMART PHARMACY #3251","address1": "6780 W WASHINGTON ST","address2": "","city": "INDIANAPOLIS","state": "IN","zip": "46241","zip+4": "0000","phone": "3172475616"}
{"name": "LOW COST RX #2","address1": "8375 MADISON AVE FRONTAGE RD","address2": "","city": "INDIANAPOLIS","state": "IN","zip": "46227","zip+4": "0000","phone": "3178818262"}
{"name": "KMART PHARMACY #4196","address1": "7201 PENDLETON PIKE","address2": "","city": "INDIANAPOLIS","state": "IN","zip": "46226","zip+4": "0000","phone": "3175456561"}
{"name": "KMART PHARMACY #4913","address1": "4651 S US HIGHWAY 41","address2": "","city": "TERRE HAUTE","state": "IN","zip": "47802","zip+4": "0000","phone": "8122992596"}
{"name": "KROGER PHARMACY #21914","address1": "3701 E NATIONAL RD","address2": "","city": "RICHMOND","state": "IN","zip": "47374","zip+4": "0000","phone": "7659352074"}
{"name": "KMART PHARMACY #4203","address1": "7425 E WASHINGTON ST","address2": "","city": "INDIANAPOLIS","state": "IN","zip": "46219","zip+4": "0000","phone": "3173596389"}
{"name": "KMART PHARMACY #7431","address1": "5101 E THOMPSON RD","address2": "","city": "INDIANAPOLIS","state": "IN","zip": "46237","zip+4": "0000","phone": "3177862748"}
{"name": "OSCO PHARMACY #3189","address1": "747 INDIAN BOUNDARY RD","address2": "","city": "CHESTERTON","state": "IN","zip": "46304","zip+4": "0000","phone": "2199268723"}
{"name": "CHRIS PHARMACY","address1": "511 MAIN STREET","address2": "","city": "NEW HARMONY","state": "IN","zip": "47631","zip+4": "0000","phone": "8126823044"}
{"name": "KMART PHARMACY #3260","address1": "860 US 31 SOUTH","address2": "","city": "GREENWOOD","state": "IN","zip": "46143","zip+4": "0000","phone": "3178829692"}
{"name": "CVS PHARMACY #06609","address1": "6336 OAKLANDON ROAD","address2": "","city": "INDIANAPOLIS","state": "IN","zip": "46236","zip+4": "0000","phone": "3178236829"}
{"name": "KMART PHARMACY #4438","address1": "2715 MADISON AVE","address2": "","city": "INDIANAPOLIS","state": "IN","zip": "46225","zip+4": "0000","phone": "3177846831"}
{"name": "WALGREEN DRUG STORE #2932","address1": "1701 E PAULDING RD","address2": "","city": "FORT WAYNE","state": "IN","zip": "46816","zip+4": "0000","phone": "2604563427"}
{"name": "WALGREEN DRUG STORE #9854","address1": "2015 STATE ST","address2": "","city": "NEW ALBANY","state": "IN","zip": "47150","zip+4": "4921","phone": "8129450535"}
{"name": "WALGREEN DRUG STORE #4581","address1": "1605 E 37TH AVE","address2": "","city": "HOBART","state": "IN","zip": "46342","zip+4": "0000","phone": "2199479264"}
{"name": "CVS PHARMACY #06608","address1": "5026 WEST US 52","address2": "","city": "NEW PALESTINE","state": "IN","zip": "46163","zip+4": "0000","phone": "3178614838"}
{"name": "MCKAY FAMILY PHARMACY","address1": "305 E MORGAN ST","address2": "","city": "SPENCER","state": "IN","zip": "47460","zip+4": "0000","phone": "8128294821"}
{"name": "CVS PHARMACY #06689","address1": "924 WESTERN AVENUE","address2": "","city": "CLINTON","state": "IN","zip": "47842","zip+4": "0000","phone": "7658322431"}
{"name": "KROGER PHARMACY #21820","address1": "4445 E 10TH ST","address2": "","city": "INDIANAPOLIS","state": "IN","zip": "46201","zip+4": "0000","phone": "3173591638"}
{"name": "KMART PHARMACY #4377","address1": "3216 E THIRD STREET","address2": "","city": "BLOOMINGTON","state": "IN","zip": "47401","zip+4": "0000","phone": "8123368426"}
{"name": "CVS PHARMACY #06610","address1": "8405 SOUTHEASTERN AVENUE","address2": "","city": "INDIANAPOLIS","state": "IN","zip": "46239","zip+4": "0000","phone": "3178622414"}
{"name": "LOW COST PRESCRIPTION SOUTH","address1": "715 E 53RD ST","address2": "","city": "ANDERSON","state": "IN","zip": "46013","zip+4": "1728","phone": "7656494122"}
{"name": "KMART PHARMACY #4067","address1": "7530 S ANTHONY BLVD","address2": "","city": "FORT WAYNE","state": "IN","zip": "46816","zip+4": "0000","phone": "2604472544"}
{"name": "WALGREEN DRUG STORE #6691","address1": "2401 RIDGE RD","address2": "","city": "HIGHLAND","state": "IN","zip": "46322","zip+4": "0000","phone": "2198381396"}
{"name": "KMART PHARMACY #7775","address1": "3530 STATE RD 38 EAST","address2": "","city": "LAFAYETTE","state": "IN","zip": "47905","zip+4": "0000","phone": "7654486592"}
{"name": "KROGER PHARMACY #21091","address1": "528 SOUTH COLLEGE","address2": "","city": "BLOOMINGTON","state": "IN","zip": "47403","zip+4": "0000","phone": "8123365118"}
{"name": "KROGER PHARMACY #21115","address1": "905 N GREEN ST","address2": "","city": "BROWNSBURG","state": "IN","zip": "46112","zip+4": "0000","phone": "3178523340"}
{"name": "KROGER PHARMACY #21118","address1": "1930 E MAIN ST","address2": "","city": "PLAINFIELD","state": "IN","zip": "46168","zip+4": "0000","phone": "3178395149"}
{"name": "WALGREEN DRUG STORE #4190","address1": "6730 BLUFFTON RD","address2": "","city": "FORT WAYNE","state": "IN","zip": "46809","zip+4": "0000","phone": "2607477563"}
{"name": "KROGER PHARMACY #24276","address1": "2956 E 10TH ST","address2": "","city": "JEFFERSONVILLE","state": "IN","zip": "47130","zip+4": "0000","phone": "8122889245"}
{"name": "CVS PHARMACY #06580","address1": "5611 GEORGETOWN RD","address2": "","city": "INDIANAPOLIS","state": "IN","zip": "46254","zip+4": "0000","phone": "3172999596"}
{"name": "CVS PHARMACY #06561","address1": "3425 W 16TH ST","address2": "","city": "INDIANAPOLIS","state": "IN","zip": "46222","zip+4": "0000","phone": "3176396374"}
{"name": "CVS PHARMACY #06680","address1": "713 S WASHINGTON STREET","address2": "","city": "CRAWFORDSVILLE","state": "IN","zip": "47933","zip+4": "0000","phone": "7653622831"}
{"name": "CVS PHARMACY #06613","address1": "4401 E 10TH ST","address2": "","city": "INDIANAPOLIS","state": "IN","zip": "46201","zip+4": "0000","phone": "3173532178"}
{"name": "CVS PHARMACY #06545","address1": "2 SOUTH BROADWAY","address2": "","city": "PERU","state": "IN","zip": "46970","zip+4": "0000","phone": "7654724367"}
{"name": "CVS PHARMACY #06546","address1": "1910 MAIN STREET","address2": "","city": "ROCHESTER","state": "IN","zip": "46975","zip+4": "0000","phone": "5742234304"}
{"name": "WALGREEN DRUG STORE #1696","address1": "9626 CLINE AVE","address2": "","city": "HIGHLAND","state": "IN","zip": "46322","zip+4": "0000","phone": "2199242700"}
{"name": "WALGREEN DRUG STORE #3680","address1": "1903 CALUMET AVE","address2": "","city": "VALPARAISO","state": "IN","zip": "46383","zip+4": "0000","phone": "2194626171"}
{"name": "WALGREEN DRUG STORE #7418","address1": "1207 S HEATON ST","address2": "","city": "KNOX","state": "IN","zip": "46534","zip+4": "0000","phone": "5747722165"}
{"name": "WALGREEN DRUG STORE #6216","address1": "732 W OLD RIDGE RD","address2": "","city": "HOBART","state": "IN","zip": "46342","zip+4": "0000","phone": "2199428516"}
{"name": "WALGREEN DRUG STORE #7708","address1": "8930 CALUMET AVE","address2": "","city": "MUNSTER","state": "IN","zip": "46321","zip+4": "0000","phone": "2195130891"}
{"name": "WALGREEN DRUG STORE #3352","address1": "6905 KENNEDY AVE","address2": "","city": "HAMMOND","state": "IN","zip": "46323","zip+4": "0000","phone": "2198445033"}
{"name": "WALGREEN DRUG STORE #09827","address1": "720 N BROADWAY","address2": "","city": "PERU","state": "IN","zip": "46970","zip+4": "1027","phone": "7654735542"}
{"name": "WALGREEN DRUG STORE #6434","address1": "550 S COLLEGE AVE","address2": "","city": "RENSSELAER","state": "IN","zip": "47978","zip+4": "0000","phone": "2198664155"}
{"name": "WALGREEN DRUG STORE #2765","address1": "6030 CENTRAL AVE","address2": "","city": "PORTAGE","state": "IN","zip": "46368","zip+4": "0000","phone": "2197625531"}
{"name": "WALGREEN DRUG STORE #5141","address1": "1302 W SR 2","address2": "","city": "LAPORTE","state": "IN","zip": "46350","zip+4": "0000","phone": "2193627008"}
{"name": "WALGREEN DRUG STORE #4462","address1": "6510 COLUMBIA AVE","address2": "","city": "HAMMOND","state": "IN","zip": "46320","zip+4": "0000","phone": "2199313331"}
{"name": "WALGREEN DRUG STORE #6106","address1": "770 JOLIET ST","address2": "","city": "DYER","state": "IN","zip": "46311","zip+4": "0000","phone": "2193224331"}
{"name": "WALGREEN DRUG STORE #5194","address1": "1704 E COMMERCIAL AVE","address2": "","city": "LOWELL","state": "IN","zip": "46356","zip+4": "0000","phone": "2196966636"}
{"name": "WALGREEN DRUG STORE #5241","address1": "252 MORTHLAND DR","address2": "","city": "VALPARAISO","state": "IN","zip": "46383","zip+4": "0000","phone": "2194651586"}
{"name": "WALGREEN DRUG STORE #1712","address1": "200 FRANCISCAN DR","address2": "","city": "CROWN POINT","state": "IN","zip": "46307","zip+4": "0000","phone": "2196620800"}
{"name": "WALGREEN DRUG STORE #5316","address1": "906 MAIN ST","address2": "","city": "ROCHESTER","state": "IN","zip": "46975","zip+4": "1740","phone": "5742234391"}
{"name": "WALGREENS # #12074","address1": "308 N MAIN ST","address2": "","city": "HEBRON","state": "IN","zip": "46341","zip+4": "8790","phone": "2199962930"}
{"name": "WALGREEN DRUG STORE #4560","address1": "5995 U S HWY 6","address2": "","city": "PORTAGE","state": "IN","zip": "46368","zip+4": "0000","phone": "2197622133"}
{"name": "WALGREEN DRUG STORE #5787","address1": "651 W US HWY 30","address2": "","city": "SCHERERVILLE","state": "IN","zip": "46375","zip+4": "0000","phone": "2198652244"}
{"name": "WALGREEN DRUG STORE #5628","address1": "4445 CALUMET AVE","address2": "","city": "HAMMOND","state": "IN","zip": "46327","zip+4": "0000","phone": "2199322006"}
{"name": "WALGREEN DRUG STORE #6100","address1": "2811 HOLMANS LANE","address2": "","city": "JEFFERSONVILLE","state": "IN","zip": "47130","zip+4": "0000","phone": "8122886225"}
{"name": "WALGREEN DRUG STORE #4122","address1": "2755 CHARLESTOWN","address2": "","city": "NEW ALBANY","state": "IN","zip": "47150","zip+4": "0000","phone": "8129444815"}
{"name": "FAGEN PHARMACY #8","address1": "156 W FLYNN RD","address2": "","city": "WESTVILLE","state": "IN","zip": "46391","zip+4": "0000","phone": "2197852573"}
{"name": "SALEM APOTHECARY","address1": "NO 3 LYON BLOCK PUBLIC SQUARE","address2": "","city": "SALEM","state": "IN","zip": "47167","zip+4": "0000","phone": "8128834500"}
{"name": "WAL-MART PHARMACY #100884","address1": "2500 PROGRESS PARKWAY","address2": "","city": "SHELBYVILLE","state": "IN","zip": "46176","zip+4": "0000","phone": "3173924947"}
{"name": "WAL-MART PHARMACY #100923","address1": "16865 CLOVER ROAD","address2": "","city": "NOBLESVILLE","state": "IN","zip": "46060","zip+4": "0000","phone": "3177731065"}
{"name": "WAL-MART PHARMACY #100922","address1": "2363 HWY 135 NW","address2": "","city": "CORYDON","state": "IN","zip": "47112","zip+4": "0000","phone": "8127381294"}
{"name": "AUSTIN PHARMACY","address1": "10 W MAIN ST","address2": "","city": "AUSTIN","state": "IN","zip": "47102","zip+4": "1304","phone": "8127944311"}
{"name": "PRESCRIPTION SHOPPE LLC","address1": "2005 STATE ST","address2": "SUITE B","city": "WASHINGTON","state": "IN","zip": "47501","zip+4": "0000","phone": "8122547666"}
{"name": "KROGER PHARMACY #21929","address1": "218 EAST PETTIT","address2": "","city": "FORT WAYNE","state": "IN","zip": "46806","zip+4": "0000","phone": "2604564736"}
{"name": "KROGER PHARMACY #24762","address1": "305 E LEWIS AND CLARK PKWY","address2": "","city": "CLARKSVILLE","state": "IN","zip": "47129","zip+4": "0000","phone": "8122833630"}
{"name": "KROGER PHARMACY #21903","address1": "1217 E IRELAND RD","address2": "","city": "SOUTH BEND","state": "IN","zip": "46614","zip+4": "0000","phone": "5742910740"}
{"name": "CVS PHARMACY #06883","address1": "402 W BROADWAY","address2": "","city": "LOOGOOTEE","state": "IN","zip": "47553","zip+4": "0000","phone": "8122954600"}
{"name": "WALGREEN DRUG STORE #3437","address1": "1010 E IRELAND ROAD","address2": "","city": "SOUTH BEND","state": "IN","zip": "46614","zip+4": "0000","phone": "5742990152"}
{"name": "WAL-MART PHARMACY #100995","address1": "2125 NORTH MORTON ST.","address2": "","city": "FRANKLIN","state": "IN","zip": "46131","zip+4": "0000","phone": "3177384387"}
{"name": "WAL-MART PHARMACY #100996","address1": "823 WEST STATE HIGHWAY 46","address2": "","city": "SPENCER","state": "IN","zip": "47460","zip+4": "0000","phone": "8128292289"}
{"name": "CVS PHARMACY #06611","address1": "5925 E 71ST STREET","address2": "","city": "INDIANAPOLIS","state": "IN","zip": "46220","zip+4": "0000","phone": "3178459072"}
{"name": "EAGLE HIGHLAND PHARMACY","address1": "3850 SHORE DR","address2": "STE 111","city": "INDIANAPOLIS","state": "IN","zip": "46254","zip+4": "2609","phone": "3172993771"}
{"name": "WAL-MART PHARMACY #101002","address1": "2251 E. STATES HWY 54","address2": "","city": "LINTON","state": "IN","zip": "47441","zip+4": "0000","phone": "8128478648"}
{"name": "WAL-MART PHARMACY #101013","address1": "1795 EAST STATE ROAD 163","address2": "","city": "CLINTON","state": "IN","zip": "47842","zip+4": "0000","phone": "7658323539"}
{"name": "WAL-MART PHARMACY #101026","address1": "3200 JOHN WILLIAMS BLVD","address2": "","city": "BEDFORD","state": "IN","zip": "47421","zip+4": "0000","phone": "8122750415"}
{"name": "SHERIDAN ELLIOTT PHARMACY INC","address1": "508 E 10TH ST","address2": "","city": "SHERIDAN","state": "IN","zip": "46069","zip+4": "0000","phone": "3177584171"}
{"name": "KROGER LIMITED PARTNERSHIP I #","address1": "880 W EADS PKWY WEST","address2": "","city": "LAWRENCEBURG","state": "IN","zip": "47025","zip+4": "0000","phone": "8125327360"}
{"name": "CVS PHARMACY #06884","address1": "8321 W SR 56","address2": "","city": "W. BADEN SPRINGS","state": "IN","zip": "47469","zip+4": "0000","phone": "8129367272"}
{"name": "WAL-MART PHARMACY #101033","address1": "1600 EAST TIPTON","address2": "","city": "SEYMOUR","state": "IN","zip": "47274","zip+4": "0000","phone": "8125225252"}
{"name": "WALGREEN DRUG STORE #3129","address1": "6201 STELLHORN","address2": "","city": "FORT WAYNE","state": "IN","zip": "46815","zip+4": "0000","phone": "2604850545"}
{"name": "WALGREEN DRUG STORE #9220","address1": "2845 W CLEVELAND RD","address2": "","city": "SOUTH BEND","state": "IN","zip": "46628","zip+4": "0000","phone": "5742771528"}
{"name": "WALGREEN DRUG STORE #1739","address1": "1945 LINCOLN WAY E","address2": "","city": "SOUTH BEND","state": "IN","zip": "46635","zip+4": "0000","phone": "5742329540"}
{"name": "CVS PHARMACY #06814","address1": "221 S HIGH ST","address2": "","city": "VERSAILLES","state": "IN","zip": "47042","zip+4": "0000","phone": "8126895553"}
{"name": "WALGREEN DRUG STORE #6066","address1": "1804 N JEFFERSON","address2": "","city": "HUNTINGTON","state": "IN","zip": "46750","zip+4": "0000","phone": "2603580012"}
{"name": "KROGER PHARMACY #21109","address1": "605 N DIXON RD","address2": "","city": "KOKOMO","state": "IN","zip": "46901","zip+4": "0000","phone": "7654570800"}
{"name": "MARSH DRUGS LLC #7090796","address1": "1435 WEST 86TH STREET","address2": "","city": "INDIANAPOLIS","state": "IN","zip": "46260","zip+4": "2103","phone": "3178725141"}
{"name": "ODON PHARMACY","address1": "200 W MAIN STREET","address2": "","city": "ODON","state": "IN","zip": "47562","zip+4": "0000","phone": "8126364600"}
{"name": "CVS PHARMACY #06607","address1": "105 E OHIO STREET","address2": "","city": "INDIANAPOLIS","state": "IN","zip": "46204","zip+4": "0000","phone": "3176365577"}
{"name": "KROGER PHARMACY #21906","address1": "2550 LAKE CIRCLE DR","address2": "","city": "INDIANAPOLIS","state": "IN","zip": "46268","zip+4": "0000","phone": "3178792465"}
{"name": "WALGREEN DRUG STORE #5510","address1": "9030 US HIGHWAY 24 W","address2": "","city": "FORT WAYNE","state": "IN","zip": "46804","zip+4": "0000","phone": "2604327196"}
{"name": "PHARMA CARD VALPARAISO NORTH I","address1": "2005 ROOSEVELT RD","address2": "SUITE A","city": "VALPARAISO","state": "IN","zip": "46383","zip+4": "0000","phone": "2194640404"}
{"name": "WAL-MART PHARMACY #101142","address1": "1618 W MCCLAIN","address2": "","city": "SCOTTSBURG","state": "IN","zip": "47170","zip+4": "0000","phone": "8127525589"}
{"name": "WAL-MART PHARMACY #101180","address1": "790 GREENSBURG COMMMONS S/C","address2": "","city": "GREENSBURG","state": "IN","zip": "47240","zip+4": "0000","phone": "8126633338"}
{"name": "DR AZIZ PHARMACY","address1": "7320 E 82ND ST","address2": "SUITE D","city": "INDIANAPOLIS","state": "IN","zip": "46256","zip+4": "1487","phone": "3178425771"}
{"name": "CVS PHARMACY #06663","address1": "11 NORTH MORTON STREET","address2": "","city": "FRANKLIN","state": "IN","zip": "46131","zip+4": "0000","phone": "3177389713"}
{"name": "WAL-MART PHARMACY #101157","address1": "2110 N STATE HWY 3","address2": "","city": "NORTH VERNON","state": "IN","zip": "47265","zip+4": "0000","phone": "8123466323"}
{"name": "WAL-MART PHARMACY #101162","address1": "1801 S STATE ROAD 57","address2": "","city": "WASHINGTON","state": "IN","zip": "47501","zip+4": "0000","phone": "8122546195"}
{"name": "KROGER PHARMACY #21940","address1": "2420 N LEBANON ST","address2": "","city": "LEBANON","state": "IN","zip": "46052","zip+4": "0000","phone": "7654827095"}
{"name": "WAL-MART PHARMACY #101141","address1": "1965 NORTH STATE STREET","address2": "","city": "GREENFIELD","state": "IN","zip": "46140","zip+4": "0000","phone": "3174624241"}
{"name": "WAL-MART PHARMACY #101160","address1": "100 SYCAMORE ESTATES DR","address2": "","city": "AURORA","state": "IN","zip": "47001","zip+4": "0000","phone": "8129263034"}
{"name": "OSCO PHARMACY #3035","address1": "3533 S FRANKLIN","address2": "","city": "MICHIGAN CITY","state": "IN","zip": "46360","zip+4": "0000","phone": "2198725346"}
{"name": "FAGEN PHARMACY #11","address1": "2080 E COMMERCIAL","address2": "","city": "LOWELL","state": "IN","zip": "46356","zip+4": "0000","phone": "2196960212"}
{"name": "WARSAW PILL BOX INC","address1": "2306 DUBOIS DR","address2": "","city": "WARSAW","state": "IN","zip": "46580","zip+4": "3200","phone": "5742674900"}
{"name": "KROGER PHARMACY #21938","address1": "906 S MERRIFIELD","address2": "","city": "MISHAWAKA","state": "IN","zip": "46544","zip+4": "0000","phone": "5742567522"}
{"name": "KROGER PHARMACY #21945","address1": "10450 E WASHINGTON ST","address2": "","city": "INDIANAPOLIS","state": "IN","zip": "46229","zip+4": "0000","phone": "3178952247"}
{"name": "WALGREEN DRUG STORE #6868","address1": "330 W STATE BLVD","address2": "","city": "FORT WAYNE","state": "IN","zip": "46808","zip+4": "0000","phone": "2604825884"}
{"name": "CVS PHARMACY #06263","address1": "905 W MAIN ST","address2": "","city": "BOONVILLE","state": "IN","zip": "47601","zip+4": "0000","phone": "8128978828"}
{"name": "WILLIAMS BROS HLTH CARE PHCY","address1": "10 WILLIAMS BROS DR","address2": "","city": "WASHINGTON","state": "IN","zip": "47501","zip+4": "0000","phone": "8122542497"}
{"name": "WAL-MART PHARMACY #101262","address1": "1850 NORTH MAIN","address2": "","city": "RUSHVILLE","state": "IN","zip": "46173","zip+4": "0000","phone": "7659323771"}
{"name": "WAL-MART PHARMACY #101263","address1": "401 N BURKHARDT RD.","address2": "","city": "EVANSVILLE","state": "IN","zip": "47715","zip+4": "0000","phone": "8124741715"}
{"name": "CVS PHARMACY #06564","address1": "6248 ALLISONVILLE RD","address2": "","city": "INDIANAPOLIS","state": "IN","zip": "46220","zip+4": "0000","phone": "3172519491"}
{"name": "COMMUNITY MEDICAL CENTER  PHAR","address1": "5506 E 16TH ST","address2": "STE C10","city": "INDIANAPOLIS","state": "IN","zip": "46218","zip+4": "0000","phone": "3173566346"}
{"name": "TOPEKA PHARMACY","address1": "101 N MAIN","address2": "","city": "TOPEKA","state": "IN","zip": "46571","zip+4": "0000","phone": "2605932252"}
{"name": "WALGREEN DRUG STORE #7472","address1": "1975 N MAIN ST","address2": "","city": "BLUFFTON","state": "IN","zip": "46714","zip+4": "0000","phone": "2608242992"}
{"name": "CVS PHARMACY #06612","address1": "5110 E 38TH STREET","address2": "","city": "INDIANAPOLIS","state": "IN","zip": "46218","zip+4": "0000","phone": "3175491891"}
{"name": "WAL-MART PHARMACY #101275","address1": "2440 NORTH LEBANON STREET","address2": "","city": "LEBANON","state": "IN","zip": "46052","zip+4": "0000","phone": "7654826149"}
{"name": "WAL-MART PHARMACY #101294","address1": "3240 SOUTHWESTERN","address2": "","city": "MARION","state": "IN","zip": "46952","zip+4": "0000","phone": "7656620829"}
{"name": "WAL-MART PHARMACY #101327","address1": "567 IVY TECH DRIVE","address2": "","city": "MADISON","state": "IN","zip": "47250","zip+4": "0000","phone": "8122736338"}
{"name": "KROGER PHARMACY #21909","address1": "3100 MERIDIAN PARK DR","address2": "","city": "GREENWOOD","state": "IN","zip": "46142","zip+4": "0000","phone": "3178875757"}
{"name": "WAL-MART PHARMACY #101310","address1": "5555 S US HWY 41","address2": "","city": "TERRE HAUTE","state": "IN","zip": "47802","zip+4": "0000","phone": "8122992210"}
{"name": "WAL-MART PHARMACY #101304","address1": "2501 WALTON BLVD","address2": "","city": "WARSAW","state": "IN","zip": "46582","zip+4": "0000","phone": "5742697941"}
{"name": "CVS PHARMACY #06250","address1": "7722 W STATE ROUTE 66","address2": "","city": "NEWBURGH","state": "IN","zip": "47630","zip+4": "2529","phone": "8128536166"}
{"name": "WAL-MART PHARMACY #101371","address1": "735 WHITFIELD DRIVE","address2": "","city": "COLUMBUS","state": "IN","zip": "47201","zip+4": "0000","phone": "8123724220"}
{"name": "VYTOS PAHRMACY","address1": "6949 KENNEDY AVE","address2": "","city": "HAMMOND","state": "IN","zip": "46323","zip+4": "0000","phone": "2198452900"}
{"name": "HAUBSTADT PHARMACY","address1": "760 HWY 68 EAST","address2": "","city": "HAUBSTADT","state": "IN","zip": "47639","zip+4": "0000","phone": "8127686101"}
{"name": "CARE PHARAMCEUTICALS","address1": "139 S BROAD ST","address2": "","city": "GRIFFITH","state": "IN","zip": "46319","zip+4": "0000","phone": "2199246671"}
{"name": "CVS PHARMACY #06696","address1": "415 SOUTH MAIN STREET AI","address2": "","city": "BROWNSTOWN","state": "IN","zip": "47220","zip+4": "0000","phone": "8123583671"}
{"name": "KMART PHARMACY #7243","address1": "705 NORTH DIXON","address2": "","city": "KOKOMO","state": "IN","zip": "46901","zip+4": "0000","phone": "7654571440"}
{"name": "WAL-MART PHARMACY #100492","address1": "650 KIMMEL RD","address2": "","city": "VINCENNES","state": "IN","zip": "47591","zip+4": "0000","phone": "8128860006"}
{"name": "WAL-MART PHARMACY #101356","address1": "410 GRAND VALLEY BLVD","address2": "","city": "MARTINSVILLE","state": "IN","zip": "46151","zip+4": "0000","phone": "7653491138"}
{"name": "KMART PHARMACY #7140","address1": "1501 E MC GALLIARD ROAD","address2": "","city": "MUNCIE","state": "IN","zip": "47303","zip+4": "0000","phone": "7652846450"}
{"name": "WAL-MART PHARMACY #101341","address1": "335 SO. RED BANK ROAD","address2": "","city": "EVANSVILLE","state": "IN","zip": "47712","zip+4": "0000","phone": "8124261679"}
{"name": "WAL-MART PHARMACY #101378","address1": "2304 LINCOLNWAY EAST","address2": "","city": "GOSHEN","state": "IN","zip": "46526","zip+4": "0000","phone": "5745344483"}
{"name": "BUEHLERS BUY LOW PHARMACY #466","address1": "200 N MAIN ST","address2": "","city": "EVANSVILLE","state": "IN","zip": "47711","zip+4": "0000","phone": "8124215871"}
{"name": "KMART PHARMACY #7127","address1": "1460 STATE ROAD 2 WEST","address2": "","city": "LAPORTE","state": "IN","zip": "46350","zip+4": "0000","phone": "2193250773"}
{"name": "WAL-MART PHARMACY #101329","address1": "3919 EAST MARKET STREET","address2": "","city": "LOGANSPORT","state": "IN","zip": "46947","zip+4": "0000","phone": "5747320522"}
{"name": "KMART PHARMACY #3741","address1": "2394 25TH STREET","address2": "","city": "COLUMBUS","state": "IN","zip": "47201","zip+4": "0000","phone": "8123728274"}
{"name": "MARSH DRUGS LLC #7017797","address1": "7400 EAST FISHERS STATION DRIV","address2": "","city": "FISHERS","state": "IN","zip": "46038","zip+4": "2323","phone": "3175775329"}
{"name": "PHARMA CARD MICHIGAN CITY SOUT","address1": "1225 E COOLSPRING AVE","address2": "","city": "MICHIGAN CITY","state": "IN","zip": "46360","zip+4": "0000","phone": "2198795869"}
{"name": "WALGREEN DRUG STORE #11084","address1": "1816 FRANKLIN ST","address2": "","city": "MICHIGAN CITY","state": "IN","zip": "46360","zip+4": "4504","phone": "2198742544"}
{"name": "WAL-MART PHARMACY #101388","address1": "2501 E. NORTH ST.","address2": "","city": "KENDALLVILLE","state": "IN","zip": "46755","zip+4": "0000","phone": "2603472900"}
{"name": "WAL-MART PHARMACY #101419","address1": "5311 COLDWATER RD","address2": "","city": "FORT WAYNE","state": "IN","zip": "46825","zip+4": "0000","phone": "2604844528"}
{"name": "WAL-MART PHARMACY #101425","address1": "402 WEST PLAZA DRIVE","address2": "","city": "COLUMBIA CITY","state": "IN","zip": "46725","zip+4": "0000","phone": "2602444400"}
{"name": "WALGREEN DRUG STORE #09689","address1": "487 N CASS ST","address2": "","city": "WABASH","state": "IN","zip": "46992","zip+4": "2443","phone": "2605633183"}
{"name": "SCHNUCKS PHARMACY #705","address1": "4500 WEST LLOYD EXPRESSWAY","address2": "","city": "EVANSVILLE","state": "IN","zip": "47712","zip+4": "0000","phone": "8124226399"}
{"name": "KROGER PHARMACY #21966","address1": "55 PINE LAKE SC","address2": "","city": "LA PORTE","state": "IN","zip": "46350","zip+4": "0000","phone": "2193253152"}
{"name": "WAL-MART PHARMACY #100828","address1": "2373 E MAIN STREET","address2": "","city": "PLAINFIELD","state": "IN","zip": "46168","zip+4": "0000","phone": "3178393881"}
{"name": "KMART PHARMACY #3571","address1": "1500 PILGRIM LANE","address2": "","city": "PLYMOUTH","state": "IN","zip": "46563","zip+4": "3409","phone": "5749365056"}
{"name": "CVS PHARMACY #06462","address1": "100 NORTH DETROIT ST","address2": "","city": "WARSAW","state": "IN","zip": "46580","zip+4": "0000","phone": "2192676208"}
{"name": "CVS PHARMACY #06460","address1": "3600 CASSOPOLIS ST","address2": "","city": "ELKHART","state": "IN","zip": "46514","zip+4": "0000","phone": "5742628247"}
{"name": "CVS PHARMACY #06565","address1": "1466 W OAK ST","address2": "","city": "ZIONSVILLE","state": "IN","zip": "46077","zip+4": "0000","phone": "3178736438"}
{"name": "WAL-MART PHARMACY #101459","address1": "7245 US HWY 31 SOUTH","address2": "","city": "INDIANAPOLIS","state": "IN","zip": "46227","zip+4": "0000","phone": "3178884048"}
{"name": "WAL-MART PHARMACY #101476","address1": "1351 VETERANS PARKWAY","address2": "","city": "CLARKSVILLE","state": "IN","zip": "47129","zip+4": "0000","phone": "8122840541"}
{"name": "DALE PHARMACY","address1": "560 S WASHINGTON ST","address2": "","city": "DALE","state": "IN","zip": "47523","zip+4": "0000","phone": "8129372071"}
{"name": "WAL-MART PHARMACY #101487","address1": "5780 FRANKLIN ST","address2": "","city": "MICHIGAN CITY","state": "IN","zip": "46360","zip+4": "0000","phone": "2198723309"}
{"name": "WAL-MART PHARMACY #101479","address1": "2400 MORTHLAND DR","address2": "","city": "VALPARAISO","state": "IN","zip": "46383","zip+4": "0000","phone": "2194651717"}
{"name": "WAL-MART PHARMACY #101518","address1": "3221 WEST 86TH ST","address2": "","city": "INDIANAPOLIS","state": "IN","zip": "46268","zip+4": "0000","phone": "3178769724"}
{"name": "CVS PHARMACY #06461","address1": "551 E JACKSON BLVD","address2": "","city": "ELKHART","state": "IN","zip": "46516","zip+4": "0000","phone": "5742930040"}
{"name": "WAL-MART PHARMACY #101566","address1": "4024 ELKHARD ROAD SUITE 2","address2": "","city": "GOSHEN","state": "IN","zip": "46526","zip+4": "0000","phone": "5748756921"}
{"name": "WAL-MART PHARMACY #101557","address1": "8300 EAST 96TH ST","address2": "","city": "FISHERS","state": "IN","zip": "46038","zip+4": "0000","phone": "3175784416"}
{"name": "KMART PHARMACY #3823","address1": "723 3RD AVE","address2": "","city": "JASPER","state": "IN","zip": "47546","zip+4": "0000","phone": "8124829442"}
{"name": "WAL-MART PHARMACY #101547","address1": "4205 COMMERCE DRIVE","address2": "","city": "LAFAYETTE","state": "IN","zip": "47905","zip+4": "0000","phone": "7654461278"}
{"name": "WAL-MART PHARMACY #101570","address1": "505 TOURING DRIVE","address2": "","city": "AUBURN","state": "IN","zip": "46706","zip+4": "0000","phone": "2609258083"}
{"name": "WAL-MART PHARMACY #101576","address1": "1555 US HIGHWAY 41","address2": "","city": "SCHERERVILLE","state": "IN","zip": "46375","zip+4": "0000","phone": "2198656124"}
{"name": "WAL-MART PHARMACY #101601","address1": "2001 EAST 151 STREET","address2": "","city": "CARMEL","state": "IN","zip": "46032","zip+4": "0000","phone": "3178449064"}
{"name": "WAL-MART PHARMACY #101618","address1": "2936 EAST 79TH AVENUE","address2": "","city": "MERRILLVILLE","state": "IN","zip": "46410","zip+4": "0000","phone": "2199428270"}
{"name": "WAL-MART PHARMACY #101639","address1": "2100 PEACE TREE VILLAGE","address2": "","city": "ROCHESTER","state": "IN","zip": "46975","zip+4": "0000","phone": "5742239482"}
{"name": "MARSH DRUGS LLC #7085798","address1": "1015 EAST STATE ROAD 44","address2": "","city": "SHELBYVILLE","state": "IN","zip": "46176","zip+4": "1771","phone": "3173925844"}
{"name": "WAL-MART PHARMACY #101629","address1": "2150 EAST NATIONAL AVENUE","address2": "","city": "BRAZIL","state": "IN","zip": "47834","zip+4": "0000","phone": "8124430466"}
{"name": "WAL-MART PHARMACY #101647","address1": "1700 SO. 13TH ST.","address2": "","city": "DECATUR","state": "IN","zip": "46733","zip+4": "0000","phone": "2607248800"}
{"name": "WALGREEN DRUG STORE #6151","address1": "2015 COVERT AVE","address2": "","city": "EVANSVILLE","state": "IN","zip": "47714","zip+4": "0000","phone": "8124753484"}
{"name": "WALGREEN DRUG STORE #2652","address1": "4301 N FIRST AVE","address2": "","city": "EVANSVILLE","state": "IN","zip": "47710","zip+4": "0000","phone": "8124643656"}
{"name": "WALGREEN DRUG STORE #9321","address1": "710 N SAINT JOSEPH AVE","address2": "","city": "EVANSVILLE","state": "IN","zip": "47712","zip+4": "0000","phone": "8124251091"}
{"name": "WALGREEN DRUG STORE #6152","address1": "925 S GREEN RIVER RD","address2": "","city": "EVANSVILLE","state": "IN","zip": "47715","zip+4": "0000","phone": "8124771257"}
{"name": "WALGREEN DRUG STORE #7058","address1": "7769 HWY 66","address2": "","city": "NEWBURGH","state": "IN","zip": "47630","zip+4": "0000","phone": "8128582451"}
{"name": "WEBB'S FAMILY PHARMACY","address1": "724 MAIN ST","address2": "","city": "ROCHESTER","state": "IN","zip": "46975","zip+4": "1599","phone": "5742232216"}
{"name": "WAL-MART PHARMACY #101665","address1": "4801 W CLARA LANE","address2": "","city": "MUNCIE","state": "IN","zip": "47304","zip+4": "0000","phone": "7652843750"}
{"name": "WAL-MART PHARMACY #101728","address1": "2321 CHARLES STREET","address2": "","city": "ANDERSON","state": "IN","zip": "46013","zip+4": "0000","phone": "7656425365"}
{"name": "CVS PHARMACY #06254","address1": "2344 COVERT AVENUE","address2": "","city": "EVANSVILLE","state": "IN","zip": "47714","zip+4": "0000","phone": "8124798581"}
{"name": "WAL-MART PHARMACY #101729","address1": "2100 PARK ROAD","address2": "","city": "CONNERSVILLE","state": "IN","zip": "47331","zip+4": "0000","phone": "7658257664"}
{"name": "WAL-MART PHARMACY #101676","address1": "730 EAST HWY 66","address2": "","city": "TELL CITY","state": "IN","zip": "47586","zip+4": "0000","phone": "8125479950"}
{"name": "KROGER PHARMACY #21901","address1": "4526 WESTERN AVE","address2": "","city": "SOUTH BEND","state": "IN","zip": "46619","zip+4": "0000","phone": "5742392480"}
{"name": "WAL-MART PHARMACY #100566","address1": "1115 AMERICAN WAY","address2": "","city": "BOONVILLE","state": "IN","zip": "47601","zip+4": "0000","phone": "8128970089"}
{"name": "WAL-MART PHARMACY #100617","address1": "757 WEST WOLF STREET","address2": "","city": "SULLIVAN","state": "IN","zip": "47882","zip+4": "0000","phone": "8122684626"}
{"name": "WAL-MART PHARMACY #101580","address1": "10617 E. WASHINGTON","address2": "","city": "INDIANAPOLIS","state": "IN","zip": "46229","zip+4": "0000","phone": "3178950316"}
{"name": "WAL-MART PHARMACY #101667","address1": "1601 NO. CASS ST","address2": "","city": "WABASH","state": "IN","zip": "46992","zip+4": "0000","phone": "2605634033"}
{"name": "WAL-MART PHARMACY #101480","address1": "950 EAST GREENVILLE PIKE","address2": "","city": "WINCHESTER","state": "IN","zip": "47394","zip+4": "0000","phone": "7655843028"}
{"name": "WAL-MART PHARMACY #101709","address1": "2016 N WAYNE ST.","address2": "","city": "ANGOLA","state": "IN","zip": "46703","zip+4": "0000","phone": "2606657033"}
{"name": "KMART PHARMACY #7402","address1": "3175 WEST THIRD ST","address2": "","city": "BLOOMINGTON","state": "IN","zip": "47404","zip+4": "0000","phone": "8123397730"}
{"name": "MARSH DRUGS LLC #7080794","address1": "1960 EAST GREYHOUND PASS","address2": "","city": "CARMEL","state": "IN","zip": "46033","zip+4": "7726","phone": "3175714358"}
{"name": "WAL-MART PHARMACY #101655","address1": "1835 US HIGHWAY 231 SOUTH","address2": "","city": "CRAWFORDSVILLE","state": "IN","zip": "47933","zip+4": "0000","phone": "7653625971"}
{"name": "PAVILION HEALTHCARE PHARMACY","address1": "2525 W UNIVERSITY AVE","address2": "","city": "MUNCIE","state": "IN","zip": "47303","zip+4": "0000","phone": "7657478461"}
{"name": "WAL-MART PHARMACY #101745","address1": "3601 EAST MAIN","address2": "","city": "RICHMOND","state": "IN","zip": "47374","zip+4": "0000","phone": "7659359078"}
{"name": "CORAM SPECIALTY INFUSION SERVI","address1": "1290 ARROWHEAD CRT","address2": "STE A","city": "CROWN POINT","state": "IN","zip": "46307","zip+4": "0000","phone": "2196610272"}
{"name": "WAL-MART PHARMACY #100870","address1": "4040 NEWTON STREET","address2": "","city": "JASPER","state": "IN","zip": "47546","zip+4": "0000","phone": "8126341777"}
{"name": "KROGER PHARMACY #21110","address1": "3361 KENTUCKY AVE","address2": "","city": "INDIANAPOLIS","state": "IN","zip": "46221","zip+4": "0000","phone": "3172401588"}
{"name": "KMART PHARMACY #3221","address1": "2960 HIGHWAY 62","address2": "","city": "JEFFERSONVILLE","state": "IN","zip": "47130","zip+4": "0000","phone": "8122840622"}
{"name": "WAL-MART PHARMACY #101783","address1": "2700 WEST BROADWAY","address2": "","city": "PRINCETON","state": "IN","zip": "47670","zip+4": "0000","phone": "8123866690"}
{"name": "KROGER PHARMACY #21957","address1": "172 LOGAN ST","address2": "","city": "NOBLESVILLE","state": "IN","zip": "46060","zip+4": "0000","phone": "3177763347"}
{"name": "KMART PHARMACY #7317","address1": "3525 GRANTLINE ROAD","address2": "","city": "NEW ALBANY","state": "IN","zip": "47150","zip+4": "0000","phone": "8129485098"}
{"name": "CVS PHARMACY #06871","address1": "1925 MAIN ST","address2": "","city": "FERDINAND","state": "IN","zip": "47532","zip+4": "0000","phone": "8123672030"}
{"name": "THE PHARMACY SHOP","address1": "1400 N RITTER AVE STE 140","address2": "","city": "INDIANAPOLIS","state": "IN","zip": "46219","zip+4": "3045","phone": "3173553030"}
{"name": "DEKALB PHARMACARE","address1": "1314 E 7TH ST STE 104","address2": "","city": "AUBURN","state": "IN","zip": "46706","zip+4": "2523","phone": "2609258000"}
{"name": "KROGER PHARMACY #21947","address1": "785 EAST MAIN","address2": "","city": "DANVILLE","state": "IN","zip": "46122","zip+4": "0000","phone": "3177458027"}
{"name": "PRN PHARMACEUTICAL SERIVCES","address1": "8351 W ROCKVILLE RD","address2": "","city": "INDIANAPOLIS","state": "IN","zip": "46234","zip+4": "2737","phone": "3172731552"}
{"name": "WALGREEN DRUG STORE #2797","address1": "3734 E 38TH ST","address2": "","city": "INDIANAPOLIS","state": "IN","zip": "46218","zip+4": "0000","phone": "3175451385"}
{"name": "WAL-MART PHARMACY #101804","address1": "1710 APPLE GLEN BLVD","address2": "","city": "FORT WAYNE","state": "IN","zip": "46804","zip+4": "0000","phone": "2604329330"}
{"name": "ST MARYS APOTHECARY","address1": "801 ST MARYS DR","address2": "","city": "EVANSVILLE","state": "IN","zip": "47715","zip+4": "0000","phone": "8124854695"}
{"name": "KROGER PHARMACY #24395","address1": "3400 GRANTLINE ROAD","address2": "","city": "NEW ALBANY","state": "IN","zip": "47150","zip+4": "0000","phone": "8129481399"}
{"name": "WALGREEN DRUG STORE #11085","address1": "52482 STATE RD 933","address2": "","city": "SOUTHBEND","state": "IN","zip": "46637","zip+4": "3852","phone": "5742710357"}
{"name": "WALGREEN DRUG STORE #10973","address1": "1530 N MERIDIAN ST","address2": "","city": "INDIANAPOLIS","state": "IN","zip": "46202","zip+4": "2307","phone": "3172611753"}
{"name": "WALGREEN DRUG STORE #2830","address1": "6961 MADISON AVE","address2": "","city": "INDIANAPOLIS","state": "IN","zip": "46227","zip+4": "0000","phone": "3177820854"}
{"name": "WALGREEN DRUG STORE #2796","address1": "3003 N KESSLER BLVD","address2": "","city": "INDIANAPOLIS","state": "IN","zip": "46222","zip+4": "0000","phone": "3179252032"}
{"name": "WALGREEN DRUG STORE #2799","address1": "5460 E WASHINGTON ST","address2": "","city": "INDIANAPOLIS","state": "IN","zip": "46219","zip+4": "0000","phone": "3173515970"}
{"name": "WALGREEN DRUG STORE #2800","address1": "8907 EAST 10TH ST","address2": "","city": "INDIANAPOLIS","state": "IN","zip": "46219","zip+4": "0000","phone": "3178950012"}
{"name": "WALGREEN DRUG STORE #2801","address1": "8923 S MERIDIAN","address2": "","city": "INDIANAPOLIS","state": "IN","zip": "46227","zip+4": "0000","phone": "3178650469"}
{"name": "CVS PHARMACY #06570","address1": "2800 ENTERPRISE","address2": "STE 5","city": "INDIANAPOLIS","state": "IN","zip": "46219","zip+4": "0000","phone": "3173528401"}
{"name": "WAL-MART PHARMACY #101758","address1": "3167 SOUTH STATE RD 3","address2": "","city": "NEW CASTLE","state": "IN","zip": "47362","zip+4": "0000","phone": "7655295997"}
{"name": "HERBST PHARMACY","address1": "2330 S DIXON RD","address2": "","city": "KOKOMO","state": "IN","zip": "46902","zip+4": "6411","phone": "7654555418"}
{"name": "PHARMA CARD PORTAGE INC #3","address1": "6036 LUTE RD","address2": "STE A","city": "PORTAGE","state": "IN","zip": "46368","zip+4": "0000","phone": "2197633466"}
{"name": "KMART PHARMACY #7246","address1": "3150 NATIONAL ROAD WEST","address2": "","city": "RICHMOND","state": "IN","zip": "47374","zip+4": "0000","phone": "7659660147"}
{"name": "KROGER PHARMACY #21500","address1": "5718 CRAWFORDSVILLE RD","address2": "","city": "INDIANAPOLIS","state": "IN","zip": "46224","zip+4": "0000","phone": "3172405007"}
{"name": "LOW COST PHARMACY","address1": "988 E MAIN ST","address2": "","city": "GREENWOOD","state": "IN","zip": "46143","zip+4": "0000","phone": "3178885373"}
{"name": "MARSH DRUGS LLC #7073800","address1": "10901 EAST WASHINGTON STREET","address2": "","city": "INDIANAPOLIS","state": "IN","zip": "46229","zip+4": "2617","phone": "3178954758"}
{"name": "CVS PHARMACY #06519","address1": "5802 SOUTH ANTHONY BOULEVARD","address2": "","city": "FORT WAYNE","state": "IN","zip": "46816","zip+4": "0000","phone": "2604471841"}
{"name": "CVS PHARMACY #06496","address1": "115 STATE ROAD 930 EAST","address2": "","city": "NEW HAVEN","state": "IN","zip": "46774","zip+4": "0000","phone": "2604931514"}
{"name": "WALGREEN DRUG STORE #2826","address1": "7218 ROCKVILLE RD","address2": "","city": "INDIANAPOLIS","state": "IN","zip": "46214","zip+4": "0000","phone": "3174879248"}
{"name": "PHARMACY 1 EXPRESS","address1": "730 W 2ND ST","address2": "","city": "BLOOMINGTON","state": "IN","zip": "47403","zip+4": "2210","phone": "8123317979"}
{"name": "KROGER PHARMACYDBA GENE MADDY","address1": "3050 MERIDIAN ST","address2": "","city": "ANDERSON","state": "IN","zip": "46016","zip+4": "0000","phone": "7656442421"}
{"name": "KMART PHARMACY #9018","address1": "2727 GUILFORD STREET","address2": "","city": "HUNTINGTON","state": "IN","zip": "46750","zip+4": "0000","phone": "2603562226"}
{"name": "WALGREEN DRUG STORE #2819","address1": "711 EAST 38TH ST","address2": "","city": "INDIANAPOLIS","state": "IN","zip": "46205","zip+4": "0000","phone": "3179279100"}
{"name": "COMMUNITY CARE PHARMACY #1","address1": "2700 S LAFAYETTE ST","address2": "","city": "FT WAYNE","state": "IN","zip": "46803","zip+4": "0000","phone": "2604589800"}
{"name": "MARSH DRUGS LLC #7056803","address1": "500 SOUTH BUFFALO STREET","address2": "","city": "WARSAW","state": "IN","zip": "46580","zip+4": "4307","phone": "5742682010"}
{"name": "CVS PHARMACY #06255","address1": "1007 WASHINGTON AVENUE","address2": "","city": "EVANSVILLE","state": "IN","zip": "47714","zip+4": "0000","phone": "8124688257"}
{"name": "CVS PHARMACY #06253","address1": "4700 LINCOLN AVENUE","address2": "","city": "EVANSVILLE","state": "IN","zip": "47714","zip+4": "0000","phone": "8124772404"}
{"name": "WALGREEN DRUG STORE #10124","address1": "1400 CASSOPOLIS ST","address2": "","city": "ELKHART","state": "IN","zip": "46514","zip+4": "0000","phone": "5742622756"}
{"name": "KROGER PHARMACY #14406","address1": "1034 STATE RD 229 NORTH","address2": "","city": "BATESVILLE","state": "IN","zip": "47006","zip+4": "0000","phone": "8129330447"}
{"name": "KROGER PHARMACY DBA PAYLESS #2","address1": "1900 APPLEWOOD CENTRE DR","address2": "","city": "ANDERSON","state": "IN","zip": "46013","zip+4": "0000","phone": "7656498026"}
{"name": "MARSH DRUGS LLC #7053802","address1": "3633 KENTUCKY AVENUE","address2": "","city": "INDIANAPOLIS","state": "IN","zip": "46221","zip+4": "2702","phone": "3173814151"}
{"name": "WALGREEN DRUG STORE #2956","address1": "1808 NORTH ALBANY","address2": "","city": "BEECH GROVE","state": "IN","zip": "46107","zip+4": "0000","phone": "3177860744"}
{"name": "WALGREEN DRUG STORE #9290","address1": "2500 GRANT ST","address2": "","city": "GARY","state": "IN","zip": "46407","zip+4": "0000","phone": "2199491052"}
{"name": "KROGER PHARMACY #21958","address1": "5325 E THOMPSON RD","address2": "","city": "INDIANAPOLIS","state": "IN","zip": "46237","zip+4": "0000","phone": "3177813566"}
{"name": "COMMUNITY PHARMACY","address1": "1201 MICHIGAN AVE","address2": "STE 100","city": "LOGANSPORT","state": "IN","zip": "46947","zip+4": "1528","phone": "5747320418"}
{"name": "WAL-MART PHARMACY #100902","address1": "1750 E INDIANAPOLIS","address2": "","city": "GREENCASTLE","state": "IN","zip": "46135","zip+4": "0000","phone": "7656536575"}
{"name": "RITE AID PHARMACY #03530","address1": "803 SOUTH MAIN STREET","address2": "","city": "SALEM","state": "IN","zip": "47167","zip+4": "1043","phone": "8128831023"}
{"name": "RITE AID PHARMACY #03547","address1": "9616 HIGHWAY 403","address2": "","city": "CHARLESTOWN","state": "IN","zip": "47111","zip+4": "8902","phone": "8122566368"}
{"name": "SCHNUCKS PHARMACY #744","address1": "8301 BELL OAKS DR","address2": "","city": "NEWBURGH","state": "IN","zip": "47630","zip+4": "0000","phone": "8128532475"}
{"name": "KMART PHARMACY #7455","address1": "1320 JAMES AVENUE","address2": "","city": "BEDFORD","state": "IN","zip": "47421","zip+4": "0000","phone": "8122750301"}
{"name": "FAGEN PHARMACY #20","address1": "3125 N CALUMET","address2": "","city": "VALPARAISO","state": "IN","zip": "46383","zip+4": "0000","phone": "2194624381"}
{"name": "WAL-MART PHARMACY #100854","address1": "2460 EAST WABASH","address2": "","city": "FRANKFORT","state": "IN","zip": "46041","zip+4": "0000","phone": "7656544056"}
{"name": "WAL-MART PHARMACY #101962","address1": "1920 E. MARKLAND AVE","address2": "","city": "KOKOMO","state": "IN","zip": "46901","zip+4": "0000","phone": "7654563641"}
{"name": "DANMAR FAMILY PHARMACY","address1": "47 PUBLIC SQ","address2": "","city": "SALEM","state": "IN","zip": "47167","zip+4": "2055","phone": "8128832102"}
{"name": "FAMILY PHARMACARE CENTER INC","address1": "500 SAGAMORE PARKWAY WEST","address2": "SUITE 5W","city": "WEST LAFAYETTE","state": "IN","zip": "47906","zip+4": "1440","phone": "7654977000"}
{"name": "WALGREEN DRUG STORE #10719","address1": "801 LAKE ST","address2": "","city": "GARY","state": "IN","zip": "46403","zip+4": "0000","phone": "2199384865"}
{"name": "WALGREEN DRUG STORE #11623","address1": "102 E HIVELY AVE","address2": "","city": "ELKHART","state": "IN","zip": "46517","zip+4": "0000","phone": "5745222197"}
{"name": "BUEHLERS BUY LOW PHARMACY #455","address1": "4851 PENNSYLVANIA ST","address2": "","city": "EVANSVILLE","state": "IN","zip": "47712","zip+4": "0000","phone": "8124211268"}
{"name": "KROGER PHARMACY #24396","address1": "200 NEW ALBANY PLAZA","address2": "","city": "NEW ALBANY","state": "IN","zip": "47150","zip+4": "0000","phone": "8129482701"}
{"name": "KROGER PHARMACY #21965","address1": "9835 FALL CREEK RD","address2": "","city": "INDIANAPOLIS","state": "IN","zip": "46256","zip+4": "0000","phone": "3175773486"}
{"name": "TARGET PHARMACY #0870","address1": "2661 EAST US 30","address2": "","city": "MERRILLVILLE","state": "IN","zip": "46410","zip+4": "0000","phone": "2199421267"}
{"name": "GOOD NEIGHBOR PHARMACY","address1": "1030 E MAIN ST","address2": "","city": "GAS CITY","state": "IN","zip": "46933","zip+4": "1699","phone": "7656746976"}
{"name": "MARSH DRUGS LLC #7003804","address1": "1825 KINSER PIKE","address2": "","city": "BLOOMINGTON","state": "IN","zip": "47404","zip+4": "1914","phone": "8123356767"}
{"name": "MARSH DRUGS LLC #7058805","address1": "17901 RIVER AVENUE","address2": "","city": "NOBLESVILLE","state": "IN","zip": "46062","zip+4": "8328","phone": "3177764705"}
{"name": "MARSH DRUGS LLC #7083806","address1": "6965 WEST 38TH STREET","address2": "","city": "INDIANAPOLIS","state": "IN","zip": "46254","zip+4": "3905","phone": "3173294250"}
{"name": "CVS PHARMACY #06078","address1": "175 WEST EADS PARKWAY","address2": "","city": "LAWRENCEBURG","state": "IN","zip": "47025","zip+4": "0000","phone": "8125375711"}
{"name": "WAL-MART PHARMACY #101978","address1": "2505 NORTH OAK ROAD","address2": "","city": "PLYMOUTH","state": "IN","zip": "46563","zip+4": "0000","phone": "5749359006"}
{"name": "WAL-MART PHARMACY #102020","address1": "905 SOUTH COLLEGE AVENUE","address2": "","city": "RENSSELAER","state": "IN","zip": "47978","zip+4": "0000","phone": "2198660466"}
{"name": "WALGREEN DRUG STORE #3068","address1": "5720 W WASHINGTON ST","address2": "","city": "INDIANAPOLIS","state": "IN","zip": "46241","zip+4": "0000","phone": "3174841170"}
{"name": "WALGREEN DRUG STORE #2952","address1": "4001 MADISON AVENUE","address2": "","city": "INDIANAPOLIS","state": "IN","zip": "46227","zip+4": "0000","phone": "3177801290"}
{"name": "CVS PHARMACY #06623","address1": "2729 W JACKSON ST","address2": "","city": "MUNCIE","state": "IN","zip": "47303","zip+4": "0000","phone": "7652870074"}
{"name": "FAGEN PHARMACY # #23","address1": "2002 E COLUMBUS DR","address2": "","city": "EAST CHICAGO","state": "IN","zip": "46312","zip+4": "0000","phone": "2193981377"}
{"name": "WALGREEN DRUG STORE #3142","address1": "3455 MANN ROAD","address2": "","city": "INDIANAPOLIS","state": "IN","zip": "46221","zip+4": "0000","phone": "3174870824"}
{"name": "WALGREEN DRUG STORE #2931","address1": "5199 N KEYSTONE","address2": "","city": "INDIANAPOLIS","state": "IN","zip": "46205","zip+4": "0000","phone": "3172575220"}
{"name": "WALGREEN DRUG STORE #11248","address1": "3545 W 86TH ST","address2": "","city": "INDIANAPOLIS","state": "IN","zip": "46268","zip+4": "0000","phone": "3172280419"}
{"name": "KROGER PHARMACY #21907","address1": "1600 SOUTH OHIO ST","address2": "","city": "MARTINSVILLE","state": "IN","zip": "46151","zip+4": "0000","phone": "7653426213"}
{"name": "WAL-MART PHARMACY #101991","address1": "3313 W. STATE RT. 45","address2": "","city": "BLOOMINGTON","state": "IN","zip": "47403","zip+4": "0000","phone": "8123350060"}
{"name": "WALGREEN DRUG STORE #2798","address1": "3205 E WASHINGTON","address2": "","city": "INDIANAPOLIS","state": "IN","zip": "46201","zip+4": "0000","phone": "3176810032"}
{"name": "MEIJER PHARMACY #120","address1": "3600 NORTH PORTAGE ROAD","address2": "","city": "SOUTH BEND","state": "IN","zip": "46628","zip+4": "0000","phone": "5742733410"}
{"name": "MEIJER PHARMACY #121","address1": "5020 GRAPE ROAD","address2": "","city": "MISHAWAKA","state": "IN","zip": "46545","zip+4": "0000","phone": "5742733510"}
{"name": "MEIJER PHARMACY #129","address1": "5349 PIKE PLAZA ROAD","address2": "","city": "INDIANAPOLIS","state": "IN","zip": "46254","zip+4": "0000","phone": "3173872410"}
{"name": "MEIJER PHARMACY #130","address1": "1424 W CARMEL DRIVE","address2": "","city": "CARMEL","state": "IN","zip": "46032","zip+4": "0000","phone": "3175738310"}
{"name": "CROWDERS INSTITUTIONAL PHARMAC","address1": "629 16TH ST","address2": "","city": "BEDFORD","state": "IN","zip": "47421","zip+4": "0000","phone": "8122755949"}
{"name": "WALGREEN DRUG STORE #3066","address1": "5675 N MICHIGAN RD","address2": "","city": "INDIANAPOLIS","state": "IN","zip": "46208","zip+4": "0000","phone": "3174750933"}
{"name": "WALGREEN DRUG STORE #3194","address1": "9050 E 38TH ST","address2": "","city": "INDIANAPOLIS","state": "IN","zip": "46236","zip+4": "0000","phone": "3178989481"}
{"name": "WALGREEN DRUG STORE #09482","address1": "3717 GRAPE RD","address2": "","city": "MISHAWAKA","state": "IN","zip": "46545","zip+4": "0000","phone": "5742559677"}
{"name": "MEIJER PHARMACY #124","address1": "6309 LIMA ROAD","address2": "","city": "FORT WAYNE","state": "IN","zip": "46818","zip+4": "0000","phone": "2604971010"}
{"name": "MEIJER PHARMACY #125","address1": "5909 ILLINOIS ROAD","address2": "","city": "FORT WAYNE","state": "IN","zip": "46804","zip+4": "0000","phone": "2604343910"}
{"name": "OMNICARE OF SOUTH BEND #879","address1": "3006 S MICHIGAN ST","address2": "","city": "SOUTH BEND","state": "IN","zip": "46614","zip+4": "1799","phone": "5742919985"}
{"name": "NEIGHBORCARE FT WAYNE #876","address1": "3402 CONGRESSIONAL PKWY","address2": "","city": "FT WAYNE","state": "IN","zip": "46808","zip+4": "1147","phone": "2604847366"}
{"name": "KMART PHARMACY #3556","address1": "3101 NORTHVIEW DRIVE","address2": "","city": "ELKHART","state": "IN","zip": "46514","zip+4": "6748","phone": "5742665582"}
{"name": "KROGER PHARMACY #21963","address1": "2001 NORTH MICHIGAN","address2": "","city": "PLYMOUTH","state": "IN","zip": "46563","zip+4": "0000","phone": "5749361980"}
{"name": "KROGER PHARMACY J-11 #21011","address1": "8939 EAST 38TH STREET","address2": "","city": "INDIANAPOLIS","state": "IN","zip": "46226","zip+4": "0000","phone": "3178997077"}
{"name": "MEIJER PHARMACY #132","address1": "150 S MARLIN DRIVE","address2": "","city": "GREENWOOD","state": "IN","zip": "46142","zip+4": "0000","phone": "3178853010"}
{"name": "MEIJER PHARMACY #133","address1": "10841 US 36 ROCKVILLE RD","address2": "","city": "AVON","state": "IN","zip": "46123","zip+4": "0000","phone": "3172736010"}
{"name": "WALGREEN DRUG STORE #3065","address1": "4555 N SHADELAND AV","address2": "","city": "INDIANAPOLIS","state": "IN","zip": "46226","zip+4": "0000","phone": "3175427619"}
{"name": "KROGER PHARMACY #21959","address1": "1217 S RANGELINE ROAD","address2": "","city": "CARMEL","state": "IN","zip": "46032","zip+4": "0000","phone": "3178434431"}
{"name": "WALGREEN DRUG STORE #3232","address1": "429 WEST PIKE ST","address2": "","city": "GOSHEN","state": "IN","zip": "46526","zip+4": "0000","phone": "5745347191"}
{"name": "MARSH DRUGS LLC #7001807","address1": "8766 EAST 96TH STREET","address2": "","city": "FISHERS","state": "IN","zip": "46037","zip+4": "9628","phone": "3175761700"}
{"name": "WALGREEN DRUG STORE #3214","address1": "107 S WASHINGTON ST","address2": "","city": "KOKOMO","state": "IN","zip": "46901","zip+4": "0000","phone": "7654573655"}
{"name": "WALGREEN DRUG STORE #3148","address1": "2301 E MARKET ST","address2": "","city": "LOGANSPORT","state": "IN","zip": "46947","zip+4": "0000","phone": "5747377514"}
{"name": "KROGER PHARMACY #21952","address1": "1571 NORTH STATE STREET","address2": "","city": "GREENFIELD","state": "IN","zip": "46140","zip+4": "0000","phone": "3174678981"}
{"name": "WALGREEN DRUG STORE #3363","address1": "1505 E 86TH STREET","address2": "","city": "INDIANAPOLIS","state": "IN","zip": "46240","zip+4": "0000","phone": "3172534637"}
{"name": "MEDICAP PHARMACY #8139","address1": "715 S BALDWIN","address2": "","city": "MARION","state": "IN","zip": "46953","zip+4": "0000","phone": "7656646100"}
{"name": "WAL-MART PHARMACY #102276","address1": "333 BOYD BLVD","address2": "","city": "LA PORTE","state": "IN","zip": "46350","zip+4": "0000","phone": "2193253426"}
{"name": "KROGER PHARMACY #21879","address1": "209 CHICAGO AVE","address2": "","city": "GOSHEN","state": "IN","zip": "46526","zip+4": "0000","phone": "5745349223"}
{"name": "KROGER PHARMACY #21116","address1": "680 TWIN AIRE DRIVE","address2": "","city": "INDIANAPOLIS","state": "IN","zip": "46203","zip+4": "0000","phone": "3172641755"}
{"name": "KROGER PHARMACY #21905","address1": "8150 ROCKVILLE RD","address2": "","city": "INDIANAPOLIS","state": "IN","zip": "46214","zip+4": "0000","phone": "3172731349"}
{"name": "MEIJER PHARMACY #127","address1": "4522 ELKHART RD","address2": "","city": "GOSHEN","state": "IN","zip": "46526","zip+4": "0000","phone": "5748753010"}
{"name": "MEIJER PHARMACY #128","address1": "3610 S BREMEN HIGHWAY","address2": "","city": "MISHAWAKA","state": "IN","zip": "46544","zip+4": "0000","phone": "5742542510"}
{"name": "MEIJER PHARMACY #138","address1": "10301 SR 37 MAYSVILLE RD","address2": "","city": "FORT WAYNE","state": "IN","zip": "46835","zip+4": "0000","phone": "2604921310"}
{"name": "WALGREEN DRUG STORE #3442","address1": "7506 N SHADELAND AVE","address2": "","city": "INDIANAPOLIS","state": "IN","zip": "46250","zip+4": "0000","phone": "3175958630"}
{"name": "WALGREEN DRUG STORE #3524","address1": "2400 BEAM ROAD","address2": "","city": "COLUMBUS","state": "IN","zip": "47203","zip+4": "0000","phone": "8123783965"}
{"name": "CVS PHARMACY #03195","address1": "1000 N COLLEGE AVE","address2": "","city": "BLOOMINGTON","state": "IN","zip": "47404","zip+4": "0000","phone": "8123392233"}
{"name": "WARREN PHARMACY","address1": "222 N WAYNE ST","address2": "PO BOX 345","city": "WARREN","state": "IN","zip": "46792","zip+4": "0345","phone": "2603752135"}
{"name": "MEIJER PHARMACY #139","address1": "6260 W MCGALLIARD RD SR332","address2": "","city": "MUNCIE","state": "IN","zip": "47304","zip+4": "0000","phone": "7652817810"}
{"name": "MEIJER PHARMACY #141","address1": "2301 E MARKLAND AVENUE","address2": "","city": "KOKOMO","state": "IN","zip": "46901","zip+4": "0000","phone": "7654547810"}
{"name": "MEDWORKS PHARMACY","address1": "1408 A MILLER AVE","address2": "","city": "SHELBYVILLE","state": "IN","zip": "46176","zip+4": "0000","phone": "3174212020"}
{"name": "FAGEN PHARMACY #25","address1": "1301 119TH ST","address2": "","city": "WHITING","state": "IN","zip": "46394","zip+4": "0000","phone": "2196590299"}
{"name": "MERIDIAN PHARMACY","address1": "3737 N MERIDIAN ST","address2": "SUITE 106","city": "INDIANAPOLIS","state": "IN","zip": "46208","zip+4": "0000","phone": "3172836908"}
{"name": "WINONA PHARMACY","address1": "3266 N MERIDIAN ST","address2": "","city": "INDIANAPOLIS","state": "IN","zip": "46208","zip+4": "0000","phone": "3179245551"}
{"name": "KROGER PHARMACY #21874","address1": "621 COUNTRYSIDE DRIVE","address2": "","city": "COLUMBIA CITY","state": "IN","zip": "46725","zip+4": "0000","phone": "2602484572"}
{"name": "KMART PHARMACY #3254","address1": "820 COLISEUM BLVD NORTH","address2": "","city": "FORT WAYNE","state": "IN","zip": "46805","zip+4": "0000","phone": "2604260369"}
{"name": "CORAM SPECIALTY INFUSION SERVI","address1": "431 FERNHILL AVE","address2": "","city": "FT WAYNE","state": "IN","zip": "46805","zip+4": "1039","phone": "2604844442"}
{"name": "WALGREEN DRUG STORE #2930","address1": "5050 E 56TH STREET","address2": "","city": "INDIANAPOLIS","state": "IN","zip": "46226","zip+4": "0000","phone": "3174791458"}
{"name": "WALGREEN DRUG STORE #3466","address1": "128 W 14TH STREET","address2": "","city": "ANDERSON","state": "IN","zip": "46016","zip+4": "0000","phone": "7656491034"}
{"name": "WALGREEN DRUG STORE #3231","address1": "1215 S RANGE LINE RD","address2": "","city": "CARMEL","state": "IN","zip": "46032","zip+4": "0000","phone": "3175710371"}
{"name": "MEIJER PHARMACY #131","address1": "11351 E WASHINGTON ST","address2": "","city": "INDIANAPOLIS","state": "IN","zip": "46229","zip+4": "0000","phone": "3178946710"}
{"name": "MEIJER PHARMACY #136","address1": "6610 SCATTERFIELD ROAD","address2": "","city": "ANDERSON","state": "IN","zip": "46013","zip+4": "0000","phone": "7656835210"}
{"name": "MEIJER PHARMACY #137","address1": "4901 SR 26 EAST","address2": "","city": "LAFAYETTE","state": "IN","zip": "47905","zip+4": "0000","phone": "7654499210"}
{"name": "WAL-MART PHARMACY #102311","address1": "2800 WALMART DRIVE","address2": "","city": "HUNTINGTON","state": "IN","zip": "46750","zip+4": "0000","phone": "2603588610"}
{"name": "MARSH DRUGS LLC #7047809","address1": "3825 STATE ROAD 26 EAST","address2": "","city": "LAFAYETTE","state": "IN","zip": "47905","zip+4": "4872","phone": "7654491902"}
{"name": "MARSH DRUGS LLC #7075808","address1": "1500 WEST MCGALLIARD ROAD","address2": "","city": "MUNCIE","state": "IN","zip": "47304","zip+4": "2203","phone": "7657511515"}
{"name": "TARGET PHARMACY #0731","address1": "10451 INDIANAPOLIS BLVD","address2": "","city": "HIGHLAND","state": "IN","zip": "46322","zip+4": "0000","phone": "2199242829"}
{"name": "CVS PHARMACY #04633","address1": "1233 NORTH STATE STREET","address2": "","city": "GREENFIELD","state": "IN","zip": "46140","zip+4": "0000","phone": "3174627713"}
{"name": "CVS PHARMACY #04634","address1": "111 LAKEVIEW DRIVE","address2": "","city": "NOBLESVILLE","state": "IN","zip": "46060","zip+4": "0000","phone": "3177738100"}
{"name": "CVS PHARMACY #04635","address1": "4721 E 126TH ST","address2": "","city": "CARMEL","state": "IN","zip": "46033","zip+4": "0000","phone": "3178482824"}
{"name": "BUEHLERS  BUY LOWPHARMACY #452","address1": "2220 E MORGAN AVE","address2": "","city": "EVANSVILLE","state": "IN","zip": "47711","zip+4": "0000","phone": "8124756732"}
{"name": "CVS PHARMACY #06998","address1": "9805 GEIST CROSSING DRIVE","address2": "","city": "INDIANAPOLIS","state": "IN","zip": "46256","zip+4": "0000","phone": "3175771353"}
{"name": "WALGREEN DRUG STORE #3609","address1": "5095 E THOMPSON RD","address2": "","city": "INDIANAPOLIS","state": "IN","zip": "46237","zip+4": "0000","phone": "3177833609"}
{"name": "GEORGETOWN MEDICAL PHARMACY","address1": "4880 CENTURY PLAZA RD","address2": "STE 150","city": "INDIANAPOLIS","state": "IN","zip": "46254","zip+4": "0000","phone": "3172162900"}
{"name": "METHODIST MED PLAZA SOUTH","address1": "8820 S MERIDIAN ST","address2": "STE 105","city": "INDIANAPOLIS","state": "IN","zip": "46217","zip+4": "0000","phone": "3178656833"}
{"name": "KROGER PHARMACY #21248","address1": "100 FOREST PARK PLAZA","address2": "","city": "BRAZIL","state": "IN","zip": "47834","zip+4": "0000","phone": "8124426700"}
{"name": "WAL-MART PHARMACY #102388","address1": "950 W VOTAW","address2": "","city": "PORTLAND","state": "IN","zip": "47371","zip+4": "0000","phone": "2607263782"}
{"name": "MARSH DRUGS LLC #7093810","address1": "2350 BROAD RIPPLE AVENUE","address2": "","city": "INDIANAPOLIS","state": "IN","zip": "46220","zip+4": "2495","phone": "3177225010"}
{"name": "WALGREEN DRUG STORE #3488","address1": "934 SPRING ST STE 940","address2": "","city": "JEFFERSONVILLE","state": "IN","zip": "47130","zip+4": "0000","phone": "8122831384"}
{"name": "CVS PHARMACY #07052","address1": "2029 W WASHINGTON ST","address2": "","city": "INDIANAPOLIS","state": "IN","zip": "46222","zip+4": "0000","phone": "3176384805"}
{"name": "KROGER PHARMACY DBA PAYLESS #2","address1": "1845 N SCATTERFIELD RD","address2": "","city": "ANDERSON","state": "IN","zip": "46012","zip+4": "0000","phone": "7656492477"}
{"name": "CVS PHARMACY #07635","address1": "1210 NORTH NAPPANEE ST","address2": "","city": "ELKHART","state": "IN","zip": "46514","zip+4": "0000","phone": "5742669009"}
{"name": "KROGER PHARMACY DBA PAYLESS #2","address1": "2513 MAPLE POINT DR","address2": "","city": "LAFAYETTE","state": "IN","zip": "47905","zip+4": "0000","phone": "7654478337"}
{"name": "WALGREEN DRUG STORE #3486","address1": "1300 WABASH AVENUE","address2": "","city": "TERRE HAUTE","state": "IN","zip": "47807","zip+4": "0000","phone": "8122324959"}
{"name": "MEIJER PHARMACY #134","address1": "5325 E SOUTHPORT RD","address2": "","city": "INDIANAPOLIS","state": "IN","zip": "46237","zip+4": "0000","phone": "3178592210"}
{"name": "BUEHLERS BUY LOW PHARMACY #451","address1": "FIFTH AND BROADWAY","address2": "","city": "PRINCETON","state": "IN","zip": "47670","zip+4": "0000","phone": "8123867672"}
{"name": "CHARTWELL MIDWEST INDIANA","address1": "8040 CASTLEWAY DR","address2": "","city": "INDIANAPOLIS","state": "IN","zip": "46250","zip+4": "0000","phone": "3175943333"}
{"name": "KROGER PHARMACY #21961","address1": "821 INDIANAPOLIS RD","address2": "","city": "GREENCASTLE","state": "IN","zip": "46135","zip+4": "0000","phone": "7656531606"}
{"name": "CVS PHARMACY #07045","address1": "800 N MAIN ST","address2": "","city": "EVANSVILLE","state": "IN","zip": "47711","zip+4": "0000","phone": "8124670109"}
{"name": "SOUTHWAY HEALTHCARE PHARMACY","address1": "3813 S MADISON ST","address2": "","city": "MUNCIE","state": "IN","zip": "47302","zip+4": "0000","phone": "7657512324"}
{"name": "WAL-MART PHARMACY #102339","address1": "2801 NORTHWESTERN AVE","address2": "","city": "WEST LAFAYETTE","state": "IN","zip": "47906","zip+4": "0000","phone": "7654630910"}
{"name": "KROGER PHARMACY #21944","address1": "7272 FISHERS CROSSING DR","address2": "","city": "FISHERS","state": "IN","zip": "46038","zip+4": "0000","phone": "3175790209"}
{"name": "WALGREEN DRUG STORE #3722","address1": "110 E CREIGHTON AVE","address2": "","city": "FORT WAYNE","state": "IN","zip": "46803","zip+4": "0000","phone": "2604561153"}
{"name": "YORKTOWN HEALTHCARE PHARMACY","address1": "1420 S PILGRIM BLVD","address2": "","city": "YORKTOWN","state": "IN","zip": "47396","zip+4": "0000","phone": "7657594064"}
{"name": "CVS PHARMACY #04468","address1": "7915 C SOUTH EMERSON AVE","address2": "","city": "INDIANAPOLIS","state": "IN","zip": "46237","zip+4": "0000","phone": "3178657593"}
{"name": "RITE AID PHARMACY #04652","address1": "1673 HIGHWAY 64 NE","address2": "","city": "NEW SALISBURY","state": "IN","zip": "47161","zip+4": "8439","phone": "8123473188"}
{"name": "RITE AID PHARMACY #04653","address1": "810 HIGHLANDER POINT DRIVE","address2": "","city": "FLOYDS KNOBS","state": "IN","zip": "47119","zip+4": "9470","phone": "8129238829"}
{"name": "RITE AID PHARMACY #04654","address1": "7505 STATE ROUTE 311","address2": "","city": "SELLERSBURG","state": "IN","zip": "47172","zip+4": "1815","phone": "8122465405"}
{"name": "RITE AID PHARMACY #04657","address1": "1665 EAST TENTH STREET","address2": "","city": "JEFFERSONVILLE","state": "IN","zip": "47130","zip+4": "6276","phone": "8122828454"}
{"name": "CVS PHARMACY #04648","address1": "301 PENDELTON AVE","address2": "","city": "LAPEL","state": "IN","zip": "46051","zip+4": "0000","phone": "7655343165"}
{"name": "KROGER PHARMACY #21960","address1": "500 S LIBERTY DR","address2": "","city": "BLOOMINGTON","state": "IN","zip": "47403","zip+4": "0000","phone": "8123491392"}
{"name": "BUEHLERS BUY LOW PHARMACY #453","address1": "4635 FIRST AVE","address2": "","city": "EVANSVILLE","state": "IN","zip": "47710","zip+4": "0000","phone": "8124630511"}
{"name": "KROGER PHARMACY #21948","address1": "1660 CRAWFORDSVILLE SQUARE DR","address2": "","city": "CRAWFORDSVILLE","state": "IN","zip": "47933","zip+4": "0000","phone": "7653613260"}
{"name": "MARSH DRUGS LLC #7096812","address1": "715 SOUTH TILLOTSON AVENUE","address2": "","city": "MUNCIE","state": "IN","zip": "47304","zip+4": "4526","phone": "7652131213"}
{"name": "UPLAND HEALTHCARE PHARMACY","address1": "1809 S MAIN ST","address2": "","city": "UPLAND","state": "IN","zip": "46989","zip+4": "0000","phone": "7659986210"}
{"name": "BUEHLERS BUY LOW PHARMACY #454","address1": "1550 S VANN AVE","address2": "","city": "EVANSVILLE","state": "IN","zip": "47714","zip+4": "0000","phone": "8124697435"}
{"name": "ALBANY HEALTHCARE PHARMACY","address1": "349 W 1ST ST","address2": "","city": "ALBANY","state": "IN","zip": "47320","zip+4": "0000","phone": "7657898585"}
{"name": "KENMORE HEALTHCARE PHARMACY","address1": "205 N TILLOTSON AVE","address2": "","city": "MUNCIE","state": "IN","zip": "47304","zip+4": "0000","phone": "7652132200"}
{"name": "KROGER PHARMACY #21857","address1": "821 LINCOLN HIGHWAY WEST","address2": "","city": "NEW HAVEN","state": "IN","zip": "46774","zip+4": "0000","phone": "2607490215"}
{"name": "CVS PHARMACY #04482","address1": "101 N BURKHARDT ROAD","address2": "","city": "EVANSVILLE","state": "IN","zip": "47715","zip+4": "0000","phone": "8124718207"}
{"name": "MEDICAP PHARMACY #8190","address1": "1588 N STATE ST","address2": "","city": "GREENFIELD","state": "IN","zip": "46140","zip+4": "0000","phone": "3174627877"}
{"name": "CVS PHARMACY #03280","address1": "255 OLD CAPITAL PLAZA NW","address2": "","city": "CORYDON","state": "IN","zip": "47112","zip+4": "0000","phone": "8127387191"}
{"name": "CVS PHARMACY #07791","address1": "8330 CRAWFORDSVILLE RD","address2": "","city": "INDIANAPOLIS","state": "IN","zip": "46234","zip+4": "0000","phone": "3172974900"}
{"name": "MEIJER PHARMACY #149","address1": "5150 S FRANKLIN ST US 421","address2": "","city": "MICHIGAN CITY","state": "IN","zip": "46360","zip+4": "0000","phone": "2198772410"}
{"name": "MEIJER PHARMACY #154","address1": "8375 E 96TH ST","address2": "","city": "INDIANAPOLIS","state": "IN","zip": "46256","zip+4": "0000","phone": "3175852410"}
{"name": "KROGER PHARMACY #21972","address1": "601 EAST DUPONT RD","address2": "","city": "FORT WAYNE","state": "IN","zip": "46825","zip+4": "0000","phone": "2606376115"}
{"name": "CVS PHARMACY #04649","address1": "10580 EAST 96TH STREET","address2": "","city": "FISHERS","state": "IN","zip": "46038","zip+4": "0000","phone": "3178496406"}
{"name": "LINTON FAMILY PHARMACY","address1": "60 A ST NW","address2": "","city": "LINTON","state": "IN","zip": "47441","zip+4": "0000","phone": "8128471978"}
{"name": "WAL-MART PHARMACY #102563","address1": "735 NORTH GOSPEL STREET","address2": "","city": "PAOLI","state": "IN","zip": "47454","zip+4": "0000","phone": "8127232505"}
{"name": "KROGER PHARMACY #21902","address1": "930 WEST MAIN STREET","address2": "","city": "PERU","state": "IN","zip": "46970","zip+4": "0000","phone": "7654732076"}
{"name": "WAL-MART PHARMACY #102544","address1": "6087 U.S. HIGHWAY 6","address2": "","city": "PORTAGE","state": "IN","zip": "46368","zip+4": "0000","phone": "2197595811"}
{"name": "WILLIAMS BROS HEALTH CARE PHCY","address1": "101 W BRUMFIELD AVE","address2": "","city": "PRINCETON","state": "IN","zip": "47670","zip+4": "0000","phone": "8123865194"}
{"name": "CVS PHARMACY #07653","address1": "5120 WESTON RD","address2": "","city": "EVANSVILLE","state": "IN","zip": "47712","zip+4": "0000","phone": "8124244811"}
{"name": "PHARMACY OF CANTERBURY","address1": "5715 ST JOE RD","address2": "","city": "FT WAYNE","state": "IN","zip": "46835","zip+4": "0000","phone": "2604867255"}
{"name": "WALGREEN DRUG STORE #4276","address1": "9280 WICKER","address2": "","city": "ST JOHN","state": "IN","zip": "46373","zip+4": "0000","phone": "2193659405"}
{"name": "WALGREEN DRUG STORE #4371","address1": "1801 SOUTH ST","address2": "","city": "LAFAYETTE","state": "IN","zip": "47905","zip+4": "0000","phone": "7654481700"}
{"name": "BIOSCRIP PHARMACY #4022","address1": "342 MASSACHUSETTS AVE","address2": "STE 103","city": "INDIANAPOLIS","state": "IN","zip": "46204","zip+4": "0000","phone": "3176316000"}
{"name": "KROGER PHARMACY #21973","address1": "6002 ST JOE CENTER ROAD","address2": "","city": "FORT WAYNE","state": "IN","zip": "46835","zip+4": "0000","phone": "2604922054"}
{"name": "WALGREEN DRUG STORE #4447","address1": "1702 E SPRING ST","address2": "","city": "NEW ALBANY","state": "IN","zip": "47150","zip+4": "0000","phone": "8129490422"}
{"name": "WILLIAMS BROS HEALTH CARE PHY","address1": "889 N GOSPEL ST","address2": "SUITE 2","city": "PAOLI","state": "IN","zip": "47454","zip+4": "0000","phone": "8127233907"}
{"name": "HEART CITY HLTH CNTR PHCY","address1": "236 SIMPSON AVE","address2": "","city": "ELKHART","state": "IN","zip": "46516","zip+4": "4671","phone": "5749701441"}
{"name": "MARSH DRUGS LLC #7066824","address1": "208 EAST SOUTHWAY BLVD","address2": "","city": "KOKOMO","state": "IN","zip": "46902","zip+4": "3652","phone": "7658657531"}
{"name": "MARSH DRUGS LLC #7031814","address1": "1013 NORTH FOREST","address2": "","city": "MARION","state": "IN","zip": "46952","zip+4": "1825","phone": "7656643929"}
{"name": "HOMEMED PHARMACY LLC","address1": "6210 TECHNOLOGY CENTER DR","address2": "","city": "INDIANAPOLIS","state": "IN","zip": "46278","zip+4": "0000","phone": "3176164500"}
{"name": "KROGER PHARMACY #21981","address1": "2650 WABASH AVE","address2": "","city": "TERRE HAUTE","state": "IN","zip": "47803","zip+4": "0000","phone": "8122357326"}
{"name": "MARSH DRUGS LLC #7034815","address1": "5 BOONE VILLAGE","address2": "","city": "ZIONSVILLE","state": "IN","zip": "46077","zip+4": "1231","phone": "3178738192"}
{"name": "KROGER PHARMACY #21962","address1": "5025 W 71ST STREET","address2": "","city": "INDIANAPOLIS","state": "IN","zip": "46268","zip+4": "0000","phone": "3173478488"}
{"name": "KROGER PHARMACY #21956","address1": "1700 NORTHWOOD PLAZA","address2": "","city": "FRANKLIN","state": "IN","zip": "46131","zip+4": "0000","phone": "3177369574"}
{"name": "WILLIAMS BROS LONG TERM CARE","address1": "7 WILLIAMS BROS DR","address2": "","city": "WASHINGTON","state": "IN","zip": "47501","zip+4": "0000","phone": "8122572505"}
{"name": "HCMH OUTPATIENT NEIGHBORHOOD P","address1": "1000 N 16TH ST","address2": "","city": "NEW CASTLE","state": "IN","zip": "47362","zip+4": "0000","phone": "7655211483"}
{"name": "KROGER PHARMACY #21096","address1": "202 S MAIN STREET","address2": "","city": "RUSHVILLE","state": "IN","zip": "46173","zip+4": "0000","phone": "7659383155"}
{"name": "WALGREEN DRUG STORE #4486","address1": "5520 W LINCOLN HWY","address2": "","city": "SCHERERVILLE","state": "IN","zip": "46375","zip+4": "0000","phone": "2193221350"}
{"name": "CVS PHARMACY #07651","address1": "2 SHENANDOAH DR","address2": "","city": "LAFAYETTE","state": "IN","zip": "47905","zip+4": "0000","phone": "7654461245"}
{"name": "YOUR FAMILY PHARMACY LLC","address1": "15 N KRINGLE PLACE","address2": "","city": "SANTA CLAUS","state": "IN","zip": "47579","zip+4": "0188","phone": "8129372682"}
{"name": "KROGER PHARMACY J-71 #21071","address1": "2821 S WASHINGTON ST","address2": "","city": "KOKOMO","state": "IN","zip": "46902","zip+4": "0000","phone": "7654533173"}
{"name": "MARSH DRUGS LLC #7014816","address1": "2140 EAST 116TH STREET","address2": "","city": "CARMEL","state": "IN","zip": "46032","zip+4": "3213","phone": "3175753695"}
{"name": "CVS PHARMACY #02484","address1": "4630 S WASHINGTON ST","address2": "","city": "MARION","state": "IN","zip": "46953","zip+4": "0000","phone": "7656745085"}
{"name": "MEIJER PHARMACY #165","address1": "611 US 30","address2": "","city": "MERRILLVILLE","state": "IN","zip": "46410","zip+4": "0000","phone": "2196503710"}
{"name": "FAMILY HEALTHCARE PHARMACY","address1": "5501 W BETHEL AVE","address2": "","city": "MUNCIE","state": "IN","zip": "47304","zip+4": "0000","phone": "7657517900"}
{"name": "APRIA HEALTHCARE #011","address1": "7353 COMPANY DRIVE","address2": "","city": "INDIANAPOLIS","state": "IN","zip": "46237","zip+4": "0000","phone": "8008219150"}
{"name": "FAGEN PHARMACY #26","address1": "6010 W RIDGE RD","address2": "","city": "GARY","state": "IN","zip": "46408","zip+4": "0000","phone": "2199237907"}
{"name": "KMART PHARMACY #9354","address1": "430 W RIDGE ROAD","address2": "","city": "GRIFFITH","state": "IN","zip": "46319","zip+4": "0000","phone": "2199720364"}
{"name": "MARION HEALTHCARE PHARMACY","address1": "RX ADMINISTRATION OFFICE","address2": "2401 W. UNIVERSITY AVE","city": "MUNCIE","state": "IN","zip": "47303","zip+4": "0000","phone": "7657515316"}
{"name": "RITE AID PHARMACY #04986","address1": "106 SOUTH COLUMBIA STREET","address2": "","city": "UNION CITY","state": "IN","zip": "47390","zip+4": "1434","phone": "7659646000"}
{"name": "FAGEN PHARMACY #27","address1": "7760 E 37TH","address2": "","city": "HOBART","state": "IN","zip": "46342","zip+4": "0000","phone": "2199629726"}
{"name": "KROGER PHARMACY #21921","address1": "530 S INDIANA AVENUE","address2": "","city": "MOORESVILLE","state": "IN","zip": "46158","zip+4": "0000","phone": "3178319416"}
{"name": "CVS PHARMACY #02311","address1": "2215 SOUTH SHELBY STREET","address2": "","city": "INDIANAPOLIS","state": "IN","zip": "46203","zip+4": "0000","phone": "3177803270"}
{"name": "WALGREEN DRUG STORE #4829","address1": "10920 RANDOLPH ST","address2": "","city": "CROWN POINT","state": "IN","zip": "46307","zip+4": "0000","phone": "2196618113"}
{"name": "KROGER PHARMACY DBA OWENS #218","address1": "2211 EAST CENTER ST","address2": "","city": "WARSAW","state": "IN","zip": "46580","zip+4": "3719","phone": "5742696674"}
{"name": "WAL-MART PHARMACY #102680","address1": "3701 PORTAGE ROAD","address2": "","city": "SOUTH BEND","state": "IN","zip": "46628","zip+4": "0000","phone": "5742435849"}
{"name": "WAL-MART PHARMACY #102679","address1": "175 COUNTRY ROAD 6 WEST","address2": "","city": "ELKHART","state": "IN","zip": "46514","zip+4": "0000","phone": "5742667459"}
{"name": "WAL-MART PHARMACY #102678","address1": "316 INDIAN RIDGE ROAD","address2": "","city": "MISHAWAKA","state": "IN","zip": "46545","zip+4": "0000","phone": "5742439707"}
{"name": "SAMS PHARMACY #106315","address1": "120 INDIAN RIDGE BLVD","address2": "","city": "MISHAWAKA","state": "IN","zip": "46545","zip+4": "0000","phone": "5742438419"}
{"name": "MEIJER PHARMACY #167","address1": "2750 ALLISON LANE","address2": "","city": "JEFFERSONVILLE","state": "IN","zip": "47130","zip+4": "0000","phone": "8122186610"}
{"name": "MEIJER PHARMACY #170","address1": "10138 INDIANAPOLIS RD","address2": "","city": "HIGHLAND","state": "IN","zip": "46322","zip+4": "0000","phone": "2199342110"}
{"name": "MEDICINE SHOPPE PHARMACY #1630","address1": "1116 BROADWAY","address2": "","city": "GARY","state": "IN","zip": "46407","zip+4": "0000","phone": "2198851615"}
{"name": "KROGER PHARMACY #21100","address1": "7101 E 10TH ST","address2": "","city": "INDIANAPOLIS","state": "IN","zip": "46219","zip+4": "4905","phone": "3173513216"}
{"name": "KROGER PHARMACY #21974","address1": "1601 E MICHIGAN","address2": "","city": "SHELBYVILLE","state": "IN","zip": "46176","zip+4": "1832","phone": "3174212356"}
{"name": "MARSH DRUGS LLC #7041789","address1": "5151 EAST 82ND STREET","address2": "","city": "INDIANAPOLIS","state": "IN","zip": "46250","zip+4": "5656","phone": "3175856461"}
{"name": "WALGREEN DRUG STORE #4750","address1": "400 W 81ST AVE","address2": "","city": "MERRILLVILLE","state": "IN","zip": "46410","zip+4": "5305","phone": "2197361231"}
{"name": "BROAD RIDGE DRUG","address1": "3776 BROADWAY","address2": "","city": "GARY","state": "IN","zip": "46408","zip+4": "0000","phone": "2198844445"}
{"name": "WALGREEN DRUG STORE #5115","address1": "10412 COLDWATER RD","address2": "","city": "FORT WAYNE","state": "IN","zip": "46845","zip+4": "1233","phone": "2606379967"}
{"name": "WALGREEN DRUG STORE #4946","address1": "580 E INDIAN BOUNDARY RD","address2": "","city": "CHESTERTON","state": "IN","zip": "46304","zip+4": "0000","phone": "2193959622"}
{"name": "CVS PHARMACY #02673","address1": "421 CHESTNUT STREET","address2": "","city": "EVANSVILLE","state": "IN","zip": "47713","zip+4": "0000","phone": "8124269301"}
{"name": "COOPER DRUGS INC","address1": "830 MAIN ST","address2": "","city": "CHARLESTON","state": "IN","zip": "47111","zip+4": "0000","phone": "8122562500"}
{"name": "MEDICINE SHOPPE PHARMACY #1626","address1": "325 W MAIN","address2": "","city": "GREENSBURG","state": "IN","zip": "47240","zip+4": "0000","phone": "8126628550"}
{"name": "KROGER PHARMACY #21976","address1": "8801 US 24 WEST","address2": "","city": "FORT WAYNE","state": "IN","zip": "46804","zip+4": "4747","phone": "2604593749"}
{"name": "PHARMACY SERVICES OF INDIANA","address1": "3402 A CONGRESSIONAL PKWY","address2": "","city": "FT WAYNE","state": "IN","zip": "46808","zip+4": "0000","phone": "2604847366"}
{"name": "WALGREEN DRUG STORE #5164","address1": "9610 N ALLISONVILLE RD","address2": "","city": "INDIANAPOLIS","state": "IN","zip": "46250","zip+4": "0000","phone": "3175786502"}
{"name": "FOREST RIDGE NEIGHBORHOOD PHAR","address1": "2200 FOREST RIDGE PKWY","address2": "","city": "NEW CASTLE","state": "IN","zip": "47362","zip+4": "0000","phone": "7655993540"}
{"name": "WALGREEN DRUG STORE #5393","address1": "20 S MORTON ST","address2": "","city": "FRANKLIN","state": "IN","zip": "46131","zip+4": "0000","phone": "3177367752"}
{"name": "TARGET PHARMACY #1214","address1": "10202 EAST WASHINGTON STREET","address2": "","city": "INDIANAPOLIS","state": "IN","zip": "46229","zip+4": "0000","phone": "3178993793"}
{"name": "KROGER PHARMACY #21927","address1": "4202 S EAST ST","address2": "","city": "INDIANAPOLIS","state": "IN","zip": "46227","zip+4": "1416","phone": "3177814258"}
{"name": "KROGER PHARMACY #21992","address1": "5911 S MADISON AVE","address2": "","city": "INDIANAPOLIS","state": "IN","zip": "46227","zip+4": "4726","phone": "3177913545"}
{"name": "MARSH DRUGS LLC #7021818","address1": "10679 NORTH MICHIGAN ROAD","address2": "","city": "ZIONSVILLE","state": "IN","zip": "46077","zip+4": "9261","phone": "3177332565"}
{"name": "CVS PHARMACY #02519","address1": "2338 US HIGHWAY 41","address2": "","city": "SCHEREVILLE","state": "IN","zip": "46375","zip+4": "2810","phone": "2198654601"}
{"name": "CVS PHARMACY #02387","address1": "130 EAST CLEVELAND ROAD","address2": "","city": "GRANGER","state": "IN","zip": "46530","zip+4": "0000","phone": "5742472221"}
{"name": "MILLERS PHARMACY","address1": "420 S DETROIT ST","address2": "","city": "LAGRANGE","state": "IN","zip": "46761","zip+4": "0000","phone": "2604637464"}
{"name": "WAL-MART PHARMACY #102788","address1": "400 WEST NORTHFIELD DRIVE","address2": "","city": "BROWNSBURG","state": "IN","zip": "46112","zip+4": "0000","phone": "3178581415"}
{"name": "WAL-MART PHARMACY #102819","address1": "2100 NORTH MAIN STREET","address2": "","city": "BLUFFTON","state": "IN","zip": "46714","zip+4": "0000","phone": "2608240546"}
{"name": "WALGREEN DRUG STORE #5718","address1": "10845 E 79TH ST","address2": "","city": "LAWRENCE","state": "IN","zip": "46236","zip+4": "0000","phone": "3178268762"}
{"name": "WALGREEN DRUG STORE #5264","address1": "6269 W 38TH ST","address2": "","city": "INDIANAPOLIS","state": "IN","zip": "46254","zip+4": "0000","phone": "3172938570"}
{"name": "LINCOLN PLAZA PHARMACY","address1": "629 LINCOLN AVE","address2": "","city": "BEDFORD","state": "IN","zip": "47421","zip+4": "0000","phone": "8122771702"}
{"name": "MARSH DRUGS LLC #7020819","address1": "843 EAST MAIN STREET","address2": "","city": "BROWNSBURG","state": "IN","zip": "46112","zip+4": "1457","phone": "3178582345"}
{"name": "TARGET PHARMACY #1762","address1": "3630 STATE ROAD 26 EAST","address2": "","city": "LAFAYETTE","state": "IN","zip": "47905","zip+4": "0000","phone": "7654474411"}
{"name": "CVS PHARMACY #02665","address1": "2272 NORTH MAIN STREET","address2": "","city": "CROWNPOINT","state": "IN","zip": "46307","zip+4": "0000","phone": "2196615601"}
{"name": "MEIJER PHARMACY #190","address1": "2990 N WAYNE ST","address2": "","city": "ANGOLA","state": "IN","zip": "46703","zip+4": "0000","phone": "2606681110"}
{"name": "MEIJER PHARMACY #155","address1": "2507 CHESTER BLVD","address2": "","city": "RICHMOND","state": "IN","zip": "47374","zip+4": "0000","phone": "7659394410"}
{"name": "WAL-MART PHARMACY #102771","address1": "1088 WEST BROADWAY","address2": "","city": "MONTICELLO","state": "IN","zip": "47960","zip+4": "0000","phone": "5745833250"}
{"name": "WAL-MART PHARMACY #102787","address1": "7325 NORTH KEYSTONE AVE.","address2": "","city": "INDIANAPOLIS","state": "IN","zip": "46240","zip+4": "0000","phone": "3172029731"}
{"name": "CVS PHARMACY #02542","address1": "3405 RIDGE ROAD","address2": "","city": "HIGHLAND","state": "IN","zip": "46322","zip+4": "0000","phone": "2199727131"}
{"name": "CVS PHARMACY #02734","address1": "1299 WEST SOUTHPORT RD","address2": "","city": "INDIANAPOLIS","state": "IN","zip": "46217","zip+4": "0000","phone": "3178595881"}
{"name": "WALGREEN DRUG STORE #5727","address1": "13242 WICKER AVE","address2": "","city": "CEDAR LAKE","state": "IN","zip": "46303","zip+4": "0000","phone": "2193748782"}
{"name": "WALGREEN DRUG STORE #5663","address1": "1323 N BALDWIN AVE","address2": "","city": "MARION","state": "IN","zip": "46952","zip+4": "0000","phone": "7656641829"}
{"name": "KROGER PHARMACY #24741","address1": "525 E CLIFTY DRIVE","address2": "","city": "MADISON","state": "IN","zip": "47250","zip+4": "0000","phone": "8122733343"}
{"name": "KROGER PHARMACY #21086","address1": "2629 E 65TH ST","address2": "","city": "INDIANAPOLIS","state": "IN","zip": "46220","zip+4": "1507","phone": "3172525333"}
{"name": "KROGER PHARMACY #21985","address1": "108 NORTH SR 267","address2": "","city": "AVON","state": "IN","zip": "46168","zip+4": "0000","phone": "3172724135"}
{"name": "WALGREEN DRUG STORE #5753","address1": "7975 E US HWY 36","address2": "","city": "AVON","state": "IN","zip": "46123","zip+4": "0000","phone": "3172723839"}
{"name": "KROGER PHARMACY #21993","address1": "1330 W SOUTHPORT RD","address2": "","city": "INDIANAPOLIS","state": "IN","zip": "46217","zip+4": "0000","phone": "3178844250"}
{"name": "WAL-MART PHARMACY #102818","address1": "1828 165TH STREET","address2": "","city": "HAMMOND","state": "IN","zip": "46320","zip+4": "0000","phone": "2199890275"}
{"name": "WALGREEN DRUG STORE #5803","address1": "2720 W JACKSON","address2": "","city": "MUNCIE","state": "IN","zip": "47303","zip+4": "0000","phone": "7652878515"}
{"name": "WALGREEN DRUG STORE #5802","address1": "100 E MCGALLIARD RD","address2": "","city": "MUNCIE","state": "IN","zip": "47303","zip+4": "0000","phone": "7652885635"}
{"name": "SAMS PHARMACY #106304","address1": "5805 ROCKVILLE ROAD","address2": "","city": "INDIANAPOLIS","state": "IN","zip": "46224","zip+4": "0000","phone": "3172411141"}
{"name": "SAMS PHARMACY #106301","address1": "10859 EAST WASHINGTON","address2": "","city": "INDIANAPOLIS","state": "IN","zip": "46229","zip+4": "0000","phone": "3178955745"}
{"name": "KROGER PHARMACY #21862","address1": "11101 PENDELTON PIKE","address2": "","city": "INDIANAPOLIS","state": "IN","zip": "46236","zip+4": "0000","phone": "3178233245"}
{"name": "WALGREEN DRUG STORE #5978","address1": "11020 PENDLETON PIKE","address2": "","city": "INDIANAPOLIS","state": "IN","zip": "46236","zip+4": "0000","phone": "3178263329"}
{"name": "SAMS PHARMACY #106325","address1": "1101 WINDHORST WAY","address2": "","city": "GREENWOOD","state": "IN","zip": "46143","zip+4": "0000","phone": "3178870093"}
{"name": "SAMS PHARMACY #106316","address1": "3015 WEST 86TH STREET","address2": "","city": "INDIANAPOLIS","state": "IN","zip": "46268","zip+4": "0000","phone": "3178723544"}
{"name": "MARSH DRUGS LLC #7054820","address1": "123 SOUTH KINGSTON DRIVE","address2": "","city": "BLOOMINGTON","state": "IN","zip": "47408","zip+4": "6342","phone": "8123558710"}
{"name": "WALGREEN DRUG STORE #5562","address1": "1516 E MAIN ST","address2": "","city": "PLAINFIELD","state": "IN","zip": "46168","zip+4": "0000","phone": "3178389190"}
{"name": "WALGREEN DRUG STORE #5804","address1": "455 EAST EPLER AVE","address2": "","city": "INDIANAPOLIS","state": "IN","zip": "46227","zip+4": "0000","phone": "3177886641"}
{"name": "CVS PHARMACY #02520","address1": "6445 CALUMET AVENUE","address2": "","city": "HAMMOND","state": "IN","zip": "46324","zip+4": "1206","phone": "2199378521"}
{"name": "WALGREEN DRUG STORE #6420","address1": "400 E 12TH ST","address2": "","city": "MUNCIE","state": "IN","zip": "47302","zip+4": "0000","phone": "7652843872"}
{"name": "CROWDERS EXPRESS SCRIPTS","address1": "1514 G ST","address2": "","city": "BEDFORD","state": "IN","zip": "47421","zip+4": "0000","phone": "8122755949"}
{"name": "THE IU PRESCRIPTION CENTER","address1": "550 N UNIVERSITY BLVD","address2": "UH 1451","city": "INDIANAPOLIS","state": "IN","zip": "46202","zip+4": "5149","phone": "3172743445"}
{"name": "THE METHODIST PRESCRIPTION CEN","address1": "1801 N SENATE BLVD","address2": "ROOM 105","city": "INDIANAPOLIS","state": "IN","zip": "46202","zip+4": "0000","phone": "3179625606"}
{"name": "THE RILEY PRESCRIPTION CENTER","address1": "702 BARNHILL DR","address2": "ROC 1201","city": "INDIANAPOLIS","state": "IN","zip": "46202","zip+4": "5128","phone": "3172742335"}
{"name": "WALGREEN DRUG STORE #6165","address1": "10595 N MICHIGAN RD","address2": "","city": "CARMEL","state": "IN","zip": "46032","zip+4": "0000","phone": "3178725494"}
{"name": "CVS PHARMACY #02941","address1": "610 W MARKLAND","address2": "","city": "KOKOMO","state": "IN","zip": "46901","zip+4": "0000","phone": "7654574407"}
{"name": "MEIJER PHARMACY #204","address1": "10509 HEARTLAND BLVD","address2": "","city": "CAMBY","state": "IN","zip": "46113","zip+4": "0000","phone": "3178216810"}
{"name": "TARGET PHARMACY #1286","address1": "2420 LAPORTE AVENUE","address2": "","city": "VALPARAISO","state": "IN","zip": "46383","zip+4": "0000","phone": "2195316628"}
{"name": "KROGER PHARMACY #21991","address1": "1005 W 7TH STREET","address2": "","city": "AUBURN","state": "IN","zip": "46706","zip+4": "0000","phone": "2609202170"}
{"name": "KROGER PHARMACY #21994","address1": "8850 S EMERSON AVE","address2": "","city": "INDIANAPOLIS","state": "IN","zip": "46237","zip+4": "0000","phone": "3178843325"}
{"name": "WALGREEN DRUG STORE #4592","address1": "700 US HWY 31 S","address2": "","city": "GREENWOOD","state": "IN","zip": "46143","zip+4": "0000","phone": "3178830547"}
{"name": "WELLCARE FAMILY MEDICINE PC","address1": "9757 WESTPOINT DRIVE","address2": "","city": "INDIANAPOLIS","state": "IN","zip": "46250","zip+4": "0000","phone": "3175772779"}
{"name": "BRIAN A JOHNSON MD PC","address1": "613 E TERRACE DRIVE","address2": "","city": "WINAMAC","state": "IN","zip": "46996","zip+4": "0000","phone": "2199466644"}
{"name": "WALGREEN DRUG STORE #6454","address1": "20 W MAIN ST","address2": "","city": "BROWNSBURG","state": "IN","zip": "46112","zip+4": "0000","phone": "3178587181"}
{"name": "WALGREEN DRUG STORE #6150","address1": "1601 OAK HILL ROAD","address2": "","city": "EVANSVILLE","state": "IN","zip": "47711","zip+4": "0000","phone": "8124775221"}
{"name": "KROGER PHARMACY #21887","address1": "151 ROCHESTER PLAZA","address2": "","city": "ROCHESTER","state": "IN","zip": "46975","zip+4": "0000","phone": "5742236347"}
{"name": "COMMUNITY SURGERY CENTER PHARM","address1": "801 MAC ARTHUR BLVD","address2": "","city": "MUNSTER","state": "IN","zip": "46321","zip+4": "0000","phone": "2198362480"}
{"name": "WALGREEN DRUG STORE #6455","address1": "115 FIELDS ROAD","address2": "","city": "MOORESVILLE","state": "IN","zip": "46158","zip+4": "0000","phone": "3178346672"}
{"name": "WALGREEN DRUG STORE #5853","address1": "720 S STATE RD 135","address2": "","city": "GREENWOOD","state": "IN","zip": "46143","zip+4": "0000","phone": "3178886754"}
{"name": "KROGER PHARMACY #14827","address1": "516 WEST 30TH STREET","address2": "","city": "CONNERSVILLE","state": "IN","zip": "47331","zip+4": "0000","phone": "7658275302"}
{"name": "MARSH DRUGS #7328822","address1": "1900 NORTH WALNUT ST","address2": "","city": "MUNCIE","state": "IN","zip": "47303","zip+4": "1972","phone": "7652896968"}
{"name": "MARSH DRUGS LLC #7329823","address1": "1920 S HOYT","address2": "","city": "MUNCIE","state": "IN","zip": "47302","zip+4": "3041","phone": "7652842670"}
{"name": "MARSH DRUGS LLC #7331825","address1": "3910 WEST BETHEL","address2": "","city": "MUNCIE","state": "IN","zip": "47304","zip+4": "5440","phone": "7657411326"}
{"name": "SAMS PHARMACY #108123","address1": "6700 E VIRGINIA ST","address2": "","city": "EVANSVILLE","state": "IN","zip": "47715","zip+4": "0000","phone": "8124735892"}
{"name": "BUEHLERSBUY LOW PHARMACY #456","address1": "12500 HIGHWAY 41","address2": "","city": "EVANSVILLE","state": "IN","zip": "47725","zip+4": "0000","phone": "8128678611"}
{"name": "TARGET PHARMACY #1350","address1": "11750 COMMERCIAL","address2": "","city": "FISHERS","state": "IN","zip": "46038","zip+4": "0000","phone": "3178454962"}
{"name": "TARGET PHARMACY #1788","address1": "10209 EAST HWY 36","address2": "","city": "AVON","state": "IN","zip": "46123","zip+4": "0000","phone": "3172716598"}
{"name": "TARGET PHARMACY #1789","address1": "4850 EAST SOUTHPORT","address2": "","city": "INDIANAPOLIS","state": "IN","zip": "46237","zip+4": "0000","phone": "3177876285"}
{"name": "FAGEN PHARMACY #33","address1": "5500 HOHMAN AVENUE","address2": "","city": "HAMMOND","state": "IN","zip": "46320","zip+4": "0000","phone": "2198366110"}
{"name": "MCGRADY FAMILY PHARMACY","address1": "1697 S MEMORIAL DR","address2": "","city": "NEW CASTLE","state": "IN","zip": "47362","zip+4": "0000","phone": "7655299600"}
{"name": "MARSH DRUGS LLC #7311827","address1": "2810 NICHOL AVE","address2": "","city": "ANDERSON","state": "IN","zip": "46011","zip+4": "3152","phone": "7656416622"}
{"name": "THE WOMENS HOSPITAL PHARMACY","address1": "4199 GATEWAY BLVD","address2": "ROOM 116","city": "NEWBURGH","state": "IN","zip": "47630","zip+4": "0000","phone": "8128424254"}
{"name": "JR PHARMACY #1","address1": "2902 POPLAR ST","address2": "","city": "TERRE HAUTE","state": "IN","zip": "47803","zip+4": "2661","phone": "8124781006"}
{"name": "PAULS PHARMACY EAST","address1": "1401 PROFESSIONAL BLVD","address2": "","city": "EVANSVILLE","state": "IN","zip": "47714","zip+4": "0000","phone": "8129623500"}
{"name": "WALGREEN DRUG STORE #6673","address1": "6202 W JEFFERSON BLVD","address2": "","city": "FORT WAYNE","state": "IN","zip": "46804","zip+4": "0000","phone": "2604325100"}
{"name": "WALGREEN DRUG STORE #6456","address1": "1000 SAGAMORE PKWY W","address2": "","city": "WEST LAFAYETTE","state": "IN","zip": "47906","zip+4": "0000","phone": "7654972500"}
{"name": "MEDICINE SHOPPE PHARMACY #1769","address1": "100 MILL ST","address2": "","city": "TIPTON","state": "IN","zip": "46072","zip+4": "0000","phone": "7656752626"}
{"name": "TARGET PHARMACY #1364","address1": "895 SOUTH STATE ROAD 135","address2": "","city": "GREENWOOD","state": "IN","zip": "46142","zip+4": "0000","phone": "3178835215"}
{"name": "TARGET PHARMACY #1366","address1": "10401 NORTH MICHIGAN ROAD","address2": "","city": "CARMEL","state": "IN","zip": "46032","zip+4": "0000","phone": "3178760921"}
{"name": "SAMS PHARMACY #106437","address1": "3205 WEST STATE HWY 45","address2": "","city": "BLOOMINGTON","state": "IN","zip": "47403","zip+4": "0000","phone": "8123338903"}
{"name": "COSTCO PHARMACY #370","address1": "1310 E 79TH AVE","address2": "","city": "MERRILLVILLE","state": "IN","zip": "46410","zip+4": "0000","phone": "2196416402"}
{"name": "WALGREEN DRUG STORE #6761","address1": "3736 S SCATTERFIELD RD","address2": "","city": "ANDERSON","state": "IN","zip": "46013","zip+4": "0000","phone": "7656491339"}
{"name": "KROGER PHARMACY #21895","address1": "10005 E 116TH ST","address2": "","city": "FISHERS","state": "IN","zip": "46038","zip+4": "0000","phone": "3179135505"}
{"name": "KROGER PHARMACY #21864","address1": "2200 INDEPENDENCE DR","address2": "","city": "GREENWOOD","state": "IN","zip": "46143","zip+4": "0000","phone": "3178834145"}
{"name": "MARSH DRUGS LLC #7044828","address1": "2904 SOUTH STATE ROAD 135","address2": "","city": "GREENWOOD","state": "IN","zip": "46143","zip+4": "9605","phone": "3175358905"}
{"name": "MARSH DRUGS LLC #7116829","address1": "12520 EAST 116TH STREET","address2": "","city": "FISHERS","state": "IN","zip": "46037","zip+4": "8907","phone": "3175941315"}
{"name": "CVS PHARMACY #03297","address1": "4935 SOUTH ARLINGTON","address2": "","city": "INDIANAPOLIS","state": "IN","zip": "46237","zip+4": "0000","phone": "3177913824"}
{"name": "JR PHARMACY SOUTH LLC II #2","address1": "15 SOUTHLAND SHOPPING CENTER","address2": "","city": "TERRE HAUTE","state": "IN","zip": "47802","zip+4": "0000","phone": "8122326655"}
{"name": "WALGREEN DRUG STORE #6299","address1": "12570 REYNOLDS DR","address2": "","city": "FISHERS","state": "IN","zip": "46038","zip+4": "0000","phone": "3178499027"}
{"name": "WALGREEN DRUG STORE #6733","address1": "3500 CENTRAL AVE","address2": "","city": "LAKE STATION","state": "IN","zip": "46405","zip+4": "0000","phone": "2199634485"}
{"name": "RITE AID PHARMACY #07725","address1": "2022 EAST SPRING STREET","address2": "","city": "NEW ALBANY","state": "IN","zip": "47150","zip+4": "1665","phone": "8129490641"}
{"name": "SAMS PHARMACY #108168","address1": "7235 EAST 96TH STREET","address2": "","city": "INDIANAPOLIS","state": "IN","zip": "46250","zip+4": "0000","phone": "3175859387"}
{"name": "SAMS PHARMACY #108174","address1": "3134 EAST 79TH AVE","address2": "","city": "MERRILLVILLE","state": "IN","zip": "46410","zip+4": "0000","phone": "2199473789"}
{"name": "WALGREEN DRUG STORE #6778","address1": "6191 N KEYSTONE AVE","address2": "","city": "INDIANAPOLIS","state": "IN","zip": "46220","zip+4": "0000","phone": "3172576714"}
{"name": "KROGER PHARMACY #21900","address1": "4025 S OLD STATE RD 37","address2": "","city": "BLOOMINGTON","state": "IN","zip": "47401","zip+4": "0000","phone": "8128245205"}
{"name": "MARTINS PHARMACY #6","address1": "201 CONCORD MALL","address2": "","city": "ELKHART","state": "IN","zip": "46517","zip+4": "0000","phone": "5748759423"}
{"name": "MARTINS PHARMACY #17","address1": "3900 E BRISTOL ST","address2": "","city": "ELKHART","state": "IN","zip": "46514","zip+4": "0000","phone": "5749700004"}
{"name": "MARTINS PHARMACY #22","address1": "865 E JEFFERSON","address2": "","city": "PLYMOUTH","state": "IN","zip": "46563","zip+4": "0000","phone": "5749367334"}
{"name": "JR PHARMACY POPLAR LLC #3","address1": "1101 POPLAR ST","address2": "","city": "TERRE HAUTE","state": "IN","zip": "47807","zip+4": "4565","phone": "8122357373"}
{"name": "WAL-MART PHARMACY #102691","address1": "2910 GRANT LINE ROAD","address2": "","city": "NEW ALBANY","state": "IN","zip": "47150","zip+4": "0000","phone": "8129441214"}
{"name": "MARSH DRUGS LLC #7209831","address1": "320 NORTH NEW JERSEY STREET","address2": "","city": "INDIANAPOLIS","state": "IN","zip": "46204","zip+4": "2113","phone": "3172622226"}
{"name": "TARGET PHARMACY #1445","address1": "155 UNIVERSITY DRIVE EAST","address2": "","city": "GRANGER","state": "IN","zip": "46530","zip+4": "0000","phone": "5742439042"}
{"name": "TARGET PHARMACY #1446","address1": "3938 MIDWAY ROAD","address2": "","city": "GOSHEN","state": "IN","zip": "46526","zip+4": "0000","phone": "5748750610"}
{"name": "INDIANA HEMOPHILIA AND THROMBO","address1": "8402 HARCOURT RD","address2": "STE 510","city": "INDIANAPOLIS","state": "IN","zip": "46260","zip+4": "0000","phone": "3178297778"}
{"name": "SAMS PHARMACY #108135","address1": "4350 DIXIE BEE ROAD","address2": "","city": "TERRE HAUTE","state": "IN","zip": "47802","zip+4": "0000","phone": "8122385572"}
{"name": "TARGET PHARMACY #1481","address1": "6625 EAST LLOYD EXPRESSWAY","address2": "","city": "EVANSVILLE","state": "IN","zip": "47715","zip+4": "0000","phone": "8124028509"}
{"name": "WALGREEN DRUG STORE #6944","address1": "3608 S LAFOUNTAIN ST","address2": "","city": "KOKOMO","state": "IN","zip": "46902","zip+4": "0000","phone": "7654551937"}
{"name": "KROGER PHARMACY DBA PAYLESS #2","address1": "1032 SAGAMORE PARKWAY W","address2": "","city": "WEST LAFAYETTE","state": "IN","zip": "47906","zip+4": "1446","phone": "7654641456"}
{"name": "WILLIAMS BROS HLTHCRE PHCY","address1": "574 S LANDMARK AVE","address2": "","city": "BLOOMINGTON","state": "IN","zip": "47403","zip+4": "0000","phone": "8123350000"}
{"name": "COSTCO PHARMACY #347","address1": "9010 MICHIGAN ROAD","address2": "","city": "INDIANAPOLIS","state": "IN","zip": "46268","zip+4": "0000","phone": "3175321607"}
{"name": "COSTCO PHARMACY #346","address1": "6110 EAST 86TH STREET","address2": "","city": "CASTLETON","state": "IN","zip": "46250","zip+4": "0000","phone": "3175581452"}
{"name": "TARGET PHARMACY #0635","address1": "8448 CENTER RUN ROAD","address2": "","city": "INDIANAPOLIS","state": "IN","zip": "46250","zip+4": "0000","phone": "3175950432"}
{"name": "CVS PHARMACY #04982","address1": "13050 PUBLISHERS DRIVE","address2": "","city": "FISHERS","state": "IN","zip": "46038","zip+4": "0000","phone": "3175984411"}
{"name": "WALGREEN DRUG STORE #5344","address1": "10211 CHESTNUT PLAZA DR","address2": "","city": "FORT WAYNE","state": "IN","zip": "46814","zip+4": "0000","phone": "2606251030"}
{"name": "BUEHLERS BUY LOW PHARMACY #450","address1": "750 SECOND ST","address2": "","city": "JASPER","state": "IN","zip": "47546","zip+4": "0000","phone": "8126347379"}
{"name": "CVS PHARMACY #05206","address1": "3280 EAST STATE ROAD 32 EAST","address2": "","city": "WESTFIELD","state": "IN","zip": "46074","zip+4": "0000","phone": "3178673618"}
{"name": "JAY C FOOD STORES #90090","address1": "2631 W 16TH ST","address2": "","city": "BEDFORD","state": "IN","zip": "47421","zip+4": "0000","phone": "8122758167"}
{"name": "KROGER PHARMACY J-66 #21066","address1": "5173 W WASHINGTON ST","address2": "","city": "INDIANAPOLIS","state": "IN","zip": "46241","zip+4": "2205","phone": "3173819659"}
{"name": "JAY C FOOD STORES #90081","address1": "815 HIGHLANDER POINT DR","address2": "","city": "FLOYD KNOBS","state": "IN","zip": "47119","zip+4": "0000","phone": "8129239013"}
{"name": "WALTS PHARMACY #5","address1": "1218 SHEFFIELD AVE","address2": "","city": "DYER","state": "IN","zip": "46311","zip+4": "0000","phone": "2198654363"}
{"name": "WALGREEN DRUG STORE #6965","address1": "15005 STATE ROUTE 23","address2": "","city": "GRANGER","state": "IN","zip": "46530","zip+4": "0000","phone": "5742711393"}
{"name": "TARGET PHARMACY #0108","address1": "4000 FIRST AVENUE","address2": "","city": "EVANSVILLE","state": "IN","zip": "47710","zip+4": "0000","phone": "8124282285"}
{"name": "TARGET PHARMACY #1530","address1": "3601 N BARR STREET","address2": "","city": "MUNCIE","state": "IN","zip": "47303","zip+4": "0000","phone": "7652549084"}
{"name": "BIOSCRIP PHARMACY #4047","address1": "2120 NORTH CAPITOL","address2": "","city": "INDIANAPOLIS","state": "IN","zip": "46202","zip+4": "0000","phone": "3179267828"}
{"name": "KROGER PHARMACY DBA PAYLESS #2","address1": "65 BECK LANE","address2": "","city": "LAFAYETTE","state": "IN","zip": "47909","zip+4": "2836","phone": "7654748269"}
{"name": "WAL-MART PHARMACY #103529","address1": "10735 PENDLETON PIKE","address2": "","city": "LAWRENCE","state": "IN","zip": "46236","zip+4": "0000","phone": "3178231819"}
{"name": "KROGER PHARMACY #24744","address1": "2864 CHARLESTOWN RD","address2": "","city": "NEW ALBANY","state": "IN","zip": "47150","zip+4": "0000","phone": "8129480953"}
{"name": "SCHNUCKS PHARMACY #728","address1": "3501 NORTH GREEN RIVER RD","address2": "","city": "EVANSVILLE","state": "IN","zip": "47715","zip+4": "0000","phone": "8124734737"}
{"name": "WALGREEN DRUG STORE #7031","address1": "9240 ROCKVILLE RD","address2": "","city": "INDIANAPOLIS","state": "IN","zip": "46234","zip+4": "0000","phone": "3172091035"}
{"name": "SAMS PHARMACY #106313","address1": "6736 LIMA ROAD","address2": "","city": "FT WAYNE","state": "IN","zip": "46818","zip+4": "0000","phone": "2604900638"}
{"name": "MARTINS PHARMACY #11","address1": "926 ERSKINE PLAZA","address2": "","city": "SOUTH BEND","state": "IN","zip": "46614","zip+4": "0000","phone": "5742998844"}
{"name": "WAL-MART PHARMACY #105025","address1": "10420 MAYSVILLE ROAD","address2": "","city": "FORT WAYNE","state": "IN","zip": "46835","zip+4": "0000","phone": "2604925799"}
{"name": "DOCTORS PARK LTC PHARMACY","address1": "2030 DOCTORS PARK DR","address2": "","city": "COLUMBUS","state": "IN","zip": "47203","zip+4": "0000","phone": "8123786135"}
{"name": "WALGREEN DRUG STORE #6000","address1": "22 US HIGHWAY 41","address2": "","city": "SCHERERVILLE","state": "IN","zip": "46375","zip+4": "0000","phone": "2198656428"}
{"name": "WALGREEN DRUG STORE #7676","address1": "1900 S OHIO ST","address2": "","city": "MARTINSVILLE","state": "IN","zip": "46151","zip+4": "0000","phone": "7653492216"}
{"name": "MEDICAP PHARMACY #8339","address1": "939 VETERANS DR","address2": "STE B","city": "NORTH VERNON","state": "IN","zip": "47265","zip+4": "0000","phone": "8123529700"}
{"name": "PAMIDA PHARMACY #92","address1": "1101 N INDIANA AVE","address2": "","city": "SYRACUSE","state": "IN","zip": "46567","zip+4": "1019","phone": "5744573109"}
{"name": "WILLIAMS BROS LTC PHARMACY II","address1": "65 AIRPORT PARKWAYSUITE 104","address2": "","city": "GREENWOOD","state": "IN","zip": "46143","zip+4": "0000","phone": "3178894125"}
{"name": "TARGET PHARMACY #0111","address1": "1037 S REED RD","address2": "","city": "KOKOMO","state": "IN","zip": "46902","zip+4": "0000","phone": "7658689151"}
{"name": "TARGET PHARMACY #0139","address1": "2209 STATE ST","address2": "","city": "NEW ALBANY","state": "IN","zip": "47150","zip+4": "0000","phone": "8129454768"}
{"name": "MARSH DRUGS LLC #7037","address1": "14450 MUNDY DRIVE","address2": "","city": "NOBLESVILLE","state": "IN","zip": "46060","zip+4": "7222","phone": "3177768068"}
{"name": "FAGEN PHARMACY #4","address1": "3988 E STATE RD 10","address2": "","city": "WHEATFIELD","state": "IN","zip": "46392","zip+4": "0000","phone": "2199563571"}
{"name": "WALGREEN DRUG STORE #7443","address1": "3603 S US 41","address2": "","city": "TERRE HAUTE","state": "IN","zip": "47802","zip+4": "0000","phone": "8122351566"}
{"name": "NATIONS MEDICINES #T1","address1": "4849 POLLACK AVE","address2": "","city": "EVANSVILLE","state": "IN","zip": "47715","zip+4": "0000","phone": "8129624664"}
{"name": "FREDS PHARMACY #2551","address1": "RR3 BOX 13C","address2": "","city": "OAKLAND CITY","state": "IN","zip": "47660","zip+4": "0000","phone": "8127494129"}
{"name": "MARTINS PHARMACY #20","address1": "1530 E MARKET ST","address2": "","city": "NAPPANEE","state": "IN","zip": "46550","zip+4": "0000","phone": "5747737873"}
{"name": "WAL-MART PHARMACY #102786","address1": "9500 EAST US HIGHWAY 36","address2": "","city": "AVON","state": "IN","zip": "46123","zip+4": "0000","phone": "3172098204"}
{"name": "FAGEN PHARMACY #35","address1": "5001 EAST HWY 12","address2": "","city": "GARY","state": "IN","zip": "46403","zip+4": "0000","phone": "2199381101"}
{"name": "MED-SHOPPE PHARMACY","address1": "2900 W 16TH ST","address2": "","city": "BEDFORD","state": "IN","zip": "47421","zip+4": "0000","phone": "8122751340"}
{"name": "CVS PHARMACY #07188","address1": "102 E US HIGHWAY 20","address2": "","city": "MIDDLEBURY","state": "IN","zip": "46540","zip+4": "8504","phone": "5748252485"}
{"name": "KROGER PHARMACY #21875","address1": "1309 N CASS ST","address2": "","city": "WABASH","state": "IN","zip": "46992","zip+4": "0000","phone": "2605631612"}
{"name": "TARGET PHARMACY #1878","address1": "2966 E 3RD ST","address2": "","city": "BLOOMINGTON","state": "IN","zip": "47401","zip+4": "0000","phone": "8123364101"}
{"name": "WAL-MART PHARMACY #105372","address1": "3430 TAYLOR AVENUE","address2": "","city": "EVANSVILLE","state": "IN","zip": "47714","zip+4": "0000","phone": "8124714968"}
{"name": "SRC PHARMACY LLC","address1": "813 EASTERN AVE","address2": "","city": "CONNERSVILLE","state": "IN","zip": "47331","zip+4": "0000","phone": "7658256800"}
{"name": "WALGREEN DRUG STORE #7788","address1": "320 S SCATTERFIELD RD","address2": "","city": "ANDERSON","state": "IN","zip": "46012","zip+4": "0000","phone": "7656093775"}
{"name": "MEIJER PHARMACY #230","address1": "17000 MERCANTILE BLVD","address2": "","city": "NOBLESVILLE","state": "IN","zip": "46060","zip+4": "0000","phone": "3177747864"}
{"name": "TARGET PHARMACY #0881","address1": "6925 W 38TH ST","address2": "","city": "INDIANAPOLIS","state": "IN","zip": "46254","zip+4": "0000","phone": "3173297806"}
{"name": "KROGER PHARMACY #21081","address1": "1440 DARLINGTON AVE","address2": "","city": "CRAWFORDSVILLE","state": "IN","zip": "47933","zip+4": "0000","phone": "7653621904"}
{"name": "WALGREEN DRUG STORE #2362","address1": "1215 16TH ST","address2": "","city": "BEDFORD","state": "IN","zip": "47421","zip+4": "0000","phone": "8122779268"}
{"name": "WALGREEN DRUG STORE #7926","address1": "5190 CHARLESTOWN RD","address2": "","city": "NEW ALBANY","state": "IN","zip": "47150","zip+4": "0000","phone": "8129442377"}
{"name": "WALGREEN DRUG STORE #7906","address1": "2400 E CENTER ST","address2": "","city": "WARSAW","state": "IN","zip": "46580","zip+4": "0000","phone": "5742691287"}
{"name": "GRANDVIEW PHARMACY II","address1": "202 E MAIN","address2": "","city": "CAMBRIDGE CITY","state": "IN","zip": "47327","zip+4": "0000","phone": "7654789978"}
{"name": "WAL-MART PHARMACY #105408","address1": "3805 SOUTH KEYSTONE AVENUE","address2": "","city": "INDIANAPOLIS","state": "IN","zip": "46227","zip+4": "0000","phone": "3177863820"}
{"name": "WALGREEN DRUG STORE #7174","address1": "1195 N STATE ST","address2": "","city": "GREENFIELD","state": "IN","zip": "46140","zip+4": "0000","phone": "3174628743"}
{"name": "KROGER PHARMACY DBA OWENS #218","address1": "2718 GUILFORD ST","address2": "","city": "HUNTINGTON","state": "IN","zip": "46750","zip+4": "0000","phone": "2603581506"}
{"name": "BRISTOL PHARMACY","address1": "300 E ELKHART","address2": "","city": "BRISTOL","state": "IN","zip": "46507","zip+4": "0000","phone": "5748480660"}
{"name": "TARGET PHARMACY #1848","address1": "1300 E 86TH ST STE 35","address2": "","city": "INDIANAPOLIS","state": "IN","zip": "46240","zip+4": "0000","phone": "3178100045"}
{"name": "TARGET PHARMACY #1902","address1": "1400 E IRELAND RD","address2": "","city": "SOUTH BEND","state": "IN","zip": "46614","zip+4": "0000","phone": "5742318258"}
{"name": "TARGET PHARMACY #1911","address1": "1865 N NATIONAL RD","address2": "","city": "COLUMBUS","state": "IN","zip": "47201","zip+4": "0000","phone": "8123766938"}
{"name": "TARGET PHARMACY #1913","address1": "8005 CALUMET AVE","address2": "","city": "MUNSTER","state": "IN","zip": "46321","zip+4": "0000","phone": "2198362697"}
{"name": "SAMS PHARMACY #104851","address1": "1301 VETERANS PARKWAY","address2": "","city": "CLARKSVILLE","state": "IN","zip": "47129","zip+4": "0000","phone": "8122180447"}
{"name": "WAL-MART PHARMACY #105405","address1": "9920 EAST 30TH STREET","address2": "","city": "INDIANAPOLIS","state": "IN","zip": "46229","zip+4": "0000","phone": "3178956016"}
{"name": "WAL-MART PHARMACY #105406","address1": "8010 EAST 38TH STREET","address2": "","city": "INDIANAPOLIS","state": "IN","zip": "46226","zip+4": "0000","phone": "3178956016"}
{"name": "WALGREEN DRUG STORE #2467","address1": "2012 N WAYNE ST","address2": "","city": "ANGOLA","state": "IN","zip": "46703","zip+4": "0000","phone": "2606655548"}
{"name": "WALGREEN DRUG STORE #1444","address1": "1130 N LEBANON ST","address2": "","city": "LEBANON","state": "IN","zip": "46052","zip+4": "0000","phone": "7654823041"}
{"name": "TARGET PHARMACY #1933","address1": "6119 STELLHORN RD","address2": "","city": "FORT WAYNE","state": "IN","zip": "46815","zip+4": "0000","phone": "2604854697"}
{"name": "MHP PHARMACY LLC","address1": "101 W 103RD ST INH 515","address2": "","city": "INDIANAPOLIS","state": "IN","zip": "46290","zip+4": "0000","phone": "8888521553"}
{"name": "CLARIAN WEST PRESCRIPTION CENT","address1": "1111 N RONALD REAGAN PKWY","address2": "","city": "AVON","state": "IN","zip": "46123","zip+4": "7085","phone": "3172173355"}
{"name": "IN TOUCH PHARMACEUTICALS","address1": "3000 MURVIHILL RD","address2": "","city": "VALPARAISO","state": "IN","zip": "46383","zip+4": "0000","phone": "2194647055"}
{"name": "GRANDVIEW HEALTHCARE","address1": "675 PATRICK PL SUITE F","address2": "","city": "BROWNSBURG","state": "IN","zip": "46112","zip+4": "0000","phone": "3178586600"}
{"name": "MARSH DRUGS LLC #7104","address1": "5830 WEST 86TH STREET","address2": "","city": "INDIANAPOLIS","state": "IN","zip": "46278","zip+4": "1498","phone": "3178717630"}
{"name": "KROGER PHARMACY #21969","address1": "11700 OLIO RD","address2": "","city": "FISHERS","state": "IN","zip": "46038","zip+4": "0000","phone": "3175988515"}
{"name": "TOYOTA FAMILY PHARMACY #12936","address1": "4924 S MAPLE TREE DRIVE","address2": "","city": "PRINCETON","state": "IN","zip": "47670","zip+4": "0000","phone": "8123854000"}
{"name": "MARSH DRUGS LLC #7101","address1": "3015 WEST US 36","address2": "","city": "PENDLETON","state": "IN","zip": "46064","zip+4": "9280","phone": "7652217110"}
{"name": "STRATMANS LTC PHARMACY INC","address1": "407 MAIN ST","address2": "","city": "EVANSVILLE","state": "IN","zip": "47708","zip+4": "0000","phone": "8124364624"}
{"name": "WALGREEN DRUG STORE #7736","address1": "110 W MARKET ST","address2": "","city": "CRAWFORDSVILLE","state": "IN","zip": "47933","zip+4": "0000","phone": "7653611802"}
{"name": "BLACKFORD COMMUNITY HEALTHCARE","address1": "400 PILGRIM BLVD","address2": "","city": "HARTFORD CITY","state": "IN","zip": "47348","zip+4": "0000","phone": "7653484989"}
{"name": "JAY C FOOD STORES #90083","address1": "2325 N HIGHWAY 3","address2": "","city": "NORTH VERNON","state": "IN","zip": "47265","zip+4": "0000","phone": "8123521780"}
{"name": "FAGEN PHARMACY #36","address1": "506 BROADWAY","address2": "","city": "GARY","state": "IN","zip": "46402","zip+4": "0000","phone": "2198856355"}
{"name": "WALGREEN DRUG STORE #9279","address1": "2620 S WESTERN AVE","address2": "","city": "MARION","state": "IN","zip": "46953","zip+4": "0000","phone": "7656680204"}
{"name": "MEIJER PHARMACY #220","address1": "4222 CHARLESTOWN RD","address2": "","city": "NEW ALBANY","state": "IN","zip": "47150","zip+4": "0000","phone": "8125423810"}
{"name": "KROGER PHARMACY #21983","address1": "17447 CAREY ROAD","address2": "","city": "WESTFIELD","state": "IN","zip": "46074","zip+4": "0000","phone": "3178673022"}
{"name": "WALGREEN DRUG STORE #9129","address1": "2380 PLEASANT ST","address2": "","city": "NOBLESVILLE","state": "IN","zip": "46060","zip+4": "0000","phone": "3177708653"}
{"name": "WAL-MART PHARMACY #105443","address1": "4650 SOUTH EMERSON AVE.","address2": "","city": "INDIANAPOLIS","state": "IN","zip": "46203","zip+4": "0000","phone": "3177831484"}
{"name": "WALGREEN DRUG STORE #7907","address1": "535 N LINE ST","address2": "","city": "COLUMBIA CITY","state": "IN","zip": "46725","zip+4": "0000","phone": "2602446580"}
{"name": "WALGREEN DRUG STORE #9359","address1": "432 CRAIG AVE","address2": "","city": "GREENDALE","state": "IN","zip": "47025","zip+4": "0000","phone": "8125370511"}
{"name": "CVS PHARMACY #00684","address1": "7930 MADISON AVE","address2": "","city": "INDIANAPOLIS","state": "IN","zip": "46227","zip+4": "0000","phone": "3178852360"}
{"name": "WALGREEN DRUG STORE #9318","address1": "525 E LINCOLNWAY","address2": "","city": "LAPORTE","state": "IN","zip": "46350","zip+4": "0000","phone": "2193269380"}
{"name": "WALGREEN DRUG STORE #9488","address1": "2215 N STATE ROAD 3","address2": "","city": "GREENSBURG","state": "IN","zip": "47240","zip+4": "0000","phone": "8126620581"}
{"name": "JR PHARMACY ROCKVILLE LLC IV #","address1": "1330 N LINCOLN RD","address2": "","city": "ROCKVILLE","state": "IN","zip": "47872","zip+4": "1215","phone": "7655696900"}
{"name": "WALGREEN DRUG STORE #9100","address1": "2014 N MICHIGAN ST","address2": "","city": "PLYMOUTH","state": "IN","zip": "46563","zip+4": "0000","phone": "5749369257"}
{"name": "LAFAYETTE CANCER CARE PC","address1": "1345 UNITY PLACE","address2": "STE 135","city": "LAFAYETTE","state": "IN","zip": "47905","zip+4": "0000","phone": "7654465050"}
{"name": "TARGET PHARMACY #2048","address1": "9885 WICKER AVE","address2": "","city": "SAINT JOHN","state": "IN","zip": "46373","zip+4": "0000","phone": "2193658609"}
{"name": "TARGET PHARMACY #2068","address1": "1125 VETERANS PKWY","address2": "","city": "CLARKSVILLE","state": "IN","zip": "47129","zip+4": "0000","phone": "8122845139"}
{"name": "MICHIANA HEMATOLOGY ONCOLOGY P","address1": "707 E CEDAR ST","address2": "STE 200","city": "SOUTH BEND","state": "IN","zip": "46617","zip+4": "0000","phone": "5742371328"}
{"name": "MICHIANA HEMATOLOGY ONCOLOGY P","address1": "100 NAVARRE PL","address2": "STE 5550","city": "SOUTH BEND","state": "IN","zip": "46601","zip+4": "0000","phone": "5742345123"}
{"name": "WALGREEN DRUG STORE #9711","address1": "2040 LAFAYETTE AVE","address2": "","city": "TERRE HAUTE","state": "IN","zip": "47805","zip+4": "0000","phone": "8124667298"}
{"name": "WALGREEN DRUG STORE #9644","address1": "555 WESTFIELD RD","address2": "","city": "NOBLESVILLE","state": "IN","zip": "46060","zip+4": "0000","phone": "3177748298"}
{"name": "SAMS PHARMACY #104926","address1": "2715 MERCHANTS MILE","address2": "","city": "COLUMBUS","state": "IN","zip": "47201","zip+4": "0000","phone": "8123739273"}
{"name": "CLARIANORTH PRESCRIPTION CENTE","address1": "11700 N MERIDIAN ST STE B106","address2": "","city": "CARMEL","state": "IN","zip": "46032","zip+4": "0000","phone": "3176883035"}
{"name": "KAUP PHARMACY #3","address1": "366 W DEERFIELD ROAD","address2": "","city": "UNION CITY","state": "IN","zip": "47390","zip+4": "0000","phone": "7659643098"}
{"name": "WALGREEN DRUG STORE #9893","address1": "123 N 13TH ST","address2": "","city": "DECATUR","state": "IN","zip": "46733","zip+4": "0000","phone": "2607242063"}
{"name": "CVS PHARMACY #01138","address1": "11591 OLIO RD","address2": "","city": "FISHER","state": "IN","zip": "46037","zip+4": "0000","phone": "3175852702"}
{"name": "MARTINS PHARMACY #24","address1": "1527 BASHOR RD","address2": "","city": "GOSHEN","state": "IN","zip": "46528","zip+4": "0000","phone": ""}
{"name": "WESTMORELAND PHARMACY","address1": "2125 STATE ST","address2": "STE 17","city": "NEW ALBANY","state": "IN","zip": "47150","zip+4": "0000","phone": "8129446500"}
{"name": "SEIFERT DRUG","address1": "230 S MAIN ST","address2": "","city": "ELKHART","state": "IN","zip": "46516","zip+4": "3120","phone": "5742954333"}
{"name": "CVS PHARMACY #01658","address1": "1074 N SR 267","address2": "","city": "AVON","state": "IN","zip": "46123","zip+4": "0000","phone": "3172722133"}
{"name": "GENOA HEALTHCARE #16","address1": "645 S ROGERS ST","address2": "","city": "BLOOMINGTON","state": "IN","zip": "47403","zip+4": "0000","phone": "8123556340"}
{"name": "WALGREEN DRUG STORE #9710","address1": "200 LAFOLLETTE STATION","address2": "","city": "FLOYDS KNOBS","state": "IN","zip": "47119","zip+4": "0000","phone": "8129230291"}
{"name": "WELLFOUNT CORP","address1": "5751 W 73RD ST","address2": "","city": "INDIANAPOLIS","state": "IN","zip": "46278","zip+4": "0000","phone": "3175241515"}
{"name": "HIPP DRUG","address1": "115 S STATE ST","address2": "","city": "S WHITLEY","state": "IN","zip": "46787","zip+4": "0000","phone": "2607234468"}
{"name": "JAY C FOOD STORES #90057","address1": "9501 STATE ROAD 403","address2": "","city": "CHARLESTOWN","state": "IN","zip": "47111","zip+4": "0000","phone": "8122566805"}
{"name": "WAL-MART PHARMACY #103435","address1": "1133 NO. EMERSON ROAD","address2": "","city": "GREENWOOD","state": "IN","zip": "46143","zip+4": "0000","phone": "3178850139"}
{"name": "WAL-MART PHARMACY #103747","address1": "1501 EAST 29TH STREET","address2": "","city": "MUNCIE","state": "IN","zip": "47302","zip+4": "0000","phone": "7652820578"}
{"name": "MEDPHARM PHARMACY #2613","address1": "2723 SOUTH 7TH STREET","address2": "","city": "TERRE HAUTE","state": "IN","zip": "47802","zip+4": "0000","phone": "8122322086"}
{"name": "KROGER PHARMACY #21980","address1": "14800 HAZEL DELL CROSSING","address2": "","city": "NOBLESVILLE","state": "IN","zip": "46062","zip+4": "0000","phone": "3178441185"}
{"name": "WALGREEN DRUG STORE #09825","address1": "3425 BREMAN","address2": "","city": "MISHAWAKA","state": "IN","zip": "46544","zip+4": "0000","phone": "5742570827"}
{"name": "CVS PHARMACY #08639","address1": "670 MARGARET AVE","address2": "","city": "TERRE HAUTE","state": "IN","zip": "47802","zip+4": "0000","phone": "8122321410"}
{"name": "CVS PHARMACY #08651","address1": "512 SAGAMORE PKWY WEST","address2": "","city": "WEST LAFAYETTE","state": "IN","zip": "47906","zip+4": "0000","phone": "7654973551"}
{"name": "CVS PHARMACY #08671","address1": "510 COLLEGE MALL","address2": "","city": "BLOOMINGTON","state": "IN","zip": "47401","zip+4": "0000","phone": "8123360279"}
{"name": "CVS PHARMACY #08652","address1": "50 SAGAMORE PKWY S","address2": "","city": "LAFAYETTE","state": "IN","zip": "47905","zip+4": "0000","phone": "7654481325"}
{"name": "CVS PHARMACY #08643","address1": "1030 ARLINGTON AVE","address2": "","city": "INDIANAPOLIS","state": "IN","zip": "46219","zip+4": "0000","phone": "3173538106"}
{"name": "CVS PHARMACY #08637","address1": "3350 NORTH HIGH SCHOOL","address2": "","city": "INDIANAPOLIS","state": "IN","zip": "46224","zip+4": "0000","phone": "3172931223"}
{"name": "CVS PHARMACY #08684","address1": "6509 N KEYSTONE AVE","address2": "","city": "INDIANAPOLIS","state": "IN","zip": "46220","zip+4": "0000","phone": "3172537063"}
{"name": "CVS PHARMACY #08657","address1": "2200 ELMWOOD","address2": "","city": "LAFAYETTE","state": "IN","zip": "47904","zip+4": "0000","phone": "7654481615"}
{"name": "CVS PHARMACY #08665","address1": "3477 W 3RD ST","address2": "","city": "BLOOMINGTON","state": "IN","zip": "47404","zip+4": "0000","phone": "8123394006"}
{"name": "CVS PHARMACY #08518","address1": "3835 45TH STREET","address2": "","city": "HIGHLAND","state": "IN","zip": "46322","zip+4": "0000","phone": "2199222723"}
{"name": "CVS PHARMACY #08650","address1": "2440 WABASH AVE","address2": "","city": "TERRE HAUTE","state": "IN","zip": "47807","zip+4": "0000","phone": "8122354322"}
{"name": "CVS PHARMACY #08670","address1": "2302 W 86TH","address2": "","city": "INDIANAPOLIS","state": "IN","zip": "46260","zip+4": "0000","phone": "3178758467"}
{"name": "CVS PHARMACY #08677","address1": "1333 PORTAGE","address2": "","city": "SOUTH BEND","state": "IN","zip": "46616","zip+4": "0000","phone": "5742347190"}
{"name": "CVS PHARMACY #08631","address1": "4403 W WESTERN AVE","address2": "","city": "SOUTH BEND","state": "IN","zip": "46619","zip+4": "0000","phone": "5742343241"}
{"name": "CVS PHARMACY #08676","address1": "502 W MC KINLEY","address2": "","city": "MISHAWAKA","state": "IN","zip": "46545","zip+4": "0000","phone": "5742565559"}
{"name": "CVS PHARMACY #08674","address1": "1390 S RANGE LINE RD","address2": "","city": "CARMEL","state": "IN","zip": "46032","zip+4": "0000","phone": "3178442775"}
{"name": "CVS PHARMACY #08675","address1": "11627 FOX ROAD","address2": "","city": "INDIANAPOLIS","state": "IN","zip": "46236","zip+4": "0000","phone": "3178230824"}
{"name": "CVS PHARMACY #08679","address1": "2021 FORT HARRISON ROAD","address2": "","city": "TERRE HAUTE","state": "IN","zip": "47804","zip+4": "0000","phone": "8124666052"}
{"name": "CVS PHARMACY #08642","address1": "2051 SOUTH BEND AVENUE","address2": "","city": "SOUTH BEND","state": "IN","zip": "46637","zip+4": "0000","phone": "5742730080"}
{"name": "CVS PHARMACY #08645","address1": "4501 LINCOLNWAY EAST","address2": "","city": "MISHAWAKA","state": "IN","zip": "46544","zip+4": "0000","phone": "5742554729"}
{"name": "CVS PHARMACY #08669","address1": "7451 SHADELAND AVE","address2": "","city": "INDIANAPOLIS","state": "IN","zip": "46250","zip+4": "0000","phone": "3178498150"}
{"name": "CVS PHARMACY #08640","address1": "1616 EAST 86TH STREET","address2": "","city": "INDIANAPOLIS","state": "IN","zip": "46240","zip+4": "0000","phone": "3175690387"}
{"name": "CVS PHARMACY #08678","address1": "119 W 56TH STREET","address2": "","city": "INDIANAPOLIS","state": "IN","zip": "46208","zip+4": "0000","phone": "3172519518"}
{"name": "CVS PHARMACY #08685","address1": "5208 W WASHINGTON STREET","address2": "","city": "INDIANAPOLIS","state": "IN","zip": "46241","zip+4": "0000","phone": "3174869667"}
{"name": "CVS PHARMACY #08680","address1": "2806 US HIGHWAY 231 S","address2": "","city": "LAFAYETTE","state": "IN","zip": "47909","zip+4": "2831","phone": "7654776666"}
{"name": "CVS PHARMACY #08646","address1": "51467 STATE ROAD 933","address2": "","city": "SOUTH BEND","state": "IN","zip": "46637","zip+4": "1617","phone": "5742430904"}
{"name": "CVS PHARMACY #08649","address1": "8295 E 116 ST","address2": "","city": "FISHERS","state": "IN","zip": "46038","zip+4": "0000","phone": "3175708571"}
{"name": "CVS PHARMACY #08690","address1": "5920 MADISON AVENUE","address2": "","city": "INDIANAPOLIS","state": "IN","zip": "46227","zip+4": "0000","phone": "3177890256"}
{"name": "WALGREEN DRUG STORE #10149","address1": "13741 E 116TH STREET","address2": "","city": "FISHERS","state": "IN","zip": "46037","zip+4": "0000","phone": "3175958813"}
{"name": "WALGREEN DRUG STORE #09853","address1": "10170 MAYSVILLE RD","address2": "","city": "FT WAYNE","state": "IN","zip": "46835","zip+4": "9589","phone": ""}
{"name": "WALGREEN DRUG STORE #07618","address1": "14625 N GRAY RD","address2": "","city": "NOBLESVILLE","state": "IN","zip": "46062","zip+4": "9274","phone": "3178156619"}
{"name": "WALGREEN DRUG STORE #09826","address1": "9 N STATE ST","address2": "","city": "NORTH VERNON","state": "IN","zip": "47265","zip+4": "1723","phone": "8123464834"}
{"name": "DISETRONIC MEDICAL SYS PHCY","address1": "11800 EXIT 5 PKWY","address2": "STE 120","city": "FISHERS","state": "IN","zip": "46037","zip+4": "0000","phone": "3175705156"}
{"name": "ACCESS TO CARE PHARMACY","address1": "3631 N MORRISON RD","address2": "","city": "MUNCIE","state": "IN","zip": "47304","zip+4": "0000","phone": "7652813443"}
{"name": "KROGER PHARMACY #21886","address1": "130 W HIVELY AVE","address2": "","city": "ELKHART","state": "IN","zip": "46517","zip+4": "0000","phone": "5742946092"}
{"name": "WALGREEN DRUG STORE #09751","address1": "512 GREEN BLVD","address2": "","city": "AURORA","state": "IN","zip": "47001","zip+4": "1502","phone": "8129263424"}
{"name": "WAL-MART PHARMACY #104235","address1": "2399 SOUTH STATE ROAD 46","address2": "","city": "TERRE HAUTE","state": "IN","zip": "47803","zip+4": "0000","phone": "8128722533"}
{"name": "WALGREEN DRUG STORE #10184","address1": "1351 N IRONWOOD DR","address2": "","city": "SOUTH BEND","state": "IN","zip": "46615","zip+4": "3566","phone": "5742345046"}
{"name": "MARTINS PHARMACY #25","address1": "7355 HERITAGE SQUARE DR","address2": "","city": "GRANGER","state": "IN","zip": "46530","zip+4": "0000","phone": "5748078222"}
{"name": "WALGREEN DRUG STORE #10123","address1": "10795 BROADWAY","address2": "","city": "CROWN POINT","state": "IN","zip": "46307","zip+4": "8834","phone": "2196618406"}
{"name": "GENOA HEALTHCARE #33","address1": "909 E STATE BLVD","address2": "","city": "FT WAYNE","state": "IN","zip": "46805","zip+4": "0000","phone": "2603732039"}
{"name": "WAL-MART PHARMACY #104216","address1": "2025 MERCHANT MILE","address2": "","city": "COLUMBUS","state": "IN","zip": "47201","zip+4": "0000","phone": "8123769385"}
{"name": "WAL-MART PHARMACY #104231","address1": "7502 SOUTHTOWN CROSSING BLVD","address2": "","city": "FORT WAYNE","state": "IN","zip": "46816","zip+4": "0000","phone": "2604417083"}
{"name": "CVS PHARMACY #00045","address1": "6975 NORTH PENDLETON PIKE","address2": "","city": "INDIANAPOLIS","state": "IN","zip": "46226","zip+4": "0000","phone": "3175427304"}
{"name": "GENOA HEALTHCARE #31","address1": "404 SPRING ST","address2": "","city": "JEFFERSONVILLE","state": "IN","zip": "47130","zip+4": "0000","phone": "8122846418"}
{"name": "WAL-MART PHARMACY #103851","address1": "2347 EAST 350 SOUTH","address2": "","city": "LAFAYETTE","state": "IN","zip": "47909","zip+4": "0000","phone": "7654779391"}
{"name": "WALGREEN DRUG STORE #09489","address1": "1010 E STATE RD 44","address2": "","city": "SHELBYVILLE","state": "IN","zip": "46176","zip+4": "1770","phone": "3173988495"}
{"name": "TARGET PHARMACY #2217","address1": "3801 COLDWATER ROAD","address2": "","city": "FORT WAYNE","state": "IN","zip": "46805","zip+4": "0000","phone": "2604706361"}
{"name": "WALGREEN DRUG STORE #10340","address1": "3606 NEWTON ST","address2": "","city": "JASPER","state": "IN","zip": "47546","zip+4": "9601","phone": "8124811513"}
{"name": "ROCKPORT PHARMACY","address1": "400 MAIN ST","address2": "","city": "ROCKPORT","state": "IN","zip": "47635","zip+4": "1469","phone": "8126499181"}
{"name": "WALGREEN DRUG STORE #09128","address1": "3700 NATIONAL RD E","address2": "","city": "RICHMOND","state": "IN","zip": "47374","zip+4": "0000","phone": "7659352760"}
{"name": "CVS PHARMACY #01078","address1": "14835 SUNNY DELL LANE","address2": "","city": "NOBLESVILLE","state": "IN","zip": "46062","zip+4": "0000","phone": "3175691392"}
{"name": "WALGREEN DRUG STORE #09278","address1": "11025 WASHINGTON ST","address2": "","city": "INDIANAPOLIS","state": "IN","zip": "46229","zip+4": "0000","phone": "3176225010"}
{"name": "GENOA HEALTHCARE #35","address1": "697 PRO MED LANE","address2": "","city": "CARMEL","state": "IN","zip": "46032","zip+4": "0000","phone": "3178155924"}
{"name": "KROGER PHARMACY #21970","address1": "150 W 161ST ST","address2": "","city": "WESTFIELD","state": "IN","zip": "46074","zip+4": "0000","phone": "3178674187"}
{"name": "MOUNT VERNON PHARMACY","address1": "100 LAWRENCE","address2": "","city": "MOUNT VERNON","state": "IN","zip": "47620","zip+4": "0000","phone": "8128335000"}
{"name": "WALGREEN DRUG STORE #10426","address1": "3275 E SR 32","address2": "","city": "WESTFIELD","state": "IN","zip": "46074","zip+4": "0000","phone": "3178969019"}
{"name": "WAL-MART PHARMACY #103436","address1": "700 WEST IRELAND ROAD","address2": "","city": "SOUTH BEND","state": "IN","zip": "46614","zip+4": "0000","phone": "5742991464"}
{"name": "WALGREEN DRUG STORE #10074","address1": "2345 E MARKLAND AVE","address2": "","city": "KOKOMO","state": "IN","zip": "46901","zip+4": "6245","phone": "7658684798"}
{"name": "PAY LESS PHARMACY J 843 #21843","address1": "2200 GREENBUSH ST","address2": "","city": "LAFAYETTE","state": "IN","zip": "47904","zip+4": "2342","phone": "7654489159"}
{"name": "CVS PHARMACY #06323","address1": "13821 LEO RD","address2": "","city": "LEO CEDARVILLE","state": "IN","zip": "46765","zip+4": "0000","phone": "2606278616"}
{"name": "GENOA HEALTHCARE #50","address1": "2009 BROWN STREET","address2": "","city": "ANDERSON","state": "IN","zip": "46016","zip+4": "0000","phone": "7656491251"}
{"name": "THE CARE GROUP DBA HORIZON ONC","address1": "1345 UNITY PL","address2": "STE 345","city": "LAFAYETTE","state": "IN","zip": "47905","zip+4": "0000","phone": "7654465111"}
{"name": "WALGREEN DRUG STORE #09793","address1": "5435 E DUPONT RD","address2": "","city": "FORT WAYNE","state": "IN","zip": "46825","zip+4": "1746","phone": "2604821653"}
{"name": "VYTOS PHARMACY","address1": "2914 HIGHWAY AVENUE","address2": "","city": "HIGHLAND","state": "IN","zip": "46322","zip+4": "0000","phone": "2199721700"}
{"name": "MERRILLCARE","address1": "610 N MAIN ST","address2": "","city": "MISHAWAKU","state": "IN","zip": "46545","zip+4": "0000","phone": "5742551835"}
{"name": "INDIANA SURGERY CENTER","address1": "8040 CLEARVISTA PARKWAY","address2": "","city": "INDIANAPOLIS","state": "IN","zip": "46256","zip+4": "0000","phone": "3176212000"}
{"name": "CVS PHARMACY #06479","address1": "1703 CARROLL RD","address2": "","city": "FT WAYNE","state": "IN","zip": "46845","zip+4": "0000","phone": "2603380834"}
{"name": "CVS PHARMACY #07634","address1": "3805 N GERMAN CHURCH RD","address2": "","city": "INDIANAPOLIS","state": "IN","zip": "46235","zip+4": "9737","phone": "3178948946"}
{"name": "WALGREEN DRUG STORE #10486","address1": "501 E NATIONAL AVE","address2": "","city": "BRAZIL","state": "IN","zip": "47834","zip+4": "2633","phone": "8124421705"}
{"name": "WALGREENS DRUG STORE #10487","address1": "6745 E SOUTHPORT RD","address2": "","city": "INDIANAPOLIS","state": "IN","zip": "46237","zip+4": "0000","phone": "3178870691"}
{"name": "WALGREENS DRUG STORE #10533","address1": "3250 N MORRISON RD","address2": "","city": "MUNCIE","state": "IN","zip": "47304","zip+4": "5540","phone": "7652878330"}
{"name": "WALGREENS DRUG STORE #10559","address1": "1716 HWY 337 NW","address2": "","city": "CORYDON","state": "IN","zip": "47112","zip+4": "0000","phone": "8127381078"}
{"name": "CVS PHARMACY #05067","address1": "1102 W MAIN ST","address2": "","city": "PLAINFIELD","state": "IN","zip": "46168","zip+4": "0000","phone": "3178393438"}
{"name": "OLIVER FAMILY HEALTHCARE PC","address1": "5645 LAFAYETTE RD","address2": "","city": "INDIANAPOLIS","state": "IN","zip": "46254","zip+4": "0000","phone": "3173873050"}
{"name": "GRANDVIEW PHARMACY #3","address1": "25 W MAIN ST","address2": "","city": "HAGERSTOWN","state": "IN","zip": "47346","zip+4": "0000","phone": "7654896131"}
{"name": "CVS PHARMACY #00044","address1": "3900 OAK HILL RD","address2": "","city": "EVANSVILLE","state": "IN","zip": "47711","zip+4": "2980","phone": "8124758497"}
{"name": "SCOTTS PHARMACY J 404 #21404","address1": "5300 DECATUR RD","address2": "","city": "FT WAYNE","state": "IN","zip": "46806","zip+4": "0000","phone": "2604580840"}
{"name": "WALGREENS DRUG STORE #10939","address1": "4828 DAVIS LANT DR","address2": "","city": "EVANSVILLE","state": "IN","zip": "47715","zip+4": "8919","phone": "8124759541"}
{"name": "SCOTTS PHARMACY J403 #21403","address1": "710 E DUPONT RD","address2": "","city": "FT WAYNE","state": "IN","zip": "46825","zip+4": "2056","phone": "2604892878"}
{"name": "SCOTTS PHARMACY J 416 #21416","address1": "5725 COVENTRY LANE","address2": "","city": "FT WAYNE","state": "IN","zip": "46804","zip+4": "0000","phone": "2604340497"}
{"name": "SCOTTS PHARMACY J412 #21412","address1": "1125 W STATE BLVD","address2": "","city": "FT WAYNE","state": "IN","zip": "46808","zip+4": "0000","phone": "2604264487"}
{"name": "SCOTTS PHARMACY #21413","address1": "3105 N ANTHONY BLVD","address2": "","city": "FORT WAYNE","state": "IN","zip": "46805","zip+4": "0000","phone": "2604832174"}
{"name": "SCOTTS PHARMACY J 425 #21425","address1": "6310 E STATE BLVD","address2": "","city": "FT WAYNE","state": "IN","zip": "46815","zip+4": "0000","phone": "2604931531"}
{"name": "SCOTTS PHARMACY J424 #21424","address1": "10230 CHESTNUT PLAZA DR","address2": "","city": "FT WAYNE","state": "IN","zip": "46814","zip+4": "0000","phone": "2606255949"}
{"name": "SCOTTS PHARMACY #21405","address1": "4120 N CLINTON ST","address2": "","city": "FORT WAYNE","state": "IN","zip": "46805","zip+4": "0000","phone": "2604833185"}
{"name": "SCOTTS PHARMACY #21407","address1": "929 S 13TH ST","address2": "","city": "DECATUR","state": "IN","zip": "46733","zip+4": "0000","phone": "2607249187"}
{"name": "SCOTTS PHARMACY J 410 #21410","address1": "7008 BLUFFTON RD","address2": "","city": "FT WAYNE","state": "IN","zip": "46809","zip+4": "0000","phone": "2607474136"}
{"name": "SCOTTS PHARMACY J 415 #21415","address1": "4522 MAPLECREST RD","address2": "","city": "FT WAYNE","state": "IN","zip": "46835","zip+4": "0000","phone": "2604859628"}
{"name": "PRECISION RX SPECIALTY SOLUTIO","address1": "2825 W PERIMETER RD","address2": "STE 161","city": "INDIANAPOLIS","state": "IN","zip": "46241","zip+4": "0000","phone": "8008706419"}
{"name": "MARSH DRUGS LLC #7045","address1": "3075 E 25TH ST","address2": "","city": "COLUMBUS","state": "IN","zip": "47203","zip+4": "2434","phone": "3175942405"}
{"name": "CVS PHARMACY #07541","address1": "5981 WEST BROADWAY","address2": "","city": "MCCORDSVILLE","state": "IN","zip": "46055","zip+4": "0000","phone": "3173353380"}
{"name": "CVS PHARMACY #04727","address1": "6511 EAST STATE RD 334","address2": "","city": "ZIONSVILLE","state": "IN","zip": "46077","zip+4": "0000","phone": "3177695986"}
{"name": "GENOA HEALTHCARE #54","address1": "720 N MARR RD","address2": "","city": "COLUMBUS","state": "IN","zip": "47201","zip+4": "0000","phone": "8123767295"}
{"name": "WALGREENS DRUG STORE #10720","address1": "129 CLIFTY DR","address2": "","city": "MADISON","state": "IN","zip": "47250","zip+4": "1601","phone": "8122735840"}
{"name": "MARTINS PHARMACY #16","address1": "12850 SR 23","address2": "","city": "GRANGER","state": "IN","zip": "46530","zip+4": "0000","phone": "5742391894"}
{"name": "MARTINS PHARMACY #18","address1": "3420 E MARKET ST","address2": "","city": "LOGANSPORT","state": "IN","zip": "46947","zip+4": "0000","phone": "5742381894"}
{"name": "WALGREENS DRUG STORE #07690","address1": "100 N MEMORIAL DR","address2": "","city": "NEW CASTLE","state": "IN","zip": "47362","zip+4": "4915","phone": "3175419412"}
{"name": "WALGREEN DRUG STORE #11454","address1": "319 E TIPTON ST","address2": "","city": "SEYMOUR","state": "IN","zip": "47274","zip+4": "0000","phone": "8125220620"}
{"name": "QOL MEDS #080","address1": "8555 TAFT STREET","address2": "","city": "MERRILLVILLE","state": "IN","zip": "46410","zip+4": "0000","phone": "2197698171"}
{"name": "WALGREEN DRUG STORE #10532","address1": "812 W BROADWAY ST","address2": "","city": "MONTICELLO","state": "IN","zip": "47960","zip+4": "0000","phone": "5745833706"}
{"name": "WALGREEN DRUG STORE #10974","address1": "2800 US HIGHWAY 231 S","address2": "","city": "LAFAYETTE","state": "IN","zip": "47909","zip+4": "0000","phone": "7654711013"}
{"name": "GENOA HEALTHCARE #58","address1": "130 N TILLOTSON AVE","address2": "","city": "MUNCIE","state": "IN","zip": "47304","zip+4": "0000","phone": "7652883770"}
{"name": "GENOA HEALTHCARE #59","address1": "410 MULBERRY ST","address2": "","city": "EVANSVILLE","state": "IN","zip": "47713","zip+4": "0000","phone": "8124223448"}
{"name": "WAL-MART PHARMACY #103781","address1": "4545 LAFAYETTE ROAD","address2": "","city": "INDIANAPOLIS","state": "IN","zip": "46254","zip+4": "0000","phone": "3173280401"}
{"name": "WALGREEN DRUG STORE #12470","address1": "330 N WABASH AVE","address2": "","city": "MARION","state": "IN","zip": "46952","zip+4": "0000","phone": "7656642247"}
{"name": "QOL MEDS #084","address1": "620 EIGHTH AVE","address2": "","city": "TERRE HAUTE","state": "IN","zip": "47804","zip+4": "0000","phone": "8122321730"}
{"name": "QOL MEDS #082","address1": "601 WALL STREET","address2": "","city": "VALPARAISO","state": "IN","zip": "46383","zip+4": "0000","phone": "2194621603"}
{"name": "PHILLIPS DRUGS INC","address1": "1390 NATIONAL RD WEST","address2": "","city": "RICHMOND","state": "IN","zip": "47374","zip+4": "0000","phone": "7659665546"}
{"name": "CVS PHARMACY #01367","address1": "13090 PETTIGRU DR","address2": "","city": "CARMEL","state": "IN","zip": "46032","zip+4": "0000","phone": "3177338608"}
{"name": "WALGREEN DRUG STORE #11453","address1": "1755 LINCOLN WAY E","address2": "","city": "GOSHEN","state": "IN","zip": "46526","zip+4": "0000","phone": "5745334932"}
{"name": "LTRX PHARMACY","address1": "544 N MEMORIAL DRIVE","address2": "","city": "NEW CASTLE","state": "IN","zip": "47362","zip+4": "0000","phone": "7655930119"}
{"name": "REDIMED CLINICS","address1": "7333 W JEFFERSON BLVD","address2": "","city": "FORT WAYNE","state": "IN","zip": "46804","zip+4": "0000","phone": "2604357334"}
{"name": "WAL-MART PHARMACY #104399","address1": "30830 OLD US 20","address2": "","city": "ELKHART","state": "IN","zip": "46516","zip+4": "0000","phone": "5746745730"}
{"name": "WALGREEN DRUG STORE #10857","address1": "2140 W JONATHAN MOORE PIKE","address2": "","city": "COLUMBUS","state": "IN","zip": "47201","zip+4": "0000","phone": "8123780804"}
{"name": "GENOA HEALTHCARE #62","address1": "8320 MADISON AVE","address2": "","city": "INDIANAPOLIS","state": "IN","zip": "46227","zip+4": "6066","phone": "3178817061"}
{"name": "CANCER CARE CENTER INC","address1": "2210 GREEN VALLEY RD","address2": "STE 1","city": "NEW ALBANY","state": "IN","zip": "47150","zip+4": "0000","phone": "8129454000"}
{"name": "DRUGSTORE MAX LLC","address1": "9228 INDIANAPOLIS BEND","address2": "7C","city": "HIGHLAND","state": "IN","zip": "46322","zip+4": "0000","phone": "2198389800"}
{"name": "WALGREEN DRUG STORE #11393","address1": "4430 ELKHART RD","address2": "","city": "DUNLAP","state": "IN","zip": "46526","zip+4": "0000","phone": "5748750236"}
{"name": "CVS PHARMACY #03162","address1": "2150 CHESTER BLVD","address2": "","city": "RICHMOND","state": "IN","zip": "47374","zip+4": "0000","phone": "7659354650"}
{"name": "WALGREEN DRUG STORE #11544","address1": "13060 ADAMS RD","address2": "","city": "GRANGER","state": "IN","zip": "46530","zip+4": "0000","phone": "5742435468"}
{"name": "WAL-MART PHARMACY #104230","address1": "10105 LIMA ROAD","address2": "","city": "FORT WAYNE","state": "IN","zip": "46818","zip+4": "0000","phone": "2604906510"}
{"name": "GRANDVIEW PHARMACY #2","address1": "6032 HIGHVIEW DRIVE","address2": "STE C","city": "FT WAYNE","state": "IN","zip": "46818","zip+4": "0000","phone": "3178586600"}
{"name": "WALGREEN DRUG STORE #11795","address1": "3551 CASSPOLIS ST","address2": "","city": "ELKHART","state": "IN","zip": "46514","zip+4": "6743","phone": "5742060285"}
{"name": "RITE AID PHARMACY #04029","address1": "3001 EAST 10TH STREET","address2": "","city": "JEFFERSONVILLE","state": "IN","zip": "47130","zip+4": "0000","phone": "8122584003"}
{"name": "CVS PHARMACY #03398","address1": "100 E STATE ROAD 231","address2": "","city": "CROWN POINT","state": "IN","zip": "46307","zip+4": "9789","phone": "2196628854"}
{"name": "WAL-MART PHARMACY #104417","address1": "8191 UPLAND WAY","address2": "","city": "CAMBY","state": "IN","zip": "46113","zip+4": "0000","phone": "3178565748"}
{"name": "WELLSPRING PHARMACY SOUTH","address1": "1550 E COUNTY LINE ROAD","address2": "STE 150","city": "INDIANAPOLIS","state": "IN","zip": "46227","zip+4": "0000","phone": "3178877330"}
{"name": "WALGREEN DRUG STORE #10858","address1": "130 S CREASY LN","address2": "","city": "LAFAYETTE","state": "IN","zip": "47905","zip+4": "0749","phone": "7654483517"}
{"name": "INDIANA ONCOLOGY HEMATOLOGY CO","address1": "8111 SOUTH EMERSON AVE","address2": "STE A","city": "INDIANAPOLIS","state": "IN","zip": "46237","zip+4": "0000","phone": "3178595252"}
{"name": "MED STAT","address1": "1500 PROVIDENT DR","address2": "STE A","city": "WARSAW","state": "IN","zip": "46580","zip+4": "0000","phone": "5743727637"}
{"name": "DUKES MEMORIAL HOSPITAL","address1": "275 W 12TH ST","address2": "","city": "PERU","state": "IN","zip": "46970","zip+4": "0000","phone": "7654728000"}
{"name": "CVS PHARMACY #04638","address1": "801 MAIN ST","address2": "","city": "MUNSTER","state": "IN","zip": "46321","zip+4": "0000","phone": "2199242491"}
{"name": "TARGET PHARMACY #2391","address1": "6101 N KEYSTONE AVE","address2": "STE 200","city": "INDIANAPOLIS","state": "IN","zip": "46220","zip+4": "2488","phone": "3174547505"}
{"name": "WALGREEN DRUG STORE #10606","address1": "8945 MADISON AVE","address2": "","city": "INDIANAPOLIS","state": "IN","zip": "46227","zip+4": "0000","phone": "3178590496"}
{"name": "FAGEN PHARMACY #37","address1": "710 FRANKLIN STREET","address2": "","city": "MICHIGAN CITY","state": "IN","zip": "46360","zip+4": "0000","phone": "2199876468"}
{"name": "SENIOR CARE PHARMACY OF INDIAN","address1": "6530 CORPORATE DRIVE","address2": "","city": "INDIANAPOLIS","state": "IN","zip": "46278","zip+4": "0000","phone": "3174524669"}
{"name": "CVS PHARMACY #00068","address1": "705 TRAFALGAR POINTE WAY","address2": "","city": "TRAFALGAR","state": "IN","zip": "46181","zip+4": "0000","phone": "3178785245"}
{"name": "CVS PHARMACY #05423","address1": "7935 BROOKVILLE RD","address2": "","city": "INDIANAPOLIS","state": "IN","zip": "46239","zip+4": "0000","phone": "3173530783"}
{"name": "CVS PHARMACY #05408","address1": "5020 N STATE ROAD 135","address2": "","city": "BARGERSVILLE","state": "IN","zip": "46106","zip+4": "8931","phone": "4017651500"}
{"name": "CVS PHARMACY #04375","address1": "5865 PROMENADE SHOPS BLVD","address2": "","city": "NOBLESVILLE","state": "IN","zip": "46062","zip+4": "5600","phone": "3177761175"}
{"name": "WALGREENS #10073","address1": "2400 W SYCAMORE ST.","address2": "","city": "KOKOMO","state": "IN","zip": "46901","zip+4": "4035","phone": "7658680140"}
{"name": "WALGREEN #11945","address1": "11932 STATE RD 3","address2": "","city": "FORT WAYNE","state": "IN","zip": "46818","zip+4": "0000","phone": "2606976667"}
{"name": "THE IUSCC PRESCRIPTION CENTER","address1": "1030 W MICHIGAN ST","address2": "C1305","city": "INDIANAPOLIS","state": "IN","zip": "46202","zip+4": "0000","phone": "3172780100"}
{"name": "TARGET PHARMACY #2440","address1": "1102 S THOMAS RD","address2": "","city": "FORT WAYNE","state": "IN","zip": "46807","zip+4": "1144","phone": "2604344581"}
{"name": "CVS PHARMACY #06840","address1": "13085 TEGLER DRIVE","address2": "","city": "NOBLESVILLE","state": "IN","zip": "46060","zip+4": "0000","phone": "3177707089"}
{"name": "MARTINS PHARMACY #4","address1": "314 N IRONWOOD","address2": "","city": "MISHAWAKA","state": "IN","zip": "46544","zip+4": "0000","phone": "5742391894"}
{"name": "GEORGE'S FAMILY PHARMACY INC","address1": "308 N MERIDIAN STREET","address2": "","city": "SUNMAN","state": "IN","zip": "47041","zip+4": "0000","phone": "8126236251"}
{"name": "BLUE RIVER PHARMACY","address1": "736 S HARRISON","address2": "","city": "SHELBYVILLE","state": "IN","zip": "46176","zip+4": "0000","phone": "3173924200"}
{"name": "BIG TEN PHARMACY","address1": "2075 INDIANAPOLIS BOULEVARD","address2": "","city": "WHITING","state": "IN","zip": "46394","zip+4": "1948","phone": "2196595029"}
{"name": "DAILYMED PHARMACY","address1": "9525 DELEGATES ROW","address2": "","city": "INDIANAPOLIS","state": "IN","zip": "46240","zip+4": "0000","phone": "3175730045"}
{"name": "RITE AID PHARMACY #04030","address1": "1106 VETERANS PARKWAY","address2": "","city": "CLARKSVILLE","state": "IN","zip": "47129","zip+4": "0000","phone": "8122851741"}
{"name": "SKILLED CARE OF INDIANA LLC","address1": "9900 WESTPOINT DRIVE","address2": "STE 100","city": "INDIANAPOLIS","state": "IN","zip": "46256","zip+4": "0000","phone": "3178410388"}
{"name": "ACCUPAX LLC","address1": "8770 GUION RD","address2": "STE A","city": "INDIANAPOLIS","state": "IN","zip": "46268","zip+4": "0000","phone": "8009780531"}
{"name": "DAYS HEALTHLY LIVING PHARMACY","address1": "1110 S PERU STREET","address2": "","city": "CICERO","state": "IN","zip": "46034","zip+4": "0000","phone": "3179842121"}
{"name": "WALGREENS # #11494","address1": "124 E NORTH ST","address2": "","city": "KENDALLVILLE","state": "IN","zip": "46755","zip+4": "0000","phone": "2603491530"}
{"name": "WILLIAMS BROS HEALTH CARE PHAR","address1": "104 E BROADWAY ST","address2": "","city": "LOOGOOTEE","state": "IN","zip": "47553","zip+4": "0000","phone": "8122954370"}
{"name": "GENOA HEALTHCARE #70","address1": "2600 OAKLAND AVENUE","address2": "","city": "ELKHART","state": "IN","zip": "46517","zip+4": "0000","phone": "5749700440"}
{"name": "WALGREENS # #12506","address1": "1610 W COOK RD","address2": "","city": "FORT WAYNE","state": "IN","zip": "46825","zip+4": "3219","phone": "9897730175"}
{"name": "KROGER PHARMACY J- #804","address1": "5810 E 71ST STREET","address2": "","city": "INDIANAPOLIS","state": "IN","zip": "46220","zip+4": "0000","phone": "3178131903"}
{"name": "ROHRER FAMILY CLINIC INC","address1": "1027 WASHINGTON AVE","address2": "STE B","city": "VINCENNES","state": "IN","zip": "47591","zip+4": "0000","phone": "8128823816"}
{"name": "WALGREENS #11625","address1": "4620 LINCOLNWAY E","address2": "","city": "MISHAWAKA","state": "IN","zip": "46544","zip+4": "0000","phone": "5742570438"}
{"name": "WALGREENS #12264","address1": "200 S NAPPANEE ST","address2": "","city": "ELKHART","state": "IN","zip": "46514","zip+4": "1952","phone": "5742932063"}
{"name": "WALGREENS #12676","address1": "1024 W VOTAW ST","address2": "","city": "PORTLAND","state": "IN","zip": "47371","zip+4": "0000","phone": "2607262049"}
{"name": "MARWOOD LOW COST PHARMACY","address1": "3381 KENTUCKY AVE","address2": "","city": "INDIANAPLIS","state": "IN","zip": "46221","zip+4": "0000","phone": "3172466700"}
{"name": "FAGEN PHARMACY #38","address1": "7905 CALUMET AVE","address2": "","city": "MUNSTER","state": "IN","zip": "46321","zip+4": "0000","phone": "2198366110"}
{"name": "WALGREENS #11882","address1": "1901 W BROADWAY ST","address2": "","city": "PRINCETON","state": "IN","zip": "47670","zip+4": "0000","phone": "8123853296"}
{"name": "MEIJER PHARMACY #153","address1": "3820 S WESTERN AVE","address2": "","city": "MARION","state": "IN","zip": "46953","zip+4": "0000","phone": "7656776833"}
{"name": "ORTHOPAEDIC ASSOCIATES INC NEW","address1": "10455 ORTHOPAEDIC DR","address2": "","city": "NEWBURGH","state": "IN","zip": "47630","zip+4": "0000","phone": "8124249291"}
{"name": "ORTHOPAEDIC ASSOCIATES OF EVAN","address1": "533 W COLUMBIA","address2": "","city": "EVANSVILLE","state": "IN","zip": "47710","zip+4": "0000","phone": "8124249291"}
{"name": "CVS PHARMACY # #08904","address1": "14575 MUNDY DRIVE","address2": "","city": "NOBLESVILLE","state": "IN","zip": "46060","zip+4": "0000","phone": "3177705275"}
{"name": "CVS PHARMACY # #05696","address1": "10170 WEST STATE ROAD 14","address2": "","city": "FORT WAYNE","state": "IN","zip": "46814","zip+4": "0000","phone": "4017651500"}
{"name": "NORTHSHORE HEALTH CENTERS INC","address1": "2490 CENTRAL AVENUE","address2": "STE B","city": "LAKE STATION","state": "IN","zip": "46405","zip+4": "0000","phone": "2199625909"}
{"name": "PAUL'S LTC PHARMACY","address1": "2345 W FRANKLIN ST STE 201B","address2": "","city": "EVANSVILLE","state": "IN","zip": "47712","zip+4": "5104","phone": "8124265033"}
{"name": "WALGREENS #12640","address1": "226 N HALLECK ST","address2": "","city": "DEMOTTE","state": "IN","zip": "46310","zip+4": "8633","phone": "2199874900"}
{"name": "WALGREENS #12585","address1": "4444 W WESTERN AVE","address2": "","city": "SOUTH BEND","state": "IN","zip": "46619","zip+4": "2641","phone": "5742460052"}
{"name": "MEDICAL OF DUBOIS","address1": "695 3RD AVENUE","address2": "","city": "JASPER","state": "IN","zip": "47546","zip+4": "0000","phone": "8126346824"}
{"name": "NATION'S MEDICINES #T2","address1": "3408 N 1ST AVE","address2": "","city": "EVANSVILLE","state": "IN","zip": "47710","zip+4": "3302","phone": "8124228255"}
{"name": "WALGREENS #13113","address1": "6011 E DOUGLAS RD","address2": "STE 1-9","city": "MISHAWAKA","state": "IN","zip": "46545","zip+4": "0000","phone": "2175548924"}
{"name": "FAGEN PHARMACY","address1": "915 SOUTH HALLECK","address2": "","city": "DEMOTTE","state": "IN","zip": "46310","zip+4": "0000","phone": "2199876468"}
{"name": "PHARMA-CARD MANAGEMENT SVC INC","address1": "PO BOX 1637","address2": "","city": "VALPARAISO","state": "IN","zip": "46384","zip+4": "1637","phone": "2195315493"}
{"name": "MARTIN'S SUPERMARKET INC","address1": "760 WEST COTTER ST","address2": "","city": "SOUTH BEND","state": "IN","zip": "46613","zip+4": "0000","phone": ""}
{"name": "MARSH DRUGSLLC","address1": "9800 CROSSPOINT BLVD","address2": "","city": "INDIANAPOLIS","state": "IN","zip": "46256","zip+4": "3350","phone": "3175942405"}
{"name": "BUEHLERS PHARMACY","address1": "1550 S VANN AVE","address2": "","city": "EVANSVILLE","state": "IN","zip": "47714","zip+4": "0000","phone": "8124697435"}