{"name": "GRANT COUNTY DRUGS INC","address1": "24 S MAIN ST","address2": "","city": "DRY RIDGE","state": "KY","zip": "41035","zip+4": "9406","phone": "8598235271"}
{"name": "WALGREEN DRUG STORE #13055","address1": "4299 WINSTON AVE","address2": "","city": "COVINGTON","state": "KY","zip": "41015","zip+4": "0000","phone": "8592914722"}
{"name": "WALGREEN DRUG STORE #4892","address1": "2181 HARRODSBURG RD","address2": "","city": "LEXINGTON","state": "KY","zip": "40504","zip+4": "0000","phone": "8592785461"}
{"name": "WALGREEN DRUG STORE #6443","address1": "990 BAXTER AVE","address2": "","city": "LOUISVILLE","state": "KY","zip": "40204","zip+4": "0000","phone": "5025836089"}
{"name": "WALGREEN DRUG STORE #1648","address1": "810 EASTERN PKWY","address2": "","city": "LOUISVILLE","state": "KY","zip": "40217","zip+4": "0000","phone": "5026371249"}
{"name": "WALGREEN DRUG STORE #3601","address1": "3800 POPLAR LEVEL ROAD","address2": "","city": "LOUISVILLE","state": "KY","zip": "40213","zip+4": "0000","phone": "5024597226"}
{"name": "WALGREEN DRUG STORE #3756","address1": "3980 DIXIE HIGHWAY","address2": "","city": "LOUISVILLE","state": "KY","zip": "40216","zip+4": "0000","phone": "5024478565"}
{"name": "WALGREEN DRUG STORE #5436","address1": "4025 TAYLORSVILLE RD","address2": "","city": "LOUISVILLE","state": "KY","zip": "40220","zip+4": "0000","phone": "5024510100"}
{"name": "WALGREEN DRUG STORE #4216","address1": "5201 S THIRD ST","address2": "","city": "LOUISVILLE","state": "KY","zip": "40214","zip+4": "0000","phone": "5023676128"}
{"name": "WALGREEN DRUG STORE #7346","address1": "1601 MONMOUTH ST","address2": "","city": "NEWPORT","state": "KY","zip": "41071","zip+4": "0000","phone": "8592918114"}
{"name": "WALGREEN DRUG STORE #6437","address1": "520 LYNDON LANE","address2": "","city": "LYNDON","state": "KY","zip": "40222","zip+4": "0000","phone": "5024261048"}
{"name": "CVS PHARMACY #06199","address1": "3130 PORTLAND AVENUE","address2": "","city": "LOUISVILLE","state": "KY","zip": "40212","zip+4": "0000","phone": "5027761596"}
{"name": "CVS PHARMACY #06202","address1": "2106 BROWNSBORO ROAD","address2": "","city": "LOUISVILLE","state": "KY","zip": "40206","zip+4": "0000","phone": "5028971681"}
{"name": "CVS PHARMACY #06203","address1": "3997 7TH STREET ROAD","address2": "","city": "LOUISVILLE","state": "KY","zip": "40216","zip+4": "0000","phone": "5024483383"}
{"name": "CVS PHARMACY #06422","address1": "704 US HIGHWAY 31 W BYPASS","address2": "","city": "BOWLING GREEN","state": "KY","zip": "42101","zip+4": "0000","phone": "2708428111"}
{"name": "CVS PHARMACY #06376","address1": "538 LONE OAK ROAD","address2": "","city": "PADUCAH","state": "KY","zip": "42003","zip+4": "0000","phone": "2704438855"}
{"name": "CVS PHARMACY #06345","address1": "31 W BROADWAY STREET","address2": "","city": "WINCHESTER","state": "KY","zip": "40391","zip+4": "0000","phone": "6067447701"}
{"name": "CVS PHARMACY #06334","address1": "199 LEXINGTON STREET","address2": "","city": "VERSAILLES","state": "KY","zip": "40383","zip+4": "0000","phone": "6068735451"}
{"name": "CVS PHARMACY #06205","address1": "10490 SHELBYVILLE ROAD","address2": "","city": "LOUISVILLE","state": "KY","zip": "40223","zip+4": "0000","phone": "5022458853"}
{"name": "CVS PHARMACY #06338","address1": "101 EAST BROADWAY","address2": "","city": "CAMPBELLSVILLE","state": "KY","zip": "42718","zip+4": "0000","phone": "2704656661"}
{"name": "CVS PHARMACY #06348","address1": "214 MOORELAND AVE","address2": "","city": "HARRODSBURG","state": "KY","zip": "40330","zip+4": "0000","phone": "8597345476"}
{"name": "CVS PHARMACY #06335","address1": "201 W MARTIN LUTHER KING BLVD","address2": "","city": "DANVILLE","state": "KY","zip": "40422","zip+4": "0000","phone": "8592365255"}
{"name": "CVS PHARMACY #06347","address1": "1221 LEXINGTON AVENUE","address2": "","city": "ASHLAND","state": "KY","zip": "41101","zip+4": "0000","phone": "6063242128"}
{"name": "CORNER DRUG WINCHESTER INC","address1": "26 E BROADWAY","address2": "","city": "WINCHESTER","state": "KY","zip": "40391","zip+4": "0000","phone": "8597446844"}
{"name": "WALGREEN DRUG STORE #6104","address1": "2901 FT CAMPBELL BLVD","address2": "","city": "HOPKINSVILLE","state": "KY","zip": "42240","zip+4": "0000","phone": "2708869418"}
{"name": "STONES DRUG INC","address1": "414 SOUTH 9TH ST","address2": "","city": "MAYFIELD","state": "KY","zip": "42066","zip+4": "2610","phone": "2702473232"}
{"name": "PERKINS PHARMACY","address1": "119 E CLAY ST","address2": "","city": "CLINTON","state": "KY","zip": "42031","zip+4": "0000","phone": "2706535361"}
{"name": "BYASSEE DRUG COMPANY","address1": "107 E CLAY ST","address2": "","city": "CLINTON","state": "KY","zip": "42031","zip+4": "0000","phone": "2706532151"}
{"name": "J AND R PHARMACY","address1": "504 E 9TH ST","address2": "","city": "BENTON","state": "KY","zip": "42025","zip+4": "1332","phone": "2705279374"}
{"name": "NELSON PHARMACY","address1": "1112 MAIN ST","address2": "","city": "BENTON","state": "KY","zip": "42025","zip+4": "1450","phone": "2705273616"}
{"name": "CVS PHARMACY #06337","address1": "103 MONTGOMERY SQUARE","address2": "","city": "MOUNT STERLING","state": "KY","zip": "40353","zip+4": "0000","phone": "6064984320"}
{"name": "WEBSTER DRUG INC","address1": "99 PARK LN SHOPPING CENTER","address2": "","city": "CARROLLTON","state": "KY","zip": "41008","zip+4": "0311","phone": "5027324331"}
{"name": "WALGREEN DRUG STORE #3418","address1": "1975 DIXIE HIGHWAY","address2": "","city": "COVINGTON","state": "KY","zip": "41011","zip+4": "0000","phone": "8593315520"}
{"name": "WALGREEN DRUG STORE #4194","address1": "2021 HIKES LANE","address2": "","city": "LOUISVILLE","state": "KY","zip": "40218","zip+4": "0000","phone": "5024510527"}
{"name": "ALEXANDRIA DRUGS","address1": "7857 US HWY 27","address2": "","city": "ALEXANDRIA","state": "KY","zip": "41001","zip+4": "0000","phone": "8596352171"}
{"name": "HUME PHARMACY","address1": "10216 TAYLORSVILLE RD","address2": "","city": "JEFFERSONTOWN","state": "KY","zip": "40299","zip+4": "0000","phone": "5022677453"}
{"name": "GLASGOW PRESCRIPTION CENTER","address1": "615 S L ROGERS WELLS BLVD","address2": "","city": "GLASGOW","state": "KY","zip": "42141","zip+4": "0000","phone": "2706518889"}
{"name": "CHEROKEE DRUG SHOPPE","address1": "6439 TAYLOR MILL RD","address2": "","city": "INDEPENDENCE","state": "KY","zip": "41051","zip+4": "9343","phone": "8593563121"}
{"name": "G AND O PHARMACY","address1": "2338 BROADWAY ST","address2": "","city": "PADUCAH","state": "KY","zip": "42001","zip+4": "7181","phone": "2704423571"}
{"name": "JEFFS PRESCRIPTION SHOP","address1": "2415 RING RD","address2": "","city": "ELIZABETHTOWN","state": "KY","zip": "42701","zip+4": "0000","phone": "2707652157"}
{"name": "LYON DRUG STORE","address1": "201 MAIN ST","address2": "","city": "EDDYVILLE","state": "KY","zip": "42038","zip+4": "0490","phone": "2703882236"}
{"name": "GLENNS PRESCRIPTION CENTER","address1": "119 E MAIN ST","address2": "","city": "SALEM","state": "KY","zip": "42078","zip+4": "0000","phone": "2709883226"}
{"name": "MC CONNELLS DRUG STORE","address1": "86 CEDAR ST","address2": "","city": "KUTTAWA","state": "KY","zip": "42055","zip+4": "0159","phone": "2703887371"}
{"name": "REIDLAND PHARMACY","address1": "5433 REIDLAND PHARMACY","address2": "","city": "PADUCAH","state": "KY","zip": "42003","zip+4": "0368","phone": "2708987313"}
{"name": "PRINCETON DRUG","address1": "103 W MAIN ST","address2": "","city": "PRINCETON","state": "KY","zip": "42445","zip+4": "1546","phone": "2703655585"}
{"name": "WAGNER PHARMACY INC","address1": "3113 SOUTH 4TH ST","address2": "","city": "LOUISVILLE","state": "KY","zip": "40214","zip+4": "0000","phone": "5023753800"}
{"name": "STEPHENS DRUGS INC #430","address1": "4200 SHELBYVILLE RD","address2": "","city": "LOUISVILLE","state": "KY","zip": "40207","zip+4": "0000","phone": "5028955446"}
{"name": "COX DRUG STORE #2","address1": "5005 PRESTON HIGHWAY STE 104","address2": "","city": "LOUISVILLE","state": "KY","zip": "40213","zip+4": "0000","phone": "5029692341"}
{"name": "KMART PHARMACY #3103","address1": "2440 LONE OAK RD","address2": "","city": "PADUCAH","state": "KY","zip": "42003","zip+4": "5398","phone": "2705549600"}
{"name": "COOKS PHARMACY INC","address1": "42 S PENN AVE","address2": "","city": "EMINENCE","state": "KY","zip": "40019","zip+4": "0000","phone": "5028454216"}
{"name": "KATTERJOHN DRUG STORE","address1": "1100 CALDWELL ST","address2": "","city": "PADUCAH","state": "KY","zip": "42003","zip+4": "2080","phone": "2704422990"}
{"name": "WHITEHEAD DRUG STORE","address1": "1502 S 7TH ST","address2": "","city": "LOUISVILLE","state": "KY","zip": "40208","zip+4": "1798","phone": "5026371489"}
{"name": "SMITH-MCKENNEY COMPANYINC #1","address1": "16 VILLAGE PLAZA","address2": "","city": "SHELBYVILLE","state": "KY","zip": "40066","zip+4": "0000","phone": "5026332115"}
{"name": "PRESCRIPTION SHOPPE","address1": "200 W GORDON ST","address2": "","city": "CORBIN","state": "KY","zip": "40701","zip+4": "1527","phone": "6065289305"}
{"name": "MONTGOMERY DRUGS INC","address1": "201 S MAIN","address2": "","city": "LEITCHFIELD","state": "KY","zip": "42754","zip+4": "1560","phone": "2702593125"}
{"name": "HURST DISCOUNT DRUG","address1": "102 N 3RD ST","address2": "","city": "BARDSTOWN","state": "KY","zip": "40004","zip+4": "0000","phone": "5023489261"}
{"name": "CLARKSON DRUG STORE","address1": "201 MILLERSTOWN ST","address2": "","city": "CLARKSON","state": "KY","zip": "42726","zip+4": "0000","phone": "2702423811"}
{"name": "SMITH DRUG COMPANY INC","address1": "104 N LINCOLN BLVD","address2": "","city": "HODGENVILLE","state": "KY","zip": "42748","zip+4": "1512","phone": "2703583306"}
{"name": "EDMONSON DRUG COMPANY INC","address1": "432 S MAIN","address2": "","city": "BROWNSVILLE","state": "KY","zip": "42210","zip+4": "0058","phone": "2705972386"}
{"name": "CLARK DRUGS INC","address1": "232 MAIN ST","address2": "","city": "MUNFORDVILLE","state": "KY","zip": "42765","zip+4": "0127","phone": "2705243669"}
{"name": "RUWE FAMILY PHARMACY LATONIA","address1": "3712 WINSTON AVE","address2": "","city": "COVINGTON","state": "KY","zip": "41015","zip+4": "0000","phone": "8592610605"}
{"name": "PRESCRIPTION SHOP","address1": "1571 HWY 259 N","address2": "","city": "BROWNSVILLE","state": "KY","zip": "42210","zip+4": "9206","phone": "2705972181"}
{"name": "CVS PHARMACY #06113","address1": "4305 WINSTON AVENUE","address2": "","city": "LATONIA","state": "KY","zip": "41015","zip+4": "0000","phone": "8594916300"}
{"name": "DYER DRUG","address1": "100 E. CUMBERLAND ST","address2": "","city": "ALBANY","state": "KY","zip": "42602","zip+4": "0000","phone": "6063876444"}
{"name": "CRUME DRUG STORE INC","address1": "111 W FLAGET ST","address2": "","city": "BARDSTOWN","state": "KY","zip": "40004","zip+4": "1422","phone": "5023483938"}
{"name": "RICE DRUGS","address1": "1209 N MAIN ST","address2": "","city": "BEAVER DAM","state": "KY","zip": "42320","zip+4": "0000","phone": "2702743318"}
{"name": "BEREA DRUG CO INC","address1": "402 RICHMOND RD","address2": "STE A","city": "BEREA","state": "KY","zip": "40403","zip+4": "0000","phone": "8599864521"}
{"name": "SNIDER DRUG STORE","address1": "101 TAYLORSVILLE RD","address2": "","city": "BLOOMFIELD","state": "KY","zip": "40008","zip+4": "0000","phone": "5022528242"}
{"name": "SMITH PHARMACY INC","address1": "204 COURTHOUSE SQ","address2": "","city": "BURKESVILLE","state": "KY","zip": "42717","zip+4": "0000","phone": "2708642231"}
{"name": "SAVE ON DRUGS INC","address1": "266 E MAIN ST","address2": "STE 390","city": "CADIZ","state": "KY","zip": "42211","zip+4": "9152","phone": "2705223211"}
{"name": "CARLISLE DRUG COMPANY","address1": "126 E MAIN STREET","address2": "","city": "CARLISLE","state": "KY","zip": "40311","zip+4": "0000","phone": "8592892528"}
{"name": "HOPKINS DRUG COMPANY INC","address1": "116 E MAIN ST","address2": "","city": "CARLISLE","state": "KY","zip": "40311","zip+4": "1154","phone": "8592895122"}
{"name": "PARKLAND DRUGS","address1": "209 N DIXIE HWY","address2": "","city": "CAVE CITY","state": "KY","zip": "42127","zip+4": "0000","phone": "2707733152"}
{"name": "CENTRAL CITY CLINIC PHARMACY","address1": "203 NORTH 2ND ST","address2": "","city": "CENTRAL CITY","state": "KY","zip": "42330","zip+4": "0000","phone": "2707544300"}
{"name": "COTTONGIM DRUG COMPANY #1","address1": "300 S MAIN ST","address2": "","city": "CORBIN","state": "KY","zip": "40701","zip+4": "1458","phone": "6065281304"}
{"name": "DOCTORS PARK APOTHECARY","address1": "121 BISHOP ST","address2": "SUITE 1","city": "CORBIN","state": "KY","zip": "40701","zip+4": "0000","phone": "6065281932"}
{"name": "BLANKS PHARMACY","address1": "272 PIKE ST","address2": "","city": "COVINGTON","state": "KY","zip": "41011","zip+4": "2392","phone": "8592611313"}
{"name": "WOODBURN PHARMACY LLC","address1": "400 E ARCADIA AVE","address2": "","city": "DAWSON SPRINGS","state": "KY","zip": "42408","zip+4": "0000","phone": "2707972761"}
{"name": "METCALFE DRUG","address1": "115 E STOCKTON ST","address2": "","city": "EDMONTON","state": "KY","zip": "42129","zip+4": "9432","phone": "2704323051"}
{"name": "NUNN DRUGS INC","address1": "1704 W STOCKTON ST","address2": "","city": "EDMONTON","state": "KY","zip": "42129","zip+4": "0000","phone": "2704323111"}
{"name": "R H MOORE DRUG COMPANY","address1": "115 W CEDAR ST","address2": "","city": "FRANKLIN","state": "KY","zip": "42134","zip+4": "0000","phone": "2705864471"}
{"name": "MENIFEE COUNTY PHARMACY PLLC","address1": "70 MAIN ST","address2": "","city": "FRENCHBURG","state": "KY","zip": "40322","zip+4": "0000","phone": "6067682161"}
{"name": "ELY DRUGS INC #2","address1": "415 HAPPY VALLEY RD","address2": "","city": "GLASGOW","state": "KY","zip": "42141","zip+4": "0000","phone": "2706518359"}
{"name": "PARK AVENUE PHARMACY","address1": "131 PARK AVE","address2": "","city": "GLASGOW","state": "KY","zip": "42141","zip+4": "0000","phone": "2706515156"}
{"name": "HORTON BROTHERS AND BROWN PHAR","address1": "128 EAST MAIN ST","address2": "","city": "GRAYSON","state": "KY","zip": "41143","zip+4": "0000","phone": "6064745655"}
{"name": "TAYLOR PHARMACY","address1": "109 FAIRGROUNDS RD","address2": "","city": "HARDINSBURG","state": "KY","zip": "40143","zip+4": "0135","phone": "2707565222"}
{"name": "TOWNE AND COUNTRY PHARMACY INC","address1": "675 E. HWY 60","address2": "","city": "HARDINSBURG","state": "KY","zip": "40143","zip+4": "9554","phone": "2707562151"}
{"name": "KING DRUG AND HOME CARE #HT","address1": "312 S MAIN ST","address2": "","city": "HARTFORD","state": "KY","zip": "42347","zip+4": "0000","phone": "2702983278"}
{"name": "SPINKS PHARMACY","address1": "1135 SPINKS SHOPPING CNTR","address2": "HWY 231 S","city": "HARTFORD","state": "KY","zip": "42347","zip+4": "0000","phone": "2702987688"}
{"name": "DUNAWAYS IMPERIAL PHCY","address1": "110 THIRD STREET","address2": "","city": "HENDERSON","state": "KY","zip": "42420","zip+4": "0000","phone": "2708266565"}
{"name": "T AND T DRUGS INC","address1": "1331 CLAY ST","address2": "","city": "HENDERSON","state": "KY","zip": "42420","zip+4": "0000","phone": "2708273503"}
{"name": "RUMFELT DRUG INC","address1": "2009 S 7TH ST","address2": "","city": "HICKMAN","state": "KY","zip": "42050","zip+4": "0000","phone": "2702362588"}
{"name": "NAPIER FAMILY DRUG","address1": "47 WEST MAIN STREET","address2": "PO BOX 1128","city": "HINDMAN","state": "KY","zip": "41822","zip+4": "0000","phone": "6067853143"}
{"name": "BRANSTETTER PHARMACY","address1": "141 E MAIN ST","address2": "","city": "HORSE CAVE","state": "KY","zip": "42749","zip+4": "1168","phone": "2707862466"}
{"name": "NIES PHARMACY","address1": "11745 MADISON PIKE","address2": "","city": "INDEPENDENCE","state": "KY","zip": "41051","zip+4": "0000","phone": "8593563941"}
{"name": "INEZ DRUG STORE INC","address1": "6 OLD MIDDLE FORK RD","address2": "","city": "INEZ","state": "KY","zip": "41224","zip+4": "0000","phone": "6062983800"}
{"name": "FAMILY DRUG","address1": "117 MAIN STREET","address2": "","city": "INEZ","state": "KY","zip": "41224","zip+4": "0323","phone": "6062987512"}
{"name": "SAVE RITE DRUGS INC","address1": "14020 E HWY 60","address2": "","city": "IRVINGTON","state": "KY","zip": "40146","zip+4": "0000","phone": "2705472855"}
{"name": "BOGGS PHARMACY INC","address1": "9500 HIGHWAY 805","address2": "","city": "JENKINS","state": "KY","zip": "41537","zip+4": "0000","phone": "6068322121"}
{"name": "SUTTONS PHARMACY INC","address1": "330 W MAPLE AVE","address2": "","city": "LANCASTER","state": "KY","zip": "40444","zip+4": "1058","phone": "8597924611"}
{"name": "KLINKS DRUG STORE #3","address1": "115 E MAIN ST","address2": "","city": "LAWRENCEBURG","state": "KY","zip": "40342","zip+4": "1013","phone": "5028393122"}
{"name": "SOUTHALL PHARMACY","address1": "325 WEST WALNUT ST","address2": "SUITE 500","city": "LEBANON","state": "KY","zip": "40033","zip+4": "0000","phone": "2706923111"}
{"name": "BEELERS DRUG STORE","address1": "11715 S PRESTON HIGHWAY","address2": "","city": "LEBANON JUNCTION","state": "KY","zip": "40150","zip+4": "0000","phone": "5028334831"}
{"name": "GOWER DRUG STORE","address1": "328 N MAIN ST","address2": "","city": "LEWISBURG","state": "KY","zip": "42256","zip+4": "0300","phone": "2707554831"}
{"name": "LEWISPORT PHARMACY","address1": "8525 US 60 W","address2": "","city": "LEWISPORT","state": "KY","zip": "42351","zip+4": "0000","phone": "2702953356"}
{"name": "HUBBARD AND CURRY PHARMACY","address1": "2387 PROFESSIONAL HEIGHTS DR","address2": "SUITE 160","city": "LEXINGTON","state": "KY","zip": "40503","zip+4": "3005","phone": "8592788408"}
{"name": "WHEELER PHARMACY","address1": "336 ROMANY RD","address2": "","city": "LEXINGTON","state": "KY","zip": "40502","zip+4": "2450","phone": "8592661131"}
{"name": "WESLEY DRUG COMPANY INC","address1": "535 MIDDLEBURG ST","address2": "","city": "LIBERTY","state": "KY","zip": "42539","zip+4": "0000","phone": "6067875689"}
{"name": "LOUISA DRUG STORE","address1": "408 N LOCK AVE","address2": "","city": "LOUISA","state": "KY","zip": "41230","zip+4": "1196","phone": "6066384155"}
{"name": "D AND R PHARMACARE LOUISVILLE","address1": "4400 OLE BRICKYARD CIR","address2": "","city": "LOUISVILLE","state": "KY","zip": "40218","zip+4": "2246","phone": "5024540803"}
{"name": "DON PEELER PHARMACY","address1": "127 E NORTH ST","address2": "","city": "MADISONVILLE","state": "KY","zip": "42431","zip+4": "1628","phone": "2708215440"}
{"name": "MADISONVILLE PHARMACY INC","address1": "200 CLINIC DR","address2": "STE 101","city": "MADISONVILLE","state": "KY","zip": "42431","zip+4": "1600","phone": "2708242264"}
{"name": "CAMPBELLS DRUG","address1": "US HWY 421","address2": "","city": "MCKEE","state": "KY","zip": "40447","zip+4": "0000","phone": "6062877191"}
{"name": "MIKELS PHARMACY","address1": "1928 CUMBERLAND AVENUE","address2": "","city": "MIDDLESBORO","state": "KY","zip": "40965","zip+4": "0000","phone": "6062481052"}
{"name": "F AND H DRUGS","address1": "200 N MAIN","address2": "","city": "MONTICELLO","state": "KY","zip": "42633","zip+4": "1440","phone": "6063489263"}
{"name": "BATTSON DRUGS","address1": "206 W MAIN ST","address2": "","city": "MOREHEAD","state": "KY","zip": "40351","zip+4": "1502","phone": "6067844491"}
{"name": "HOLBROOK DRUG","address1": "208 E MAIN ST","address2": "","city": "MOREHEAD","state": "KY","zip": "40351","zip+4": "1620","phone": "6067844784"}
{"name": "CLEMENTS DRUG","address1": "225 N MORGAN ST","address2": "","city": "MORGANFIELD","state": "KY","zip": "42437","zip+4": "0000","phone": "2703892440"}
{"name": "MORGANTOWN PRESCRIPTION CENTER","address1": "214 S MAIN ST","address2": "","city": "MORGANTOWN","state": "KY","zip": "42261","zip+4": "0000","phone": "2705263332"}
{"name": "CARRINGTON DRUG","address1": "506 N MAYSVILLE RD","address2": "","city": "MT STERLING","state": "KY","zip": "40353","zip+4": "9336","phone": "8594983464"}
{"name": "FAMILY DRUG OF NEON","address1": "972 HWY 317","address2": "","city": "NEON","state": "KY","zip": "41840","zip+4": "0000","phone": "6068554428"}
{"name": "NEWPORT DRUG CENTER","address1": "948 YORK ST","address2": "","city": "NEWPORT","state": "KY","zip": "41071","zip+4": "0000","phone": "8592912578"}
{"name": "DRUG MART","address1": "104 EDGEWOOD PLAZA DR","address2": "","city": "NICHOLASVILLE","state": "KY","zip": "40356","zip+4": "1898","phone": "8598856056"}
{"name": "DANHAUER DRUGS CO","address1": "330 FREDERICA ST","address2": "","city": "OWENSBORO","state": "KY","zip": "42301","zip+4": "0838","phone": "2706842341"}
{"name": "MAYFAIR PHARMACY INC","address1": "2315 MAYFAIR SQUARE BLDG","address2": "","city": "OWENSBORO","state": "KY","zip": "42301","zip+4": "0000","phone": "2706837379"}
{"name": "MILLS DRUG STORE","address1": "1000 E 4TH ST","address2": "","city": "OWENSBORO","state": "KY","zip": "42303","zip+4": "0000","phone": "2706831571"}
{"name": "NATIONS MEDICINES #C1","address1": "3030 BURLEW BLVD STE B","address2": "","city": "OWENSBORO","state": "KY","zip": "42303","zip+4": "0000","phone": "2706854931"}
{"name": "OWINGSVILLE DRUG STORE","address1": "33 MILLER SHOPPING PLAZA","address2": "","city": "OWINGSVILLE","state": "KY","zip": "40360","zip+4": "0000","phone": "6066746334"}
{"name": "ECONOMY DRUG COMPANY INC","address1": "180 TOWN MT ROAD","address2": "STE 115","city": "PIKEVILLE","state": "KY","zip": "41501","zip+4": "0000","phone": "6064377333"}
{"name": "COOLEY APOTHECARY INC","address1": "128 N LAKE DR","address2": "","city": "PRESTONSBURG","state": "KY","zip": "41653","zip+4": "1270","phone": "6068868106"}
{"name": "RADCLIFF DRUGS","address1": "467 N DIXIE BLVD","address2": "","city": "RADCLIFF","state": "KY","zip": "40160","zip+4": "1306","phone": "2703513313"}
{"name": "M & M DRUG STORE","address1": "110 BIG HILL AVE","address2": "","city": "RICHMOND","state": "KY","zip": "40475","zip+4": "2008","phone": "8596231980"}
{"name": "GRIDER DRUG LLC #1","address1": "539 MAIN ST","address2": "","city": "RUSSELL SPRINGS","state": "KY","zip": "42642","zip+4": "1328","phone": "2708666477"}
{"name": "RILEY WHITE DRUGS","address1": "153 NW PARK SQ","address2": "","city": "RUSSELLVILLE","state": "KY","zip": "42276","zip+4": "1398","phone": "2707267626"}
{"name": "CLINIC PHARMACY OF KY","address1": "141 HOSPITAL DR","address2": "","city": "SALEM","state": "KY","zip": "42078","zip+4": "0000","phone": "2709883230"}
{"name": "FRAZIER'S PRATER DRUG","address1": "200 CHURCH ST","address2": "","city": "SALYERSVILLE","state": "KY","zip": "41465","zip+4": "0000","phone": "6063493135"}
{"name": "DISCOUNT DRUG MART INC","address1": "108 MAIN ST","address2": "","city": "SANDY HOOK","state": "KY","zip": "41171","zip+4": "0187","phone": "6067385111"}
{"name": "CARPENTER DENT DRUGS","address1": "117 E PUBLIC SQR","address2": "","city": "SCOTTSVILLE","state": "KY","zip": "42164","zip+4": "1439","phone": "2702374446"}
{"name": "STOVALLS PRESCRIPTION SHOP","address1": "202 S COURT ST","address2": "","city": "SCOTTSVILLE","state": "KY","zip": "42164","zip+4": "1228","phone": "2702375402"}
{"name": "BELLS DRUGS INC","address1": "7107 STATE ROUTE 56 EAST","address2": "","city": "SEBREE","state": "KY","zip": "42455","zip+4": "0000","phone": "2708357544"}
{"name": "SOMERSET PHARMACY","address1": "101 S MAIN ST","address2": "","city": "SOMERSET","state": "KY","zip": "42501","zip+4": "2005","phone": "6066791571"}
{"name": "MCDONALD PHARMACY","address1": "437 JAMES HANNAH DR","address2": "","city": "SOUTH SHORE","state": "KY","zip": "41175","zip+4": "0774","phone": "6069323614"}
{"name": "COLEMANS DRUG STORE","address1": "105 W MAIN ST","address2": "","city": "STANFORD","state": "KY","zip": "40484","zip+4": "1253","phone": "6063652164"}
{"name": "CORNER DRUG STORE OF STURGIS","address1": "424 N ADAMS","address2": "","city": "STURGIS","state": "KY","zip": "42459","zip+4": "0000","phone": "2703335341"}
{"name": "STURGIS PHARMACY","address1": "523 N ADAMS ST","address2": "","city": "STURGIS","state": "KY","zip": "42459","zip+4": "0000","phone": "2703334672"}
{"name": "PURE DRUG CO","address1": "805 N MAIN STREET","address2": "","city": "TOMPKINSVILLE","state": "KY","zip": "42167","zip+4": "0000","phone": "2704875468"}
{"name": "TOMPKINSVILLE DRUG CO LLC","address1": "200 N CRAWFORD ST","address2": "","city": "TOMPKINSVILLE","state": "KY","zip": "42167","zip+4": "1674","phone": "2704876155"}
{"name": "OSMAN PHARMACY","address1": "507 2ND ST","address2": "","city": "VANCEBURG","state": "KY","zip": "41179","zip+4": "1098","phone": "6067962932"}
{"name": "WOOLDRIDGE DRUG STORE","address1": "107 CRUTCHER ST","address2": "","city": "VINE GROVE","state": "KY","zip": "40175","zip+4": "0474","phone": "2708775111"}
{"name": "VALLEY DISOUNT PHARMACY","address1": "6758 US HWY 23 S","address2": "SUITE 7","city": "PIKEVILLE","state": "KY","zip": "41501","zip+4": "0000","phone": "6066392415"}
{"name": "WALTON PHARMACY","address1": "305 MARY GRUBBS HWY","address2": "","city": "WALTON","state": "KY","zip": "41094","zip+4": "0000","phone": "8594857733"}
{"name": "BERINGER DRUG CENTER","address1": "102 W MAIN SUITE A","address2": "","city": "WARSAW","state": "KY","zip": "41095","zip+4": "0990","phone": "8595674601"}
{"name": "PEYTONS PHARMACY INC","address1": "414 MAIN ST","address2": "","city": "WEST LIBERTY","state": "KY","zip": "41472","zip+4": "1014","phone": "6067433163"}
{"name": "GRANT COUNTY DRUGS WILLIAMSTOW","address1": "302 BARNES RD","address2": "","city": "WILLIAMSTOWN","state": "KY","zip": "41097","zip+4": "0000","phone": "8598244239"}
{"name": "MOREHEAD CLINIC PHARMACY","address1": "234 MEDICAL CIRCLE","address2": "","city": "MOREHEAD","state": "KY","zip": "40351","zip+4": "1016","phone": "6067846696"}
{"name": "HARLAN ARH PHARMACY #Q08","address1": "81 BALL PARK RD","address2": "","city": "HARLAN","state": "KY","zip": "40831","zip+4": "1701","phone": "6065748017"}
{"name": "MIDDLESBORO ARH PHARMACY #Q09","address1": "3600 W CUMBERLAND AVE","address2": "","city": "MIDDLESBORO","state": "KY","zip": "40965","zip+4": "2614","phone": "6062421366"}
{"name": "H AND N DRUG INC","address1": "515 MEMORIAL DR STE 2","address2": "","city": "MANCHESTER","state": "KY","zip": "40962","zip+4": "0000","phone": "6065983674"}
{"name": "KMART PHARMACY #4232","address1": "2520 NICHOLASVILLE RD","address2": "","city": "LEXINGTON","state": "KY","zip": "40503","zip+4": "0000","phone": "8592786029"}
{"name": "WISHS DRUGS","address1": "9615 WHIPPS MILL RD","address2": "","city": "LYNDON","state": "KY","zip": "40242","zip+4": "3697","phone": "5024251146"}
{"name": "MEDICAL ARTS PHARMACY OF MAYSV","address1": "1 W MCDONALD PARKWAY","address2": "","city": "MAYSVILLE","state": "KY","zip": "41056","zip+4": "1136","phone": "6065645485"}
{"name": "EASTSIDE PHARMACY OF CYNTHIANA","address1": "430 E PLEASANT ST","address2": "SUITE 2","city": "CYNTHIANA","state": "KY","zip": "41031","zip+4": "1693","phone": "8592346800"}
{"name": "BILLINGS DRUG","address1": "163 E COLLEGE AVE","address2": "","city": "STANTON","state": "KY","zip": "40380","zip+4": "0000","phone": "6066632848"}
{"name": "BENTON PHARMACY","address1": "2602 MAIN ST","address2": "","city": "BENTON","state": "KY","zip": "42025","zip+4": "0000","phone": "2705271409"}
{"name": "BARRYS PHARMACY INC","address1": "700 N GREEN","address2": "","city": "HENDERSON","state": "KY","zip": "42420","zip+4": "0000","phone": "2708263957"}
{"name": "COOKS PHARMACY #2","address1": "8154 MAIN ST","address2": "","city": "CAMPBELLSBURG","state": "KY","zip": "40011","zip+4": "0000","phone": "5025327388"}
{"name": "MEDSTOP MEDICAL PHARMACY","address1": "753 WEST BROADWAY","address2": "","city": "LAWRENCEBURG","state": "KY","zip": "40342","zip+4": "0000","phone": "5028393418"}
{"name": "SUTTON DRUGS","address1": "234 BROADWAY","address2": "","city": "LACENTER","state": "KY","zip": "42056","zip+4": "0000","phone": "2706655192"}
{"name": "KENTUCKY CLINIC PHARMACY","address1": "740 SOUTH LIMESTONE ST","address2": "J134","city": "LEXINGTON","state": "KY","zip": "40536","zip+4": "0284","phone": "8593235855"}
{"name": "KNOX PROFESSIONAL PHARMACY","address1": "511 KNOX STREET","address2": "","city": "BARBOURVILLE","state": "KY","zip": "40906","zip+4": "1328","phone": "6065463171"}
{"name": "HILL PHARMACY INC","address1": "33 TRAMMEL ST","address2": "","city": "LIBERTY","state": "KY","zip": "42539","zip+4": "0000","phone": "6067878321"}
{"name": "BONDURANTS PHARMACY","address1": "1465 VILLAGE DRIVE","address2": "","city": "LEXINGTON","state": "KY","zip": "40504","zip+4": "0000","phone": "8592548852"}
{"name": "PRESCRIPTION SHOPPE PHARMACY","address1": "808 JAMESTOWN ST","address2": "","city": "COLUMBIA","state": "KY","zip": "42728","zip+4": "1010","phone": "2703842132"}
{"name": "DEANS PHARMACY INC","address1": "109 LOCUST ST","address2": "","city": "BROOKSVILLE","state": "KY","zip": "41004","zip+4": "0000","phone": "6067352322"}
{"name": "PROFESSIONAL PHARMACY","address1": "419 TOWN MT RD STE 100","address2": "","city": "PIKEVILLE","state": "KY","zip": "41501","zip+4": "0000","phone": "6064320196"}
{"name": "BURGESS DRUGS #2","address1": "19 MEDICAL LOOP","address2": "","city": "WHITLEY CITY","state": "KY","zip": "42653","zip+4": "0309","phone": "6063765043"}
{"name": "DAUGHERTYS DRUG STORE INC","address1": "4180 S HWY 27","address2": "","city": "PINE KNOT","state": "KY","zip": "42635","zip+4": "0000","phone": "6063542222"}
{"name": "WHITESBURG ARH PHARMACY #Q06","address1": "240 HOSPITAL ROAD","address2": "","city": "WHITESBURG","state": "KY","zip": "41858","zip+4": "0800","phone": "6066333503"}
{"name": "RIVERVIEW PHARMACY","address1": "201 S WATER ST","address2": "","city": "LOUISA","state": "KY","zip": "41230","zip+4": "0000","phone": "6066389218"}
{"name": "THRIFTY PHARMACY INC","address1": "127 E MAIN ST","address2": "","city": "PROVIDENCE","state": "KY","zip": "42450","zip+4": "1151","phone": "2706672049"}
{"name": "MORGAN COUNTY ARH PHARMACY #Q1","address1": "476 LIBERTY ROAD","address2": "","city": "WEST LIBERTY","state": "KY","zip": "41472","zip+4": "0579","phone": "6067437730"}
{"name": "C D S 10 PHARMACY LLC #1","address1": "1308 ASHLEY CIR","address2": "","city": "BOWLING GREEN","state": "KY","zip": "42104","zip+4": "3339","phone": "2707815661"}
{"name": "HAZARD ARH REGIONAL MED CTR HO","address1": "100 MEDICAL CENTER DR","address2": "","city": "HAZARD","state": "KY","zip": "41701","zip+4": "9429","phone": "6064391331"}
{"name": "MUHLENBERG COMM HOSP PHCY","address1": "440 HOPKINSVILLE ST","address2": "","city": "GREENVILLE","state": "KY","zip": "42345","zip+4": "0000","phone": "2703388406"}
{"name": "JENNIE STUART MEM CTR PHCY","address1": "320 W 18TH ST","address2": "","city": "HOPKINSVILLE","state": "KY","zip": "42240","zip+4": "6315","phone": "2708870191"}
{"name": "OAKWOOD PHARMACY","address1": "2441 S HWY 27","address2": "","city": "SOMERSET","state": "KY","zip": "42501","zip+4": "2935","phone": "6066774068"}
{"name": "LINCOLN PHARMACY INC","address1": "2816 VEACH RD","address2": "LINCOLN PROFESSIONAL CTR","city": "OWENSBORO","state": "KY","zip": "42301","zip+4": "0000","phone": "2706847278"}
{"name": "HOSPITAL STREET HM PHARMACY","address1": "11 HOSPITAL STREET","address2": "","city": "CADIZ","state": "KY","zip": "42211","zip+4": "7970","phone": "2705223441"}
{"name": "BURLINGTON PHARMACY HEALTH CAR","address1": "5555 NORTH BEND RD","address2": "","city": "BURLINGTON","state": "KY","zip": "41005","zip+4": "0000","phone": "8595866700"}
{"name": "MIDWAY PHARMACY #1","address1": "627 W MAIN ST","address2": "","city": "CLARKSON","state": "KY","zip": "42726","zip+4": "8018","phone": "2702422331"}
{"name": "TOWNE AND COUNTRY DRUGS","address1": "742 E MAIN ST","address2": "STE A","city": "GLASGOW","state": "KY","zip": "42141","zip+4": "2734","phone": "2706515133"}
{"name": "FAMILY DRUG OF WHEELWRIGHT","address1": "107 KY RT 306","address2": "BY PRO","city": "BYPRO","state": "KY","zip": "41612","zip+4": "0249","phone": "6064524134"}
{"name": "CVS PHARMACY #06377","address1": "920 N MAIN STREET","address2": "","city": "MADISONVILLE","state": "KY","zip": "42431","zip+4": "0000","phone": "2708254770"}
{"name": "WALGREEN DRUG STORE #5763","address1": "8193 MALL RD","address2": "","city": "FLORENCE","state": "KY","zip": "41042","zip+4": "0000","phone": "8595256220"}
{"name": "TOWNE AND COUNTRY DISCOUNT DRU","address1": "3217 LAFAYETTE RD","address2": "","city": "HOPKINSVILLE","state": "KY","zip": "42240","zip+4": "0000","phone": "2708856131"}
{"name": "ADAMS PHARMACY","address1": "125 W MAIN ST","address2": "","city": "LEBANON","state": "KY","zip": "40033","zip+4": "1236","phone": "2706929115"}
{"name": "KMART PHARMACY #3029","address1": "3071 DIXIE HWY","address2": "","city": "EDGEWOOD","state": "KY","zip": "41017","zip+4": "0000","phone": "8593316800"}
{"name": "KMART PHARMACY #3057","address1": "4025 POPLAR LEVEL RD","address2": "","city": "LOUISVILLE","state": "KY","zip": "40213","zip+4": "0000","phone": "5024583274"}
{"name": "WILLIAMSON ARH PHARMACY #H03","address1": "260 HOSPITAL DR","address2": "","city": "S WILLIAMSON","state": "KY","zip": "41503","zip+4": "0000","phone": "6062371728"}
{"name": "KMART PHARMACY #4006","address1": "3911 TAYLORSVILLE RD","address2": "","city": "LOUISVILLE","state": "KY","zip": "40220","zip+4": "0000","phone": "5024544668"}
{"name": "PROFESSIONAL PHARMACY LLC","address1": "342 BOGLE ST","address2": "STE 3","city": "SOMERSET","state": "KY","zip": "42503","zip+4": "0000","phone": "6066797979"}
{"name": "RITE AID PHARMACY #00494","address1": "515 SOUTH MAIN STREET","address2": "","city": "LEITCHFIELD","state": "KY","zip": "42754","zip+4": "1428","phone": "2702595720"}
{"name": "KMART PHARMACY #4180","address1": "4915 DIXIE HWY","address2": "","city": "LOUISVILLE","state": "KY","zip": "40216","zip+4": "0000","phone": "5024489726"}
{"name": "KMART PHARMACY #4753","address1": "1809 NORTH DIXIE AVENUE","address2": "","city": "ELIZABETHTOWN","state": "KY","zip": "42701","zip+4": "5504","phone": "2707374014"}
{"name": "WALGREEN DRUG STORE #10776","address1": "2209 RICHMOND RD","address2": "","city": "LEXINGTON","state": "KY","zip": "40502","zip+4": "0000","phone": "8592698832"}
{"name": "WALGREEN DRUG STORE #3777","address1": "4240 SHELBYVILLE RD","address2": "","city": "LOUISVILLE","state": "KY","zip": "40207","zip+4": "0000","phone": "5028930457"}
{"name": "SIMONS PROSPECT APOTHECARY","address1": "9217 US HWY 42","address2": "","city": "PROSPECT","state": "KY","zip": "40059","zip+4": "0000","phone": "5022284161"}
{"name": "CLOVER FORK CLINIC PHARMACY","address1": "101 CHAD STREET","address2": "","city": "EVARTS","state": "KY","zip": "40828","zip+4": "0000","phone": "6068372100"}
{"name": "RITE AID PHARMACY #00295","address1": "60 BUSINESS US 23 NORTH","address2": "","city": "LOUISA","state": "KY","zip": "41230","zip+4": "1261","phone": "6066383110"}
{"name": "WALGREEN DRUG STORE #4163","address1": "7338 DIXIE HIGHWAY","address2": "","city": "LOUISVILLE","state": "KY","zip": "40258","zip+4": "0000","phone": "5029376566"}
{"name": "SUPERIOR DRUG","address1": "251 C MEDICAL PLAZA","address2": "","city": "WHITESBURG","state": "KY","zip": "41858","zip+4": "0000","phone": "6066330197"}
{"name": "TOMS FAMILY PHARMACY","address1": "815 COUNTRY CLUB LN","address2": "","city": "HOPKINSVILLE","state": "KY","zip": "42240","zip+4": "1346","phone": "2708851524"}
{"name": "CVS PHARMACY #06339","address1": "490 EAST HIGHWAY 80","address2": "","city": "SOMERSET","state": "KY","zip": "42501","zip+4": "0000","phone": "6066797395"}
{"name": "RITE AID PHARMACY #00151","address1": "154 PLEASANT RETREAT DRIVE","address2": "154 PLEASANT RETREAT PLAZA","city": "LANCASTER","state": "KY","zip": "40444","zip+4": "9561","phone": "8597924013"}
{"name": "STULTZ PHARMACY INC","address1": "1615 ASHLAND RD","address2": "","city": "GREENUP","state": "KY","zip": "41144","zip+4": "1249","phone": "6064737346"}
{"name": "CAVE RUN PHARMACY INC","address1": "425 CLINIC DR","address2": "","city": "MOREHEAD","state": "KY","zip": "40351","zip+4": "1083","phone": "6067831511"}
{"name": "CENTRAL DRUG CENTER","address1": "102 CENTRAL SHOPPING CTR","address2": "","city": "CAMPBELLSVILLE","state": "KY","zip": "42718","zip+4": "2207","phone": "2704654137"}
{"name": "VILLAGE APOTHECARY #002","address1": "111 RIVER DR","address2": "","city": "BEATTYVILLE","state": "KY","zip": "41311","zip+4": "0346","phone": "6064643656"}
{"name": "RITE AID PHARMACY #01015","address1": "3101 CLAYS MILL ROAD","address2": "SUITE 114","city": "LEXINGTON","state": "KY","zip": "40503","zip+4": "2792","phone": "8592239202"}
{"name": "KMART PHARMACY #7255","address1": "420 EAST HIGHWAY 80","address2": "","city": "SOMERSET","state": "KY","zip": "42501","zip+4": "1693","phone": "6066791121"}
{"name": "SMITHLAND DRUGS","address1": "203 E ADAIR ST","address2": "","city": "SMITHLAND","state": "KY","zip": "42081","zip+4": "0000","phone": "2709282552"}
{"name": "WALGREEN DRUG STORE #7064","address1": "9409 SHELBYVILLE RD","address2": "","city": "LOUISVILLE","state": "KY","zip": "40222","zip+4": "0000","phone": "5024265502"}
{"name": "NICHOLS APOTHECARY INC","address1": "220 ELKHORN ST","address2": "PO BOX 439","city": "ELKHORN CITY","state": "KY","zip": "41522","zip+4": "0439","phone": "6067545076"}
{"name": "NORTH PARK PHARMACY INC","address1": "327 N MAIN ST","address2": "","city": "OWENTON","state": "KY","zip": "40359","zip+4": "1409","phone": "5024843113"}
{"name": "WICKLIFFE PHCY","address1": "409 COURT ST","address2": "","city": "WICKLIFFE","state": "KY","zip": "42087","zip+4": "0248","phone": "2703353172"}
{"name": "CLAY DRUG STORE INC","address1": "9055 ST RT 132 W","address2": "","city": "CLAY","state": "KY","zip": "42404","zip+4": "0000","phone": "2706642270"}
{"name": "FT MITCHELL DRUG SHOPPE","address1": "2515 DIXIE HWY","address2": "","city": "FT MITCHELL","state": "KY","zip": "41017","zip+4": "3009","phone": "8593412000"}
{"name": "RITE AID PHARMACY #01047","address1": "634 NORTH BARDSTOWN ROAD","address2": "","city": "MT WASHINGTON","state": "KY","zip": "40047","zip+4": "7640","phone": "5025388275"}
{"name": "CVS PHARMACY #06342","address1": "1807 N MAIN STREET","address2": "","city": "LONDON","state": "KY","zip": "40741","zip+4": "0000","phone": "6068787344"}
{"name": "OFFICE PARK PHARMACY","address1": "1401 HARRODSBURG RD","address2": "STE B155","city": "LEXINGTON","state": "KY","zip": "40504","zip+4": "0000","phone": "8592763905"}
{"name": "MARROWBONE CLINIC PHARMACY","address1": "10363 REGINA BELCHER HWY","address2": "","city": "REGINA","state": "KY","zip": "41559","zip+4": "0000","phone": "6067547085"}
{"name": "RITE AID PHARMACY #01060","address1": "385 OLD GALLATIN ROAD","address2": "","city": "SCOTTSVILLE","state": "KY","zip": "42164","zip+4": "8667","phone": "2702373738"}
{"name": "CVS PHARMACY #06206","address1": "5121 ANTLE DRIVE","address2": "","city": "LOUISVILLE","state": "KY","zip": "40229","zip+4": "0000","phone": "5029662742"}
{"name": "CVS PHARMACY #06380","address1": "1105 PARIS ROAD","address2": "","city": "MAYFIELD","state": "KY","zip": "42066","zip+4": "0000","phone": "5022474073"}
{"name": "LUDLOW PHARMACY","address1": "301 ELM ST","address2": "","city": "LUDLOW","state": "KY","zip": "41016","zip+4": "1494","phone": "8592612210"}
{"name": "NORTHGATE PHARMACY","address1": "3158 LOUISVILLE RD","address2": "","city": "BOWLING GREEN","state": "KY","zip": "42101","zip+4": "0000","phone": "2708426161"}
{"name": "CVS PHARMACY #06340","address1": "197 APPALACHIAN PLAZA","address2": "","city": "SOUTH WILLIAMSON","state": "KY","zip": "41503","zip+4": "0000","phone": "6062376230"}
{"name": "BLUEGRASS PHARMACY","address1": "1128 N MAIN ST","address2": "","city": "MADISONVILLE","state": "KY","zip": "42431","zip+4": "0000","phone": "2708252775"}
{"name": "MEDICA PHARMACY","address1": "202 W STEPHEN FOSTER AVE","address2": "","city": "BARDSTOWN","state": "KY","zip": "40004","zip+4": "0000","phone": "5023486623"}
{"name": "JAMES B HAGGIN MEM HOSP PHCY","address1": "464 LINDEN AVE","address2": "","city": "HARRODSBURG","state": "KY","zip": "40330","zip+4": "1862","phone": "8597334827"}
{"name": "LEXINGTON FAYETTE COUNTY HEALT","address1": "650 NEWTOWN PIKE","address2": "","city": "LEXINGTON","state": "KY","zip": "40508","zip+4": "1197","phone": "6062882478"}
{"name": "MURRAY CALLOWAY CNTY HOSP PHCY","address1": "803 POPLAR ST","address2": "","city": "MURRAY","state": "KY","zip": "42071","zip+4": "2432","phone": "2707621196"}
{"name": "D AND R PHARMACARE LEXINGTON","address1": "921 BEASLEY ST STE 130","address2": "","city": "LEXINGTON","state": "KY","zip": "40509","zip+4": "0000","phone": "8592992161"}
{"name": "PINEVILLE HOSPITAL PHARMACY","address1": "850 RIVERVIEW AVE","address2": "ATTN OUTPATIENT PHARMACY","city": "PINEVILLE","state": "KY","zip": "40977","zip+4": "0000","phone": "6063373051"}
{"name": "PRESCRIPTION DIVISION #Q03","address1": "306 HOSPITAL DR","address2": "","city": "S WILLIAMSON","state": "KY","zip": "41503","zip+4": "4003","phone": "6062371735"}
{"name": "BAPTIST REGIONAL APOTHECARY","address1": "1 TRILLIUM WAY","address2": "","city": "CORBIN","state": "KY","zip": "40701","zip+4": "8426","phone": "6065268335"}
{"name": "WARFIELD PRESCRIPTION CENTER","address1": "1708 BEAUTY RD","address2": "","city": "WARFIELD","state": "KY","zip": "41267","zip+4": "0304","phone": "6063956477"}
{"name": "WESTERN STATE HOSPITAL PHCY","address1": "2400 RUSSELLVILLE RD","address2": "","city": "HOPKINSVILLE","state": "KY","zip": "42240","zip+4": "0000","phone": "2708896025"}
{"name": "WHITESBURG PHARMACY","address1": "246 MEDICAL PLAZA LANE","address2": "STE B","city": "WHITESBURG","state": "KY","zip": "41858","zip+4": "0000","phone": "6066331335"}
{"name": "WALGREEN DRUG STORE #4284","address1": "2840 ALEXANDRIA PIKE","address2": "","city": "HIGHLAND HEIGHTS","state": "KY","zip": "41076","zip+4": "0000","phone": "8597810566"}
{"name": "BETSY LAYNE PHARMACY INC","address1": "11105 S US HWY 23","address2": "STE 111","city": "BETSY LAYNE","state": "KY","zip": "41605","zip+4": "0436","phone": "6064789474"}
{"name": "WALTERS PHARMACY SHOPPE","address1": "3603 CUMBERLAND AVE","address2": "","city": "MIDDLESBORO","state": "KY","zip": "40965","zip+4": "2613","phone": "6062488900"}
{"name": "GRIDER DRUG LLC #2","address1": "124 DOWELL RD","address2": "","city": "RUSSELL SPRINGS","state": "KY","zip": "42642","zip+4": "0000","phone": "2708662686"}
{"name": "CVS PHARMACY #06207","address1": "5300 SOUTH 3RD STREET","address2": "","city": "LOUISVILLE","state": "KY","zip": "40214","zip+4": "0000","phone": "5023612504"}
{"name": "FAMILY DRUG CENTER #1","address1": "110 MANCHESTER SHOPPING CENTER","address2": "","city": "MANCHESTER","state": "KY","zip": "40962","zip+4": "1401","phone": "6065988831"}
{"name": "NATIONS MEDICINES #C2","address1": "415 CARTER RD","address2": "","city": "OWENSBORO","state": "KY","zip": "42301","zip+4": "0216","phone": "2706850557"}
{"name": "KMART PHARMACY #7288","address1": "191 OUTER LOOP","address2": "","city": "LOUISVILLE","state": "KY","zip": "40214","zip+4": "0000","phone": "5023612501"}
{"name": "DAVIS DRUGS","address1": "250 LONE OAK RD","address2": "","city": "PADUCAH","state": "KY","zip": "42001","zip+4": "4400","phone": "2704431442"}
{"name": "SAVE DISCOUNT DRUGS","address1": "716 MADISON AVE","address2": "","city": "COVINGTON","state": "KY","zip": "41011","zip+4": "2412","phone": "8594312857"}
{"name": "WALGREEN DRUG STORE #3618","address1": "2800 S HURSTBOURNE PKY","address2": "","city": "LOUISVILLE","state": "KY","zip": "40220","zip+4": "0000","phone": "5024930832"}
{"name": "CVS PHARMACY #06341","address1": "533 SKIDMORE DRIVE","address2": "","city": "HARLAN","state": "KY","zip": "40831","zip+4": "0000","phone": "6065737334"}
{"name": "CVS PHARMACY #06208","address1": "2410 BARDSTOWN ROAD","address2": "","city": "LOUISVILLE","state": "KY","zip": "40205","zip+4": "0000","phone": "5024596563"}
{"name": "CROFTON PHARMACY","address1": "110 E MAIN ST","address2": "","city": "CROFTON","state": "KY","zip": "42217","zip+4": "9802","phone": "2704248965"}
{"name": "OWSLEY PRESCRIPTION CENTER #00","address1": "HWY 11 NORTH","address2": "","city": "BOONEVILLE","state": "KY","zip": "41314","zip+4": "0000","phone": "6065936306"}
{"name": "COLUMBIA PHARMACY","address1": "803 BURKESVILLE ST","address2": "","city": "COLUMBIA","state": "KY","zip": "42728","zip+4": "0000","phone": "2703842117"}
{"name": "CAYCES PHARMACY INC","address1": "1112 W 7TH ST","address2": "","city": "HOPKINSVILLE","state": "KY","zip": "42240","zip+4": "0000","phone": "2708864466"}
{"name": "PARKWAY PHARMACY","address1": "2354 HWY 15","address2": "","city": "WHITESBURG","state": "KY","zip": "41858","zip+4": "0000","phone": "6066334435"}
{"name": "PROFESSIONAL PHARMACY","address1": "3050 HARRODSBURG RD","address2": "","city": "LEXINGTON","state": "KY","zip": "40503","zip+4": "0000","phone": "8592786449"}
{"name": "CRESTVILLE DRUGS INC","address1": "2446 ANDERSON RD","address2": "","city": "CRESCENT SPGS","state": "KY","zip": "41017","zip+4": "1402","phone": "8593411660"}
{"name": "REYNOLDS PHARMACY","address1": "216 MAIN ST","address2": "","city": "AUGUSTA","state": "KY","zip": "41002","zip+4": "1037","phone": "6067562204"}
{"name": "RITE AID PHARMACY #01212","address1": "308 PARKWAY DRIVE","address2": "","city": "SALYERSVILLE","state": "KY","zip": "41465","zip+4": "9740","phone": "6063491044"}
{"name": "CVS PHARMACY #06209","address1": "4249 OUTER LOOP ROAD","address2": "","city": "LOUISVILLE","state": "KY","zip": "40219","zip+4": "0000","phone": "5029683618"}
{"name": "EDMONTON PHARMACY","address1": "903A W STOCKTON ST","address2": "","city": "EDMONTON","state": "KY","zip": "42129","zip+4": "0000","phone": "2704322822"}
{"name": "CVS PHARMACY #06423","address1": "1122 LOVERS LANE","address2": "","city": "BOWLING GREEN","state": "KY","zip": "42103","zip+4": "0000","phone": "2708424844"}
{"name": "EPHRAIM MCDOWELL REGIONAL MEDI","address1": "217 S 3RD ST","address2": "","city": "DANVILLE","state": "KY","zip": "40422","zip+4": "1894","phone": "8592391709"}
{"name": "JAMESTOWN PHARMACY","address1": "1417 N MAIN ST STE A","address2": "STE A","city": "JAMESTOWN","state": "KY","zip": "42629","zip+4": "7152","phone": "2703434443"}
{"name": "KMART PHARMACY #9749","address1": "951 BYPASS ROAD","address2": "","city": "WINCHESTER","state": "KY","zip": "40391","zip+4": "0000","phone": "8597448698"}
{"name": "SHEARER DRUG","address1": "100 TWIN LAKES","address2": "MEDICAL ARTS BLDG","city": "ALBANY","state": "KY","zip": "42602","zip+4": "1019","phone": "6063876616"}
{"name": "CVS PHARMACY #06210","address1": "211 LOUISVILLE GALLERIA","address2": "","city": "LOUISVILLE","state": "KY","zip": "40202","zip+4": "0000","phone": "5025891846"}
{"name": "CVS PHARMACY #06379","address1": "3275 IRVIN COBB DRIVE","address2": "","city": "PADUCAH","state": "KY","zip": "42003","zip+4": "0000","phone": "5024434885"}
{"name": "KROGER PHARMACY #24705","address1": "890 RICHMOND PLAZA","address2": "","city": "RICHMOND","state": "KY","zip": "40475","zip+4": "0000","phone": "8596241093"}
{"name": "CVS PHARMACY #06116","address1": "3141 DIXIE HIGHWAY","address2": "","city": "ERLANGER","state": "KY","zip": "41018","zip+4": "0000","phone": "8593316878"}
{"name": "WEATHERS DRUGS","address1": "44 PUBLIC SQUARE","address2": "","city": "ELKTON","state": "KY","zip": "42220","zip+4": "0000","phone": "2702652155"}
{"name": "LINCOLN TRAIL PHARMACY","address1": "800 W LINCOLN TRAIL BLVD","address2": "","city": "RADCLIFF","state": "KY","zip": "40160","zip+4": "2606","phone": "2703517200"}
{"name": "KROGER PHARMACY #14381","address1": "1525 MADISON AVE","address2": "","city": "COVINGTON","state": "KY","zip": "41011","zip+4": "0000","phone": "8594315566"}
{"name": "CAVE CITY PRESCRIPTION CENTER","address1": "101 SOUTH DIXIE HWY","address2": "","city": "CAVE CITY","state": "KY","zip": "42127","zip+4": "0000","phone": "2707732252"}
{"name": "WAL-MART PHARMACY #100491","address1": "5130 HINKLEVILLE ROAD","address2": "","city": "PADUCAH","state": "KY","zip": "42001","zip+4": "0000","phone": "2704440046"}
{"name": "FAMILY DRUG CENTER #3","address1": "214 BRIDGE ST","address2": "","city": "MANCHESTER","state": "KY","zip": "40962","zip+4": "1204","phone": "6065986737"}
{"name": "CITIZENS DRUG INC","address1": "13380 PHELPS 632 RD","address2": "","city": "PHELPS","state": "KY","zip": "41553","zip+4": "0000","phone": "6064563446"}
{"name": "FAMILY DRUG CENTER","address1": "284 TOWN MTN RD","address2": "","city": "PIKEVILLE","state": "KY","zip": "41501","zip+4": "0000","phone": "6064325588"}
{"name": "WHITLEYS PHARMACY #0770","address1": "501 N MAIN","address2": "","city": "RUSSELLVILLE","state": "KY","zip": "42276","zip+4": "0000","phone": "2707269592"}
{"name": "RITE AID PHARMACY #01344","address1": "415 N LINCOLN BOULEVARD","address2": "","city": "HODGENVILLE","state": "KY","zip": "42748","zip+4": "1610","phone": "2703583186"}
{"name": "MARTIN PRESCRIPTION CENTER","address1": "12554 MAI ST","address2": "PO BOX 748","city": "MARTIN","state": "KY","zip": "41649","zip+4": "0748","phone": "6062853274"}
{"name": "RITE AID PHARMACY #01357","address1": "4209 NORTH MAYO TRAIL","address2": "","city": "PIKEVILLE","state": "KY","zip": "41501","zip+4": "3210","phone": "6064320331"}
{"name": "CVS PHARMACY #06211","address1": "3721 LEXINGTON ROAD","address2": "","city": "LOUISVILLE","state": "KY","zip": "40207","zip+4": "0000","phone": "5028970622"}
{"name": "J AND L PHARMACY","address1": "705 S BROADWAY","address2": "","city": "GEORGETOWN","state": "KY","zip": "40324","zip+4": "0000","phone": "5028639823"}
{"name": "CVS PHARMACY #06264","address1": "3311 HIGHWAY 54 AND FAIRVIEW R","address2": "","city": "OWENSBORO","state": "KY","zip": "42303","zip+4": "0000","phone": "2709260476"}
{"name": "WALTERS FAMILY PHARMACY INC","address1": "604 S 12TH ST","address2": "","city": "MURRAY","state": "KY","zip": "42071","zip+4": "2916","phone": "2707537688"}
{"name": "MEDICINE SHOPPE PHARMACY #0534","address1": "900 E MOUNT VERNON ST","address2": "","city": "SOMERSET","state": "KY","zip": "42501","zip+4": "0000","phone": "6066799227"}
{"name": "CORNER PRESCRIPTION SHOPPE INC","address1": "401 SYCAMORE ST","address2": "","city": "WILLIAMSBURG","state": "KY","zip": "40769","zip+4": "1136","phone": "6065490884"}
{"name": "WAL-MART PHARMACY #100431","address1": "3220 IRVING COBB DRIVE","address2": "","city": "PADUCAH","state": "KY","zip": "42003","zip+4": "0000","phone": "2704426404"}
{"name": "RITE AID PHARMACY #01377","address1": "2307 EAST MAIN STREET","address2": "","city": "CUMBERLAND","state": "KY","zip": "40823","zip+4": "1910","phone": "6065892234"}
{"name": "RITE AID PHARMACY #01387","address1": "183 SOUTH HWY 127","address2": "BOX 2","city": "RUSSELL SPRINGS","state": "KY","zip": "42642","zip+4": "0408","phone": "2708662226"}
{"name": "CVS PHARMACY #06343","address1": "30 SOUTH KENTUCKY HIGHWAY 15","address2": "","city": "HAZARD","state": "KY","zip": "41701","zip+4": "0000","phone": "6064363128"}
{"name": "CVS PHARMACY #06346","address1": "255 EAST MAIN STREET","address2": "","city": "RICHMOND","state": "KY","zip": "40475","zip+4": "0000","phone": "8596237481"}
{"name": "EAST BROADWAY PHARMACY","address1": "2304 HURSTBOURNE VILLAGE DR","address2": "STE 700","city": "LOUISVILLE","state": "KY","zip": "40299","zip+4": "0000","phone": "5025891828"}
{"name": "RITE AID PHARMACY #00982","address1": "200 ROCKCASTLE ROAD","address2": "","city": "INEZ","state": "KY","zip": "41224","zip+4": "0696","phone": "6062984215"}
{"name": "KROGER PHARMACY #24355","address1": "515 NORTH 12TH STREET","address2": "","city": "MIDDLESBORO","state": "KY","zip": "40965","zip+4": "0000","phone": "6062482093"}
{"name": "GIBSONS DISCOUNT PHARMACY","address1": "715 E BROADWAY ST","address2": "","city": "MAYFIELD","state": "KY","zip": "42066","zip+4": "2425","phone": "2702477300"}
{"name": "GLENNS APOTHECARY","address1": "520 W GUM","address2": "","city": "MARION","state": "KY","zip": "42064","zip+4": "1541","phone": "2709654101"}
{"name": "KROGER PHARMACY #14277","address1": "2156 DIXIE HWY","address2": "","city": "FT MITCHELL","state": "KY","zip": "41017","zip+4": "0000","phone": "8593310078"}
{"name": "KROGER PHARMACY #14359","address1": "53 DONNERMEYER DR","address2": "","city": "BELLEVUE","state": "KY","zip": "41073","zip+4": "0000","phone": "8594315413"}
{"name": "CVS PHARMACY #06383","address1": "307 STURGIS ROAD","address2": "","city": "MARION","state": "KY","zip": "42064","zip+4": "0000","phone": "5029654114"}
{"name": "RUWE FAMILY PHARMACY","address1": "434 SCOTT ST","address2": "","city": "COVINGTON","state": "KY","zip": "41011","zip+4": "2417","phone": "8594313304"}
{"name": "L B CLINIC PHARMACY","address1": "464 ROUTE 699","address2": "","city": "CORNETTSVILLE","state": "KY","zip": "41731","zip+4": "0000","phone": "6064762863"}
{"name": "MEDICAL ARTS PHARMACY","address1": "1220 N RACE ST","address2": "","city": "GLASGOW","state": "KY","zip": "42141","zip+4": "3454","phone": "2706517030"}
{"name": "DRIVE IN PHARMACYINC","address1": "688 S HWY 25 W","address2": "","city": "WILLIAMSBURG","state": "KY","zip": "40769","zip+4": "0000","phone": "6065490888"}
{"name": "MORGAN DRUG STORE","address1": "325 HWY 42 EAST","address2": "","city": "BEDFORD","state": "KY","zip": "40006","zip+4": "0215","phone": "5022553540"}
{"name": "RITE AID PHARMACY #01540","address1": "2300 HIGHWAY 15","address2": "","city": "WHITESBURG","state": "KY","zip": "41858","zip+4": "7413","phone": "6066321936"}
{"name": "PATS PHARMACY INC","address1": "498 W MAIN ST","address2": "","city": "LEBANON","state": "KY","zip": "40033","zip+4": "1362","phone": "2706924950"}
{"name": "CAMPTON DISCOUNT DRUGS","address1": "40 MAIN ST","address2": "STE 2","city": "CAMPTON","state": "KY","zip": "41301","zip+4": "0000","phone": "6066683153"}
{"name": "ARCHER CLINIC PHARMACY","address1": "400 UNIVERSITY DR","address2": "STE 100","city": "PRESTONSBURG","state": "KY","zip": "41653","zip+4": "1063","phone": "6068861202"}
{"name": "FORT THOMAS DRUG CENTER","address1": "26 N FORT THOMAS AVE","address2": "","city": "FT THOMAS","state": "KY","zip": "41075","zip+4": "1517","phone": "8594411140"}
{"name": "KROGER PHARMACY #24327","address1": "2710 WEST BROADWAY ST","address2": "","city": "LOUISVILLE","state": "KY","zip": "40211","zip+4": "0000","phone": "5027783348"}
{"name": "KROGER PHARMACY #24315","address1": "704 EUCLID AVENUE","address2": "","city": "LEXINGTON","state": "KY","zip": "40502","zip+4": "0000","phone": "8592663331"}
{"name": "UPPER LEVISA CLINIC PHARMACY","address1": "137 N LEVISA RD HWY 1499","address2": "","city": "MOUTHCARD","state": "KY","zip": "41548","zip+4": "9701","phone": "6068352411"}
{"name": "MEDICAL PLAZA PHARMACY","address1": "700 ST CHRISTOPHER DR","address2": "","city": "ASHLAND","state": "KY","zip": "41101","zip+4": "7014","phone": "6068333510"}
{"name": "WAL-MART PHARMACY #100299","address1": "150 WALTON AVENUE","address2": "","city": "BOWLING GREEN","state": "KY","zip": "42104","zip+4": "0000","phone": "2707829785"}
{"name": "WAL-MART PHARMACY #100701","address1": "5031 FREDERICA STREET","address2": "","city": "OWENSBORO","state": "KY","zip": "42301","zip+4": "0000","phone": "2706850027"}
{"name": "RITE AID PHARMACY #01607","address1": "103 GLYNNVIEW PLAZA","address2": "","city": "PRESTONSBURG","state": "KY","zip": "41653","zip+4": "7963","phone": "6068861255"}
{"name": "WALGREEN DRUG STORE #1513","address1": "2701 S 4TH ST","address2": "","city": "LOUISVILLE","state": "KY","zip": "40208","zip+4": "0000","phone": "5026362631"}
{"name": "KROGER PHARMACY #14366","address1": "7747 MALL RD","address2": "","city": "FLORENCE","state": "KY","zip": "41042","zip+4": "0000","phone": "8595250391"}
{"name": "RITE AID PHARMACY #01436","address1": "100 HOLLY HILLS MALL","address2": "","city": "HINDMAN","state": "KY","zip": "41822","zip+4": "9086","phone": "6067854960"}
{"name": "THE PRESCRIPTION PAD","address1": "930 S MAIN ST","address2": "","city": "NICHOLASVILLE","state": "KY","zip": "40356","zip+4": "0000","phone": "8598872841"}
{"name": "RITE AID PHARMACY #01656","address1": "1320 CUMBERLAND FALLS HIGHWAY","address2": "","city": "CORBIN","state": "KY","zip": "40701","zip+4": "2719","phone": "6065288270"}
{"name": "RITE AID PHARMACY #01657","address1": "116 NORTH  PINE STREET","address2": "","city": "PINEVILLE","state": "KY","zip": "40977","zip+4": "1647","phone": "6063376548"}
{"name": "KROGER PHARMACY #24780","address1": "10645 DIXIE HIGHWAY","address2": "","city": "LOUISVILLE","state": "KY","zip": "40272","zip+4": "0000","phone": "5029370303"}
{"name": "KROGER PHARMACY #24352","address1": "150 W LOWRY LN STE 190","address2": "STE 190","city": "LEXINGTON","state": "KY","zip": "40503","zip+4": "0000","phone": "8592762119"}
{"name": "CLINIC PHARMACY #004","address1": "789 PARKWAY DR","address2": "","city": "SALYERSVILLE","state": "KY","zip": "41465","zip+4": "0314","phone": "6063491700"}
{"name": "LAUREL HEIGHTS NURSING HOME PH","address1": "208 W 12TH ST","address2": "","city": "LONDON","state": "KY","zip": "40741","zip+4": "0000","phone": "6068644155"}
{"name": "WALGREEN DRUG STORE #4123","address1": "1602 NORTH DIXIE HIGHWAY","address2": "","city": "ELIZABETHTOWN","state": "KY","zip": "42701","zip+4": "0000","phone": "2707373716"}
{"name": "WALGREEN DRUG STORE #10206","address1": "2290 NICHOLASVILLE RD","address2": "","city": "LEXINGTON","state": "KY","zip": "40503","zip+4": "0000","phone": "8592761553"}
{"name": "DON AND DAISYS PHARMACY PLUS","address1": "720 W BYERS AVENUE","address2": "","city": "OWENSBORO","state": "KY","zip": "42303","zip+4": "0000","phone": "2706832400"}
{"name": "CVS PHARMACY #06940","address1": "318 SOUTHLAND DRIVE","address2": "","city": "LEXINGTON","state": "KY","zip": "40503","zip+4": "0000","phone": "8592765493"}
{"name": "CVS PHARMACY #06941","address1": "180 NEW CIRCLE ROAD","address2": "","city": "LEXINGTON","state": "KY","zip": "40505","zip+4": "0000","phone": "8592541325"}
{"name": "CLINIC PHARMACY","address1": "412 LIBERTY RD","address2": "","city": "WEST LIBERTY","state": "KY","zip": "41472","zip+4": "0227","phone": "6067434957"}
{"name": "CVS PHARMACY #06384","address1": "ROUTE 1 BOX 488 HWY 41A","address2": "","city": "PROVIDENCE","state": "KY","zip": "42450","zip+4": "0000","phone": "2706677031"}
{"name": "RITE AID PHARMACY #01743","address1": "100 SOUTH CAROL MALONE BOULEVA","address2": "","city": "GRAYSON","state": "KY","zip": "41143","zip+4": "1352","phone": "6064744470"}
{"name": "KROGER PHARMACY #24361","address1": "1808 ALEXANDRIA DR","address2": "","city": "LEXINGTON","state": "KY","zip": "40504","zip+4": "0000","phone": "8592770767"}
{"name": "WAL-MART PHARMACY #100294","address1": "1725 WEST EVERELY BROTHERS BLV","address2": "","city": "CENTRAL CITY","state": "KY","zip": "42330","zip+4": "0000","phone": "2707543924"}
{"name": "THOMPSON DISCOUNT DRUG","address1": "804 E 4TH ST","address2": "","city": "LONDON","state": "KY","zip": "40741","zip+4": "0000","phone": "6068787713"}
{"name": "FAMILY DISCOUNT DRUG","address1": "60 SLATE AVE","address2": "","city": "OWINGSVILLE","state": "KY","zip": "40360","zip+4": "0000","phone": "6066746979"}
{"name": "MEDICINE CENTRE PHARMACY #0762","address1": "325 E BROADWAY","address2": "","city": "CAMPBELLSVILLE","state": "KY","zip": "42718","zip+4": "0000","phone": "2704653784"}
{"name": "MEDICINE SHOPPE #1311","address1": "ROUTE 40 EAST","address2": "","city": "INEZ","state": "KY","zip": "41224","zip+4": "0000","phone": "6062987774"}
{"name": "WAL-MART PHARMACY #100689","address1": "177 WASHINGTON DRIVE","address2": "","city": "SOMERSET","state": "KY","zip": "42503","zip+4": "0000","phone": "6066798466"}
{"name": "STUFFLEBEAN PHARMACY #003","address1": "1031 GRAND AVE","address2": "","city": "BEATTYVILLE","state": "KY","zip": "41311","zip+4": "0346","phone": "6064643396"}
{"name": "CAPITAL PHARMACY AND MED EQUIP","address1": "662 E MAIN ST","address2": "","city": "FRANKFORT","state": "KY","zip": "40601","zip+4": "0000","phone": "5022232827"}
{"name": "WAL-MART PHARMACY #100410","address1": "809 NORTH 12TH STREET","address2": "","city": "MURRAY","state": "KY","zip": "42071","zip+4": "0000","phone": "2707530287"}
{"name": "KROGER PHARMACY #24362","address1": "111 TOWNE DRIVE","address2": "","city": "ELIZABETHTOWN","state": "KY","zip": "42701","zip+4": "0000","phone": "2707371710"}
{"name": "KROGER PHARMACY #24347","address1": "4101 TATES CREEK","address2": "","city": "LEXINGTON","state": "KY","zip": "40517","zip+4": "0000","phone": "8592722575"}
{"name": "KYVA PHARMACY","address1": "109 E MAIN ST","address2": "","city": "WHITESBURG","state": "KY","zip": "41858","zip+4": "1162","phone": "6066334488"}
{"name": "KROGER PHARMACY #25414","address1": "3141 PARK AVENUE","address2": "","city": "PADUCAH","state": "KY","zip": "42002","zip+4": "0000","phone": "2704439459"}
{"name": "RITE AID PHARMACY #01737","address1": "US 23 AT 35TH STREET","address2": "","city": "CATLETTSBURG","state": "KY","zip": "41129","zip+4": "9803","phone": "6067394432"}
{"name": "RITE AID PHARMACY #01781","address1": "125 NORTH MAIN STREET","address2": "","city": "STANTON","state": "KY","zip": "40380","zip+4": "2174","phone": "6066632521"}
{"name": "KROGER PHARMACY #24729","address1": "3616 BUECHEL BYPASS","address2": "","city": "LOUISVILLE","state": "KY","zip": "40218","zip+4": "0000","phone": "5024589511"}
{"name": "WAL-MART PHARMACY #100655","address1": "1756 EAST CENTER ST","address2": "","city": "MADISONVILLE","state": "KY","zip": "42431","zip+4": "0000","phone": "2708214031"}
{"name": "BARDWELL PHARMACY","address1": "178 US HWY 51 N","address2": "","city": "BARDWELL","state": "KY","zip": "42023","zip+4": "0000","phone": "2706285445"}
{"name": "RITE AID PHARMACY #01744","address1": "1040 RICHMOND STREET","address2": "","city": "MT VERNON","state": "KY","zip": "40456","zip+4": "1003","phone": "6062569207"}
{"name": "RITE AID PHARMACY #01770","address1": "275 PRESTONSBURG STREET","address2": "","city": "WEST LIBERTY","state": "KY","zip": "41472","zip+4": "1135","phone": "6067433425"}
{"name": "PROFESSIONAL CARE PHARMACY","address1": "15 2ND ST","address2": "","city": "VANCEBURG","state": "KY","zip": "41179","zip+4": "0000","phone": "6067966100"}
{"name": "SAVE-RITE FAMILY PHARMACY INC","address1": "1150 MASTER ST","address2": "","city": "CORBIN","state": "KY","zip": "40701","zip+4": "2563","phone": "6065287770"}
{"name": "RITE AID PHARMACY #01812","address1": "410 WEST TOM T HALL BOULEVARD","address2": "","city": "OLIVE HILL","state": "KY","zip": "41164","zip+4": "1328","phone": "6062862322"}
{"name": "HAZARD ARH REG MED CTR CLINIC","address1": "200 MEDICAL CENTER DR","address2": "","city": "HAZARD","state": "KY","zip": "41701","zip+4": "9422","phone": "6064396776"}
{"name": "WALGREEN DRUG STORE #9524","address1": "10201 DIXIE HWY","address2": "","city": "LOUISVILLE","state": "KY","zip": "40272","zip+4": "0000","phone": "5029334001"}
{"name": "WAL-MART PHARMACY #101048","address1": "589 HWY WEST 92","address2": "","city": "WILLIAMSBURG","state": "KY","zip": "40769","zip+4": "0000","phone": "6065494087"}
{"name": "OMNICARE OF ASHLANDKENTUCKY","address1": "720 GREENUP AVE","address2": "","city": "ASHLAND","state": "KY","zip": "41101","zip+4": "0000","phone": "6063251483"}
{"name": "WALGREEN DRUG STORE #9162","address1": "6617 DIXIE HWY","address2": "","city": "FLORENCE","state": "KY","zip": "41042","zip+4": "0000","phone": "8593426122"}
{"name": "WAL-MART PHARMACY #101113","address1": "1851 WEST HWY 192","address2": "","city": "LONDON","state": "KY","zip": "40741","zip+4": "0000","phone": "6068786143"}
{"name": "KROGER PHARMACY #24345","address1": "2835 S HWY 27 STE 92","address2": "","city": "SOMERSET","state": "KY","zip": "42501","zip+4": "0000","phone": "6066784012"}
{"name": "EMORY CENTRE PHARMACY","address1": "527 EMORY DR","address2": "STE 7","city": "OWENSBORO","state": "KY","zip": "42301","zip+4": "6186","phone": "2706840649"}
{"name": "KROGER PHARMACY #24356","address1": "12501 SHELBYVILLE RD","address2": "","city": "MIDDLETOWN","state": "KY","zip": "40243","zip+4": "0000","phone": "5022447960"}
{"name": "KROGER PHARMACY #24360","address1": "6900 BARDSTOWN ROAD","address2": "","city": "LOUISVILLE","state": "KY","zip": "40291","zip+4": "0000","phone": "5022392322"}
{"name": "RITE AID PHARMACY #01755","address1": "933 BLACKBURN AVENUE","address2": "","city": "ASHLAND","state": "KY","zip": "41101","zip+4": "4503","phone": "6063240372"}
{"name": "WAL-MART PHARMACY #100694","address1": "1195 BARRETT BLVD","address2": "","city": "HENDERSON","state": "KY","zip": "42420","zip+4": "0000","phone": "2708266926"}
{"name": "JOHNS CREEK DRUG CENTER","address1": "6162 ZEBULON HWY","address2": "","city": "PIKEVILLE","state": "KY","zip": "41501","zip+4": "0000","phone": "6066319137"}
{"name": "MCMEANS PHARMACY","address1": "336 29TH ST","address2": "","city": "ASHLAND","state": "KY","zip": "41101","zip+4": "0000","phone": "6063258400"}
{"name": "KROGER PHARMACY #24363","address1": "US 127 CARDINAL DRIVE","address2": "","city": "HARRODSBURG","state": "KY","zip": "40330","zip+4": "0000","phone": "8597340081"}
{"name": "PARKWAY PHARMACY","address1": "726 S US HWY 25 E","address2": "","city": "BARBOURVILLE","state": "KY","zip": "40906","zip+4": "0310","phone": "6065463464"}
{"name": "WAL-MART PHARMACY #101170","address1": "10445 DIXIE HIGHWAY","address2": "","city": "LOUISVILLE","state": "KY","zip": "40272","zip+4": "0000","phone": "5029353265"}
{"name": "RITE AID PHARMACY #01965","address1": "805 BARDSTOWN ROAD","address2": "SUITE 1","city": "SPRINGFIELD","state": "KY","zip": "40069","zip+4": "1513","phone": "8593369004"}
{"name": "KMART PHARMACY #3646","address1": "2945 SCOTTSVILLE ROAD","address2": "","city": "BOWLING GREEN","state": "KY","zip": "42101","zip+4": "0000","phone": "2707821461"}
{"name": "KROGER PHARMACY #24350","address1": "5533 NEW CUT RD","address2": "","city": "LOUISVILLE","state": "KY","zip": "40214","zip+4": "0000","phone": "5023617238"}
{"name": "WALGREEN DRUG STORE #5449","address1": "3600 FERN VALLEY RD","address2": "","city": "LOUISVILLE","state": "KY","zip": "40219","zip+4": "0000","phone": "5029640906"}
{"name": "CHRISTIAN HEALTH CENTER PHCY","address1": "COMMONWEALTH AVE","address2": "","city": "CORBIN","state": "KY","zip": "40701","zip+4": "2505","phone": "6065282886"}
{"name": "KROGER PHARMACY #24376","address1": "4501 OUTER LOOP","address2": "","city": "LOUISVILLE","state": "KY","zip": "40219","zip+4": "0000","phone": "5029692836"}
{"name": "RITE AID PHARMACY #03908","address1": "1605 MIDLAND TRAIL","address2": "","city": "SHELBYVILLE","state": "KY","zip": "40065","zip+4": "1638","phone": "5026332606"}
{"name": "RITE AID PHARMACY #03910","address1": "878 EAST HIGH STREET","address2": "","city": "LEXINGTON","state": "KY","zip": "40502","zip+4": "2135","phone": "8592661171"}
{"name": "RITE AID PHARMACY #03912","address1": "1307 WINCHESTER ROAD","address2": "","city": "LEXINGTON","state": "KY","zip": "40505","zip+4": "4124","phone": "8592544471"}
{"name": "RITE AID PHARMACY #03913","address1": "2284 VERSAILLES ROAD","address2": "","city": "LEXINGTON","state": "KY","zip": "40504","zip+4": "0000","phone": "8592783471"}
{"name": "RITE AID PHARMACY #03914","address1": "103 ASH DRIVE","address2": "","city": "PARIS","state": "KY","zip": "40361","zip+4": "1282","phone": "8599871210"}
{"name": "RITE AID PHARMACY #03915","address1": "1250 SOUTH HIGHWAY 27","address2": "","city": "SOMERSET","state": "KY","zip": "42501","zip+4": "3525","phone": "6066760485"}
{"name": "RITE AID PHARMACY #03916","address1": "560 MANCHESTER SQUARE","address2": "","city": "MANCHESTER","state": "KY","zip": "40962","zip+4": "0007","phone": "6065980414"}
{"name": "RITE AID PHARMACY #03918","address1": "1115 KIM KENT DRIVE","address2": "","city": "RICHMOND","state": "KY","zip": "40475","zip+4": "2901","phone": "8596235812"}
{"name": "RITE AID PHARMACY #03919","address1": "297 TERRELL LANE","address2": "","city": "BARBOURVILLE","state": "KY","zip": "40906","zip+4": "7308","phone": "6065469241"}
{"name": "RITE AID PHARMACY #03920","address1": "1160 US HIGHWAY 68","address2": "","city": "MAYSVILLE","state": "KY","zip": "41056","zip+4": "1626","phone": "6065644044"}
{"name": "RITE AID PHARMACY #03921","address1": "3349 TATES CREEK ROAD","address2": "","city": "LEXINGTON","state": "KY","zip": "40502","zip+4": "3409","phone": "8592660413"}
{"name": "RITE AID PHARMACY #03922","address1": "654 UNIVERSITY SHOPPING CENTER","address2": "","city": "RICHMOND","state": "KY","zip": "40475","zip+4": "2617","phone": "8596237326"}
{"name": "RITE AID PHARMACY #03926","address1": "517 NORTH GREEN STREET","address2": "","city": "HENDERSON","state": "KY","zip": "42420","zip+4": "2947","phone": "2708271897"}
{"name": "RITE AID PHARMACY #03931","address1": "2700 RICHMOND ROAD","address2": "","city": "LEXINGTON","state": "KY","zip": "40509","zip+4": "1503","phone": "8592695396"}
{"name": "RITE AID PHARMACY #03932","address1": "839 SOUTH MAIN STREET","address2": "839 S MAIN ST","city": "LONDON","state": "KY","zip": "40741","zip+4": "1996","phone": "6068647368"}
{"name": "RITE AID PHARMACY #03935","address1": "310 GLADES ROAD","address2": "","city": "BEREA","state": "KY","zip": "40403","zip+4": "1327","phone": "8599863103"}
{"name": "RITE AID PHARMACY #03936","address1": "204 PARK AVENUE","address2": "","city": "CARROLLTON","state": "KY","zip": "41008","zip+4": "9513","phone": "5027324392"}
{"name": "RITE AID PHARMACY #03938","address1": "629 US HIGHWAY 27 SOUTH","address2": "","city": "CYNTHIANA","state": "KY","zip": "41031","zip+4": "6001","phone": "8592346111"}
{"name": "RITE AID PHARMACY #03939","address1": "101 EASTWOOD SHOPPING CENTER","address2": "","city": "FRANKFORT","state": "KY","zip": "40601","zip+4": "3277","phone": "5026955626"}
{"name": "RITE AID PHARMACY #03943","address1": "110 RICHMOND ROAD","address2": "","city": "IRVINE","state": "KY","zip": "40336","zip+4": "9316","phone": "6067232146"}
{"name": "RITE AID PHARMACY #03947","address1": "1335 S BROADWAY","address2": "","city": "LEXINGTON","state": "KY","zip": "40504","zip+4": "2703","phone": "8592547777"}
{"name": "RITE AID PHARMACY #03949","address1": "3120 PIMLICO HIGHWAY","address2": "SUITE 178","city": "LEXINGTON","state": "KY","zip": "40517","zip+4": "4063","phone": "8592737963"}
{"name": "RITE AID PHARMACY #03954","address1": "4101 TATES CREEK ROAD","address2": "4101 TATES CREEK ROAD","city": "LEXINGTON","state": "KY","zip": "40517","zip+4": "3057","phone": "8592730222"}
{"name": "WALGREEN DRUG STORE #3677","address1": "12101 SHELBYVILLE ROAD","address2": "","city": "MIDDLETOWN","state": "KY","zip": "40243","zip+4": "0000","phone": "5022447035"}
{"name": "FAMILY PHARMACY","address1": "412 CENTRAL AVE","address2": "","city": "S WILLIAMSON","state": "KY","zip": "41503","zip+4": "4121","phone": "6062377430"}
{"name": "WAL-MART PHARMACY #100696","address1": "477 VILLAGE DRIVE","address2": "","city": "PRESTONSBURG","state": "KY","zip": "41653","zip+4": "0000","phone": "6068861100"}
{"name": "WAL-MART PHARMACY #100711","address1": "2345 HAPPY VALLEY ROAD","address2": "","city": "GLASGOW","state": "KY","zip": "42141","zip+4": "0000","phone": "2706787350"}
{"name": "MEDICINE STOP PHARMACY","address1": "1339 S MAIN ST","address2": "","city": "PARIS","state": "KY","zip": "40361","zip+4": "0000","phone": "8599874023"}
{"name": "CVS PHARMACY #06942","address1": "3097 TODDS ROAD","address2": "","city": "LEXINGTON","state": "KY","zip": "40509","zip+4": "0000","phone": "8592663202"}
{"name": "WAL-MART PHARMACY #101189","address1": "301 PARKWAY PLAZA","address2": "","city": "BARBOURVILLE","state": "KY","zip": "40906","zip+4": "0000","phone": "6065465477"}
{"name": "WAL-MART PHARMACY #101233","address1": "470 NO. MAYO TRAIL","address2": "","city": "PAINTSVILLE","state": "KY","zip": "41240","zip+4": "0000","phone": "6067898925"}
{"name": "WAL-MART PHARMACY #100736","address1": "120 SAM WALTON DRIVE","address2": "","city": "RUSSELLVILLE","state": "KY","zip": "42276","zip+4": "0000","phone": "2707262966"}
{"name": "KROGER PHARMACY #24379","address1": "9080 TAYLORSVILLE RD","address2": "","city": "LOUISVILLE","state": "KY","zip": "40299","zip+4": "0000","phone": "5024997044"}
{"name": "SHELDON'S EXPRESS PHARMACY #1","address1": "843 FAIRVIEW AVE","address2": "","city": "BOWLING GREEN","state": "KY","zip": "42101","zip+4": "0000","phone": "2708424515"}
{"name": "WAL-MART PHARMACY #101234","address1": "1461 EAST HWY 90 BYPASS","address2": "","city": "MONTICELLO","state": "KY","zip": "42633","zip+4": "0000","phone": "6063483333"}
{"name": "WAL-MART PHARMACY #101269","address1": "1915 SOUTH HURSTBOURNE PARKWAY","address2": "","city": "LOUISVILLE","state": "KY","zip": "40220","zip+4": "0000","phone": "5024991355"}
{"name": "NORTONVILLE DRUG STORE INC","address1": "102 GREENVILLE RD","address2": "","city": "NORTONVILLE","state": "KY","zip": "42442","zip+4": "0000","phone": "2706768268"}
{"name": "GARRYS PHARMACY","address1": "441 PARKWAY DR","address2": "","city": "SALYERSVILLE","state": "KY","zip": "41465","zip+4": "0000","phone": "6063496135"}
{"name": "WAL-MART PHARMACY #101259","address1": "60 SOUTH STEWART ROAD","address2": "","city": "CORBIN","state": "KY","zip": "40701","zip+4": "0000","phone": "6065232206"}
{"name": "DRAFFENVILLE PHARMACY","address1": "153 US HWY 68E","address2": "","city": "BENTON","state": "KY","zip": "42025","zip+4": "0000","phone": "2705271404"}
{"name": "KROGER PHARMACY #14901","address1": "3158 DIXIE HWY","address2": "","city": "ERLANGER","state": "KY","zip": "41018","zip+4": "0000","phone": "8593440434"}
{"name": "KROGER PHARMACY #14946","address1": "70 MARTHA LAYNE COLLINS","address2": "","city": "COLD SPRING","state": "KY","zip": "41076","zip+4": "0000","phone": "8597816372"}
{"name": "W T FROMAN DRUG CO","address1": "117 SETTLERS CENTER RD","address2": "","city": "TAYLORSVILLE","state": "KY","zip": "40071","zip+4": "0000","phone": "5024772267"}
{"name": "KROGER PHARMACY #24346","address1": "3039 BRECKINRIDGE LANE","address2": "","city": "LOUISVILLE","state": "KY","zip": "40220","zip+4": "0000","phone": "5024546138"}
{"name": "ANDERSON COUNTY DISCOUNT PHARM","address1": "506 WEST BROADWAY","address2": "","city": "LAWRENCEBURG","state": "KY","zip": "40342","zip+4": "0000","phone": "5028395147"}
{"name": "WAL-MART PHARMACY #100430","address1": "1225 PARIS ROAD","address2": "","city": "MAYFIELD","state": "KY","zip": "42066","zip+4": "0000","phone": "2702472280"}
{"name": "WAL-MART PHARMACY #100665","address1": "725 CAMPBELLSVILLE BYPASS","address2": "","city": "CAMPBELLSVILLE","state": "KY","zip": "42718","zip+4": "0000","phone": "2707890734"}
{"name": "WAL-MART PHARMACY #101247","address1": "120 DANIEL BOONE PLAZA","address2": "","city": "HAZARD","state": "KY","zip": "41701","zip+4": "0000","phone": "6064391871"}
{"name": "RITE AID PHARMACY #02290","address1": "152 COLLINS CIRCLE","address2": "","city": "PRESTONSBURG","state": "KY","zip": "41653","zip+4": "7913","phone": "6068863884"}
{"name": "BAKERS PHARMACY","address1": "3399 MAIN ST","address2": "","city": "STAMPING GROUND","state": "KY","zip": "40379","zip+4": "0179","phone": "5025354466"}
{"name": "LACKEY PHARMACY","address1": "RT 550 AT MILLARD ALLEN RD","address2": "","city": "LACKEY","state": "KY","zip": "41643","zip+4": "9800","phone": "6063582661"}
{"name": "PLAZA PHARMACY","address1": "1220 RICHMOND RD","address2": "","city": "IRVINE","state": "KY","zip": "40336","zip+4": "0000","phone": "6067235315"}
{"name": "CVS PHARMACY #06119","address1": "2001 MADISON AVENUE","address2": "","city": "COVINGTON","state": "KY","zip": "41014","zip+4": "0000","phone": "6065810835"}
{"name": "KROGER PHARMACY #24369","address1": "US 68 AND HIGHWAY 210","address2": "","city": "CAMPBELLSVILLE","state": "KY","zip": "42718","zip+4": "0000","phone": "2704655782"}
{"name": "RITE AID PHARMACY #02471","address1": "1921 WEST PARRISH AVENUE","address2": "","city": "OWENSBORO","state": "KY","zip": "42301","zip+4": "3542","phone": "2706830223"}
{"name": "KROGER PHARMACY #24371","address1": "3650 BOSTON ROAD","address2": "","city": "LEXINGTON","state": "KY","zip": "40514","zip+4": "0000","phone": "8592230959"}
{"name": "RITE AID PHARMACY #02459","address1": "262 KY ROUTE 122","address2": "","city": "MARTIN","state": "KY","zip": "41649","zip+4": "7814","phone": "6062859908"}
{"name": "JEFFS PHARMACY","address1": "120 LOTHBURY AVE","address2": "","city": "MIDDLESBORO","state": "KY","zip": "40965","zip+4": "0954","phone": "6062480171"}
{"name": "RITE AID PHARMACY #02420","address1": "500 NORTH HIGHWAY 27","address2": "","city": "WHITLEY CITY","state": "KY","zip": "42653","zip+4": "0930","phone": "6063763307"}
{"name": "RITE AID PHARMACY #02558","address1": "610 RIVER RIDGE PLAZA","address2": "","city": "BRANDENBURG","state": "KY","zip": "40108","zip+4": "1730","phone": "2704225300"}
{"name": "RITE AID PHARMACY #02439","address1": "21287 HIGHWAY 421","address2": "PO BOX 1665","city": "HYDEN","state": "KY","zip": "41749","zip+4": "1665","phone": "6066723811"}
{"name": "WALGREEN DRUG STORE #4586","address1": "7914 FEGENBUSH LANE","address2": "","city": "LOUISVILLE","state": "KY","zip": "40228","zip+4": "0000","phone": "5022311573"}
{"name": "RITE AID PHARMACY #02457","address1": "603 COLUMBIA HIGHWAY","address2": "","city": "GREENSBURG","state": "KY","zip": "42743","zip+4": "1115","phone": "2709324518"}
{"name": "OMNICARE OF HENDERSON KENTUCKY","address1": "1900 US HIGHWAY 41 NORTH","address2": "STE 4","city": "HENDERSON","state": "KY","zip": "42420","zip+4": "0000","phone": "2708266790"}
{"name": "KMART PHARMACY #3688","address1": "2606 ZION RD","address2": "","city": "HENDERSON","state": "KY","zip": "42420","zip+4": "0000","phone": "2708274151"}
{"name": "MEDI CENTER DRUGS","address1": "509 MEMORIAL DR","address2": "STE 1","city": "MANCHESTER","state": "KY","zip": "40962","zip+4": "0000","phone": "6065987933"}
{"name": "PULMO DOSE PHARMACY","address1": "104 MAX HURT DRIVE","address2": "","city": "MURRAY","state": "KY","zip": "42071","zip+4": "0000","phone": "2707598889"}
{"name": "MEDICINE SHOPPE PHARMACY #0586","address1": "636 S COLLEGE ST","address2": "","city": "HARRODSBURG","state": "KY","zip": "40330","zip+4": "0000","phone": "8597344314"}
{"name": "WAL-MART PHARMACY #101510","address1": "7625 DOERING DRIVE","address2": "","city": "FLORENCE","state": "KY","zip": "41042","zip+4": "0000","phone": "8592828833"}
{"name": "WALGREEN DRUG STORE #6642","address1": "1747 PATRICK DRIVE S","address2": "","city": "BURLINGTON","state": "KY","zip": "41005","zip+4": "0000","phone": "8595865700"}
{"name": "TOTAL CARE PHARMACY #1","address1": "209 S MAIN CROSS ST","address2": "","city": "FLEMINGSBURG","state": "KY","zip": "41041","zip+4": "0000","phone": "6068452101"}
{"name": "TOTAL CARE PHARMACY #2","address1": "118 CLARK ST","address2": "","city": "FLEMINGSBURG","state": "KY","zip": "41041","zip+4": "1297","phone": "6068453421"}
{"name": "WAL-MART PHARMACY #101505","address1": "254 CASSIDY BLVD","address2": "","city": "PIKEVILLE","state": "KY","zip": "41501","zip+4": "0000","phone": "6064326180"}
{"name": "RITE AID PHARMACY #02643","address1": "201 SOUTH MAIN STREET","address2": "","city": "GREENVILLE","state": "KY","zip": "42345","zip+4": "1507","phone": "2703384241"}
{"name": "RITE AID PHARMACY #02573","address1": "3735 PALOMAR CENTRE DRIVE","address2": "SUITE 80","city": "LEXINGTON","state": "KY","zip": "40513","zip+4": "1168","phone": "8592230701"}
{"name": "RITE AID PHARMACY #02655","address1": "1735 SCHERM ROAD","address2": "","city": "OWENSBORO","state": "KY","zip": "42301","zip+4": "5972","phone": "2706853143"}
{"name": "RITE AID PHARMACY #02656","address1": "2380 NASHVILLE ROAD","address2": "2380 NASHVILLE RD","city": "BOWLING GREEN","state": "KY","zip": "42101","zip+4": "3755","phone": "2708426301"}
{"name": "RITE AID PHARMACY #02657","address1": "508 WEST DIXIE AVENUE","address2": "","city": "ELIZABETHTOWN","state": "KY","zip": "42701","zip+4": "2437","phone": "2707693367"}
{"name": "RITE AID PHARMACY #02659","address1": "951 S. MAIN STREET","address2": "951 S MAIN ST","city": "NICHOLASVILLE","state": "KY","zip": "40356","zip+4": "2151","phone": "8598856094"}
{"name": "KROGER PHARMACY #24368","address1": "1389 SUITE H US HWY 127 SOUTH","address2": "","city": "FRANKFORT","state": "KY","zip": "40601","zip+4": "0000","phone": "5028750127"}
{"name": "LEXINGTON CLINIC PHARMACY","address1": "1221 S BROADWAY ST","address2": "","city": "LEXINGTON","state": "KY","zip": "40504","zip+4": "2701","phone": "8592584794"}
{"name": "POOLES PHARMACY CARE","address1": "144 W BROAD ST","address2": "","city": "CENTRAL CITY","state": "KY","zip": "42330","zip+4": "1568","phone": "2707541545"}
{"name": "RITE AID PHARMACY #02575","address1": "9485 HIGHWAY 805","address2": "","city": "JENKINS","state": "KY","zip": "41537","zip+4": "1476","phone": "6068322084"}
{"name": "RITE AID PHARMACY #02679","address1": "394 N DIXIE STREET","address2": "","city": "HORSE CAVE","state": "KY","zip": "42749","zip+4": "1138","phone": "2707861147"}
{"name": "WAL-MART PHARMACY #101569","address1": "240 WAL-MART WAY","address2": "","city": "MAYSVILLE","state": "KY","zip": "41056","zip+4": "0000","phone": "6067595050"}
{"name": "MAIDEN DRUG COMPANY","address1": "327 MAIN ST","address2": "","city": "WILLIAMSBURG","state": "KY","zip": "40769","zip+4": "1123","phone": "6065490449"}
{"name": "WAL-MART PHARMACY #100729","address1": "3795 E JOHN ROWAN BLVD","address2": "","city": "BARDSTOWN","state": "KY","zip": "40004","zip+4": "0000","phone": "5023496044"}
{"name": "RITE AID PHARMACY #02708","address1": "3026 E 4TH STREET","address2": "","city": "OWENSBORO","state": "KY","zip": "42303","zip+4": "0214","phone": "2706849261"}
{"name": "WALGREEN DRUG STORE #2538","address1": "3421 W BROADWAY ST","address2": "","city": "LOUISVILLE","state": "KY","zip": "40211","zip+4": "0000","phone": "5027762512"}
{"name": "GREENVILLE PHARMACY","address1": "117 N MAIN ST","address2": "","city": "GREENVILLE","state": "KY","zip": "42345","zip+4": "0000","phone": "2703383800"}
{"name": "VANN HEALTHCARE SERVICES","address1": "1220 N RACE ST","address2": "","city": "GLASGOW","state": "KY","zip": "42141","zip+4": "3462","phone": "2706517627"}
{"name": "RITE AID PHARMACY #02430","address1": "108 BEAUTY ROAD","address2": "","city": "WARFIELD","state": "KY","zip": "41267","zip+4": "0377","phone": "6063950522"}
{"name": "WAL-MART PHARMACY #101675","address1": "180 LEBANON TRADE CENTER","address2": "","city": "LEBANON","state": "KY","zip": "40033","zip+4": "0000","phone": "2706921795"}
{"name": "KROGER PHARMACY #24387","address1": "279 HUBBARDS LANE","address2": "","city": "LOUISVILLE","state": "KY","zip": "40207","zip+4": "0000","phone": "5028958337"}
{"name": "FORCHT PHARMACY","address1": "108 E 6TH ST","address2": "","city": "CORBIN","state": "KY","zip": "40701","zip+4": "0000","phone": "6065284380"}
{"name": "KMART PHARMACY #9503","address1": "1300 US 127 SOUTH","address2": "","city": "FRANKFORT","state": "KY","zip": "40601","zip+4": "0000","phone": "5028755997"}
{"name": "ARLINGTON PHARMACY","address1": "US HWY 51","address2": "165 WALNUT","city": "ARLINGTON","state": "KY","zip": "42021","zip+4": "0000","phone": "2706556151"}
{"name": "WAL-MART PHARMACY #100204","address1": "500 US HWY 62 WEST","address2": "","city": "PRINCETON","state": "KY","zip": "42445","zip+4": "0000","phone": "2703659122"}
{"name": "TRI CITIES CLINIC PHARMACY #Q1","address1": "18880 NORTH US 119","address2": "","city": "CUMBERLAND","state": "KY","zip": "40823","zip+4": "0000","phone": "6065892602"}
{"name": "KMART PHARMACY #3941","address1": "301 S HWY 127","address2": "","city": "RUSSELL SPRINGS","state": "KY","zip": "42642","zip+4": "0000","phone": "2708667166"}
{"name": "RITE AID PHARMACY #02259","address1": "11349 STATE HIGHWAY 1056","address2": "","city": "MC CARR","state": "KY","zip": "41544","zip+4": "8543","phone": "6064279007"}
{"name": "RITE AID PHARMACY #02777","address1": "31 BIG HILL DRIVE","address2": "","city": "BEATTYVILLE","state": "KY","zip": "41311","zip+4": "8903","phone": "6064642581"}
{"name": "CVS PHARMACY #06120","address1": "6801 DIXIE HIGHWAY","address2": "","city": "FLORENCE","state": "KY","zip": "41042","zip+4": "0000","phone": "6062826506"}
{"name": "KROGER PHARMACY #24509","address1": "711 CAMPBELL LANE","address2": "","city": "BOWLING GREEN","state": "KY","zip": "42104","zip+4": "0000","phone": "2708432383"}
{"name": "RITE AID PHARMACY #02762","address1": "343 N WALLACE WILKINSON BOULEV","address2": "","city": "LIBERTY","state": "KY","zip": "42539","zip+4": "3017","phone": "6067875574"}
{"name": "KMART PHARMACY #9513","address1": "14662 N US 25 EAST","address2": "","city": "CORBIN","state": "KY","zip": "40701","zip+4": "2572","phone": "6065281625"}
{"name": "KROGER PHARMACY #24332","address1": "4211 S 3RD STREET","address2": "","city": "LOUISVILLE","state": "KY","zip": "40214","zip+4": "0000","phone": "5023633111"}
{"name": "WAL-MART PHARMACY #101743","address1": "201 WALDON ROAD","address2": "","city": "HARLAN","state": "KY","zip": "40831","zip+4": "0000","phone": "6065739650"}
{"name": "SPRINGHILL PHARMACY","address1": "2305 RUSSELLVILLE RD","address2": "","city": "BOWLING GREEN","state": "KY","zip": "42101","zip+4": "3920","phone": "2707963909"}
{"name": "HIGHLANDS MEDICAL OFFICE PHCY","address1": "520 N MAYO TRAIL","address2": "","city": "PAINTSVILLE","state": "KY","zip": "41240","zip+4": "1811","phone": "6067893670"}
{"name": "THREE FORKS APOTHECARY","address1": "1071 BROADWAY ST","address2": "","city": "BEATTYVILLE","state": "KY","zip": "41311","zip+4": "0000","phone": "6064640941"}
{"name": "RITE AID PHARMACY #03216","address1": "59 HIGHWAY 15 NORTH","address2": "","city": "JACKSON","state": "KY","zip": "41339","zip+4": "9631","phone": "6066662883"}
{"name": "WAL-MART PHARMACY #100445","address1": "1801 ELIZABETHTOWN ROAD","address2": "","city": "LEITCHFIELD","state": "KY","zip": "42754","zip+4": "0000","phone": "2702599384"}
{"name": "KROGER PHARMACY #24733","address1": "200 SKYWATCH DRIVE","address2": "","city": "DANVILLE","state": "KY","zip": "40422","zip+4": "0000","phone": "8592360408"}
{"name": "RITE AID PHARMACY #03260","address1": "1261 NORTH HIGHWAY 27","address2": "","city": "STANFORD","state": "KY","zip": "40484","zip+4": "1406","phone": "6063659191"}
{"name": "RITE AID PHARMACY #03208","address1": "205 WEST G L SMITH STREET","address2": "","city": "MORGANTOWN","state": "KY","zip": "42261","zip+4": "8602","phone": "2705265615"}
{"name": "GALLAHERS PHARMACY INC","address1": "2914 BLACKBURN AVE","address2": "","city": "ASHLAND","state": "KY","zip": "41101","zip+4": "4899","phone": "6063292122"}
{"name": "KROGER PHARMACY #24764","address1": "9501 WESTPORT ROAD","address2": "","city": "LOUISVILLE","state": "KY","zip": "40241","zip+4": "0000","phone": "5024255221"}
{"name": "KMART PHARMACY #4830","address1": "8040 BURLINGTON PIKE","address2": "","city": "FLORENCE","state": "KY","zip": "41042","zip+4": "0000","phone": "8592839164"}
{"name": "CLINIC PHARMACY","address1": "201 PARK ST","address2": "","city": "BOWLING GREEN","state": "KY","zip": "42101","zip+4": "1776","phone": "2707813095"}
{"name": "WAL-MART PHARMACY #100257","address1": "901 US HWY 60 EAST","address2": "","city": "MORGANFIELD","state": "KY","zip": "42437","zip+4": "0000","phone": "2703892423"}
{"name": "WAL-MART PHARMACY #100693","address1": "1589 KENTUCKY HWY 15 SOUTH","address2": "","city": "JACKSON","state": "KY","zip": "41339","zip+4": "0000","phone": "6066662622"}
{"name": "HOMETOWN PHARMACY","address1": "130 HWY 80","address2": "","city": "HYDEN","state": "KY","zip": "41749","zip+4": "1746","phone": "6066723084"}
{"name": "KMART PHARMACY #3822","address1": "230 L ROGER WELLS ROAD","address2": "","city": "GLASGOW","state": "KY","zip": "42141","zip+4": "0000","phone": "2706517693"}
{"name": "KMART PHARMACY #9684","address1": "1581 US 68 SOUTH","address2": "","city": "MAYSVILLE","state": "KY","zip": "41056","zip+4": "9178","phone": "6067595012"}
{"name": "HOMETOWN PHARMACY","address1": "RT 40 E","address2": "","city": "INEZ","state": "KY","zip": "41224","zip+4": "0000","phone": "6062987283"}
{"name": "KROGER PHARMACY #24367","address1": "181 BOONE STATION ROAD","address2": "","city": "SHELBYVILLE","state": "KY","zip": "40065","zip+4": "0000","phone": "5026335331"}
{"name": "KROGER PHARMACY #24385","address1": "5244 DIXIE HIGHWAY","address2": "","city": "LOUISVILLE","state": "KY","zip": "40216","zip+4": "0000","phone": "5024488247"}
{"name": "KROGER PHARMACY #24348","address1": "924 S SECOND ST","address2": "","city": "LOUISVILLE","state": "KY","zip": "40203","zip+4": "0000","phone": "5025899394"}
{"name": "BIGGS PHARMACY #275","address1": "4874 HOUSTON RD","address2": "","city": "FLORENCE","state": "KY","zip": "41042","zip+4": "0000","phone": "8592827889"}
{"name": "KMART PHARMACY #4827","address1": "334 N MAYO TRAIL","address2": "","city": "PAINTSVILLE","state": "KY","zip": "41240","zip+4": "0000","phone": "6067893738"}
{"name": "KMART PHARMACY #4847","address1": "1501 PARIS PIKE","address2": "","city": "GEORGETOWN","state": "KY","zip": "40324","zip+4": "0000","phone": "5028680599"}
{"name": "KMART PHARMACY #7229","address1": "600 CW STEVENS BLVD","address2": "","city": "GRAYSON","state": "KY","zip": "41143","zip+4": "0000","phone": "6064748859"}
{"name": "RITE AID PHARMACY #03401","address1": "2440 NEW HARTFORD ROAD","address2": "","city": "OWENSBORO","state": "KY","zip": "42303","zip+4": "1311","phone": "2706840205"}
{"name": "KMART PHARMACY #7174","address1": "3889 NORTH MAYO TRAIL","address2": "","city": "PIKEVILLE","state": "KY","zip": "41501","zip+4": "3251","phone": "6064370899"}
{"name": "CVS PHARMACY #06216","address1": "6109 BARDSTOWN ROAD","address2": "","city": "LOUISVILLE","state": "KY","zip": "40291","zip+4": "0000","phone": "5022393226"}
{"name": "MCDOWELL PROFESSIONAL PHARMACY","address1": "9549 KY HWY 122","address2": "","city": "MCDOWELL","state": "KY","zip": "41647","zip+4": "0700","phone": "6063771088"}
{"name": "CVS PHARMACY #06217","address1": "9575 TAYLORSVILLE ROAD","address2": "","city": "JEFFERSONTOWN","state": "KY","zip": "40299","zip+4": "0000","phone": "5022675448"}
{"name": "RITE AID PHARMACY #03439","address1": "115 STATE ROUTE 81 NORTH","address2": "","city": "CALHOUN","state": "KY","zip": "42327","zip+4": "0479","phone": "2702735202"}
{"name": "WALGREEN DRUG STORE #2924","address1": "2368 FRANKFORT AVE","address2": "","city": "LOUISVILLE","state": "KY","zip": "40206","zip+4": "0000","phone": "5028960781"}
{"name": "NATIONS MEDICINES","address1": "1608 OLD LEBANON RD","address2": "","city": "CAMPBELLSVILLE","state": "KY","zip": "42718","zip+4": "9662","phone": "2707894734"}
{"name": "MEDICINE SHOPPE PHARMACY #1234","address1": "920 JAMESTOWN STREET","address2": "","city": "COLUMBIA","state": "KY","zip": "42728","zip+4": "0000","phone": "2703844474"}
{"name": "WAL-MART PHARMACY #100519","address1": "591 JOSEPH DRIVE","address2": "","city": "HARRODSBURG","state": "KY","zip": "40330","zip+4": "0000","phone": "8597343319"}
{"name": "WAL-MART PHARMACY #100709","address1": "100 WALMART DRIVE","address2": "","city": "ELIZABETHTOWN","state": "KY","zip": "42701","zip+4": "0000","phone": "2707693825"}
{"name": "WAL-MART PHARMACY #100692","address1": "100 WALTON AVE","address2": "","city": "DANVILLE","state": "KY","zip": "40422","zip+4": "0000","phone": "8592362411"}
{"name": "WAL-MART PHARMACY #101190","address1": "120 JILL DRIVE","address2": "","city": "BEREA","state": "KY","zip": "40403","zip+4": "0000","phone": "8599863113"}
{"name": "WAL-MART PHARMACY #100493","address1": "305 LETTON DRIVE","address2": "","city": "PARIS","state": "KY","zip": "40361","zip+4": "0000","phone": "8599874213"}
{"name": "WAL-MART PHARMACY #100702","address1": "1859 BYPASS RD","address2": "","city": "WINCHESTER","state": "KY","zip": "40391","zip+4": "0000","phone": "8597446055"}
{"name": "WAL-MART PHARMACY #100720","address1": "301 LEONARDWOOD DRIVE","address2": "","city": "FRANKFORT","state": "KY","zip": "40601","zip+4": "0000","phone": "5028754020"}
{"name": "RITE AID PHARMACY #03272","address1": "612 WEST STOCKTON STREET","address2": "","city": "EDMONTON","state": "KY","zip": "42129","zip+4": "9458","phone": "2704322725"}
{"name": "RITE AID PHARMACY #03350","address1": "600 NORTH MAIN STREET","address2": "","city": "MUNFORDVILLE","state": "KY","zip": "42765","zip+4": "9424","phone": "2705243081"}
{"name": "KROGER PHARMACY #24394","address1": "2034 SOUTH HWY 53","address2": "","city": "LAGRANGE","state": "KY","zip": "40031","zip+4": "0000","phone": "5022222028"}
{"name": "NATIONS MEDICINES #4","address1": "706 JAMESTOWN ST","address2": "","city": "COLUMBIA","state": "KY","zip": "42728","zip+4": "0097","phone": "2703845874"}
{"name": "RITE AID PHARMACY #03360","address1": "308 SOUTH MAYO TRAIL","address2": "","city": "PAINTSVILLE","state": "KY","zip": "41240","zip+4": "1247","phone": "6067894950"}
{"name": "WAL-MART PHARMACY #101961","address1": "6711 ALEXANDRIA PIKE","address2": "","city": "ALEXANDRIA","state": "KY","zip": "41001","zip+4": "0000","phone": "8596358822"}
{"name": "KROGER PHARMACY #29783","address1": "711 MARTIN LUTHER KING JR BLVD","address2": "","city": "ASHLAND","state": "KY","zip": "41101","zip+4": "0000","phone": "6063247119"}
{"name": "WAL-MART PHARMACY #100333","address1": "1701 NORTH MAIN","address2": "","city": "BEAVER DAM","state": "KY","zip": "42320","zip+4": "0000","phone": "2702744464"}
{"name": "RITE AID PHARMACY #03555","address1": "380 WEST MAIN STREET","address2": "","city": "MOREHEAD","state": "KY","zip": "40351","zip+4": "1536","phone": "6067831581"}
{"name": "RITE AID PHARMACY #03559","address1": "1355 SECOND STREET","address2": "","city": "HENDERSON","state": "KY","zip": "42420","zip+4": "3357","phone": "2708279857"}
{"name": "RITE AID PHARMACY #03560","address1": "86 MADISON SQUARE","address2": "","city": "MADISONVILLE","state": "KY","zip": "42431","zip+4": "2740","phone": "2708215811"}
{"name": "RITE AID PHARMACY #03561","address1": "408 NORTH MORGAN STREET","address2": "","city": "MORGANFIELD","state": "KY","zip": "42437","zip+4": "1240","phone": "2703894556"}
{"name": "RITE AID PHARMACY #03562","address1": "1200 MAIN STREET","address2": "","city": "MURRAY","state": "KY","zip": "42071","zip+4": "1821","phone": "2707538304"}
{"name": "RITE AID PHARMACY #03564","address1": "426 VILLAGE LANE","address2": "","city": "HAZARD","state": "KY","zip": "41701","zip+4": "9405","phone": "6064362117"}
{"name": "RITE AID PHARMACY #03565","address1": "224 SOUTH MAIN STREET","address2": "","city": "FRANKLIN","state": "KY","zip": "42134","zip+4": "2116","phone": "2705867131"}
{"name": "RITE AID PHARMACY #03566","address1": "1000 BYPASS SOUTH","address2": "","city": "LAWRENCEBURG","state": "KY","zip": "40342","zip+4": "0000","phone": "5028393403"}
{"name": "RITE AID PHARMACY #03567","address1": "1900 ARGILLITE ROAD","address2": "","city": "FLATWOODS","state": "KY","zip": "41139","zip+4": "1629","phone": "6068362498"}
{"name": "MEDICINE CABINET PHARMACY","address1": "515 BROADWAY AVE","address2": "","city": "PAINTSVILLE","state": "KY","zip": "41240","zip+4": "0000","phone": "6067899988"}
{"name": "RITE AID PHARMACY #03270","address1": "HWY 421 NORTH","address2": "","city": "MCKEE","state": "KY","zip": "40447","zip+4": "0000","phone": "6062877187"}
{"name": "WAL-MART PHARMACY #102060","address1": "3180 RICHMOND ROAD","address2": "","city": "LEXINGTON","state": "KY","zip": "40509","zip+4": "0000","phone": "8592681109"}
{"name": "WAL-MART PHARMACY #100282","address1": "1550 NASHVILLE ROAD","address2": "","city": "FRANKLIN","state": "KY","zip": "42134","zip+4": "0000","phone": "2705860022"}
{"name": "RITE AID PHARMACY #03347","address1": "130 WEST LOUDEN AVENUE","address2": "","city": "LEXINGTON","state": "KY","zip": "40508","zip+4": "1412","phone": "8592819660"}
{"name": "WAL-MART PHARMACY #100571","address1": "112 OSBORNE WAY","address2": "","city": "GEORGETOWN","state": "KY","zip": "40324","zip+4": "0000","phone": "5028671935"}
{"name": "KMART PHARMACY #7354","address1": "1710 WEST HIGHWAY 192","address2": "","city": "LONDON","state": "KY","zip": "40741","zip+4": "0000","phone": "6068785532"}
{"name": "WALGREEN DRUG STORE #2991","address1": "1026 MADISON AVENUE","address2": "","city": "COVINGTON","state": "KY","zip": "41011","zip+4": "0000","phone": "8594919840"}
{"name": "RITE AID PHARMACY #03345","address1": "5571 COLLINS HIGHWAY","address2": "","city": "PIKEVILLE","state": "KY","zip": "41502","zip+4": "3036","phone": "6066394588"}
{"name": "KMART PHARMACY #3850","address1": "501 MARSAILLES ROAD","address2": "","city": "VERSAILLES","state": "KY","zip": "40383","zip+4": "0000","phone": "8598734617"}
{"name": "KROGER PHARMACY #14420","address1": "381 MARKET SQUARE DRIVE","address2": "","city": "MAYSVILLE","state": "KY","zip": "41056","zip+4": "0000","phone": "8597597973"}
{"name": "MOUNTAIN APOTHECARY","address1": "834 S MAYO TR","address2": "","city": "PAINTSVILLE","state": "KY","zip": "41240","zip+4": "0000","phone": "6067896150"}
{"name": "NATIONS MEDICINE","address1": "432 HOPKINSVILLE RD","address2": "","city": "RUSSELLVILLE","state": "KY","zip": "42276","zip+4": "0000","phone": "2707268451"}
{"name": "CHRISTIAN CHURCH CAMPUS PHCY","address1": "100 NORTH DR","address2": "","city": "HOPKINSVILLE","state": "KY","zip": "42240","zip+4": "1604","phone": "2708860548"}
{"name": "KROGER PHARMACY #24359","address1": "1650 BRYAN STATION ROAD STE 17","address2": "","city": "LEXINGTON","state": "KY","zip": "40505","zip+4": "0000","phone": "8592936476"}
{"name": "NATIONS MEDICINE","address1": "790 N DIXIE AVE","address2": "STE 1100","city": "ELIZABETHTOWN","state": "KY","zip": "42701","zip+4": "0000","phone": "2707377880"}
{"name": "HARRISON PHARMACY","address1": "606 N MAIN ST","address2": "","city": "TOMPKINSVILLE","state": "KY","zip": "42167","zip+4": "0000","phone": "2704876408"}
{"name": "KROGER PHARMACY #24364","address1": "525 MARSAILLES ROAD","address2": "","city": "VERSAILLES","state": "KY","zip": "40383","zip+4": "0000","phone": "8598731324"}
{"name": "WAL-MART PHARMACY #100143","address1": "310 WEST 5TH STREET","address2": "","city": "BENTON","state": "KY","zip": "42025","zip+4": "0000","phone": "2705273597"}
{"name": "KROGER PHARMACY #24730","address1": "705 EAST MAIN STREET","address2": "","city": "LEBANON","state": "KY","zip": "40033","zip+4": "0000","phone": "2706922123"}
{"name": "WAL-MART PHARMACY #100719","address1": "820 EASTERN BYPASS","address2": "","city": "RICHMOND","state": "KY","zip": "40475","zip+4": "0000","phone": "8596236802"}
{"name": "WAL-MART PHARMACY #101139","address1": "2233 FLEMINGSBURG RD","address2": "","city": "MOREHEAD","state": "KY","zip": "40351","zip+4": "0000","phone": "6067843266"}
{"name": "WAL-MART PHARMACY #101210","address1": "1024 N MAIN STREET","address2": "","city": "NICHOLASVILLE","state": "KY","zip": "40356","zip+4": "0000","phone": "8598859490"}
{"name": "WAL-MART PHARMACY #100825","address1": "1283 US HIGHWAY 27 NORTH","address2": "","city": "STANFORD","state": "KY","zip": "40484","zip+4": "0000","phone": "6063653535"}
{"name": "WAL-MART PHARMACY #101140","address1": "499 INDIAN MOUND DR","address2": "","city": "MOUNT STERLING","state": "KY","zip": "40353","zip+4": "0000","phone": "8594981392"}
{"name": "ROSS DRUG","address1": "125 FOXGLOVE DRIVE","address2": "","city": "MT STERLING","state": "KY","zip": "40353","zip+4": "0000","phone": "8594980564"}
{"name": "DUNCAN RX CENTER LTC","address1": "315 W BROADWAY ST","address2": "","city": "MAYFIELD","state": "KY","zip": "42066","zip+4": "2317","phone": "2702473345"}
{"name": "WAL-MART PHARMACY #101426","address1": "351 RIVER HILL ROAD","address2": "","city": "ASHLAND","state": "KY","zip": "41101","zip+4": "0000","phone": "6063290477"}
{"name": "WAL-MART PHARMACY #100584","address1": "20 FERGUSON BLVD","address2": "","city": "DRY RIDGE","state": "KY","zip": "41035","zip+4": "0000","phone": "8598245091"}
{"name": "WAL-MART PHARMACY #100591","address1": "805 US 27 SOUTH","address2": "","city": "CYNTHIANA","state": "KY","zip": "41031","zip+4": "0000","phone": "8592343533"}
{"name": "WAL-MART PHARMACY #100106","address1": "1405 MIDDLE ROAD","address2": "","city": "FULTON","state": "KY","zip": "42041","zip+4": "0000","phone": "2704729802"}
{"name": "KROGER PHARMACY #24409","address1": "1730 W HWY 192","address2": "","city": "LONDON","state": "KY","zip": "40741","zip+4": "0000","phone": "6068781568"}
{"name": "WAL-MART PHARMACY #101053","address1": "1015 NEW MOODY LANE","address2": "","city": "LA GRANGE","state": "KY","zip": "40031","zip+4": "0000","phone": "5022229797"}
{"name": "RX DISCOUNT PHARMACY #1","address1": "500 MORTON BLVD","address2": "","city": "HAZARD","state": "KY","zip": "41701","zip+4": "9418","phone": "6064362891"}
{"name": "RUWE FAMILY PHARMACY BELLEVUE","address1": "103 LANDMARK DR","address2": "SUITE 140","city": "BELLEVUE","state": "KY","zip": "41073","zip+4": "1304","phone": "8592918665"}
{"name": "HINES PHARMACY","address1": "1340 KENTUCKY HWY 185","address2": "","city": "BOWLING GREEN","state": "KY","zip": "42101","zip+4": "0000","phone": "2708424341"}
{"name": "FRENCHBURG PHARMACY INC","address1": "732 HWY 36","address2": "","city": "FRENCHBURG","state": "KY","zip": "40322","zip+4": "9603","phone": "6067686610"}
{"name": "MEDICA PHARMACY","address1": "181 HIGHWAY 44 EAST","address2": "SUITE 5","city": "SHEPHERDSVILLE","state": "KY","zip": "40165","zip+4": "0000","phone": "5029555379"}
{"name": "PIKEVILLE DISCOUNT DRUGS INC","address1": "1098 S MAYO TRAIL","address2": "STE 105","city": "PIKEVILLE","state": "KY","zip": "41501","zip+4": "0000","phone": "6064320018"}
{"name": "TOTAL PHARMACY CARE","address1": "533 HAMBLEY BLVD","address2": "STE 1","city": "PIKEVILLE","state": "KY","zip": "41501","zip+4": "0000","phone": "6064330555"}
{"name": "KROGER PHARMACY #24408","address1": "102 WEST JOHN ROWAN BLVD","address2": "","city": "BARDSTOWN","state": "KY","zip": "40004","zip+4": "0000","phone": "5023483062"}
{"name": "KROGER PHARMACY #24407","address1": "3101 RICHMOND RD","address2": "","city": "LEXINGTON","state": "KY","zip": "40509","zip+4": "0000","phone": "8592694637"}
{"name": "WAL-MART PHARMACY #100507","address1": "1000 BYPASS NORTH","address2": "","city": "LAWRENCEBURG","state": "KY","zip": "40342","zip+4": "0000","phone": "5028391482"}
{"name": "LEXINGTON CLINIC EAST PHCY","address1": "100 N EAGLE CREEK DR","address2": "","city": "LEXINGTON","state": "KY","zip": "40509","zip+4": "1805","phone": "8592585562"}
{"name": "WAL-MART PHARMACY #100739","address1": "US HWY 441 HWY 25E","address2": "","city": "MIDDLESBORO","state": "KY","zip": "40965","zip+4": "0000","phone": "6062486288"}
{"name": "CVS PHARMACY #05759","address1": "3950 TURKEYFOOT ROAD","address2": "","city": "ERLANGER","state": "KY","zip": "41018","zip+4": "0000","phone": "6066476211"}
{"name": "WAL-MART PHARMACY #100653","address1": "300 CLINIC DRIVE","address2": "","city": "HOPKINSVILLE","state": "KY","zip": "42240","zip+4": "0000","phone": "2708869863"}
{"name": "KROGER PHARMACY #24722","address1": "1620 OLD PARIS PIKE","address2": "","city": "LEXINGTON","state": "KY","zip": "40505","zip+4": "0000","phone": "8592993624"}
{"name": "RICKS PHARMACY","address1": "3001 SCHNEIDMAN RD","address2": "","city": "PADUCAH","state": "KY","zip": "42003","zip+4": "3541","phone": "2704437200"}
{"name": "KROGER PHARMACY #25435","address1": "808 NORTH 12TH STREET","address2": "","city": "MURRAY","state": "KY","zip": "42071","zip+4": "0000","phone": "2707591288"}
{"name": "KROGER PHARMACY #24709","address1": "1002 SOUTH BROADWAY","address2": "","city": "GEORGETOWN","state": "KY","zip": "40324","zip+4": "0000","phone": "5028634814"}
{"name": "KROGER PHARMACY #24397","address1": "302 BRIGHTON PARK BLVD S C","address2": "","city": "FRANKFORT","state": "KY","zip": "40601","zip+4": "0000","phone": "5026950918"}
{"name": "TOTAL CARE PHARMACY #5","address1": "1100 W SHELBY ST","address2": "","city": "FALMOUTH","state": "KY","zip": "41040","zip+4": "0000","phone": "8596543232"}
{"name": "KING DRUG AND HOME CARE #OW","address1": "1156 CARTER RD","address2": "","city": "OWENSBORO","state": "KY","zip": "42301","zip+4": "0000","phone": "2706837010"}
{"name": "WAL-MART PHARMACY #100569","address1": "809 JAMESTOWN STREET","address2": "","city": "COLUMBIA","state": "KY","zip": "42728","zip+4": "0000","phone": "2703843913"}
{"name": "KROGER PHARMACY #24366","address1": "5001 MUD LANE","address2": "","city": "LOUISVILLE","state": "KY","zip": "40229","zip+4": "0000","phone": "5029628022"}
{"name": "U OF L HOSPITAL AMBULATORY CAR","address1": "530 S JACKSON ST","address2": "","city": "LOUISVILLE","state": "KY","zip": "40202","zip+4": "3611","phone": "5025624958"}
{"name": "KROGER PHARMACY #24563","address1": "545 ISLAND FORD RD","address2": "","city": "MADISONVILLE","state": "KY","zip": "42431","zip+4": "0000","phone": "2708210692"}
{"name": "KROGER PHARMACY #24707","address1": "9440 OLD BROWNSBORO RD","address2": "","city": "LOUISVILLE","state": "KY","zip": "40241","zip+4": "0000","phone": "5024258407"}
{"name": "IRVINE HEALTHMART PHARMACY","address1": "905 RICHMOND RD","address2": "","city": "IRVINE","state": "KY","zip": "40336","zip+4": "0000","phone": "6067235446"}
{"name": "CALVERT CITY PHARMACY","address1": "888 E 5TH AVE","address2": "","city": "CALVERT CITY","state": "KY","zip": "42029","zip+4": "0365","phone": "2703954350"}
{"name": "PCA PHARMACY CORRECTIONS","address1": "2700 CONSTANT COMMENT PL","address2": "","city": "LOUISVILLE","state": "KY","zip": "40299","zip+4": "0000","phone": "5029645359"}
{"name": "CVS PHARMACY #07618","address1": "3605 WALDEN DRIVE","address2": "","city": "LEXINGTON","state": "KY","zip": "40517","zip+4": "0000","phone": "6062456434"}
{"name": "KROGER PHARMACY #24535","address1": "350 W 31W BYPASS","address2": "","city": "BOWLING GREEN","state": "KY","zip": "42101","zip+4": "0000","phone": "2707966067"}
{"name": "WALGREEN DRUG STORE #3631","address1": "2420 LIME KILN LANE","address2": "","city": "LOUISVILLE","state": "KY","zip": "40222","zip+4": "0000","phone": "5024255760"}
{"name": "KROGER PHARMACY #24718","address1": "1670 STARLIGHT DR","address2": "","city": "OWENSBORO","state": "KY","zip": "42301","zip+4": "0000","phone": "2709262340"}
{"name": "KROGER PHARMACY #24191","address1": "3917 SOUTH 7TH STREET RD","address2": "","city": "LOUISVILLE","state": "KY","zip": "40216","zip+4": "0000","phone": "5024473393"}
{"name": "MEIJER PHARMACY #151","address1": "4990 HOUSTON RD","address2": "","city": "FLORENCE","state": "KY","zip": "41042","zip+4": "0000","phone": "8597466310"}
{"name": "CVS PHARMACY #04637","address1": "1021 WEST MAIN STREET","address2": "","city": "PRINCETON","state": "KY","zip": "42445","zip+4": "0000","phone": "5023654568"}
{"name": "HOMETOWN RX","address1": "728 S MAIN","address2": "","city": "MADISONVILLE","state": "KY","zip": "42431","zip+4": "0000","phone": "2708218500"}
{"name": "RITE AID PHARMACY #04627","address1": "7500 TERRY ROAD","address2": "","city": "LOUISVILLE","state": "KY","zip": "40258","zip+4": "2642","phone": "5029356230"}
{"name": "RITE AID PHARMACY #04637","address1": "7118 SOUTHSIDE DRIVE","address2": "","city": "LOUISVILLE","state": "KY","zip": "40214","zip+4": "3660","phone": "5023648054"}
{"name": "RITE AID PHARMACY #04655","address1": "1303 US 127 SOUTH SUITE 106","address2": "","city": "FRANKFORT","state": "KY","zip": "40601","zip+4": "4685","phone": "5028753425"}
{"name": "RITE AID PHARMACY #04636","address1": "4315 CANE RUN RD","address2": "","city": "LOUISVILLE","state": "KY","zip": "40216","zip+4": "4567","phone": "5024471998"}
{"name": "RITE AID PHARMACY #04639","address1": "4149 TAYLOR BOULEVARD","address2": "","city": "LOUISVILLE","state": "KY","zip": "40215","zip+4": "2366","phone": "5023759977"}
{"name": "RITE AID PHARMACY #04641","address1": "408 OLDHAM PLAZA","address2": "","city": "LA GRANGE","state": "KY","zip": "40031","zip+4": "1226","phone": "5022220322"}
{"name": "RITE AID PHARMACY #04644","address1": "701 VALLEY COLLEGE DRIVE","address2": "","city": "LOUISVILLE","state": "KY","zip": "40272","zip+4": "2801","phone": "5029333766"}
{"name": "RITE AID PHARMACY #04647","address1": "7700 SHEPHERDSVILLE ROAD","address2": "","city": "LOUISVILLE","state": "KY","zip": "40219","zip+4": "4021","phone": "5029687777"}
{"name": "RITE AID PHARMACY #04638","address1": "5601 BARDSTOWN ROAD","address2": "","city": "LOUISVILLE","state": "KY","zip": "40291","zip+4": "1910","phone": "5022396160"}
{"name": "RITE AID PHARMACY #04642","address1": "4721 DIXIE HIGHWAY","address2": "","city": "SHIVELY","state": "KY","zip": "40216","zip+4": "2654","phone": "5024476550"}
{"name": "RITE AID PHARMACY #04648","address1": "8651 PRESTON HIGHWAY","address2": "","city": "LOUISVILLE","state": "KY","zip": "40219","zip+4": "5305","phone": "5029691309"}
{"name": "RITE AID PHARMACY #04629","address1": "409 WEST OAK STREET","address2": "","city": "LOUISVILLE","state": "KY","zip": "40203","zip+4": "3001","phone": "5025854254"}
{"name": "RITE AID PHARMACY #04633","address1": "3012 BARDSTOWN ROAD","address2": "3012 BARDSTOWN ROAD","city": "LOUISVILLE","state": "KY","zip": "40205","zip+4": "3020","phone": "5024582647"}
{"name": "RITE AID PHARMACY #04634","address1": "3805 BROWNSBORO ROAD","address2": "","city": "LOUISVILLE","state": "KY","zip": "40207","zip+4": "1821","phone": "5028955411"}
{"name": "RITE AID PHARMACY #04635","address1": "4000 TAYLORSVILLE ROAD","address2": "","city": "LOUISVILLE","state": "KY","zip": "40220","zip+4": "1502","phone": "5024582611"}
{"name": "RITE AID PHARMACY #04645","address1": "445 HIGHWAY 44 EAST","address2": "445 HIGHWAY 44 EAST","city": "SHEPHERDSVILLE","state": "KY","zip": "40165","zip+4": "0215","phone": "5025432355"}
{"name": "RITE AID PHARMACY #04646","address1": "9459 WESTPORT ROAD","address2": "","city": "LOUISVILLE","state": "KY","zip": "40241","zip+4": "2219","phone": "5024258573"}
{"name": "MEDICINE SHOPPE #1456","address1": "100 W DEPOT ST","address2": "","city": "SPRINGFIELD","state": "KY","zip": "40069","zip+4": "0000","phone": "8593367071"}
{"name": "KROGER PHARMACY #24721","address1": "4750 HARTLAND PKWY","address2": "","city": "LEXINGTON","state": "KY","zip": "40515","zip+4": "0000","phone": "8592455855"}
{"name": "DOWNTOWN DRUG INC","address1": "90 TRIANGLE STREET","address2": "","city": "MARTIN","state": "KY","zip": "41649","zip+4": "0000","phone": "6062850786"}
{"name": "THOMPSON DRUG DOWNTOWN","address1": "803 MEYERS BAKER RD","address2": "STE 110","city": "LONDON","state": "KY","zip": "40741","zip+4": "0000","phone": "6068771008"}
{"name": "WHITE HOUSE CLINIC PHARMACY","address1": "211 US HWY 421","address2": "","city": "MCKEE","state": "KY","zip": "40447","zip+4": "0000","phone": "6062877104"}
{"name": "PROFESSIONAL CENTER PHARMACY","address1": "793 EASTERN BYPASS","address2": "STE G01","city": "RICHMOND","state": "KY","zip": "40475","zip+4": "0000","phone": "8596238065"}
{"name": "WALGREEN DRUG STORE #07925","address1": "402 2ND ST","address2": "","city": "HENDERSON","state": "KY","zip": "42420","zip+4": "3221","phone": "2708691746"}
{"name": "KROGER PHARMACY #24400","address1": "4009 POPLAR LEVEL RD","address2": "","city": "LOUISVILLE","state": "KY","zip": "40213","zip+4": "0000","phone": "5024544106"}
{"name": "CVS PHARMACY #07648","address1": "8453 US HWY 42","address2": "","city": "FLORENCE","state": "KY","zip": "41042","zip+4": "0000","phone": "6062835362"}
{"name": "CLINIC PHARMACY SOUTH","address1": "3901 US HWY 41 S","address2": "","city": "BEECHMONT","state": "KY","zip": "42323","zip+4": "0000","phone": "2704763600"}
{"name": "KROGER PHARMACY #24402","address1": "1661 BYPASS 1958","address2": "","city": "WINCHESTER","state": "KY","zip": "40391","zip+4": "0000","phone": "8597450802"}
{"name": "WALGREEN DRUG STORE #3776","address1": "1475 DIXIE HIGHWAY","address2": "","city": "LOUISVILLE","state": "KY","zip": "40210","zip+4": "0000","phone": "5027765184"}
{"name": "THE MEDICINE SHOPPE PHARMACY #","address1": "145 CITIZENS LANE","address2": "STE A","city": "HAZARD","state": "KY","zip": "41701","zip+4": "0000","phone": "6064352020"}
{"name": "KROGER PHARMACY #24713","address1": "995 SOUTH MAIN ST","address2": "","city": "NICHOLASVILLE","state": "KY","zip": "40356","zip+4": "0000","phone": "8598819086"}
{"name": "RITE AID PHARMACY #04780","address1": "978 NORTH MAIN STREET","address2": "","city": "MONTICELLO","state": "KY","zip": "42633","zip+4": "1902","phone": "6063488478"}
{"name": "KROGER PHARMACY #14424","address1": "8825 US ROUTE 42","address2": "","city": "UNION","state": "KY","zip": "41091","zip+4": "0000","phone": "8593847936"}
{"name": "SOUTH CREEK DRUG","address1": "1 SOUTH CREEK DRIVE","address2": "SUITE 122","city": "MONTICELLO","state": "KY","zip": "42633","zip+4": "0000","phone": "6063481800"}
{"name": "WAL-MART PHARMACY #100526","address1": "3706 DIANN MARIE ROAD","address2": "","city": "LOUISVILLE","state": "KY","zip": "40241","zip+4": "0000","phone": "5023260805"}
{"name": "WAL-MART PHARMACY #100497","address1": "500 TAYLORSVILLE RD","address2": "","city": "SHELBYVILLE","state": "KY","zip": "40065","zip+4": "0000","phone": "5026332592"}
{"name": "WAL-MART PHARMACY #101165","address1": "1165 WAL-MART WAY","address2": "","city": "RADCLIFF","state": "KY","zip": "40160","zip+4": "0000","phone": "2703522730"}
{"name": "MEDICINE SHOPPE #1495","address1": "22044 MAIN STREET","address2": "","city": "HYDEN","state": "KY","zip": "41749","zip+4": "0000","phone": "6066728705"}
{"name": "NATIONS MEDICINES","address1": "875 S HWY 27","address2": "","city": "SOMERSET","state": "KY","zip": "42501","zip+4": "0000","phone": "6066770073"}
{"name": "WALGREEN DRUG STORE #4082","address1": "606 BUTTERMILK PIKE","address2": "","city": "CRESCENT SPRING","state": "KY","zip": "41017","zip+4": "0000","phone": "8593441314"}
{"name": "THE WRIGHT PHARMACY INC","address1": "82 BIGGS LANE","address2": "","city": "SOUTH SHORE","state": "KY","zip": "41175","zip+4": "0000","phone": "6069322202"}
{"name": "KROGER PHARMACY #24901","address1": "255 CUMBERLAND CROSSING","address2": "","city": "MONTICELLO","state": "KY","zip": "42633","zip+4": "0000","phone": "6063488773"}
{"name": "KROGER PHARMACY #24900","address1": "181 SOUTH HIGHWAY 127","address2": "","city": "RUSSELL SPRINGS","state": "KY","zip": "42642","zip+4": "0000","phone": "2708663223"}
{"name": "WEST TOWNE PHARMACY","address1": "2755 WEST PARK DR","address2": "","city": "PADUCAH","state": "KY","zip": "42001","zip+4": "0000","phone": "2704430909"}
{"name": "MEDICINE SHOPPE #1503","address1": "900 HUSTONVILLE RD","address2": "","city": "DANVILLE","state": "KY","zip": "40422","zip+4": "0000","phone": "8592380002"}
{"name": "INFUSION CARE OF SE KY","address1": "509 MEMORIAL DR","address2": "STE 2","city": "MANCHESTER","state": "KY","zip": "40962","zip+4": "0000","phone": "6065982432"}
{"name": "MEDICAL TOWERS PHARMACY","address1": "234 E GRAY ST STE","address2": "STE 140","city": "LOUISVILLE","state": "KY","zip": "40202","zip+4": "0000","phone": "5025836777"}
{"name": "FOOD CITY PHARMACY #437","address1": "2478 WOODLAND PLAZA","address2": "","city": "HARLAN","state": "KY","zip": "40831","zip+4": "0000","phone": "6065737200"}
{"name": "KROGER PHARMACY #24710","address1": "2549 HIGHWAY 227","address2": "","city": "CARROLLTON","state": "KY","zip": "41008","zip+4": "0000","phone": "5027325008"}
{"name": "APOTHECARE PHCY OF ELIZABETHTO","address1": "1239 WOODLAND DR","address2": "SUITE 102","city": "ELIZABETHTOWN","state": "KY","zip": "42701","zip+4": "0000","phone": "2707390303"}
{"name": "VALU MARKET PHARMACY #2444","address1": "7519 OUTER LOOP","address2": "","city": "LOUISVILLE","state": "KY","zip": "40228","zip+4": "0000","phone": "5022312424"}
{"name": "WALGREEN DRUG STORE #4309","address1": "9702 WESTPORT","address2": "","city": "LOUISVILLE","state": "KY","zip": "40241","zip+4": "0000","phone": "5024250114"}
{"name": "CAPPS PHARMACY","address1": "331 KEEN ST","address2": "","city": "BURKESVILLE","state": "KY","zip": "42717","zip+4": "0000","phone": "2708641606"}
{"name": "R AND S  PHARMACY","address1": "1545 CAMPBELLSVILLE RD","address2": "","city": "COLUMBIA","state": "KY","zip": "42728","zip+4": "0000","phone": "2703859600"}
{"name": "KROGER PHARMACY #24717","address1": "3040 DOLPHIN DRIVE","address2": "","city": "ELIZABETHTOWN","state": "KY","zip": "42701","zip+4": "0000","phone": "2707374578"}
{"name": "MEIJER PHARMACY #164","address1": "4100 TOWNE CENTER ROAD","address2": "","city": "LOUISVILLE","state": "KY","zip": "40241","zip+4": "0000","phone": "5023265210"}
{"name": "MEIJER PHARMACY #162","address1": "9905 DIXIE HIGHWAY","address2": "","city": "LOUISVILLE","state": "KY","zip": "40272","zip+4": "0000","phone": "5029952110"}
{"name": "HOMETOWN APOTHECARY","address1": "1355 US HWY 41A S","address2": "","city": "DIXON","state": "KY","zip": "42409","zip+4": "0000","phone": "2706395242"}
{"name": "FREDS PHARMACY #2401","address1": "928 SOUTH 12TH STREET","address2": "","city": "MURRAY","state": "KY","zip": "42071","zip+4": "0000","phone": "2707531272"}
{"name": "RITE AID PHARMACY #00962","address1": "1203 13TH STREET","address2": "","city": "ASHLAND","state": "KY","zip": "41101","zip+4": "2607","phone": "6063247149"}
{"name": "FOOD CITY PHARMACY #438","address1": "MORTON BLVD AND KY HWY 15","address2": "","city": "HAZARD","state": "KY","zip": "41701","zip+4": "0000","phone": "6064352355"}
{"name": "CVS PHARMACY #03995","address1": "300 N MAIN STREET","address2": "","city": "NICHOLASVILLE","state": "KY","zip": "40356","zip+4": "0000","phone": "6068810348"}
{"name": "CARE MORE PHARMACY","address1": "151 DORTON JENKINS HWY","address2": "","city": "DORTON","state": "KY","zip": "41520","zip+4": "0000","phone": "6066392273"}
{"name": "RITE AID PHARMACY #04849","address1": "4838 POPLAR LEVEL ROAD","address2": "","city": "LOUISVILLE","state": "KY","zip": "40213","zip+4": "2904","phone": "5029691695"}
{"name": "KROGER PHARMACY #24403","address1": "1509 EAST BROADWAY","address2": "","city": "CAMPBELLSVILLE","state": "KY","zip": "42718","zip+4": "0000","phone": "5024650501"}
{"name": "MEIJER PHARMACY #160","address1": "4500 S HURSTBOURNE PKWY","address2": "","city": "LOUISVILLE","state": "KY","zip": "40299","zip+4": "0000","phone": "5024934910"}
{"name": "MEIJER PHARMACY #161","address1": "2155 PAUL JONES WAY","address2": "SUITE 100","city": "LEXINGTON","state": "KY","zip": "40509","zip+4": "0000","phone": "8592643010"}
{"name": "CVS PHARMACY #02336","address1": "709 E MAIN ST","address2": "","city": "FRANKFORT","state": "KY","zip": "40601","zip+4": "0000","phone": "6022267049"}
{"name": "BURNING SPRINGS PHARMACY","address1": "11901 N HWY 421","address2": "","city": "MANCHESTER","state": "KY","zip": "40962","zip+4": "0000","phone": "6065998891"}
{"name": "KROGER PHARMACY #24336","address1": "2308 E 4TH STREET","address2": "","city": "OWENSBORO","state": "KY","zip": "42303","zip+4": "0000","phone": "5029267751"}
{"name": "KROGER PHARMACY #24292","address1": "7509 TERRY ROAD","address2": "","city": "LOUISVILLE","state": "KY","zip": "40258","zip+4": "0000","phone": "5029355531"}
{"name": "KROGER PHARMACY #14425","address1": "1900 DECLARATION DRIVE","address2": "","city": "INDEPENDENCE","state": "KY","zip": "41051","zip+4": "0000","phone": "8593639020"}
{"name": "PHARMACY ARTS","address1": "31 BURNLEY RD","address2": "","city": "SCOTTSVILLE","state": "KY","zip": "42164","zip+4": "0000","phone": "2706184444"}
{"name": "THOMPSON DRUG SOUTH","address1": "975 S LAUREL RD","address2": "STE A","city": "LONDON","state": "KY","zip": "40744","zip+4": "0000","phone": "6068646324"}
{"name": "CVS PHARMACY #02380","address1": "2409 ARGILLITE RD","address2": "","city": "FLATWOODS","state": "KY","zip": "41139","zip+4": "0000","phone": "6068338027"}
{"name": "CVS PHARMACY #02332","address1": "101 WSHOWALTER DRIVE","address2": "","city": "GEORGETOWN","state": "KY","zip": "40324","zip+4": "0000","phone": "5028686101"}
{"name": "CVS PHARMACY #03016","address1": "101 LACY LANE","address2": "","city": "PARIS","state": "KY","zip": "40361","zip+4": "0000","phone": "6069889753"}
{"name": "WAL-MART PHARMACY #102638","address1": "12504 U.S. ROUTE 60","address2": "","city": "ASHLAND","state": "KY","zip": "41102","zip+4": "0000","phone": "6069299360"}
{"name": "HEALTHY WAY PHARMACY","address1": "100 HUNTER ST","address2": "","city": "SANDY HOOK","state": "KY","zip": "41171","zip+4": "0000","phone": "6067384041"}
{"name": "KROGER PHARMACY #24903","address1": "568 RIVER RIDGE PLAZA","address2": "","city": "BRANDENBURG","state": "KY","zip": "40108","zip+4": "0000","phone": "2704223532"}
{"name": "MEDZONE PHARMACY","address1": "5291 KENTUCKY ROUTE 321","address2": "","city": "PRESTONSBURG","state": "KY","zip": "41653","zip+4": "0000","phone": "6068899003"}
{"name": "CVS PHARMACY #02352","address1": "100 N 12TH ST","address2": "","city": "MURRAY","state": "KY","zip": "42071","zip+4": "0000","phone": "5027532044"}
{"name": "WALGREEN DRUG STORE #4448","address1": "1145 US 31 W BYPASS","address2": "","city": "BOWLING GREEN","state": "KY","zip": "42104","zip+4": "0000","phone": "2708423933"}
{"name": "BREATHITT PRESCRIPTION CENTER","address1": "1112 MAIN ST","address2": "","city": "JACKSON","state": "KY","zip": "41339","zip+4": "0000","phone": "6066667574"}
{"name": "KROGER PHARMACY #24767","address1": "3175 BEAUMONT CENTRE CIRCLE","address2": "","city": "LEXINGTON","state": "KY","zip": "40513","zip+4": "0000","phone": "8592191842"}
{"name": "WAL-MART PHARMACY #102628","address1": "4051 NICHOLASVILLE ROAD","address2": "","city": "LEXINGTON","state": "KY","zip": "40503","zip+4": "0000","phone": "8599710583"}
{"name": "WAL-MART PHARMACY #102654","address1": "1650 EDMONTON ROAD","address2": "","city": "TOMPKINSVILLE","state": "KY","zip": "42167","zip+4": "0000","phone": "2704870791"}
{"name": "WALGREEN DRUG STORE #4814","address1": "4800 BARDSTOWN RD","address2": "","city": "LOUISVILLE","state": "KY","zip": "40291","zip+4": "0000","phone": "5024915122"}
{"name": "NOBLES PHARMACY #1","address1": "579 GARRISON LANE","address2": "","city": "GARRISON","state": "KY","zip": "41141","zip+4": "0000","phone": "6067573535"}
{"name": "CVS PHARMACY #02337","address1": "3229 POPLAR LEVEL RD","address2": "","city": "LOUISVILLE","state": "KY","zip": "40213","zip+4": "0000","phone": "5026349197"}
{"name": "WAL-MART PHARMACY #100589","address1": "11901 STANDIFORD PLAZA ROAD","address2": "","city": "LOUISVILLE","state": "KY","zip": "40229","zip+4": "0000","phone": "5029686766"}
{"name": "KROGER PHARMACY #24708","address1": "170 BELLERIVE BLVD","address2": "","city": "NICHOLASVILLE","state": "KY","zip": "40356","zip+4": "0000","phone": "8592192148"}
{"name": "KROGER PHARMACY #24760","address1": "14889 NO US HWY 25E STE A","address2": "","city": "CORBIN","state": "KY","zip": "40701","zip+4": "0000","phone": "6065287211"}
{"name": "CVS PHARMACY #02586","address1": "3001 LONE OAK RD","address2": "","city": "PADUCAH","state": "KY","zip": "42003","zip+4": "0000","phone": "5055540480"}
{"name": "KROGER PHARMACY #24712","address1": "810 INDIAN MOUND DRIVE","address2": "","city": "MT STERLING","state": "KY","zip": "40353","zip+4": "0000","phone": "8594979696"}
{"name": "POWELL PRESCRIPTION CENTER #00","address1": "4644 HWY 15 WEST","address2": "","city": "CLAY CITY","state": "KY","zip": "40312","zip+4": "0000","phone": "6066633481"}
{"name": "PAMIDA PHARMACY #389","address1": "657 W MAIN CONNECTOR","address2": "","city": "HODGENVILLE","state": "KY","zip": "42748","zip+4": "1569","phone": "2703584391"}
{"name": "HALL PHARMACY PLC","address1": "131 S 2ND ST","address2": "","city": "DANVILLE","state": "KY","zip": "40422","zip+4": "0000","phone": "8592361442"}
{"name": "PHARMACY EXPRESS","address1": "415 SOUTH L ROGERS WELLS BLVD","address2": "","city": "GLASGOW","state": "KY","zip": "42141","zip+4": "0000","phone": "2706517948"}
{"name": "TARGET PHARMACY #1200","address1": "1100 HANSEL AVENUE","address2": "","city": "FLORENCE","state": "KY","zip": "41042","zip+4": "0000","phone": "8593712245"}
{"name": "MEIJER PHARMACY #166","address1": "9500 PRESTON HIGHWAY","address2": "","city": "LOUISVILLE","state": "KY","zip": "40229","zip+4": "0000","phone": "5029623710"}
{"name": "MEIJER PHARMACY #168","address1": "5400 ALEXANDRIA PIKE","address2": "","city": "COLD SPRING","state": "KY","zip": "41076","zip+4": "0000","phone": "8594484210"}
{"name": "WHITLEY PHARMACY","address1": "475 N HWY 25W","address2": "","city": "WILLIAMSBURG","state": "KY","zip": "40769","zip+4": "0000","phone": "6065494300"}
{"name": "SCIENCE HILL DRUG","address1": "5775 N HWY 27","address2": "STE 10","city": "SCIENCE HILL","state": "KY","zip": "42553","zip+4": "0000","phone": "6064239959"}
{"name": "CLINIC PHARMACY LLC","address1": "1210 KY HWY 36 E","address2": "STE G6","city": "CYNTHIANA","state": "KY","zip": "41031","zip+4": "0000","phone": "8592342777"}
{"name": "KROGER PHARMACY #14434","address1": "1751 PATRICK DRIVE","address2": "","city": "BURLINGTON","state": "KY","zip": "41005","zip+4": "0000","phone": "8595864692"}
{"name": "WALGREEN DRUG STORE #5001","address1": "2490 BARDSTOWN RD","address2": "","city": "LOUISVILLE","state": "KY","zip": "40205","zip+4": "0000","phone": "5024548084"}
{"name": "ST ELIZABETH MEDICAL CENTER O/","address1": "ONE MEDICAL VILLAGE DR","address2": "","city": "EDGEWOOD","state": "KY","zip": "41017","zip+4": "0000","phone": "8593015348"}
{"name": "FOOD CITY PHARMACY #425","address1": "28093 THOMPSON PLAZA HWY 119","address2": "","city": "S WILLIAMSON","state": "KY","zip": "41503","zip+4": "0000","phone": "6062371175"}
{"name": "JACKSON APOTHECARY #007","address1": "842 HIGHWAY 15 NORTH","address2": "","city": "JACKSON","state": "KY","zip": "41339","zip+4": "0000","phone": "6066667060"}
{"name": "WAL-MART PHARMACY #102783","address1": "500 WEST NEW CIRCLE ROAD","address2": "","city": "LEXINGTON","state": "KY","zip": "40511","zip+4": "0000","phone": "8593811530"}
{"name": "LONE OAK PHARMACY","address1": "3535 LONE OAK RD","address2": "","city": "PADUCAH","state": "KY","zip": "42001","zip+4": "0000","phone": "2705547944"}
{"name": "WALGREEN DRUG STORE #5172","address1": "5400 NEW CUT RD","address2": "","city": "LOUISVILLE","state": "KY","zip": "40214","zip+4": "4228","phone": "5023754255"}
{"name": "KROGER PHARMACY #24719","address1": "1019 CUMBERLAND FALLS HWY","address2": "","city": "CORBIN","state": "KY","zip": "40701","zip+4": "0000","phone": "6065260755"}
{"name": "KROGER PHARMACY #24224","address1": "2200 BROWNSBORO ROAD","address2": "","city": "LOUISVILLE","state": "KY","zip": "40206","zip+4": "0000","phone": "5028948759"}
{"name": "KROGER PHARMACY #24389","address1": "5929 TIMBER RIDGE DRIVE","address2": "","city": "PROSPECT","state": "KY","zip": "40059","zip+4": "0000","phone": "5022922471"}
{"name": "MT VERNON DRUG INC","address1": "410 RICHMOND ST","address2": "PO BOX 796","city": "MT VERNON","state": "KY","zip": "40456","zip+4": "0000","phone": "6062563447"}
{"name": "WALGREEN DRUG STORE #5574","address1": "260 NEW CIRCLE RD NE","address2": "","city": "LEXINGTON","state": "KY","zip": "40505","zip+4": "0000","phone": "8592253418"}
{"name": "MEDICAL CENTER PHARMACY","address1": "5000 KY RT 321","address2": "","city": "PRESTONSBURG","state": "KY","zip": "41653","zip+4": "0000","phone": "6068868511"}
{"name": "FOOD CITY PHARMACY #424","address1": "330 N MAYO TRAIL","address2": "","city": "PAINTSVILLE","state": "KY","zip": "41240","zip+4": "0000","phone": "6067897116"}
{"name": "KROGER PHARMACY #29796","address1": "370 DIEDRICH BLVD","address2": "","city": "ASHLAND","state": "KY","zip": "41101","zip+4": "0000","phone": "6063250611"}
{"name": "KROGER PHARMACY #24734","address1": "300 KROGER CENTER","address2": "","city": "MOREHEAD","state": "KY","zip": "40351","zip+4": "0000","phone": "6067831476"}
{"name": "WALGREEN DRUG STORE #5813","address1": "11930 STANDIFORD PLAZA DR","address2": "","city": "LOUISVILLE","state": "KY","zip": "40229","zip+4": "0000","phone": "5029615840"}
{"name": "ISOM COMMUNITY PHARMACY","address1": "93 ISOM PLAZA","address2": "","city": "ISOM","state": "KY","zip": "41824","zip+4": "0000","phone": "6066339238"}
{"name": "FAMILY PHARMACY OF JACKSON","address1": "265 HWY 15 S","address2": "SUITE 2","city": "JACKSON","state": "KY","zip": "41339","zip+4": "0000","phone": "6066665519"}
{"name": "WALGREEN DRUG STORE #5548","address1": "3104 DIXIE HWY","address2": "","city": "ERLANGER","state": "KY","zip": "41018","zip+4": "0000","phone": "8594260310"}
{"name": "PHARMACY INCORPORATED","address1": "82 SPRUCE ST","address2": "","city": "MURRAY","state": "KY","zip": "42071","zip+4": "0000","phone": "2707620602"}
{"name": "CORNERSTONE PHARMACY","address1": "100 S MAIN ST","address2": "","city": "VERSAILLES","state": "KY","zip": "40383","zip+4": "0000","phone": "8598733007"}
{"name": "WAL-MART PHARMACY #102548","address1": "28402 U.S. HWY 119 NO","address2": "","city": "SOUTH WILLIAMSON","state": "KY","zip": "41503","zip+4": "0000","phone": "6062374443"}
{"name": "KROGER PHARMACY #24585","address1": "2945 SCOTTSVILLE RD","address2": "","city": "BOWLING GREEN","state": "KY","zip": "42104","zip+4": "0000","phone": "2707809328"}
{"name": "KROGER PHARMACY #24770","address1": "2630 FREDERICA STREET","address2": "","city": "OWENSBORO","state": "KY","zip": "42301","zip+4": "0000","phone": "2709264977"}
{"name": "NOVA PHARMACY","address1": "1330 S MAYO TRAIL","address2": "STE 102","city": "PIKEVILLE","state": "KY","zip": "41501","zip+4": "0000","phone": "6064322274"}
{"name": "MEIJER PHARMACY #184","address1": "351 MEIJER WAY","address2": "SUITE 100","city": "LEXINGTON","state": "KY","zip": "40503","zip+4": "0000","phone": "8592193764"}
{"name": "MIDWAY PHARMACY #2","address1": "908 WALLACE AVENUE","address2": "SUITE 105","city": "LEITCHFIELD","state": "KY","zip": "42754","zip+4": "0000","phone": "2702598400"}
{"name": "KROGER PHARMACY #24739","address1": "12450 LAGRANGE ROAD","address2": "","city": "LOUISVILLE","state": "KY","zip": "40245","zip+4": "0000","phone": "5022416770"}
{"name": "WALGREEN DRUG STORE #6171","address1": "5900 TIMBER RIDGE DR","address2": "","city": "PROSPECT","state": "KY","zip": "40059","zip+4": "0000","phone": "5022283762"}
{"name": "SEMC MEDICAL VILLAGE PHARMACY","address1": "20 MEDICAL VILLAGE DR","address2": "","city": "EDGEWOOD","state": "KY","zip": "41017","zip+4": "0000","phone": "8593019025"}
{"name": "WAL-MART PHARMACY #102968","address1": "200 FLOYD DRIVE","address2": "","city": "CARROLLTON","state": "KY","zip": "41008","zip+4": "0000","phone": "5027320378"}
{"name": "MEDICAL CENTER PHARMACY","address1": "1010 MEDICAL CENTER DR","address2": "","city": "POWDERLY","state": "KY","zip": "42367","zip+4": "0000","phone": "2703389993"}
{"name": "HOPE FAMILY PHARMACY","address1": "835 PARKWAY DR","address2": "","city": "SALYERSVILLE","state": "KY","zip": "41465","zip+4": "0000","phone": "6063495124"}
{"name": "KROGER PHARMACY #24309","address1": "9812 LINN STATION RD","address2": "","city": "LOUISVILLE","state": "KY","zip": "40223","zip+4": "0000","phone": "5023270456"}
{"name": "KROGER PHARMACY #24339","address1": "2440 BARDSTOWN RD","address2": "","city": "LOUISVILLE","state": "KY","zip": "40205","zip+4": "0000","phone": "5024593248"}
{"name": "WOLFE PRESCRIPTION CENTER #008","address1": "237 MOUNTAIN PKWY SPUR","address2": "","city": "CAMPTON","state": "KY","zip": "41301","zip+4": "0000","phone": "6066683900"}
{"name": "SAMS PHARMACY #108111","address1": "1401 ALLIANT AVE","address2": "","city": "JEFFERSTOWN","state": "KY","zip": "40299","zip+4": "0000","phone": "5022674367"}
{"name": "SOUTHSIDE PHARMACY","address1": "102 E MAIN ST","address2": "","city": "EARLINGTON","state": "KY","zip": "42410","zip+4": "0000","phone": "2703833784"}
{"name": "DOWNING DRUGS INC","address1": "4863 A SCOTTSVILLE RD","address2": "","city": "BOWLING GREEN","state": "KY","zip": "42104","zip+4": "0000","phone": "2708463007"}
{"name": "PADUCAH PHARMACY","address1": "225 MEDICAL CENTER DR","address2": "SUITE 100","city": "PADUCAH","state": "KY","zip": "42003","zip+4": "0000","phone": "2704414390"}
{"name": "MED CARE PHARMACY LLC","address1": "350 ARISTOCRAT DRIVE","address2": "SUITE B","city": "FLORENCE","state": "KY","zip": "41042","zip+4": "0000","phone": "8002319070"}
{"name": "WALGREEN DRUG STORE #6429","address1": "521 LONE OAK RD","address2": "","city": "PADUCAH","state": "KY","zip": "42003","zip+4": "0000","phone": "2704421171"}
{"name": "LAKESHORE PHARMACY INC","address1": "51 W LAKESHORE DR","address2": "","city": "BURNSIDE","state": "KY","zip": "42519","zip+4": "0000","phone": "6065617104"}
{"name": "SAMS PHARMACY #108133","address1": "4949 HOUSTON ROAD","address2": "","city": "FLORENCE","state": "KY","zip": "41042","zip+4": "0000","phone": "8592835510"}
{"name": "SAMS PHARMACY #108276","address1": "6622 PRESTON HIGHWAY","address2": "","city": "LOUISVILLE","state": "KY","zip": "40219","zip+4": "0000","phone": "5029640342"}
{"name": "CORBIN PHARMACY","address1": "60 BRYAN BLVD","address2": "STE 201","city": "CORBIN","state": "KY","zip": "40701","zip+4": "0000","phone": "6065235585"}
{"name": "THOMPSON DRUG EAST BERNSTADT","address1": "1088 HWY 490","address2": "","city": "EAST BERNSTADT","state": "KY","zip": "40729","zip+4": "0000","phone": "6068432211"}
{"name": "TOTAL CARE PHARMACY #4","address1": "105 SPEARS LN","address2": "","city": "CRITTENDEN","state": "KY","zip": "41030","zip+4": "0000","phone": "8594280900"}
{"name": "KROGER PHARMACY #24411","address1": "179 WEST COLLEGE AVE","address2": "","city": "STANTON","state": "KY","zip": "40380","zip+4": "0000","phone": "6066632663"}
{"name": "RX CROSSROADS","address1": "4500 PROGRESS BLVD","address2": "","city": "LOUISVILLE","state": "KY","zip": "40218","zip+4": "0000","phone": "5024549013"}
{"name": "SAMS PHARMACY #108188","address1": "1063 NEW CIRCLE RD NE","address2": "","city": "LEXINGTON","state": "KY","zip": "40505","zip+4": "0000","phone": "8592816615"}
{"name": "PLAZA DRUG","address1": "731 N LAUREL RD","address2": "","city": "LONDON","state": "KY","zip": "40741","zip+4": "0000","phone": "6068642600"}
{"name": "VALUE MED PHARMACY","address1": "209 B N MAYO TRAIL","address2": "","city": "PAINTSVILLE","state": "KY","zip": "41240","zip+4": "0000","phone": "6067895995"}
{"name": "WHITAKER PHARMACY","address1": "644 N MAYSVILLE STREET","address2": "SUITE 2","city": "MT STERLING","state": "KY","zip": "40353","zip+4": "0000","phone": "8594983141"}
{"name": "DAFFRON KWIK SCRIPT PHARMACY","address1": "1316 COLUMBIA AVE","address2": "","city": "MONTICELLO","state": "KY","zip": "42633","zip+4": "0000","phone": "6063484455"}
{"name": "WILSON DRUG INC","address1": "2015B SOUTH MAIN STREET","address2": "","city": "PARIS","state": "KY","zip": "40361","zip+4": "0000","phone": "8599875255"}
{"name": "GRIDER DRUG LLC #3","address1": "2431 B LAKEWAY DR","address2": "","city": "RUSSELL SPRINGS","state": "KY","zip": "42642","zip+4": "0000","phone": "2708667541"}
{"name": "CVS PHARMACY #05437","address1": "1157 RIDGEWAY AVE","address2": "","city": "FALMOUTH","state": "KY","zip": "41040","zip+4": "0000","phone": "8596543398"}
{"name": "WEST SOMERSET PHARMACY INC","address1": "647 W HWY 80","address2": "","city": "SOMERSET","state": "KY","zip": "42503","zip+4": "0000","phone": "6066771922"}
{"name": "STANFORD DRUG INC","address1": "107 METKER TRAIL SUITE D","address2": "","city": "STANFORD","state": "KY","zip": "40484","zip+4": "0000","phone": "6063652100"}
{"name": "KING DRUG AND HOME CARE #MV","address1": "444 SOUTH MAIN STREET","address2": "","city": "MADISONVILLE","state": "KY","zip": "42431","zip+4": "0000","phone": "2708214999"}
{"name": "FOOD CITY PHARMACY #428","address1": "102 N 12TH STREET","address2": "","city": "MIDDLESBORO","state": "KY","zip": "40965","zip+4": "0000","phone": "6062487689"}
{"name": "THOMPSON DRUG SADDLEBROOK","address1": "575 W LAUREL RD","address2": "","city": "LONDON","state": "KY","zip": "40741","zip+4": "0000","phone": "6068626261"}
{"name": "BRODHEAD PHARMACY","address1": "54 WEST MAIN STREET","address2": "","city": "BRODHEAD","state": "KY","zip": "40409","zip+4": "0000","phone": "6067584373"}
{"name": "KROGER PHARMACY #24522","address1": "1213 SKYLINE DR","address2": "","city": "HOPKINSVILLE","state": "KY","zip": "42240","zip+4": "0000","phone": "2708864594"}
{"name": "KROGER PHARMACY #24737","address1": "1060 CHINOE RD STE 190","address2": "","city": "LEXINGTON","state": "KY","zip": "40502","zip+4": "0000","phone": "8593352380"}
{"name": "AVENUE PHARMACY","address1": "118 6TH AVE","address2": "","city": "DAYTON","state": "KY","zip": "41074","zip+4": "0000","phone": "8594911700"}
{"name": "WAL-MART PHARMACY #103294","address1": "7101 CEDAR SPRINGS BLVD","address2": "","city": "LOUISVILLE","state": "KY","zip": "40291","zip+4": "0000","phone": "5022316867"}
{"name": "REMKE PHARMACY #4","address1": "5016 OLD TAYLOR MILL RD","address2": "","city": "TAYLOR MILL","state": "KY","zip": "41015","zip+4": "0000","phone": "8596553901"}
{"name": "WAYNES PHARMACY","address1": "1230 US 127 S","address2": "","city": "FRANKFORT","state": "KY","zip": "40601","zip+4": "0000","phone": "5028752550"}
{"name": "APOTHECARY SHOPPE INC","address1": "1520 CUBA RD","address2": "","city": "MAYFIELD","state": "KY","zip": "42066","zip+4": "0000","phone": "2702473111"}
{"name": "TOWN HILL PHARMACY","address1": "115 TOWN HILL RD","address2": "STE 19","city": "LOUISA","state": "KY","zip": "41230","zip+4": "0000","phone": "6066380370"}
{"name": "TOLLESBORO CLINIC PHARMACY","address1": "RT 1 BOX 1005","address2": "","city": "TOLLESBORO","state": "KY","zip": "41189","zip+4": "0000","phone": "6067983151"}
{"name": "MIDWAY PHARMACY #3","address1": "104 N MAIN ST","address2": "","city": "CANEYVILLE","state": "KY","zip": "42721","zip+4": "0000","phone": "2708796355"}
{"name": "SOPERS FAMILY DRUG","address1": "102 S BROADWAY","address2": "","city": "CARLISLE","state": "KY","zip": "40311","zip+4": "0000","phone": "8592898501"}
{"name": "TARGET PHARMACY #1479","address1": "3600 MALL ROAD","address2": "","city": "LOUISVILLE","state": "KY","zip": "40218","zip+4": "0000","phone": "5024561441"}
{"name": "PAMIDA PHARMACY #22","address1": "671 WOLFORD AVE","address2": "","city": "LIBERTY","state": "KY","zip": "42539","zip+4": "0000","phone": "6067874236"}
{"name": "COXS VARIETY AND PHARMACY","address1": "4934 MANSLICK RD","address2": "","city": "LOUISVILLE","state": "KY","zip": "40216","zip+4": "0000","phone": "5023640901"}
{"name": "REMKE PHARMACY #9","address1": "82 CAROTHERS RD","address2": "","city": "NEWPORT","state": "KY","zip": "41071","zip+4": "0000","phone": "8596552241"}
{"name": "KROGER PHARMACY #24186","address1": "2219 HOLIDAY MANOR","address2": "","city": "LOUISVILLE","state": "KY","zip": "40222","zip+4": "0000","phone": "5023949483"}
{"name": "STULTZ PHARMACY INC","address1": "2420 ARGILLITE RD","address2": "STE A","city": "FLATWOODS","state": "KY","zip": "41139","zip+4": "0000","phone": "6068341052"}
{"name": "CAMARGO PHARMACY","address1": "3404 CAMARGO RD","address2": "","city": "MT STERLING","state": "KY","zip": "40353","zip+4": "0000","phone": "8594970009"}
{"name": "POOLES PHARMACY CARE","address1": "2200 E PARRISH AVE","address2": "STE 102","city": "OWENSBORO","state": "KY","zip": "42303","zip+4": "0000","phone": "2709266260"}
{"name": "DEOM'S HOMECARE PHARMACY","address1": "521 ROBINBROOKE BLVD","address2": "SUITE 106","city": "ELIZABETHTOWN","state": "KY","zip": "42701","zip+4": "0000","phone": "2707630203"}
{"name": "KROGER PHARMACY #14392","address1": "4303 WINSTON AVE","address2": "","city": "COVINGTON","state": "KY","zip": "41015","zip+4": "0000","phone": "8596550720"}
{"name": "FALLS ROAD PHARMACY","address1": "40 MOONBOW PLAZA","address2": "STE 1","city": "CORBIN","state": "KY","zip": "40701","zip+4": "0000","phone": "6062580000"}
{"name": "LAKER DRUG","address1": "92 JOE T PETTEY DR","address2": "STE 100","city": "RUSSELL SPRINGS","state": "KY","zip": "42642","zip+4": "0000","phone": "2708667787"}
{"name": "CEDAR TRACE PHARMACY INC","address1": "95 WEDDINGTON BRANCH RD","address2": "","city": "PIKEVILLE","state": "KY","zip": "41501","zip+4": "0000","phone": "6064322424"}
{"name": "CUMBERLAND DRUG CO","address1": "1803 E MAIN ST","address2": "","city": "CUMBERLAND","state": "KY","zip": "40823","zip+4": "0000","phone": "6065890003"}
{"name": "WALGREEN DRUG STORE #7093","address1": "1857 PLAUDIT PL","address2": "","city": "LEXINGTON","state": "KY","zip": "40509","zip+4": "0000","phone": "8595438228"}
{"name": "RICKS PHARMACY #2","address1": "2700 H C MATHIS DR","address2": "","city": "PADUCAH","state": "KY","zip": "42001","zip+4": "0000","phone": "2704442022"}
{"name": "MEDICINE SHOPPE #0654","address1": "238 E MAIN ST","address2": "","city": "RICHMOND","state": "KY","zip": "40475","zip+4": "0000","phone": "8596238900"}
{"name": "GOOD NEIGHBOR PHARMACY","address1": "60 CASSADY AVE","address2": "STE 3","city": "DANVILLE","state": "KY","zip": "40422","zip+4": "0000","phone": "8599361222"}
{"name": "TARGET PHARMACY #1513","address1": "7311 JEFFERSON BLVD","address2": "","city": "LOUISVILLE","state": "KY","zip": "40219","zip+4": "0000","phone": "5029689256"}
{"name": "NATIONS MEDICINES","address1": "3000 ALVEY PARK DR","address2": "","city": "OWENSBORO","state": "KY","zip": "42303","zip+4": "0000","phone": "2709264080"}
{"name": "RX DISCOUNT PHARMACY # #7","address1": "1841 N 25TH ST EXTENSION","address2": "","city": "MIDDLESBORO","state": "KY","zip": "40965","zip+4": "0000","phone": "6062489330"}
{"name": "DAVIS DRUGS LONE OAK","address1": "2855 LONE OAK RD","address2": "","city": "PADUCAH","state": "KY","zip": "42001","zip+4": "0000","phone": "2705545099"}
{"name": "TOYOTA FAMILY PHARMACY #12938","address1": "1001 CHERRY BLOSSOM WAY","address2": "GATE 7","city": "GEORGETOWN","state": "KY","zip": "40324","zip+4": "0000","phone": "5025706337"}
{"name": "MED CARE PHARMACY LLC GLASGOW","address1": "603 W MAIN ST","address2": "","city": "GLASGOW","state": "KY","zip": "42141","zip+4": "0000","phone": "2706512796"}
{"name": "TOTAL CARE PHARMACY #3","address1": "40 BROADWAY","address2": "","city": "DRY RIDGE","state": "KY","zip": "41035","zip+4": "0000","phone": "8598230200"}
{"name": "WALGREEN DRUG STORE #7664","address1": "600 S HIGHWAY 27","address2": "","city": "SOMERSET","state": "KY","zip": "42501","zip+4": "0000","phone": "6066770594"}
{"name": "WAL-MART PHARMACY #105183","address1": "3800 RUCKRIEGEL PARKWAY","address2": "","city": "JEFFERSONTOWN","state": "KY","zip": "40299","zip+4": "0000","phone": "5022665022"}
{"name": "SMITH MCKENNEY CO INC #2","address1": "141 BUCK CREEK RD","address2": "","city": "SIMPSONVILLE","state": "KY","zip": "40067","zip+4": "0000","phone": "5027228115"}
{"name": "BEREA WHITEHOUSE CLINIC PHARMA","address1": "104 LEGACY DR","address2": "","city": "BEREA","state": "KY","zip": "40403","zip+4": "0000","phone": "8599862323"}
{"name": "WALGREEN DRUG STORE #7685","address1": "2385 NASHVILLE RD","address2": "","city": "BOWLING GREEN","state": "KY","zip": "42101","zip+4": "4144","phone": "2703930268"}
{"name": "CVS PHARMACY #06244","address1": "6425 WEST HWY 146","address2": "","city": "CRESTWOOD","state": "KY","zip": "40014","zip+4": "0000","phone": "5022434094"}
{"name": "WALGREEN DRUG STORE #7315","address1": "13807 ENGLISH VILLA DRIVE","address2": "","city": "LOUISVILLE","state": "KY","zip": "40245","zip+4": "0000","phone": "5022542343"}
{"name": "ELKHORN DRUG INC","address1": "112 EAST MAIN ST","address2": "","city": "ELKHORN CITY","state": "KY","zip": "41522","zip+4": "0000","phone": "6067540221"}
{"name": "CARTER FAMILY PHARMACY","address1": "136 JESSICA LN","address2": "","city": "OLIVE HILL","state": "KY","zip": "41164","zip+4": "0000","phone": "6062862029"}
{"name": "KROGER PHARMACY #24913","address1": "1300 ANDERSON CROSSING DR","address2": "","city": "LAWRENCEBURG","state": "KY","zip": "40342","zip+4": "0000","phone": "5028591772"}
{"name": "KROGER PHARMACY #24728","address1": "185 ADAM SHEPHERD PARKWAY","address2": "","city": "SHEPHERDSVILLE","state": "KY","zip": "40165","zip+4": "0000","phone": "5025437247"}
{"name": "KNIGHTS PHARMACY","address1": "191 GLADES RD","address2": "","city": "BEREA","state": "KY","zip": "40403","zip+4": "0000","phone": "8599860500"}
{"name": "RX DISCOUNT PHARMACY # #8","address1": "1755 N HWY 27","address2": "","city": "WHITLEY CITY","state": "KY","zip": "42653","zip+4": "0000","phone": "6063767171"}
{"name": "COMMUNITY DRUG OF MANCHESTER","address1": "1668 HWY 421 S","address2": "","city": "MANCHESTER","state": "KY","zip": "40962","zip+4": "0000","phone": "6065990505"}
{"name": "CVS PHARMACY #05866","address1": "13900 SHELBYVILLE RD","address2": "","city": "LOUISVILLE","state": "KY","zip": "40245","zip+4": "0000","phone": "5022531959"}
{"name": "SAMS PHARMACY #106449","address1": "3550 JAMES SANDERS BLVD","address2": "","city": "PADUCAH","state": "KY","zip": "42001","zip+4": "0000","phone": "2704446992"}
{"name": "MED CARE PHARMACY","address1": "11420 WATTERSON COURT","address2": "SUITE 600","city": "LOUISVILLE","state": "KY","zip": "40299","zip+4": "0000","phone": "5022978802"}
{"name": "PARKWAY DRUG","address1": "100 PROFESSIONAL DR","address2": "STE 2","city": "LONDON","state": "KY","zip": "40741","zip+4": "0000","phone": "6063301314"}
{"name": "GOULDS DISCOUNT MEDICAL","address1": "3901 DUTCHMANS LANE","address2": "STE 100","city": "LOUISVILLE","state": "KY","zip": "40207","zip+4": "0000","phone": "5024912000"}
{"name": "WALGREEN DRUG STORE #7643","address1": "9801 BROWNSBORO RD","address2": "","city": "LOUISVILLE","state": "KY","zip": "40241","zip+4": "0000","phone": "5023270376"}
{"name": "WALGREEN DRUG STORE #7712","address1": "1001 W MAIN ST","address2": "","city": "GLASGOW","state": "KY","zip": "42141","zip+4": "0000","phone": "2706590146"}
{"name": "MED CARE PHARMACY LLC #4","address1": "12270 KEVIN DR","address2": "","city": "ASHLAND","state": "KY","zip": "41102","zip+4": "0000","phone": "6069299633"}
{"name": "HARLAN MEDICAL CENTER PHCY","address1": "132 VILLAGE CENTER","address2": "","city": "HARLAN","state": "KY","zip": "40831","zip+4": "0000","phone": "6065732004"}
{"name": "KROGER PHARMACY #14410","address1": "375 CROSSROADS BOULEVARD","address2": "","city": "COLD SPRINGS","state": "KY","zip": "41076","zip+4": "0000","phone": "8595724920"}
{"name": "PARKER PROFESSIONAL PHARMACY I","address1": "8857 META HWY","address2": "","city": "PIKEVILLE","state": "KY","zip": "41501","zip+4": "0000","phone": "6066319999"}
{"name": "KROGER PHARMACY #24752","address1": "3165 SOUTH 2ND STREET","address2": "","city": "LOUISVILLE","state": "KY","zip": "40208","zip+4": "0000","phone": "5023686153"}
{"name": "EXPRESS PHARMACY","address1": "2800 RADIO RD","address2": "","city": "ALMO","state": "KY","zip": "42020","zip+4": "0000","phone": "2707533634"}
{"name": "WAL-MART PHARMACY #105297","address1": "143 THIERMAN LANE","address2": "","city": "ST MATTHEWS","state": "KY","zip": "40207","zip+4": "0000","phone": "5028938110"}
{"name": "COMPLETE CARE PHARMACY","address1": "572 MORTON BLVD","address2": "","city": "HAZARD","state": "KY","zip": "41701","zip+4": "0000","phone": "6064871910"}
{"name": "CLARK COUNTY PHARMACY","address1": "1520-B BOONESBORO RD","address2": "","city": "WINCHESTER","state": "KY","zip": "40391","zip+4": "0000","phone": "8597443350"}
{"name": "REMKE PHARMACY #10","address1": "6920 BURLINGTON PIKE SR 18","address2": "","city": "FLORENCE","state": "KY","zip": "41042","zip+4": "0000","phone": "8592832730"}
{"name": "WAL-MART PHARMACY #102967","address1": "3450 VALLEY PLAZA PARKWAY","address2": "","city": "FORT WRIGHT","state": "KY","zip": "41017","zip+4": "0000","phone": "8593413714"}
{"name": "WALGREEN DRUG STORE #2225","address1": "1008 N MULBERRY ST","address2": "","city": "ELIZABETHTOWN","state": "KY","zip": "42701","zip+4": "0000","phone": "2707690753"}
{"name": "WAL-MART PHARMACY #105236","address1": "1201 MORGANTOWN ROAD","address2": "","city": "BOWLING GREEN","state": "KY","zip": "42101","zip+4": "0000","phone": "2707809331"}
{"name": "SIMS DRUG","address1": "319 E MAIN ST","address2": "","city": "WILMORE","state": "KY","zip": "40390","zip+4": "1323","phone": "8598582453"}
{"name": "HOMETOWN PHARMACY","address1": "95 JACKSON HEIGHTS DRIVE","address2": "","city": "JACKSON","state": "KY","zip": "41339","zip+4": "0000","phone": "6066665500"}
{"name": "EW JAMES PHARMACY #51","address1": "200 ST JOHN ROAD","address2": "","city": "ELIZABETHTOWN","state": "KY","zip": "42701","zip+4": "2919","phone": "2707699089"}
{"name": "E W JAMES PHARMACY #56","address1": "690 UNIVERSITY SHOPPING CENTER","address2": "","city": "RICHMOND","state": "KY","zip": "40475","zip+4": "0000","phone": "8596233412"}
{"name": "KROGER PHARMACY #14364","address1": "9950 BERBERICH DR","address2": "","city": "FLORENCE","state": "KY","zip": "41042","zip+4": "0000","phone": "8593723490"}
{"name": "CLAY DISCOUNT PHARMACY","address1": "2734 S HWY 421","address2": "","city": "MANCHESTER","state": "KY","zip": "40962","zip+4": "0000","phone": "6065980330"}
{"name": "MORTONS DISCOUNT DRUG #669674","address1": "10 DEMPSEY LN","address2": "","city": "CORBIN","state": "KY","zip": "40701","zip+4": "2765","phone": "6065282121"}
{"name": "WAL-MART PHARMACY #105418","address1": "2020 BASHFORD MANOR LANE","address2": "","city": "LOUISVILLE","state": "KY","zip": "40218","zip+4": "0000","phone": "5024516822"}
{"name": "FOOD CITY PHARMACY #471","address1": "429 UNIVERSITY DRIVE","address2": "","city": "PRESTONSBURG","state": "KY","zip": "41653","zip+4": "0000","phone": "6068899572"}
{"name": "WALGREEN DRUG STORE #7657","address1": "2318 FREDERICA ST","address2": "","city": "OWENSBORO","state": "KY","zip": "42301","zip+4": "0000","phone": "2706867866"}
{"name": "MEDICAL ARTS PHARMACY","address1": "300 S 8TH ST","address2": "ST 104E","city": "MURRAY","state": "KY","zip": "42071","zip+4": "2883","phone": "2707622011"}
{"name": "HEALTH FIRST PHARMACY","address1": "407 D COLUMBIA HWY","address2": "","city": "GREENSBURG","state": "KY","zip": "42743","zip+4": "0000","phone": "2702992467"}
{"name": "KROGER PHARMACY #24010","address1": "5594 SHEPHERDSVILLE ROAD","address2": "","city": "LOUISVILLE","state": "KY","zip": "40228","zip+4": "0000","phone": "5029618429"}
{"name": "WALGREEN DRUG STORE #9150","address1": "1205 MAIN ST","address2": "","city": "MURRAY","state": "KY","zip": "42071","zip+4": "0000","phone": "2707629992"}
{"name": "WALGREEN DRUG STORE #9005","address1": "200 BROADWAY E","address2": "","city": "LOUISVILLE","state": "KY","zip": "40202","zip+4": "0000","phone": "5025684571"}
{"name": "FOOD CITY PHARMACY #458","address1": "215 CASSIDY BLVD","address2": "","city": "PIKEVILLE","state": "KY","zip": "41502","zip+4": "0000","phone": "6064379209"}
{"name": "WAL-MART PHARMACY #103363","address1": "3151 STATE ROUTE 54","address2": "","city": "OWENSBORO","state": "KY","zip": "42303","zip+4": "0000","phone": "2706834099"}
{"name": "TARGET PHARMACY #0780","address1": "4640 TAYLORSVILLE RD","address2": "","city": "LOUISVILLE","state": "KY","zip": "40220","zip+4": "0000","phone": "5024932732"}
{"name": "TARGET PHARMACY #1071","address1": "4101 TOWNE CENTER DR","address2": "","city": "LOUISVILLE","state": "KY","zip": "40241","zip+4": "0000","phone": "5024122440"}
{"name": "LEWIS COUNTY PRIMARY CARE CNTR","address1": "211 KY 59","address2": "","city": "VANCEBURG","state": "KY","zip": "41179","zip+4": "0000","phone": "6067962686"}
{"name": "FLEMING DRUG","address1": "997 ELIZAVILLE AVE","address2": "STE A","city": "FLEMINGSBURG","state": "KY","zip": "41041","zip+4": "0000","phone": "6068492626"}
{"name": "BOONEVILLE DISCOUNT DRUGS","address1": "708 HWY 11 NORTH","address2": "","city": "BOONEVILLE","state": "KY","zip": "41314","zip+4": "0000","phone": "6065930382"}
{"name": "WAL-MART PHARMACY #105417","address1": "175 OUTER LOOP","address2": "","city": "LOUISVILLE","state": "KY","zip": "40214","zip+4": "0000","phone": "5023618299"}
{"name": "FOOD CITY PHARMACY #475","address1": "2138 S MAYO TRAIL","address2": "","city": "PIKEVILLE","state": "KY","zip": "41501","zip+4": "0000","phone": "6064322044"}
{"name": "REMKE PHARMACY #11","address1": "1952 NORTH BEND ROAD","address2": "","city": "HEBRON","state": "KY","zip": "41048","zip+4": "0000","phone": "8596896416"}
{"name": "RITE VALUE PHARMACY","address1": "2583 HWY 644","address2": "STE 3","city": "LOUISA","state": "KY","zip": "41230","zip+4": "0000","phone": "6066389627"}
{"name": "WALGREEN DRUG STORE #9225","address1": "11099 HIGHWAY 44 E","address2": "","city": "MOUNT WASHINGTON","state": "KY","zip": "40047","zip+4": "0000","phone": "5025383190"}
{"name": "WALGREEN DRUG STORE #9253","address1": "3360 IRVIN COBB DR","address2": "","city": "PADUCAH","state": "KY","zip": "42003","zip+4": "0000","phone": "2704446686"}
{"name": "WAL-MART PHARMACY #103362","address1": "14800 FORT CAMPBELL BLVD","address2": "","city": "OAK GROVE","state": "KY","zip": "42262","zip+4": "0000","phone": "2706405848"}
{"name": "WHITESVILLE DRUG STORE INC","address1": "10053 MAIN ST","address2": "","city": "WHITESVILLE","state": "KY","zip": "42378","zip+4": "0000","phone": "2702334166"}
{"name": "DUNCAN CLINIC PHARMACY","address1": "1111 MEDICAL CENTER CIRCLE","address2": "","city": "MAYFIELD","state": "KY","zip": "42066","zip+4": "0000","phone": "2702477000"}
{"name": "MED EXPRESS PHARMACY LLC","address1": "487 UNIVERSITY DR","address2": "","city": "PRESTONSBURG","state": "KY","zip": "41653","zip+4": "0000","phone": "6068869320"}
{"name": "AUDUBON PHARMACY","address1": "2355 POPLAR LEVEL RD","address2": "SUITE 101","city": "LOUISVILLE","state": "KY","zip": "40217","zip+4": "0000","phone": "5023711002"}
{"name": "KNOTT PRESCRIPTION CENTER","address1": "64A ROGER COMBS BLVD","address2": "","city": "HINDMAN","state": "KY","zip": "41822","zip+4": "0000","phone": "6067850889"}
{"name": "KING PHARMACY INC","address1": "900 MORTON BLVD","address2": "","city": "HAZARD","state": "KY","zip": "41701","zip+4": "0000","phone": "6064351067"}
{"name": "SAMS PHARMACY #104876","address1": "3200 KEN BALE BLVD","address2": "","city": "BOWLING GREEN","state": "KY","zip": "42103","zip+4": "0000","phone": "2707817727"}
{"name": "PARKVIEW PHARMACY INC","address1": "8274 KY RT 122","address2": "","city": "MINNIE","state": "KY","zip": "41651","zip+4": "0000","phone": "6063772117"}
{"name": "PHARMACY ALTERNATIVES","address1": "1620 E POINT PKWY","address2": "","city": "LOUISVILLE","state": "KY","zip": "40223","zip+4": "0000","phone": "5022454239"}
{"name": "RITE AID PHARMACY #07782","address1": "3813 DYLAN PLACE","address2": "","city": "LEXINGTON","state": "KY","zip": "40514","zip+4": "1062","phone": "8592190102"}
{"name": "KROGER PHARMACY #24753","address1": "1265 GOSS AVENUE","address2": "","city": "LOUISVILLE","state": "KY","zip": "40217","zip+4": "0000","phone": "5026340649"}
{"name": "MORGANS MEDICINE PLLC","address1": "360 KEEN ST","address2": "","city": "BURKESVILLE","state": "KY","zip": "42717","zip+4": "0000","phone": "2708642222"}
{"name": "WALGREEN DRUG STORE #9443","address1": "2188 MIDLAND TRAIL","address2": "","city": "SHELBYVILLE","state": "KY","zip": "40065","zip+4": "0000","phone": "5026330741"}
{"name": "VALUMARKET PHARMACY #46","address1": "205 OAKBROOK DR","address2": "","city": "MT WASHINGTON","state": "KY","zip": "40047","zip+4": "0000","phone": "5025386649"}
{"name": "HINKLE HOMETOWN DRUG STORE INC","address1": "590 OLD 25E","address2": "","city": "BARBOURVILLE","state": "KY","zip": "40906","zip+4": "0000","phone": "6065468860"}
{"name": "WALGREEN DRUG STORE #9360","address1": "8820 US 42","address2": "","city": "FLORENCE","state": "KY","zip": "41042","zip+4": "0000","phone": "8594880881"}
{"name": "KROGER PHARMACY #24763","address1": "520 N 35TH STREET","address2": "","city": "LOUISVILLE","state": "KY","zip": "40212","zip+4": "0000","phone": "5027763765"}
{"name": "VALUMARKET PHARMACY #43","address1": "315 WHITTINGTON PKWY","address2": "","city": "LOUISVILLE","state": "KY","zip": "40222","zip+4": "0000","phone": "5023278840"}
{"name": "EAST KY HLTH SERV CTR PHCY","address1": "588 HWY 899","address2": "","city": "HINDMAN","state": "KY","zip": "41822","zip+4": "0000","phone": "6067855407"}
{"name": "RED BIRD PHARMACY","address1": "53 QUEENSDALE CENTER","address2": "","city": "BEVERLY","state": "KY","zip": "40913","zip+4": "0000","phone": "6065983186"}
{"name": "KENTUCKY HEALTHCARE LLC","address1": "51 UPPER JOHNS CREEK","address2": "","city": "KIMPER","state": "KY","zip": "41539","zip+4": "0000","phone": "6066313327"}
{"name": "KROGER PHARMACY #24743","address1": "12611 TAYLORSVILLE ROAD","address2": "","city": "LOUISVILLE","state": "KY","zip": "40299","zip+4": "0000","phone": "5022617042"}
{"name": "WALGREEN DRUG STORE #09857","address1": "110 TOWN CENTER DR","address2": "","city": "LEXINGTON","state": "KY","zip": "40511","zip+4": "0000","phone": "8592882172"}
{"name": "HEALTHPARK PHARMACY","address1": "300 STATE HWY 1947","address2": "STE B","city": "GRAYSON","state": "KY","zip": "41143","zip+4": "0000","phone": "6064750232"}
{"name": "REMKE PHARMACY #7","address1": "560 CLOCK TOWER WY","address2": "","city": "CRESENT SPRINGS","state": "KY","zip": "41017","zip+4": "0000","phone": "8595784623"}
{"name": "RITE AID PHARMACY #07890","address1": "2626 FT CAMPBELL BOULEVARD","address2": "","city": "HOPKINSVILLE","state": "KY","zip": "42240","zip+4": "4939","phone": "2708856025"}
{"name": "KROGER PHARMACY #24766","address1": "200 E BRANNON RD","address2": "","city": "NICHOLASVILLE","state": "KY","zip": "40356","zip+4": "0000","phone": "8599714303"}
{"name": "WALGREEN DRUG STORE #09631","address1": "101 E REYNOLDS RD","address2": "","city": "LEXINGTON","state": "KY","zip": "40517","zip+4": "1249","phone": "8592720476"}
{"name": "CERTACARE INC","address1": "937 CAMPBELLSVILLE ROAD","address2": "","city": "COLUMBIA","state": "KY","zip": "42728","zip+4": "0000","phone": "6063870023"}
{"name": "WALGREEN DRUG STORE #09856","address1": "385 VERSAILLES RD","address2": "","city": "FRANKFORT","state": "KY","zip": "40601","zip+4": "3646","phone": "5026957364"}
{"name": "HANSON PHCY AND WELLNESS CNTR","address1": "7455 HANSON RD","address2": "","city": "HANSON","state": "KY","zip": "42413","zip+4": "0000","phone": "2703221234"}
{"name": "ESTILL CLINIC PHARMACY","address1": "275 N COURT ST","address2": "","city": "IRVINE","state": "KY","zip": "40336","zip+4": "0000","phone": "6067230044"}
{"name": "WALGREEN DRUG STORE #10207","address1": "152 N BUCKMAN ST","address2": "","city": "SHEPHERDSVILLE","state": "KY","zip": "40165","zip+4": "5900","phone": "5025432202"}
{"name": "WALGREEN DRUG STORE #10151","address1": "3700 FRANKFORT AVE","address2": "","city": "LOUISVILLE","state": "KY","zip": "40207","zip+4": "2551","phone": "5028999353"}
{"name": "NEIGHBORHOOD PHARMACY","address1": "5230 KY RT 321 STE 5","address2": "RIVERVIEW PROF BUILD","city": "PRESTONSBURG","state": "KY","zip": "41653","zip+4": "0000","phone": "6068898570"}
{"name": "RIVERSIDE PHARMACY","address1": "825 SECOND AVE EAST","address2": "SUITE A1","city": "BOWLING GREEN","state": "KY","zip": "42101","zip+4": "0000","phone": "2707802650"}
{"name": "URGENTCARE PHARMACY","address1": "1225 FAIRWAY ST","address2": "STE 100","city": "BOWLING GREEN","state": "KY","zip": "42103","zip+4": "0000","phone": "2707963500"}
{"name": "GENOA HEALTHCARE #56","address1": "1351 NEWTOWN PIKE BLDG 5","address2": "","city": "LEXINGTON","state": "KY","zip": "40511","zip+4": "1282","phone": "8595544187"}
{"name": "WALGREEN DRUG STORE #09855","address1": "1300 US HWY 127 S","address2": "STE E","city": "FRANKFORT","state": "KY","zip": "40601","zip+4": "4395","phone": "5022333728"}
{"name": "BOYD COUNTY PHARMACY","address1": "12544 US RT 60","address2": "","city": "ASHLAND","state": "KY","zip": "41102","zip+4": "0000","phone": "6069295301"}
{"name": "PROFESSIONAL PHCY OF HAZARD PL","address1": "124 GRAND VUE PLAZA","address2": "UNIT 6","city": "HAZARD","state": "KY","zip": "41701","zip+4": "0000","phone": "6064870910"}
{"name": "TARGET PHARMACY #0757","address1": "5151 FREDERICA ST","address2": "","city": "OWENSBORO","state": "KY","zip": "42301","zip+4": "0000","phone": "2706844362"}
{"name": "ST JOSEPH PHARMACY AT TAYLOR M","address1": "300 BERRY AVE","address2": "","city": "VERSAILLES","state": "KY","zip": "40385","zip+4": "0000","phone": "8598734201"}
{"name": "COSTCO PHARMACY #634","address1": "5020 NORTON HEALTHCARE BLVD","address2": "","city": "LOUISVILLE","state": "KY","zip": "40241","zip+4": "0000","phone": "5024200169"}
{"name": "FLAGG SPRINGS PHARMACY","address1": "3501 SHORTCUTT RD","address2": "","city": "CALIFORNIA","state": "KY","zip": "41007","zip+4": "0000","phone": "8594480309"}
{"name": "RITE AID PHARMACY #07920","address1": "104 PEDRO WAY","address2": "","city": "WINCHESTER","state": "KY","zip": "40391","zip+4": "8354","phone": "8597457870"}
{"name": "MOUNTAIN CLINIC PHARMACY","address1": "233 E MAIN ST","address2": "SUITE B","city": "HAZARD","state": "KY","zip": "41701","zip+4": "0000","phone": "6064360045"}
{"name": "POOLES PHARMACY CARE","address1": "311 HWY 431","address2": "","city": "LIVERMORE","state": "KY","zip": "42352","zip+4": "0000","phone": "2702785537"}
{"name": "COXS VARIETY AND PHARMACY","address1": "9843 3RD STREET RD","address2": "","city": "LOUISVILLE","state": "KY","zip": "40272","zip+4": "0000","phone": "5029338444"}
{"name": "BLUEGRASS FAMILY PHARMACY","address1": "2187 LEXINGTON RD","address2": "STE 1","city": "RICHMOND","state": "KY","zip": "40475","zip+4": "0000","phone": "8596249797"}
{"name": "BLUEGRASS LTC PHARMACY","address1": "1150 THORNBERRY DR","address2": "","city": "MADISONVILLE","state": "KY","zip": "42431","zip+4": "0000","phone": "2708217335"}
{"name": "HEALTHY WAY PHARMACY CEDARKNOL","address1": "1410 EAGLE DR","address2": "","city": "ASHLAND","state": "KY","zip": "41102","zip+4": "0000","phone": "6069281001"}
{"name": "RITE AID PHARMACY #07856","address1": "1401 KEENE ROAD","address2": "","city": "NICHOLASVILLE","state": "KY","zip": "40356","zip+4": "8922","phone": "8598818922"}
{"name": "WAL-MART PHARMACY #103894","address1": "2350 GREY LAG WAY ROAD","address2": "","city": "LEXINGTON","state": "KY","zip": "40509","zip+4": "0000","phone": "8592630526"}
{"name": "RICHMOND WHITE HOUSE CLINIC PH","address1": "401 HIGHLAND PARK","address2": "","city": "RICHMOND","state": "KY","zip": "40475","zip+4": "0000","phone": "8596267700"}
{"name": "WALGREEN DRUG STORE #09712","address1": "901 N MAIN ST","address2": "","city": "NICHOLASVILLE","state": "KY","zip": "40356","zip+4": "2309","phone": "8598818203"}
{"name": "COOKS PHARMACY #3","address1": "16 S MAIN ST","address2": "","city": "NEW CASTLE","state": "KY","zip": "40050","zip+4": "0000","phone": "5028452803"}
{"name": "RUSSELL SPRINGS PHARMACY LLC","address1": "92 JOE T PETTEY DRIVE","address2": "STE 100","city": "RUSSELL SPRINGS","state": "KY","zip": "42642","zip+4": "0000","phone": "2708662778"}
{"name": "RITE AID PHARMACY #07870","address1": "8014 BARDSTOWN ROAD","address2": "","city": "LOUISVILLE","state": "KY","zip": "40291","zip+4": "3440","phone": "5022391256"}
{"name": "BRENTWOOD PHARMACY","address1": "108 BRENTWOOD PLACE","address2": "","city": "CORBIN","state": "KY","zip": "40701","zip+4": "0000","phone": "6062589110"}
{"name": "PHARMACY PLUS","address1": "220 ABRAHAM FLEXNER WAY","address2": "","city": "LOUISVILLE","state": "KY","zip": "40202","zip+4": "0000","phone": "5025613905"}
{"name": "KING DRUG AND HOME CARE #MT","address1": "255 W GL SMITH ST","address2": "","city": "MORGANTOWN","state": "KY","zip": "42261","zip+4": "7919","phone": "2705266980"}
{"name": "APOTHECARE PHARMACY II AT CARD","address1": "908 WOODLAND DR","address2": "","city": "ELIZABETHTOWN","state": "KY","zip": "42701","zip+4": "0000","phone": "2709820303"}
{"name": "KROGER PHARMACY #24768","address1": "1600 LEESTOWN RD STE 150","address2": "STE 150","city": "LEXINGTON","state": "KY","zip": "40511","zip+4": "0000","phone": "8592590965"}
{"name": "WAL-MART PHARMACY #104413","address1": "4230 SARON DRIVE","address2": "","city": "LEXINGTON","state": "KY","zip": "40515","zip+4": "0000","phone": "5892721201"}
{"name": "WAL-MART PHARMACY #103841","address1": "3101 POPLAR LEVEL ROAD","address2": "","city": "LOUISVILLE","state": "KY","zip": "40213","zip+4": "0000","phone": "5026360124"}
{"name": "RITE AID PHARMACY #07842","address1": "6401 POLO CLUB LANE","address2": "","city": "LEXINGTON","state": "KY","zip": "40509","zip+4": "8561","phone": "8592940510"}
{"name": "QOL MEDS #060","address1": "3701 LANSDOWE DR","address2": "","city": "ASHLAND","state": "KY","zip": "41102","zip+4": "0000","phone": "6069209560"}
{"name": "CREECH AND GIBBS DRUG","address1": "13369 N US HWY 25E","address2": "","city": "CORBIN","state": "KY","zip": "40701","zip+4": "0000","phone": "6065231911"}
{"name": "QOL MEDS #065","address1": "2225 W BROADWAY ST","address2": "FIRST FLOOR","city": "LOUISVILLE","state": "KY","zip": "40211","zip+4": "0000","phone": "5027748299"}
{"name": "THE PLAZA PHARMACY","address1": "1389 HWY 15 NORTH","address2": "","city": "JACKSON","state": "KY","zip": "41339","zip+4": "0000","phone": "6066664444"}
{"name": "WALGREENS DRUG STORE #10801","address1": "2285 VERSAILLES RD","address2": "","city": "LEXINGTON","state": "KY","zip": "40504","zip+4": "1603","phone": "8592540237"}
{"name": "RX DISCOUNT PHARMACY #9","address1": "215 TREUHAFT BLVD","address2": "","city": "BARBOURVILLE","state": "KY","zip": "40906","zip+4": "0000","phone": "6062770579"}
{"name": "UROLOGY CENTER OF NORTHEASTERN","address1": "336 29TH ST","address2": "","city": "ASHLAND","state": "KY","zip": "41101","zip+4": "0000","phone": ""}
{"name": "ROCKCASTLE PROFESSIONAL PHCY","address1": "110 NEWCOMB AVE","address2": "","city": "MT VERNON","state": "KY","zip": "40456","zip+4": "0000","phone": "6062564613"}
{"name": "RITE AID PHARMACY #07892","address1": "100 MALABU DRIVE","address2": "","city": "LEXINGTON","state": "KY","zip": "40503","zip+4": "3159","phone": "8592782087"}
{"name": "E FILL RX #1","address1": "100 E LIBERTY ST","address2": "STE 700","city": "LOUISVILLE","state": "KY","zip": "40202","zip+4": "0000","phone": "5025688830"}
{"name": "WAL-MART PHARMACY #104450","address1": "12981 SHELBYVILLE ROAD","address2": "","city": "MIDDLETOWN","state": "KY","zip": "40243","zip+4": "0000","phone": "5022442276"}
{"name": "WAL-MART PHARMACY #104523","address1": "201 BLANKENBAKER PARKWAY","address2": "","city": "LOUISVILLE","state": "KY","zip": "40243","zip+4": "0000","phone": "5022445455"}
{"name": "TRI STATE HEMATOLOGY ONCOLOGY","address1": "617 23RD ST","address2": "STE 19","city": "ASHLAND","state": "KY","zip": "41101","zip+4": "0000","phone": "6063252221"}
{"name": "THE PHARMACY SHOP","address1": "455 A SOUTHLAND DR","address2": "","city": "LEXINGTON","state": "KY","zip": "40503","zip+4": "0000","phone": "8592787282"}
{"name": "PHARMACY PLUS #2","address1": "1850 BLUEGRASS AVE","address2": "","city": "LOUISVILLE","state": "KY","zip": "40215","zip+4": "0000","phone": "5023633791"}
{"name": "WALGREENS DRUG STORE #10315","address1": "2005 CENTENNIAL BLVD","address2": "","city": "INDEPENDENCE","state": "KY","zip": "41051","zip+4": "7041","phone": "8593633605"}
{"name": "HOMETOWN PHARMACY","address1": "406 BOGLE ST","address2": "","city": "SOMERSET","state": "KY","zip": "42503","zip+4": "0000","phone": "6066771062"}
{"name": "WAL-MART PHARMACY #104461","address1": "275 WALTON DRIVE","address2": "","city": "LOUISA","state": "KY","zip": "41230","zip+4": "0000","phone": "6066734912"}
{"name": "BATH HOMETOWN PHARMACY INC","address1": "19 MILLER DR","address2": "","city": "OWINGSVILLE","state": "KY","zip": "40360","zip+4": "0000","phone": "6066742423"}
{"name": "WALGREENS DRUG STORE #09412","address1": "5100 DIXIE HWY","address2": "","city": "LOUISVILLE","state": "KY","zip": "40216","zip+4": "0000","phone": "5024473347"}
{"name": "WALGREENS DRUG STORE #10507","address1": "807 S HIGHWAY 53","address2": "","city": "LAGRANGE","state": "KY","zip": "40031","zip+4": "9531","phone": "5022226550"}
{"name": "ASHLAND CENTER FOR WOMENS HEAL","address1": "617 23RD ST","address2": "STE 415","city": "ASHLAND","state": "KY","zip": "41101","zip+4": "0000","phone": "6063256888"}
{"name": "BRANDENBURG PHARMACY CARE","address1": "455 D BYPASS RD","address2": "","city": "BRANDENBURG","state": "KY","zip": "40108","zip+4": "0000","phone": "2704222422"}
{"name": "MEDICINE CABINET PHARMACY","address1": "280 RUSSELL RD","address2": "","city": "ASHLAND","state": "KY","zip": "41101","zip+4": "0000","phone": "6063246337"}
{"name": "WALGREEN DRUG STORE #11466","address1": "2045 BYPASS RD","address2": "","city": "WINCHESTER","state": "KY","zip": "40391","zip+4": "0000","phone": "8597441377"}
{"name": "UK NORTH FORK VALLEY COMMUNITY","address1": "750 MORTON BLVD","address2": "","city": "HAZARD","state": "KY","zip": "41701","zip+4": "0000","phone": "6064393557"}
{"name": "WALGREEN DRUG STORE #11198","address1": "3312 KY 54","address2": "","city": "OWENSBORO","state": "KY","zip": "42303","zip+4": "0000","phone": "2706836422"}
{"name": "CVS PHARMACY #07940","address1": "1221 FREDERICA ST","address2": "","city": "OWENSBORO","state": "KY","zip": "42301","zip+4": "0000","phone": "2706835086"}
{"name": "MAIN STREET PHARMACY","address1": "150 MAIN STREET PHARMACY","address2": "","city": "MT VERNON","state": "KY","zip": "40456","zip+4": "0000","phone": "6062560475"}
{"name": "WAL-MART PHARMACY #104524","address1": "5360 DIXIE HIGHWAY","address2": "","city": "LOUISVILLE","state": "KY","zip": "40216","zip+4": "0000","phone": "5024474745"}
{"name": "WAL-MART PHARMACY #104607","address1": "3735 PALOMAR CENTRE DRIVE","address2": "","city": "LEXINGTON","state": "KY","zip": "40513","zip+4": "0000","phone": "8592240495"}
{"name": "WALGREEN DRUG STORE #11394","address1": "1801 N MAIN ST","address2": "","city": "MADISONVILLE","state": "KY","zip": "42431","zip+4": "0000","phone": "2708210377"}
{"name": "KROGER PHARMACY #24757","address1": "181 SOUTH HWY 27","address2": "","city": "SOMERSET","state": "KY","zip": "42501","zip+4": "0000","phone": "6064514341"}
{"name": "PAMIDA PHARMACY #680","address1": "119 W SEMINARY ST","address2": "","city": "OWENTON","state": "KY","zip": "40359","zip+4": "0000","phone": "5024843444"}
{"name": "RITE AID PHARMACY #04006","address1": "704 HAPPY VALLEY ROAD","address2": "","city": "GLASGOW","state": "KY","zip": "42141","zip+4": "1544","phone": "2706296337"}
{"name": "MAYSVILLE OB GYN FAMILY HEALTH","address1": "927 KENTON STATION DRIVE","address2": "","city": "MAYSVILLE","state": "KY","zip": "41056","zip+4": "0000","phone": "6067591189"}
{"name": "WALGREEN DRUG STORE #11495","address1": "1 VIEWPOINT DR","address2": "","city": "ALEXANDRIA","state": "KY","zip": "41001","zip+4": "1086","phone": "8592630570"}
{"name": "WAL-MART PHARMACY #103610","address1": "7100 RAGGARD RD","address2": "","city": "LOUISVILLE","state": "KY","zip": "40216","zip+4": "0000","phone": "5024474556"}
{"name": "WESTERN STATE HOSPITAL PHARMAC","address1": "2400 RUSSELLVILLE RD","address2": "","city": "HOPKINSVILLE","state": "KY","zip": "42240","zip+4": "0000","phone": "2708896025"}
{"name": "UK JUNE BUCHANAN PHARMACY","address1": "59 COWTOWN RD","address2": "","city": "HINDMAN","state": "KY","zip": "41822","zip+4": "0000","phone": "6067853175"}
{"name": "PASADENA PHARMACY","address1": "280 PASADENA DR","address2": "","city": "LEXINGTON","state": "KY","zip": "40503","zip+4": "0000","phone": "8592602469"}
{"name": "SHELDON'S EXPRESS PHARMACY #2","address1": "760 CAMPBELL LANE","address2": "STE 121","city": "BOWLING GREEN","state": "KY","zip": "42104","zip+4": "0000","phone": "2707826337"}
{"name": "HINES PHARMACY","address1": "165 NATCHEZ TRACE AVE","address2": "STE 101","city": "BOWLING GREEN","state": "KY","zip": "42104","zip+4": "0000","phone": "2707961818"}
{"name": "PROFESSIONAL PHARMACY OF SOMER","address1": "342 BOGLE ST","address2": "","city": "SOMERSET","state": "KY","zip": "42503","zip+4": "0000","phone": "6066791169"}
{"name": "WINDHAM DRUG","address1": "1605 SOUTH HWY 25W","address2": "","city": "WILLIAMSBURG","state": "KY","zip": "40769","zip+4": "0000","phone": "6065493636"}
{"name": "EFILL RX #2","address1": "6400 DUTCHMANS PARKWAY","address2": "STE 140","city": "LOUISVILLE","state": "KY","zip": "40205","zip+4": "0000","phone": "5022595050"}
{"name": "WALGREEN DRUG STORE #11168","address1": "485 W 4TH ST","address2": "","city": "RUSSELLVILLE","state": "KY","zip": "42276","zip+4": "1324","phone": "2707261881"}
{"name": "KROGER LIMITED PARTNERSHIP I #","address1": "3105 N BEND RD","address2": "","city": "HEBRON","state": "KY","zip": "41048","zip+4": "0000","phone": "8599624920"}
{"name": "SMITHS GROVE RX SHOP","address1": "124 N MAIN STREET","address2": "","city": "SMITHS GROVE","state": "KY","zip": "42171","zip+4": "0000","phone": "2705632180"}
{"name": "KIMS HOMETOWN PHARMACY INC","address1": "865 US HIWY 25 W","address2": "","city": "WILLIAMSBURG","state": "KY","zip": "40769","zip+4": "0000","phone": "6065498700"}
{"name": "MIDWAY PHARMACY #4","address1": "9847 ELIZABETHTOWN","address2": "STE 102","city": "BIG CLIFTY","state": "KY","zip": "42712","zip+4": "0000","phone": "2702424344"}
{"name": "WALGREEN DRUG STORE #11307","address1": "824 N 3RD ST","address2": "","city": "BARDSTOWN","state": "KY","zip": "40004","zip+4": "0000","phone": "5023482985"}
{"name": "WALGREEN DRUG STORE #11761","address1": "635 DIXIE BLVD","address2": "","city": "RADCLIFF","state": "KY","zip": "40160","zip+4": "0000","phone": "2703520880"}
{"name": "WALGREEN DRUG STORE #11663","address1": "6301 HIGHWAY 329","address2": "","city": "CRESTWOOD","state": "KY","zip": "40014","zip+4": "9040","phone": "5022415991"}
{"name": "COMMONWEALTH PHARMACY","address1": "5425 NORTH MAYO TRAIL","address2": "STE 102","city": "PIKEVILLE","state": "KY","zip": "41501","zip+4": "0000","phone": "6064370701"}
{"name": "RITE AID PHARMACY #04041","address1": "2296 EXECUTIVE DRIVE","address2": "","city": "LEXINGTON","state": "KY","zip": "40505","zip+4": "4820","phone": "8592944202"}
{"name": "WALGREENS #12152","address1": "1775 HIGHWAY 192 W","address2": "","city": "LONDON","state": "KY","zip": "40741","zip+4": "0000","phone": "6068772727"}
{"name": "MADISON SOUTH PHARMACY","address1": "405 RICHMOND RD","address2": "STE D","city": "BEREA","state": "KY","zip": "40403","zip+4": "0000","phone": "8592280010"}
{"name": "LOUISVILLE ONCOLOGY PHARMACY S","address1": "2355 POPLAR LEVEL RD","address2": "STE 302","city": "LOUISVILLE","state": "KY","zip": "40217","zip+4": "0000","phone": "5026368088"}
{"name": "DONELLS PHARMACY","address1": "40 W HWY 72","address2": "","city": "BAXTER","state": "KY","zip": "40806","zip+4": "0000","phone": "6065734550"}
{"name": "TODDS LTC PHARMACY PLLC","address1": "120 LOTHBURY AVE","address2": "STE 2","city": "MIDDLESBORO","state": "KY","zip": "40965","zip+4": "0000","phone": "6062480171"}
{"name": "WALGREENS #11796","address1": "220 RICHMOND RD N","address2": "","city": "BEREA","state": "KY","zip": "40403","zip+4": "1319","phone": "8599861494"}
{"name": "WALGREENS #12076","address1": "512 W MAIN ST","address2": "","city": "LEBANON","state": "KY","zip": "40033","zip+4": "1339","phone": "2706920471"}
{"name": "WALGREENS #11884","address1": "1121 S US 25E","address2": "","city": "BARBOURVILLE","state": "KY","zip": "40906","zip+4": "0000","phone": "6065457314"}
{"name": "WALGREENS # #13034","address1": "528 W TENNESSEE AVE","address2": "","city": "PINEVILLE","state": "KY","zip": "40977","zip+4": "1437","phone": "6063371444"}
{"name": "KROGER LIMITED PARTNERSHIP I #","address1": "635 CHESTNUT DRIVE","address2": "","city": "WALTON","state": "KY","zip": "41094","zip+4": "0000","phone": "8596691620"}
{"name": "FAMILY PHARMACY","address1": "747 MORTON BLVD","address2": "","city": "HAZARD","state": "KY","zip": "41701","zip+4": "0000","phone": "6064871150"}
{"name": "SAM'S PHARMACY #104992","address1": "1500 RING RD","address2": "","city": "ELIZABETHTOWN","state": "KY","zip": "42701","zip+4": "0000","phone": "2707630755"}
{"name": "ARH COMMUNITY PHARMACY #Q15","address1": "210 BLACK GOLD BOULEVARD","address2": "SUITE 104","city": "HAZARD","state": "KY","zip": "41701","zip+4": "2620","phone": "6064877380"}
{"name": "C & C PHARMACY","address1": "3122 MAPLELEAF DR","address2": "","city": "LEXINGTON","state": "KY","zip": "40509","zip+4": "0000","phone": "8592631220"}
{"name": "MASON FAMILY DRUG","address1": "14 MEDICAL PARK DRIVE","address2": "","city": "MAYSVILLE","state": "KY","zip": "41056","zip+4": "0000","phone": "6067590700"}
{"name": "MEDICINE ARTS PHARMACY","address1": "818 US 31W BYP","address2": "","city": "BOWLING GREEN","state": "KY","zip": "42101","zip+4": "0000","phone": "2708433202"}
{"name": "AMERICA'S ASSISTED LIVING PHAR","address1": "3524 PARK PLAZA RD","address2": "","city": "PADUCAH","state": "KY","zip": "42001","zip+4": "0000","phone": "2704424579"}
{"name": "PATIENT CARE PHARMACY","address1": "104 LAWSON DRIVE","address2": "SUITE 101","city": "GEORGETOWN","state": "KY","zip": "40324","zip+4": "0000","phone": "5025708660"}
{"name": "EASTRIDGE-PHELPS PHARMACY","address1": "101 WINSTON WAY","address2": "SUITE A","city": "CAMPBELLSVILLE","state": "KY","zip": "42718","zip+4": "0000","phone": "2707890577"}
{"name": "RUWE FAMILY PHARMACY FLORENCE","address1": "7220 BURLINGTON PIKE","address2": "","city": "FLORENCE","state": "KY","zip": "41042","zip+4": "0000","phone": "8597462880"}
{"name": "QOL MEDS #260","address1": "2105 CRUMS LANE","address2": "","city": "LOUISVILLE","state": "KY","zip": "40216","zip+4": "0000","phone": "5024482007"}
{"name": "HOMETOWN PHARMACY","address1": "1502 OXFORD DR STE 150","address2": "SUITE 150","city": "GEORGETOWN","state": "KY","zip": "40324","zip+4": "0000","phone": "5028633784"}
{"name": "RX DISCOUNT PHARMACY #13","address1": "10036 HWY 15 SOUTH","address2": "","city": "HAPPY","state": "KY","zip": "41746","zip+4": "0000","phone": "6064762101"}
{"name": "WALGREENS #12587","address1": "679 S MAIN ST","address2": "","city": "MADISONVILLE","state": "KY","zip": "42431","zip+4": "0000","phone": "2708251541"}
{"name": "GRANT COUNTY DRUGS - NORTH","address1": "375 A VIOLET ROAD","address2": "","city": "CRITTENDEN","state": "KY","zip": "41030","zip+4": "0000","phone": "8594283784"}
{"name": "LOUISVILLE ORTHOPAEDIC CLINIC","address1": "4130 DUTCHMANS LANE","address2": "DUPONT SUB BLDG STE 300","city": "LOUISVILLE","state": "KY","zip": "40207","zip+4": "0000","phone": "5028971794"}
{"name": "BLACK GOLD PHARMACY","address1": "173 CITIZENS LANE","address2": "","city": "HAZARD","state": "KY","zip": "41701","zip+4": "0000","phone": "6064360045"}
{"name": "ORTHOPAEDIC SPECIALISTS PLLC","address1": "4003 KRESGE WAY","address2": "STE 300","city": "LOUISVILLE","state": "KY","zip": "40207","zip+4": "0000","phone": "5022122663"}
{"name": "ALFORD'S PHARMACY","address1": "210 S MAIN ST","address2": "SUITE 100 MAIN ST CENTER","city": "BROWNSVILLE","state": "KY","zip": "42210","zip+4": "0000","phone": "2705971044"}
{"name": "METCO PAIN ASSOCIATES","address1": "4121 DUTCHMANS LANE","address2": "STE 606","city": "LOUISVILLE","state": "KY","zip": "40207","zip+4": "0000","phone": "5028969877"}
{"name": "WALGREENS #12090","address1": "635 S 6TH ST","address2": "","city": "MAYFIELD","state": "KY","zip": "42066","zip+4": "2315","phone": "2702472272"}
{"name": "HOWARD FAMILY PHARMACYINC.","address1": "327 KY ROUTE 550","address2": "","city": "EASTERN","state": "KY","zip": "41622","zip+4": "6925","phone": "6063584800"}
{"name": "CVS PHARMACY # #08905","address1": "925 S. MAIN ST.","address2": "","city": "FRANKLIN","state": "KY","zip": "42134","zip+4": "2359","phone": "2705860787"}
{"name": "U OF L HLTH SRVCS - BELKNAP CA","address1": "CAMPUS HEALTH SERVICES","address2": "BELCAMP CAMPUS","city": "LOUISVILLE","state": "KY","zip": "40292","zip+4": "0000","phone": "5028526479"}
{"name": "WALGREEENS #12110","address1": "1802 S MAIN ST","address2": "","city": "CORBIN","state": "KY","zip": "40701","zip+4": "2446","phone": "6062581509"}
{"name": "WALGREENS #12111","address1": "990 E CUMBERLAND GAP PKWY","address2": "","city": "CORBIN","state": "KY","zip": "40701","zip+4": "2574","phone": "6062587980"}
{"name": "HOMETOWN PHARMACY OF MANCHESTE","address1": "397 OLD US HIGHWAY 421","address2": "","city": "MANCHESTER","state": "KY","zip": "40962","zip+4": "0000","phone": "6065986337"}
{"name": "U OF L HLTH SCIENCES CTR","address1": "401 E CHESTNUT ST UNIT 110","address2": "","city": "LOUISVILLE","state": "KY","zip": "40202","zip+4": "5712","phone": "5028526446"}
{"name": "IRVINE WHITE HOUSE CLINIC PHAR","address1": "926 RICHMOND ROAD","address2": "","city": "IRVINE","state": "KY","zip": "40336","zip+4": "0000","phone": "6067230665"}
{"name": "WALGREENS #11664","address1": "4926 CANE RUN RD","address2": "","city": "LOUISVILLE","state": "KY","zip": "40216","zip+4": "1149","phone": "5024495168"}
{"name": "MEDICINE CABINET PHARMACY","address1": "230 STATE HIGHWAY 2","address2": "","city": "OLIVE HILL","state": "KY","zip": "41164","zip+4": "8670","phone": "6062862035"}
{"name": "RX DISCOUNT OF BEREAPLLC #1","address1": "216 BRENWOOD ST","address2": "","city": "BEREA","state": "KY","zip": "40403","zip+4": "1637","phone": "8599857283"}
{"name": "TARGET PHARMACY #2728","address1": "12975 SHELBYVILLE RD STE 100","address2": "","city": "MIDDLETOWN","state": "KY","zip": "40243","zip+4": "2425","phone": "5029921238"}
{"name": "TARGET PHARMACY #2473","address1": "4174 WESTPORT RD","address2": "","city": "ST MATTHEWS","state": "KY","zip": "40207","zip+4": "2735","phone": "5029921040"}
{"name": "WALGREENS #11665","address1": "4310 OUTER LOOP","address2": "","city": "OKOLONA","state": "KY","zip": "40219","zip+4": "3853","phone": "5029622876"}
{"name": "WALGREENS #12075","address1": "926 S BROADWAY ST","address2": "","city": "GEORGETOWN","state": "KY","zip": "40324","zip+4": "1471","phone": "5028686027"}
{"name": "WALGREENS #10560","address1": "6620 BARDSTOWN RD","address2": "","city": "LOUISVILLE","state": "KY","zip": "40291","zip+4": "3045","phone": "5022311310"}
{"name": "NATION'S MEDICINES #T3","address1": "2435 NASHVILLE RD STE 10","address2": "","city": "BOWLING GREEN","state": "KY","zip": "42101","zip+4": "4030","phone": "2707838834"}
{"name": "KROGER PHARMACY #24758","address1": "234 EASTBROOKE DR","address2": "","city": "MT WASHINGTON","state": "KY","zip": "40047","zip+4": "5554","phone": "5025381241"}
{"name": "FRED'S PHARMACY #3808","address1": "316 MAIN ST","address2": "","city": "PAINTSVILLE","state": "KY","zip": "41240","zip+4": "1044","phone": "6067895371"}
{"name": "FRED'S PHARMACY #3508","address1": "150 WESTVIEW SHOPPING CTR","address2": "","city": "ALBANY","state": "KY","zip": "42602","zip+4": "1600","phone": "6063872031"}
{"name": "JORDAN DRUG #9 #09","address1": "200 MULBERRY STSTE B","address2": "","city": "BOONEVILLE","state": "KY","zip": "41314","zip+4": "0000","phone": "6065938300"}
{"name": "WOMEN FIRST OF LOUISVILLE,","address1": "3900 KREGE WAY","address2": "STE 30","city": "LOUISVILLE","state": "KY","zip": "40207","zip+4": "0000","phone": "5028918701"}
{"name": "KENTUCKIANA PAIN SPECIALIS","address1": "2831 SOUTH HURSTBOURNE PKWY","address2": "STE A","city": "LOUISVILLE","state": "KY","zip": "40220","zip+4": "0000","phone": "5029954004"}
{"name": "JORDAN DRUG INC","address1": "PO BOX 346","address2": "","city": "BEATTYVILLE","state": "KY","zip": "41311","zip+4": "0000","phone": "6064643901"}
{"name": "APPALACHIAN REGIONAL HEALTH","address1": "2000 CENTRAL AVE","address2": "","city": "S WILLIAMSON","state": "KY","zip": "41543","zip+4": "0000","phone": "6064396988"}
{"name": "GERIMED LTC","address1": "9707 SHELBYVILLE RD","address2": "","city": "LOUISVILLE","state": "KY","zip": "40223","zip+4": "0000","phone": "5024230351"}