{"name": "NORTHERN PCHY AND MED EQUIPMEN","address1": "6701 HARFORD ROAD","address2": "","city": "BALTIMORE","state": "MD","zip": "21234","zip+4": "0000","phone": "4102542055"}
{"name": "RITE AID PHARMACY #11214","address1": "1623 OLD TOWNE ROAD","address2": "","city": "CUMBERLAND","state": "MD","zip": "21502","zip+4": "0000","phone": "3017224080"}
{"name": "CVS PHARMACY #01434","address1": "7939 NEW HAMPSHIRE AVE","address2": "","city": "LANGLEY PARK","state": "MD","zip": "20783","zip+4": "0000","phone": "3014343121"}
{"name": "CVS PHARMACY #01436","address1": "3130 QUEENS CHAPEL RD","address2": "","city": "HYATTSVILLE","state": "MD","zip": "20782","zip+4": "0000","phone": "3018647177"}
{"name": "CVS PHARMACY #01439","address1": "10113 NEW HAMPSHIRE AVE","address2": "","city": "SILVER SPRING","state": "MD","zip": "20903","zip+4": "0000","phone": "3014391360"}
{"name": "CVS PHARMACY #01440","address1": "12209 VIERS MILL RD","address2": "","city": "WHEATON","state": "MD","zip": "20906","zip+4": "0000","phone": "3019493033"}
{"name": "CVS PHARMACY #01441","address1": "1580 ROCKVILLE PIKE","address2": "","city": "ROCKVILLE","state": "MD","zip": "20852","zip+4": "0000","phone": "3018816070"}
{"name": "CVS PHARMACY #01442","address1": "10 E WILSON BLVD","address2": "","city": "HAGERSTOWN","state": "MD","zip": "21740","zip+4": "0000","phone": "3017900710"}
{"name": "CVS PHARMACY #01443","address1": "7401 7467 ANNAPOLIS RD","address2": "","city": "LANDOVER HILLS","state": "MD","zip": "20784","zip+4": "0000","phone": "3015777282"}
{"name": "CVS PHARMACY #01444","address1": "7300 WASHINGTON BALTIMORE BLVD","address2": "","city": "COLLEGE PARK","state": "MD","zip": "20740","zip+4": "0000","phone": "3012776114"}
{"name": "CVS PHARMACY #01447","address1": "320 DOMER ST","address2": "","city": "LAUREL","state": "MD","zip": "20707","zip+4": "0000","phone": "3017767514"}
{"name": "CVS PHARMACY #01449","address1": "7955 TUCKERMAN LANE","address2": "","city": "ROCKVILLE","state": "MD","zip": "20854","zip+4": "0000","phone": "3012993717"}
{"name": "CVS PHARMACY #01451","address1": "6920 LAUREL BOWIE RD","address2": "","city": "BOWIE","state": "MD","zip": "20715","zip+4": "0000","phone": "3012628400"}
{"name": "CVS PHARMACY #01452","address1": "12215 DARNESTOWN RD","address2": "","city": "GAITHERSBURG","state": "MD","zip": "20878","zip+4": "2205","phone": "3019488010"}
{"name": "CVS PHARMACY #01453","address1": "5707 RIVERDALE RD","address2": "","city": "RIVERDALE","state": "MD","zip": "20737","zip+4": "0000","phone": "3012774838"}
{"name": "CVS PHARMACY #01459","address1": "12359 GEORGIA AVE","address2": "","city": "SILVER SPRINGS","state": "MD","zip": "20906","zip+4": "0000","phone": "3019422300"}
{"name": "CVS PHARMACY #01461","address1": "15600 COLUMBIA PIKE","address2": "","city": "BURTONSVILLE","state": "MD","zip": "20866","zip+4": "0000","phone": "3014219060"}
{"name": "CVS PHARMACY #01468","address1": "10141 COLESVILLE RD","address2": "","city": "SILVER SPRING","state": "MD","zip": "20901","zip+4": "0000","phone": "3015935252"}
{"name": "CVS PHARMACY #01469","address1": "4901 INDIAN HEAD HWY","address2": "","city": "OXON HILL","state": "MD","zip": "20745","zip+4": "0000","phone": "3018393400"}
{"name": "CVS PHARMACY #01475","address1": "10233 OLD GEORGETOWN RD","address2": "","city": "BETHESDA","state": "MD","zip": "20814","zip+4": "0000","phone": "3015303666"}
{"name": "CVS PHARMACY #01477","address1": "1290 E WEST HWY","address2": "","city": "SILVER SPRING","state": "MD","zip": "20910","zip+4": "0000","phone": "3015886261"}
{"name": "CVS PHARMACY #01479","address1": "6917 ARLINGTON RD","address2": "","city": "BETHESDA","state": "MD","zip": "20814","zip+4": "0000","phone": "3016562522"}
{"name": "CVS PHARMACY #01480","address1": "4450 INDIAN HEAD HWY","address2": "","city": "INDIAN HEAD","state": "MD","zip": "20640","zip+4": "0000","phone": "3017435541"}
{"name": "CVS PHARMACY #01481","address1": "2945 FESTIVAL WAY","address2": "","city": "WALDORF","state": "MD","zip": "20601","zip+4": "0000","phone": "3018436331"}
{"name": "CVS PHARMACY #01484","address1": "402 SOUTH JEFFERSON ST","address2": "","city": "FREDERICK","state": "MD","zip": "21701","zip+4": "0000","phone": "3016634861"}
{"name": "CVS PHARMACY #01485","address1": "13729 CONNECTICUT AVE","address2": "","city": "WHEATON","state": "MD","zip": "20906","zip+4": "0000","phone": "3018717511"}
{"name": "CVS PHARMACY #01486","address1": "5621 SARGENT RD","address2": "","city": "HYATTSVILLE","state": "MD","zip": "20782","zip+4": "0000","phone": "3015593333"}
{"name": "CVS PHARMACY #01489","address1": "6516 LANDOVER RD","address2": "","city": "LANDOVER","state": "MD","zip": "20785","zip+4": "0000","phone": "3017733355"}
{"name": "CVS PHARMACY #01490","address1": "546 N FREDERICK AVE","address2": "","city": "GAITHERSBURG","state": "MD","zip": "20877","zip+4": "0000","phone": "3019483250"}
{"name": "CVS PHARMACY #01491","address1": "8859 BRANCH AVE","address2": "","city": "CLINTON","state": "MD","zip": "20735","zip+4": "0000","phone": "3018684055"}
{"name": "CVS PHARMACY #01492","address1": "9520 GEORGIA AVE","address2": "","city": "SILVER SPRING","state": "MD","zip": "20910","zip+4": "0000","phone": "3015853136"}
{"name": "CVS PHARMACY #01498","address1": "13320 LAUREL BOWIE RD","address2": "","city": "LAUREL","state": "MD","zip": "20708","zip+4": "0000","phone": "3017763660"}
{"name": "CVS PHARMACY #01463","address1": "1301 LAMBERTON DRIVE","address2": "","city": "SILVER SPRING","state": "MD","zip": "20902","zip+4": "0000","phone": "3016493500"}
{"name": "CVS PHARMACY #01454","address1": "1334 CRAIN HWY SOUTH","address2": "","city": "BOWIE","state": "MD","zip": "20716","zip+4": "0000","phone": "3012496515"}
{"name": "CVS PHARMACY #01499","address1": "2271 BEL PRE RD","address2": "","city": "SILVER SPRING","state": "MD","zip": "20906","zip+4": "0000","phone": "3015986617"}
{"name": "CVS PHARMACY #01435","address1": "1519 21 POTOMAC AVE","address2": "","city": "HAGERSTOWN","state": "MD","zip": "21742","zip+4": "0000","phone": "3017338515"}
{"name": "CVS PHARMACY #01448","address1": "8201 ANNAPOLIS RD","address2": "","city": "NEW CARROLLTON","state": "MD","zip": "20784","zip+4": "0000","phone": "3015776222"}
{"name": "CVS PHARMACY #01495","address1": "11729 BELTSVILLE DR CALVERTON","address2": "","city": "BELTSVILLE","state": "MD","zip": "20705","zip+4": "0000","phone": "3015725500"}
{"name": "CVS PHARMACY #01474","address1": "1305 WEST SEVENTH ST","address2": "","city": "FREDERICK","state": "MD","zip": "21702","zip+4": "0000","phone": "3016625888"}
{"name": "CVS PHARMACY #01501","address1": "19100 MONTGOMERY VLG AVE","address2": "","city": "GAITHERSBURG","state": "MD","zip": "20886","zip+4": "0000","phone": "3019489886"}
{"name": "CVS PHARMACY #01496","address1": "7050 ALLENTOWN RD","address2": "","city": "CAMP SPRINGS","state": "MD","zip": "20748","zip+4": "0000","phone": "3014494221"}
{"name": "CVS PHARMACY #01502","address1": "5560 NORBECK RD","address2": "","city": "ROCKVILLE","state": "MD","zip": "20853","zip+4": "0000","phone": "3014601120"}
{"name": "GIANT PHARMACY #108","address1": "6340 YORK ROAD","address2": "","city": "BALTIMORE","state": "MD","zip": "21212","zip+4": "0000","phone": "4103774400"}
{"name": "CVS PHARMACY #01488","address1": "6260 CRAIN HWY","address2": "","city": "LA PLATA","state": "MD","zip": "20646","zip+4": "0000","phone": "3019349564"}
{"name": "GIANT PHARMACY #353","address1": "8100 LOCH RAVEN BOULEVARD","address2": "","city": "BALTIMORE","state": "MD","zip": "21286","zip+4": "0000","phone": "4108216611"}
{"name": "GIANT PHARMACY #117","address1": "622325 BALTIMORE NATIONAL PIKE","address2": "","city": "BALTIMORE","state": "MD","zip": "21228","zip+4": "0000","phone": "4107886220"}
{"name": "GIANT PHARMACY #159","address1": "3757 OLD COURT RD","address2": "","city": "PIKESVILLE","state": "MD","zip": "21208","zip+4": "0000","phone": "4106027661"}
{"name": "GIANT PHARMACY #128","address1": "2145 YORK ROAD","address2": "","city": "LUTHERVILLE","state": "MD","zip": "21093","zip+4": "0000","phone": "4102524217"}
{"name": "GIANT PHARMACY #119","address1": "15500 ANNAPOLIS ROAD SUITE 195","address2": "","city": "BOWIE","state": "MD","zip": "20715","zip+4": "0000","phone": "3012622008"}
{"name": "GIANT PHARMACY #366","address1": "8750 ARLISS STREET","address2": "","city": "SILVER SPRING","state": "MD","zip": "20901","zip+4": "0000","phone": "3015852777"}
{"name": "GIANT PHARMACY #316","address1": "6000 GREENBELT RD","address2": "","city": "GREENBELT","state": "MD","zip": "20770","zip+4": "0000","phone": "3019822359"}
{"name": "GIANT PHARMACY #125","address1": "12051 ROCKVILLE PIKE","address2": "","city": "ROCKVILLE","state": "MD","zip": "20852","zip+4": "0000","phone": "3018812225"}
{"name": "GIANT PHARMACY #103","address1": "6626 RITCHIE HIGHWAY","address2": "","city": "GLEN BURNIE","state": "MD","zip": "21061","zip+4": "0000","phone": "4107680120"}
{"name": "GIANT PHARMACY #352","address1": "3602 MILFORD MILL ROAD","address2": "","city": "BALTIMORE","state": "MD","zip": "21244","zip+4": "0000","phone": "4109222400"}
{"name": "BAILEYS PHARMACY INC","address1": "714 PHILADELPHIA AVE","address2": "","city": "OCEAN CITY","state": "MD","zip": "21842","zip+4": "3847","phone": "4102898191"}
{"name": "RITE AID PHARMACY #11198","address1": "21800 SHANGRILA LANE NORTH","address2": "UNIT 6","city": "LEXINGTON PARK","state": "MD","zip": "20653","zip+4": "0000","phone": "3018622134"}
{"name": "CITY PHARMACY INC","address1": "723 BRIDGE STREET","address2": "","city": "ELKTON","state": "MD","zip": "21921","zip+4": "0000","phone": "4103984383"}
{"name": "FALLSTON PHARMACY #14","address1": "2112 BELAIR RD","address2": "STE 11","city": "FALLSTON","state": "MD","zip": "21047","zip+4": "0000","phone": "4108799000"}
{"name": "CVS PHARMACY #01437","address1": "1301 WEST PATRICK ST FREDERICK","address2": "","city": "FREDERICK","state": "MD","zip": "21702","zip+4": "0000","phone": "3016629522"}
{"name": "GIANT PHARMACY #127","address1": "17821 GEORGIA AVENUE","address2": "","city": "OLNEY","state": "MD","zip": "20832","zip+4": "0000","phone": "3017746304"}
{"name": "CVS PHARMACY #01456","address1": "10692 CAMPUS WAY SOUTH KETTERI","address2": "","city": "UPPER MARLBORO","state": "MD","zip": "20774","zip+4": "0000","phone": "3013362900"}
{"name": "CVS PHARMACY #01500","address1": "9950 LEWIS DRIVE","address2": "","city": "DAMASCUS","state": "MD","zip": "20872","zip+4": "0000","phone": "3012535133"}
{"name": "KAY CEE DRUGS AND MEDICAL EQUI","address1": "6110 OLD SILVER ROAD","address2": "","city": "DISTRICT HEIGHTS","state": "MD","zip": "20747","zip+4": "0000","phone": "3017357700"}
{"name": "GIANT PHARMACY #132","address1": "10400 OLD GEORGETOWN ROAD","address2": "","city": "BETHESDA","state": "MD","zip": "20814","zip+4": "0000","phone": "3015303271"}
{"name": "CVS PHARMACY #04044","address1": "133 BALTIMORE ST","address2": "","city": "CUMBERLAND","state": "MD","zip": "21502","zip+4": "0000","phone": "3017245025"}
{"name": "CVS PHARMACY #04079","address1": "5603 BALTIMORE NATIONAL PIKE","address2": "","city": "BALTIMORE","state": "MD","zip": "21228","zip+4": "0000","phone": "4107441422"}
{"name": "CVS PHARMACY #04107","address1": "6828 REISTERSTOWN RD","address2": "","city": "BALTIMORE","state": "MD","zip": "21215","zip+4": "0000","phone": "4107643445"}
{"name": "CVS PHARMACY #04129","address1": "1000 TAYLOR AVE","address2": "","city": "TOWSON","state": "MD","zip": "21286","zip+4": "0000","phone": "4108280708"}
{"name": "CVS PHARMACY #04199","address1": "34 N CANNON AVE","address2": "","city": "HAGERSTOWN","state": "MD","zip": "21740","zip+4": "0000","phone": "3019788400"}
{"name": "GIANT PHARMACY #136","address1": "9200 BALTIMORE NATIONAL PIKE","address2": "","city": "ELLICOTT CITY","state": "MD","zip": "21042","zip+4": "0000","phone": "4104655683"}
{"name": "VILLAGE PHARMACISTS","address1": "19271 MONTGOMERY VILLAGE","address2": "","city": "MONTGOMERY VILLAGE","state": "MD","zip": "20886","zip+4": "0000","phone": "3019488545"}
{"name": "RITE AID PHARMACY #00326","address1": "301 WEST LEXINGTON STREET","address2": "","city": "BALTIMORE","state": "MD","zip": "21201","zip+4": "3414","phone": "4107271108"}
{"name": "RITE AID PHARMACY #00334","address1": "711 WEST 40TH STREET","address2": "","city": "BALTIMORE","state": "MD","zip": "21211","zip+4": "2120","phone": "4104673343"}
{"name": "RITE AID PHARMACY #00336","address1": "3133 GREENMOUNT AVENUE","address2": "","city": "BALTIMORE","state": "MD","zip": "21218","zip+4": "3418","phone": "4104671412"}
{"name": "RITE AID PHARMACY #00337","address1": "3935 37 ERDMAN AVENUE","address2": "","city": "BALTIMORE","state": "MD","zip": "21213","zip+4": "2004","phone": "4103422606"}
{"name": "RITE AID PHARMACY #00339","address1": "29 31 SHIPPING PLACE","address2": "","city": "BALTIMORE","state": "MD","zip": "21222","zip+4": "4313","phone": "4102820020"}
{"name": "RITE AID PHARMACY #00347","address1": "22 CARROLL PLAZA","address2": "","city": "WESTMINSTER","state": "MD","zip": "21157","zip+4": "4831","phone": "4108761513"}
{"name": "RITE AID PHARMACY #00349","address1": "4380 PARK HEIGHTS AVENUE","address2": "","city": "BALTIMORE","state": "MD","zip": "21215","zip+4": "6737","phone": "4106648644"}
{"name": "RITE AID PHARMACY #00350","address1": "3425 BELAIR ROAD","address2": "","city": "BALTIMORE","state": "MD","zip": "21213","zip+4": "1246","phone": "4104888402"}
{"name": "RITE AID PHARMACY #00352","address1": "3700 FALLS ROAD","address2": "","city": "BALTIMORE","state": "MD","zip": "21211","zip+4": "2432","phone": "4104677004"}
{"name": "RITE AID PHARMACY #00354","address1": "2043 MONDAWMIN MALL","address2": "","city": "BALTIMORE","state": "MD","zip": "21215","zip+4": "8024","phone": "4105236315"}
{"name": "RITE AID PHARMACY #00355","address1": "125 EAST BALTIMORE STREET","address2": "","city": "BALTIMORE","state": "MD","zip": "21202","zip+4": "1607","phone": "4106854340"}
{"name": "RITE AID PHARMACY #00356","address1": "3804 LIBERTY HEIGHTS AVENUE","address2": "","city": "BALTIMORE","state": "MD","zip": "21215","zip+4": "7119","phone": "4103675151"}
{"name": "RITE AID PHARMACY #00366","address1": "2497 FREDERICK AVENUE","address2": "2497 FREDERICK AVENUE","city": "BALTIMORE","state": "MD","zip": "21223","zip+4": "2856","phone": "4109470500"}
{"name": "RITE AID PHARMACY #00367","address1": "4214 FRANKFORD AVENUE","address2": "4214 FRANKFORD AVENUE","city": "BALTIMORE","state": "MD","zip": "21206","zip+4": "5131","phone": "4104883500"}
{"name": "RITE AID PHARMACY #00368","address1": "1538-42 HAVENWOOD ROAD","address2": "1538 42 HAVENWOOD ROAD","city": "BALTIMORE","state": "MD","zip": "21218","zip+4": "1629","phone": "4108893227"}
{"name": "RITE AID PHARMACY #00369","address1": "7649-51 HARFORD ROAD","address2": "7649 51 HARFORD ROAD","city": "BALTIMORE","state": "MD","zip": "21234","zip+4": "6401","phone": "4104444700"}
{"name": "RITE AID PHARMACY #00372","address1": "6838 LOCH RAVEN BOULEVARD","address2": "","city": "BALTIMORE","state": "MD","zip": "21286","zip+4": "8301","phone": "4108258900"}
{"name": "RITE AID PHARMACY #00373","address1": "1340 EASTERN BOULEVARD","address2": "","city": "BALTIMORE","state": "MD","zip": "21221","zip+4": "3423","phone": "4107807020"}
{"name": "RITE AID PHARMACY #00374","address1": "5624 BALTIMORE NATIONAL PARK","address2": "","city": "BALTIMORE","state": "MD","zip": "21228","zip+4": "1401","phone": "4107197608"}
{"name": "RITE AID PHARMACY #00377","address1": "4733 WESTLAND BOULEVARD","address2": "","city": "ARBUTUS","state": "MD","zip": "21227","zip+4": "1320","phone": "4102472614"}
{"name": "RITE AID PHARMACY #00381","address1": "1762 MERRITT BOULEVARD","address2": "1762 MERRITT BLVD","city": "BALTIMORE","state": "MD","zip": "21222","zip+4": "3212","phone": "4102824020"}
{"name": "RITE AID PHARMACY #00382","address1": "11917 19 REISTERSTOWN ROAD","address2": "","city": "REISTERSTOWN","state": "MD","zip": "21136","zip+4": "3030","phone": "4108330183"}
{"name": "RITE AID PHARMACY #00383","address1": "4339 EBENEZER ROAD","address2": "4339 EBENEZER ROAD","city": "BALTIMORE","state": "MD","zip": "21236","zip+4": "2143","phone": "4105296171"}
{"name": "RITE AID PHARMACY #00384","address1": "8601 BALTIMORE NATIONAL PIKE","address2": "","city": "ELLICOTT CITY","state": "MD","zip": "21043","zip+4": "4176","phone": "4104801377"}
{"name": "RITE AID PHARMACY #00385","address1": "5804 RITCHIE HIGHWAY","address2": "","city": "BALTIMORE","state": "MD","zip": "21225","zip+4": "3743","phone": "4107893775"}
{"name": "RITE AID PHARMACY #00386","address1": "25 JONES STATION ROAD WEST","address2": "","city": "SEVERNA PARK","state": "MD","zip": "21146","zip+4": "4200","phone": "4106470451"}
{"name": "RITE AID PHARMACY #00390","address1": "8634 LIBERTY ROAD","address2": "","city": "RANDALLSTOWN","state": "MD","zip": "21133","zip+4": "4707","phone": "4106552159"}
{"name": "RITE AID PHARMACY #00391","address1": "1411 YORK ROAD","address2": "1411 YORK ROAD","city": "LUTHERVILLE","state": "MD","zip": "21093","zip+4": "6014","phone": "4103217161"}
{"name": "RITE AID PHARMACY #00392","address1": "122 CRANBROOK ROAD","address2": "122 CRANBROOK ROAD","city": "COCKEYSVILLE","state": "MD","zip": "21030","zip+4": "3405","phone": "4106284190"}
{"name": "RITE AID PHARMACY #00314","address1": "9150 BALTIMORE NATIONAL PIKE","address2": "","city": "ELLICOTT CITY","state": "MD","zip": "21042","zip+4": "2614","phone": "4104654666"}
{"name": "RITE AID PHARMACY #00318","address1": "9708 BELAIR ROAD","address2": "","city": "BALTIMORE","state": "MD","zip": "21236","zip+4": "1108","phone": "4105296911"}
{"name": "FINKS PHARMACY #0692","address1": "901 EASTERN BLVD","address2": "","city": "ESSEX","state": "MD","zip": "21221","zip+4": "0000","phone": "4106865500"}
{"name": "TIDEWATER PROGRESSIVE PHARMACY","address1": "28948 THREE NOTCH RD","address2": "","city": "MECHANICSVILLE","state": "MD","zip": "20659","zip+4": "0000","phone": "3018844646"}
{"name": "CVS PHARMACY #01497","address1": "21676 GREAT MILLS RD BLDG 503","address2": "","city": "LEXINGTON PARK","state": "MD","zip": "20653","zip+4": "0000","phone": "3018607462"}
{"name": "CVS PHARMACY #04212","address1": "9613 HARFORD RD","address2": "","city": "BALTIMORE","state": "MD","zip": "21234","zip+4": "0000","phone": "4106685544"}
{"name": "CVS PHARMACY #04214","address1": "1013 WOODBRIDGE CTR WAY","address2": "","city": "EDGEWOOD","state": "MD","zip": "21040","zip+4": "0000","phone": "4106766100"}
{"name": "PARK AVENUE PHARMACY","address1": "1535 PARK AVENUE","address2": "","city": "BALTIMORE","state": "MD","zip": "21217","zip+4": "0000","phone": "4102250800"}
{"name": "MONUMENT PHARMACY","address1": "2760 LIGHTHOUSE POINT","address2": "STE 110","city": "BALTIMORE","state": "MD","zip": "21224","zip+4": "0000","phone": "4102767586"}
{"name": "THE DRUG CITY PHARMACY INC","address1": "2805 NORTH POINT ROAD","address2": "","city": "BALTIMORE","state": "MD","zip": "21222","zip+4": "0000","phone": "4102842424"}
{"name": "CVS PHARMACY #04225","address1": "121 HILLSMERE DR","address2": "","city": "ANNAPOLIS","state": "MD","zip": "21403","zip+4": "0000","phone": "4102687688"}
{"name": "WATERMONT PHARMACY","address1": "4900 A WATERLOO ROAD","address2": "","city": "ELLICOTT CITY","state": "MD","zip": "21043","zip+4": "0000","phone": "4104650552"}
{"name": "MCDOUGALLS DRUG CENTER","address1": "1645 LIBERTY RD","address2": "","city": "SYKESVILLE","state": "MD","zip": "21784","zip+4": "0000","phone": "4107952662"}
{"name": "STATE PHARMACY","address1": "7900 HARFORD ROAD","address2": "","city": "BALTIMORE","state": "MD","zip": "21234","zip+4": "0000","phone": "4106658000"}
{"name": "RIVERSIDE PHARMACY","address1": "540 RIVERSIDE DR","address2": "","city": "SALISBURY","state": "MD","zip": "21801","zip+4": "0000","phone": "4107421188"}
{"name": "CANTNERS DRUG STORE","address1": "323 BLOOMINGDALE","address2": "","city": "FEDERALSBURG","state": "MD","zip": "21632","zip+4": "0000","phone": "4107545200"}
{"name": "MCDOUGALLS PHARMACY","address1": "1380 PROGRESS WAY","address2": "STE 115","city": "SYKESVILLE","state": "MD","zip": "21784","zip+4": "0000","phone": "4107952255"}
{"name": "EDWARDS PHARMACY","address1": "102 S COMMERCE STREET","address2": "","city": "CENTREVILLE","state": "MD","zip": "21617","zip+4": "0000","phone": "4107581715"}
{"name": "ARUNDEL PHARMACY","address1": "7571 RITCHIE HIGHWAY","address2": "","city": "GLEN BURNIE","state": "MD","zip": "21061","zip+4": "0000","phone": "4107613443"}
{"name": "BOYD AND FULFORD DRUGS","address1": "23 S MAIN STREET","address2": "","city": "BEL AIR","state": "MD","zip": "21014","zip+4": "0000","phone": "4108386500"}
{"name": "STEVES PHARMACY","address1": "16103 MCMULLEN HWY SW","address2": "","city": "CUMBERLAND","state": "MD","zip": "21502","zip+4": "0000","phone": "3017292600"}
{"name": "MARION PHARMACY INC","address1": "26427 BURTON AVENUE","address2": "","city": "CRISFIELD","state": "MD","zip": "21817","zip+4": "0000","phone": "4109682300"}
{"name": "WALSH MCCAGH KELLOUGH PHCY INC","address1": "101 N CENTRE ST","address2": "","city": "CUMBERLAND","state": "MD","zip": "21502","zip+4": "0000","phone": "3017243646"}
{"name": "HILLS DRUG STORE INC #1","address1": "30 E DOVER STREET","address2": "","city": "EASTON","state": "MD","zip": "21601","zip+4": "0000","phone": "4108222666"}
{"name": "APPLE DISCOUNT DRUGS","address1": "404 NORTH FRUITLAND BLVD","address2": "","city": "SALISBURY","state": "MD","zip": "21801","zip+4": "0000","phone": "4107498401"}
{"name": "DIAMOND CARE PHARMACY","address1": "226 E DIAMOND AVE","address2": "","city": "GAITHERSBURG","state": "MD","zip": "20877","zip+4": "3014","phone": "3019261000"}
{"name": "RITE AID PHARMACY #11220","address1": "101 NORTHEAST PLAZA","address2": "","city": "NORTH EAST","state": "MD","zip": "21901","zip+4": "0000","phone": "4102875220"}
{"name": "UNION BRIDGE PHARMACY","address1": "5 N MAIN ST","address2": "","city": "UNION BRIDGE","state": "MD","zip": "21791","zip+4": "0000","phone": "4107757272"}
{"name": "POTOMAC VALLEY PHARMACY INC","address1": "501 N CENTRE ST","address2": "","city": "CUMBERLAND","state": "MD","zip": "21502","zip+4": "0000","phone": "3017222342"}
{"name": "LAVALE PHARMACY","address1": "1221C NATIONAL HWY","address2": "","city": "LAVALE","state": "MD","zip": "21502","zip+4": "0000","phone": "3017293535"}
{"name": "PHARMACARE OF CUMBERLAND","address1": "11306 BEDFORD RD NE","address2": "","city": "CUMBERLAND","state": "MD","zip": "21502","zip+4": "0000","phone": "3017771771"}
{"name": "RITE AID PHARMACY #00362","address1": "4600 WEST NORTHERN PARKWAY","address2": "","city": "BALTIMORE","state": "MD","zip": "21215","zip+4": "3242","phone": "4103589777"}
{"name": "FULLER MEDICAL CENTER PHARMACY","address1": "6918 RIDGE RD","address2": "","city": "BALTIMORE","state": "MD","zip": "21237","zip+4": "0000","phone": "4105741440"}
{"name": "KMART PHARMACY #3167","address1": "5760 WABASH AVE","address2": "","city": "BALTIMORE","state": "MD","zip": "21215","zip+4": "0000","phone": "4103585822"}
{"name": "GIANT PHARMACY #141","address1": "7940 CRAIN HIGHWAY SOUTH","address2": "","city": "GLEN BURNIE","state": "MD","zip": "21061","zip+4": "0000","phone": "4109693030"}
{"name": "BROADWAY PHARMACY LLC","address1": "1645 E BALTIMORE STREET","address2": "","city": "BALTIMORE","state": "MD","zip": "21231","zip+4": "0000","phone": "4105632500"}
{"name": "FIBUS DRUG STORE INC","address1": "2101 GARRISON BLVD","address2": "","city": "BALTIMORE","state": "MD","zip": "21216","zip+4": "2699","phone": "4109471800"}
{"name": "DUNDALK","address1": "40 SOUTH DUNDALK AVENUE","address2": "","city": "BALTIMORE","state": "MD","zip": "21222","zip+4": "0000","phone": "4102828388"}
{"name": "RUXTON PHARMACY","address1": "7621 BELLONA AVENUE","address2": "","city": "BALTIMORE","state": "MD","zip": "21204","zip+4": "0000","phone": "4108231453"}
{"name": "CHARLESMEAD PHARMACY INC","address1": "6240 BELLONA AVENUE","address2": "","city": "BALTIMORE","state": "MD","zip": "21212","zip+4": "0000","phone": "4104350210"}
{"name": "TUXEDO PHARMACY INC","address1": "5115 ROLAND AVENUE","address2": "","city": "BALTIMORE","state": "MD","zip": "21210","zip+4": "0000","phone": "4103233000"}
{"name": "HARFORD PHARMACY","address1": "1510 CONOWINGO ROAD","address2": "","city": "BEL AIR","state": "MD","zip": "21014","zip+4": "0000","phone": "4108380990"}
{"name": "FOERS PHARMACY #3","address1": "8218 WISCONSIN AVE","address2": "","city": "BETHESDA","state": "MD","zip": "20814","zip+4": "0000","phone": "3016573500"}
{"name": "BRADLEY CARE DRUG","address1": "6900 ARLINGTON RD","address2": "","city": "BETHESDA","state": "MD","zip": "20814","zip+4": "0000","phone": "3016546776"}
{"name": "VILLAGE GREEN APOTHECARY","address1": "5415 CEDAR LN","address2": "STE 102B","city": "BETHESDA","state": "MD","zip": "20814","zip+4": "1567","phone": "3013500800"}
{"name": "CRAIGS DRUG STORE INC","address1": "409 RACE STREET","address2": "","city": "CAMBRIDGE","state": "MD","zip": "21613","zip+4": "0000","phone": "4102283322"}
{"name": "CHESTERTOWN PHARMACY","address1": "329 HIGH STREET","address2": "","city": "CHESTERTOWN","state": "MD","zip": "21620","zip+4": "0000","phone": "4107782575"}
{"name": "STAM DRUGS LLC","address1": "215 E HIGH STREET","address2": "","city": "CHESTERTOWN","state": "MD","zip": "21620","zip+4": "0000","phone": "4107783030"}
{"name": "HANKS PHARMACY INC","address1": "600 VIRGINIA AVENUE","address2": "","city": "CUMBERLAND","state": "MD","zip": "21503","zip+4": "0000","phone": "3017225300"}
{"name": "LYONS PHARMACY","address1": "107 E MAIN STREET","address2": "","city": "ELKTON","state": "MD","zip": "21921","zip+4": "0000","phone": "4103982820"}
{"name": "WHITESELLS PHARMACY","address1": "236 N MARKET STREET","address2": "","city": "FREDERICK","state": "MD","zip": "21701","zip+4": "0000","phone": "3016624848"}
{"name": "LYONS PHARMACY","address1": "328 ST JOHN ST","address2": "","city": "HAVRE DE GRACE","state": "MD","zip": "21078","zip+4": "2882","phone": "4109394545"}
{"name": "JARRETTSVILLE PHARMACY","address1": "3714 NORRISVILLE RD","address2": "","city": "JARRETTSVILLE","state": "MD","zip": "21084","zip+4": "0000","phone": "4105577717"}
{"name": "GREGGS PHARMACY #1","address1": "20 NORTH 3RD STREET","address2": "","city": "OAKLAND","state": "MD","zip": "21550","zip+4": "0000","phone": "3013342197"}
{"name": "PROUDFOOTS OAKLAND PHY INC","address1": "106 S 2ND ST","address2": "","city": "OAKLAND","state": "MD","zip": "21550","zip+4": "0000","phone": "3013343913"}
{"name": "HILLANDALE PHARMACY","address1": "10214 NEW HAMPSHIRE AVE","address2": "","city": "SILVER SPRING","state": "MD","zip": "20903","zip+4": "0000","phone": "3014345100"}
{"name": "WHITEFORD PHARMACY INC","address1": "2338 WHITEFORD ROAD","address2": "","city": "WHITEFORD","state": "MD","zip": "21160","zip+4": "0000","phone": "4104525221"}
{"name": "FAMILY PHARMACY OF HAMPSTEAD","address1": "907 SOUTH MAIN ST","address2": "STE A","city": "HAMPSTEAD","state": "MD","zip": "21074","zip+4": "0000","phone": "4102393100"}
{"name": "KMART PHARMACY #3172","address1": "1713 MASSEY BLVD","address2": "","city": "HAGERSTOWN","state": "MD","zip": "21740","zip+4": "0000","phone": "3017978820"}
{"name": "KMART PHARMACY #3146","address1": "222 N POINT BLVD","address2": "","city": "BALTIMORE","state": "MD","zip": "21224","zip+4": "0000","phone": "4102856170"}
{"name": "GLEN ECHO PHARMACY","address1": "7311 MACARTHUR BLVD","address2": "","city": "BETHESDA","state": "MD","zip": "20816","zip+4": "0000","phone": "3012295656"}
{"name": "LYKOS PHARMACY","address1": "2101 YORK ROAD AT TIMONI","address2": "","city": "TIMONIUM","state": "MD","zip": "21093","zip+4": "0000","phone": "4102524225"}
{"name": "RITE AID PHARMACY #00319","address1": "10119 OLD OCEAN CITY BOULEVARD","address2": "","city": "BERLIN","state": "MD","zip": "21811","zip+4": "1143","phone": "4106290536"}
{"name": "RITE AID PHARMACY #00365","address1": "728 E. PULASKI HIGHWAY","address2": "","city": "ELKTON","state": "MD","zip": "21921","zip+4": "5912","phone": "4103989595"}
{"name": "KMART PHARMACY #3277","address1": "8036 RITCHIE HWY","address2": "","city": "PASADENA","state": "MD","zip": "21122","zip+4": "0000","phone": "4107615441"}
{"name": "GIANT PHARMACY #145","address1": "5150 SINCLAIR LANE","address2": "","city": "BALTIMORE","state": "MD","zip": "21206","zip+4": "0000","phone": "4104852772"}
{"name": "GIANT PHARMACY #144","address1": "792030 BELAIR ROAD","address2": "","city": "BALTIMORE","state": "MD","zip": "21236","zip+4": "0000","phone": "4108826220"}
{"name": "BOONSBORO PHARMACY","address1": "7628 OLD NATIONAL PIKE","address2": "","city": "BOONSBORO","state": "MD","zip": "21713","zip+4": "0000","phone": "3014325488"}
{"name": "CVS PHARMACY #01445","address1": "360 HUNGERFORD DR","address2": "SPACE 4","city": "ROCKVILLE","state": "MD","zip": "20850","zip+4": "0000","phone": "3012799144"}
{"name": "GIANT PHARMACY #147","address1": "9580 LIVINGSTON ROAD","address2": "","city": "FT WASHINGTON","state": "MD","zip": "20744","zip+4": "0000","phone": "3012481333"}
{"name": "KMART PHARMACY #3229","address1": "5100 SINCLAIR LANE","address2": "","city": "BALTIMORE","state": "MD","zip": "21206","zip+4": "0000","phone": "4104833880"}
{"name": "KERNAN OUTPATIENT PHARMACY","address1": "2200 N KERNAN DR","address2": "","city": "BALTIMORE","state": "MD","zip": "21207","zip+4": "6665","phone": "4104486337"}
{"name": "FRANKLIN SQUARE HOSPITAL OUTPA","address1": "9000 FRANKLIN SQ DR","address2": "","city": "BALTIMORE","state": "MD","zip": "21237","zip+4": "3998","phone": "4437777400"}
{"name": "RITE AID PHARMACY #00324","address1": "140 BACK RIVER NECK RD","address2": "","city": "BALTIMORE","state": "MD","zip": "21221","zip+4": "3924","phone": "4102380511"}
{"name": "KMART PHARMACY #3256","address1": "8980 WALTHAM WOODS RD","address2": "","city": "BALTIMORE","state": "MD","zip": "21234","zip+4": "0000","phone": "4108822626"}
{"name": "CVS PHARMACY #04274","address1": "8669 BELAIR RD","address2": "","city": "BALTIMORE","state": "MD","zip": "21236","zip+4": "0000","phone": "4102562844"}
{"name": "BEL AIR MEDICINES","address1": "1327 BELAIR ROAD","address2": "","city": "BEL AIR","state": "MD","zip": "21014","zip+4": "0000","phone": "4108770611"}
{"name": "CVS PHARMACY #04102","address1": "220 N 3RD ST","address2": "","city": "OAKLAND","state": "MD","zip": "21550","zip+4": "0000","phone": "3013348182"}
{"name": "DAPO PHARMACY","address1": "300 WASHINGTON ST","address2": "","city": "CAMBRIDGE","state": "MD","zip": "21613","zip+4": "0000","phone": "4102288855"}
{"name": "CALVERT ARUNDEL PROGRESSIVE PH","address1": "15 CHESAPEAKE BEACH RD EAST","address2": "#160","city": "OWINGS","state": "MD","zip": "20736","zip+4": "0000","phone": "4102573700"}
{"name": "GIANT PHARMACY #150","address1": "46 BUREAU DRIVE","address2": "","city": "GAITHERSBURG","state": "MD","zip": "20878","zip+4": "0000","phone": "3018400815"}
{"name": "GIANT PHARMACY #151","address1": "2401 WOOTTON PARKWAY","address2": "","city": "ROCKVILLE","state": "MD","zip": "20850","zip+4": "0000","phone": "3017625366"}
{"name": "RITE AID PHARMACY #00476","address1": "3463 SWEET AIR ROAD","address2": "3463 SWEET AIR ROAD","city": "PHOENIX","state": "MD","zip": "21131","zip+4": "1825","phone": "4106668220"}
{"name": "GIANT PHARMACY #340","address1": "1009 FAIRLAWN STREET","address2": "","city": "LAUREL","state": "MD","zip": "20707","zip+4": "0000","phone": "3014989337"}
{"name": "THE DRUG STORE LLC #1","address1": "103 POPLAR STREET","address2": "","city": "HURLOCK","state": "MD","zip": "21643","zip+4": "0000","phone": "4109434959"}
{"name": "RITE AID PHARMACY #00489","address1": "1264 BAY DALE DRIVE","address2": "1264 BAY DALE DRIVE","city": "ARNOLD","state": "MD","zip": "21012","zip+4": "2325","phone": "4107570027"}
{"name": "GIANT PHARMACY #152","address1": "13490 NEW HAMPSHIRE AVENUE","address2": "","city": "COLESVILLE","state": "MD","zip": "20904","zip+4": "0000","phone": "3013842228"}
{"name": "CVS PHARMACY #04220","address1": "2311 HANOVER PIKE","address2": "","city": "HAMPSTEAD","state": "MD","zip": "21074","zip+4": "0000","phone": "4102393750"}
{"name": "RITE AID PHARMACY #00482","address1": "8491 FORT SMALLWOOD ROAD","address2": "","city": "PASADENA","state": "MD","zip": "21122","zip+4": "2739","phone": "4102555361"}
{"name": "GIANT PHARMACY #155","address1": "7200 CRADLEROCK WAY","address2": "","city": "COLUMBIA","state": "MD","zip": "21045","zip+4": "0000","phone": "4102907013"}
{"name": "KENT DRUG INC","address1": "1723 MAIN ST","address2": "","city": "CHESTER","state": "MD","zip": "21619","zip+4": "0000","phone": "4106432339"}
{"name": "RITE AID PHARMACY #00104","address1": "238 MCMECHEN STREET","address2": "","city": "BALTIMORE","state": "MD","zip": "21217","zip+4": "4301","phone": "4100234704"}
{"name": "RITE AID PHARMACY #00287","address1": "101 BISHOP MURPHY DRIVE","address2": "","city": "FROSTBURG","state": "MD","zip": "21532","zip+4": "1329","phone": "3016892422"}
{"name": "SAFEWAY #2608","address1": "52 CENTRAL AVENUE WEST","address2": "","city": "EDGEWATER","state": "MD","zip": "21037","zip+4": "0000","phone": "4109564660"}
{"name": "CVS PHARMACY #01431","address1": "3110 OLNEY SANDY SPRING DR","address2": "","city": "OLNEY","state": "MD","zip": "20832","zip+4": "0000","phone": "3017746155"}
{"name": "BEACHYS PHARMACY INC","address1": "149 MAIN STREET","address2": "","city": "GRANTSVILLE","state": "MD","zip": "21536","zip+4": "0000","phone": "3018955177"}
{"name": "CVS PHARMACY #04018","address1": "2315 C 8 BELAIR RD","address2": "","city": "FALLSTON","state": "MD","zip": "21047","zip+4": "0000","phone": "4108777887"}
{"name": "KMART PHARMACY #3131","address1": "1003 W PATRICK ST","address2": "","city": "FREDERICK","state": "MD","zip": "21701","zip+4": "0000","phone": "3016627444"}
{"name": "GREENSBORO PHARMACY","address1": "102 S MAIN ST","address2": "","city": "GREENSBORO","state": "MD","zip": "21639","zip+4": "0000","phone": "4104826256"}
{"name": "CVS PHARMACY #01524","address1": "18700 N VILLAGE","address2": "","city": "HAGERSTOWN","state": "MD","zip": "21742","zip+4": "0000","phone": "3017910606"}
{"name": "LEISURE WORLD PHARMACY","address1": "3305 N LEISURE WORLD BLVD","address2": "","city": "SILVER SPRING","state": "MD","zip": "20906","zip+4": "0000","phone": "3015981005"}
{"name": "KMART PHARMACY #3237","address1": "301 TILGHAM ROAD","address2": "","city": "SALISBURY","state": "MD","zip": "21804","zip+4": "0000","phone": "4107422662"}
{"name": "CVS PHARMACY #05707","address1": "1438 LIBERTY RD","address2": "","city": "SYKESVILLE","state": "MD","zip": "21784","zip+4": "0000","phone": "4107814720"}
{"name": "GIANT PHARMACY #360","address1": "3130 SOLOMONS ISLAND ROAD","address2": "","city": "EDGEWATER","state": "MD","zip": "21037","zip+4": "0000","phone": "4109564150"}
{"name": "GIANT PHARMACY #161","address1": "16837 CRABBS BRANCH WAY","address2": "","city": "ROCKVILLE","state": "MD","zip": "20855","zip+4": "0000","phone": "3018401777"}
{"name": "GIANT PHARMACY #162","address1": "8899 WOODYARD ROAD","address2": "","city": "CLINTON","state": "MD","zip": "20735","zip+4": "0000","phone": "3018688790"}
{"name": "CVS PHARMACY #04170","address1": "509 EAST BALTIMORE ST","address2": "","city": "TANEYTOWN","state": "MD","zip": "21787","zip+4": "0000","phone": "4107562548"}
{"name": "KMART PHARMACY #3517","address1": "7923 BELAIR RD","address2": "","city": "BALTIMORE","state": "MD","zip": "21236","zip+4": "3746","phone": "4106653785"}
{"name": "RUSSOS RX","address1": "25 N CANNON AVE","address2": "","city": "HAGERSTOWN","state": "MD","zip": "21740","zip+4": "4908","phone": "3017915220"}
{"name": "FRIENDSVILLE PHARMACY","address1": "248 MAPLE ST","address2": "","city": "FRIENDSVILLE","state": "MD","zip": "21531","zip+4": "0127","phone": "3017465881"}
{"name": "GIANT PHARMACY #165","address1": "9934 REISTERSTOWN ROAD","address2": "","city": "OWINGS MILLS","state": "MD","zip": "21117","zip+4": "0000","phone": "4103632390"}
{"name": "SAFEWAY #1443","address1": "8785 BRANCH AVENUE","address2": "","city": "CLINTON","state": "MD","zip": "20735","zip+4": "0000","phone": "3018567852"}
{"name": "SAFEWAY #0107","address1": "7595 GREENBELT RD","address2": "","city": "GREENBELT","state": "MD","zip": "20770","zip+4": "0000","phone": "3013458777"}
{"name": "CVS PHARMACY #01471","address1": "129 ST CHARLES PKWY SMALLWOOD","address2": "","city": "WALDORF","state": "MD","zip": "20602","zip+4": "0000","phone": "3018439488"}
{"name": "GIANT PHARMACY #333","address1": "3104 QUEENS CHAPEL RD","address2": "","city": "HYATTSVILLE","state": "MD","zip": "20782","zip+4": "0000","phone": "3018644992"}
{"name": "GIANT PHARMACY #166","address1": "4622 WILKENS AVENUE","address2": "","city": "BALTIMORE","state": "MD","zip": "21229","zip+4": "0000","phone": "4102475802"}
{"name": "RITE AID PHARMACY #01086","address1": "3237 CHESTNUT RIDGE ROAD","address2": "","city": "GRANTSVILLE","state": "MD","zip": "21536","zip+4": "0086","phone": "3018955315"}
{"name": "CITIZENS PHARMACY SERVICES","address1": "415 MARKET STREET","address2": "","city": "HAVRE DE GRACE","state": "MD","zip": "21078","zip+4": "0000","phone": "4109394404"}
{"name": "AMBULATORY CARE PHARMACY","address1": "9715 MEDICAL CENTER DR","address2": "","city": "ROCKVILLE","state": "MD","zip": "20850","zip+4": "3323","phone": "3014241411"}
{"name": "GIANT PHARMACY #167","address1": "948 BAY RIDGE ROAD","address2": "","city": "ANNAPOLIS","state": "MD","zip": "21403","zip+4": "0000","phone": "4102684020"}
{"name": "GIANT PHARMACY #354","address1": "1280 EAST WEST HIGHWAY","address2": "","city": "SILVER SPRING","state": "MD","zip": "20910","zip+4": "0000","phone": "3015650575"}
{"name": "GIANT PHARMACY #123","address1": "7074 ALLENTOWN ROAD","address2": "","city": "CAMP SPRINGS","state": "MD","zip": "20748","zip+4": "0000","phone": "3014497483"}
{"name": "GEORGES CREEK PHARMACY","address1": "19 MAIN STREET","address2": "","city": "LONACONING","state": "MD","zip": "21539","zip+4": "0000","phone": "3014635757"}
{"name": "HMIS","address1": "10945 MCCORMICK RD","address2": "","city": "HUNT VALLEY","state": "MD","zip": "21031","zip+4": "0000","phone": "4107710800"}
{"name": "KLEINS SHOPRITE PHARMACY # #54","address1": "2101 ROCKSPRING RD","address2": "","city": "FOREST HILL","state": "MD","zip": "21050","zip+4": "2693","phone": "4104208224"}
{"name": "SAFEWAY #1369","address1": "909 THAYER AVE","address2": "","city": "SILVER SPRING","state": "MD","zip": "20910","zip+4": "0000","phone": "3015650689"}
{"name": "MEDICINE SHOPPE PHARMACY #0441","address1": "517 E BELVEDERE AVENUE","address2": "","city": "BALTIMORE","state": "MD","zip": "21212","zip+4": "0000","phone": "4103231515"}
{"name": "WEIS PHARMACY #110","address1": "199 THOMAS JOHNSON DR","address2": "","city": "FREDERICK","state": "MD","zip": "21702","zip+4": "0000","phone": "3016623830"}
{"name": "BROOKVILLE CARE PHARMACY","address1": "7025 BROOKVILLE RD","address2": "","city": "CHEVY CHASE","state": "MD","zip": "20815","zip+4": "0000","phone": "3016520600"}
{"name": "SCHINDELS PHARMACY","address1": "642 OAK HILL AVENUE","address2": "","city": "HAGERSTOWN","state": "MD","zip": "21740","zip+4": "3870","phone": "3017392780"}
{"name": "SAFEWAY #1410","address1": "3511 HAMILTON STREET","address2": "","city": "HYATTSVILLE","state": "MD","zip": "20782","zip+4": "0000","phone": "3018640444"}
{"name": "GIANT PHARMACY #169","address1": "13060 MIDDLEBROOK ROAD","address2": "","city": "GERMANTOWN","state": "MD","zip": "20874","zip+4": "0000","phone": "3014289115"}
{"name": "CVS PHARMACY #01472","address1": "3714 BRANCH AVE","address2": "","city": "TEMPLE HILLS","state": "MD","zip": "20748","zip+4": "0000","phone": "3014232324"}
{"name": "EMPIRE PROFESSIONAL PHARMACY","address1": "200 HOSPITAL DR","address2": "STE 107","city": "GLEN BURNIE","state": "MD","zip": "21061","zip+4": "0000","phone": "4107870030"}
{"name": "BECKMANS GREENE STREET PHCY IN","address1": "686 GREENE ST","address2": "","city": "CUMBERLAND","state": "MD","zip": "21502","zip+4": "2736","phone": "3017777336"}
{"name": "SUN PHARMACY","address1": "1 N QUEEN ST","address2": "","city": "RISING SUN","state": "MD","zip": "21911","zip+4": "0000","phone": "4106586444"}
{"name": "WEIS PHARMACY #111","address1": "630 BALTIMORE BLVD","address2": "","city": "WESTMINSTER","state": "MD","zip": "21157","zip+4": "0000","phone": "4108485085"}
{"name": "RITE AID PHARMACY #11211","address1": "1003 PULASKI HIGHWAY","address2": "","city": "HAVRE DE GRACE","state": "MD","zip": "21078","zip+4": "0000","phone": "4109391140"}
{"name": "RITE AID PHARMACY #11219","address1": "1316 MOUNT HERMON ROAD","address2": "","city": "SALISBURY","state": "MD","zip": "21804","zip+4": "0000","phone": "4107490205"}
{"name": "CVS PHARMACY #01465","address1": "2210 VIERS MILL RD","address2": "","city": "ROCKVILLE","state": "MD","zip": "20851","zip+4": "0000","phone": "3017622772"}
{"name": "CVS PHARMACY #01457","address1": "11906 LIVINGSTON RD","address2": "","city": "FORT WASHINGTON","state": "MD","zip": "20744","zip+4": "0000","phone": "3012923600"}
{"name": "ANNAPOLIS PROFESSIONAL PHCY","address1": "703 GIDDINGS AVENUE STE L 1","address2": "","city": "ANNAPOLIS","state": "MD","zip": "21401","zip+4": "0000","phone": "4102637440"}
{"name": "GIANT PHARMACY #350","address1": "11221 NEW HAMPSHIRE AVE","address2": "","city": "SILVER SPRING","state": "MD","zip": "20904","zip+4": "0000","phone": "3016818310"}
{"name": "KINGS PHARMACY","address1": "7627 WOODBINE ROAD","address2": "","city": "WOODBINE","state": "MD","zip": "21797","zip+4": "0000","phone": "4105491900"}
{"name": "GIANT PHARMACY #121","address1": "1161 MD ROUTE 3 NORTH","address2": "","city": "GAMBRILLS","state": "MD","zip": "21054","zip+4": "0000","phone": "4107211771"}
{"name": "MEDSTAR PHARMACY AT MCD","address1": "1576 MERRITT BOULEVARD","address2": "","city": "DUNDOLK","state": "MD","zip": "21222","zip+4": "0000","phone": "4106502160"}
{"name": "SAFEWAY #4115","address1": "13814 OUTLET DRIVE","address2": "","city": "SILVER SPRING","state": "MD","zip": "20904","zip+4": "0000","phone": "3018907015"}
{"name": "KAYES AID PHARMACY","address1": "6913 BELAIR ROAD","address2": "","city": "BALTIMORE","state": "MD","zip": "21206","zip+4": "0000","phone": "4106655192"}
{"name": "RITE AID PHARMACY #01324","address1": "3425 CLIFTON AVENUE","address2": "","city": "BALTIMORE","state": "MD","zip": "21216","zip+4": "2502","phone": "4109458507"}
{"name": "CVS PHARMACY #04017","address1": "28 MAGOTHY BEACH RD","address2": "","city": "PASADENA","state": "MD","zip": "21122","zip+4": "0000","phone": "4104376450"}
{"name": "PROFESSIONAL ARTS PHARMACY","address1": "2015 LORD BALTIMORE DR","address2": "","city": "BALTIMORE","state": "MD","zip": "21244","zip+4": "0000","phone": "4107476870"}
{"name": "HUBBARDS PHARMACY","address1": "636 RACE STREET","address2": "","city": "CAMBRIDGE","state": "MD","zip": "21613","zip+4": "0000","phone": "4102280648"}
{"name": "GIANT PHARMACY #373","address1": "5500 SILVER HILL","address2": "","city": "DISTRICT HEIGHTS","state": "MD","zip": "20747","zip+4": "0000","phone": "3018173181"}
{"name": "GALENA PHARMACY INC","address1": "104 W CROSS ST","address2": "","city": "GALENA","state": "MD","zip": "21635","zip+4": "0000","phone": "4106485662"}
{"name": "LAWSONS PHARMACY","address1": "3415 HAMILTON STREET","address2": "","city": "HYATTSVILLE","state": "MD","zip": "20782","zip+4": "0000","phone": "3018644043"}
{"name": "MCKAYS PHARMACY","address1": "37670 MOHAWK DR","address2": "","city": "CHARLOTTE HALL","state": "MD","zip": "20622","zip+4": "0000","phone": "3018843561"}
{"name": "RITCHIE PHARMACY","address1": "3721 POTEE STREET","address2": "SUITE 8","city": "BALTIMORE","state": "MD","zip": "21225","zip+4": "0000","phone": "4103553610"}
{"name": "CVS PHARMACY #01458","address1": "12001 COASTAL HWY","address2": "","city": "OCEAN CITY","state": "MD","zip": "21842","zip+4": "0000","phone": "4105245101"}
{"name": "SAFEWAY #1415","address1": "7605 CRAIN HIGHWAY","address2": "","city": "UPPER MARLBOR","state": "MD","zip": "20772","zip+4": "0000","phone": "3016276091"}
{"name": "VOSHELLS PHARMACY 1","address1": "3455 WILKENS AVENUE","address2": "","city": "BALTIMORE","state": "MD","zip": "21229","zip+4": "0000","phone": "4106448400"}
{"name": "PATTERSON PARK PHARMACY INC","address1": "2245 EASTERN AVENUE","address2": "","city": "BALTIMORE","state": "MD","zip": "21231","zip+4": "0000","phone": "4106756046"}
{"name": "SAFEWAY #0105","address1": "10 KING ST","address2": "","city": "WALDORF","state": "MD","zip": "20602","zip+4": "0000","phone": "3016455161"}
{"name": "RITE AID PHARMACY #01490","address1": "702 EDGEWOOD ROAD","address2": "","city": "EDGEWOOD","state": "MD","zip": "21040","zip+4": "2400","phone": "4106719780"}
{"name": "CVS PHARMACY #06041","address1": "228 CHURCH ST","address2": "","city": "THURMONT","state": "MD","zip": "21788","zip+4": "0000","phone": "3012717094"}
{"name": "CO OP PHARMACY","address1": "121 CENTER WAY","address2": "","city": "GREENBELT","state": "MD","zip": "20770","zip+4": "0000","phone": "3014744400"}
{"name": "WHITESELL PHARMACY","address1": "11859 H G TRUEMAN RD","address2": "","city": "LUSBY","state": "MD","zip": "20657","zip+4": "2900","phone": "4103262004"}
{"name": "CVS PHARMACY #01470","address1": "7583 CRAIN HWY SW","address2": "","city": "UPPER MARLBORO","state": "MD","zip": "20772","zip+4": "0000","phone": "3016276603"}
{"name": "BROADNECK PHARMACY","address1": "269 PENINSULA FARM ROAD","address2": "","city": "ARNOLD","state": "MD","zip": "21012","zip+4": "0000","phone": "4105443733"}
{"name": "CVS PHARMACY #05733","address1": "8124 VETERANS HWY","address2": "","city": "MILLERSVILLE","state": "MD","zip": "21108","zip+4": "0000","phone": "4109875244"}
{"name": "SAFEWAY #4114","address1": "3268 SUPERIOR LANE","address2": "","city": "BOWIE","state": "MD","zip": "20715","zip+4": "0000","phone": "3014640817"}
{"name": "OMNICARE OF SALISBURY","address1": "119 W NAYLOR MILL RD","address2": "STE 7","city": "SALISBURY","state": "MD","zip": "21801","zip+4": "9546","phone": "4108602620"}
{"name": "CVS PHARMACY #05728","address1": "1228 NATIONAL HWY GOODRICH PLZ","address2": "","city": "LA VALE","state": "MD","zip": "21502","zip+4": "0000","phone": "3017291004"}
{"name": "CVS PHARMACY #01504","address1": "7230 MUNCASTER MILL RD","address2": "","city": "DERWOOD","state": "MD","zip": "20855","zip+4": "0000","phone": "3013309333"}
{"name": "CVS PHARMACY #01503","address1": "805 E MAIN ST TOWN CENTER PLZ","address2": "","city": "MIDDLETOWN","state": "MD","zip": "21769","zip+4": "0000","phone": "3013714100"}
{"name": "HOMECARE PHARMACY HOSPITAL","address1": "251 E ANTIETAM STREET","address2": "","city": "HAGERSTOWN","state": "MD","zip": "21740","zip+4": "0000","phone": "3017908643"}
{"name": "SAFEWAY #4868","address1": "14100 BALTIMORE AVENUE","address2": "","city": "LAUREL","state": "MD","zip": "20707","zip+4": "0000","phone": "3014907373"}
{"name": "SAFEWAY #1579","address1": "19718 GERMANTOWN ROAD","address2": "","city": "GERMANTOWN","state": "MD","zip": "20874","zip+4": "0000","phone": "3019168587"}
{"name": "CVS PHARMACY #01505","address1": "28 WATKINS DRIVE","address2": "","city": "UPPER MARLBORO","state": "MD","zip": "20774","zip+4": "0000","phone": "3012494664"}
{"name": "CVS PHARMACY #01510","address1": "2600 ANNAPOLIS RD","address2": "","city": "SEVERN","state": "MD","zip": "21144","zip+4": "0000","phone": "4107992150"}
{"name": "SAFEWAY #0128","address1": "151 WALKERS VILLAGE WAY","address2": "","city": "WALKERSVILLE","state": "MD","zip": "21793","zip+4": "0000","phone": "3018452888"}
{"name": "FRIENDLY PHARMACY","address1": "5720 DEALE CHURCHTON ROAD","address2": "","city": "DEALE","state": "MD","zip": "20751","zip+4": "0000","phone": "4108672500"}
{"name": "CVS PHARMACY #01509","address1": "110 WALKERS VLG WAY","address2": "","city": "WALKERSVILLE","state": "MD","zip": "21793","zip+4": "0000","phone": "3018452811"}
{"name": "GOVANS PROFESSIONAL PHARMACY","address1": "5010 YORK ROAD","address2": "","city": "BALTIMORE","state": "MD","zip": "21212","zip+4": "0000","phone": "4105329796"}
{"name": "MEDICINE SHOPPE #0386","address1": "202 WISE AVENUE","address2": "","city": "BALTIMORE","state": "MD","zip": "21222","zip+4": "0000","phone": "4102840700"}
{"name": "WEIS PHARMACY #122","address1": "9270 ALL SAINTS RD","address2": "","city": "LAUREL","state": "MD","zip": "20723","zip+4": "0000","phone": "3017255008"}
{"name": "SAFEWAY #4126","address1": "50 WATKINS PARK DRIVE","address2": "","city": "UPPER MARLBOR","state": "MD","zip": "20774","zip+4": "0000","phone": "3012494203"}
{"name": "CVS PHARMACY #01516","address1": "9420 LANHAM SEVERN RD","address2": "","city": "SEABROOK","state": "MD","zip": "20706","zip+4": "0000","phone": "3015775555"}
{"name": "GIANT PHARMACY #368","address1": "842 MUDDY BRANCH ROAD","address2": "","city": "GAITHERSBURG","state": "MD","zip": "20878","zip+4": "0000","phone": "3019262044"}
{"name": "KEYSTONE PHARMACY INC","address1": "1358 W NORTH AVENUE","address2": "","city": "BALTIMORE","state": "MD","zip": "21217","zip+4": "0000","phone": "4106691900"}
{"name": "SAFEWAY #1342","address1": "3333 SPARTAN ROAD","address2": "","city": "OLNEY","state": "MD","zip": "20832","zip+4": "0000","phone": "3019249223"}
{"name": "KLEIN'S SHOPRITE PHARMACY # #5","address1": "949 BEARDS HILL RD","address2": "","city": "ABERDEEN","state": "MD","zip": "21001","zip+4": "1780","phone": "4102723101"}
{"name": "COMMUNITY PHARMACY","address1": "725 S SALISBURY BLVD","address2": "","city": "SALISBURY","state": "MD","zip": "21801","zip+4": "0000","phone": "4107491899"}
{"name": "GIANT PHARMACY #129","address1": "7383 BALTIMORE ANNAPOLIS BLVD","address2": "","city": "GLEN BURNIE","state": "MD","zip": "21061","zip+4": "0000","phone": "4107604588"}
{"name": "RITE AID PHARMACY #01721","address1": "6622-24 SECURITY BOULEVARD","address2": "6622 24 SECURITY BOULEVARD","city": "BALTIMORE","state": "MD","zip": "21207","zip+4": "4010","phone": "4109446611"}
{"name": "FELDMANS MEDICAL CENTER PHARMA","address1": "11055 LITTLE PATUXENT PARKWAY","address2": "SUITE L-5","city": "COLUMBIA","state": "MD","zip": "21044","zip+4": "0000","phone": "4109648444"}
{"name": "CVS PHARMACY #01506","address1": "6200 CENTRAL AVE","address2": "","city": "SEAT PLEASANT","state": "MD","zip": "20743","zip+4": "0000","phone": "3013241039"}
{"name": "CVS PHARMACY #01517","address1": "8640 GUILFORD RD","address2": "","city": "COLUMBIA","state": "MD","zip": "21046","zip+4": "0000","phone": "4103816466"}
{"name": "CHESAPEAKE PROGRESSIVE PHARMAC","address1": "7955 BAYSIDE RD","address2": "310","city": "CHESAPEAK BCH","state": "MD","zip": "20732","zip+4": "0000","phone": "4102572050"}
{"name": "SAFEWAY #1939","address1": "1925 MAIN STREET","address2": "","city": "CHESTER","state": "MD","zip": "21619","zip+4": "0000","phone": "4106040981"}
{"name": "SAFEWAY #0124","address1": "6300 CENTRAL AVE","address2": "","city": "SEAT PLEASANT","state": "MD","zip": "20743","zip+4": "0000","phone": "3013503502"}
{"name": "DEEP CREEK PHARMACY","address1": "24465 GARRETT HIGHWAY","address2": "","city": "MC HENRY","state": "MD","zip": "21541","zip+4": "0000","phone": "3013875300"}
{"name": "WEIS PHARMACY #123","address1": "4126 JOPPA RD","address2": "","city": "BALTIMORE","state": "MD","zip": "21236","zip+4": "0000","phone": "4105293045"}
{"name": "GIANT PHARMACY #131","address1": "8665 PHILADELPHIA ROAD","address2": "","city": "BALTIMORE","state": "MD","zip": "21237","zip+4": "0000","phone": "4105744766"}
{"name": "GIANT PHARMACY #133","address1": "1063 WEST PATRICK STREET","address2": "","city": "FREDERICK","state": "MD","zip": "21702","zip+4": "0000","phone": "3016628040"}
{"name": "GIANT PHARMACY #135","address1": "3680 INTERNATIONAL DRIVE","address2": "","city": "SILVER SPRING","state": "MD","zip": "20906","zip+4": "0000","phone": "3015983208"}
{"name": "MT CARMEL PHARMACY","address1": "111 MT CARMEL RD","address2": "","city": "HEREFORD","state": "MD","zip": "21120","zip+4": "0000","phone": "4103430110"}
{"name": "CVS PHARMACY #01518","address1": "901 W 7TH ST","address2": "","city": "FREDERICK","state": "MD","zip": "21701","zip+4": "0000","phone": "3016943390"}
{"name": "PASADENA PHARMACY","address1": "2932 MOUNTAIN ROAD","address2": "","city": "PASADENA","state": "MD","zip": "21122","zip+4": "0000","phone": "4102556000"}
{"name": "CVS PHARMACY #01514","address1": "3611 BLADENSBURG RD","address2": "","city": "COLMAR MANOR","state": "MD","zip": "20722","zip+4": "0000","phone": "3012776667"}
{"name": "PHARMACARE OF FROSTBURG","address1": "10601 NEW GEORGES CREEK RD SW","address2": "","city": "FROSTBURG","state": "MD","zip": "21532","zip+4": "0000","phone": "3016899961"}
{"name": "ST JOHNS PROGRESSIVE PHARMACY","address1": "24288 THREE NOTCH RD","address2": "","city": "HOLLYWOOD","state": "MD","zip": "20636","zip+4": "0000","phone": "3013733340"}
{"name": "CVS PHARMACY #01330","address1": "400 ENGLAR RD","address2": "","city": "WESTMINSTER","state": "MD","zip": "21157","zip+4": "0000","phone": "4108579000"}
{"name": "RITE AID PHARMACY #01859","address1": "7501 RITCHIE HIGHWAY","address2": "","city": "GLEN BURNIE","state": "MD","zip": "21061","zip+4": "3716","phone": "4107665220"}
{"name": "GIANT PHARMACY #192","address1": "18250 FLOWER HILL WAY","address2": "","city": "GAITHERSBURG","state": "MD","zip": "20879","zip+4": "0000","phone": "3019481198"}
{"name": "RITE AID PHARMACY #02204","address1": "2801 FOSTER AVENUE","address2": "","city": "BALTIMORE","state": "MD","zip": "21224","zip+4": "3816","phone": "4107320523"}
{"name": "RITE AID PHARMACY #02205","address1": "1520 ROCK SPRING ROAD","address2": "","city": "FOREST HILL","state": "MD","zip": "21050","zip+4": "2815","phone": "4108365288"}
{"name": "RITE AID PHARMACY #02207","address1": "6 CARROLL ISLAND ROAD","address2": "","city": "BALTIMORE","state": "MD","zip": "21220","zip+4": "2206","phone": "4103352323"}
{"name": "RITE AID PHARMACY #02209","address1": "7153 SECURITY BOULEVARD","address2": "7153 SECURITY BLVD","city": "BALTIMORE","state": "MD","zip": "21244","zip+4": "1811","phone": "4109446400"}
{"name": "RITE AID PHARMACY #02210","address1": "1400 SULPHUR SPRING ROAD","address2": "","city": "BALTIMORE","state": "MD","zip": "21227","zip+4": "2701","phone": "4107379221"}
{"name": "RITE AID PHARMACY #02212","address1": "6402 GOLDEN RING ROAD","address2": "","city": "BALTIMORE","state": "MD","zip": "21237","zip+4": "2010","phone": "4108662500"}
{"name": "RITE AID PHARMACY #02214","address1": "2855 SMITH AVENUE","address2": "2855 SMITH AVENUE","city": "BALTIMORE","state": "MD","zip": "21209","zip+4": "1426","phone": "4104843200"}
{"name": "RITE AID PHARMACY #02217","address1": "35 EAST PADONIA ROAD","address2": "","city": "TIMONIUM","state": "MD","zip": "21093","zip+4": "2306","phone": "4102528901"}
{"name": "RITE AID PHARMACY #02220","address1": "1014 BEARDS HILL ROAD","address2": "1014 BEARDS HILL ROAD","city": "ABERDEEN","state": "MD","zip": "21001","zip+4": "2230","phone": "4102727000"}
{"name": "RITE AID PHARMACY #02223","address1": "6300 GEORGETOWN BOULEVARD #107","address2": "6300 GEORGETOWN BLVD 107","city": "ELDERSBURG","state": "MD","zip": "21784","zip+4": "6419","phone": "4105496250"}
{"name": "SAFEWAY #1075","address1": "927 WEST SEVENTH STREET","address2": "","city": "FREDERICK","state": "MD","zip": "21701","zip+4": "0000","phone": "3016952835"}
{"name": "ELKTON FRIENDLY PHARMACY","address1": "228 S BRIDGE ST","address2": "","city": "ELKTON","state": "MD","zip": "21921","zip+4": "0000","phone": "4103986100"}
{"name": "CVS PHARMACY #01511","address1": "6221 OXON HILL RD","address2": "","city": "OXON HILL","state": "MD","zip": "20745","zip+4": "0000","phone": "3018390667"}
{"name": "MILLINGTON PHARMACY","address1": "200 SASSAFRAS ST","address2": "","city": "MILLINGTON","state": "MD","zip": "21651","zip+4": "0000","phone": "4109285333"}
{"name": "GIANT PHARMACY #194","address1": "2323 FOREST DRIVE","address2": "","city": "ANNAPOLIS","state": "MD","zip": "21401","zip+4": "0000","phone": "4102242850"}
{"name": "RITE AID PHARMACY #03751","address1": "798 SUNBURST HIGHWAY","address2": "","city": "CAMBRIDGE","state": "MD","zip": "21613","zip+4": "9401","phone": "4102288600"}
{"name": "RITE AID PHARMACY #03752","address1": "711 WASHINGTON AVENUE","address2": "SUITE 26","city": "CHESTERTOWN","state": "MD","zip": "21620","zip+4": "1057","phone": "4107784000"}
{"name": "RITE AID PHARMACY #03757","address1": "520 VIRGINIA AVENUE","address2": "","city": "CUMBERLAND","state": "MD","zip": "21502","zip+4": "4539","phone": "3017246100"}
{"name": "RITE AID PHARMACY #03758","address1": "101 MARLBORO AVENUE","address2": "SUITE 15","city": "EASTON","state": "MD","zip": "21601","zip+4": "2740","phone": "4108220500"}
{"name": "RITE AID PHARMACY #03761","address1": "92 SOUDER ROAD","address2": "92 SOUDER ROAD","city": "BRUNSWICK","state": "MD","zip": "21716","zip+4": "1245","phone": "3018348100"}
{"name": "RITE AID PHARMACY #03781","address1": "7967 BALTIMORE ANNAPOLIS BOULE","address2": "","city": "GLEN BURNIE","state": "MD","zip": "21060","zip+4": "8143","phone": "4107683875"}
{"name": "RITE AID PHARMACY #03782","address1": "1712 CRAIN HIGHWAY SOUTH","address2": "","city": "GLEN BURNIE","state": "MD","zip": "21061","zip+4": "5503","phone": "4107611099"}
{"name": "RITE AID PHARMACY #03788","address1": "13870 GEORGIA AVENUE","address2": "13870 GEORGIA AVENUE","city": "SILVER SPRING","state": "MD","zip": "20906","zip+4": "2924","phone": "3018716400"}
{"name": "RITE AID PHARMACY #03790","address1": "8048 NEW HAMPSHIRE AVENUE","address2": "","city": "LANGLEY PARK","state": "MD","zip": "20783","zip+4": "4611","phone": "3014394400"}
{"name": "RITE AID PHARMACY #03794","address1": "6806 RIVERDALE ROAD","address2": "","city": "RIVERDALE","state": "MD","zip": "20737","zip+4": "1802","phone": "3014299122"}
{"name": "RITE AID PHARMACY #03799","address1": "4705 SILVER HILL ROAD","address2": "4705 SILVER HILL ROAD","city": "SUITLAND","state": "MD","zip": "20746","zip+4": "2404","phone": "3017362900"}
{"name": "RITE AID PHARMACY #03803","address1": "10456 BALTIMORE AVENUE","address2": "10456 BALTIMORE AVENUE","city": "BELTSVILLE","state": "MD","zip": "20705","zip+4": "2321","phone": "3019374020"}
{"name": "RITE AID PHARMACY #03808","address1": "5350 WESTBARD AVENUE","address2": "","city": "BETHESDA","state": "MD","zip": "20816","zip+4": "1410","phone": "3016562477"}
{"name": "RITE AID PHARMACY #03813","address1": "9530 CRAIN HIGHWAY","address2": "9530 CRAIN HIGHWAY","city": "UPPER MARLBORO","state": "MD","zip": "20772","zip+4": "5424","phone": "3018680303"}
{"name": "RITE AID PHARMACY #03818","address1": "2203 DEFENSE HIGHWAY","address2": "2203 DEFENSE HIGHWAY","city": "CROFTON","state": "MD","zip": "21114","zip+4": "2403","phone": "4107216239"}
{"name": "RITE AID PHARMACY #03822","address1": "415 EAST RIDGEVILLE BOULEVARD","address2": "415 EAST RIDGEVILLE BOULEVARD","city": "MOUNT AIRY","state": "MD","zip": "21771","zip+4": "5251","phone": "3018292920"}
{"name": "RITE AID PHARMACY #03826","address1": "1005 BAYRIDGE AVENUE","address2": "1005 BAYRIDGE AVENUE","city": "ANNAPOLIS","state": "MD","zip": "21403","zip+4": "3031","phone": "4102678600"}
{"name": "RITE AID PHARMACY #03827","address1": "2027 WEST STREET","address2": "","city": "ANNAPOLIS","state": "MD","zip": "21401","zip+4": "3007","phone": "4102665055"}
{"name": "RITE AID PHARMACY #03828","address1": "10134 RIVER ROAD","address2": "","city": "POTOMAC","state": "MD","zip": "20854","zip+4": "4903","phone": "3012998600"}
{"name": "RITE AID PHARMACY #03831","address1": "12222 VEIRS MILL ROAD","address2": "","city": "SILVER SPRING","state": "MD","zip": "20906","zip+4": "4505","phone": "3019496212"}
{"name": "RITE AID PHARMACY #03835","address1": "11401 COASTAL HIGHWAY","address2": "11401 COASTAL HIGHWAY","city": "OCEAN CITY","state": "MD","zip": "21842","zip+4": "2516","phone": "4105243700"}
{"name": "RITE AID PHARMACY #03836","address1": "825 WEST HILLCREST ROAD","address2": "825 WEST HILLCREST ROAD","city": "HAGERSTOWN","state": "MD","zip": "21742","zip+4": "3105","phone": "3017979300"}
{"name": "RITE AID PHARMACY #03837","address1": "505 LINDEN AVENUE","address2": "","city": "POCOMOKE CITY","state": "MD","zip": "21851","zip+4": "1133","phone": "4109572311"}
{"name": "RITE AID PHARMACY #01760","address1": "3000 GAMBER ROAD","address2": "SUITE 2","city": "FINKSBURG","state": "MD","zip": "21048","zip+4": "2242","phone": "4108618100"}
{"name": "HILLS DRUG STORE #3","address1": "503 CYNWOOD DR","address2": "","city": "EASTON","state": "MD","zip": "21601","zip+4": "0000","phone": "4108223700"}
{"name": "PARK PHARMACY INC","address1": "580 NORTH RITCHIE HWY","address2": "","city": "SEVERNA PARK","state": "MD","zip": "21146","zip+4": "0000","phone": "4105447275"}
{"name": "GIANT PHARMACY #139","address1": "15791 COLUMBIA PIKE","address2": "","city": "BURTONSVILLE","state": "MD","zip": "20866","zip+4": "0000","phone": "3014214493"}
{"name": "SAFEWAY #1153","address1": "1205 PRATT STREET","address2": "","city": "BALTIMORE","state": "MD","zip": "20602","zip+4": "0000","phone": "4103328480"}
{"name": "GIANT PHARMACY #196","address1": "20044 GOSHEN ROAD","address2": "","city": "GAITHERSBURG","state": "MD","zip": "20879","zip+4": "0000","phone": "3019900627"}
{"name": "GIANT PHARMACY #342","address1": "4119 BRANCH AVE","address2": "","city": "MARLOW HGTS","state": "MD","zip": "20748","zip+4": "0000","phone": "3016307810"}
{"name": "RITE AID PHARMACY #02231","address1": "300 PULASKI HIGHWAY","address2": "","city": "JOPPA","state": "MD","zip": "21085","zip+4": "3699","phone": "4105385124"}
{"name": "RITE AID PHARMACY #02235","address1": "3820 EAST LOMBARD STREET","address2": "","city": "BALTIMORE","state": "MD","zip": "21224","zip+4": "2400","phone": "4106751126"}
{"name": "JAMES DRUG","address1": "1117 LIGHT STREET","address2": "","city": "BALTIMORE","state": "MD","zip": "21230","zip+4": "0000","phone": "4107525810"}
{"name": "RITE AID PHARMACY #01757","address1": "3400 MOUNTAIN ROAD","address2": "","city": "PASADENA","state": "MD","zip": "21122","zip+4": "2021","phone": "4103601509"}
{"name": "CVS PHARMACY #01521","address1": "9140 ROTHBURY DR","address2": "","city": "GAITHERSBURG","state": "MD","zip": "20886","zip+4": "1400","phone": "3019772041"}
{"name": "SAFEWAY #4872","address1": "6235 OXON HILL ROAD","address2": "","city": "OXON HILL","state": "MD","zip": "20745","zip+4": "0000","phone": "3018390729"}
{"name": "WEIS PHARMACY #60","address1": "448 PROSPECT BLVD","address2": "","city": "FREDERICK","state": "MD","zip": "21701","zip+4": "0000","phone": "3016639111"}
{"name": "GIANT PHARMACY #197","address1": "7944 HONEYGO BOULEVARD","address2": "","city": "BALTIMORE","state": "MD","zip": "21236","zip+4": "0000","phone": "4109317533"}
{"name": "SOUTH CUMBERLAND PHARMACY","address1": "1100 W INDUSTRIAL BLVD","address2": "","city": "CUMBERLAND","state": "MD","zip": "21502","zip+4": "0000","phone": "3017225100"}
{"name": "SAFEWAY #1731","address1": "80 W DARES BEACH ROAD","address2": "","city": "PRINCE FREDERICK","state": "MD","zip": "20678","zip+4": "0000","phone": "4104147404"}
{"name": "SAFEWAY #4837","address1": "5800 SILVER HILL ROAD","address2": "","city": "DISTRICT HEIGHTS","state": "MD","zip": "20747","zip+4": "0000","phone": "3015682233"}
{"name": "MEDICINE PLUS PHARMACY MOUNT A","address1": "1 N MAIN ST","address2": "","city": "MT AIRY","state": "MD","zip": "21771","zip+4": "5652","phone": "3018317111"}
{"name": "THE HOME CENTER PHARMACY","address1": "154 W MAIN ST","address2": "","city": "HANCOCK","state": "MD","zip": "21750","zip+4": "1432","phone": "3016785421"}
{"name": "RITE AID PHARMACY #00278","address1": "537 JERMOR LANE","address2": "537 JERMOR LANE","city": "WESTMINSTER","state": "MD","zip": "21157","zip+4": "6114","phone": "4108480212"}
{"name": "CVS PHARMACY #01513","address1": "9920 KEY WEST AVE","address2": "","city": "NORTH POTOMAC","state": "MD","zip": "20850","zip+4": "0000","phone": "3012510024"}
{"name": "RITE AID PHARMACY #01792","address1": "5618 THE ALAMEDA","address2": "5618 THE ALAMEDA","city": "BALTIMORE","state": "MD","zip": "21239","zip+4": "2737","phone": "4104357072"}
{"name": "GIANT PHARMACY #198","address1": "9812 FALLS ROAD","address2": "","city": "POTOMAC","state": "MD","zip": "20854","zip+4": "0000","phone": "3019834211"}
{"name": "HOMECARE PHY FENNEL","address1": "324 E ANTIETAM ST SUIT 202","address2": "","city": "HAGERSTOWN","state": "MD","zip": "21740","zip+4": "0000","phone": "3017664167"}
{"name": "WEIS PHARMACY #114","address1": "3482 EMMORTON RD","address2": "","city": "ABINGDON","state": "MD","zip": "21009","zip+4": "0000","phone": "4105691020"}
{"name": "CVS PHARMACY #01522","address1": "22565 THREE NOTCH RD","address2": "","city": "CALIFORNIA","state": "MD","zip": "20619","zip+4": "0000","phone": "3018635992"}
{"name": "KLEIN'S SHOPRITE PHARMACY # #5","address1": "223 N MAIN ST","address2": "","city": "BEL AIR","state": "MD","zip": "21014","zip+4": "3557","phone": "4106300600"}
{"name": "RITE AID PHARMACY #01978","address1": "40955 MERCHANT LANE","address2": "40955 MERCHANT LANE","city": "LEONARDTOWN","state": "MD","zip": "20650","zip+4": "3702","phone": "3014757212"}
{"name": "MAXIM PHARMACY","address1": "636 UNIVERSITY BLVD E","address2": "","city": "SILVER SPRING","state": "MD","zip": "20901","zip+4": "0000","phone": "3014396878"}
{"name": "AUSTIN PHARMACY","address1": "6729 YORK ROAD","address2": "","city": "BALTIMORE","state": "MD","zip": "21212","zip+4": "0000","phone": "4103775300"}
{"name": "HEREFORD PHARMACY AND GIFT SHO","address1": "216 MT CARMEL ROAD","address2": "","city": "PARKTON","state": "MD","zip": "21120","zip+4": "0000","phone": "4103574211"}
{"name": "NEIGHBORCARE PHARMACY #47026","address1": "23 CROSSROADS DR","address2": "","city": "OWINGS MILLS","state": "MD","zip": "21117","zip+4": "5420","phone": "4105811151"}
{"name": "MARTINS PHARMACY #444","address1": "18726 N POINTE DRIVE","address2": "","city": "HAGERSTOWN","state": "MD","zip": "21742","zip+4": "0000","phone": "2404200665"}
{"name": "GIANT PHARMACY #100","address1": "11399 YORK ROAD","address2": "","city": "COCKEYSVILLE","state": "MD","zip": "21030","zip+4": "0000","phone": "4107851065"}
{"name": "GIANT PHARMACY #143","address1": "4715 DORSEY HALL DRIVE","address2": "","city": "ELLICOTT CITY","state": "MD","zip": "21042","zip+4": "0000","phone": "4109923797"}
{"name": "CVS PHARMACY #01515","address1": "26020 POINT LOOKOUT RD","address2": "","city": "LEONARDTOWN","state": "MD","zip": "20650","zip+4": "0000","phone": "3014758917"}
{"name": "SAFEWAY #1317","address1": "1451 S RITCHIE HIGHWAY","address2": "","city": "ARNOLD","state": "MD","zip": "21012","zip+4": "0000","phone": "4107577792"}
{"name": "KMART PHARMACY #3796","address1": "8829 GREENBELT ROAD","address2": "","city": "GREENBELT","state": "MD","zip": "20770","zip+4": "0000","phone": "3015524753"}
{"name": "WEIS PHARMACY #119","address1": "1001 TWIN ARCH RD","address2": "","city": "MT AIRY","state": "MD","zip": "21771","zip+4": "0000","phone": "3018291499"}
{"name": "FREEDOM DRUGS","address1": "7568 NORTH POINT RD","address2": "","city": "BALTIMORE","state": "MD","zip": "21219","zip+4": "0000","phone": "4104775130"}
{"name": "RITE AID PHARMACY #11208","address1": "5 BEL AIR SOUTH PARKWAY","address2": "SUITE 1347","city": "BEL AIR","state": "MD","zip": "21015","zip+4": "0000","phone": "4105690833"}
{"name": "SAFEWAY #1085","address1": "4600 COOPERS LANE","address2": "","city": "LANDOVER HILLS","state": "MD","zip": "20784","zip+4": "0000","phone": "3013412726"}
{"name": "KLEIN'S SHOPRITE PHARMACY # #5","address1": "5 BEL AIR S PKY STE 301","address2": "","city": "BEL AIR","state": "MD","zip": "21015","zip+4": "0000","phone": "4435128373"}
{"name": "TEN OAKS PHARMACY","address1": "3900 TEN OAKS ROAD","address2": "STE 11","city": "GLENELG","state": "MD","zip": "21737","zip+4": "0000","phone": "4105319699"}
{"name": "CVS PHARMACY #01446","address1": "1001 TWIN ARCH RD 18","address2": "","city": "MT. AIRY","state": "MD","zip": "21771","zip+4": "0000","phone": "3018290966"}
{"name": "RITE AID PHARMACY #02585","address1": "9139 RIGGS ROAD","address2": "9139 RIGGS ROAD","city": "ADELPHI","state": "MD","zip": "20783","zip+4": "1637","phone": "3014393232"}
{"name": "PROFESSIONAL PHARMACY","address1": "9106 PHILADELPHIA RD","address2": "STE 100","city": "BALTIMORE","state": "MD","zip": "21237","zip+4": "0000","phone": "4106878113"}
{"name": "CVS PHARMACY #01796","address1": "4200 ALTAMONT PLACE","address2": "","city": "WHITE PLAINS","state": "MD","zip": "20695","zip+4": "0000","phone": "3016452774"}
{"name": "EMMITSBURG PHARMACY","address1": "101 SILO HILL RD","address2": "","city": "EMMITSBURG","state": "MD","zip": "21727","zip+4": "0434","phone": "3014476226"}
{"name": "MEDICINE SHOPPE PHARMACY #0634","address1": "5900 REISTERSTOWN ROAD","address2": "","city": "BALTIMORE","state": "MD","zip": "21215","zip+4": "0000","phone": "4107641112"}
{"name": "WEIS PHARMACY #100","address1": "2 OLD CAMP ROAD","address2": "","city": "FREDERICK","state": "MD","zip": "21702","zip+4": "0000","phone": "3014734201"}
{"name": "HOME CARE PHARMACY","address1": "22933 JEFFERSON BLVD","address2": "","city": "SMITHSBURG","state": "MD","zip": "21783","zip+4": "0000","phone": "3018243900"}
{"name": "OMNICARE OF ANNAPOLIS JUNCTION","address1": "9036 JUNCTION DR","address2": "","city": "ANNAPOLIS JUNCTION","state": "MD","zip": "20701","zip+4": "0000","phone": "3017250100"}
{"name": "SAFEWAY #1344","address1": "3129 MARSHALL HALL RD","address2": "","city": "BRYANS ROAD","state": "MD","zip": "20616","zip+4": "0000","phone": "3012833132"}
{"name": "CVS PHARMACY #01795","address1": "5100 BROWN STATION RD","address2": "","city": "UPPER MARLBORO","state": "MD","zip": "20772","zip+4": "0000","phone": "3016271500"}
{"name": "DARLINGTON PHARMACY INC","address1": "1115 MAIN STREET","address2": "","city": "DARLINGTON","state": "MD","zip": "21034","zip+4": "0000","phone": "4104575521"}
{"name": "RITE AID PHARMACY #02253","address1": "7270 MONTGOMERY ROAD","address2": "7270 MONTGOMERY ROAD","city": "ELKRIDGE","state": "MD","zip": "21075","zip+4": "5268","phone": "4107963344"}
{"name": "DENTON PHARMACY","address1": "508 5TH AVENUE","address2": "","city": "DENTON","state": "MD","zip": "21629","zip+4": "0000","phone": "4104791100"}
{"name": "CVS PHARMACY #01797","address1": "19594 FISHER AVE","address2": "","city": "POOLESVILLE","state": "MD","zip": "20837","zip+4": "0000","phone": "3013499805"}
{"name": "CVS PHARMACY #01800","address1": "7041 MARTIN LTHR KING HWY KING","address2": "","city": "PALMER PARK","state": "MD","zip": "20785","zip+4": "0000","phone": "3013866412"}
{"name": "CHESTNUT AID PHARMACY","address1": "801 W 36TH STREET","address2": "","city": "BALTIMORE","state": "MD","zip": "21211","zip+4": "0000","phone": "4103661744"}
{"name": "SAFEWAY #0853","address1": "7625 OLD GEORGETOWN ROAD","address2": "","city": "BETHESDA","state": "MD","zip": "20814","zip+4": "0000","phone": "3019073330"}
{"name": "GIANT PHARMACY #109","address1": "405 NORTH CENTER STREET","address2": "","city": "WESTMINISTER","state": "MD","zip": "21157","zip+4": "0000","phone": "4108576320"}
{"name": "CVS PHARMACY #01831","address1": "7809 WISCONSIN AVE","address2": "","city": "BETHESDA","state": "MD","zip": "20814","zip+4": "0000","phone": "3019869144"}
{"name": "WEIS PHARMACY #139","address1": "720 HANOVER PIKE","address2": "","city": "HAMPSTEAD","state": "MD","zip": "21074","zip+4": "0000","phone": "4103741422"}
{"name": "FRIENDS HOUSE PHARMACY","address1": "17340 QUAKER LN","address2": "","city": "SANDY SPRING","state": "MD","zip": "20860","zip+4": "1297","phone": "3017742201"}
{"name": "WEIS PHARMACY #129","address1": "26075 S RIDGE RD","address2": "","city": "DAMASCUS","state": "MD","zip": "20872","zip+4": "0000","phone": "3012539418"}
{"name": "NEIGHBORCARE PHARMACY #47028","address1": "8505 CARLSON LN","address2": "","city": "BALTIMORE","state": "MD","zip": "21244","zip+4": "0000","phone": "4106552060"}
{"name": "KMART PHARMACY #3160","address1": "1647 CROFTON CENTER","address2": "","city": "CROFTON","state": "MD","zip": "21114","zip+4": "0000","phone": "4107214721"}
{"name": "THURMONT PHARMACY","address1": "58 WATER ST","address2": "","city": "THURMONT","state": "MD","zip": "21788","zip+4": "1912","phone": "3012712223"}
{"name": "NEIGHBORCARE PHARMACY #47011","address1": "2000 W BALTIMORE ST","address2": "","city": "BALTIMORE","state": "MD","zip": "21223","zip+4": "1558","phone": "4103623310"}
{"name": "WHITE FLINT PHARMACY","address1": "11125 ROCKVILLE PIKE","address2": "","city": "ROCKVILLE","state": "MD","zip": "20852","zip+4": "0000","phone": "3018813828"}
{"name": "KMART PHARMACY #3807","address1": "835 SOLOMONS ISLAND RD N","address2": "","city": "PRINCE FREDERICK","state": "MD","zip": "20678","zip+4": "0000","phone": "4105352132"}
{"name": "WAL-MART PHARMACY #101715","address1": "8155 ELLIOTT ROAD","address2": "","city": "EASTON","state": "MD","zip": "21601","zip+4": "0000","phone": "4108190507"}
{"name": "WAL-MART PHARMACY #101716","address1": "150 SOLOMONS ISLAND RD NRTH","address2": "","city": "PRINCE FREDERICK","state": "MD","zip": "20678","zip+4": "0000","phone": "4105355552"}
{"name": "GIANT PHARMACY #146","address1": "655 SOLOMONS ISLAND RD N","address2": "","city": "PRINCE FREDERICK","state": "MD","zip": "20678","zip+4": "0000","phone": "4105355974"}
{"name": "RITE AID PHARMACY #11216","address1": "17 WASHIGNTON SQUARE","address2": "","city": "CHESTERTOWN","state": "MD","zip": "21620","zip+4": "0000","phone": "4107786214"}
{"name": "SAFEWAY #4817","address1": "116 UNIVERSITY BOULEVARD","address2": "","city": "SILVER SPRING","state": "MD","zip": "20901","zip+4": "0000","phone": "3015938092"}
{"name": "SAFEWAY #4502","address1": "3838 HOWARD AVENUE","address2": "","city": "KENSINGTON","state": "MD","zip": "20895","zip+4": "0000","phone": "3019290733"}
{"name": "RITE AID PHARMACY #02620","address1": "903 EAST FORT AVENUE","address2": "903 EAST FORT AVENUE","city": "BALTIMORE","state": "MD","zip": "21230","zip+4": "5119","phone": "4109625546"}
{"name": "RITE AID PHARMACY #02752","address1": "22411 JEFFERSON BOULEVARD","address2": "22411 JEFFERSON BLVD","city": "SMITHSBURG","state": "MD","zip": "21783","zip+4": "2073","phone": "3018242211"}
{"name": "WAL-MART PHARMACY #101674","address1": "17850 GARLAND GROH B","address2": "","city": "HAGERSTOWN","state": "MD","zip": "21740","zip+4": "0000","phone": "3017141377"}
{"name": "KMART PHARMACY #9524","address1": "161 BIG ELK MALLUS 40 AND ROUT","address2": "","city": "ELKTON","state": "MD","zip": "21921","zip+4": "0000","phone": "4103926315"}
{"name": "REESERS PHARMACY","address1": "1013 F SOUTH TALBOT ST","address2": "STE F","city": "ST MICHAELS","state": "MD","zip": "21663","zip+4": "0000","phone": "4107452207"}
{"name": "WAL-MART PHARMACY #101717","address1": "11930 ACTON LANE","address2": "","city": "WALDORF","state": "MD","zip": "20601","zip+4": "0000","phone": "3017057040"}
{"name": "SAFEWAY #1281","address1": "10000 BALTIMORE NATIONAL PIKE","address2": "","city": "ELLICOTT CITY","state": "MD","zip": "21043","zip+4": "0000","phone": "4107503002"}
{"name": "SAFEWAY #1539","address1": "4211 MOUNTAIN ROAD","address2": "","city": "PASADENA","state": "MD","zip": "21122","zip+4": "0000","phone": "4104394570"}
{"name": "KMART PHARMACY #4399","address1": "14014 CONNECTICUT AVENUE","address2": "","city": "SILVER SPRINGS","state": "MD","zip": "20906","zip+4": "0000","phone": "3014603402"}
{"name": "NEIGHBORCARE PERSONAL CARE PHA","address1": "10947 MCCORMICK ROAD","address2": "","city": "HUNT VALLEY","state": "MD","zip": "21031","zip+4": "0000","phone": "4102290167"}
{"name": "NEIGHBORCARE PHARMACY #47014","address1": "1101 N CALVERT ST","address2": "","city": "BALTIMORE","state": "MD","zip": "21202","zip+4": "3801","phone": "4107270802"}
{"name": "GIANT PHARMACY #111","address1": "6480 FREETOWN ROAD","address2": "","city": "COLUMBIA","state": "MD","zip": "21044","zip+4": "0000","phone": "4105311111"}
{"name": "MEDICINE SHOPPE PHARMACY #1205","address1": "288 EAST GREEN ST","address2": "","city": "WESTMINSTER","state": "MD","zip": "21157","zip+4": "0000","phone": "4108487426"}
{"name": "UNIVERSITY PHARMACY","address1": "22 S GREENE ST","address2": "","city": "BALTIMORE","state": "MD","zip": "21201","zip+4": "1590","phone": "4103281175"}
{"name": "WAL-MART PHARMACY #101875","address1": "407 GEORGE CLAUSS BLVD","address2": "","city": "SEVERN","state": "MD","zip": "21144","zip+4": "0000","phone": "4109691228"}
{"name": "MEDICINE SHOPPE PHARMACY #1215","address1": "8035A LIBERTY ROAD MILFORD MIL","address2": "","city": "BALTIMORE","state": "MD","zip": "21244","zip+4": "0000","phone": "4109229466"}
{"name": "NEIGHBORCARE PHARMACY #47032","address1": "7505 OSLER DR","address2": "","city": "TOWSON","state": "MD","zip": "21204","zip+4": "7734","phone": "4103370557"}
{"name": "RITE AID PHARMACY #02750","address1": "1521 HARFORD AVENUE","address2": "","city": "BALTIMORE","state": "MD","zip": "21202","zip+4": "5724","phone": "4109625541"}
{"name": "WAL-MART PHARMACY #101867","address1": "280 WOODWARD ROAD","address2": "","city": "WESTMINSTER","state": "MD","zip": "21157","zip+4": "0000","phone": "4108579703"}
{"name": "CVS PHARMACY #01838","address1": "3075 MARSHALL HALL RD","address2": "","city": "BRYANS ROAD","state": "MD","zip": "20616","zip+4": "0000","phone": "3013757450"}
{"name": "RITE AID PHARMACY #11209","address1": "1321 RIVERSIDE PARKWAY","address2": "","city": "BELCAMP","state": "MD","zip": "21017","zip+4": "0000","phone": "4102728741"}
{"name": "SAFEWAY #1129","address1": "10276 SOUTH MARYLAND BOULEVARD","address2": "","city": "DUNKIRK","state": "MD","zip": "20754","zip+4": "0000","phone": "4102570392"}
{"name": "KLEIN'S SHOPRITE PHARMACY # #5","address1": "1321 RIVERSIDE PKY","address2": "","city": "BELCAMP","state": "MD","zip": "21017","zip+4": "1401","phone": "4107576601"}
{"name": "GIANT PHARMACY #315","address1": "7546 ANNAPOLIS ROAD","address2": "","city": "LANHAM","state": "MD","zip": "20784","zip+4": "0000","phone": "3015776128"}
{"name": "CVS PHARMACY #01879","address1": "11852 ROCKVILLE PIKE MID PIKE","address2": "","city": "ROCKVILLE","state": "MD","zip": "20852","zip+4": "0000","phone": "3012309898"}
{"name": "CVS PHARMACY #01881","address1": "10095 WARD RD DUNKIRK MARKETPL","address2": "","city": "DUNKIRK","state": "MD","zip": "20754","zip+4": "0000","phone": "4102570191"}
{"name": "WAL-MART PHARMACY #101860","address1": "1000 EAST PULASKI WAY","address2": "","city": "ELKTON","state": "MD","zip": "21921","zip+4": "0000","phone": "4103981123"}
{"name": "CVS PHARMACY #05650","address1": "1580 WESEL BLVD","address2": "","city": "HAGERSTOWN","state": "MD","zip": "21740","zip+4": "0000","phone": "3017397230"}
{"name": "RITE AID PHARMACY #03339","address1": "1404 REISTERSTOWN ROAD","address2": "1404 REISTERSTOWN ROAD","city": "PIKESVILLE","state": "MD","zip": "21208","zip+4": "3806","phone": "4106021404"}
{"name": "CVS PHARMACY # #01909","address1": "6480 OLD WATERLOO RD","address2": "","city": "ELKRIDGE","state": "MD","zip": "21075","zip+4": "0000","phone": "4107990075"}
{"name": "RITE AID PHARMACY #03205","address1": "6401 FREDERICK ROAD","address2": "","city": "CATONSVILLE","state": "MD","zip": "21228","zip+4": "3504","phone": "4107197005"}
{"name": "MEDICINE SHOPPE PHARMACY #0658","address1": "103B 2 NORTH CRAIN HIGHWAY","address2": "","city": "GLEN BURNIE","state": "MD","zip": "21061","zip+4": "0000","phone": "4107602290"}
{"name": "SAFEWAY #1089","address1": "12251 DARNESTOWN","address2": "","city": "GAITHERSBURG","state": "MD","zip": "20878","zip+4": "0000","phone": "3014170922"}
{"name": "CVS PHARMACY #01880","address1": "12619 E J WISTERIA DRIVE","address2": "","city": "GERMANTOWN","state": "MD","zip": "20874","zip+4": "0000","phone": "3015401103"}
{"name": "GIANT PHARMACY #361","address1": "5700 SOUTHEAST CRAIN HIGHWAY","address2": "","city": "UPPER MARLBORO","state": "MD","zip": "20772","zip+4": "0000","phone": "3019527539"}
{"name": "MCKAYS PHARMACY","address1": "40845 MERCHANTS LANE","address2": "","city": "LEONARDTOWN","state": "MD","zip": "20650","zip+4": "0000","phone": "3019971849"}
{"name": "WAL-MART PHARMACY #101890","address1": "2702 N. SALISBURY BLVD","address2": "","city": "SALISBURY","state": "MD","zip": "21801","zip+4": "0000","phone": "4108605323"}
{"name": "BRUNSWICK PHARMACY","address1": "610 9TH AVE","address2": "","city": "BRUNSWICK","state": "MD","zip": "21716","zip+4": "1828","phone": "3018349715"}
{"name": "WAL-MART PHARMACY #101893","address1": "3300 NW CRAIN HWY","address2": "","city": "BOWIE","state": "MD","zip": "20716","zip+4": "0000","phone": "3018058853"}
{"name": "WAL-MART PHARMACY #101968","address1": "645 SOUTH PHILADELPHIA BLVD","address2": "","city": "ABERDEEN","state": "MD","zip": "21001","zip+4": "0000","phone": "4102739203"}
{"name": "WAL-MART PHARMACY #101981","address1": "45485 MIRAMAR WAY","address2": "","city": "CALIFORNIA","state": "MD","zip": "20619","zip+4": "0000","phone": "3017370611"}
{"name": "WAL-MART PHARMACY #102009","address1": "401 CONSTANT FRIENDSHIP BLVD","address2": "","city": "ABINGDON","state": "MD","zip": "21009","zip+4": "0000","phone": "4105699406"}
{"name": "MEDICINE SHOPPE #1269","address1": "10820 F RHODE ISLAND AVENUE","address2": "","city": "BELTSVILLE","state": "MD","zip": "20705","zip+4": "0000","phone": "3019376662"}
{"name": "HOME CARE PHARMACY ROBINWOOD","address1": "11110 MEDICAL CAMPUS RD","address2": "STE 105","city": "HAGERSTOWN","state": "MD","zip": "21742","zip+4": "0000","phone": "3017144000"}
{"name": "CVS PHARMACY #03366","address1": "6910 HARFORD RD","address2": "","city": "BALTIMORE","state": "MD","zip": "21234","zip+4": "0000","phone": "4104264701"}
{"name": "SOUTH BALTIMORE PHARMACY","address1": "631 CHERRY HILL RD","address2": "","city": "BALTIMORE","state": "MD","zip": "21225","zip+4": "0000","phone": "4103558500"}
{"name": "WAL-MART PHARMACY #102027","address1": "12500 COUNTRY CLUB MALL RD SW","address2": "","city": "LAVALE","state": "MD","zip": "21502","zip+4": "0000","phone": "3017295088"}
{"name": "GIANT PHARMACY #320","address1": "229 KENTLANDS BOULEVARD","address2": "","city": "GAITHERSBURG","state": "MD","zip": "20878","zip+4": "0000","phone": "3012088204"}
{"name": "NEIGHBORCARE PHARMACY #47015","address1": "1527 A MERRITT AVE","address2": "","city": "BALTIMORE","state": "MD","zip": "21222","zip+4": "0000","phone": "4102851052"}
{"name": "CVS PHARMACY #05706","address1": "7095 BALTIMORE ANNAPOLIS RD","address2": "","city": "GLEN BURNIE","state": "MD","zip": "21061","zip+4": "0000","phone": "4108593113"}
{"name": "RITE AID PHARMACY #03469","address1": "1030 WEST 41ST STREET","address2": "SUITE E","city": "BALTIMORE","state": "MD","zip": "21211","zip+4": "1634","phone": "4102350002"}
{"name": "CVS PHARMACY #04418","address1": "8501 FORT SMALLWOOD RD","address2": "","city": "PASADENA","state": "MD","zip": "21122","zip+4": "0000","phone": "4104371149"}
{"name": "CVS PHARMACY #00452","address1": "7607 GREENBELT RD","address2": "","city": "GREENBELT","state": "MD","zip": "20770","zip+4": "0000","phone": "3019820965"}
{"name": "NEIGHBORCARE PHARMACY #47025","address1": "4000 OLD COURT RD","address2": "","city": "PIKESVILLE","state": "MD","zip": "21208","zip+4": "2807","phone": "4104847171"}
{"name": "NEIGHBORCARE PHARMACY #47033","address1": "515 FAIRMOUNT AVE","address2": "","city": "TOWSON","state": "MD","zip": "21286","zip+4": "0000","phone": "4105839895"}
{"name": "GIANT PHARMACY #323","address1": "8223 ELLIOTT ROAD","address2": "","city": "EASTON","state": "MD","zip": "21601","zip+4": "0000","phone": "4108193215"}
{"name": "CVS PHARMACY #01973","address1": "2321 UNIVERSITY BLVD WEST","address2": "","city": "WHEATON","state": "MD","zip": "20902","zip+4": "0000","phone": "3019424009"}
{"name": "WAL-MART PHARMACY #101985","address1": "3549 RUSSETT GREEN EAST","address2": "","city": "LAUREL","state": "MD","zip": "20724","zip+4": "0000","phone": "3016040148"}
{"name": "CVS PHARMACY #03976","address1": "2509 2523 PENNSYLVANIA AVE","address2": "","city": "BALTIMORE","state": "MD","zip": "21217","zip+4": "0000","phone": "4102252091"}
{"name": "TUXEDO PHARMACY AT GREENSPRING","address1": "10755 FALLS ROAD","address2": "STE 140","city": "LUTHERVILLE","state": "MD","zip": "21093","zip+4": "0000","phone": "4105832600"}
{"name": "CVS PHARMACY #04371","address1": "RT 611 9936 STEVEN DECATUR RD","address2": "","city": "OCEAN CITY","state": "MD","zip": "21842","zip+4": "0000","phone": "4102131228"}
{"name": "NEIGHBORCARE PHARMACY #47029","address1": "750 MAIN ST","address2": "STE 104E","city": "REISTERSTOWN","state": "MD","zip": "21136","zip+4": "2511","phone": "4105262960"}
{"name": "BAYVIEW PHARMACY","address1": "6510 ODONNELL ST","address2": "","city": "BALTIMORE","state": "MD","zip": "21224","zip+4": "0000","phone": "4106335050"}
{"name": "PHARMACARE OF CUMBERLAND","address1": "3 COMMERCE DR","address2": "","city": "CUMBERLAND","state": "MD","zip": "21502","zip+4": "0000","phone": "3017771773"}
{"name": "CVS PHARMACY #01964","address1": "18080 MATENY RD CLOPPERS MALL","address2": "","city": "GERMANTOWN","state": "MD","zip": "20874","zip+4": "0000","phone": "3019169311"}
{"name": "CVS PHARMACY #02010","address1": "1133 ANNAPOLIS RD ODENTON SHOP","address2": "","city": "ODENTON","state": "MD","zip": "21113","zip+4": "0000","phone": "4106748338"}
{"name": "CVS PHARMACY #02005","address1": "5870 SILVER HILL RD SILVER HIL","address2": "","city": "DISTRICT HEIGHTS","state": "MD","zip": "20747","zip+4": "0000","phone": "3017363994"}
{"name": "WAL-MART PHARMACY #102045","address1": "8118 PERRY HILLS ROAD","address2": "","city": "NOTTINGHAM","state": "MD","zip": "21236","zip+4": "0000","phone": "4108829943"}
{"name": "NEIGHBORCARE PHARMACY #47021","address1": "11085 LITTLE PATUXENT PKWY","address2": "","city": "COLUMBIA","state": "MD","zip": "21044","zip+4": "0000","phone": "4109971600"}
{"name": "CVS PHARMACY #03166","address1": "1731 DUAL HWY","address2": "","city": "HAGERSTOWN","state": "MD","zip": "21740","zip+4": "0000","phone": "3017912852"}
{"name": "KMART PHARMACY #7673","address1": "200 KENT LANDING","address2": "","city": "STEVENSVILLE","state": "MD","zip": "21666","zip+4": "0000","phone": "4106439604"}
{"name": "TWINS PHARMACY INC","address1": "6201 GREENBELT RD","address2": "SUITE L4","city": "BERWYN HEIGHTS","state": "MD","zip": "20740","zip+4": "0000","phone": "3013130080"}
{"name": "CVS PHARMACY #04438","address1": "6635 37 BELAIR RD","address2": "","city": "BALTIMORE","state": "MD","zip": "21206","zip+4": "0000","phone": "4102549755"}
{"name": "MARTINS PHARMACY #104","address1": "1729 DUAL HIGHWAY","address2": "","city": "HAGERSTOWN","state": "MD","zip": "21740","zip+4": "0000","phone": "3017454904"}
{"name": "SAFEWAY #1460","address1": "1781 FOREST DRIVE","address2": "","city": "ANNAPOLIS","state": "MD","zip": "21401","zip+4": "0000","phone": "4106262717"}
{"name": "WAL-MART PHARMACY #102279","address1": "6721 CHESAPEAKE CENTER DRIVE","address2": "","city": "GLEN BURNIE","state": "MD","zip": "21060","zip+4": "0000","phone": "4108631285"}
{"name": "WAL-MART PHARMACY #102248","address1": "6205 BALTIMORE NATIONAL PIKE","address2": "","city": "CATONSVILLE","state": "MD","zip": "21228","zip+4": "0000","phone": "4107190042"}
{"name": "KMART PHARMACY #7282","address1": "8827 WOODYARD ROAD","address2": "","city": "CLINTON","state": "MD","zip": "20735","zip+4": "0000","phone": "3018682288"}
{"name": "KMART PHARMACY #7713","address1": "3255 SOLOMONS ISLAND","address2": "","city": "EDGEWATER","state": "MD","zip": "21037","zip+4": "0000","phone": "4109560053"}
{"name": "NEIGHBORCARE PHARMACY #47035","address1": "711 MAIDEN CHOICE LN","address2": "","city": "BALTIMORE","state": "MD","zip": "21228","zip+4": "5939","phone": "4107378820"}
{"name": "CVS PHARMACY #04602","address1": "900 EDMONDSON AVE","address2": "","city": "BALTIMORE","state": "MD","zip": "21228","zip+4": "0000","phone": "4107196688"}
{"name": "CVS PHARMACY #04411","address1": "5501 PARK HEIGHTS AVE","address2": "","city": "BALTIMORE","state": "MD","zip": "21215","zip+4": "0000","phone": "4103677802"}
{"name": "CVS PHARMACY #00540","address1": "31 LIGHT ST NATIONS BANK BLDG","address2": "","city": "BALTIMORE","state": "MD","zip": "21202","zip+4": "0000","phone": "4106854843"}
{"name": "CVS CAREMARK","address1": "8945 GUILFORD RD","address2": "STE 110","city": "COLUMBIA","state": "MD","zip": "21046","zip+4": "2393","phone": "4103817770"}
{"name": "CORAM SPECIALTY INFUSION SERVI","address1": "7150 COLUMBIA GATEWAY DR","address2": "STE E","city": "COLUMBIA","state": "MD","zip": "21046","zip+4": "2101","phone": "4107206501"}
{"name": "COSTCO PHARMACY #214","address1": "10925 BALTIMORE AVE","address2": "","city": "BELTSVILLE","state": "MD","zip": "20705","zip+4": "0000","phone": "3019022655"}
{"name": "WEIS PHARMACY #149","address1": "6093 SPRING RIDGE PARKWAY","address2": "","city": "FREDERICK","state": "MD","zip": "21701","zip+4": "0000","phone": "3016318160"}
{"name": "WAL-MART PHARMACY #102272","address1": "2775 DORCHESTER SQUARE","address2": "","city": "CAMBRIDGE","state": "MD","zip": "21613","zip+4": "0000","phone": "4102210388"}
{"name": "CVS PHARMACY #03974","address1": "5407 17 HARFORD RD","address2": "","city": "BALTIMORE","state": "MD","zip": "21214","zip+4": "0000","phone": "4104269855"}
{"name": "CVS PHARMACY #04302","address1": "8302 LIBERTY RD","address2": "","city": "BALTIMORE","state": "MD","zip": "21244","zip+4": "0000","phone": "4106559890"}
{"name": "WAL-MART PHARMACY #102233","address1": "7400 GUILFORD DRIVE","address2": "","city": "FREDERICK","state": "MD","zip": "21704","zip+4": "0000","phone": "3016312171"}
{"name": "CHASE BREXTON CLINIC PHARMACY","address1": "1001 CATHEDRAL ST","address2": "","city": "BALTIMORE","state": "MD","zip": "21201","zip+4": "0000","phone": "4102340327"}
{"name": "GIANT PHARMACY #331","address1": "9730 GROFFS MILL DRIVE","address2": "","city": "OWINGS MILLS","state": "MD","zip": "21117","zip+4": "0000","phone": "4106541160"}
{"name": "COSTCO PHARMACY #213","address1": "880 RUSSEL AVE","address2": "","city": "GAITHERSBURG","state": "MD","zip": "20879","zip+4": "0000","phone": "3015561960"}
{"name": "MEDICINE SHOPPE PHARMACY #1388","address1": "1407 C SULPHUR SPRING RD","address2": "","city": "ARBUTUS","state": "MD","zip": "21227","zip+4": "0000","phone": "4102470200"}
{"name": "CVS PHARMACY #02043","address1": "3300A CENTENNIAL LANE","address2": "","city": "ELLICOTT CITY","state": "MD","zip": "21042","zip+4": "0000","phone": "4107509439"}
{"name": "RITE AID PHARMACY #03868","address1": "1823 EAST WEST HIGHWAY","address2": "","city": "ADELPHI","state": "MD","zip": "20783","zip+4": "3032","phone": "3014397100"}
{"name": "MEDICINE PLUS PHARMACY NEW MAR","address1": "11717 OLD NATIONAL PIKE","address2": "","city": "NEW MARKET","state": "MD","zip": "21774","zip+4": "0000","phone": "3018655920"}
{"name": "RITE AID PHARMACY #04250","address1": "1000 EAST EAGER STREET","address2": "1000 EAST EAGER STREET","city": "BALTIMORE","state": "MD","zip": "21202","zip+4": "5597","phone": "4108741460"}
{"name": "RITE AID PHARMACY #04254","address1": "3100 WYMAN PARK DRIVE","address2": "3100 WYMAN PARK DRIVE","city": "BALTIMORE","state": "MD","zip": "21211","zip+4": "2803","phone": "4103383172"}
{"name": "RITE AID PHARMACY #04255","address1": "1132 ANNAPOLIS ROAD","address2": "1132 ANNAPOLIS ROAD","city": "ODENTON","state": "MD","zip": "21113","zip+4": "1602","phone": "4108741460"}
{"name": "SAVON PHARMACY #7862","address1": "101 BIG ELK MALL","address2": "","city": "ELKTON","state": "MD","zip": "21921","zip+4": "0000","phone": "4106200602"}
{"name": "ALLIED PHARMACEUTICAL SVCS INC","address1": "1201 SEVEN LOCKS RD","address2": "STE 203","city": "ROCKVILLE","state": "MD","zip": "20851","zip+4": "0000","phone": "3013090999"}
{"name": "GIANT PHARMACY #330","address1": "3500 CRAIN HIGHWAY","address2": "","city": "BOWIE","state": "MD","zip": "20716","zip+4": "0000","phone": "3013522364"}
{"name": "WAL-MART PHARMACY #102436","address1": "1320 LIBERTY ROAD","address2": "","city": "ELDERSBURG","state": "MD","zip": "21784","zip+4": "0000","phone": "4105495491"}
{"name": "MEDICINE SHOPPE #1423","address1": "12838 NEW HAMPSHIRE AVE","address2": "","city": "SILVER SPRING","state": "MD","zip": "20904","zip+4": "0000","phone": "3016220744"}
{"name": "CVS PHARMACY #04030","address1": "11623 REISTERSTOWN RD","address2": "","city": "REISTERSTOWN","state": "MD","zip": "21136","zip+4": "0000","phone": "4105263509"}
{"name": "RITE AID PHARMACY #04533","address1": "8934 WOODYARD ROAD","address2": "","city": "CLINTON","state": "MD","zip": "20735","zip+4": "4241","phone": "3018682000"}
{"name": "MCKAYS PHARMACY","address1": "46075 SIGNATURE LANE","address2": "","city": "LEXINGTON PARK","state": "MD","zip": "20653","zip+4": "0000","phone": "3018624830"}
{"name": "NEIGHBORCARE PHARMACY #47034","address1": "1838 GREENTREE RD","address2": "","city": "BALTIMORE","state": "MD","zip": "21208","zip+4": "0000","phone": "4104868106"}
{"name": "SAFEWAY #1481","address1": "2610 BOSTON ST","address2": "","city": "BALTIMORE","state": "MD","zip": "21224","zip+4": "0000","phone": "4106753802"}
{"name": "TARGET PHARMACY #1002","address1": "580 MARKET PLACE DR","address2": "","city": "BEL AIR","state": "MD","zip": "21014","zip+4": "0000","phone": "4106389031"}
{"name": "TARGET PHARMACY #1008","address1": "3300 WESTERN PARKWAY","address2": "","city": "WALDORF","state": "MD","zip": "20603","zip+4": "0000","phone": "3016457580"}
{"name": "TARGET PHARMACY #1003","address1": "7951 NOLPARK COURT","address2": "","city": "GLEN BURNIE","state": "MD","zip": "21061","zip+4": "0000","phone": "4109692389"}
{"name": "TARGET PHARMACY #1046","address1": "20908 FREDERICK ROAD","address2": "","city": "GERMANTOWN","state": "MD","zip": "20876","zip+4": "0000","phone": "3015150189"}
{"name": "TARGET PHARMACY #1004","address1": "4600 MITCHELLVILLE ROAD","address2": "","city": "BOWIE","state": "MD","zip": "20716","zip+4": "0000","phone": "3013523847"}
{"name": "TARGET PHARMACY #1000","address1": "200 MALCOLM DRIVE","address2": "","city": "WESTMINSTER","state": "MD","zip": "21157","zip+4": "0000","phone": "4108482152"}
{"name": "TARGET PHARMACY #1006","address1": "10500 CAMPUS SOUTH WAY","address2": "","city": "LARGO","state": "MD","zip": "20774","zip+4": "0000","phone": "3013247098"}
{"name": "TARGET PHARMACY #1001","address1": "5230 CAMPBELL BLVD","address2": "","city": "BALTIMORE","state": "MD","zip": "21236","zip+4": "0000","phone": "4109339680"}
{"name": "TARGET PHARMACY #1007","address1": "3343 CORRIDOR MARKETPLACE","address2": "","city": "LAUREL","state": "MD","zip": "20724","zip+4": "0000","phone": "3014830949"}
{"name": "CVS PHARMACY #02034","address1": "5200 YORK RD","address2": "","city": "BALTIMORE","state": "MD","zip": "21212","zip+4": "0000","phone": "4104337711"}
{"name": "CVS PHARMACY #02118","address1": "13390 HG TRUEMAN RD","address2": "","city": "SOLOMONS","state": "MD","zip": "20688","zip+4": "0000","phone": "4103266731"}
{"name": "NEIGHBORCARE PHARMACY #47024","address1": "301 ST PAUL ST","address2": "","city": "BALTIMORE","state": "MD","zip": "21202","zip+4": "0000","phone": "4103329255"}
{"name": "WAL-MART PHARMACY #102357","address1": "20910 FREDERICK ROAD","address2": "","city": "GERMANTOWN","state": "MD","zip": "20876","zip+4": "0000","phone": "3015156703"}
{"name": "RITE AID PHARMACY #03981","address1": "423 EAST NORTH AVENUE","address2": "","city": "BALTIMORE","state": "MD","zip": "21202","zip+4": "5915","phone": "4103853188"}
{"name": "TARGET PHARMACY #1042","address1": "4390 MONTGOMERY RD","address2": "","city": "ELLICOTT CITY","state": "MD","zip": "21043","zip+4": "0000","phone": "4102031171"}
{"name": "TARGET PHARMACY #1044","address1": "6111 DOBBIN ROAD","address2": "","city": "COLUMBIA","state": "MD","zip": "21045","zip+4": "0000","phone": "4102901660"}
{"name": "TARGET PHARMACY #1045","address1": "11200 REISTERSTOWN RD","address2": "","city": "OWINGS MILLS","state": "MD","zip": "21117","zip+4": "0000","phone": "4106549877"}
{"name": "RITE AID PHARMACY #11205","address1": "15 WEST BEL AIR AVENUE","address2": "","city": "ABERDEEN","state": "MD","zip": "21001","zip+4": "0000","phone": "4102721122"}
{"name": "JESSUP CARE PHARMACY","address1": "8610 BALTIMORE WASHINGTON BLVD","address2": "SUITE 110","city": "JESSUP","state": "MD","zip": "20794","zip+4": "0000","phone": "3014830795"}
{"name": "CVS PHARMACY #02045","address1": "9305 HARFORD RD","address2": "","city": "BALTIMORE","state": "MD","zip": "21234","zip+4": "0000","phone": "4106688501"}
{"name": "NEIGHBORCARE PHARMACY #47017","address1": "6565 N CHARLES ST","address2": "","city": "BALTIMORE","state": "MD","zip": "21204","zip+4": "0000","phone": "4438492828"}
{"name": "RITE AID PHARMACY #04686","address1": "101 REISTERSTOWN ROAD","address2": "","city": "PIKESVILLE","state": "MD","zip": "21208","zip+4": "6102","phone": "4104868600"}
{"name": "CVS PHARMACY #02066","address1": "4625 FALLS RD","address2": "","city": "BALTIMORE","state": "MD","zip": "21209","zip+4": "0000","phone": "4106621670"}
{"name": "SAFEWAY #4103","address1": "2346 IVERSON STREET","address2": "","city": "TEMPLE HILLS","state": "MD","zip": "20748","zip+4": "0000","phone": "3014230462"}
{"name": "WEIS PHARMACY #194","address1": "3331 CORRIDOR MARKET PLACE","address2": "","city": "LAUREL","state": "MD","zip": "20724","zip+4": "0000","phone": "3014838033"}
{"name": "NEIGHBORCARE PHARMACY #47022","address1": "2600 LIBERTY HEIGHTS","address2": "","city": "BALTIMORE","state": "MD","zip": "21215","zip+4": "0000","phone": "4103831092"}
{"name": "NEIGHBORCARE PHARMACY #47031","address1": "2411 W BELVEDERE AVE","address2": "","city": "BALTIMORE","state": "MD","zip": "21215","zip+4": "0000","phone": "4106016866"}
{"name": "MEDICINE SHOPPE PHARMACY #1463","address1": "7053 ALLENTOWN ROAD","address2": "","city": "TEMPLE HILLS","state": "MD","zip": "20748","zip+4": "0000","phone": "3014493373"}
{"name": "WEIS PHARMACY #193","address1": "943 PULASKI HWY","address2": "","city": "HAVRE DE GRACE","state": "MD","zip": "21078","zip+4": "0000","phone": "4109394282"}
{"name": "RITE AID PHARMACY #03806","address1": "2026 FALLSTON ROAD","address2": "","city": "FALLSTON","state": "MD","zip": "21047","zip+4": "1456","phone": "4108777849"}
{"name": "SUITLAND PHARMACY","address1": "4731 SILVERHILL ROAD","address2": "","city": "SUITLAND","state": "MD","zip": "20746","zip+4": "0000","phone": "3017363270"}
{"name": "SAFEWAY #1459","address1": "4370 MONTGOMERY ROAD","address2": "","city": "ELLICOTT CITY","state": "MD","zip": "21043","zip+4": "0000","phone": "4102031212"}
{"name": "CVS PHARMACY #07656","address1": "3915 HOLLINS FERRY RD","address2": "","city": "BALTIMORE","state": "MD","zip": "21227","zip+4": "0000","phone": "4102421441"}
{"name": "SAFEWAY #1482","address1": "2401 N CHARLES ST","address2": "","city": "BALTIMORE","state": "MD","zip": "21218","zip+4": "0000","phone": "4102616112"}
{"name": "CVS PHARMACY #02016","address1": "5910 GREENBELT RD","address2": "","city": "GREENBELT","state": "MD","zip": "20770","zip+4": "0000","phone": "3014418810"}
{"name": "THERACOM","address1": "9717 KEY WEST AVE","address2": "","city": "ROCKVILLE","state": "MD","zip": "20850","zip+4": "3982","phone": "3013374200"}
{"name": "TRI TOWNS PHARMACY","address1": "22 MAIN STREET","address2": "","city": "WESTERNPORT","state": "MD","zip": "21562","zip+4": "1408","phone": "3013593778"}
{"name": "RITE AID PHARMACY #04295","address1": "250 WEST CHASE STREET","address2": "","city": "BALTIMORE","state": "MD","zip": "21202","zip+4": "3808","phone": "4107524473"}
{"name": "HMIS LEVINDALE","address1": "2434 W BELVEDERE AVE","address2": "","city": "BALTIMORE","state": "MD","zip": "21215","zip+4": "0000","phone": "4104668700"}
{"name": "RITE AID PHARMACY #04665","address1": "ROUNDWOOD CENTER","address2": "12224 TULLAMORE ROAD","city": "TIMONIUM","state": "MD","zip": "21093","zip+4": "7816","phone": "4106830031"}
{"name": "CVS PHARMACY #02216","address1": "1001 YORK RD","address2": "","city": "TOWSON","state": "MD","zip": "21204","zip+4": "0000","phone": "4108233900"}
{"name": "CVS PHARMACY #04429","address1": "7845 WISE AVE","address2": "","city": "BALTIMORE","state": "MD","zip": "21222","zip+4": "0000","phone": "4102851401"}
{"name": "CVS PHARMACY #05381","address1": "1000 S CHARLES ST","address2": "","city": "BALTIMORE","state": "MD","zip": "21230","zip+4": "0000","phone": "4107529087"}
{"name": "WAL-MART PHARMACY #102514","address1": "2132 OLD SNOW HILL ROAD","address2": "","city": "POCOMOKE CITY","state": "MD","zip": "21851","zip+4": "0000","phone": "4109579610"}
{"name": "GIANT PHARMACY #344","address1": "6020 MARSHALEE DR","address2": "","city": "ELKRIDGE","state": "MD","zip": "21075","zip+4": "0000","phone": "4103796607"}
{"name": "NEIGHBORCARE PHARMACY #47030","address1": "6190 GEORGETOWN BLVD","address2": "","city": "ELDERSBURG","state": "MD","zip": "21784","zip+4": "0000","phone": "4105524220"}
{"name": "WAL-MART PHARMACY #102412","address1": "3200 NORTH RIDGE ROAD","address2": "","city": "ELLICOTT CITY","state": "MD","zip": "21043","zip+4": "0000","phone": "4104189703"}
{"name": "CVS PHARMACY #04650","address1": "300 BALLENGER CTR DRIVE","address2": "","city": "FREDERICK","state": "MD","zip": "21703","zip+4": "0000","phone": "3016827213"}
{"name": "CLEAR SPRING PHARMACY #1","address1": "34 MULBERRY ST","address2": "","city": "CLEAR SPRING","state": "MD","zip": "21722","zip+4": "0000","phone": "3018422774"}
{"name": "RITE AID PHARMACY #03871","address1": "9300 LAKESIDE BOULEVARD","address2": "","city": "OWINGS MILLS","state": "MD","zip": "21117","zip+4": "4953","phone": "4103638066"}
{"name": "RITE AID PHARMACY #04810","address1": "1720 MAIN STREET","address2": "","city": "CHESTER","state": "MD","zip": "21619","zip+4": "2602","phone": "4106042337"}
{"name": "SUPER FRESH PHARMACY #825","address1": "504 E RIDGEVILLE BLVD","address2": "","city": "MT AIRY","state": "MD","zip": "21771","zip+4": "0000","phone": "3018296402"}
{"name": "GIANT PHARMACY #140","address1": "5815 EASTERN AVENUE","address2": "","city": "WEST HYATTSVILLE","state": "MD","zip": "20782","zip+4": "0000","phone": "3015598721"}
{"name": "SAFEWAY #1315","address1": "5200 RANDOLPH ROAD","address2": "","city": "ROCKVILLE","state": "MD","zip": "20852","zip+4": "0000","phone": "3017704096"}
{"name": "GIANT PHARMACY #341","address1": "20 AUDREY LANE","address2": "","city": "OXON HILL","state": "MD","zip": "20745","zip+4": "0000","phone": "3018398181"}
{"name": "SAFEWAY #1336","address1": "9815 MAIN ST","address2": "","city": "DAMASCUS","state": "MD","zip": "20872","zip+4": "0000","phone": "3014821726"}
{"name": "NEIGHBORCARE PHARMACY #47059","address1": "8800 WALTHER BLVD","address2": "","city": "PARKVILLE","state": "MD","zip": "21234","zip+4": "0000","phone": "4108823238"}
{"name": "RITE AID PHARMACY #04597","address1": "1411 EAST WEST HIGHWAY","address2": "","city": "SILVER SPRING","state": "MD","zip": "20910","zip+4": "2836","phone": "3015636935"}
{"name": "MEDSTAR PHARMACY OF GOOD SAMAR","address1": "5601 LOCH RAVEN BLVD","address2": "","city": "BALTIMORE","state": "MD","zip": "21239","zip+4": "0000","phone": "4434444760"}
{"name": "MEDSTAR PHARMACY OF UNION MEMO","address1": "201 E UNIVERSITY PARKWAY","address2": "","city": "BALTIMORE","state": "MD","zip": "21218","zip+4": "0000","phone": "4105542557"}
{"name": "RITE AID PHARMACY #03872","address1": "1600 E CHURCHVILLE ROAD","address2": "","city": "BEL AIR","state": "MD","zip": "21015","zip+4": "4804","phone": "4108369628"}
{"name": "SHOPPERS PHARMACY #2290","address1": "1955 E JOPPA RD","address2": "","city": "BALTIMORE","state": "MD","zip": "21234","zip+4": "0000","phone": "4106655120"}
{"name": "TARGET PHARMACY #1043","address1": "1025 MIDDLETON RD","address2": "","city": "ABERDEEN","state": "MD","zip": "21001","zip+4": "0000","phone": "4102978722"}
{"name": "MAGNOLIA SQUARE PHARMACY","address1": "51 N WALNUT ST","address2": "","city": "HAGERSTOWN","state": "MD","zip": "21740","zip+4": "0000","phone": "3017399070"}
{"name": "SHOPPERS PHARMACY #2286","address1": "1200 EASTERN BLVD","address2": "","city": "BALTIMORE","state": "MD","zip": "21221","zip+4": "0000","phone": "4109180219"}
{"name": "GIANT PHARMACY #348","address1": "6050 DAYBREAK CIRCLE","address2": "","city": "CLARKSVILLE","state": "MD","zip": "21029","zip+4": "0000","phone": "4105317837"}
{"name": "GIANT PHARMACY #362","address1": "20944 FREDERICK ROAD","address2": "","city": "GERMANTOWN","state": "MD","zip": "20876","zip+4": "0000","phone": "3015159498"}
{"name": "SAFEWAY #4763","address1": "5000 BRADLEY BOULEVARD","address2": "","city": "BETHESDA","state": "MD","zip": "20815","zip+4": "0000","phone": "3019135666"}
{"name": "GIANT PHARMACY #346","address1": "5316 NEW DESIGN ROAD","address2": "","city": "FREDERICK","state": "MD","zip": "21703","zip+4": "0000","phone": "3016989430"}
{"name": "WALKERSVILLE PHARMACY","address1": "19 EAST FREDERICK STREET","address2": "","city": "WALKERSVILLE","state": "MD","zip": "21793","zip+4": "0000","phone": "3018454401"}
{"name": "GIANT PHARMACY #347","address1": "10480 CAMPUS WAY SOUTH","address2": "","city": "LARGO","state": "MD","zip": "20774","zip+4": "0000","phone": "3013369428"}
{"name": "HAPPY HARRYS INC #11037","address1": "2556 PULASKI HWY","address2": "","city": "NORTH EAST","state": "MD","zip": "21901","zip+4": "0000","phone": "4102878887"}
{"name": "SAFEWAY #1553","address1": "5485 HARPERS FARM ROAD","address2": "","city": "COLUMBIA","state": "MD","zip": "21044","zip+4": "0000","phone": "4107403332"}
{"name": "RITE AID PHARMACY #04942","address1": "3446 LAYTONSVILLE ROAD","address2": "","city": "OLNEY","state": "MD","zip": "20832","zip+4": "1734","phone": "3012600469"}
{"name": "RITE AID PHARMACY #04575","address1": "1000 KEY PARKWAY","address2": "","city": "FREDERICK","state": "MD","zip": "21702","zip+4": "4056","phone": "3016240000"}
{"name": "CVS PHARMACY #02221","address1": "3715 W UNIVERSITY BLVD","address2": "","city": "KENSINGTON","state": "MD","zip": "20895","zip+4": "0000","phone": "3019628092"}
{"name": "CVS PHARMACY #02160","address1": "9519 PHILADELPHIA RD","address2": "","city": "BALTIMORE","state": "MD","zip": "21237","zip+4": "0000","phone": "4102381071"}
{"name": "CVS PHARMACY #05764","address1": "2560 WEST FRANKLIN ST","address2": "","city": "BALTIMORE","state": "MD","zip": "21223","zip+4": "0000","phone": "4103628203"}
{"name": "COSTCO PHARMACY #203","address1": "575 ORDNANCE RD","address2": "","city": "GLEN BURNIE","state": "MD","zip": "21060","zip+4": "0000","phone": "4105905601"}
{"name": "COSTCO PHARMACY #208","address1": "9919 PULASKI HIGHWAY","address2": "","city": "BALTIMORE","state": "MD","zip": "21220","zip+4": "0000","phone": "4107804159"}
{"name": "SHOPPERS PHARMACY #2283","address1": "8160 RITCHIE HWY","address2": "","city": "PASADENA","state": "MD","zip": "21122","zip+4": "0000","phone": "4107605850"}
{"name": "TARGET PHARMACY #1137","address1": "5437 URBAN PIKE","address2": "","city": "FREDERICK","state": "MD","zip": "21704","zip+4": "0000","phone": "3016242045"}
{"name": "TARGET PHARMACY #1138","address1": "12000 CHERRY HILL ROAD","address2": "","city": "SILVER SPRING","state": "MD","zip": "20904","zip+4": "0000","phone": "3015860873"}
{"name": "TARGET PHARMACY #1142","address1": "1238 PUTTY HILL AVE","address2": "","city": "TOWSON","state": "MD","zip": "21286","zip+4": "0000","phone": "4108234543"}
{"name": "SAFEWAY #1513","address1": "4401 HARFORD ROAD","address2": "","city": "BALTIMORE","state": "MD","zip": "21214","zip+4": "0000","phone": "4103198620"}
{"name": "SAFEWAY #1370","address1": "8775 CLOUDLEAP COURT","address2": "","city": "COLUMBIA","state": "MD","zip": "21045","zip+4": "0000","phone": "3015965027"}
{"name": "RITE AID PHARMACY #04729","address1": "9840 MAIN STREET","address2": "","city": "DAMASCUS","state": "MD","zip": "20872","zip+4": "2040","phone": "3012536288"}
{"name": "HOMECALL PHARMACEUTICAL SERVIC","address1": "10200 OLD COLUMBIA RD","address2": "SUITES M AND N","city": "COLUMBIA","state": "MD","zip": "21046","zip+4": "0000","phone": "8003558530"}
{"name": "NEIGHBORCARE SOUTHGATE #47041","address1": "325 HOSPITAL DR","address2": "","city": "GLEN BURNIE","state": "MD","zip": "21061","zip+4": "0000","phone": "4107683520"}
{"name": "RITE AID PHARMACY #04248","address1": "110 MITCHELLS CHANCE ROAD","address2": "","city": "EDGEWATER","state": "MD","zip": "21037","zip+4": "2740","phone": "4109569411"}
{"name": "SUPER FRESH PHARMACY #872","address1": "125 COLLEGE AVE","address2": "","city": "SALISBURY","state": "MD","zip": "21801","zip+4": "0000","phone": "4108605813"}
{"name": "RITE AID PHARMACY #04983","address1": "6130 BALTIMORE AVENUE","address2": "","city": "RIVERDALE","state": "MD","zip": "20737","zip+4": "1905","phone": "3016995004"}
{"name": "PARK LANE PHARMACY INC","address1": "4259 PARK HEIGHTS AVE","address2": "","city": "BALTIMORE","state": "MD","zip": "21215","zip+4": "0000","phone": "4104668001"}
{"name": "CRAIGS INSTITUTIONAL PHARMACY","address1": "411 RACE STREET","address2": "","city": "CAMBRIDGE","state": "MD","zip": "21613","zip+4": "0000","phone": "4102281012"}
{"name": "GIANT PHARMACY #317","address1": "4624 EDMONSON AVENUE","address2": "","city": "BALTIMORE","state": "MD","zip": "21229","zip+4": "0000","phone": "4103621375"}
{"name": "SAFEWAY #1678","address1": "1313 LONDON TOWNE BLVD","address2": "","city": "ELDERSBURG","state": "MD","zip": "21784","zip+4": "0000","phone": "4105521015"}
{"name": "RITE AID PHARMACY #03000","address1": "609 TAYLOR AVENUE","address2": "","city": "ANNAPOLIS","state": "MD","zip": "21401","zip+4": "1419","phone": "4102685007"}
{"name": "SUPER FRESH PHARMACY #855","address1": "3301 NORTH RIDGE RD","address2": "","city": "ELLICOTT CITY","state": "MD","zip": "21043","zip+4": "0000","phone": "4104803817"}
{"name": "BURKES EPIC PHARMACY","address1": "42 MAIN ST","address2": "","city": "REISTERSTOWN","state": "MD","zip": "21136","zip+4": "0000","phone": "4108339393"}
{"name": "MEDICINE SHOPPE PHARMACY #1583","address1": "204 S TALBOT","address2": "","city": "ST MICHAELS","state": "MD","zip": "21663","zip+4": "0000","phone": "4107456700"}
{"name": "WAL-MART PHARMACY #102577","address1": "1 FRANKEL WAY","address2": "","city": "COCKEYSVILLE","state": "MD","zip": "21030","zip+4": "0000","phone": "4106286168"}
{"name": "SUPER FRESH PHARMACY #985","address1": "12028 CHERRY HILL RD","address2": "","city": "SILVER SPRING","state": "MD","zip": "20904","zip+4": "0000","phone": "3015725462"}
{"name": "RITE AID PHARMACY #02120","address1": "6970 CRESTWOOD BOULEVARD","address2": "6970 CRESTWOOD BOULEVARD","city": "FREDERICK","state": "MD","zip": "21703","zip+4": "7225","phone": "3016829158"}
{"name": "SUPER FRESH PHARMACY #876","address1": "37 W AYLESBURY AVE","address2": "","city": "TIMONIUM","state": "MD","zip": "21093","zip+4": "0000","phone": "4103088702"}
{"name": "WEIS PHARMACY #45","address1": "9250 WASHINGTON BLVD","address2": "","city": "LAUREL","state": "MD","zip": "20723","zip+4": "0000","phone": "3013627304"}
{"name": "HOMECARE PHARMACY-WILLIAMSPORT","address1": "307 E POTOMAC STREET","address2": "","city": "WILLIAMSPORT","state": "MD","zip": "21795","zip+4": "0000","phone": "3012234100"}
{"name": "RITE AID PHARMACY #02280","address1": "300 MARTIN LUTHER KING JR BOUL","address2": "","city": "BALTIMORE","state": "MD","zip": "21201","zip+4": "1211","phone": "4105392532"}
{"name": "CATONSVILLE PHARMACY LLC","address1": "6350 FREDERICK RD","address2": "","city": "BALTIMORE","state": "MD","zip": "21228","zip+4": "0000","phone": "4107445959"}
{"name": "PAPER MILL PHARMACY AND GIFT S","address1": "3320 PAPER MILL ROAD","address2": "","city": "PHOENIX","state": "MD","zip": "21131","zip+4": "0000","phone": "4106674600"}
{"name": "PHARMACEUTICAL SVCS OF AMERICA","address1": "11514 CHARLTON DR","address2": "","city": "SILVER SPRING","state": "MD","zip": "20902","zip+4": "0000","phone": "3015937422"}
{"name": "WILLIAMSPORT PHARMACY","address1": "34 N CONOCOCHEAGUE ST","address2": "","city": "WILLIAMSPORT","state": "MD","zip": "21795","zip+4": "0000","phone": "3012234101"}
{"name": "RITE AID PHARMACY #04920","address1": "1208 PARSONS ROAD","address2": "","city": "SALISBURY","state": "MD","zip": "21801","zip+4": "8436","phone": "4105438180"}
{"name": "RITE AID PHARMACY #04912","address1": "842 SOUTH 5TH AVENUE","address2": "","city": "DENTON","state": "MD","zip": "21629","zip+4": "1398","phone": "4104791771"}
{"name": "RITE AID PHARMACY #04917","address1": "11011 MANKLIN CREEK ROAD","address2": "","city": "BERLIN","state": "MD","zip": "21811","zip+4": "4010","phone": "4106415858"}
{"name": "RITE AID PHARMACY #04909","address1": "12154 BRITTINGHAM LANE","address2": "","city": "PRINCESS ANNE","state": "MD","zip": "21853","zip+4": "2212","phone": "4106511133"}
{"name": "OLD COURT PHARMACY","address1": "5310 OLD COURT ROAD","address2": "SUITE 101","city": "RANDALLSTOWN","state": "MD","zip": "21133","zip+4": "0000","phone": "4105219520"}
{"name": "RITE AID PHARMACY #02690","address1": "30283 TRIANGLE DRIVE","address2": "","city": "CHARLOTTE HALL","state": "MD","zip": "20622","zip+4": "9802","phone": "3014721825"}
{"name": "LANGLEY PARK PHARMACY","address1": "7676 NEW HAMPSHIRE AVE","address2": "STE 104","city": "TACOMA PARK","state": "MD","zip": "20912","zip+4": "0000","phone": "3014456050"}
{"name": "SNOWHILL PHARMACY","address1": "5610 MARKET STREET","address2": "","city": "SNOW HILL","state": "MD","zip": "21863","zip+4": "0000","phone": "4106323500"}
{"name": "HAPPY HARRYS INC #11043","address1": "11307 MANKLIN CREEK RD","address2": "MANKLIN STATION","city": "BERLIN","state": "MD","zip": "21811","zip+4": "0000","phone": "4102083811"}
{"name": "OMNICARE OF HEBREW HOME","address1": "6105 MONTROSE RD","address2": "","city": "ROCKVILLE","state": "MD","zip": "20852","zip+4": "0000","phone": "3017708434"}
{"name": "WAL-MART PHARMACY #102435","address1": "2399 N POINT BLVD","address2": "","city": "DUNDALK","state": "MD","zip": "21222","zip+4": "0000","phone": "4102840126"}
{"name": "WAL-MART PHARMACY #102560","address1": "11416 OCEAN GATEWAY","address2": "","city": "BERLIN","state": "MD","zip": "21811","zip+4": "0000","phone": "4106291842"}
{"name": "AMBULATORY CARE PHARMACY #2","address1": "15001 SHADY GROVE RD","address2": "STE 140","city": "ROCKVILLE","state": "MD","zip": "20850","zip+4": "0000","phone": "3015450193"}
{"name": "MT VERNON PHARMACY","address1": "900 CATHEDRAL ST","address2": "","city": "BALTIMORE","state": "MD","zip": "21201","zip+4": "0000","phone": "4105398030"}
{"name": "RITE AID PHARMACY #11201","address1": "5741 SILVER HILL ROAD","address2": "","city": "FORESTVILLE","state": "MD","zip": "20747","zip+4": "0000","phone": "3017360904"}
{"name": "TARGET PHARMACY #1193","address1": "25 GRAND CORNER AVENUE","address2": "","city": "GAITHERSBURG","state": "MD","zip": "20878","zip+4": "0000","phone": "3017211830"}
{"name": "SHOPPERS PHARMACY #2335","address1": "18140 VILLAGE MART DR","address2": "","city": "OLNEY","state": "MD","zip": "20832","zip+4": "0000","phone": "3019245692"}
{"name": "SHOPPERS PHARMACY #2366","address1": "4720 CHERRY HILL RD","address2": "","city": "COLLEGE PARK","state": "MD","zip": "20740","zip+4": "0000","phone": "3013457738"}
{"name": "MARTINS PHARMACY #297","address1": "12101 WINCHESTER ROAD SW","address2": "","city": "LAVALE","state": "MD","zip": "21502","zip+4": "0000","phone": "3017299740"}
{"name": "CVS PHARMACY #02373","address1": "3605 E WEST HWY","address2": "","city": "HYATTSVILLE","state": "MD","zip": "20782","zip+4": "0000","phone": "3012770199"}
{"name": "WEIS PHARMACY #44","address1": "8115 RITCHIE HWY","address2": "","city": "PASADENA","state": "MD","zip": "21122","zip+4": "0000","phone": "4104219304"}
{"name": "SHOPPERS PHARMACY #2340","address1": "6881 NEW HAMPSHIRE AVE","address2": "","city": "TAKOMA PARK","state": "MD","zip": "20912","zip+4": "0000","phone": "3012702638"}
{"name": "SHOPPERS PHARMACY #2298","address1": "6500 EASTERN AVE","address2": "","city": "BALTIMORE","state": "MD","zip": "21224","zip+4": "0000","phone": "4102827095"}
{"name": "GIANT PHARMACY #313","address1": "18331 LEAMAN FARM RD","address2": "","city": "GERMANTOWN","state": "MD","zip": "20874","zip+4": "0000","phone": "3015282764"}
{"name": "SAFEWAY #1616","address1": "444 WMC DR","address2": "","city": "WESTMINSTER","state": "MD","zip": "21158","zip+4": "0000","phone": "4108711203"}
{"name": "MARTINS PHARMACY #003","address1": "739 PARK STREET EXTENDED","address2": "","city": "CUMBERLAND","state": "MD","zip": "21501","zip+4": "0000","phone": "3017777670"}
{"name": "NEIGHBORCARE ASBURY #47053","address1": "201 RUSSELL AVE","address2": "","city": "GAITHERSBURG","state": "MD","zip": "20877","zip+4": "0000","phone": "3012164372"}
{"name": "SHOPPERS PHARMACY #2293","address1": "7858 QUARTERFIELD RD","address2": "","city": "SEVERN","state": "MD","zip": "21144","zip+4": "0000","phone": "4109694809"}
{"name": "SAFEWAY #1351","address1": "540 BENFIELD ROAD","address2": "","city": "SEVERNA PARK","state": "MD","zip": "21146","zip+4": "0000","phone": "4103841633"}
{"name": "TARGET PHARMACY #1233","address1": "125 E NORTHPOINTE DRIVE","address2": "","city": "SALISBURY","state": "MD","zip": "21804","zip+4": "0000","phone": "4105728518"}
{"name": "WEIS PHARMACY #70","address1": "2294 BLUE WATER BLVD","address2": "","city": "ODENTON","state": "MD","zip": "21113","zip+4": "0000","phone": "4106721418"}
{"name": "CVS PHARMACY #02230","address1": "2040 ROSEMONT AVE","address2": "","city": "FREDERICK","state": "MD","zip": "21702","zip+4": "0000","phone": "3016954811"}
{"name": "SHOPPERS PHARMACY #2332","address1": "1649 CROFTON CENTER","address2": "","city": "CROFTON","state": "MD","zip": "21114","zip+4": "0000","phone": "4107930325"}
{"name": "SUPER FRESH PHARMACY #829","address1": "1238 PUTTY HILL AVE","address2": "","city": "TOWSON","state": "MD","zip": "21286","zip+4": "0000","phone": "4105831626"}
{"name": "SHOPPERS PHARMACY #2342","address1": "6300 COVENTRY WAY","address2": "","city": "CLINTON","state": "MD","zip": "20735","zip+4": "0000","phone": "3018680157"}
{"name": "SUPER FRESH PHARMACY #881","address1": "7740 RITCHIE HWY","address2": "","city": "GLEN BURNIE","state": "MD","zip": "21061","zip+4": "0000","phone": "4107606697"}
{"name": "MARTINS PHARMACY #425","address1": "24 RISING SUN TOWNE CENTER","address2": "","city": "RISING SUN","state": "MD","zip": "21911","zip+4": "0000","phone": "4106588253"}
{"name": "CAREPLUS CVS PHARMACY #02917","address1": "1818 E MONUMENT ST","address2": "","city": "BALTIMORE","state": "MD","zip": "21205","zip+4": "2107","phone": "4105221301"}
{"name": "CVS PHARMACY #02455","address1": "2 COMPASS RD","address2": "","city": "BALTIMORE","state": "MD","zip": "21220","zip+4": "0000","phone": "4102383522"}
{"name": "SHOPPERS PHARMACY #2295","address1": "5722 RITCHIE HWY","address2": "","city": "BALTIMORE","state": "MD","zip": "21225","zip+4": "0000","phone": "4106369779"}
{"name": "WALGREEN DRUG STORE #5331","address1": "8050 LIBERTY ROAD","address2": "","city": "BALTIMORE","state": "MD","zip": "21244","zip+4": "0000","phone": "4104966717"}
{"name": "SHOPPERS PHARMACY #2362","address1": "18066 MATENY RD","address2": "","city": "GERMANTOWN","state": "MD","zip": "20874","zip+4": "0000","phone": "3015280133"}
{"name": "SAFEWAY #1652","address1": "225 BRIER HILL ROAD","address2": "","city": "BEL AIR","state": "MD","zip": "21015","zip+4": "0000","phone": "4104202053"}
{"name": "SAMS PHARMACY #106239","address1": "15 TEXAS STATION COURT","address2": "","city": "TIMONIUM","state": "MD","zip": "21093","zip+4": "0000","phone": "4106287264"}
{"name": "WEIS PHARMACY #172","address1": "550 W MACPHAIL RD","address2": "","city": "BEL AIR","state": "MD","zip": "21014","zip+4": "0000","phone": "4106385804"}
{"name": "HALETHORPE PHARMACY","address1": "1307 FRANCIS AVENUE","address2": "","city": "BALTIMORE","state": "MD","zip": "21227","zip+4": "0000","phone": "4102473344"}
{"name": "TARGET PHARMACY #1257","address1": "17213 COLE ROAD","address2": "","city": "HAGERSTOWN","state": "MD","zip": "21740","zip+4": "0000","phone": "3015829183"}
{"name": "TARGET PHARMACY #1258","address1": "45155 FIRST COLONY WAY","address2": "","city": "CALIFORNIA","state": "MD","zip": "20619","zip+4": "0000","phone": "3018625342"}
{"name": "RITE AID PHARMACY #11197","address1": "3385 CRAIN HIGHWAY","address2": "","city": "WALDORF","state": "MD","zip": "20603","zip+4": "0000","phone": "3013964517"}
{"name": "CVS PHARMACY #02531","address1": "8290 OCEAN GATEWAY","address2": "","city": "EASTON","state": "MD","zip": "21601","zip+4": "0000","phone": "4107636501"}
{"name": "WALGREEN DRUG STORE #5409","address1": "4020 EASTERN AVE","address2": "","city": "BALTIMORE","state": "MD","zip": "21224","zip+4": "0000","phone": "4105348661"}
{"name": "WALGREEN DRUG STORE #5638","address1": "4025 W NORTHERN PKWY","address2": "","city": "BALTIMORE","state": "MD","zip": "21215","zip+4": "0000","phone": "4107649540"}
{"name": "WALGREEN DRUG STORE #5410","address1": "19 E FAYETTE ST","address2": "","city": "BALTIMORE","state": "MD","zip": "21202","zip+4": "0000","phone": "4106251179"}
{"name": "SUPER FRESH PHARMACY #877","address1": "1155 ANNAPOLIS RD","address2": "","city": "ODENTON","state": "MD","zip": "21113","zip+4": "0000","phone": "4106742137"}
{"name": "SAFEWAY #4812","address1": "1101 UNIVERSITY BOULEVARD EAST","address2": "","city": "TAKOMA PARK","state": "MD","zip": "20912","zip+4": "0000","phone": "3014313690"}
{"name": "SHOPPERS PHARMACY #2287","address1": "5457 BALTIMORE NATIONAL PIKE","address2": "","city": "BALTIMORE","state": "MD","zip": "21229","zip+4": "0000","phone": "4108690223"}
{"name": "CVS PHARMACY #02239","address1": "8201 OXON HILL RD","address2": "","city": "FORT WASHINGTON","state": "MD","zip": "20744","zip+4": "0000","phone": "3018397211"}
{"name": "GIANT PHARMACY #358","address1": "573 RITCHIE HIGHWAY","address2": "","city": "SEVERNA PARK","state": "MD","zip": "21146","zip+4": "0000","phone": "4106478331"}
{"name": "ACCOKEEK DRUG AND HEALTH CARE","address1": "15789 LIVINGSTON ROAD","address2": "","city": "ACCOKEEK","state": "MD","zip": "20607","zip+4": "0000","phone": "3012037205"}
{"name": "TARGET PHARMACY #1265","address1": "9901 YORK RD","address2": "","city": "COCKEYSVILLE","state": "MD","zip": "21030","zip+4": "0000","phone": "4106836517"}
{"name": "WAL-MART PHARMACY #102931","address1": "409 N. FRUITLAND","address2": "","city": "FRUITLAND","state": "MD","zip": "21804","zip+4": "0000","phone": "4103416208"}
{"name": "SAFEWAY #1668","address1": "5510 NORBECK ROAD","address2": "","city": "ROCKVILLE","state": "MD","zip": "20853","zip+4": "0000","phone": "3014384023"}
{"name": "SAFEWAY #1596","address1": "2644 CHAPEL LAKE DRIVE","address2": "","city": "GAMBRILLS","state": "MD","zip": "21054","zip+4": "0000","phone": "4104514775"}
{"name": "WAL-MART PHARMACY #102850","address1": "2320 N HANOVER PIKE","address2": "","city": "HAMPSTEAD","state": "MD","zip": "21074","zip+4": "0000","phone": "4103740332"}
{"name": "SUPER FRESH PHARMACY #870","address1": "780 CAMBRIDGE PLAZA","address2": "","city": "CAMBRIDGE","state": "MD","zip": "21613","zip+4": "0000","phone": "4102287608"}
{"name": "WALGREEN DRUG STORE #5623","address1": "3801 LIBERTY HEIGHTS AVE","address2": "","city": "BALTIMORE","state": "MD","zip": "21215","zip+4": "0000","phone": "4103675100"}
{"name": "CVS PHARMACY #02334","address1": "2504 N CHARLES ST","address2": "","city": "BALTIMORE","state": "MD","zip": "21218","zip+4": "0000","phone": "4106627584"}
{"name": "NIGHTTIME PEDIATRICS","address1": "2114 GENERALS HWY","address2": "","city": "ANNAPOLIS","state": "MD","zip": "21401","zip+4": "0000","phone": "4102246483"}
{"name": "JOHN HOPKINS OP PHARMACY AT WE","address1": "401 N BROADWAY","address2": "STE 1001","city": "BALTIMORE","state": "MD","zip": "21231","zip+4": "0000","phone": "4109555747"}
{"name": "TARGET PHARMACY #1295","address1": "6100 GREENBELT ROAD","address2": "","city": "GREENBELT","state": "MD","zip": "20770","zip+4": "0000","phone": "3018370055"}
{"name": "SAMS PHARMACY #106357","address1": "2100 GENERALS HIGHWAY","address2": "","city": "ANNAPOLIS","state": "MD","zip": "21401","zip+4": "0000","phone": "4102247669"}
{"name": "GIANT PHARMACY #359","address1": "45101 FIRST COLONY WAY","address2": "","city": "CALIFORNIA","state": "MD","zip": "20619","zip+4": "0000","phone": "2407255199"}
{"name": "WAL-MART PHARMACY #102799","address1": "8745 BRANCH AVENUE","address2": "","city": "CLINTON","state": "MD","zip": "20735","zip+4": "0000","phone": "3018774025"}
{"name": "SAFEWAY #1565","address1": "15411 NEW HAMPSHIRE AVE","address2": "","city": "SILVER SPRING","state": "MD","zip": "20905","zip+4": "0000","phone": "3014768303"}
{"name": "SAMS PHARMACY #106434","address1": "3535 RUSSETT GREEN EAST","address2": "","city": "LAUREL","state": "MD","zip": "20724","zip+4": "0000","phone": "2405685011"}
{"name": "WEIS PHARMACY #81","address1": "31 EASTERN BLVD NORTH","address2": "","city": "HAGERSTOWN","state": "MD","zip": "21740","zip+4": "0000","phone": "2404200553"}
{"name": "WALGREEN DRUG STORE #5587","address1": "9621 BELAIR RD","address2": "","city": "BALTIMORE","state": "MD","zip": "21236","zip+4": "0000","phone": "4105292573"}
{"name": "BLOOM PHARMACY #1661","address1": "845 ROCKVILL PIKE","address2": "","city": "ROCKVILLE","state": "MD","zip": "20852","zip+4": "0000","phone": "3012510219"}
{"name": "BLOOM PHARMACY #2501","address1": "8300 ICE CRYSTAL DRIVE","address2": "","city": "SCAGGSVILLE","state": "MD","zip": "20723","zip+4": "0000","phone": "3013625370"}
{"name": "CVS PHARMACY #02865","address1": "500 EASTERN BLVD","address2": "","city": "ESSEX","state": "MD","zip": "21221","zip+4": "0000","phone": "4102382607"}
{"name": "GIG PHARMACY AND HOME HEALTHCA","address1": "3611 BRANCH AVE","address2": "","city": "TEMPLE HILLS","state": "MD","zip": "20748","zip+4": "0000","phone": "3014238070"}
{"name": "SAFEWAY #1657","address1": "10335 REISTERSTOWN RD","address2": "","city": "OWINGS MILL","state": "MD","zip": "21117","zip+4": "0000","phone": "4109983823"}
{"name": "EASTERN SHORE PHARMACY INC","address1": "400 EASTERN SHORE DR 103","address2": "","city": "SALISBURY","state": "MD","zip": "21804","zip+4": "0000","phone": "4107495253"}
{"name": "SHOPPERS PHARMACY #2370","address1": "9114 NICHOLSON LN","address2": "","city": "KENSINGTON","state": "MD","zip": "20895","zip+4": "0000","phone": "3018810646"}
{"name": "CVS PHARMACY #02499","address1": "1221 CHURCHVILLE RD","address2": "","city": "BEL AIR","state": "MD","zip": "21015","zip+4": "0000","phone": "4104208319"}
{"name": "GIANT PHARMACY #351","address1": "751 SOUTH SALISBURY BLVD","address2": "","city": "SALISBURY","state": "MD","zip": "21801","zip+4": "0000","phone": "4432602400"}
{"name": "SHOPPERS PHARMACY #2369","address1": "6111 LIVINGSTON RD","address2": "","city": "OXON HILL","state": "MD","zip": "20745","zip+4": "0000","phone": "3017499323"}
{"name": "WAL-MART PHARMACY #102853","address1": "40 DRURY DRIVE","address2": "","city": "LA PLATA","state": "MD","zip": "20646","zip+4": "0000","phone": "3013929106"}
{"name": "HEALTH WAY PHARMACY #PO1947","address1": "1503 BEDFORD AVENUE","address2": "","city": "PIKESVILLE","state": "MD","zip": "21208","zip+4": "0000","phone": "4106536061"}
{"name": "WALGREEN DRUG STORE #5686","address1": "101 BEACON RD","address2": "","city": "BALTIMORE","state": "MD","zip": "21220","zip+4": "0000","phone": "4107804492"}
{"name": "SAFEWAY #1758","address1": "9645 BELAIR ROAD","address2": "","city": "PERRY HALL","state": "MD","zip": "21128","zip+4": "0000","phone": "4102566423"}
{"name": "SUPER FRESH PHARMACY #521","address1": "7005 SECURITY BLVD","address2": "","city": "BALTIMORE","state": "MD","zip": "21207","zip+4": "0000","phone": "4109446994"}
{"name": "SAFEWAY #1715","address1": "403 REDLAND BOULEVARD","address2": "","city": "ROCKVILLE","state": "MD","zip": "20850","zip+4": "0000","phone": "3019904350"}
{"name": "SAFEWAY #1716","address1": "4701 SANGAMORE ROAD","address2": "","city": "BETHESDA","state": "MD","zip": "20816","zip+4": "0000","phone": "3013201773"}
{"name": "WAL-MART PHARMACY #102894","address1": "13164 GARRETT HWY","address2": "","city": "OAKLAND","state": "MD","zip": "21550","zip+4": "0000","phone": "3013349129"}
{"name": "WEIS PHARMACY #62","address1": "10825 BIRMINGHAM WAY","address2": "","city": "WOODSTOCK","state": "MD","zip": "21163","zip+4": "0000","phone": "4104617547"}
{"name": "OAKDALE PHARMACY","address1": "1713 EDMONDSON AVE","address2": "","city": "CATONSVILLE","state": "MD","zip": "21228","zip+4": "0000","phone": "4107477320"}
{"name": "BOWIE PHARMACY INC","address1": "14999 HEALTH CENTER DRIVE","address2": "STE 201","city": "BOWIE","state": "MD","zip": "20716","zip+4": "0000","phone": "4108600800"}
{"name": "WALGREEN DRUG STORE #6366","address1": "2310 W PATAPSCO AVE","address2": "","city": "BALTIMORE","state": "MD","zip": "21230","zip+4": "0000","phone": "4106461597"}
{"name": "KARE MORE PHARMACY","address1": "12085 N SOMERSET AVE","address2": "STE 5","city": "PRINCESS ANNE","state": "MD","zip": "21853","zip+4": "0000","phone": "4106513980"}
{"name": "WAL-MART PHARMACY #102551","address1": "209 EAST RIDGEVILLE BLVD","address2": "","city": "MOUNT AIRY","state": "MD","zip": "21771","zip+4": "0000","phone": "3018294403"}
{"name": "SAMS PHARMACY #106651","address1": "5702 BALT NATNL PIKE","address2": "","city": "CATONSVILLE","state": "MD","zip": "21228","zip+4": "0000","phone": "4107443154"}
{"name": "MED PARK PHARMACY","address1": "2002 MEDICLA PARKWAY","address2": "STE 170","city": "ANNAPOLIS","state": "MD","zip": "21401","zip+4": "0000","phone": "4105736900"}
{"name": "HAPPY HARRYS INC #11054","address1": "5319 PULASKI HWY","address2": "","city": "PERRYVILLE","state": "MD","zip": "21903","zip+4": "0000","phone": "4106420003"}
{"name": "HAPPY HARRYS INC #11057","address1": "2440 CENTERVILLE RD","address2": "CENTERVILLE PARK CENTER","city": "CENTERVILLE","state": "MD","zip": "21617","zip+4": "0000","phone": "4432629640"}
{"name": "WALGREEN DRUG STORE #6265","address1": "9110 LIBERTY ROAD","address2": "","city": "RANDALLSTOWN","state": "MD","zip": "21133","zip+4": "0000","phone": "4104963844"}
{"name": "PHARMACARE OF CUMBERLAND (WEST","address1": "64 GREENE ST","address2": "","city": "CUMBERLAND","state": "MD","zip": "21502","zip+4": "0000","phone": "3017241183"}
	{"name": "SAFEWAY #1880","address1": "8858 WALTHAM WOODS ROAD","address2": "","city": "CARNEY","state": "MD","zip": "21234","zip+4": "0000","phone": "4108828825"}
{"name": "SAFEWAY #1620","address1": "20211 GOSHEN ROAD","address2": "","city": "GAITHERSBURG","state": "MD","zip": "20829","zip+4": "0000","phone": "3016701631"}
{"name": "HUNT VALLEY PHARMACY INC","address1": "10 WARREN ROAD","address2": "","city": "COCKEYSVILLE","state": "MD","zip": "21030","zip+4": "0000","phone": "4106676246"}
{"name": "SAMS PHARMACY #108193","address1": "1700 WESEL BLVD","address2": "","city": "HAGERSTOWN","state": "MD","zip": "21740","zip+4": "0000","phone": "3013933786"}
{"name": "GIANT PHARMACY #363","address1": "1400 MERRITT BOULEVARD","address2": "","city": "DUNDALK","state": "MD","zip": "21222","zip+4": "0000","phone": "4106311280"}
{"name": "GIANT PHARMACY #327","address1": "7142 ARLINGTON ROAD","address2": "","city": "BETHESDA","state": "MD","zip": "20814","zip+4": "0000","phone": "3014925161"}
{"name": "WALGREENS #10977","address1": "301 E. PULASKI HWY","address2": "","city": "ELKTON","state": "MD","zip": "21921","zip+4": "6415","phone": "4106201325"}
{"name": "ABH PHCY AND MEDICAL SUPPLIES","address1": "219 COLLINS AVENUE","address2": "","city": "BALTIMORE","state": "MD","zip": "21229","zip+4": "0000","phone": "4106444002"}
{"name": "SAMS PHARMACY #106652","address1": "5604 BUCKEYSTOWN PIKE","address2": "","city": "FREDERICK","state": "MD","zip": "21704","zip+4": "0000","phone": "2403797612"}
{"name": "GIANT PHARMACY #365","address1": "3229 EMMORTON ROAD","address2": "","city": "ABINGDON","state": "MD","zip": "21009","zip+4": "0000","phone": "4104203161"}
{"name": "SHOPPERS PHARMACY #2339","address1": "7790 RIVERDALE RD","address2": "","city": "NEW CARROLLTON","state": "MD","zip": "20784","zip+4": "0000","phone": "3015775701"}
{"name": "COSTCO PHARMACY #325","address1": "7077 ARUNDEL MILLS CIRCLE","address2": "","city": "HANOVER","state": "MD","zip": "21076","zip+4": "0000","phone": "4103793102"}
{"name": "COSTCO PHARMACY #330","address1": "10 EAST WALSER DRIVE","address2": "","city": "FREDERICK","state": "MD","zip": "21704","zip+4": "0000","phone": "3016441482"}
{"name": "SAMS PHARMACY #104771","address1": "424 GEORGE CLAUSS BLVD","address2": "","city": "SEVERN","state": "MD","zip": "21144","zip+4": "0000","phone": "4109628987"}
{"name": "COMCARE PHARMACY","address1": "15431 EXCELSIOR DR","address2": "BOWIE TOWN CENTER","city": "BOWIE","state": "MD","zip": "20716","zip+4": "0000","phone": "3012622877"}
{"name": "FOERS PHARMACY","address1": "6420 ROCKLEDGE DR","address2": "STE 1300","city": "BETHESDA","state": "MD","zip": "20817","zip+4": "0000","phone": "3014934422"}
{"name": "SAFEWAY #1815","address1": "337 EAST RIDGEVILLE BLVD","address2": "","city": "MOUNT AIRY","state": "MD","zip": "21771","zip+4": "0000","phone": "3018293139"}
{"name": "SAFEWAY #1804","address1": "4100 NORTHVIEW DRIVE","address2": "","city": "BOWIE","state": "MD","zip": "20715","zip+4": "0000","phone": "3012627733"}
{"name": "CVS PHARMACY #02883","address1": "7851 TELEGRAPH RD","address2": "","city": "SEVERN","state": "MD","zip": "21144","zip+4": "0000","phone": "4105515141"}
{"name": "WALGREENS #11763","address1": "701 WASHINGTON AVE","address2": "","city": "CHESTERTOWN","state": "MD","zip": "21620","zip+4": "0000","phone": "4107785698"}
{"name": "GIANT PHARMACY #364","address1": "1401 ROCK SPRING ROAD","address2": "","city": "BELAIR","state": "MD","zip": "21014","zip+4": "0000","phone": "4104202961"}
{"name": "WAL-MART PHARMACY #102756","address1": "1811 MONOCACY BLVD","address2": "","city": "FREDERICK","state": "MD","zip": "21701","zip+4": "0000","phone": "3016442449"}
{"name": "GIANT EAGLE PHARMACY #1842","address1": "WEST 7TH STREET","address2": "","city": "FREDERICK","state": "MD","zip": "21702","zip+4": "0000","phone": "3016313828"}
{"name": "GIANT EAGLE PHARMACY #1841","address1": "1275 WEST PATRICK STREET","address2": "","city": "FREDERICK","state": "MD","zip": "21702","zip+4": "0000","phone": "3016688717"}
{"name": "HAPPY HARRYS INC #11064","address1": "21400 ZEERNAN RD","address2": "","city": "ROCKHALL","state": "MD","zip": "21661","zip+4": "0000","phone": "4106399140"}
{"name": "WALGREEN DRUG STORE #5408","address1": "1330 E NORTH AVE","address2": "","city": "BALTIMORE","state": "MD","zip": "21213","zip+4": "0000","phone": "4108899007"}
{"name": "WAL-MART PHARMACY #103507","address1": "2701 PORT COVINGTON DRIVE","address2": "","city": "BALTIMORE","state": "MD","zip": "21230","zip+4": "0000","phone": "4108378924"}
{"name": "MEDICINE SHOPPE PHARMACY #1802","address1": "10313 GEORGIA AVENUE","address2": "","city": "SILVER SPRING","state": "MD","zip": "20902","zip+4": "0000","phone": "3016815878"}
{"name": "SUPER FRESH PHARMACY #839","address1": "8905 BEL AIR RD","address2": "","city": "PERRY HALL","state": "MD","zip": "21236","zip+4": "0000","phone": "4106570026"}
{"name": "HARLEM GARDENS PHARMACY","address1": "1700 EDMONDSON AVE","address2": "","city": "BALTIMORE","state": "MD","zip": "21223","zip+4": "1212","phone": "4105235900"}
{"name": "WALGREEN DRUG STORE #6396","address1": "8606 PHILADELPHIA RD","address2": "","city": "ROSEDALE","state": "MD","zip": "21237","zip+4": "0000","phone": "4102387425"}
{"name": "SAFEWAY #2629","address1": "2635 HOUSLEY ROAD","address2": "","city": "ANNAPOLIS","state": "MD","zip": "21401","zip+4": "0000","phone": "4105719490"}
{"name": "SHOPPERS PHARMACY #2371","address1": "2201 RANDOLPH RD","address2": "","city": "WHEATON","state": "MD","zip": "20902","zip+4": "0000","phone": "2405141009"}
{"name": "WALGREEN DRUG STORE #6320","address1": "2204 ROLLING ROAD","address2": "","city": "ROLLING HEIGHTS","state": "MD","zip": "21244","zip+4": "0000","phone": "4102657003"}
{"name": "TANEYTOWN PHARMACY","address1": "417 E BALTIMORE ST A1","address2": "","city": "TANEYTOWN","state": "MD","zip": "21787","zip+4": "0000","phone": "4107565240"}
{"name": "GIANT PHARMACY #319","address1": "625 HUNGERFORD DRIVE","address2": "","city": "ROCKVILLE","state": "MD","zip": "20850","zip+4": "0000","phone": "2403145161"}
{"name": "WAL-MART PHARMACY #102290","address1": "9750 REISTERTOWN ROAD A","address2": "","city": "OWINGS MILLS","state": "MD","zip": "21117","zip+4": "0000","phone": "4433940987"}
{"name": "GIANT PHARMACY #322","address1": "11604 REISTERTOWN RD","address2": "","city": "REISTERSTOWN","state": "MD","zip": "21136","zip+4": "0000","phone": "4105261661"}
{"name": "SAMS PHARMACY #104766","address1": "9750 REISTERTOWN ROAD","address2": "","city": "OWINGS MILLS","state": "MD","zip": "21117","zip+4": "0000","phone": "4106544905"}
{"name": "WAL-MART PHARMACY #103490","address1": "7081 ARUNDEL MILLS CIRCLE","address2": "","city": "HANOVER","state": "MD","zip": "21076","zip+4": "0000","phone": "4105792953"}
{"name": "TARGET PHARMACY #1415","address1": "11160 VIERS MILL ROAD","address2": "","city": "WHEATON","state": "MD","zip": "20902","zip+4": "0000","phone": "3019468168"}
{"name": "MILFORD STREET PHARMACY","address1": "106 MILFORD ST","address2": "SUITE 401","city": "SALISBURY","state": "MD","zip": "21804","zip+4": "0000","phone": "4108600700"}
{"name": "WAL-MART PHARMACY #103489","address1": "6420 PETRIE WAY","address2": "","city": "BALTIMORE","state": "MD","zip": "21237","zip+4": "0000","phone": "4106876832"}
{"name": "WALGREEN DRUG STORE #6779","address1": "9616 HARFORD RD","address2": "","city": "BALTIMORE","state": "MD","zip": "21234","zip+4": "0000","phone": "4106636951"}
{"name": "SAMS PHARMACY #106650","address1": "6410 PETRIE WAY","address2": "","city": "BALTIMORE","state": "MD","zip": "21237","zip+4": "0000","phone": "4106867649"}
{"name": "RITE AID PHARMACY #11202","address1": "19927 CENTURY BOULEVARD","address2": "","city": "GERMANTOWN","state": "MD","zip": "20874","zip+4": "0000","phone": "3019724861"}
{"name": "CVS PHARMACY #02522","address1": "3300 BELAIR RD","address2": "","city": "BALTIMORE","state": "MD","zip": "21213","zip+4": "0000","phone": "4105223843"}
{"name": "SAMS PHARMACY #106653","address1": "610 N FREDERICK AVE","address2": "","city": "GAITHERSBURG","state": "MD","zip": "20877","zip+4": "0000","phone": "2406317716"}
{"name": "CVS PHARMACY #02779","address1": "503 SOUTH CHERRY GROVE AVE","address2": "","city": "ANNAPOLIS","state": "MD","zip": "21401","zip+4": "0000","phone": "4434823981"}
{"name": "CVS PHARMACY #02775","address1": "2601 RIVA RD","address2": "","city": "ANNAPOLIS","state": "MD","zip": "21401","zip+4": "0000","phone": "4105712090"}
{"name": "NEIGHBORCARE RIDERWOOD #47052","address1": "3110 GRACEFIELD RD","address2": "","city": "SILVER SPRING","state": "MD","zip": "20904","zip+4": "0000","phone": "3015728470"}
{"name": "NIGHTTIME PEDIATRICS","address1": "2401 BRANDERMILL BLVD 100","address2": "","city": "GAMBRILLS","state": "MD","zip": "21054","zip+4": "0000","phone": "3012616483"}
{"name": "SAMS PHARMACY #106383","address1": "2700 N SALISBURY BLVD","address2": "","city": "SALISBURY","state": "MD","zip": "21801","zip+4": "0000","phone": "4105461984"}
{"name": "WESTSIDE PHCY AND WELLNESS CTR","address1": "2021 W PRATT ST","address2": "","city": "BALTIMORE","state": "MD","zip": "21223","zip+4": "0000","phone": "4105661360"}
{"name": "FOOD LION PHARMACY #2547","address1": "191 ST PATRICKS DRIVE","address2": "","city": "WALDORF","state": "MD","zip": "20603","zip+4": "0000","phone": "3013749102"}
{"name": "SAFEWAY #1956","address1": "14939 SHADY GROVE ROAD","address2": "","city": "ROCKVILLE","state": "MD","zip": "20850","zip+4": "0000","phone": "3019441585"}
{"name": "SHOPPERS PHARMACY #2377","address1": "2950 DONNELL DR","address2": "","city": "FORESTVILLE","state": "MD","zip": "20747","zip+4": "0000","phone": "2404920189"}
{"name": "WOODHAVEN PHARMACY LLC","address1": "9006 YELLOW BRICK ROAD","address2": "STE F","city": "BALTIMORE","state": "MD","zip": "21237","zip+4": "0000","phone": "4439278400"}
{"name": "RITE AID PHARMACY #11218","address1": "833 SOUTH SALISBURY BOULEVARD","address2": "","city": "SALISBURY","state": "MD","zip": "21801","zip+4": "0000","phone": "4432600722"}
{"name": "BURKES PARKVILLE PHARMACY","address1": "8500 HARFORD RD","address2": "","city": "BALTIMORE","state": "MD","zip": "21234","zip+4": "0000","phone": "4106652600"}
{"name": "APPLE DISCOUNT DRUGS #4","address1": "314 FRANKLIN ST","address2": "STE 600","city": "BERLIN","state": "MD","zip": "21811","zip+4": "0000","phone": "4106413130"}
{"name": "GIANT PHARMACY #329","address1": "9719 TRAVILLE GATEWAY DRIVE","address2": "","city": "ROCKVILLE","state": "MD","zip": "20850","zip+4": "0000","phone": "3013151461"}
{"name": "TARGET PHARMACY #1541","address1": "1737 REISTERSTOWN ROAD","address2": "","city": "PIKESVILLE","state": "MD","zip": "21208","zip+4": "0000","phone": "4104864190"}
{"name": "SAFEWAY #1882","address1": "990 E SWANN CREEK RD","address2": "","city": "FT WASHINGTON","state": "MD","zip": "20744","zip+4": "0000","phone": "3019656003"}
{"name": "MEDCARE PHARMACY SERVICES","address1": "14900 SWEITZER LN STE","address2": "STE 103","city": "LAUREL","state": "MD","zip": "20707","zip+4": "0000","phone": "3014976171"}
{"name": "SAFEWAY #1994","address1": "201 REISTERSTOWN RD","address2": "","city": "PIKESVILLE","state": "MD","zip": "21208","zip+4": "0000","phone": "4104131208"}
{"name": "CVS PHARMACY #05909","address1": "1611 N PHILADELPHIA AVE","address2": "","city": "OCEAN CITY","state": "MD","zip": "21842","zip+4": "0000","phone": "4102896513"}
{"name": "CORRECT RX PHARMACY SERVICES I","address1": "803A BARKWOOD CT","address2": "","city": "LINTHICUM","state": "MD","zip": "21090","zip+4": "0000","phone": "4106369500"}
{"name": "GIANT PHARMACY #338","address1": "7025 BERRY ROAD","address2": "","city": "ACCOKEEK","state": "MD","zip": "20607","zip+4": "0000","phone": "3018933101"}
{"name": "EQUINOX HEALTHCARE INC","address1": "3240 B CORPORATE CT","address2": "","city": "ELLICOTT CITY","state": "MD","zip": "21042","zip+4": "2247","phone": "4102031701"}
{"name": "NATIONAL PHARMACY","address1": "1313 NATIONAL HWY","address2": "SUITE 7","city": "LAVALE","state": "MD","zip": "21502","zip+4": "0000","phone": "3017296226"}
{"name": "SHOPPERS PHARMACY #2349","address1": "1170 SMALLWOOD DR","address2": "","city": "WALDORF","state": "MD","zip": "20603","zip+4": "0000","phone": "2404271140"}
{"name": "CRAIN TOWERS PHARMACY","address1": "1600 CRAIN HWY SW","address2": "STE 110","city": "GLEN BURNIE","state": "MD","zip": "21061","zip+4": "0000","phone": "4107604595"}
{"name": "CVS PHARMACY #02778","address1": "11100 BALTIMORE AVE","address2": "","city": "BELTSVILLE","state": "MD","zip": "20705","zip+4": "0000","phone": "3015729682"}
{"name": "SAMS PHARMACY #106655","address1": "2365 CRAIN HIGHWAY","address2": "","city": "WALDORF","state": "MD","zip": "20601","zip+4": "0000","phone": "3019328260"}
{"name": "WAL-MART PHARMACY #103481","address1": "112 CARROLL ISLAND ROAD","address2": "","city": "BALTIMORE","state": "MD","zip": "21220","zip+4": "0000","phone": "4103351135"}
{"name": "FINKSBURG PHARMACY INC","address1": "2025 SUFFOLK RD","address2": "","city": "FINKSBURG","state": "MD","zip": "21048","zip+4": "0000","phone": "4105261055"}
{"name": "RITE AID PHARMACY #11210","address1": "2633 BRANDERMILL BOULEVARD.","address2": "","city": "GAMBRILLS","state": "MD","zip": "21054","zip+4": "0000","phone": "4104519448"}
{"name": "RITE AID PHARMACY #11203","address1": "662 QUINCE ORCHARD ROAD","address2": "","city": "GAITHERSBURG","state": "MD","zip": "20878","zip+4": "0000","phone": "3019906993"}
{"name": "JOHN HOPKINS OP PHARMACY AT MO","address1": "600 N WOLFE ST","address2": "CARNEGIE BLDG 2ND FLR RM 224 A","city": "BALTIMORE","state": "MD","zip": "21287","zip+4": "0000","phone": "4106145611"}
{"name": "MEDICAP PHARMACY #8340","address1": "602 S ATWOOD RD","address2": "STE 101","city": "BEL AIR","state": "MD","zip": "21014","zip+4": "0000","phone": "4106382730"}
{"name": "FOOD LION PHARMACY #1184","address1": "3200 OLD WASHINGTON ROAD","address2": "","city": "WALDORF","state": "MD","zip": "20602","zip+4": "0000","phone": "3013746791"}
{"name": "GIANT PHARMACY #336","address1": "2900 UNIVERSITY BOULEVARD WEST","address2": "","city": "WHEATON","state": "MD","zip": "20902","zip+4": "0000","phone": "3016924181"}
{"name": "WALGREEN DRUG STORE #7357","address1": "3005 EMMORTON RD","address2": "","city": "ABINGDON","state": "MD","zip": "21009","zip+4": "0000","phone": "4105698876"}
{"name": "GIANT PHARMACY #300","address1": "8805 CENTRE PARK DRIVE","address2": "","city": "COLUMBIA","state": "MD","zip": "21045","zip+4": "0000","phone": "4433645181"}
{"name": "GIANT PHARMACY #326","address1": "10515 GREENBELT ROAD","address2": "","city": "LANHAM","state": "MD","zip": "20706","zip+4": "0000","phone": "3016661181"}
{"name": "GIANT PHARMACY #324","address1": "4315 MOUNTAIN ROAD","address2": "","city": "PASADENA","state": "MD","zip": "21122","zip+4": "0000","phone": "4104392104"}
{"name": "RITE AID PHARMACY #11200","address1": "3250 SUPERIOR LANE","address2": "","city": "BOWIE","state": "MD","zip": "20715","zip+4": "0000","phone": "3018051866"}
{"name": "CENTRAL AVENUE PHARMACY","address1": "1235 E MONUMENT ST","address2": "","city": "BALTIMORE","state": "MD","zip": "21202","zip+4": "0000","phone": "4102763530"}
{"name": "WAL-MART PHARMACY #105228","address1": "6405 DOBBIN ROAD","address2": "","city": "COLUMBIA","state": "MD","zip": "21045","zip+4": "0000","phone": "4107408554"}
{"name": "KLEIN'S SHOPRITE PHARMACY # #5","address1": "1606 DOOLEY RD","address2": "","city": "CARDIFF","state": "MD","zip": "21160","zip+4": "0000","phone": "4104529799"}
{"name": "GREEN VALLEY PHARMACY","address1": "11791 FINGERBOARD RD","address2": "","city": "MONROVIA","state": "MD","zip": "21770","zip+4": "0000","phone": "3018652200"}
{"name": "GLENMORE SPECIALTY PHARMACY","address1": "6305 BELAIR RD","address2": "","city": "BALTIMORE","state": "MD","zip": "21206","zip+4": "0000","phone": "4104267000"}
{"name": "COVENANT FOOD AND PHARMACY #1","address1": "14633 BALTIMORE AVE","address2": "","city": "LAUREL","state": "MD","zip": "20707","zip+4": "0000","phone": "3013629100"}
{"name": "INDEPENDENT DRUG","address1": "28 KINGSTON RD","address2": "","city": "BALTIMORE","state": "MD","zip": "21220","zip+4": "0000","phone": "4106871115"}
{"name": "GIANT PHARMACY #334","address1": "3521 EAST WEST HIGHWAY","address2": "","city": "HYATTSVILLE","state": "MD","zip": "20782","zip+4": "0000","phone": "3018533701"}
{"name": "TARGET PHARMACY #1871","address1": "403 CONSTANT FRIENDSHIP BLVD","address2": "","city": "ABINGDON","state": "MD","zip": "21009","zip+4": "0000","phone": "4106709001"}
{"name": "CITY DISCOUNT PHARMACY","address1": "440 LINDEN AVE","address2": "","city": "POCOMOKE CITY","state": "MD","zip": "21851","zip+4": "0000","phone": "4109571447"}
{"name": "MANCHESTER PHARMACY INC","address1": "3321 N MAIN ST","address2": "UNIT A1","city": "MANCHESTER","state": "MD","zip": "21102","zip+4": "0000","phone": "4102392300"}
{"name": "EXTRA CARE PHARMACY","address1": "801 PARK AVE","address2": "","city": "BALTIMORE","state": "MD","zip": "21201","zip+4": "0000","phone": "4103324666"}
{"name": "NORTHGATE CARE PHARMACY","address1": "3973 ST CHARLES PKWY","address2": "","city": "WALDORF","state": "MD","zip": "20602","zip+4": "0000","phone": "3019327977"}
{"name": "RIDGELY PHARMACY","address1": "19 CENTRAL AVE","address2": "","city": "RIDGELY","state": "MD","zip": "21660","zip+4": "0000","phone": "4106349800"}
{"name": "SAFEWAY #1926","address1": "7643 ARUNDEL MILLS BLVD","address2": "","city": "HANOVER","state": "MD","zip": "21076","zip+4": "0000","phone": "4109047227"}
{"name": "PEOPLES COMMUNITY PHARMACY","address1": "3013 GREENMOUNT AVE","address2": "","city": "BALTIMORE","state": "MD","zip": "21218","zip+4": "0000","phone": "4438727792"}
{"name": "HAPPY HARRYS INC #11072","address1": "1200 SHOPPING CENTER RD","address2": "","city": "STEVENSVILLE","state": "MD","zip": "21666","zip+4": "0000","phone": "4106435119"}
{"name": "WASHINGTON ADVENTIST FAMILY PH","address1": "7610 CARROLL AVE","address2": "SUITE 110","city": "TAKOMA PARK","state": "MD","zip": "20912","zip+4": "0000","phone": "3018916077"}
{"name": "OLNEY PROFESSIONAL PHCY INC","address1": "18111 PRINCE PHILIP DR","address2": "STE 100","city": "OLNEY","state": "MD","zip": "20832","zip+4": "0000","phone": "3017749812"}
{"name": "GIANT PHARMACY #303","address1": "601 EAST 33RD STREET","address2": "","city": "BALTIMORE","state": "MD","zip": "21218","zip+4": "0000","phone": "4106494181"}
{"name": "WALGREEN DRUG STORE #7554","address1": "7901 RITCHIE HWY","address2": "","city": "GLEN BURNIE","state": "MD","zip": "21061","zip+4": "0000","phone": "4107618066"}
{"name": "WHITE MARSH PHARMACY","address1": "4924 CAMPBELL BLVD","address2": "STE 120","city": "NOTTINGHAM","state": "MD","zip": "21236","zip+4": "0000","phone": "4433842500"}
{"name": "GIANT PHARMACY #304","address1": "3297 CRAIN HIGHWAY","address2": "","city": "WALDORF","state": "MD","zip": "20603","zip+4": "0000","phone": "3015424200"}
{"name": "MEDSTAR PHARMACY AT HARBOR HOS","address1": "3001 S HANOVER ST","address2": "","city": "BALTIMORE","state": "MD","zip": "21225","zip+4": "0000","phone": "4103503878"}
{"name": "CVS PHARMACY #02033","address1": "3025 SOLOMONS ISLAND RD","address2": "","city": "EDGEWATER","state": "MD","zip": "21037","zip+4": "0000","phone": "4107988715"}
{"name": "GIANT PHARMACY #337","address1": "6620 REISTERSTOWN ROAD","address2": "","city": "BALTIMORE","state": "MD","zip": "21215","zip+4": "0000","phone": "4106498181"}
{"name": "ANCHOR PHARMACY #111","address1": "205 WASHINGTON HEIGHTS MEDICAL","address2": "","city": "WESTMINSTER","state": "MD","zip": "21157","zip+4": "0000","phone": "4108488900"}
{"name": "ANCHOR PHARMACY #101","address1": "205 ST MARKS WAY","address2": "UNIT B","city": "WESTMINSTER","state": "MD","zip": "21158","zip+4": "0000","phone": "4108481618"}
{"name": "SAFEWAY #1938","address1": "40 SHINING WILLOW WAY","address2": "","city": "LAPLATA","state": "MD","zip": "20646","zip+4": "0000","phone": "3013921878"}
{"name": "WALGREEN DRUG STORE #7701","address1": "7953 CRAIN HWY S","address2": "","city": "GLEN BURNIE","state": "MD","zip": "21061","zip+4": "4934","phone": "4109693415"}
{"name": "WEIS PHARMACY #180","address1": "9400 SCOTT MOORE WAY","address2": "","city": "PERRY HALL","state": "MD","zip": "21128","zip+4": "0000","phone": "4105293980"}
{"name": "DRUGS R US INC","address1": "6821 REISTERSTOWN RD","address2": "STE 207","city": "BALTIMORE","state": "MD","zip": "21215","zip+4": "0000","phone": "4103587557"}
{"name": "KLEIN'S SHOPRITE PHARMACY # #5","address1": "14330 JARRETTSVILLE PIKE","address2": "","city": "PHOENIX","state": "MD","zip": "21131","zip+4": "0000","phone": "4106661700"}
{"name": "NIGHTTIME PEDIATRICS NORTH","address1": "8125 H RITCHIE HWY","address2": "","city": "PASADENA","state": "MD","zip": "21122","zip+4": "0000","phone": "4105446483"}
{"name": "NEW ERA CARE PHARMACY","address1": "1444 TO 1446 ADDISON RD SOUTH","address2": "","city": "CAPITOL HEIGHTS","state": "MD","zip": "20743","zip+4": "0000","phone": "3018084361"}
{"name": "TARGET PHARMACY #1890","address1": "3500 EAST WEST HWY STE 1200","address2": "","city": "HYATTSVILLE","state": "MD","zip": "20782","zip+4": "0000","phone": "3019550006"}
{"name": "TARGET PHARMACY #1897","address1": "3101 DONNELL DR","address2": "","city": "DISTRICT HEIGHTS","state": "MD","zip": "20747","zip+4": "0000","phone": "3017781652"}
{"name": "TARGET PHARMACY #1938","address1": "6717 RITCHIE HWY","address2": "","city": "GLEN BURNIE","state": "MD","zip": "21061","zip+4": "0000","phone": "4104870039"}
{"name": "MEDSTAR PHARMACY AT FS WEINBER","address1": "9103 FRANKLIN SQUARE DR","address2": "STE 1800","city": "ROSEDALE","state": "MD","zip": "21237","zip+4": "0000","phone": "4437776201"}
{"name": "NATURECARE PHARMACY","address1": "1140 N ROLLING ROAD","address2": "","city": "BALTIMORE","state": "MD","zip": "21228","zip+4": "0000","phone": "4108699833"}
{"name": "CVS PHARMACY #02335","address1": "8032 C LIBERTY RD","address2": "","city": "FREDERICK","state": "MD","zip": "21701","zip+4": "0000","phone": "3018460090"}
{"name": "RITE AID PHARMACY #11212","address1": "23 WEST TIMONIUM ROAD","address2": "","city": "TIMONIUM","state": "MD","zip": "21093","zip+4": "0000","phone": "4102525691"}
{"name": "GIANT PHARMACY #335","address1": "1700 KING FISHER DRIVE","address2": "","city": "FREDERICK","state": "MD","zip": "21701","zip+4": "0000","phone": "3018152201"}
{"name": "MEDICINE SHOPPE PHARMACY #1849","address1": "1724 E NORTHERN PARKWAY","address2": "","city": "BALTIMORE","state": "MD","zip": "21239","zip+4": "0000","phone": "4104339434"}
{"name": "RITE AID PHARMACY #11206","address1": "606 HOAGIE DRIVE","address2": "","city": "BEL AIR","state": "MD","zip": "21014","zip+4": "0000","phone": "4104200176"}
{"name": "CARE ONE PHARMACY","address1": "2277 REISTERSTOWN RD","address2": "","city": "BALTIMORE","state": "MD","zip": "21217","zip+4": "0000","phone": "4105237500"}
{"name": "CVS PHARMACY #05460","address1": "19901 FREDERICK RD","address2": "","city": "GERMANTOWN","state": "MD","zip": "20876","zip+4": "0000","phone": "3019167767"}
{"name": "RITE AID PHARMACY #11199","address1": "355 MARKET SQUARE DRIVE","address2": "","city": "PRINCE FREDERICK","state": "MD","zip": "20678","zip+4": "0000","phone": "4105350731"}
{"name": "Q D PHARMACY INC","address1": "5711 INDUSTRY LANE","address2": "SUITE 32","city": "FREDERICK","state": "MD","zip": "21704","zip+4": "0000","phone": "3013609600"}
{"name": "JOHNSON FAMILY PHARMACY LLC #1","address1": "119 W BEL AIR AVE","address2": "","city": "ABERDEEN","state": "MD","zip": "21001","zip+4": "0000","phone": "4102979400"}
{"name": "LAUREL PHARMACY","address1": "7350 VAN DUSEN RD","address2": "SUITE 120","city": "LAUREL","state": "MD","zip": "20707","zip+4": "0000","phone": "3016048500"}
{"name": "SAFEWAY #2661","address1": "3051 WALDORF MARKET PLACE","address2": "","city": "WALDORF","state": "MD","zip": "20603","zip+4": "0000","phone": "3016325684"}
{"name": "TERRAPIN PHARMACY","address1": "13 LINCOLN CRT","address2": "","city": "ANNAPOLIS","state": "MD","zip": "21401","zip+4": "0000","phone": "4438370200"}
{"name": "CVS PHARMACY #05926","address1": "123 MAIN ST","address2": "","city": "ANNAPOLIS","state": "MD","zip": "21401","zip+4": "0000","phone": "4102953061"}
{"name": "TARGET PHARMACY #1854","address1": "5700 BOU AVE","address2": "","city": "ROCKVILLE","state": "MD","zip": "20852","zip+4": "0000","phone": "3019450019"}
{"name": "CVS PHARMACY #06765","address1": "2003 DAVIDSONVILLE RD","address2": "","city": "CROFTON","state": "MD","zip": "21114","zip+4": "0000","phone": "4107213762"}
{"name": "RITE AID PHARMACY #11204","address1": "13307 NEW HAMPSHIRE AVENUE","address2": "","city": "SILVER SPRING","state": "MD","zip": "20904","zip+4": "0000","phone": "3013840487"}
{"name": "NORTHERN PHARMACY AT OVERLEA","address1": "7618 BELAIR RD","address2": "","city": "BALTIMORE","state": "MD","zip": "21236","zip+4": "0000","phone": "4106611655"}
{"name": "CRISFIELD DISCOUNT PHARMACY","address1": "347 W MAIN ST","address2": "","city": "CHRISFIELD","state": "MD","zip": "21817","zip+4": "0000","phone": "4109681660"}
{"name": "MARTINS PHARMACY #275","address1": "1650C WESEL BLVD","address2": "","city": "HAGERSTOWN","state": "MD","zip": "21740","zip+4": "0000","phone": "3017669148"}
{"name": "WAL-MART PHARMACY #105344","address1": "1238 PUTTY HILL AVE STE 5","address2": "","city": "TOWSON","state": "MD","zip": "21286","zip+4": "0000","phone": "4104944619"}
{"name": "MAIN STREET PHARMACY","address1": "653 MAIN ST","address2": "","city": "LAUREL","state": "MD","zip": "20707","zip+4": "0000","phone": "3013173838"}
{"name": "SHOPPERS PHARMACY #2347","address1": "3441 FORT MEADE RD","address2": "","city": "LAUREL","state": "MD","zip": "20724","zip+4": "0000","phone": "3012063092"}
{"name": "FELDMANS PHARMACY AT CHARTWELL","address1": "8186 LARK BROWN RD","address2": "STE 101","city": "ELKRIDGE","state": "MD","zip": "21075","zip+4": "0000","phone": "4436209990"}
{"name": "WALGREEN DRUG STORE #9028","address1": "6700 RITCHIE HWY","address2": "","city": "GLEN BURNIE","state": "MD","zip": "21061","zip+4": "0000","phone": "4438480242"}
{"name": "WALGREEN DRUG STORE #9032","address1": "25 HIGH ST","address2": "","city": "WALDORF","state": "MD","zip": "20602","zip+4": "0000","phone": "3019324902"}
{"name": "COLUMBIA HICKORY CARE PHARMACY","address1": "10805 HICKORY RIDGE RD","address2": "","city": "COLUMBIA","state": "MD","zip": "21044","zip+4": "0000","phone": "4109646409"}
{"name": "EASTERN DISCOUNT PHARMACY","address1": "163 ORVILLE RD","address2": "","city": "ESSEX","state": "MD","zip": "21221","zip+4": "0000","phone": "4106861136"}
{"name": "WAL-MART PHARMACY #105450","address1": "75 NORTH EAST PLAZA","address2": "","city": "NORTH EAST","state": "MD","zip": "21901","zip+4": "0000","phone": "4102873479"}
{"name": "WALGREEN DRUG STORE #7574","address1": "5657 BALTIMORE NATIONAL PIKE","address2": "","city": "CATONSVILLE","state": "MD","zip": "21228","zip+4": "1412","phone": "4107477589"}
{"name": "COLUMBIA MEDICAL PHARMACY","address1": "5500 KNOLL NORTH DRIVE","address2": "","city": "COLUMBIA","state": "MD","zip": "21045","zip+4": "0000","phone": "4109641010"}
{"name": "NORTHERN SPECIAL CARE PHARMACY","address1": "7906 HARFORD RD","address2": "","city": "BALTIMORE","state": "MD","zip": "21234","zip+4": "0000","phone": "4109511636"}
{"name": "TARGET PHARMACY #1970","address1": "1330 MARTIN BLVD","address2": "","city": "MIDDLE RIVER","state": "MD","zip": "21220","zip+4": "0000","phone": "4104069082"}
{"name": "CENTER FOR CANCER AND BLOOD DI","address1": "6420 ROCKLEDGE DR STE 4100","address2": "","city": "BETHESDA","state": "MD","zip": "20817","zip+4": "0000","phone": "3015710019"}
{"name": "JOPPA ROAD PHARMACY LLC","address1": "1907A E JOPPA RD","address2": "","city": "BALTIMORE","state": "MD","zip": "21234","zip+4": "0000","phone": "4106655050"}
{"name": "SUNRISE PHARMACY","address1": "1900 E NORTHERN PKWY","address2": "SUITE 100","city": "BALTIMORE","state": "MD","zip": "21239","zip+4": "0000","phone": "4104338150"}
{"name": "CVS PHARMACY #01621","address1": "3855 LEONARDTOWN RD","address2": "","city": "WALDORF","state": "MD","zip": "20601","zip+4": "0000","phone": "3016325079"}
{"name": "SHADY GROVE PHARMACY","address1": "15225 SHADY GROVE RD","address2": "SUITE 101","city": "ROCKVILLE","state": "MD","zip": "20850","zip+4": "3234","phone": "3019484222"}
{"name": "RITE AID PHARMACY #11213","address1": "6300 YORK ROAD","address2": "","city": "BALTIMORE","state": "MD","zip": "21212","zip+4": "0000","phone": "4103230838"}
{"name": "MEDMERICA DISCOUNT PHARMACY","address1": "5003 RITCHIE HWY","address2": "","city": "BROOKLYN","state": "MD","zip": "21225","zip+4": "0000","phone": "4432838400"}
{"name": "PADEK HEALTHCARE PHARMACY INC","address1": "5403A ANNAPOLIS ROAD","address2": "","city": "BLADENSBURG","state": "MD","zip": "20710","zip+4": "0000","phone": "3012777107"}
{"name": "AUERBACH HEMATOLOGY ONCOLO","address1": "9110 PHILADELPHIA RD","address2": "STE 314","city": "BALTIMORE","state": "MD","zip": "21237","zip+4": "0000","phone": "4107804050"}
{"name": "WEGMANS PHARMACY #14","address1": "122 SHAWAN RD","address2": "","city": "HUNT VALLEY","state": "MD","zip": "21030","zip+4": "0000","phone": "4107733945"}
{"name": "CITIZENS PHARMACY SERVICES","address1": "415 A MARKET ST","address2": "STE B","city": "HAVRE DE GRAC","state": "MD","zip": "21078","zip+4": "0000","phone": "4109394404"}
{"name": "REEDS PHARMACY #3","address1": "343 N PENNSYLVANIA AVE","address2": "","city": "HANCOCK","state": "MD","zip": "21750","zip+4": "0000","phone": "3016782930"}
{"name": "INSTITUTIONAL PHARMACY SERVICE","address1": "1510 CONOWINGO ROAD","address2": "","city": "BELAIR","state": "MD","zip": "21014","zip+4": "0000","phone": "4108799099"}
{"name": "MACPHAIL PHARMACY","address1": "615 W MACPHAIL RD","address2": "SUITE 103","city": "BEL AIR","state": "MD","zip": "21014","zip+4": "0000","phone": "4106387367"}
{"name": "CVS PHARMACY #01790","address1": "15100 BALTIMORE AVE","address2": "","city": "LAUREL","state": "MD","zip": "20707","zip+4": "0000","phone": "3017765404"}
{"name": "SUPREME CARE PHCY AND MEDICAL","address1": "7936 JOHNSON AVE","address2": "","city": "GLENARDEN","state": "MD","zip": "20706","zip+4": "0000","phone": "3013228082"}
{"name": "BAY HEMATOLOGY AND ONCOLOGY PA","address1": "8221 TEAL DR","address2": "STE 301","city": "EASTON","state": "MD","zip": "21601","zip+4": "0000","phone": "4108205945"}
{"name": "WALGREEN DRUG STORE #7573","address1": "6301 YORK ROAD","address2": "","city": "BALTIMORE","state": "MD","zip": "21212","zip+4": "0000","phone": "4435244532"}
{"name": "COUNTY DRUG #104","address1": "504 E CHARLES ST","address2": "","city": "LA PLATA","state": "MD","zip": "20646","zip+4": "0000","phone": "3019340648"}
{"name": "WEIS PHARMACY #178","address1": "700 CHASE SIX BLVD","address2": "","city": "BOONSBORO","state": "MD","zip": "21713","zip+4": "0000","phone": "3014323953"}
{"name": "SHOPPERS PHARMACY #2379","address1": "13600 BALTIMORE AVE","address2": "SUITE 100","city": "LAUREL","state": "MD","zip": "20707","zip+4": "0000","phone": "3015750270"}
{"name": "NEIGHBORCARE ST AGNES HOSP #47","address1": "900 CATON AVE","address2": "","city": "BALTIMORE","state": "MD","zip": "21229","zip+4": "0000","phone": "4109514050"}
{"name": "HONEYSEAS PROFESSIONAL PHARMAC","address1": "921 N CAROLINE ST","address2": "","city": "BALTIMORE","state": "MD","zip": "21205","zip+4": "0000","phone": "4105340650"}
{"name": "KENSINGTON PHARMACY","address1": "3737 UNIVERSITY BLVD W","address2": "","city": "KENSINGTON","state": "MD","zip": "20895","zip+4": "0000","phone": "3019336165"}
{"name": "DELMARVA PHARMACY","address1": "1324 BELMONT AVE","address2": "STE 101","city": "SALISBURY","state": "MD","zip": "21804","zip+4": "0000","phone": "4106770561"}
{"name": "PIKESVILLE PHARMACY","address1": "4001-A SEVEN MILE LANE","address2": "STE B","city": "PIKESVILLE","state": "MD","zip": "21208","zip+4": "0000","phone": "4106538888"}
{"name": "WALGREEN DRUG STORE #9342","address1": "1930 PULASKI HWY","address2": "","city": "EDGEWOOD","state": "MD","zip": "21040","zip+4": "0000","phone": "4106122190"}
{"name": "APPLE DISCOUNT DRUGS #2","address1": "1500 A PEMBERTON DR","address2": "","city": "SALISBURY","state": "MD","zip": "21801","zip+4": "0000","phone": "4105438101"}
{"name": "HOME CARE PHARMACY N #7","address1": "13424 PENNSYLVANIA AVE","address2": "SUITE 102","city": "HAGERSTOWN","state": "MD","zip": "21742","zip+4": "0000","phone": "2403133110"}
{"name": "RITE AID PHARMACY #07773","address1": "55 DRURY DRIVE","address2": "","city": "LA PLATA","state": "MD","zip": "20646","zip+4": "5203","phone": "3019348082"}
{"name": "KNOWLES APOTHECARY","address1": "10400 CONNECTICUT AVE","address2": "STE 100","city": "KENSINGTON","state": "MD","zip": "20895","zip+4": "0000","phone": "3019427979"}
{"name": "GWYNOAK PHARMACY","address1": "1808 WOODLAWN DR","address2": "","city": "BALHMORE","state": "MD","zip": "21207","zip+4": "0000","phone": "4109446911"}
{"name": "CROSSROADS DISCOUNT PHARMACY","address1": "7001 JOHNNYCAKE RD","address2": "STE 100","city": "BALTIMORE","state": "MD","zip": "21228","zip+4": "0000","phone": "4107886355"}
{"name": "WALGREEN DRUG STORE #09490","address1": "3106 SOLOMONS ISLAND RD","address2": "","city": "EDGEWATER","state": "MD","zip": "21037","zip+4": "1701","phone": "4109568319"}
{"name": "HOLLYWOOD PHARMACY","address1": "4936 EDGEWOOD RD","address2": "","city": "COLLEGE PARK","state": "MD","zip": "20740","zip+4": "0000","phone": "3013453400"}
{"name": "PEOPLE CARE PHARMACY","address1": "2405 E MONUMENT ST","address2": "","city": "BALTIMORE","state": "MD","zip": "21205","zip+4": "0000","phone": "4102764092"}
{"name": "KINGS WAY CARE PHARMACY","address1": "4701 RANDOLPH RD","address2": "SUITE G4","city": "ROCKVILLE","state": "MD","zip": "20852","zip+4": "0000","phone": "3017705545"}
{"name": "WELLCARE PHARMACY INC","address1": "9213 LAKESIDE BLVD","address2": "","city": "OWINGSMILLS","state": "MD","zip": "21117","zip+4": "0000","phone": "4106544441"}
{"name": "CHASE BREXTON PHCY RANDALLSTOW","address1": "8507 LIBERTY RD","address2": "","city": "RANDALLSTOWN","state": "MD","zip": "21133","zip+4": "0000","phone": "4104966441"}
{"name": "RITE AID PHARMACY #04915","address1": "1301 EAST STATE STREET","address2": "","city": "DELMAR","state": "MD","zip": "21875","zip+4": "2330","phone": "4108969612"}
{"name": "SHOPPERS PHARMACY #2383","address1": "10501 MARTIN LUTHER KING JR HW","address2": "","city": "BOWIE","state": "MD","zip": "20720","zip+4": "0000","phone": "2405440187"}
{"name": "SERVICE CARE PHARMACY","address1": "1111 SPRING ST","address2": "STE 110","city": "SILVER SPRING","state": "MD","zip": "20910","zip+4": "0000","phone": "3014957775"}
{"name": "NAME NIGHTTIME PEDIATRICS AND","address1": "6334 CEDAR LANE","address2": "","city": "COLUMBIA","state": "MD","zip": "21044","zip+4": "0000","phone": "4107891130"}
{"name": "CHOICE PHARMACY","address1": "9151 REISTERSTOWN RD","address2": "","city": "OWINGS MILLS","state": "MD","zip": "21117","zip+4": "0000","phone": "4103638222"}
{"name": "TARGET PHARMACY #2007","address1": "10401 MARTIN LUTHER KING JR HW","address2": "","city": "BOWIE","state": "MD","zip": "20720","zip+4": "0000","phone": "3019550108"}
{"name": "RITE AID PHARMACY #07766","address1": "12701 LAUREL BOWIE RD","address2": "","city": "LAUREL","state": "MD","zip": "20708","zip+4": "2606","phone": "2404560301"}
{"name": "WALGREEN DRUG STORE #09967","address1": "8174 OCEAN GTWY","address2": "","city": "EASTON","state": "MD","zip": "21601","zip+4": "7144","phone": "4107636907"}
{"name": "BLOOM PHARMACY #2706","address1": "8741 PINEY ORCHARD PKWY","address2": "","city": "ODENTON","state": "MD","zip": "21113","zip+4": "0000","phone": "4106950576"}
{"name": "METROPOLITAN PHYSICIANS PRACTI","address1": "5530 WISCONSIN AVE","address2": "STE 1045","city": "CHEVY CHASE","state": "MD","zip": "20815","zip+4": "0000","phone": "3019864774"}
{"name": "JOHNS HOPKINS OP PHCY MONUMENT","address1": "1810 E MONUMENT ST","address2": "","city": "BALTIMORE","state": "MD","zip": "21205","zip+4": "0000","phone": "4105025837"}
{"name": "GIANT PHARMACY #325","address1": "10790 TOWN CENTER DRIVE","address2": "","city": "DUNKIRK","state": "MD","zip": "20754","zip+4": "0000","phone": "4102862901"}
{"name": "MARTINS PHARMACY #307","address1": "1320 LONDONTOWN BLVD","address2": "","city": "ELDERSBURG","state": "MD","zip": "21784","zip+4": "0000","phone": "4105525749"}
{"name": "GIANT PHARMACY #312","address1": "5463 WISCONSIN AVENUE","address2": "","city": "CHEVY CHASE","state": "MD","zip": "20815","zip+4": "0000","phone": "2404976101"}
{"name": "CVS PHARMACY #01177","address1": "11190 VIERS MILL RD","address2": "","city": "WHEATON","state": "MD","zip": "20902","zip+4": "0000","phone": "3019421791"}
{"name": "CVS PHARMACY #05875","address1": "6001 HIGHBRIDGE RD","address2": "","city": "BOWIE","state": "MD","zip": "20720","zip+4": "0000","phone": "3012624956"}
{"name": "SINU RX PHARMACY","address1": "306 REISTEERSTOWN RD","address2": "","city": "BALTIMORE","state": "MD","zip": "21208","zip+4": "0000","phone": "4104867458"}
{"name": "BIOSCRIP PHARMACY #4053","address1": "6 NORTH HOWARD STREET","address2": "","city": "BALTIMORE","state": "MD","zip": "21201","zip+4": "0000","phone": "4109515940"}
{"name": "WEIS PHARMACY #179","address1": "2 THURMONT BLVD","address2": "","city": "THURMONT","state": "MD","zip": "21788","zip+4": "0000","phone": "3012712548"}
{"name": "WALGREEN DRUG STORE #09926","address1": "2016 ROCK SPRING RD","address2": "","city": "FOREST HILL","state": "MD","zip": "21050","zip+4": "2607","phone": "4106382404"}
{"name": "HARRIS TEETER PHARMACY #325","address1": "14101 DARNESTOWN RD","address2": "","city": "GERMANTOWN","state": "MD","zip": "20874","zip+4": "0000","phone": "2406319629"}
{"name": "TLC PHARMACY","address1": "12145 ELM ST","address2": "","city": "PRINCESS ANNE","state": "MD","zip": "21853","zip+4": "0000","phone": "4106515555"}
{"name": "CVS PHARMACY #01735","address1": "7400 RITCHIE HIGHWAY","address2": "","city": "GLEN BURNIE","state": "MD","zip": "21061","zip+4": "0000","phone": "4107602112"}
{"name": "CVS PHARMACY #00244","address1": "115 S PINEY RD","address2": "","city": "CHESTER","state": "MD","zip": "21619","zip+4": "0000","phone": "4106433007"}
{"name": "PHARMACARE DISCOUNT PHARMACY","address1": "2227 OLD EMMORTON RD","address2": "STE 122","city": "BELAIR","state": "MD","zip": "21015","zip+4": "0000","phone": "4436166500"}
{"name": "WELLCARE PHARMRX","address1": "5530 WISCONSIN AVE","address2": "STE 100","city": "CHEVY CHASE","state": "MD","zip": "20815","zip+4": "0000","phone": "3016573388"}
{"name": "SAFEWAY #2713","address1": "12410 FAIRWOOD PKWY","address2": "","city": "BOWIE","state": "MD","zip": "20720","zip+4": "0000","phone": "3018670345"}
{"name": "CHEVY CHASE CARE PHARMACY","address1": "8531 CONNECTICUT AVE","address2": "","city": "CHEVY CHASE","state": "MD","zip": "20815","zip+4": "0000","phone": "3019865354"}
{"name": "KAREN KINGRY MD","address1": "12220 ROCKVILLE PIKE","address2": "","city": "ROCKVILLE","state": "MD","zip": "20852","zip+4": "0000","phone": "4433324380"}
{"name": "WALGREEN DRUG STORE #02446","address1": "6 S MARILYN AVE","address2": "","city": "ESSEX","state": "MD","zip": "21221","zip+4": "5021","phone": "4109180790"}
{"name": "MILLENNIUM PHARMACY SYSTEMS IN","address1": "202 PERRY PARKWAY","address2": "SUITE 8","city": "GAITHERSBURG","state": "MD","zip": "20877","zip+4": "0000","phone": "3019474951"}
{"name": "POTOMAC PHARMATECH","address1": "16107 A ELLIOTT PARKWAY","address2": "","city": "WILLIAMSPORT","state": "MD","zip": "21795","zip+4": "0000","phone": "3012236616"}
{"name": "CENTER FOR PAIN MANAGEMENT LLC","address1": "11921 ROCKVILLE PIKE","address2": "SUITE 505","city": "ROCKVILLE","state": "MD","zip": "20852","zip+4": "0000","phone": "3018817246"}
{"name": "GIANT PHARMACY #349","address1": "3530 SUGAR LOAF PARKWAY","address2": "","city": "FREDRICK","state": "MD","zip": "21704","zip+4": "0000","phone": "3018741202"}
{"name": "WAL-MART PHARMACY #105129","address1": "6210 ANNAPOLIS ROAD","address2": "","city": "LANDOVER HILLS","state": "MD","zip": "20784","zip+4": "0000","phone": "3017737596"}
{"name": "PRIORITY CARE PHARMACY","address1": "804 WASHINGTON BLVD","address2": "","city": "BALTIMORE","state": "MD","zip": "21230","zip+4": "0000","phone": "4102341919"}
{"name": "ALFA SPECIALTY PHARMACY","address1": "10301 GEORGIA AVE","address2": "STE 104","city": "SILVER SPRING","state": "MD","zip": "20902","zip+4": "0000","phone": "3017542532"}
{"name": "NEIGHBORCARE GBMC NORTH","address1": "6535 NORTH CHARLES ST","address2": "STE 135","city": "BALTIMORE","state": "MD","zip": "21204","zip+4": "0000","phone": "4108230263"}
{"name": "PARADISE PROFESSIONAL PHARMACY","address1": "6350 FREDERICK RD","address2": "","city": "BALTIMORE","state": "MD","zip": "21228","zip+4": "0000","phone": "4107445959"}
{"name": "HARVARD DISCOUNT PHARMACY","address1": "1813 A YORK RD","address2": "","city": "LUTHERVILLE","state": "MD","zip": "21093","zip+4": "0000","phone": "4105606906"}
{"name": "BELVEDERE PHARMACY LLC","address1": "3716 AND ONE HALF W BELVEREDE","address2": "UNIT C","city": "BALTIMORE","state": "MD","zip": "21215","zip+4": "0000","phone": "4103675628"}
{"name": "WALGREENS DRUG STORE #09927","address1": "735 S SALIBURY BLVD","address2": "","city": "SALISBURY","state": "MD","zip": "21801","zip+4": "0000","phone": "4102195261"}
{"name": "WALGREENS DRUG STORE #11594","address1": "110 HOSPITAL ROAD","address2": "SUITE 100","city": "PRINCE FREDERICK","state": "MD","zip": "20678","zip+4": "0000","phone": "4105353838"}
{"name": "REDNERS PHARMACY #27","address1": "1002 JOPPA FARM RD","address2": "","city": "JOPPTOWNE","state": "MD","zip": "21085","zip+4": "0000","phone": "4106793804"}
{"name": "TARGET PHARMACY #2133","address1": "60 SHINING WILLOW WAY","address2": "","city": "LAPLATA","state": "MD","zip": "20646","zip+4": "0000","phone": "3019345910"}
{"name": "PEMBERTON PHCY AND GIFT","address1": "1147 PEMBERTON DR","address2": "","city": "SALISBURY","state": "MD","zip": "21801","zip+4": "0000","phone": "4106770707"}
{"name": "CVS PHARMACY #00352","address1": "1519 ROCK SPRING RD","address2": "","city": "FOREST HILL","state": "MD","zip": "21050","zip+4": "0000","phone": "4106388757"}
{"name": "WAL-MART PHARMACY #105345","address1": "10600 TOWNE CENTER BLVD","address2": "","city": "DUNKIRK","state": "MD","zip": "20754","zip+4": "0000","phone": "4102572913"}
{"name": "COASTAL DRUG INSTITUTIONAL","address1": "10231 OLD OCEAN CITY BLVD","address2": "STE 103","city": "BERLIN","state": "MD","zip": "21811","zip+4": "0000","phone": "4103523664"}
{"name": "WALGREENS DRUG STORE #09632","address1": "2970 SHASHO PLACE","address2": "","city": "WALDORF","state": "MD","zip": "20603","zip+4": "0000","phone": "3016453095"}
{"name": "WALGREENS DRUG STORE #10076","address1": "2560 QUARRY LAKE DR","address2": "","city": "BALTIMORE","state": "MD","zip": "21209","zip+4": "0000","phone": "4104864966"}
{"name": "ADVANCED PHARMACY","address1": "8910 ROUTE 108","address2": "SUITE C","city": "COLUMBIA","state": "MD","zip": "21045","zip+4": "0000","phone": "4109109260"}
{"name": "MEDICINE SHOPPE PHARMACY #1902","address1": "5507 RITCHIE HWY STE A","address2": "","city": "BROOKLYN PARK","state": "MD","zip": "21225","zip+4": "0000","phone": "4107898722"}
{"name": "COSTCO PHARMACY #1000","address1": "6675 MARIE CURIE DRIVE","address2": "","city": "ELKRIDGE","state": "MD","zip": "21075","zip+4": "0000","phone": "4104234059"}
{"name": "FAMILY CARE PHARMACY III INC","address1": "6196 OXON HILL RD","address2": "STE 130","city": "OXON HILL","state": "MD","zip": "20745","zip+4": "0000","phone": "3014830795"}
{"name": "GIANT PHARMACY #301","address1": "13781 CONNECTICUT AVE","address2": "","city": "SILVER SPRINGS","state": "MD","zip": "20906","zip+4": "0000","phone": "6016037501"}
{"name": "CVS PHARMACY #00169","address1": "799 ROCKVILLE PIKE","address2": "","city": "ROCKVILLE","state": "MD","zip": "20852","zip+4": "0000","phone": "3013402683"}
{"name": "WAL-MART PHARMACY #103720","address1": "3601 WASHINGTON BLVD","address2": "","city": "ARBUTUS","state": "MD","zip": "21227","zip+4": "0000","phone": "4107377712"}
{"name": "UPSCALE CARE PHARMACY AND CONV","address1": "821 WAYNE AVE","address2": "","city": "SILVER SPRINGS","state": "MD","zip": "20910","zip+4": "0000","phone": "3015858005"}
{"name": "WYE OAK PHARMACY","address1": "1935 LANSDOWNE RD","address2": "","city": "BALTIMORE","state": "MD","zip": "21227","zip+4": "0000","phone": "4105360555"}
{"name": "WALGREEN DRUG STORE #07678","address1": "1260 LIBERTY RD","address2": "","city": "ELDERSBURG","state": "MD","zip": "21784","zip+4": "7928","phone": "4107952968"}
{"name": "SHOPPERS PHARMACY #2299","address1": "2000 GWYNNS FALLS PKWY","address2": "","city": "BALTIMORE","state": "MD","zip": "21216","zip+4": "0000","phone": "4436272292"}
{"name": "WALGREEN DRUG STORE #10402","address1": "11745 ROUSBY HALL RD","address2": "","city": "LUSBY","state": "MD","zip": "20657","zip+4": "0000","phone": "4103942730"}
{"name": "WALGREEN DRUG STORE #11123","address1": "10101 RIVER RD","address2": "","city": "POTOMAC","state": "MD","zip": "20854","zip+4": "4904","phone": "3019834890"}
{"name": "CVS PHARMACY #07911","address1": "6700 WISCONSIN AVE","address2": "","city": "BETHESDA","state": "MD","zip": "20815","zip+4": "0000","phone": "3016561358"}
{"name": "GERMANTOWN PHARMACY","address1": "19735 GERMANTOWN RD","address2": "175","city": "GERMANTOWN","state": "MD","zip": "20876","zip+4": "0000","phone": "3015159222"}
{"name": "WALTHER PHARMACY AND SURGICAL","address1": "8621 WALTHER BLVD","address2": "","city": "NOTTINGHAM","state": "MD","zip": "21236","zip+4": "0000","phone": "4103447808"}
{"name": "FRIENDLY PHARMACY LLC","address1": "226 TOWN CENTER DR","address2": "","city": "LUSBY","state": "MD","zip": "20657","zip+4": "0000","phone": "4103262260"}
{"name": "CARROLL DRUGS","address1": "15 S CRANBERRY RD","address2": "","city": "WESTMINSTER","state": "MD","zip": "21157","zip+4": "0000","phone": "4108574500"}
{"name": "HOPE FOR ALL PHARMACY","address1": "4588 BEECH RD","address2": "","city": "TEMPLE HILLS","state": "MD","zip": "20748","zip+4": "0000","phone": "3018993990"}
{"name": "SENIORMED #12546","address1": "7165 COLUMBIA GATEWAY DR","address2": "STE G","city": "COLUMBIA","state": "MD","zip": "21046","zip+4": "2539","phone": "4102901054"}
{"name": "GIANT PHARMACY #343","address1": "11740 ROUSBY HALL RD","address2": "","city": "LUSBY","state": "MD","zip": "20657","zip+4": "0000","phone": "4103942171"}
{"name": "WALGREEN DRUG STORE #10539","address1": "12400 AUTO DRIVE","address2": "","city": "CLARKSVILLE","state": "MD","zip": "21029","zip+4": "0000","phone": "4105316030"}
{"name": "OLD TOWNE PHARMACY","address1": "576 OLD TOWN MALL","address2": "","city": "BALTIMORE","state": "MD","zip": "21202","zip+4": "0000","phone": "4102763383"}
{"name": "TARGET PHARMACY #2310","address1": "28539 MARLBORO AVE","address2": "","city": "EASTON","state": "MD","zip": "21601","zip+4": "0000","phone": "4107706181"}
{"name": "OSLER MEDICAL PHARMACY","address1": "7600 OSLER DR","address2": "STE 110","city": "TOWSON","state": "MD","zip": "21204","zip+4": "0000","phone": "4108230110"}
{"name": "RITE AID PHARMACY #07840","address1": "9810 APOLLO DRIVE","address2": "","city": "LARGO","state": "MD","zip": "20774","zip+4": "4824","phone": "3023229027"}
{"name": "RIVER RX INC","address1": "5257 RIVER RD","address2": "","city": "BETHESDA","state": "MD","zip": "20816","zip+4": "0000","phone": "3016546979"}
{"name": "WISE DISCOUNT PHARMACY","address1": "7836 A WISE AVE","address2": "","city": "DUNDALK","state": "MD","zip": "21222","zip+4": "0000","phone": "4102858500"}
{"name": "POCOMOKE DISCOUNT PHARMACY","address1": "305 TENTH ST","address2": "STE 103","city": "POCOMOKE CITY","state": "MD","zip": "21851","zip+4": "0000","phone": "4109579030"}
{"name": "EAGLE PHARMACY","address1": "2470 LONGSTONE LANE","address2": "UNIT G","city": "MARRIOTTSVILLE","state": "MD","zip": "21104","zip+4": "0000","phone": "4104422050"}
{"name": "WALGREEN DRUG STORE #10063","address1": "6300 CRAIN HWY","address2": "","city": "LA PLATA","state": "MD","zip": "20646","zip+4": "4259","phone": "3013926116"}
{"name": "HARRIS TEETER PHARMACY #322","address1": "8620 GUILFORD RD","address2": "","city": "COLUMBIA","state": "MD","zip": "21046","zip+4": "0000","phone": "4102906751"}
{"name": "WEIS PHARMACY #167","address1": "12817 SHANK FARM WAY","address2": "","city": "HAGERSTOWN","state": "MD","zip": "21742","zip+4": "2781","phone": "3016659568"}
{"name": "CVS PHARMACY #07952","address1": "630 EXETER ST","address2": "","city": "BALTIMORE","state": "MD","zip": "21202","zip+4": "0000","phone": "4109626520"}
{"name": "KAREMORE PHARMACY #002","address1": "817 SNOWHALL RD","address2": "STE 2","city": "SALISBURY","state": "MD","zip": "21804","zip+4": "0000","phone": "4103417474"}
{"name": "SHALOM PHARMACY","address1": "9131 PISCATAWAY ROAD","address2": "STE 260","city": "CLINTON","state": "MD","zip": "20735","zip+4": "0000","phone": "3018565663"}
{"name": "TARGET PHARMACY #2393","address1": "3201 TIOGA PKWY","address2": "","city": "BALTIMORE","state": "MD","zip": "21215","zip+4": "7987","phone": "4103691008"}
{"name": "REDNERS PHARMACY #35","address1": "2126 N FOUNTAIN GREEN ROAD","address2": "","city": "BEL AIR","state": "MD","zip": "21015","zip+4": "0000","phone": "4108387694"}
{"name": "WALGREEN DRUG STORE #10976","address1": "9001 WOODY TERRACE","address2": "","city": "CLINTON","state": "MD","zip": "20735","zip+4": "0000","phone": "3018566501"}
{"name": "ORCHARD PHARMACY","address1": "3350 WILKENS AVENUE","address2": "STE 200","city": "BALTIMORE","state": "MD","zip": "21229","zip+4": "0000","phone": "4106460547"}
{"name": "IMMEDIATE CARE MEDICAL CENTER","address1": "11722 REISTERSTOWN RD","address2": "","city": "REISTERSTOWN","state": "MD","zip": "21136","zip+4": "0000","phone": "4108335000"}
{"name": "IMMEDIATE CARE MEDICAL CENTER","address1": "7010 RITCHIE HIGHWAY","address2": "","city": "GLEN BURNIE","state": "MD","zip": "21061","zip+4": "0000","phone": "4107604500"}
{"name": "RITE AID PHARMACY #07932","address1": "403 GEORGE CLAUSE BOULEVARD","address2": "","city": "SEVERN","state": "MD","zip": "21144","zip+4": "0000","phone": "4104244501"}
{"name": "WALGREENS #10905","address1": "640 SUNBURST HIGHWAY","address2": "","city": "CAMBRIDGE","state": "MD","zip": "21613","zip+4": "0000","phone": "4109016290"}
{"name": "APEX PHARMACY INC","address1": "73473 HANOVER PARKWAY SUITE B","address2": "","city": "GREENBELT","state": "MD","zip": "20770","zip+4": "0000","phone": "3014741150"}
{"name": "TARGET PHARMACY #2271","address1": "1911 TOWNE CENTRE BLVD","address2": "","city": "ANNAPOLIS","state": "MD","zip": "21401","zip+4": "3020","phone": "4438373541"}
{"name": "HARRIS TEETER PHARMACY #328","address1": "11845 OLD GEORGETOWN RD","address2": "","city": "BETHESDA","state": "MD","zip": "20852","zip+4": "0000","phone": "3014683238"}
{"name": "TARGET PHARMACY #2394","address1": "15922 CRAIN HIGHWAY SE","address2": "","city": "BRANDYWINE","state": "MD","zip": "20613","zip+4": "8000","phone": "3017209001"}
{"name": "WALGREENS #11169","address1": "950 BEARDS HILL RD","address2": "","city": "ABERDEEN","state": "MD","zip": "21001","zip+4": "0000","phone": "4102721021"}
{"name": "COSTCO PHARMACY # #1039","address1": "16006 CRAIN HIGHWAY SE","address2": "","city": "BRANDYWINE","state": "MD","zip": "20613","zip+4": "0000","phone": "3013723209"}
{"name": "SHARPSBURG PHARMACY","address1": "17316 SHEPHERDSTOWN PIKE","address2": "","city": "SHARPSBURG","state": "MD","zip": "21782","zip+4": "0000","phone": "3014327223"}
{"name": "RITE AID PHARMACY #04005","address1": "12524 OCEAN GATEWAY","address2": "","city": "OCEAN CITY","state": "MD","zip": "21842","zip+4": "9690","phone": "4102130159"}
{"name": "SHOPPERS PHARMACY #2338","address1": "2371 SOLOMONS ISLAND RD","address2": "","city": "ANNAPOLIS","state": "MD","zip": "21401","zip+4": "0000","phone": "4102243794"}
{"name": "VITA PHARMACY LLC","address1": "5617 BELAIR RD","address2": "","city": "BALTIMORE","state": "MD","zip": "21206","zip+4": "0000","phone": "4103251641"}
{"name": "EAST PINES PHARMACY AND MED EQ","address1": "6003 66TH AVENUE","address2": "","city": "RIVERDALE","state": "MD","zip": "20737","zip+4": "0000","phone": "3014596211"}
{"name": "MT HERMON DISCOUNT PHARMACY #1","address1": "337 CIVIC AVE SUITE 20","address2": "","city": "SALISBURY","state": "MD","zip": "21804","zip+4": "0000","phone": "4107495900"}
{"name": "MED PEDS LLC","address1": "7350 VAN DUSEN RD","address2": "STE 130","city": "LAUREL","state": "MD","zip": "20707","zip+4": "0000","phone": "3014988880"}
{"name": "SAUBELS PHARMACY WHITEFORD","address1": "2902 WHITEFORD ROAD","address2": "","city": "WHITEFORD","state": "MD","zip": "21160","zip+4": "0000","phone": "4104520339"}
{"name": "WALGREENS #06007","address1": "5740 RITCHIE HWY","address2": "","city": "BROOKLYN","state": "MD","zip": "21225","zip+4": "3641","phone": "4107892127"}
{"name": "MENLO PHARMACY LLC","address1": "5900 E REISTERSTOWN RD","address2": "","city": "BALTIMORE","state": "MD","zip": "21215","zip+4": "0000","phone": "4107641112"}
{"name": "MILFORD PHARMACY LLC","address1": "8035 A LIBERTY RD","address2": "","city": "BALTIMORE","state": "MD","zip": "21244","zip+4": "0000","phone": "4109229466"}
{"name": "SAFEWAY PHARMACY #2853","address1": "15916 CRAIN HWY SE","address2": "","city": "BRANDYWINE","state": "MD","zip": "20613","zip+4": "0000","phone": "6238693524"}
{"name": "DAOROO PHARMACY","address1": "8401 CONNECTICUT AVE","address2": "STE 110","city": "CHEVY CHASE","state": "MD","zip": "20815","zip+4": "0000","phone": "3016567080"}
{"name": "NEUROCARE ASSOCIATES","address1": "2101 MEDICAL PARK DRIVE","address2": "STE 305","city": "SILVER SPRING","state": "MD","zip": "20902","zip+4": "0000","phone": "3017540833"}
{"name": "WALGREENS #12433","address1": "585 MARKETPLACE DR","address2": "","city": "BEL AIR","state": "MD","zip": "21014","zip+4": "4312","phone": "4108387146"}
{"name": "BALTIMORE MEDICAL SYSTEM INC P","address1": "3120 ERDMAN AVE","address2": "","city": "BALTIMORE","state": "MD","zip": "21213","zip+4": "0000","phone": "4437033683"}
{"name": "BALTIMORE MEDICAL SYSTEM INC P","address1": "2323 ORLEANS ST","address2": "","city": "BALTIMORE","state": "MD","zip": "21224","zip+4": "0000","phone": "4437033687"}
{"name": "BALTIMORE MEDICAL SYSTEM INC P","address1": "3505 EASTERN AVE","address2": "","city": "BALTIMORE","state": "MD","zip": "21224","zip+4": "0000","phone": "4437033680"}
{"name": "THE ORTHOPAEDIC CENTER PA","address1": "9711 MEDICAL CENTER DRIVE","address2": "STE 201","city": "ROCKVILLE","state": "MD","zip": "20850","zip+4": "0000","phone": "3012511433"}
{"name": "SHAYONA PHARMACY #1","address1": "910 WEST RD","address2": "","city": "SALISBURY","state": "MD","zip": "21801","zip+4": "0000","phone": "4437364662"}
{"name": "BALA FAMILY PRACTICES","address1": "2227 OLD EMMORTON RD","address2": "STE 120","city": "BEL AIR","state": "MD","zip": "21015","zip+4": "0000","phone": "4105691001"}
{"name": "CONVENIENT CARE LLC","address1": "6785 BUSINESS PKWY","address2": "","city": "ELKRIDGE","state": "MD","zip": "21075","zip+4": "0000","phone": "4107824300"}
{"name": "EXPRESS CARE AT THE FESTIVAL","address1": "5 BEL AIR SOUTH PKWY","address2": "STE 1535","city": "BEL AIR","state": "MD","zip": "21015","zip+4": "0000","phone": "4105690044"}
{"name": "BALTIMORE HIGHLANDS PHARMACY","address1": "4109 ANNAPOLIS ROAD","address2": "","city": "BALTIMORE","state": "MD","zip": "21227","zip+4": "0000","phone": "4106365181"}
{"name": "CVS PHARMACY # #06858","address1": "9820 BELAIR ROAD","address2": "","city": "PERRY HALL","state": "MD","zip": "21128","zip+4": "0000","phone": "4017651500"}
{"name": "JOHNS HOPKINS OUTPATIENT PHARM","address1": "10710 CHARTER DRIVE","address2": "STE 150","city": "COLUMBIA","state": "MD","zip": "21044","zip+4": "0000","phone": "4435461000"}
{"name": "MARYLAND FOOT AND ANKLE AS","address1": "10901 CONNECTICUT AVE","address2": "STE 200","city": "KENSINGTON","state": "MD","zip": "20895","zip+4": "0000","phone": "3019492000"}
{"name": "RAKESH K MATHUR MD LLC","address1": "2112 BELAIR RD","address2": "STE 1","city": "FALLSTON","state": "MD","zip": "21047","zip+4": "0000","phone": "4108778550"}
{"name": "WALGREENS #11501","address1": "496 RITCHIE HWY","address2": "","city": "SEVERNA PARK","state": "MD","zip": "21146","zip+4": "2911","phone": "4105441291"}
{"name": "NORTHSIDE PHARMACY INC","address1": "707 BRIDGE STREET","address2": "","city": "ELKTON","state": "MD","zip": "21921","zip+4": "0000","phone": "4103983784"}
{"name": "B & A PHARMACY","address1": "606 HAMMONDS LANE","address2": "STE L-6","city": "BALTIMORE","state": "MD","zip": "21225","zip+4": "0000","phone": "4107898454"}
{"name": "TOTAL HEALTH CARE PHARMACY #2","address1": "2401 LIBERTY HEIGHTS AVE","address2": "111-113","city": "BALTIMORE","state": "MD","zip": "21215","zip+4": "0000","phone": "4107355382"}
{"name": "TOTAL HEALTH CARE PHARMACY #5","address1": "1515 W NORTH AVE","address2": "","city": "BALTIMORE","state": "MD","zip": "21217","zip+4": "0000","phone": "4107355378"}
{"name": "RAJKUMAR G BHOJRAJ","address1": "704 GORMAN AVENUE","address2": "STE T 1","city": "LAUREL","state": "MD","zip": "20707","zip+4": "0000","phone": "3014989300"}
{"name": "TOTAL HEALTH CARE PHARMACY #1","address1": "1501 DIVISION STREET","address2": "","city": "BALTIMORE","state": "MD","zip": "21217","zip+4": "0000","phone": "4107355390"}
{"name": "TOTAL HEALTH CARE PHARMACY #4","address1": "2400 KIRK AVENUE","address2": "","city": "BALTIMORE","state": "MD","zip": "21218","zip+4": "0000","phone": "4107355397"}
{"name": "ENGLERT DERMATOLOGY LLC","address1": "10 FILA WAY","address2": "STE 205","city": "SPARKS","state": "MD","zip": "21152","zip+4": "0000","phone": "4105695151"}
{"name": "COMPREHENSIVE PRIMARY CARE","address1": "15825 SHADY GROVE RD","address2": "STE 140","city": "ROCKVILLE","state": "MD","zip": "20850","zip+4": "0000","phone": "3018699776"}
{"name": "GLOBAL HEALTH PHARMACY","address1": "7500 MONTPELIER ROAD","address2": "SUITE 106","city": "LAUREL","state": "MD","zip": "20723","zip+4": "0000","phone": "4104892631"}
{"name": "WALGREENS # #13149","address1": "1075 SEVEN LOCKS RD","address2": "","city": "ROCKVILLE","state": "MD","zip": "20854","zip+4": "2903","phone": "3018382790"}
{"name": "PEOPLES' CARE PHARMACY","address1": "401 E PATAPSCO AVE","address2": "","city": "BROOKLYN","state": "MD","zip": "21225","zip+4": "1829","phone": "4103551934"}
{"name": "ROCKVILLE PHARMACY","address1": "50 W EDMONSTON DR STE 104","address2": "","city": "ROCKVILLE","state": "MD","zip": "20852","zip+4": "1260","phone": "2404031027"}
{"name": "REHYA PHARMACY","address1": "4 WEST ROLLING CROSSROADS","address2": "","city": "CANTOSVILLE","state": "MD","zip": "21228","zip+4": "0000","phone": "4108690099"}
{"name": "WALGREENS #12748","address1": "1201 E CHURCHVILLE RD","address2": "","city": "BEL AIR","state": "MD","zip": "21014","zip+4": "3802","phone": "4103394234"}
{"name": "CARE ONE PHARMACY #2","address1": "1835 PENNSYLVANIA AVE","address2": "","city": "BALTIMORE","state": "MD","zip": "21217","zip+4": "0000","phone": "4106693744"}
{"name": "WALGREENS #12266","address1": "209 N 3RD ST","address2": "","city": "OAKLAND","state": "MD","zip": "21550","zip+4": "1325","phone": "3013341597"}
{"name": "MACPHAIL PHARMACY AT UPPER CHE","address1": "510 UPPER CHESAPEAKE DR STE 41","address2": "","city": "BEL AIR","state": "MD","zip": "21014","zip+4": "4328","phone": "4436433190"}
{"name": "SAFEWAY PHARMACY # #2794","address1": "9807 MAIN ST","address2": "","city": "DAMASCUS","state": "MD","zip": "20872","zip+4": "2015","phone": "3013916150"}
{"name": "BROOKVILLE PHARMACY","address1": "5454 WISCONSIN AVE STE 400","address2": "","city": "CHEVY CHASE","state": "MD","zip": "20815","zip+4": "6911","phone": "3017180900"}
{"name": "PHARMACARE OF CUMBERLAND-W","address1": "12502 WILLOWBROOK RD STE 203","address2": "","city": "CUMBERLAND","state": "MD","zip": "21502","zip+4": "6393","phone": "8886322230"}
{"name": "HARRIS TEETER PHARMACY #323","address1": "8184 WESTSIDE DRIVE","address2": "","city": "FULTON","state": "MD","zip": "20759","zip+4": "0000","phone": "3013625761"}
{"name": "MIDDLETOWN PHARMACY","address1": "4317 OLD NATIONAL PIKE","address2": "","city": "MIDDLETOWN","state": "MD","zip": "21769","zip+4": "7700","phone": "3013718145"}
{"name": "MED EXPRESS","address1": "13671 GEORGIA AVE","address2": "","city": "SILVER SPRING","state": "MD","zip": "20906","zip+4": "5214","phone": "9526532568"}
{"name": "GENETIC CONSULTANTS OF MAR","address1": "11125 ROCKVILLE PIKE STE 302","address2": "","city": "ROCKVILLE","state": "MD","zip": "20852","zip+4": "3142","phone": "3017705300"}
{"name": "CVS PHARMACY #06614","address1": "1000 PULASKI HIGHWAY","address2": "","city": "HAVRE DE GRACE","state": "MD","zip": "21078","zip+4": "2604","phone": "4017651500"}
{"name": "PROFESSIONAL PHARMACY SERV","address1": "1800 WASHINGTON BLVD","address2": "SUITE 420","city": "BALTIMORE","state": "MD","zip": "21230","zip+4": "0000","phone": "4103479281"}
{"name": "NEIGHBORCARE-W2205","address1": "601 EAST PRATT ST 3RD FLOOR","address2": "","city": "BALTIMORE","state": "MD","zip": "21202","zip+4": "0000","phone": "4105287481"}
{"name": "PROFESSIONAL PHARMACY SERVICES","address1": "PO BOX 630747","address2": "","city": "BALTIMORE","state": "MD","zip": "21263","zip+4": "0747","phone": "4103854383"}