{"name": "WALGREEN DRUG STORE #2784","address1": "1301 SUPERIOR ST","address2": "","city": "DULUTH","state": "MN","zip": "55805","zip+4": "0000","phone": "2187248551"}
{"name": "WALGREEN DRUG STORE #7290","address1": "1270 E MADISON AVE","address2": "","city": "MANKATO","state": "MN","zip": "56001","zip+4": "0000","phone": "5073889331"}
{"name": "WALGREEN DRUG STORE #1737","address1": "200 W LAKE ST","address2": "","city": "MINNEAPOLIS","state": "MN","zip": "55408","zip+4": "0000","phone": "6128276540"}
{"name": "WALGREEN DRUG STORE #828","address1": "12 W 66TH ST","address2": "","city": "RICHFIELD","state": "MN","zip": "55423","zip+4": "0000","phone": "6128617433"}
{"name": "WALGREEN DRUG STORE #3101","address1": "2505 W DIVISION ST","address2": "","city": "ST CLOUD","state": "MN","zip": "56301","zip+4": "0000","phone": "3202519438"}
{"name": "WALGREEN DRUG STORE #3665","address1": "1401 E MARYLAND AVE","address2": "","city": "ST PAUL","state": "MN","zip": "55106","zip+4": "0000","phone": "6517745981"}
{"name": "WALGREEN DRUG STORE #2355","address1": "1550 UNIVERSITY","address2": "","city": "ST PAUL","state": "MN","zip": "55104","zip+4": "0000","phone": "6516466165"}
{"name": "WALGREEN DRUG STORE #866","address1": "425 WABASHA","address2": "","city": "ST PAUL","state": "MN","zip": "55102","zip+4": "0000","phone": "6512220120"}
{"name": "WALGREEN DRUG STORE #4260","address1": "540 BLAKE RD N","address2": "","city": "HOPKINS","state": "MN","zip": "55343","zip+4": "0000","phone": "9529386368"}
{"name": "SNYDER'S DRUG STORE # #5010","address1": "2083 FORD PWKY","address2": "","city": "ST PAUL","state": "MN","zip": "55116","zip+4": "0000","phone": "6516981883"}
{"name": "SNYDER'S DRUG STORE # #5012","address1": "2705 WINNETKA AVE","address2": "","city": "NEW HOPE","state": "MN","zip": "55427","zip+4": "0000","phone": "7635444944"}
{"name": "SNYDER'S DRUG STORE # #5015","address1": "1121 LARPENTEUR AVE","address2": "","city": "ST PAUL","state": "MN","zip": "55113","zip+4": "0000","phone": "6514885570"}
{"name": "SNYDER DRUG EMPROIUM #5016","address1": "1205 SOUTHVIEW BLVD","address2": "","city": "SO ST PAUL","state": "MN","zip": "55075","zip+4": "0000","phone": "6514516440"}
{"name": "SNYDER DRUG EMPROIUM #5023","address1": "1201 SOUTH BROADWAY","address2": "","city": "ROCHESTER","state": "MN","zip": "55904","zip+4": "0000","phone": "5072881911"}
{"name": "SNYDER DRUG EMPORIUM #5053","address1": "720 N W 4TH STREET","address2": "","city": "FARIBAULT","state": "MN","zip": "55021","zip+4": "0000","phone": "5073343937"}
{"name": "SNYDER DRUG EMPORIUM #5035","address1": "15 9TH AVENUE NORTH","address2": "","city": "HOPKINS","state": "MN","zip": "55343","zip+4": "0000","phone": "9529354425"}
{"name": "HOPKINS CENTER DRUG INC","address1": "913 HOPKINS CTR","address2": "","city": "HOPKINS","state": "MN","zip": "55343","zip+4": "0000","phone": "9529382719"}
{"name": "TARGET PHARMACY #2101","address1": "1515 COUNTY ROAD B W","address2": "","city": "ROSEVILLE","state": "MN","zip": "55113","zip+4": "0000","phone": "6516311450"}
{"name": "TARGET PHARMACY #0003","address1": "5537 W BROADWAY AVE","address2": "","city": "CRYSTAL","state": "MN","zip": "55428","zip+4": "0000","phone": "7635331651"}
{"name": "TARGET PHARMACY #0004","address1": "1902 MILLER TRUNK HWY","address2": "","city": "DULUTH","state": "MN","zip": "55811","zip+4": "0000","phone": "2187278475"}
{"name": "TARGET PHARMACY #0005","address1": "2555 W 79TH ST","address2": "","city": "BLOOMINGTON","state": "MN","zip": "55431","zip+4": "0000","phone": "9528884677"}
{"name": "TARGET PHARMACY #2046","address1": "1750 ROBERT ST S","address2": "","city": "WEST SAINT PAUL","state": "MN","zip": "55118","zip+4": "0000","phone": "6514556626"}
{"name": "GUERTIN PHARMACY","address1": "21 CENTURY AVE S","address2": "","city": "MAPLEWOOD","state": "MN","zip": "55119","zip+4": "5202","phone": "6517358781"}
{"name": "SNYDER DRUG EMPORIUM #5049","address1": "12 FOURTH STREET SE","address2": "","city": "MINNEAPOLIS","state": "MN","zip": "55414","zip+4": "0000","phone": "6123792222"}
{"name": "SETZER PHARMACY","address1": "1685 RICE ST","address2": "","city": "ROSEVILLE","state": "MN","zip": "55113","zip+4": "0000","phone": "6514880251"}
{"name": "WATERTOWN PHARMACY LLC","address1": "204 LEWIS AVE S","address2": "SUITE 101","city": "WATERTOWN","state": "MN","zip": "55388","zip+4": "0000","phone": "9529552153"}
{"name": "SNYDER DRUG EMPORIUM #5041","address1": "6666 CAHILL AVE","address2": "","city": "INVER GROVE HEIGHT","state": "MN","zip": "55076","zip+4": "0000","phone": "6514511512"}
{"name": "SNYDER'S DRUG STORE # #5042","address1": "750 MAIN STREET","address2": "SUITE 103-104","city": "MENDOTA HEIGHTS","state": "MN","zip": "55118","zip+4": "0000","phone": "6514521008"}
{"name": "SNYDER'S DRUG STORE # #5028","address1": "4600 NICOLLET AVE S","address2": "","city": "MINNEAPOLIS","state": "MN","zip": "55409","zip+4": "0000","phone": "6128232000"}
{"name": "THRIFTY WHITE DRUG #704","address1": "2238 COMMERCE BOULEVARD","address2": "","city": "MOUND","state": "MN","zip": "55364","zip+4": "1500","phone": "9524722929"}
{"name": "KEMPER DRUG","address1": "323 JACKSON AVE NW","address2": "","city": "ELK RIVER","state": "MN","zip": "55330","zip+4": "0000","phone": "7634411353"}
{"name": "WALGREEN DRUG STORE #3832","address1": "7700 BROOKLYN BLVD","address2": "","city": "BROOKLYN PARK","state": "MN","zip": "55443","zip+4": "0000","phone": "7635667130"}
{"name": "WALGREEN DRUG STORE #430","address1": "5695 DULUTH ST","address2": "","city": "GOLDEN VALLEY","state": "MN","zip": "55422","zip+4": "0000","phone": "7635465371"}
{"name": "GOODRICH DRUG CO INC","address1": "100 MONROE ST","address2": "","city": "ANOKA","state": "MN","zip": "55303","zip+4": "2488","phone": "7634215540"}
{"name": "WALGREEN DRUG STORE #10500","address1": "1201 MILLER TRUNK HWY","address2": "","city": "DULUTH","state": "MN","zip": "55811","zip+4": "0000","phone": "2187278157"}
{"name": "TARGET PHARMACY #2313","address1": "7000 YORK AVE S","address2": "","city": "MINNEAPOLIS","state": "MN","zip": "55435","zip+4": "0000","phone": "9529254250"}
{"name": "SCHNEIDER DRUG","address1": "3400 UNIVERSITY AVE","address2": "","city": "MINNEAPOLIS","state": "MN","zip": "55414","zip+4": "0000","phone": "6123797232"}
{"name": "THRIFTY WHITE DRUG #734","address1": "107 EAST LINCOLN AVENUE","address2": "","city": "FERGUS FALLS","state": "MN","zip": "56537","zip+4": "2133","phone": "2187365565"}
{"name": "NEWPORT DRUG","address1": "1644 HASTINGS AVE","address2": "","city": "NEWPORT","state": "MN","zip": "55055","zip+4": "9593","phone": "6514599553"}
{"name": "PRO PHARMACY II INC","address1": "102 5TH AVE S","address2": "","city": "SOUTH ST PAUL","state": "MN","zip": "55075","zip+4": "2332","phone": "6514554140"}
{"name": "TARGET PHARMACY #1185","address1": "2199 EAST HIGHWAY 36","address2": "","city": "NORTH ST PAUL","state": "MN","zip": "55109","zip+4": "0000","phone": "6517796341"}
{"name": "THRIFTY WHITE DRUG #710","address1": "1102 VERMILLION STREET","address2": "","city": "HASTINGS","state": "MN","zip": "55033","zip+4": "0000","phone": "6514373186"}
{"name": "MEDICINE CHEST PHCY AND CAMERA","address1": "2187 4TH ST","address2": "","city": "WHITE BEAR LAKE","state": "MN","zip": "55110","zip+4": "3094","phone": "6514295356"}
{"name": "STERLING DRUG #3","address1": "148 S BROADWAY","address2": "","city": "ALBERT LEA","state": "MN","zip": "55912","zip+4": "0000","phone": "5073731486"}
{"name": "STERLING DRUG #10","address1": "501 1ST ST NW","address2": "","city": "AUSTIN","state": "MN","zip": "55912","zip+4": "0000","phone": "5074344543"}
{"name": "STERLING DRUG #1","address1": "1305 1ST AVE SW","address2": "","city": "AUSTIN","state": "MN","zip": "55912","zip+4": "0000","phone": "5074334586"}
{"name": "ECONOFOODS PHARMACY #328","address1": "615 MAIN STREET","address2": "","city": "RED WING","state": "MN","zip": "55066","zip+4": "0000","phone": "6513883589"}
{"name": "GOLTZ PHARMACY","address1": "274 E 3RD ST","address2": "","city": "WINONA","state": "MN","zip": "55987","zip+4": "3794","phone": "5074522547"}
{"name": "MERWIN BROADWAY PHARMACY","address1": "700 W BROADWAY","address2": "","city": "MINNEAPOLIS","state": "MN","zip": "55411","zip+4": "2699","phone": "6125223608"}
{"name": "SNYDER'S DRUG STORE # #5073","address1": "800 WHITE BEAR AVENUE","address2": "","city": "ST PAUL","state": "MN","zip": "55106","zip+4": "0000","phone": "6517718803"}
{"name": "J AND R REXALL DRUG","address1": "107 DOWNTOWN PLZ","address2": "","city": "FAIRMONT","state": "MN","zip": "56031","zip+4": "1763","phone": "5072359719"}
{"name": "STERLING DRUG #4","address1": "322 S STATE ST","address2": "FIVE LAKES CTR","city": "FAIRMONT","state": "MN","zip": "56031","zip+4": "0000","phone": "5072382797"}
{"name": "ROLSETH DRUG CO","address1": "107 LAKE ST N","address2": "","city": "FOREST LAKE","state": "MN","zip": "55025","zip+4": "2594","phone": "6514642114"}
{"name": "CASH WISE PHARMACY #13","address1": "1220 WESTRIDGE RD","address2": "","city": "NEW ULM","state": "MN","zip": "56073","zip+4": "0000","phone": "5073542511"}
{"name": "WALGREEN DRUG STORE #6057","address1": "7135 E POINT DOUGLAS RD S","address2": "","city": "COTTAGE GROVE","state": "MN","zip": "55016","zip+4": "0000","phone": "6514597011"}
{"name": "GUIDEPOINT PHARMACY #103","address1": "216 S WASHINGTON ST","address2": "","city": "REDWOOD FALLS","state": "MN","zip": "56283","zip+4": "0000","phone": "5076373549"}
{"name": "SNYDER'S DRUG STORE # #5032","address1": "120 WEST 3RD STREET","address2": "","city": "MONTICELLO","state": "MN","zip": "55362","zip+4": "0000","phone": "7632955890"}
{"name": "WELLS DRUG","address1": "36 S BROADWAY","address2": "","city": "WELLS","state": "MN","zip": "56097","zip+4": "0000","phone": "5075533161"}
{"name": "BURCH PHARMACY","address1": "1942 HENNEPIN AVE S","address2": "","city": "MINNEAPOLIS","state": "MN","zip": "55403","zip+4": "3194","phone": "6128711895"}
{"name": "ROSS WESTBANK PHARMACY","address1": "327 CEDAR AVE S","address2": "","city": "MINNEAPOLIS","state": "MN","zip": "55454","zip+4": "1030","phone": "6123336328"}
{"name": "TRUMM DRUG DOWNTOWN","address1": "600 FILLMORE ST","address2": "","city": "ALEXANDRIA","state": "MN","zip": "56308","zip+4": "0000","phone": "3207633111"}
{"name": "WHITE DRUG #103","address1": "3015 HIGHWAY 29 SUITE 4040","address2": "","city": "ALEXANDRIA","state": "MN","zip": "56308","zip+4": "4040","phone": "3207621531"}
{"name": "ARENSON HEALTH MART PHARMACY #","address1": "43 OAK AVE N","address2": "","city": "ANNANDALE","state": "MN","zip": "55302","zip+4": "0000","phone": "3202745415"}
{"name": "BREENS SNYDER DRUG","address1": "1207 PACIFIC AVE","address2": "","city": "BENSON","state": "MN","zip": "56215","zip+4": "1897","phone": "3208424221"}
{"name": "CLARKS REXALL DRUG INC #9968","address1": "1214 ATLANTIC AVE","address2": "","city": "BENSON","state": "MN","zip": "56215","zip+4": "1299","phone": "3208423221"}
{"name": "BRECKENRIDGE DRUG","address1": "116 N 5TH ST","address2": "","city": "BRECKENRIDGE","state": "MN","zip": "56520","zip+4": "1421","phone": "2186435411"}
{"name": "SCOFIELD DRUG AND GIFT","address1": "108 4TH ST N","address2": "","city": "CANNON FALLS","state": "MN","zip": "55009","zip+4": "2095","phone": "5072632881"}
{"name": "CASEY DRUG","address1": "111 W LAKE ST","address2": "","city": "CHISHOLM","state": "MN","zip": "55719","zip+4": "1818","phone": "2182543318"}
{"name": "MEDICINE SHOPPE #1554","address1": "419 SKYLINE BLVD","address2": "","city": "CLOQUET","state": "MN","zip": "55720","zip+4": "1164","phone": "2188791501"}
{"name": "SCHNEIDER DRUG","address1": "113 E BROWN ST","address2": "","city": "COMFREY","state": "MN","zip": "56019","zip+4": "1147","phone": "5078774791"}
{"name": "FRANKS PHARMACY INC","address1": "1 VERMILION DR","address2": "","city": "COOK","state": "MN","zip": "55723","zip+4": "0000","phone": "2186665325"}
{"name": "TARGET PHARMACY #1144","address1": "3300124TH AVE NW","address2": "","city": "COON RAPIDS","state": "MN","zip": "55433","zip+4": "0000","phone": "7633238402"}
{"name": "PETERSON PHARMACY","address1": "440 N 4TH ST","address2": "","city": "DASSEL","state": "MN","zip": "55325","zip+4": "0000","phone": "3202753052"}
{"name": "OTT DRUG STORE INC","address1": "117 MAIN AVE E","address2": "","city": "DEER RIVER","state": "MN","zip": "56636","zip+4": "0577","phone": "2182468642"}
{"name": "WHITE DRUG #23","address1": "808 WASHINGTON AVENUE","address2": "SUITE 29","city": "DETROIT LAKES","state": "MN","zip": "56501","zip+4": "3013","phone": "2188479248"}
{"name": "FALKS KENWOOD PHARMACY","address1": "1352 ARROWHEAD RD","address2": "","city": "DULUTH","state": "MN","zip": "55811","zip+4": "0000","phone": "2187248825"}
{"name": "FALKS WOODLAND PHARMACY","address1": "1 EAST CALVARY RD","address2": "","city": "DULUTH","state": "MN","zip": "55803","zip+4": "0000","phone": "2187284242"}
{"name": "DULUTH CLINIC-LAKESIDE PHARMAC","address1": "4621 E SUPERIOR ST","address2": "","city": "DULUTH","state": "MN","zip": "55804","zip+4": "2338","phone": "2187863784"}
{"name": "HUGOS FAMILY PHARMACY #5","address1": "224 14TH ST NE","address2": "","city": "EAST GRAND FORKS","state": "MN","zip": "56721","zip+4": "0000","phone": "2187730611"}
{"name": "THRIFTY WHITE DRUG #735","address1": "615 SOUTH MILL STREET","address2": "","city": "FERGUS FALLS","state": "MN","zip": "56537","zip+4": "2738","phone": "2187365770"}
{"name": "FOLEY DRUG CO","address1": "351 DEWEY ST","address2": "","city": "FOLEY","state": "MN","zip": "56329","zip+4": "0000","phone": "3209687272"}
{"name": "NORDS PHARMACY AND GIFTS","address1": "115 JOHNSON AVE N","address2": "","city": "FOSSTON","state": "MN","zip": "56542","zip+4": "1328","phone": "2184356646"}
{"name": "ALLINA COMMUNITY PHARMACIES","address1": "550 OSBORNE RD","address2": "","city": "FRIDLEY","state": "MN","zip": "55432","zip+4": "0000","phone": "7632364111"}
{"name": "GLOBE DRUG AND MEDICAL EQUIPME","address1": "304 N POKEGAMA AVE","address2": "","city": "GRAND RAPIDS","state": "MN","zip": "55744","zip+4": "2745","phone": "2183262635"}
{"name": "THRIFTY WHITE DRUG #728","address1": "2026 POKEGAMA AVENUE SOUTH","address2": "","city": "GRAND RAPIDS","state": "MN","zip": "55744","zip+4": "3903","phone": "2183269431"}
{"name": "REED DRUG INC","address1": "417 1ST AVE NW","address2": "","city": "GRAND RAPIDS","state": "MN","zip": "55744","zip+4": "2691","phone": "2183263453"}
{"name": "WAHL DRUG","address1": "1515 HARTFORD STREET","address2": "","city": "HAWLEY","state": "MN","zip": "56549","zip+4": "0000","phone": "2184833324"}
{"name": "FAIRVIEW MESABA PHARMACY","address1": "750 E 34TH ST","address2": "","city": "HIBBING","state": "MN","zip": "55746","zip+4": "0000","phone": "2182634922"}
{"name": "DULUTH CLINIC HIBBING PHARMACY","address1": "730 EAST 34TH STREET","address2": "","city": "HIBBING","state": "MN","zip": "55746","zip+4": "5109","phone": "2182625225"}
{"name": "HOWARD LAKE DRUG #0001","address1": "732 6TH ST","address2": "","city": "HOWARD LAKE","state": "MN","zip": "55349","zip+4": "0220","phone": "3205432141"}
{"name": "MESABA DRUG","address1": "221 KENNEDY MEMORIAL DR","address2": "","city": "HOYT LAKES","state": "MN","zip": "55750","zip+4": "1141","phone": "2182252128"}
{"name": "FAMILY REXALL DRUG","address1": "237 HASSAN ST SE","address2": "","city": "HUTCHINSON","state": "MN","zip": "55350","zip+4": "0000","phone": "3205872509"}
{"name": "CITY DRUG","address1": "314 3RD ST","address2": "","city": "INTERNATL FALLS","state": "MN","zip": "56649","zip+4": "0000","phone": "2182833061"}
{"name": "BERGH PHARMACY","address1": "103 RED WING","address2": "","city": "KENYON","state": "MN","zip": "55946","zip+4": "0000","phone": "5077895202"}
{"name": "KENNEDY SNYDER DRUG #6245","address1": "223 S LAKESHORE DR","address2": "","city": "LAKE CITY","state": "MN","zip": "55041","zip+4": "1698","phone": "6513453411"}
{"name": "THRONDSET PHARMACY","address1": "326 MAIN ST","address2": "","city": "LAKEFIELD","state": "MN","zip": "56150","zip+4": "0000","phone": "5076625908"}
{"name": "ERICKSON DRUG INC","address1": "20751 HOLYOKE AVE W","address2": "","city": "LAKEVILLE","state": "MN","zip": "55044","zip+4": "0808","phone": "9524692964"}
{"name": "CITY DRUG","address1": "210 S MAIN ST","address2": "","city": "LAMBERTON","state": "MN","zip": "56152","zip+4": "1115","phone": "5077527826"}
{"name": "CORNER DRUG HEALTH MART","address1": "204 VALLEYGREEN SQUARE","address2": "","city": "LE SUEUR","state": "MN","zip": "56058","zip+4": "1915","phone": "5076653301"}
{"name": "ECONOFOODS PHARMACY #335","address1": "951 EAST FRONTAGE ROAD","address2": "","city": "LITCHFIELD","state": "MN","zip": "55355","zip+4": "0000","phone": "3206933261"}
{"name": "THE MEDICINE SHOPPE #1069","address1": "244 CENTRAL AVE","address2": "","city": "LONG PRAIRIE","state": "MN","zip": "56347","zip+4": "0000","phone": "3207323228"}
{"name": "MAPLE PLAIN DRUG","address1": "1500 HOWARD AVE","address2": "","city": "MAPLE PLAIN","state": "MN","zip": "55359","zip+4": "0000","phone": "7634791903"}
{"name": "FAIRVIEW NORTHLAND PHARMACY MI","address1": "115 SECOND AVENUE SOUTHWEST","address2": "","city": "MILACA","state": "MN","zip": "56353","zip+4": "0000","phone": "3209833191"}
{"name": "CHILDRENS HOSP AND CLINICS OF","address1": "2525 CHICAGO AVE S","address2": "","city": "MINNEAPOLIS","state": "MN","zip": "55404","zip+4": "4518","phone": "6128136210"}
{"name": "DAHL PHARMACY","address1": "1200 NICOLLET MALL","address2": "","city": "MINNEAPOLIS","state": "MN","zip": "55403","zip+4": "2410","phone": "6123331593"}
{"name": "PARK NICOLLET PHARMACY","address1": "2001 BLAISDELL AVENUE SOUTH","address2": "","city": "MINNEAPOLIS","state": "MN","zip": "55404","zip+4": "0000","phone": "9529938004"}
{"name": "HERRMANN THRIFTY WHITE #523","address1": "120 1ST ST S","address2": "","city": "MONTGOMERY","state": "MN","zip": "56069","zip+4": "1645","phone": "5073647717"}
{"name": "COBORNS PHARMACY #17","address1": "710 FRANKIE LANE","address2": "","city": "MORA","state": "MN","zip": "55051","zip+4": "0000","phone": "3206792363"}
{"name": "ECONOFOODS PHARMACY #330","address1": "603 DIVISION STREET","address2": "","city": "NORTHFIELD","state": "MN","zip": "55057","zip+4": "0000","phone": "5076454489"}
{"name": "NORTHFIELD VILLAGE DRUG","address1": "700 DIVISION ST","address2": "","city": "NORTHFIELD","state": "MN","zip": "55057","zip+4": "2497","phone": "5076454455"}
{"name": "OLIVIA DRUG COMPANY","address1": "102 SOUTH 9TH ST","address2": "","city": "OLIVIA","state": "MN","zip": "56277","zip+4": "1392","phone": "3205231630"}
{"name": "PAGE SNYDER DRUG","address1": "801 E DEPUE AVE","address2": "","city": "OLIVIA","state": "MN","zip": "56277","zip+4": "0000","phone": "3205232110"}
{"name": "CARLSON DRUG","address1": "147 NW 2ND ST","address2": "","city": "ORTONVILLE","state": "MN","zip": "56278","zip+4": "1498","phone": "3208396102"}
{"name": "PHARMACY SHOPPE","address1": "100 E 8TH ST","address2": "","city": "PARK RAPIDS","state": "MN","zip": "56470","zip+4": "0000","phone": "2187323351"}
{"name": "SNYDER'S DRUG STORE # #5008","address1": "101 NORTH MAIN","address2": "","city": "PARK RAPIDS","state": "MN","zip": "56470","zip+4": "0000","phone": "2187323342"}
{"name": "PAYNESVILLE CORNER DRUG #208","address1": "122 WASHBURNE AVE","address2": "","city": "PAYNESVILLE","state": "MN","zip": "56362","zip+4": "0000","phone": "3202433781"}
{"name": "PELICAN DRUG HEALTH MART","address1": "11 N BROADWAY","address2": "","city": "PELICAN RAPIDS","state": "MN","zip": "56572","zip+4": "0621","phone": "2188631441"}
{"name": "PFEIFFER PHARMACY","address1": "30984 GOVERNMENT DR","address2": "","city": "PEQUOT LAKES","state": "MN","zip": "56472","zip+4": "0000","phone": "2185684011"}
{"name": "SWARD KEMP SNYDER DRUG #6269","address1": "207 S WASHINGTON ST","address2": "","city": "REDWOOD FALLS","state": "MN","zip": "56283","zip+4": "0000","phone": "5076372911"}
{"name": "EAGLE DRUG OF ROCHESTER INC","address1": "23 SW 2ND ST","address2": "","city": "ROCHESTER","state": "MN","zip": "55902","zip+4": "0000","phone": "5072893171"}
{"name": "HUNT LTC PHARMACY","address1": "1518 N BROADWAY","address2": "","city": "ROCHESTER","state": "MN","zip": "55906","zip+4": "0000","phone": "5072883831"}
{"name": "HUNT SILVER LAKE DRUG","address1": "1510 N BROADWAY","address2": "","city": "ROCHESTER","state": "MN","zip": "55906","zip+4": "0000","phone": "5072893901"}
{"name": "LONGBELLA DRUG INC","address1": "421 2ND AVE NE","address2": "","city": "STAPLES","state": "MN","zip": "56479","zip+4": "2539","phone": "2188942242"}
{"name": "SAMUELSON DRUG STORE","address1": "118 W 5TH ST","address2": "","city": "STARBUCK","state": "MN","zip": "56381","zip+4": "0000","phone": "3202392246"}
{"name": "SNYDER'S DRUG STORE # #5075","address1": "14617 59TH STREET N","address2": "","city": "STILLWATER","state": "MN","zip": "55082","zip+4": "0000","phone": "6514397692"}
{"name": "HAPETH PRESCRIPTION SHOP SOUTH","address1": "1301 33RD ST S","address2": "","city": "ST CLOUD","state": "MN","zip": "56301","zip+4": "3483","phone": "3202519242"}
{"name": "ST CLOUD STATE UNIV HLTH SERV","address1": "251 6TH STREET SOUTH","address2": "","city": "ST CLOUD","state": "MN","zip": "56301","zip+4": "4498","phone": "3203084852"}
{"name": "PAULS PHARMACY AND GIFTS INC","address1": "418 1ST AVE S","address2": "","city": "ST JAMES","state": "MN","zip": "56081","zip+4": "1726","phone": "5073754511"}
{"name": "CAPITOL PHARMACY INC","address1": "580 RICE ST","address2": "","city": "ST PAUL","state": "MN","zip": "55103","zip+4": "0000","phone": "6512929728"}
{"name": "WEST SEVENTH PHARMACY","address1": "1106 W 7TH ST","address2": "","city": "ST PAUL","state": "MN","zip": "55102","zip+4": "0000","phone": "6512281493"}
{"name": "ST PAUL CORNER DRUG","address1": "240 S SNELLING AVE","address2": "","city": "ST PAUL","state": "MN","zip": "55105","zip+4": "0000","phone": "6516988859"}
{"name": "LLOYDS PHARMACY","address1": "720 SNELLING AVE N","address2": "","city": "SAINT PAUL","state": "MN","zip": "55104","zip+4": "1885","phone": "6516458636"}
{"name": "SNYDER DRUG EMPORIUM #5074","address1": "2099 HUDSON ROAD","address2": "","city": "ST PAUL","state": "MN","zip": "55119","zip+4": "0000","phone": "6517353131"}
{"name": "ECONOFOODS PHARMACY #331","address1": "612 S MINNESOTA AVE","address2": "","city": "ST. PETER","state": "MN","zip": "56082","zip+4": "0000","phone": "5079315540"}
{"name": "JOHNS RX DRUG INC","address1": "131 3RD ST","address2": "","city": "TRACY","state": "MN","zip": "56175","zip+4": "1211","phone": "5076293801"}
{"name": "ST ELIZABETHS MED CNTR PHARMAC","address1": "1200 GRANT BLVD W","address2": "","city": "WABASHA","state": "MN","zip": "55981","zip+4": "1098","phone": "6515655527"}
{"name": "WABASHA PHARMACY","address1": "207 W MAIN ST","address2": "","city": "WABASHA","state": "MN","zip": "55981","zip+4": "0000","phone": "6515653949"}
{"name": "BECK PHARMACY","address1": "851 MARKETPLACE DR","address2": "","city": "WACONIA","state": "MN","zip": "55387","zip+4": "0000","phone": "9524424407"}
{"name": "WARREN PHARMACY","address1": "103 W JOHNSON","address2": "","city": "WARREN","state": "MN","zip": "56762","zip+4": "1132","phone": "2187455481"}
{"name": "BERGS PHARMACY INC","address1": "103 S 3RD ST","address2": "","city": "WATERVILLE","state": "MN","zip": "56096","zip+4": "1444","phone": "5073628500"}
{"name": "THRIFTY WHITE DRUG #22","address1": "1600 FIRST STREET SW","address2": "","city": "WILLMAR","state": "MN","zip": "56201","zip+4": "4226","phone": "3202351930"}
{"name": "WINONA CLINIC PHARMACY","address1": "859 MANKATO AVE","address2": "","city": "WINONA","state": "MN","zip": "55987","zip+4": "4051","phone": "5074577688"}
{"name": "ZUMBROTA MAIN STREET PHARMACY","address1": "370 MAIN ST","address2": "","city": "ZUMBROTA","state": "MN","zip": "55992","zip+4": "0000","phone": "5077325311"}
{"name": "BLOOMINGTON DRUG","address1": "509 W 98TH ST","address2": "","city": "BLOOMINGTON","state": "MN","zip": "55420","zip+4": "4713","phone": "9528847528"}
{"name": "STERLING DRUG #5","address1": "410 HOFFMAN DR","address2": "","city": "OWATONNA","state": "MN","zip": "55060","zip+4": "0000","phone": "5074510240"}
{"name": "SNYDER'S DRUG STORE # #5044","address1": "2525 COUNTY ROAD 10","address2": "","city": "MOUNDS VIEW","state": "MN","zip": "55112","zip+4": "0000","phone": "7637861401"}
{"name": "ALLINA COMMUNITY PHARMACIES #3","address1": "2545 CHICAGO AVE S","address2": "STE 102","city": "MINNEAPOLIS","state": "MN","zip": "55404","zip+4": "0000","phone": "6128634190"}
{"name": "SNYDER DRUG EMPORIUM #5076","address1": "2920 NORTH RICE STREET","address2": "","city": "LITTLE CANADA","state": "MN","zip": "55113","zip+4": "0000","phone": "6514843348"}
{"name": "DULUTH CLINIC-PHARMACY","address1": "400 E THIRD STREET","address2": "","city": "DULUTH","state": "MN","zip": "55805","zip+4": "1951","phone": "2187863137"}
{"name": "MEDICINE SHOPPE #0108","address1": "1208 CLOQUET AVENUE","address2": "","city": "CLOQUET","state": "MN","zip": "55720","zip+4": "1622","phone": "2188794547"}
{"name": "REGINA MEDICAL CENTER PHARMACY","address1": "1175 NININGER RD","address2": "","city": "HASTINGS","state": "MN","zip": "55033","zip+4": "1098","phone": "6514804261"}
{"name": "VILLAGE PHARMACY AND GIFT","address1": "108 2ND AVE S","address2": "","city": "SAUK RAPIDS","state": "MN","zip": "56379","zip+4": "1494","phone": "3202521303"}
{"name": "FAIRVIEW RIVERSIDE PHARMACY #1","address1": "606 24TH AVENUE SOUTH","address2": "","city": "MINNEAPOLIS","state": "MN","zip": "55454","zip+4": "0000","phone": "6126727507"}
{"name": "DL PHARMACY","address1": "125 FRAZEE ST EAST","address2": "","city": "DETROIT LAKES","state": "MN","zip": "56501","zip+4": "0000","phone": "2188473537"}
{"name": "FAMILY DRUG MART","address1": "1400 S 13TH STREET","address2": "","city": "VIRGINIA","state": "MN","zip": "55792","zip+4": "0076","phone": "2187498943"}
{"name": "SNYDER DRUG EMPORIUM #5046","address1": "10615 FRANCE AVE S","address2": "","city": "BLOOMINGTON","state": "MN","zip": "55431","zip+4": "0000","phone": "9528841750"}
{"name": "STERLING DRUG #16","address1": "25 E DIVISION ST","address2": "","city": "BUFFALO","state": "MN","zip": "55313","zip+4": "0000","phone": "7636821911"}
{"name": "TARGET PHARMACY #0052","address1": "2500 E LAKE ST","address2": "","city": "MPLS","state": "MN","zip": "55406","zip+4": "0000","phone": "6127211611"}
{"name": "ALLINA COMMUNITY PHARMACIES #1","address1": "4050 COON RAPIDS BLVD","address2": "","city": "COON RAPIDS","state": "MN","zip": "55433","zip+4": "2586","phone": "7632367123"}
{"name": "GORDYS PHARMACY","address1": "320 SUMMIT AVE","address2": "","city": "CENTER CITY","state": "MN","zip": "55012","zip+4": "0000","phone": "6512574500"}
{"name": "FAIRVIEW SOUTHDALE HOSPITAL PH","address1": "6401 FRANCE AVENUE SOUTH","address2": "","city": "EDINA","state": "MN","zip": "55435","zip+4": "0000","phone": "9529245160"}
{"name": "OLSON BROS PHARMACY INC","address1": "5121 VERNON AVE S","address2": "","city": "EDINA","state": "MN","zip": "55436","zip+4": "2196","phone": "9529290034"}
{"name": "LITTLEFORK MEDICAL CENTER PARM","address1": "912 MAIN STREET","address2": "","city": "LITTLEFORK","state": "MN","zip": "56653","zip+4": "0543","phone": "2182786634"}
{"name": "FAIRVIEW PHARMACY SERVICES HEM","address1": "516 DELAWARE SREET SOUTH EAST","address2": "","city": "MINNEAPOLIS","state": "MN","zip": "55455","zip+4": "0000","phone": "6126262828"}
{"name": "BOYNTON HEALTH SERVICE PHCY","address1": "410 CHURCH ST","address2": "","city": "MINNEAPOLIS","state": "MN","zip": "55455","zip+4": "0346","phone": "6126247655"}
{"name": "UMMC FAIRVIEW RIVERSIDE CAMPUS","address1": "2450 RIVERSIDE AVENUE","address2": "","city": "MINNEAPOLIS","state": "MN","zip": "55454","zip+4": "0000","phone": "6126724200"}
{"name": "ALLINA COMMUNITY PHARMACIES #6","address1": "2215 PARK AVE","address2": "","city": "MINNEAPOLIS","state": "MN","zip": "55404","zip+4": "3711","phone": "6127758896"}
{"name": "A AND S DRUGS","address1": "101 W MAIN ST","address2": "","city": "PIPESTONE","state": "MN","zip": "56164","zip+4": "0787","phone": "5078253100"}
{"name": "HENDRIX HEALTH CENTER PHCY","address1": "1308 9TH AVE S","address2": "","city": "MOORHEAD","state": "MN","zip": "56563","zip+4": "0002","phone": "2184775875"}
{"name": "FOSS DRUG","address1": "420 CENTER AVE STE 33","address2": "","city": "MOORHEAD","state": "MN","zip": "56560","zip+4": "1961","phone": "2182367400"}
{"name": "LIEBE DRUG INC","address1": "145 N MILES","address2": "","city": "APPLETON","state": "MN","zip": "56208","zip+4": "1316","phone": "3202892593"}
{"name": "HEALTHPARTNERS BROOKLYN CENTER","address1": "6845 LEE AVE N","address2": "","city": "BROOKLYN CENTER","state": "MN","zip": "55429","zip+4": "1799","phone": "7635034421"}
{"name": "WARROAD HERITAGE PHARMACY #1","address1": "321 E LAKE ST","address2": "","city": "WARROAD","state": "MN","zip": "56763","zip+4": "0000","phone": "2183861088"}
{"name": "VIRGINIA REGIONAL MED CTR PHCY","address1": "901 9TH ST N","address2": "","city": "VIRGINIA","state": "MN","zip": "55792","zip+4": "2398","phone": "2187499414"}
{"name": "LAKEWOOD HEALTH SYSTEMS HOSPIT","address1": "49725 COUNTY RD 83","address2": "","city": "STAPLES","state": "MN","zip": "56479","zip+4": "0000","phone": "2188948454"}
{"name": "ECONOFOODS PHARMACY #326","address1": "115 ELM STREET","address2": "","city": "FARMINGTON","state": "MN","zip": "55024","zip+4": "0000","phone": "6514606160"}
{"name": "MORREIM PHARMACY","address1": "201 W MAIN ST","address2": "","city": "ARLINGTON","state": "MN","zip": "55307","zip+4": "9700","phone": "5079645228"}
{"name": "MELROSE PHARMACY","address1": "611 W MAIN ST","address2": "","city": "MELROSE","state": "MN","zip": "56352","zip+4": "0000","phone": "3202567292"}
{"name": "TARGET PHARMACY #2340","address1": "810 W COUNTY RD 42","address2": "","city": "BURNSVILLE","state": "MN","zip": "55337","zip+4": "0000","phone": "9524358141"}
{"name": "PARK NICOLLET PHARMACY","address1": "14000 FAIRVIEW DRIVE","address2": "","city": "BURNSVILLE","state": "MN","zip": "55337","zip+4": "0000","phone": "9529938524"}
{"name": "SUN MART PHARMACY #334","address1": "1205 WEST LINCOLN AVE","address2": "","city": "FERGUS FALLS","state": "MN","zip": "56537","zip+4": "0000","phone": "2187393259"}
{"name": "SNYDER'S DRUG STORE # #5077","address1": "2120 SILVER LAKE ROAD","address2": "","city": "NEW BRIGHTON","state": "MN","zip": "55112","zip+4": "0000","phone": "6516336440"}
{"name": "SNYDER'S DRUG STORE # #5050","address1": "602 SOUTH FRONT STREET","address2": "","city": "MANKATO","state": "MN","zip": "56001","zip+4": "0000","phone": "5073451002"}
{"name": "RIX PHARMACY","address1": "1525 BROADWAY","address2": "SUITE 100","city": "ALEXANDRIA","state": "MN","zip": "56308","zip+4": "0000","phone": "3207633146"}
{"name": "WHITE DRUG #107","address1": "707 HIGHWAY 33 SOUTH SUITE 12","address2": "","city": "CLOQUET","state": "MN","zip": "55720","zip+4": "0000","phone": "2188796768"}
{"name": "ST THERESE PROFESSIONAL PHARMA","address1": "8000 BASS LAKE RD","address2": "","city": "NEW HOPE","state": "MN","zip": "55428","zip+4": "3199","phone": "7635315005"}
{"name": "PETERS THRIFTY WHITE DRUG","address1": "321 JEFFERSON ST NORTH","address2": "","city": "WADENA","state": "MN","zip": "56482","zip+4": "0000","phone": "2186314050"}
{"name": "MAJEWSKI DRUG","address1": "202 2ND ST","address2": "","city": "NASHWAUK","state": "MN","zip": "55769","zip+4": "1198","phone": "2188852613"}
{"name": "SUPERIOR HEALTH PHARMACY","address1": "1010 4TH ST","address2": "","city": "TWO HARBORS","state": "MN","zip": "55616","zip+4": "0000","phone": "2188347202"}
{"name": "KMART PHARMACY #3405","address1": "10 W LAKE STREET","address2": "","city": "MINNEAPOLIS","state": "MN","zip": "55408","zip+4": "0000","phone": "6128275309"}
{"name": "HEALTHPARTNERS COMO PHARMACY #","address1": "2500 COMO AVE","address2": "","city": "SAINT PAUL","state": "MN","zip": "55108","zip+4": "1494","phone": "6516416250"}
{"name": "HEALTHPARTNERS ST. PAUL PHARMA","address1": "205 S WABASHA","address2": "","city": "SAINT PAUL","state": "MN","zip": "55107","zip+4": "0000","phone": "6512938301"}
{"name": "HEALTHPARTNERS BLOOMINGTON PHA","address1": "8600 NICOLLET AVE S","address2": "","city": "BLOOMINGTON","state": "MN","zip": "55420","zip+4": "0000","phone": "9528876602"}
{"name": "GUIDEPOINT PHARMACY #101","address1": "108 S 6TH ST","address2": "","city": "BRAINERD","state": "MN","zip": "56401","zip+4": "3534","phone": "2188290347"}
{"name": "FAIRVIEW LAKES PHARMACY RUSH C","address1": "780 WEST 4TH STREET","address2": "","city": "RUSH CITY","state": "MN","zip": "55069","zip+4": "0000","phone": "3203584757"}
{"name": "TWIN VALLEY DRUG","address1": "120 MAIN ST","address2": "","city": "TWIN VALLEY","state": "MN","zip": "56584","zip+4": "0427","phone": "2185845147"}
{"name": "METHODIST HOSPITAL PHARMACY","address1": "6500 EXCELSIOR BLVD","address2": "STE 650","city": "ST LOUIS PARK","state": "MN","zip": "55426","zip+4": "4700","phone": "6129325000"}
{"name": "KMART PHARMACY #3034","address1": "3201 WHITE BEAR AVE","address2": "","city": "WHITE BEAR LAKE","state": "MN","zip": "55110","zip+4": "0000","phone": "6517700311"}
{"name": "KMART PHARMACY #3031","address1": "8949 UNIVERSITY AVE NE","address2": "","city": "BLAINE","state": "MN","zip": "55434","zip+4": "0000","phone": "7637866820"}
{"name": "KMART PHARMACY #3045","address1": "4300 XYLON N","address2": "","city": "NEW HOPE","state": "MN","zip": "55428","zip+4": "0000","phone": "7635351342"}
{"name": "KMART PHARMACY #3059","address1": "245 E MARYLAND AVE","address2": "","city": "ST PAUL","state": "MN","zip": "55117","zip+4": "0000","phone": "6514886781"}
{"name": "KMART PHARMACY #9383","address1": "14230 BURNHAVEN DRIVE","address2": "","city": "BURNSVILLE","state": "MN","zip": "55306","zip+4": "0000","phone": "9524358233"}
{"name": "WHEATON DRUG CO","address1": "1105 BROADWAY","address2": "","city": "WHEATON","state": "MN","zip": "56296","zip+4": "1374","phone": "3205634151"}
{"name": "SNYDER DRUG EMPORIUM #5051","address1": "201 WEST MAIN STREET","address2": "","city": "ALBERT LEA","state": "MN","zip": "56007","zip+4": "0000","phone": "5073772140"}
{"name": "KMART PHARMACY #9397","address1": "50 SIGNAL HILL MALL","address2": "","city": "WEST ST PAUL","state": "MN","zip": "55118","zip+4": "0000","phone": "6514573355"}
{"name": "KMART PHARMACY #3578","address1": "1400 18TH AVENUE NW","address2": "","city": "AUSTIN","state": "MN","zip": "55912","zip+4": "0000","phone": "5074377736"}
{"name": "THRIFTY WHITE DRUG #722","address1": "321 WEST MAIN STREET","address2": "","city": "MARSHALL","state": "MN","zip": "56258","zip+4": "0000","phone": "5075325754"}
{"name": "TARGET PHARMACY #0068","address1": "1744 SUBURBAN AVE","address2": "","city": "ST PAUL","state": "MN","zip": "55106","zip+4": "0000","phone": "6517780105"}
{"name": "HEALTHPARTNERS MAPLEWOOD PHARM","address1": "2165 WHITE BEAR AVE","address2": "","city": "MAPLEWOOD","state": "MN","zip": "55109","zip+4": "0000","phone": "6517791503"}
{"name": "SNYDER DRUG EMPORIUM #5078","address1": "12521 CENTRAL AVENUE N E","address2": "","city": "BLAINE","state": "MN","zip": "55434","zip+4": "0000","phone": "7637558704"}
{"name": "KMART PHARMACY #7216","address1": "3000 HWY 10 EAST","address2": "","city": "MOORHEAD","state": "MN","zip": "56560","zip+4": "0000","phone": "2182361556"}
{"name": "ARDEN PLAZA PHARMACY AND GIFT","address1": "3529 LEXINGTON AVE","address2": "","city": "ARDEN HILLS","state": "MN","zip": "55126","zip+4": "0000","phone": "6514821250"}
{"name": "SNYDER DRUG EMPORIUM #5071","address1": "2714 HIGHWAY 88","address2": "","city": "ST ANTHONY","state": "MN","zip": "55418","zip+4": "0000","phone": "6127814800"}
{"name": "KMART PHARMACY #7326","address1": "1111 S POKEGAMA AVE","address2": "","city": "GRAND RAPIDS","state": "MN","zip": "55744","zip+4": "0000","phone": "2183260593"}
{"name": "KMART PHARMACY #7328","address1": "1605 S FIRST STREET","address2": "","city": "WILLMAR","state": "MN","zip": "56201","zip+4": "0000","phone": "3202359700"}
{"name": "SNYDER DRUG #6284","address1": "802 8TH AVE SE","address2": "","city": "PIPESTONE","state": "MN","zip": "56164","zip+4": "0000","phone": "5078254259"}
{"name": "WEBER AND JUDD MARRIOTT PLAZA","address1": "101 FIRST AVE SW","address2": "","city": "ROCHESTER","state": "MN","zip": "55902","zip+4": "3146","phone": "5072890716"}
{"name": "LINDSTROM THRIFTY WHITE PHARMA","address1": "30699 LINCOLNROAD","address2": "","city": "LINDSTROM","state": "MN","zip": "55045","zip+4": "0692","phone": "6512574074"}
{"name": "SNYDER DRUG EMPORIUM #5030","address1": "5159 BLOOMINGTON AVE S","address2": "","city": "MINNEAPOLIS","state": "MN","zip": "55417","zip+4": "0000","phone": "6128248440"}
{"name": "WYOMING DRUG","address1": "26710 FOREST BLVD","address2": "","city": "WYOMING","state": "MN","zip": "55092","zip+4": "9324","phone": "6514622082"}
{"name": "SHOPKO PHARMACY #17","address1": "4161 2ND ST S","address2": "","city": "SAINT CLOUD","state": "MN","zip": "56301","zip+4": "3761","phone": "3202533280"}
{"name": "SNYDER DRUG EMPORIUM #5080","address1": "12455 CHAMPLIN DRIVE","address2": "","city": "CHAMPLIN","state": "MN","zip": "55316","zip+4": "0000","phone": "7634278111"}
{"name": "SCHULTZ DRUG","address1": "124 2ND AVE WEST","address2": "","city": "BERTHA","state": "MN","zip": "56437","zip+4": "0000","phone": "2189242124"}
{"name": "TRUMM DRUG CLINIC PHARMACY","address1": "610 30TH AVE WEST","address2": "","city": "ALEXANDRIA","state": "MN","zip": "56308","zip+4": "0397","phone": "3207633116"}
{"name": "RAMSEY PHARMACY","address1": "5300 ALPINE DRIVE NW","address2": "","city": "RAMSEY","state": "MN","zip": "55303","zip+4": "4250","phone": "7634273341"}
{"name": "SNYDER'S DRUG STORE # #5034","address1": "7105 CEDAR LAKE ROAD","address2": "","city": "ST LOUIS PARK","state": "MN","zip": "55426","zip+4": "0000","phone": "9525455651"}
{"name": "SERVICE DRUG INC","address1": "218 W WASHINGTON ST","address2": "","city": "BRAINERD","state": "MN","zip": "56401","zip+4": "2922","phone": "2188293664"}
{"name": "KMART PHARMACY #7106","address1": "7191 10TH ST NORTH","address2": "","city": "OAKDALE","state": "MN","zip": "55128","zip+4": "0000","phone": "6517397490"}
{"name": "ADAMS DRUG #2599784","address1": "11 4TH ST SW","address2": "","city": "ADAMS","state": "MN","zip": "55909","zip+4": "9704","phone": "5075823380"}
{"name": "PARK NICOLLET PHARMACY","address1": "5320 HYLAND GREENS DRIVE","address2": "","city": "BLOOMINGTON","state": "MN","zip": "55437","zip+4": "0000","phone": "9529932530"}
{"name": "MERITCARE BEMIDJI PHARMACY","address1": "1233 34TH ST NW","address2": "","city": "BEMIDJI","state": "MN","zip": "56601","zip+4": "5112","phone": "2183335265"}
{"name": "KMART PHARMACY #3190","address1": "1734 MALL DR","address2": "","city": "DULUTH","state": "MN","zip": "55811","zip+4": "0000","phone": "2187273477"}
{"name": "KMART PHARMACY #4351","address1": "201 NINTH ST S E","address2": "","city": "ROCHESTER","state": "MN","zip": "55901","zip+4": "0000","phone": "5072813532"}
{"name": "KMART PHARMACY #7214","address1": "1122 HWY 61","address2": "","city": "WINONA","state": "MN","zip": "55987","zip+4": "0000","phone": "5074546072"}
{"name": "KMART PHARMACY #4882","address1": "40 SECOND ST SOUTH","address2": "","city": "WAITE PARK","state": "MN","zip": "56387","zip+4": "0000","phone": "3202513069"}
{"name": "KMART PHARMACY #3781","address1": "215 NORTH CENTRAL AVE","address2": "","city": "DULUTH","state": "MN","zip": "55807","zip+4": "0000","phone": "2186249305"}
{"name": "SNYDER'S DRUG STORE # #5081","address1": "1037 HIGHWAY 96","address2": "","city": "SHOREVIEW","state": "MN","zip": "55126","zip+4": "0000","phone": "6514833823"}
{"name": "WALGREEN DRUG STORE #2805","address1": "1133 S ROBERT","address2": "","city": "WEST ST PAUL","state": "MN","zip": "55118","zip+4": "0000","phone": "6514554990"}
{"name": "THRIFTY WHITE DRUG #37","address1": "125 FIRST AVENUE SOUTH","address2": "","city": "PERHAM","state": "MN","zip": "56573","zip+4": "1701","phone": "2183464840"}
{"name": "TARGET PHARMACY #0100","address1": "13201 RIDGEDALE DR","address2": "","city": "MINNETONKA","state": "MN","zip": "55343","zip+4": "0000","phone": "9525428266"}
{"name": "FAMILY PHARMACY SOUTH","address1": "3 CENTURY AVE","address2": "","city": "HUTCHINSON","state": "MN","zip": "55350","zip+4": "0695","phone": "3205873638"}
{"name": "WHITE DRUG #38","address1": "306 CHESTNUT STREET","address2": "","city": "VIRGINIA","state": "MN","zip": "55792","zip+4": "2524","phone": "2187496333"}
{"name": "CAHILL PHARMACY","address1": "131 N MAIN ST","address2": "PO BOX Q","city": "JANESVILLE","state": "MN","zip": "56048","zip+4": "0000","phone": "5072316372"}
{"name": "CHISAGO DRUG","address1": "10655 RAILROAD AVE","address2": "","city": "CHISAGO CITY","state": "MN","zip": "55013","zip+4": "0603","phone": "6512574950"}
{"name": "HEALTHEAST PHARMACY DOWNTOWN S","address1": "17 W EXCHANGE ST","address2": "STE 100","city": "SAINT PAUL","state": "MN","zip": "55102","zip+4": "1045","phone": "6512323255"}
{"name": "THRIFTY WHITE DRUG #727","address1": "122 EAST ELM AVENUE","address2": "SUITE A","city": "WASECA","state": "MN","zip": "56093","zip+4": "2927","phone": "5078351610"}
{"name": "PARK NICOLLET PHARMACY","address1": "1885 PLAZA DRIVE","address2": "","city": "EAGAN","state": "MN","zip": "55122","zip+4": "0000","phone": "9529934004"}
{"name": "HEALTHPARTNERS WEST PHARMACY #","address1": "5100 GAMBLE DR STE 100","address2": "","city": "ST LOUIS PARK","state": "MN","zip": "55416","zip+4": "0000","phone": "9525956445"}
{"name": "PRO PHARMACY INC","address1": "242 S CLEVELAND","address2": "","city": "ST PAUL","state": "MN","zip": "55105","zip+4": "1296","phone": "6516980825"}
{"name": "TARGET PHARMACY #2229","address1": "1300 UNIVERSITY AVE","address2": "","city": "ST PAUL","state": "MN","zip": "55104","zip+4": "0000","phone": "6516468002"}
{"name": "HEALTHPARTNERS APPLE VALLEY PH","address1": "15290 PENNOCK LN","address2": "","city": "APPLE VALLEY","state": "MN","zip": "55124","zip+4": "7163","phone": "9524318566"}
{"name": "HEALTHPARTNERS WHITE BEAR LAKE","address1": "1430 HWY 96","address2": "","city": "WHITE BEAR LAKE","state": "MN","zip": "55110","zip+4": "0000","phone": "6516532175"}
{"name": "SHOPKO PHARMACY #35","address1": "2820 HIGHWAY 63 S","address2": "","city": "ROCHESTER","state": "MN","zip": "55904","zip+4": "5571","phone": "5072810688"}
{"name": "SHOPKO PHARMACY #36","address1": "3708 HIGHWAY 63 N","address2": "","city": "ROCHESTER","state": "MN","zip": "55906","zip+4": "3902","phone": "5072810658"}
{"name": "THRIFTY WHITE PHARMACY","address1": "25 SECOND ST NE","address2": "","city": "AITKIN","state": "MN","zip": "56431","zip+4": "0000","phone": "2189273754"}
{"name": "WEBER AND JUDD CO BARLOW PHCY","address1": "1315 SIXTH ST NW","address2": "","city": "ROCHESTER","state": "MN","zip": "55901","zip+4": "1824","phone": "5072896368"}
{"name": "STERLING DRUG #8","address1": "1635 OXFORD ST","address2": "","city": "WORTHINGTON","state": "MN","zip": "56187","zip+4": "0000","phone": "5073727533"}
{"name": "MEDSAVE FAMILY PHARMACY","address1": "217 PAUL BUNYAN DR NW","address2": "","city": "BEMIDJI","state": "MN","zip": "56601","zip+4": "0000","phone": "2187591222"}
{"name": "WALGREEN DRUG STORE #9511","address1": "7845 PORTLAND AVE S","address2": "","city": "BLOOMINGTON","state": "MN","zip": "55420","zip+4": "0000","phone": "9528815033"}
{"name": "COUNTY VALU PHARMACY","address1": "615 MAIN ST","address2": "","city": "NORTH BRANCH","state": "MN","zip": "55056","zip+4": "0159","phone": "6516747177"}
{"name": "LAKE COUNTRY DRUG AND GIFTS IN","address1": "205 W MAIN ST","address2": "","city": "ISLE","state": "MN","zip": "56342","zip+4": "0000","phone": "3206763115"}
{"name": "LAKES AREA PHARMACY INC","address1": "4291 MAIN ST","address2": "","city": "PEQUOT LAKES","state": "MN","zip": "56472","zip+4": "0000","phone": "2185685884"}
{"name": "THRIFTY WHITE DRUG #729","address1": "206 NORTH MAIN","address2": "","city": "CROOKSTON","state": "MN","zip": "56716","zip+4": "1969","phone": "2182812540"}
{"name": "JONS DRUG","address1": "318 GRANT AVE","address2": "","city": "EVELETH","state": "MN","zip": "55734","zip+4": "1549","phone": "2187442774"}
{"name": "SNYDER DRUG EMPORIUM #5054","address1": "16508 WEST 78TH STREET","address2": "","city": "EDEN PRAIRIE","state": "MN","zip": "55346","zip+4": "0000","phone": "9529379100"}
{"name": "ECONOFOODS PHARMACY #333","address1": "205 WASHINGTON AVE E","address2": "","city": "HUTCHINSON","state": "MN","zip": "55350","zip+4": "0000","phone": "3205872969"}
{"name": "ALBERT LEA MEDICAL CENTER","address1": "404 W FOUNTAIN ST","address2": "","city": "ALBERT LEA","state": "MN","zip": "56007","zip+4": "2437","phone": "5073737952"}
{"name": "HEALTHEAST PHARMACY WOODWIND","address1": "1925 WOODWINDS DR","address2": "","city": "WOODBURY","state": "MN","zip": "55125","zip+4": "0000","phone": "6513260770"}
{"name": "SHOPKO PHARMACY #41","address1": "1209 18TH AVE NW","address2": "","city": "AUSTIN","state": "MN","zip": "55912","zip+4": "1881","phone": "5074377616"}
{"name": "WALGREEN DRUG STORE #1160","address1": "621 W BROADWAY","address2": "","city": "MINNEAPOLIS","state": "MN","zip": "55411","zip+4": "0000","phone": "6125220244"}
{"name": "FAIRVIEW RIDGES HOSPITAL PHARM","address1": "201 EAST NICOLLET BOULEVARD","address2": "","city": "BURNSVILLE","state": "MN","zip": "55337","zip+4": "0000","phone": "6128922130"}
{"name": "WALGREEN DRUG STORE #10187","address1": "900 MAIN AVE","address2": "","city": "MOORHEAD","state": "MN","zip": "56560","zip+4": "2860","phone": "2182360252"}
{"name": "BLOMBERG PHARMACY","address1": "1583 N HAMLINE AVE","address2": "","city": "SAINT PAUL","state": "MN","zip": "55108","zip+4": "2107","phone": "6516469645"}
{"name": "WALGREEN DRUG STORE #7126","address1": "4501 GRAND AVE","address2": "","city": "WEST DULUTH","state": "MN","zip": "55807","zip+4": "0000","phone": "2186282377"}
{"name": "TARGET PHARMACY #0220","address1": "8225 FLYING CLOUD DR","address2": "","city": "EDEN PRAIRIE","state": "MN","zip": "55344","zip+4": "0000","phone": "9529448720"}
{"name": "THOMSON SNYDER DRUG","address1": "408 LAKE ST NE","address2": "","city": "WARROAD","state": "MN","zip": "56763","zip+4": "0510","phone": "2183862453"}
{"name": "HEALTHEAST PHARMACY MAPLEWOOD","address1": "1655 BEAM AVE","address2": "SUITE 111","city": "MAPLEWOOD","state": "MN","zip": "55109","zip+4": "1163","phone": "6512327770"}
{"name": "SNYDER DRUG EMPORIUM #5084","address1": "5135 WEST 98TH STREET","address2": "","city": "BLOOMINGTON","state": "MN","zip": "55437","zip+4": "0000","phone": "9528357263"}
{"name": "SNYDER DRUG EMPORIUM #5085","address1": "8925 PENN AVENUE SOUTH","address2": "","city": "BLOOMINGTON","state": "MN","zip": "55431","zip+4": "0000","phone": "9528888811"}
{"name": "DULUTH CLINIC-WEST PHARMACY","address1": "4212 GRAND AVENUE","address2": "","city": "DULUTH","state": "MN","zip": "55807","zip+4": "2737","phone": "2187863700"}
{"name": "CUB PHARMACY #1612","address1": "1801 MARKET DR","address2": "","city": "STILLWATER","state": "MN","zip": "55082","zip+4": "0000","phone": "6514302362"}
{"name": "COBORNS PHARMACY #23","address1": "19425 EVANS ST SW","address2": "","city": "ELK RIVER","state": "MN","zip": "55330","zip+4": "0000","phone": "7634410804"}
{"name": "MEDICINE SHOPPE #0685","address1": "124 NE 4TH STREET","address2": "","city": "GRAND RAPIDS","state": "MN","zip": "55744","zip+4": "0000","phone": "2183269639"}
{"name": "WALGREEN DRUG STORE #1490","address1": "4795 HWY 101","address2": "","city": "MINNETONKA","state": "MN","zip": "55345","zip+4": "0000","phone": "9529382144"}
{"name": "FAIRVIEW NORTHEAST PHARMACY #2","address1": "2847 JOHNSON STREET NE","address2": "","city": "MINNEAPOLIS","state": "MN","zip": "55418","zip+4": "0000","phone": "6127897277"}
{"name": "SHOPKO PHARMACY #59","address1": "1001 HIGHWAY 15 S","address2": "","city": "FAIRMONT","state": "MN","zip": "56031","zip+4": "4456","phone": "5072389488"}
{"name": "BOYES PHARMACY","address1": "301 CENTRAL AVE","address2": "","city": "FANBAULT","state": "MN","zip": "55021","zip+4": "5214","phone": "5073327481"}
{"name": "SHOPKO PHARMACY #60","address1": "2610 BRIDGE AVE","address2": "","city": "ALBERT LEA","state": "MN","zip": "56007","zip+4": "2075","phone": "5073739424"}
{"name": "SHOPKO PHARMACY #58","address1": "1755 N HUMISTON AVE","address2": "","city": "WORTHINGTON","state": "MN","zip": "56187","zip+4": "1757","phone": "5073769309"}
{"name": "CUB PHARMACY #1611","address1": "100 W COUNTY RD B","address2": "","city": "MAPLEWOOD","state": "MN","zip": "55117","zip+4": "0000","phone": "6514896271"}
{"name": "SNYDER'S DRUG STORE # #5024","address1": "400 MAIN STREET","address2": "","city": "COLD SPRING","state": "MN","zip": "56320","zip+4": "0000","phone": "3206853471"}
{"name": "COUNTRY STORE AND PHARMACY","address1": "520 1ST STREET NE","address2": "","city": "SARTELL","state": "MN","zip": "56377","zip+4": "1274","phone": "3202550801"}
{"name": "THRIFTY WHITE DRUG #736","address1": "201 HORACE AVENUE NORTH","address2": "","city": "THIEF RIVER FALLS","state": "MN","zip": "56701","zip+4": "0000","phone": "2186812932"}
{"name": "SHOPKO PHARMACY #61","address1": "501 HIGHWAY 10 SE","address2": "","city": "SAINT CLOUD","state": "MN","zip": "56304","zip+4": "1250","phone": "3202535373"}
{"name": "MEDICAL ARTS PHARMACY INC","address1": "324 W SUPERIOR ST","address2": "","city": "DULUTH","state": "MN","zip": "55802","zip+4": "1804","phone": "2187221401"}
{"name": "WALGREEN DRUG STORE #7188","address1": "4880 CENTRAL AVE NE","address2": "","city": "HILLTOP","state": "MN","zip": "55421","zip+4": "0000","phone": "7635712388"}
{"name": "WALGREEN DRUG STORE #1303","address1": "4323 CHICAGO","address2": "","city": "MINNEAPOLIS","state": "MN","zip": "55407","zip+4": "0000","phone": "6128224657"}
{"name": "ARROWHEAD PHARMACY","address1": "21 WEST HIGHWAY 61","address2": "","city": "GRAND MARAIS","state": "MN","zip": "55604","zip+4": "0000","phone": "2183871133"}
{"name": "MERITCARE MOORHEAD PHARMACY","address1": "1301 S 8TH ST","address2": "","city": "MOORHEAD","state": "MN","zip": "56560","zip+4": "3600","phone": "7012343250"}
{"name": "SHOPKO PHARMACY #21","address1": "1850 E MADISON AVE","address2": "","city": "MANKATO","state": "MN","zip": "56001","zip+4": "5448","phone": "5073876515"}
{"name": "OTTO DRUG EXPRESS AND GIFT","address1": "613 E MAIN ST","address2": "","city": "BELLE PLAINE","state": "MN","zip": "56011","zip+4": "0000","phone": "9528736220"}
{"name": "NELSON REXALL DRUG CO #1","address1": "728 6TH ST","address2": "","city": "DAWSON","state": "MN","zip": "56232","zip+4": "2400","phone": "3207692546"}
{"name": "ALLINA COMMUNITY PHARMACIES #1","address1": "3960 COON RAPIDS BLVD","address2": "","city": "COON RAPIDS","state": "MN","zip": "55433","zip+4": "2569","phone": "7632367111"}
{"name": "NORTHFIELD PHARMACY","address1": "601 S WATER ST","address2": "","city": "NORTHFIELD","state": "MN","zip": "55057","zip+4": "2434","phone": "5076630344"}
{"name": "WALGREEN DRUG STORE #1687","address1": "2515 WHITE BEAR AVE","address2": "","city": "MAPLEWOOD","state": "MN","zip": "55109","zip+4": "0000","phone": "6517796503"}
{"name": "PARKVIEW PHARMACY INC","address1": "825 MANKATO AVE","address2": "","city": "WINONA","state": "MN","zip": "55987","zip+4": "4868","phone": "5074544925"}
{"name": "THE PRESCRIPTION SHOPPE OF CRO","address1": "211 N MAIN","address2": "","city": "CROOKSTON","state": "MN","zip": "56716","zip+4": "0000","phone": "2182817045"}
{"name": "SNYDER DRUG EMPORIUM #5058","address1": "7658 BROOKLYN BLVD","address2": "","city": "BROOKLYN PARK","state": "MN","zip": "55443","zip+4": "0000","phone": "7635613910"}
{"name": "SNYDER'S DRUG STORE # #5059","address1": "1425 STATE HWY 101 N","address2": "","city": "PLYMOUTH","state": "MN","zip": "55447","zip+4": "0000","phone": "7634738666"}
{"name": "TARGET PHARMACY #0240","address1": "6100 SHINGLE CRK PKY","address2": "","city": "BROOKLYN CNT","state": "MN","zip": "55430","zip+4": "0000","phone": "7635660143"}
{"name": "OMNICARE MINNESOTA","address1": "5534 LAKELAND AVE NO","address2": "","city": "MINNEAPOLIS","state": "MN","zip": "55429","zip+4": "0000","phone": "7632590188"}
{"name": "WALGREEN DRUG STORE #10641","address1": "1274 TOWNE CENTRE DR","address2": "","city": "EAGAN","state": "MN","zip": "55123","zip+4": "0000","phone": "6514525320"}
{"name": "CUB PHARMACY #1658","address1": "300 E TRAVELERS TRAIL","address2": "","city": "BURNSVILLE","state": "MN","zip": "55337","zip+4": "0000","phone": "9528940712"}
{"name": "SNYDER'S DRUG STORE # #5060","address1": "5101 GATEWAY STREET S E","address2": "","city": "PRIOR LAKE","state": "MN","zip": "55372","zip+4": "0000","phone": "9524476075"}
{"name": "KASSON DRUG STORE","address1": "408 WEST MAIN ST","address2": "","city": "KASSON","state": "MN","zip": "55944","zip+4": "1142","phone": "5076343341"}
{"name": "CUB PHARMACY #1608","address1": "585 NORTHTOWN DR NE","address2": "","city": "BLAINE","state": "MN","zip": "55434","zip+4": "0000","phone": "7637807350"}
{"name": "SODERLUND VILLAGE DRUG","address1": "201 S 3RD ST","address2": "","city": "ST PETER","state": "MN","zip": "56082","zip+4": "0498","phone": "5079314410"}
{"name": "CUB PHARMACY #1613","address1": "8690 E PT DOUGLAS RD","address2": "","city": "COTTAGE GROVE","state": "MN","zip": "55016","zip+4": "0000","phone": "6514597324"}
{"name": "CUB PHARMACY #1609","address1": "7555 W BROADWAY","address2": "","city": "BROOKLYN PARK","state": "MN","zip": "55428","zip+4": "0000","phone": "7634240525"}
{"name": "WALGREEN DRUG STORE #1916","address1": "13611 GROVE DR","address2": "","city": "MAPLE GROVE","state": "MN","zip": "55311","zip+4": "0000","phone": "7634207488"}
{"name": "WALGREEN DRUG STORE #1811","address1": "3207 E LAKE ST","address2": "","city": "MINNEAPOLIS","state": "MN","zip": "55406","zip+4": "0000","phone": "6127214114"}
{"name": "WALGREEN DRUG STORE #6714","address1": "2860 COON RAPIDS BLVD","address2": "","city": "COON RAPIDS","state": "MN","zip": "55433","zip+4": "0000","phone": "7634212248"}
{"name": "HAUGANS PHARMACY","address1": "136 MAIN ST","address2": "","city": "PRESTON","state": "MN","zip": "55965","zip+4": "1202","phone": "5077652156"}
{"name": "SNYDER DRUG EMPORIUM #5652","address1": "780 WEST 66TH STREET","address2": "","city": "RICHFIELD","state": "MN","zip": "55423","zip+4": "0000","phone": "6128614710"}
{"name": "FALKS NURSING SERVICE","address1": "221 E 14TH ST","address2": "","city": "DULUTH","state": "MN","zip": "55811","zip+4": "0000","phone": "2187402650"}
{"name": "EAST OTTERTAIL PHARMACY","address1": "665 3RD ST SW","address2": "","city": "PERHAM","state": "MN","zip": "56573","zip+4": "0000","phone": "2183464550"}
{"name": "LIEBE DRUG INC #3","address1": "332 4TH BROADWAY","address2": "","city": "BROWNS VALLEY","state": "MN","zip": "56219","zip+4": "0256","phone": "3206952331"}
{"name": "NEW RICHLAND DRUG","address1": "112 S BROADWAY","address2": "","city": "NEW RICHLAND","state": "MN","zip": "56072","zip+4": "0000","phone": "5074633714"}
{"name": "WALGREEN DRUG STORE #1895","address1": "2643 CENTRAL AVE NE","address2": "","city": "MINNEAPOLIS","state": "MN","zip": "55418","zip+4": "0000","phone": "6127896205"}
{"name": "THRIFTY WHITE DRUG #731","address1": "225 PAUL BUNYAN DRIVE NW","address2": "","city": "BEMIDJI","state": "MN","zip": "56601","zip+4": "0000","phone": "2187515030"}
{"name": "CASH WISE PHARMACY #9","address1": "113 S WAITE AVE","address2": "","city": "WAITE PARK","state": "MN","zip": "56387","zip+4": "0000","phone": "3202591148"}
{"name": "SHOPKO PHARMACY #57","address1": "405 COTTONWOOD DR","address2": "","city": "WINONA","state": "MN","zip": "55987","zip+4": "1914","phone": "5074521244"}
{"name": "SNYDER'S DRUG STORE # #5062","address1": "641 MARKETPLACE DR","address2": "","city": "WACONIA","state": "MN","zip": "55387","zip+4": "0000","phone": "9524422514"}
{"name": "MAYO CLINIC PHARMACY","address1": "BRACKENRIDGE BUILDING","address2": "21 SECOND ST SW","city": "ROCHESTER","state": "MN","zip": "55902","zip+4": "3026","phone": "5072842021"}
{"name": "TARGET PHARMACY #0260","address1": "3601 S HIGHWAY 100","address2": "","city": "ST LOUIS PK","state": "MN","zip": "55416","zip+4": "0000","phone": "9529268967"}
{"name": "CUB PHARMACY #1912","address1": "250 33RD AVE S","address2": "","city": "ST CLOUD","state": "MN","zip": "56301","zip+4": "0000","phone": "3202521668"}
{"name": "PRESCRIPTION SHOPPE II","address1": "1245 WASHINGTON AVE","address2": "","city": "DETROIT LAKES","state": "MN","zip": "56501","zip+4": "3905","phone": "2188462275"}
{"name": "MIN NO AYA WIN CLINIC PHARMACY","address1": "927 TRETTEL LN","address2": "","city": "CLOQUET","state": "MN","zip": "55720","zip+4": "1345","phone": "2188791227"}
{"name": "WALGREEN DRUG STORE #1804","address1": "1739 N LEXINGTON AVE","address2": "","city": "ROSEVILLE","state": "MN","zip": "55113","zip+4": "0000","phone": "6514881962"}
{"name": "CLARISSA DRUG","address1": "210 N MAIN ST","address2": "","city": "CLARISSA","state": "MN","zip": "56440","zip+4": "0000","phone": "2187562242"}
{"name": "SNYDER'S DRUG STORE # #5005","address1": "720 WILDWOOD RD","address2": "","city": "MAHTOMEDI","state": "MN","zip": "55115","zip+4": "0000","phone": "6517778121"}
{"name": "WALGREEN DRUG STORE #2002","address1": "1611 W COUNTY RD C","address2": "","city": "ROSEVILLE","state": "MN","zip": "55113","zip+4": "0000","phone": "6516369365"}
{"name": "KMART PHARMACY #7632","address1": "2310 SOUTH HIGHWAY 29","address2": "","city": "ALEXANDRIA","state": "MN","zip": "56308","zip+4": "0000","phone": "3207637433"}
{"name": "TRUMM DRUG GLENWOOD","address1": "1 E MINNESOTA AVE","address2": "","city": "GLENWOOD","state": "MN","zip": "56334","zip+4": "0000","phone": "3206344434"}
{"name": "WALGREEN DRUG STORE #2039","address1": "815 NICOLLET MALL","address2": "","city": "MINNEAPOLIS","state": "MN","zip": "55402","zip+4": "0000","phone": "6123390167"}
{"name": "NORTH DRUG","address1": "3366 OAKDALE AVE N","address2": "STE 140","city": "ROBBINSDALE","state": "MN","zip": "55422","zip+4": "2948","phone": "7635205281"}
{"name": "WALGREEN DRUG STORE #4394","address1": "9800 LYNDALE AVE S","address2": "","city": "BLOOMINGTON","state": "MN","zip": "55420","zip+4": "0000","phone": "9528848147"}
{"name": "WALGREEN DRUG STORE #2038","address1": "3240 W LAKE ST","address2": "","city": "MINNEAPOLIS","state": "MN","zip": "55416","zip+4": "0000","phone": "6129228373"}
{"name": "WALGREEN DRUG STORE #2139","address1": "99 WEST MARYLAND","address2": "","city": "ST PAUL","state": "MN","zip": "55117","zip+4": "0000","phone": "6514871581"}
{"name": "KMART PHARMACY #9204","address1": "1401 PAUL BUNYAN DR NW","address2": "","city": "BEMIDJI","state": "MN","zip": "56601","zip+4": "0000","phone": "2187518178"}
{"name": "WALGREEN DRUG STORE #1980","address1": "4080 W BROADWAY AVE","address2": "","city": "ROBBINSDALE","state": "MN","zip": "55422","zip+4": "0000","phone": "7635377986"}
{"name": "LIEBE DRUG INC","address1": "146 2ND ST NW","address2": "","city": "ORTONVILLE","state": "MN","zip": "56278","zip+4": "1495","phone": "3208393825"}
{"name": "CUB PHARMACY #1616","address1": "1940 CLIFF LAKE RD","address2": "","city": "EAGAN","state": "MN","zip": "55122","zip+4": "0000","phone": "6514545150"}
{"name": "GUIDEPOINT PHARMACY #104","address1": "923 6TH AVE","address2": "","city": "WORTHINGTON","state": "MN","zip": "56187","zip+4": "0000","phone": "5073727371"}
{"name": "ALLINA COMMUNITY PHARMACIES #1","address1": "333 SMITH AVE N","address2": "","city": "SAINT PAUL","state": "MN","zip": "55102","zip+4": "2344","phone": "6512418849"}
{"name": "HEALTHPARTNERS RIVERSIDE PHARM","address1": "2220 RIVERSIDE AVE S","address2": "","city": "MINNEAPOLIS","state": "MN","zip": "55454","zip+4": "1439","phone": "6123711621"}
{"name": "MAIN STREET PHARMACY","address1": "24 3RD ST NE","address2": "","city": "OSSEO","state": "MN","zip": "55369","zip+4": "0000","phone": "7634935242"}
{"name": "TARGET PHARMACY #0360","address1": "2000 CLIFF LAKE RD","address2": "","city": "EAGAN","state": "MN","zip": "55122","zip+4": "0000","phone": "6516888947"}
{"name": "GUIDEPOINT PHARMACY #102","address1": "202 N BROADWAY","address2": "","city": "ROCHESTER","state": "MN","zip": "55906","zip+4": "0000","phone": "5072886463"}
{"name": "WALGREEN DRUG STORE #2196","address1": "5415 LYNDALE","address2": "","city": "MINNEAPOLIS","state": "MN","zip": "55419","zip+4": "0000","phone": "6128240684"}
{"name": "WALGREEN DRUG STORE #09795","address1": "1585 RANDOLPH AVE","address2": "","city": "ST PAUL","state": "MN","zip": "55105","zip+4": "2149","phone": "6516986150"}
{"name": "PRESCRIPTION CENTER","address1": "1110 SOUTH FIRST STREET","address2": "","city": "WILLMAR","state": "MN","zip": "56201","zip+4": "3512","phone": "3202352440"}
{"name": "PARK NICOLLET PHARMACY","address1": "3931 LOUISIANA AVE S","address2": "","city": "ST LOUIS PARK","state": "MN","zip": "55426","zip+4": "0000","phone": "9529935764"}
{"name": "SNYDERS DRUG STORE #6315","address1": "126 N 5TH ST","address2": "","city": "BRECKENRIDGE","state": "MN","zip": "56520","zip+4": "1421","phone": "2186433871"}
{"name": "PAMIDA PHARMACY #311","address1": "100 EVERGREEN SQ SW","address2": "","city": "PINE CITY","state": "MN","zip": "55063","zip+4": "2000","phone": "3206293003"}
{"name": "CUB PHARMACY #1913","address1": "2850 26TH AVE S","address2": "","city": "MINNEAPOLIS","state": "MN","zip": "55406","zip+4": "0000","phone": "6127215840"}
{"name": "WALGREEN DRUG STORE #2142","address1": "734 GRAND","address2": "","city": "ST PAUL","state": "MN","zip": "55105","zip+4": "0000","phone": "6512275046"}
{"name": "ST OLAF PHARMACY","address1": "1000 1ST DR NW","address2": "","city": "AUSTIN","state": "MN","zip": "55912","zip+4": "2941","phone": "5074341422"}
{"name": "CASH WISE PHARMACY #4","address1": "1300 5TH ST SE","address2": "","city": "WILLMAR","state": "MN","zip": "56201","zip+4": "0000","phone": "3202352506"}
{"name": "TRUMM DRUG PARKERS PRAIRIE","address1": "114 E SOO ST","address2": "","city": "PARKERS PRAIRIE","state": "MN","zip": "56361","zip+4": "0000","phone": "2183382661"}
{"name": "NOBLE DRUG","address1": "111 N MAIN AVE","address2": "","city": "BAUDETTE","state": "MN","zip": "56623","zip+4": "0000","phone": "2186341236"}
{"name": "PAMIDA PHARMACY #316","address1": "421 GATEWAY DR NE","address2": "","city": "EAST GRAND FORKS","state": "MN","zip": "56721","zip+4": "1619","phone": "2187730940"}
{"name": "FAIRVIEW EDINA PHARMACY #14","address1": "6363 FRANCE AVENUE SOUTH","address2": "","city": "EDINA","state": "MN","zip": "55435","zip+4": "0000","phone": "9529241400"}
{"name": "PAMIDA PHARMACY #317","address1": "520 EAST HWY 12 SUITE 110","address2": "STE 110","city": "LITCHFIELD","state": "MN","zip": "55355","zip+4": "2449","phone": "3206937034"}
{"name": "MEDICINE SHOPPE #1029","address1": "329 E HWY 12","address2": "","city": "LITCHFIELD","state": "MN","zip": "55355","zip+4": "2260","phone": "3206939314"}
{"name": "WALGREEN DRUG STORE #4119","address1": "4547 HIAWATHA","address2": "","city": "MINNEAPOLIS","state": "MN","zip": "55406","zip+4": "0000","phone": "6127224554"}
{"name": "ANOKA DRUG AND GIFTS","address1": "530 W MAIN ST","address2": "","city": "ANOKA","state": "MN","zip": "55303","zip+4": "2063","phone": "7634212811"}
{"name": "CAREMARK MINNESOTA SPECIALTY P","address1": "1891 WEST COUNTY ROAD","address2": "STE C","city": "ROSEVILLE","state": "MN","zip": "55113","zip+4": "1304","phone": "6518463260"}
{"name": "KMART PHARMACY #3779","address1": "2107 NORTH GARDEN ST","address2": "","city": "NEW ULM","state": "MN","zip": "56073","zip+4": "0000","phone": "5073591525"}
{"name": "KMART PHARMACY #3780","address1": "1001 HWY 23 BYPASS","address2": "","city": "MARSHALL","state": "MN","zip": "56258","zip+4": "0000","phone": "5075324379"}
{"name": "PARK NICOLLET PHARMACY","address1": "250 NORTH CENTRAL AVENUE","address2": "","city": "WAYZATA","state": "MN","zip": "55391","zip+4": "0000","phone": "9529938200"}
{"name": "TARGET PHARMACY #0643","address1": "15150 CEDAR AVE S","address2": "","city": "APPLE VALLEY","state": "MN","zip": "55124","zip+4": "0000","phone": "9528915515"}
{"name": "SUPERIOR HEALTH PHARMACY","address1": "99 EDISON BLVD","address2": "","city": "SILVER BAY","state": "MN","zip": "55614","zip+4": "0000","phone": "2182263829"}
{"name": "MEDICAL PHARMACY MOORHEAD","address1": "101 11TH STREET SOUTH","address2": "","city": "MOORHEAD","state": "MN","zip": "56560","zip+4": "2899","phone": "2182337365"}
{"name": "CUB PHARMACY #1914","address1": "12900 RIVERDALE DR","address2": "","city": "COON RAPIDS","state": "MN","zip": "55448","zip+4": "0000","phone": "7634210065"}
{"name": "KMART PHARMACY #3866","address1": "300 WEST 7TH ST","address2": "","city": "MONTICELLO","state": "MN","zip": "55362","zip+4": "0000","phone": "7632950050"}
{"name": "WAL-MART PHARMACY #101562","address1": "13020 RIVERDALE DRIVE","address2": "","city": "COON RAPIDS","state": "MN","zip": "55448","zip+4": "0000","phone": "7634215717"}
{"name": "GOODRICH PHARMACY ELK RIVER","address1": "530 3RD ST","address2": "","city": "ELK RIVER","state": "MN","zip": "55330","zip+4": "1426","phone": "7634410764"}
{"name": "KMART PHARMACY #7620","address1": "THUNDERBIRD MALL 1401 12TH AVE","address2": "","city": "VIRGINIA","state": "MN","zip": "55792","zip+4": "0000","phone": "2187494014"}
{"name": "WALGREEN DRUG STORE #5882","address1": "4200 WINNETKA AVE","address2": "","city": "NEW HOPE","state": "MN","zip": "55428","zip+4": "0000","phone": "7635453616"}
{"name": "KMART PHARMACY #3775","address1": "1305 HIGHWAY 10 WEST","address2": "","city": "DETROIT LAKES","state": "MN","zip": "56501","zip+4": "0000","phone": "2188479755"}
{"name": "WAL-MART PHARMACY #101609","address1": "1400 SOUTH POKEGAMA AVENUE","address2": "","city": "GRAND RAPIDS","state": "MN","zip": "55744","zip+4": "0000","phone": "2183269401"}
{"name": "VALLEY PHARMACY","address1": "501 NORTH PARK DR","address2": "","city": "SPRING VALLEY","state": "MN","zip": "55975","zip+4": "9300","phone": "5073467273"}
{"name": "FAIRVIEW RIDGEVIEW PHARMACY #1","address1": "303 EAST NICOLLET BOULEVARD","address2": "","city": "BURNSVILLE","state": "MN","zip": "55337","zip+4": "0000","phone": "9528922640"}
{"name": "WAL-MART PHARMACY #101627","address1": "415 34TH ST. NO.","address2": "","city": "DILWORTH","state": "MN","zip": "56529","zip+4": "0000","phone": "2182337545"}
{"name": "WAL-MART PHARMACY #101632","address1": "4611 HWY 29 SO","address2": "","city": "ALEXANDRIA","state": "MN","zip": "56308","zip+4": "0000","phone": "3207622850"}
{"name": "WAL-MART PHARMACY #101633","address1": "380 33RD AVENUE SOUTH","address2": "","city": "ST CLOUD","state": "MN","zip": "56301","zip+4": "0000","phone": "3202596363"}
{"name": "CUB PHARMACY #1650","address1": "3550 VICKSBURG LN N","address2": "","city": "PLYMOUTH","state": "MN","zip": "55447","zip+4": "0000","phone": "7635532627"}
{"name": "KMART PHARMACY #3777","address1": "SOUTH HIGHWAY 3","address2": "","city": "DUNDAS","state": "MN","zip": "55019","zip+4": "0000","phone": "5076455855"}
{"name": "PARK NICOLLET PHARMACY","address1": "3800 PARK NICOLLET BLVD","address2": "","city": "ST LOUIS PARK","state": "MN","zip": "55416","zip+4": "0000","phone": "9529933148"}
{"name": "PARK NICOLLET PHARMACY","address1": "15111 TWELVE OAKS CENTER DRIVE","address2": "","city": "MINNETONKA","state": "MN","zip": "55305","zip+4": "0000","phone": "9529934643"}
{"name": "PARK NICOLLET PHARMACY","address1": "6000 EARLE BROWN DRIVE","address2": "","city": "BROOKLYN CENTER","state": "MN","zip": "55430","zip+4": "0000","phone": "9529934800"}
{"name": "WALGREEN DRUG STORE #5883","address1": "6800 BASS LAKE RD","address2": "","city": "CRYSTAL","state": "MN","zip": "55428","zip+4": "0000","phone": "7635332224"}
{"name": "PINE ISLAND PHARMACY","address1": "111 CTY ROAD 11","address2": "","city": "PINE ISLAND","state": "MN","zip": "55963","zip+4": "9756","phone": "5073568343"}
{"name": "WAL-MART PHARMACY #101654","address1": "7295 GLORY ROAD","address2": "","city": "BAXTER","state": "MN","zip": "56425","zip+4": "0000","phone": "2188295510"}
{"name": "WALGREEN DRUG STORE #2509","address1": "4916 FRANCE AVE S","address2": "","city": "EDINA","state": "MN","zip": "55410","zip+4": "0000","phone": "9529275616"}
{"name": "CITY CENTER DRUG AND HARDWARE","address1": "117 FRONT ST S","address2": "","city": "BARNESVILLE","state": "MN","zip": "56514","zip+4": "0000","phone": "2183542131"}
{"name": "TARGET PHARMACY #0658","address1": "3301 HWY 10 E","address2": "","city": "MOORHEAD","state": "MN","zip": "56560","zip+4": "0000","phone": "2182332953"}
{"name": "TARGET PHARMACY #0659","address1": "14546 DELLWOOD DR N","address2": "","city": "BAXTER","state": "MN","zip": "56425","zip+4": "0000","phone": "2188289219"}
{"name": "TARGET PHARMACY #0662","address1": "8655 E PT DOUGLAS","address2": "","city": "COTTAGE GRV","state": "MN","zip": "55016","zip+4": "0000","phone": "6514588219"}
{"name": "TARGET PHARMACY #0663","address1": "1850 ADAMS ST","address2": "","city": "MANKATO","state": "MN","zip": "56001","zip+4": "0000","phone": "5076259009"}
{"name": "TARGET PHARMACY #0215","address1": "4201 W DIVISION ST","address2": "","city": "ST CLOUD","state": "MN","zip": "56303","zip+4": "0000","phone": "3202534646"}
{"name": "CUB PHARMACY #1915","address1": "2001 S ROBERT ST","address2": "","city": "WEST ST PAUL","state": "MN","zip": "55118","zip+4": "0000","phone": "6514511113"}
{"name": "WAL-MART PHARMACY #101634","address1": "15091 18TH ST NE","address2": "","city": "LITTLE FALLS","state": "MN","zip": "56345","zip+4": "0000","phone": "3206323644"}
{"name": "WALGREEN DRUG STORE #2496","address1": "14700 LAC LAVON DR","address2": "","city": "BURNSVILLE","state": "MN","zip": "55306","zip+4": "0000","phone": "9524321990"}
{"name": "ADA PHARMACY","address1": "319 W MAIN ST","address2": "","city": "ADA","state": "MN","zip": "56510","zip+4": "0000","phone": "2187844351"}
{"name": "HY VEE PHARMACY #1441","address1": "2015 S BROADWAY","address2": "","city": "NEW ULM","state": "MN","zip": "56073","zip+4": "0000","phone": "5073549833"}
{"name": "KMART PHARMACY #9537","address1": "1403 WEST LINCOLN AVE","address2": "","city": "FERGUS FALLS","state": "MN","zip": "56537","zip+4": "0000","phone": "2187392670"}
{"name": "TARGET PHARMACY #0664","address1": "4175 VINEWOOD LANE N","address2": "","city": "PLYMOUTH","state": "MN","zip": "55441","zip+4": "0000","phone": "7635531757"}
{"name": "TARGET PHARMACY #0619","address1": "3800 N LEXINGTON AVE","address2": "","city": "SHOREVIEW","state": "MN","zip": "55126","zip+4": "0000","phone": "6514860649"}
{"name": "KMART PHARMACY #3897","address1": "1100 WEST HIGHWAY 10","address2": "","city": "ANOKA","state": "MN","zip": "55303","zip+4": "0000","phone": "7634277699"}
{"name": "WAL-MART PHARMACY #101696","address1": "3300 HIGHWAY 210 WEST","address2": "","city": "FERGUS FALLS","state": "MN","zip": "56537","zip+4": "0000","phone": "2187395559"}
{"name": "WAL-MART PHARMACY #101722","address1": "1221 EAST MAIN STREET","address2": "","city": "MARSHALL","state": "MN","zip": "56258","zip+4": "0000","phone": "5075329150"}
{"name": "CUB PHARMACY #1604","address1": "15350 CEDAR AVE","address2": "","city": "APPLE VALLEY","state": "MN","zip": "55124","zip+4": "0000","phone": "9524312221"}
{"name": "WALGREEN DRUG STORE #2769","address1": "915 WILDWOOD RD","address2": "","city": "WHITE BEAR LAKE","state": "MN","zip": "55115","zip+4": "0000","phone": "6514267333"}
{"name": "WALGREEN DRUG STORE #2661","address1": "15250 CEDAR AVE","address2": "","city": "APPLE VALLEY","state": "MN","zip": "55124","zip+4": "0000","phone": "9524324949"}
{"name": "SYNDER DRUG EMPORIUM #5066","address1": "14625 EXCELSIOR BLVD","address2": "","city": "MINNETONKA","state": "MN","zip": "55345","zip+4": "0000","phone": "9529329058"}
{"name": "WALGREEN DRUG STORE #2713","address1": "2426 HENNEPIN AVE S","address2": "","city": "MINNEAPOLIS","state": "MN","zip": "55405","zip+4": "0000","phone": "6123772733"}
{"name": "WALGREEN DRUG STORE #02734","address1": "7040 VALLEY CREEK","address2": "","city": "WOODBURY","state": "MN","zip": "55125","zip+4": "1559","phone": "6517314778"}
{"name": "HY VEE PHARMACY 2 #1548","address1": "500 37TH STREET NW","address2": "","city": "ROCHESTER","state": "MN","zip": "55901","zip+4": "0000","phone": "5072897408"}
{"name": "WAL-MART PHARMACY #101738","address1": "1300 TRUNK HWY 15 S.","address2": "","city": "HUTCHINSON","state": "MN","zip": "55350","zip+4": "0000","phone": "3205871023"}
{"name": "RITCHIE MEDICAL PLAZA PHARMACY","address1": "280 SMITH AVE","address2": "SUITE 120","city": "SAINT PAUL","state": "MN","zip": "55102","zip+4": "0000","phone": "6512416380"}
{"name": "SNYDER'S DRUG STORE # #5039","address1": "1865 WAYZATA BLVD","address2": "","city": "LONG LAKE","state": "MN","zip": "55356","zip+4": "0000","phone": "9524733569"}
{"name": "TARGET PHARMACY #0693","address1": "7535 W BROADWAY","address2": "","city": "BROOKLYN PK","state": "MN","zip": "55443","zip+4": "0000","phone": "7634255300"}
{"name": "TARGET PHARMACY #0694","address1": "7200 VALLEY CRK PLAZA","address2": "","city": "WOODBURY","state": "MN","zip": "55125","zip+4": "0000","phone": "6517359517"}
{"name": "WAL-MART PHARMACY #101757","address1": "4740 MALL DRIVE","address2": "","city": "HERMANTOWN","state": "MN","zip": "55811","zip+4": "0000","phone": "2187274625"}
{"name": "CUB PHARMACY #1916","address1": "4801 HWY 101","address2": "","city": "MINNETONKA","state": "MN","zip": "55345","zip+4": "0000","phone": "9529351053"}
{"name": "FAIRVIEW NORTHLAND PHARMACY ZI","address1": "25945 GATEWAY DRIVE","address2": "","city": "ZIMMERMAN","state": "MN","zip": "55398","zip+4": "0000","phone": "7638566940"}
{"name": "CUB PHARMACY #1917","address1": "8015 DEN RD","address2": "","city": "EDEN PRAIRIE","state": "MN","zip": "55344","zip+4": "0000","phone": "9529416728"}
{"name": "PAMIDA PHARMACY #329","address1": "200 PAUL BUNYAN DR S","address2": "","city": "BEMIDJI","state": "MN","zip": "56601","zip+4": "3241","phone": "2187518063"}
{"name": "WALGREEN DRUG STORE #2768","address1": "10 BENTON DRIVE SOUTH","address2": "","city": "SAUK RAPIDS","state": "MN","zip": "56379","zip+4": "0000","phone": "3202533402"}
{"name": "WALGREEN DRUG STORE #2510","address1": "14201 MORGAN AVE S","address2": "","city": "BURNSVILLE","state": "MN","zip": "55306","zip+4": "0000","phone": "9528927577"}
{"name": "PAMIDA PHARMACY #331","address1": "226 E LINCOLN AVE","address2": "","city": "FERGUS FALLS","state": "MN","zip": "56537","zip+4": "2237","phone": "2187367531"}
{"name": "GERITOM MED INC","address1": "10501 FLORIDA AVE SO","address2": "","city": "BLOOMINGTON","state": "MN","zip": "55438","zip+4": "0000","phone": "9528541190"}
{"name": "TARGET PHARMACY #0820","address1": "8600 SPRINGBROOK DR","address2": "","city": "COON RAPIDS","state": "MN","zip": "55433","zip+4": "0000","phone": "7637850720"}
{"name": "TARGET PHARMACY #0821","address1": "4404 HWY 29 S","address2": "","city": "ALEXANDRIA","state": "MN","zip": "56308","zip+4": "0000","phone": "3207637393"}
{"name": "BROWNELL DRUG","address1": "401 WEST FOURTH ST","address2": "","city": "ST CHARLES","state": "MN","zip": "55972","zip+4": "1198","phone": "5079323160"}
{"name": "SHOPKO PHARMACY #23","address1": "125 MAIN ST N","address2": "","city": "HUTCHINSON","state": "MN","zip": "55350","zip+4": "1807","phone": "3205874941"}
{"name": "WAL-MART PHARMACY #101786","address1": "1360 TOWN CENTRE DRIVE","address2": "","city": "EAGAN","state": "MN","zip": "55123","zip+4": "0000","phone": "6516867431"}
{"name": "SNYDER'S DRUG STORE # #5088","address1": "1750 WEIR DRIVE","address2": "","city": "WOODBURY","state": "MN","zip": "55125","zip+4": "0000","phone": "6517388846"}
{"name": "MAYO CLINIC PHARMACY BALDWIN","address1": "221 FOURTH AVE SW","address2": "","city": "ROCHESTER","state": "MN","zip": "55902","zip+4": "0000","phone": "5072842021"}
{"name": "WALGREEN DRUG STORE #2767","address1": "4005 VINEWOOD LANE","address2": "","city": "PLYMOUTH","state": "MN","zip": "55442","zip+4": "0000","phone": "7635539628"}
{"name": "WAL-MART PHARMACY #101858","address1": "3001 EAST HWY 7","address2": "","city": "MONTEVIDEO","state": "MN","zip": "56265","zip+4": "0000","phone": "3202695496"}
{"name": "WAL-MART PHARMACY #101861","address1": "5815 NORELL AVE","address2": "","city": "OAK PARK HEIGHTS","state": "MN","zip": "55082","zip+4": "0000","phone": "6514397630"}
{"name": "WAL-MART PHARMACY #101864","address1": "8000 LAKELAND AVENUE","address2": "","city": "BROOKLYN PARK","state": "MN","zip": "55445","zip+4": "0000","phone": "7634247077"}
{"name": "WAL-MART PHARMACY #101865","address1": "1410 EAST BRIDGE STREET","address2": "","city": "REDWOOD FALLS","state": "MN","zip": "56283","zip+4": "0000","phone": "5076446000"}
{"name": "NE IA SHING CLINIC PHARMACY","address1": "43500 MIGIZI DR","address2": "","city": "ONAMIA","state": "MN","zip": "56359","zip+4": "0000","phone": "3205324770"}
{"name": "PAMIDA PHARMACY #328","address1": "190 SOUTHGATE DR","address2": "","city": "AITKIN","state": "MN","zip": "56431","zip+4": "7407","phone": "2189272466"}
{"name": "CHANHASSEN CENTER DRUG","address1": "7896 MARKET BLVD","address2": "","city": "CHANHASSEN","state": "MN","zip": "55317","zip+4": "0000","phone": "9529491002"}
{"name": "WALGREEN DRUG STORE #2766","address1": "2010 CLIFF ROAD","address2": "","city": "EAGAN","state": "MN","zip": "55122","zip+4": "0000","phone": "6516866695"}
{"name": "DRUG EXPRESS AND VARIETY GALOR","address1": "1101 1ST ST NE","address2": "","city": "NEW PRAGUE","state": "MN","zip": "56071","zip+4": "0000","phone": "9527585262"}
{"name": "CASH WISE PHARMACY #14","address1": "495 WEST N ST","address2": "","city": "OWATONNA","state": "MN","zip": "55060","zip+4": "0000","phone": "5074517886"}
{"name": "WAL-MART PHARMACY #101855","address1": "12195 SINGLETREE LANE","address2": "","city": "EDEN PRAIRIE","state": "MN","zip": "55344","zip+4": "0000","phone": "9528299030"}
{"name": "WAL-MART PHARMACY #101929","address1": "1308 HWY 33 SOUTH","address2": "","city": "CLOQUET","state": "MN","zip": "55720","zip+4": "0000","phone": "2188780676"}
{"name": "WAL-MART PHARMACY #101971","address1": "3400 NORTH WEST 55TH STREET","address2": "","city": "ROCHESTER","state": "MN","zip": "55901","zip+4": "0000","phone": "5072807665"}
{"name": "HEALTHPARTNERS WOODBURY PHARMA","address1": "8450 SEASONS PKWY","address2": "","city": "WOODBURY","state": "MN","zip": "55125","zip+4": "0000","phone": "6517025308"}
{"name": "HEALTHPARTNERS MIDWAY PHARMACY","address1": "451 DUNLAP ST N","address2": "","city": "SAINT PAUL","state": "MN","zip": "55104","zip+4": "4619","phone": "6519994822"}
{"name": "HEALTHPARTNERS INVER GROVE HEI","address1": "5625 CENEX DR","address2": "","city": "INVER GROVE HEIGHT","state": "MN","zip": "55077","zip+4": "1724","phone": "6515522603"}
{"name": "HEALTHPARTNERS ARDEN HILLS PHA","address1": "3930 NORTHWOODS DR","address2": "","city": "ARDEN HILLS","state": "MN","zip": "55112","zip+4": "6974","phone": "6514906722"}
{"name": "HEALTHPARTNERS COON RAPIDS PHA","address1": "11475 ROBINSON DR NW","address2": "","city": "COON RAPIDS","state": "MN","zip": "55433","zip+4": "7432","phone": "7637544603"}
{"name": "WAL-MART PHARMACY #101577","address1": "1315 HWY 25 NORTH","address2": "","city": "BUFFALO","state": "MN","zip": "55313","zip+4": "0000","phone": "7636822963"}
{"name": "WAL-MART PHARMACY #101470","address1": "700 19TH AVE SE","address2": "","city": "WILLMAR","state": "MN","zip": "56201","zip+4": "0000","phone": "3202313313"}
{"name": "WAL-MART PHARMACY #101472","address1": "1752 NO. FRONTAGE","address2": "","city": "HASTINGS","state": "MN","zip": "55033","zip+4": "0000","phone": "6514383030"}
{"name": "WAL-MART PHARMACY #101473","address1": "1881 MADISON AVENUE","address2": "","city": "MANKATO","state": "MN","zip": "56001","zip+4": "0000","phone": "5076251660"}
{"name": "WAL-MART PHARMACY #101657","address1": "150 WESTERN AVENUE","address2": "","city": "FARIBAULT","state": "MN","zip": "55021","zip+4": "0000","phone": "5073320084"}
{"name": "COBORNS PHARMACY #2035","address1": "900 COOPER AVE SO","address2": "","city": "SAINT CLOUD","state": "MN","zip": "56301","zip+4": "0000","phone": "3202521515"}
{"name": "WAL-MART PHARMACY #100982","address1": "1130 W FRONTAGE RD","address2": "","city": "OWATONNA","state": "MN","zip": "55060","zip+4": "0000","phone": "5074513323"}
{"name": "WAL-MART PHARMACY #100983","address1": "1210 GIANT DRIVE","address2": "","city": "BLUE EARTH","state": "MN","zip": "56013","zip+4": "0000","phone": "5075264514"}
{"name": "WAL-MART PHARMACY #101038","address1": "2103 STATE ST. N","address2": "","city": "WASECA","state": "MN","zip": "56093","zip+4": "0000","phone": "5078358184"}
{"name": "WAL-MART PHARMACY #101952","address1": "8450 UNIVERSITY AVENUE NE","address2": "","city": "FRIDLEY","state": "MN","zip": "55432","zip+4": "0000","phone": "7637809500"}
{"name": "CASH WISE PHARMACY #11","address1": "1020 HWY 15 S","address2": "","city": "HUTCHINSON","state": "MN","zip": "55350","zip+4": "0000","phone": "3205878070"}
{"name": "WALGREEN DRUG STORE #6280","address1": "16395 WAGNER WAY","address2": "","city": "EDEN PRAIRIE","state": "MN","zip": "55344","zip+4": "0000","phone": "9529371509"}
{"name": "PAMIDA PHARMACY #335","address1": "705 NORTHLAND DR","address2": "","city": "PRINCETON","state": "MN","zip": "55371","zip+4": "2168","phone": "7633893111"}
{"name": "TARGET PHARMACY #0847","address1": "1001 13TH STREET S","address2": "","city": "VIRGINIA","state": "MN","zip": "55792","zip+4": "0000","phone": "2187416603"}
{"name": "CROSSLAKE DRUG","address1": "36072 COUNTY ROAD 66","address2": "","city": "CROSSLAKE","state": "MN","zip": "56442","zip+4": "0578","phone": "2186922502"}
{"name": "WALGREEN DRUG STORE #2936","address1": "2635 RICE STREET","address2": "","city": "ROSEVILLE","state": "MN","zip": "55113","zip+4": "0000","phone": "6514833673"}
{"name": "RANGE DRUG INC","address1": "20 W MAIN ST","address2": "","city": "CROSBY","state": "MN","zip": "56441","zip+4": "1422","phone": "2185465144"}
{"name": "TARGET PHARMACY #0861","address1": "1300 STATE HWY 55 E","address2": "","city": "BUFFALO","state": "MN","zip": "55313","zip+4": "0000","phone": "7636825633"}
{"name": "DRUG EXPRESS AND VARIRTY GALOR","address1": "32 E MINNESOTA ST","address2": "","city": "LE CENTER","state": "MN","zip": "56057","zip+4": "1502","phone": "5073574131"}
{"name": "TARGET PHARMACY #0862","address1": "851 W 78TH ST","address2": "","city": "CHANHASSEN","state": "MN","zip": "55317","zip+4": "0000","phone": "9524701006"}
{"name": "WALGREEN DRUG STORE #3114","address1": "6975 YORK AVE S","address2": "","city": "EDINA","state": "MN","zip": "55435","zip+4": "0000","phone": "9529201731"}
{"name": "SHOPKO PHARMACY #114","address1": "801 W CENTRAL ENTRANCE","address2": "","city": "DULUTH","state": "MN","zip": "55811","zip+4": "5468","phone": "2187277139"}
{"name": "SHOPKO PHARMACY #25","address1": "1200 SUSAN DR","address2": "","city": "MARSHALL","state": "MN","zip": "56258","zip+4": "2580","phone": "5075379650"}
{"name": "CUB PHARMACY #1918","address1": "1059 MEADOWLANDS DR","address2": "","city": "WHITE BEAR LAKE","state": "MN","zip": "55127","zip+4": "0000","phone": "6514265006"}
{"name": "CUB PHARMACY #1600","address1": "8150 WEDGEASTWOOD LN","address2": "","city": "MAPLE GROVE","state": "MN","zip": "55369","zip+4": "0000","phone": "7634948355"}
{"name": "COBORNS PHARMACY #1","address1": "110 FIRST ST S","address2": "","city": "SAUK RAPIDS","state": "MN","zip": "56379","zip+4": "0000","phone": "3202409777"}
{"name": "CUB PHARMACY #1603","address1": "615 W CENTRAL ENTRANCE","address2": "","city": "DULUTH","state": "MN","zip": "55811","zip+4": "0000","phone": "2187273010"}
{"name": "COBORNS PHARMACY #5","address1": "2118 8TH ST N","address2": "","city": "SAINT CLOUD","state": "MN","zip": "56303","zip+4": "0000","phone": "3202550054"}
{"name": "PAMIDA PHARMACY #337","address1": "340 HIGHWAY 65 S","address2": "","city": "MORA","state": "MN","zip": "55051","zip+4": "1619","phone": "3206795950"}
{"name": "PAMIDA PHARMACY #338","address1": "2155 1ST AVE N","address2": "","city": "WINDOM","state": "MN","zip": "56101","zip+4": "1286","phone": "5078310263"}
{"name": "WALGREEN DRUG STORE #2935","address1": "10686 UNIVERSITY NW","address2": "","city": "COON RAPIDS","state": "MN","zip": "55448","zip+4": "0000","phone": "7637551257"}
{"name": "CENTRACARE PHARMACY HEARTLAND","address1": "1520 WHITNEY CT","address2": "","city": "ST CLOUD","state": "MN","zip": "56303","zip+4": "0000","phone": "3202403160"}
{"name": "TRUMM DRUG ELBOW LAKE","address1": "11 CENTRAL AVE S","address2": "","city": "ELBOW LAKE","state": "MN","zip": "56531","zip+4": "0000","phone": "2186854471"}
{"name": "WALGREEN DRUG STORE #3122","address1": "985 GENEVA AVE","address2": "","city": "OAKDALE","state": "MN","zip": "55128","zip+4": "0000","phone": "6517318477"}
{"name": "TARGET PHARMACY #0904","address1": "2140 S POKEGAMA AVE","address2": "","city": "GRAND RAPIDS","state": "MN","zip": "55744","zip+4": "0000","phone": "2183266412"}
{"name": "LAKES AREA PHARMACY","address1": "417 BARCLAY AVE","address2": "","city": "PINE RIVER","state": "MN","zip": "56474","zip+4": "0488","phone": "2185873222"}
{"name": "WAL-MART PHARMACY #102087","address1": "850 EAST COUNTY RD E","address2": "","city": "VADNAIS HEIGHTS","state": "MN","zip": "55127","zip+4": "0000","phone": "6514867005"}
{"name": "WALGREEN DRUG STORE #3293","address1": "9273 LAKE DRIVE","address2": "","city": "LEXINGTON","state": "MN","zip": "55014","zip+4": "0000","phone": "7637837002"}
{"name": "ABBOTT NORTHWESTERN PIPER BLDG","address1": "800 E 28TH ST","address2": "STE 102","city": "MINNEAPOLIS","state": "MN","zip": "55407","zip+4": "0000","phone": "6128635370"}
{"name": "COBORNS PHARMACY #22","address1": "214 12TH AVE","address2": "","city": "SAUK CENTRE","state": "MN","zip": "56378","zip+4": "0000","phone": "3203525280"}
{"name": "TARGET PHARMACY #0930","address1": "125 LINCOLN AVE SE","address2": "","city": "ST CLOUD","state": "MN","zip": "56304","zip+4": "0000","phone": "3206540712"}
{"name": "TARGET PHARMACY #0931","address1": "2021 MARKET DRIVE","address2": "","city": "STILLWATER","state": "MN","zip": "55082","zip+4": "0000","phone": "6514390992"}
{"name": "NORTHLAND PHARMACY","address1": "1000 E 1ST ST","address2": "STE 100","city": "DULUTH","state": "MN","zip": "55805","zip+4": "2297","phone": "2182492460"}
{"name": "WALGREEN DRUG STORE #3423","address1": "1911 FERRY ST","address2": "","city": "ANOKA","state": "MN","zip": "55303","zip+4": "0000","phone": "7635760392"}
{"name": "ALLINA COMMUNITY PHARMACIES #5","address1": "2855 CAMPUS DR","address2": "","city": "PLYMOUTH","state": "MN","zip": "55441","zip+4": "2616","phone": "7635777007"}
{"name": "FAIRVIEW SOUTHDALE MEDICAL PHA","address1": "6545 FRANCE AVENUE SOUTH","address2": "SUITE 100","city": "EDINA","state": "MN","zip": "55435","zip+4": "0000","phone": "9529241499"}
{"name": "MEDICINE SHOPPE PHARMACY #1349","address1": "1678 S ROBERT STREET","address2": "","city": "WEST ST PAUL","state": "MN","zip": "55118","zip+4": "0000","phone": "6514556873"}
{"name": "REGIONS HOSPITAL PHARMACY","address1": "640 JACKSON ST","address2": "","city": "ST PAUL","state": "MN","zip": "55101","zip+4": "2595","phone": "6512543592"}
{"name": "PAMIDA PHARMACY #347","address1": "300 JAKE ST","address2": "","city": "PERHAM","state": "MN","zip": "56573","zip+4": "0010","phone": "2183467751"}
{"name": "APRIA HEALTHCARE #047","address1": "131 CHESHIRE LANE","address2": "SUITE 500","city": "MINNETONKA","state": "MN","zip": "55305","zip+4": "0000","phone": "8003503444"}
{"name": "COBORNS PHARMACY #6","address1": "1105 2ND AVE N","address2": "","city": "LITTLE FALLS","state": "MN","zip": "56345","zip+4": "0000","phone": "3206322380"}
{"name": "CUB PHARMACY #1601","address1": "5301 36TH AVE N","address2": "","city": "CRYSTAL","state": "MN","zip": "55422","zip+4": "0000","phone": "7632879797"}
{"name": "COBORNS PHARMACY #7","address1": "707 1ST AVE N","address2": "","city": "SARTELL","state": "MN","zip": "56377","zip+4": "0000","phone": "3206568888"}
{"name": "SNYDER'S DRUG STORE # #5007","address1": "24 ASPEN AVE NE","address2": "","city": "MENAHGA","state": "MN","zip": "56464","zip+4": "0000","phone": "2185644511"}
{"name": "CAREPLUS CVS PHARMACY #02918","address1": "6 PINETREE DRIVE SUITE 290","address2": "NORTHPARK CENTER","city": "ARDEN HILLS","state": "MN","zip": "55112","zip+4": "0000","phone": "6514811089"}
{"name": "FOND DU LAC CAIR PHARMACY","address1": "211 WEST 4TH ST","address2": "","city": "DULUTH","state": "MN","zip": "55806","zip+4": "0000","phone": "2182794142"}
{"name": "TARGET PHARMACY #2456","address1": "15800 87TH ST NE","address2": "","city": "OSTEGO","state": "MN","zip": "55330","zip+4": "6546","phone": "7632521316"}
{"name": "CUB PHARMACY #1920","address1": "5937 NICOLLET AVE","address2": "","city": "MINNEAPOLIS","state": "MN","zip": "55419","zip+4": "0000","phone": "6128669921"}
{"name": "WAL-MART PHARMACY #102274","address1": "200 SW 12TH ST","address2": "","city": "FOREST LAKE","state": "MN","zip": "55025","zip+4": "0000","phone": "6514649742"}
{"name": "CORAM SPECIALTY INFUSION SERVI","address1": "2345 WATERS DR","address2": "","city": "MENDOTA HEIGHTS","state": "MN","zip": "55120","zip+4": "0000","phone": "6514525600"}
{"name": "FALKS LAKESIDE PHARMACY","address1": "4507 E SUPERIOR ST","address2": "","city": "DULUTH","state": "MN","zip": "55804","zip+4": "0000","phone": "2185251916"}
{"name": "CUB PHARMACY #1614","address1": "1440 UNIVERSITY","address2": "","city": "ST PAUL","state": "MN","zip": "55104","zip+4": "0000","phone": "6516468858"}
{"name": "DULUTH CLINIC HERMANTOWN PHCY","address1": "4855 W ARROWHEAD","address2": "","city": "HERMANTOWN","state": "MN","zip": "55811","zip+4": "3936","phone": "2187863549"}
{"name": "PAMIDA PHARMACY #354","address1": "3225 10TH ST E","address2": "","city": "GLENCOE","state": "MN","zip": "55336","zip+4": "3369","phone": "3208645026"}
{"name": "WAL-MART PHARMACY #102352","address1": "2101 SECOND AVENUE SE","address2": "","city": "CAMBRIDGE","state": "MN","zip": "55008","zip+4": "0000","phone": "7636890609"}
{"name": "THRONDSET PHARMACY","address1": "908 HIGHWAY 71 N","address2": "","city": "JACKSON","state": "MN","zip": "56143","zip+4": "0000","phone": "5078473282"}
{"name": "WALGREEN DRUG STORE #3187","address1": "1075 HIGHWAY 96 EAST","address2": "","city": "WHITE BEAR LAKE","state": "MN","zip": "55127","zip+4": "0000","phone": "6514269335"}
{"name": "FAIRVIEW NORTHLAND PHARMACY EL","address1": "290 MAIN STREET NORTHWEST","address2": "","city": "ELK RIVER","state": "MN","zip": "55330","zip+4": "0000","phone": "7632415890"}
{"name": "CUB PHARMACY #1599","address1": "2390 WHITE BEAR AVE N","address2": "","city": "MAPLEWOOD","state": "MN","zip": "55109","zip+4": "0000","phone": "6517773113"}
{"name": "WAL-MART PHARMACY #101020","address1": "1550 BLAKE AVENUE","address2": "","city": "ALBERT LEA","state": "MN","zip": "56007","zip+4": "0000","phone": "5073770668"}
{"name": "SUPERIORHEALTH PHCY","address1": "1502 LONDON RD STE 101","address2": "","city": "DULUTH","state": "MN","zip": "55812","zip+4": "0000","phone": "2187331110"}
{"name": "NORTHERN ITASCA PHARMACY","address1": "258 PINE TREE DR","address2": "","city": "BIGFORK","state": "MN","zip": "56628","zip+4": "0000","phone": "2187434444"}
{"name": "CUB PHARMACY #1922","address1": "19216 FREEPORT ST","address2": "","city": "ELK RIVER","state": "MN","zip": "55330","zip+4": "0000","phone": "7632418112"}
{"name": "NORTH MEM MED CTR PHCY","address1": "3300 OAKDALE NORTH","address2": "","city": "ROBBINSDALE","state": "MN","zip": "55422","zip+4": "0000","phone": "7635205634"}
{"name": "HAPETH PRESCRIPTION SHOP NW","address1": "251 COUNTY ROAD 120","address2": "","city": "ST CLOUD","state": "MN","zip": "56303","zip+4": "0000","phone": "3202515898"}
{"name": "FAIRVIEW HIGHLAND PARK PHARMAC","address1": "2155 FORD PARKWAY","address2": "","city": "ST PAUL","state": "MN","zip": "55116","zip+4": "0000","phone": "6516965020"}
{"name": "FAIRVIEW NORTHLAND PHARMACY PR","address1": "919 NORTHLAND DRIVE","address2": "","city": "PRINCETON","state": "MN","zip": "55371","zip+4": "0000","phone": "7633896622"}
{"name": "CUB PHARMACY #1921","address1": "8432 TAMARACK VILLAGE","address2": "","city": "WOODBURY","state": "MN","zip": "55125","zip+4": "0000","phone": "6517021032"}
{"name": "TARGET PHARMACY #1068","address1": "301 PARK DRIVE N W","address2": "","city": "OWATONNA","state": "MN","zip": "55060","zip+4": "0000","phone": "5074511771"}
{"name": "AMC COTTAGE GROVE PHARMACY #9","address1": "8611 W POINT DOUGLAS RD","address2": "","city": "COTTAGE GROVE","state": "MN","zip": "55016","zip+4": "0000","phone": "6512410424"}
{"name": "DULUTH CLINIC-INTERNATIONAL FA","address1": "2501 KEENAN DRIVE","address2": "","city": "INTERNATIONAL FALL","state": "MN","zip": "56649","zip+4": "2181","phone": "2182856222"}
{"name": "CUB PHARMACY #1923","address1": "6775 YORK AVE S","address2": "","city": "EDINA","state": "MN","zip": "55435","zip+4": "0000","phone": "9529253911"}
{"name": "CUB PHARMACY #1629","address1": "3930 SILVER LAKE RD","address2": "","city": "ST ANTHONY","state": "MN","zip": "55421","zip+4": "0000","phone": "6127816405"}
{"name": "CUB PHARMACY #1598","address1": "12595 CENTRAL AVE NE","address2": "","city": "BLAINE","state": "MN","zip": "55434","zip+4": "0000","phone": "7637674329"}
{"name": "SNYDER'S DRUG STORE # #5090","address1": "1260 EAST 4TH AVENUE","address2": "","city": "SHAKOPEE","state": "MN","zip": "55379","zip+4": "0000","phone": "9524453883"}
{"name": "CLINIC PHARMACY","address1": "2024 S 6TH ST","address2": "","city": "BRAINERD","state": "MN","zip": "56401","zip+4": "0000","phone": "2188297455"}
{"name": "THRIFTY NYSTROM DRUG #738","address1": "223 SOUTH EIGHTH STREET","address2": "","city": "BRAINERD","state": "MN","zip": "56401","zip+4": "0000","phone": "2188293529"}
{"name": "SNYDER DRUG EMPORIUM #5068","address1": "8545 EDINBURGH NTR DR N","address2": "","city": "BROOKLYN PARK","state": "MN","zip": "55443","zip+4": "0000","phone": "7634259517"}
{"name": "TARGET PHARMACY #0751","address1": "975 EAST COUNTY ROAD E","address2": "","city": "VADNAIS HTS","state": "MN","zip": "55127","zip+4": "0000","phone": "6514832776"}
{"name": "TARGET PHARMACY #0657","address1": "2100 PAUL BUNYAN DR NW","address2": "","city": "BEMIDJI","state": "MN","zip": "56601","zip+4": "0000","phone": "2187590133"}
{"name": "CENTRACARE PHARMACY BECKER","address1": "12800 ROLLING RIDGE RD","address2": "","city": "BECKER","state": "MN","zip": "55308","zip+4": "0000","phone": "7632617008"}
{"name": "MEDICAP PHARMACY #8213","address1": "1109 W OAKLAND AVE","address2": "","city": "AUSTIN","state": "MN","zip": "55912","zip+4": "0000","phone": "5074337123"}
{"name": "PAMIDA PHARMACY #361","address1": "405 W INTERSTATE DR","address2": "","city": "LUVERNE","state": "MN","zip": "56156","zip+4": "2266","phone": "5072832156"}
{"name": "HY VEE PHARMACY #1019","address1": "2708 BRIDGE AVENUE","address2": "","city": "ALBERT LEA","state": "MN","zip": "56007","zip+4": "0000","phone": "5073731899"}
{"name": "HY VEE PHARMACY 2 #1394","address1": "2010 ADAMS STREET","address2": "","city": "MANKATO","state": "MN","zip": "56001","zip+4": "0000","phone": "5076257565"}
{"name": "MERWIN LONG TERM CARE PHARMACY","address1": "1509 10TH AVE SOUTH","address2": "STE 16","city": "MINNEAPOLIS","state": "MN","zip": "55404","zip+4": "0000","phone": "6123337191"}
{"name": "WAL-MART PHARMACY #102367","address1": "950 11TH ST SW","address2": "","city": "PINE CITY","state": "MN","zip": "55063","zip+4": "0000","phone": "3206296225"}
{"name": "WALGREEN DRUG STORE #4320","address1": "6390 BROOKLYN BLVD","address2": "","city": "BROOKLYN CENTER","state": "MN","zip": "55429","zip+4": "0000","phone": "7635490393"}
{"name": "TARGET PHARMACY #1095","address1": "1650 NEW BRIGHTON BLVD","address2": "","city": "MPLS","state": "MN","zip": "55413","zip+4": "0000","phone": "6127817746"}
{"name": "TARGET PHARMACY #1096","address1": "860 MANKATO AVE","address2": "","city": "WINONA","state": "MN","zip": "55987","zip+4": "0000","phone": "5074526308"}
{"name": "HEALTH CAMPUS PHARMACY ONE","address1": "200 STATE AVENUE","address2": "","city": "FARIBAULT","state": "MN","zip": "55021","zip+4": "0000","phone": "5073324797"}
{"name": "FSH LACRESCENT PHARMACY","address1": "306 MAIN ST STE 3","address2": "","city": "LA CRESCENT","state": "MN","zip": "55947","zip+4": "0000","phone": "5078958784"}
{"name": "THRIFTY NYSTROM DRUG #739","address1": "223 SOUTH EIGHTH STREET","address2": "","city": "BRAINERD","state": "MN","zip": "56401","zip+4": "0000","phone": "2188250803"}
{"name": "WALGREEN DRUG STORE #4038","address1": "15034 SHANNON PKWY","address2": "","city": "ROSEMOUNT","state": "MN","zip": "55068","zip+4": "0000","phone": "6513226600"}
{"name": "FAIRVIEW LAKES PHARMACY WYOMIN","address1": "5200 FAIRVIEW BOULEVARD","address2": "","city": "WYOMING","state": "MN","zip": "55092","zip+4": "0000","phone": "6519827500"}
{"name": "PAMIDA PHARMACY #363","address1": "1002 7TH ST SE","address2": "","city": "PIPESTONE","state": "MN","zip": "56164","zip+4": "2076","phone": "5078256517"}
{"name": "HY VEE PHARMACY #1177","address1": "1920 GRANT STREET","address2": "","city": "FARIBAULT","state": "MN","zip": "55021","zip+4": "0000","phone": "5073341555"}
{"name": "PAMIDA PHARMACY #306","address1": "106 E HIGHWAY 28","address2": "","city": "MORRIS","state": "MN","zip": "56267","zip+4": "1171","phone": "3205890420"}
{"name": "LONGBELLA DRUG MOTLEY","address1": "1233 HWY 10 S","address2": "","city": "MOTLEY","state": "MN","zip": "56466","zip+4": "0548","phone": "2183526337"}
{"name": "GOODRICH PHARMACY ANDOVER","address1": "15245 BLUE BIRD ST NW","address2": "","city": "ANDOVER","state": "MN","zip": "55304","zip+4": "0000","phone": "7634341901"}
{"name": "HY VEE PHARMACY #1547","address1": "500 CROSSROADS DR SW","address2": "","city": "ROCHESTER","state": "MN","zip": "55904","zip+4": "0000","phone": "5072809441"}
{"name": "MAYO CLINIC PHARMACY NORTHWEST","address1": "4111 HWY 52 N","address2": "","city": "ROCHESTER","state": "MN","zip": "55901","zip+4": "0000","phone": "5072819016"}
{"name": "COBORNS PHARMACY #2","address1": "161 GLENN ST","address2": "","city": "FOLEY","state": "MN","zip": "56329","zip+4": "0000","phone": "3209688625"}
{"name": "HEALTHPARTNERS MAIL ORDER PHAR","address1": "9700 W 76TH ST A","address2": "","city": "EDEN PRAIRIE","state": "MN","zip": "55344","zip+4": "0000","phone": "9528330499"}
{"name": "PASEK PHARMACY","address1": "113 N 2ND AVE W","address2": "","city": "DULUTH","state": "MN","zip": "55802","zip+4": "0000","phone": "2187223977"}
{"name": "TARGET PHARMACY #2193","address1": "15300 GROVE CIRCLE N","address2": "","city": "OSSEO","state": "MN","zip": "55369","zip+4": "0000","phone": "7634472507"}
{"name": "ALLINA COMMUNITY PHARMACIES","address1": "701 S DELLWOOD ST","address2": "","city": "CAMBRIDGE","state": "MN","zip": "55008","zip+4": "0000","phone": "7636897809"}
{"name": "COBORNS PHARMACY #19","address1": "1100 7TH AVE SOUTH","address2": "","city": "PRINCETON","state": "MN","zip": "55371","zip+4": "0000","phone": "7633898421"}
{"name": "DULUTH CLINIC-VIRGINIA PHARMAC","address1": "1101 9TH ST N","address2": "","city": "VIRGINIA","state": "MN","zip": "55792","zip+4": "2311","phone": "2187497828"}
{"name": "MINNESOTA CANCER CARE PHCY","address1": "1580 BEAM AVE","address2": "","city": "MAPLEWOOD","state": "MN","zip": "55109","zip+4": "0000","phone": "6512558480"}
{"name": "WALGREEN DRUG STORE #4697","address1": "6525 UNIVERSITY AV NE","address2": "","city": "FRIDLEY","state": "MN","zip": "55432","zip+4": "0000","phone": "7635860708"}
{"name": "FAIRVIEW HIAWATHA PHARMACY #10","address1": "3908 42ND AVENUE SOUTH","address2": "","city": "MINNEAPOLIS","state": "MN","zip": "55406","zip+4": "0000","phone": "6127287180"}
{"name": "EXPRESS PHARMACY INC","address1": "995 UNIVERSITY AVE W","address2": "STE 108","city": "SAINT PAUL","state": "MN","zip": "55104","zip+4": "0000","phone": "6516447566"}
{"name": "TARGET PHARMACY #1173","address1": "170118TH AVE NW","address2": "","city": "AUSTIN","state": "MN","zip": "55912","zip+4": "0000","phone": "5074377053"}
{"name": "LEWIS FAMILY DRUG #51","address1": "202 KNISS AVE S","address2": "","city": "LUVERNE","state": "MN","zip": "56156","zip+4": "0000","phone": "5072839549"}
{"name": "LEWIS FAMILY DRUG # #56","address1": "599 2ND AVE N","address2": "","city": "WINDOM","state": "MN","zip": "56101","zip+4": "0000","phone": "5078314161"}
{"name": "FAIRMONT MEDICAL CENTER MAYO H","address1": "32 N MAIN ST","address2": "","city": "SHERBURN","state": "MN","zip": "56171","zip+4": "0000","phone": "5077644610"}
{"name": "CUB PHARMACY #1928","address1": "1198 VIERLING DR","address2": "","city": "SHAKOPEE","state": "MN","zip": "55379","zip+4": "0000","phone": "9524456344"}
{"name": "CASH WISE PHARMACY #15","address1": "3300 HWY 10 E","address2": "","city": "MOORHEAD","state": "MN","zip": "56560","zip+4": "0000","phone": "2182360345"}
{"name": "ALLINA COMMUNITY PHARMACIES #1","address1": "2250 NW 26TH ST STE 1001","address2": "","city": "OWATONNA","state": "MN","zip": "55060","zip+4": "0000","phone": "5074557656"}
{"name": "CUB PHARMACY #1632","address1": "216 7TH ST W","address2": "","city": "MONTICELLO","state": "MN","zip": "55362","zip+4": "0000","phone": "7632956159"}
{"name": "WAL-MART PHARMACY #102642","address1": "7835 150TH ST WEST","address2": "","city": "APPLE VALLEY","state": "MN","zip": "55124","zip+4": "0000","phone": "9524319703"}
{"name": "CUB PHARMACY #1929","address1": "1008 HWY 55 E","address2": "","city": "BUFFALO","state": "MN","zip": "55313","zip+4": "0000","phone": "7636825828"}
{"name": "LIEBE DRUG INC","address1": "318 STUDDART AVE","address2": "","city": "GRACEVILLE","state": "MN","zip": "56240","zip+4": "0000","phone": "3207487112"}
{"name": "WALGREEN DRUG STORE #4725","address1": "11401 MARKET PLACE RD","address2": "","city": "CHAMPLIN","state": "MN","zip": "55316","zip+4": "3794","phone": "7634276137"}
{"name": "COBORNS LONG TERM CARE PHARMAC","address1": "5801 RIDGEWOOD RD","address2": "SUITE 1","city": "SAINT CLOUD","state": "MN","zip": "56303","zip+4": "0000","phone": "3202515543"}
{"name": "CASH WISE CLINIC PHARMACY #180","address1": "101 WILLMAR AVE SW","address2": "","city": "WILLMAR","state": "MN","zip": "56201","zip+4": "0000","phone": "3202146975"}
{"name": "WALGREEN DRUG STORE #4879","address1": "8100 W COUNTY ROAD 42","address2": "","city": "SAVAGE","state": "MN","zip": "55378","zip+4": "2193","phone": "9522261280"}
{"name": "HY VEE PHARMACY #1027","address1": "1001 18TH AVENUE NW","address2": "","city": "AUSTIN","state": "MN","zip": "55912","zip+4": "0000","phone": "5074379185"}
{"name": "CUB PHARMACY #1607","address1": "2201 FIRST ST S","address2": "","city": "WILLMAR","state": "MN","zip": "56201","zip+4": "0000","phone": "3202148502"}
{"name": "FAIRVIEW EAGAN PHARMACY #26","address1": "1440 DUCKWOOD DRIVE","address2": "","city": "EAGAN","state": "MN","zip": "55122","zip+4": "0000","phone": "6514068980"}
{"name": "LTC PRESCRIPTION PROVIDERS INC","address1": "220 THIRD AVE","address2": "","city": "PROCTOR","state": "MN","zip": "55810","zip+4": "0000","phone": "2186289368"}
{"name": "SUN MART PHARMACY #107","address1": "2605 8TH STREET S","address2": "","city": "MOORHEAD","state": "MN","zip": "56560","zip+4": "0000","phone": "2182910242"}
{"name": "WALGREEN DRUG STORE #4882","address1": "5825 CAHILL AVE","address2": "","city": "INVER GROVE HEIGHT","state": "MN","zip": "55076","zip+4": "0000","phone": "6514511266"}
{"name": "KMART PHARMACY #9689","address1": "1606 HWY 11 71","address2": "","city": "INTERNATIONAL FALL","state": "MN","zip": "56649","zip+4": "0000","phone": "2182833246"}
{"name": "CUB PHARMACY #1630","address1": "246 57TH AVE NE","address2": "","city": "FRIDLEY","state": "MN","zip": "56201","zip+4": "0000","phone": "7635869150"}
{"name": "CUB PHARMACY #1924","address1": "3620 TEXAS AVE S","address2": "","city": "ST LOUIS PARK","state": "MN","zip": "55426","zip+4": "0000","phone": "9529333177"}
{"name": "CUB PHARMACY #1930","address1": "14133 EDGEASTWOOD DR","address2": "","city": "BAXTER","state": "MN","zip": "56425","zip+4": "0000","phone": "2188550880"}
{"name": "CLANCYS MAIN STREET #14","address1": "1399 S FRONTAGE RD","address2": "","city": "HASTINGS","state": "MN","zip": "55033","zip+4": "0000","phone": "6514379608"}
{"name": "CUB PHARMACY #1633","address1": "4445 N NATHAN LN","address2": "","city": "PLYMOUTH","state": "MN","zip": "55442","zip+4": "0000","phone": "7635570377"}
{"name": "CUB PHARMACY #1631","address1": "1750 W COUNTY RD 42","address2": "","city": "BURNSVILLE","state": "MN","zip": "55337","zip+4": "0000","phone": "9528926262"}
{"name": "CUB PHARMACY #1931","address1": "8421 LYNDALE AVE S","address2": "","city": "BLOOMINGTON","state": "MN","zip": "55420","zip+4": "0000","phone": "9523468625"}
{"name": "SNYDER DRUG STORES","address1": "241 W HWY 210","address2": "","city": "MCGREGOR","state": "MN","zip": "55760","zip+4": "0000","phone": "2187684165"}
{"name": "FAIRVIEW SPECIALTY SERVICES PH","address1": "711 KASOTA AVENUE SOUTHEAST","address2": "","city": "MINNEAPOLIS","state": "MN","zip": "55414","zip+4": "0000","phone": "6126725260"}
{"name": "FAIRVIEW HOME INFUSION RETAIL","address1": "711B KASOTA AVENUE SOUTH EAST","address2": "","city": "MINNEAPOLIS","state": "MN","zip": "55414","zip+4": "0000","phone": "6126722233"}
{"name": "WALGREEN DRUG STORE #5081","address1": "4220 LEXINGTON AVE","address2": "","city": "EAGAN","state": "MN","zip": "55123","zip+4": "0000","phone": "6516867377"}
{"name": "TRUMM DRUG ELBOW LAKE CLINIC P","address1": "930 1ST ST NE","address2": "","city": "ELBOW LAKE","state": "MN","zip": "56531","zip+4": "0000","phone": "2186859988"}
{"name": "WALGREEN DRUG STORE #5048","address1": "1017 VERMILLION ST","address2": "","city": "HASTINGS","state": "MN","zip": "55033","zip+4": "2898","phone": "6514380430"}
{"name": "TARGET PHARMACY #1210","address1": "1370 HIGHWAY 15 SOUTH","address2": "","city": "HUTCHINSON","state": "MN","zip": "55350","zip+4": "0000","phone": "3205879576"}
{"name": "PAMIDA PHARMACY #366","address1": "710 COUNTY ROAD 21 S","address2": "","city": "GLENWOOD","state": "MN","zip": "56334","zip+4": "9145","phone": "3206344399"}
{"name": "ALLINA COMMUNITY PHARMACIES","address1": "8675 VALLEY CREEK RD","address2": "","city": "WOODBURY","state": "MN","zip": "55125","zip+4": "0000","phone": "6515023140"}
{"name": "PAMIDA PHARMACY #396","address1": "1500 E SHERIDAN ST","address2": "","city": "ELY","state": "MN","zip": "55731","zip+4": "1229","phone": "2183657123"}
{"name": "WAL-MART PHARMACY #102820","address1": "1055 RYAN ROAD","address2": "","city": "WORTHINGTON","state": "MN","zip": "56187","zip+4": "0000","phone": "5073764080"}
{"name": "FAIRVIEW LAKES PHARMACY LINO L","address1": "7455 VILLAGE DRIVE","address2": "","city": "LINO LAKES","state": "MN","zip": "55014","zip+4": "0000","phone": "6517173401"}
{"name": "CUB PHARMACY #1925","address1": "3245 COUNTY RD 10","address2": "","city": "BROOKLYN CENTER","state": "MN","zip": "55430","zip+4": "0000","phone": "7635036810"}
{"name": "WALGREEN DRUG STORE #5325","address1": "110 HWY 212 E","address2": "","city": "CHASKA","state": "MN","zip": "55318","zip+4": "0000","phone": "9524481177"}
{"name": "TARGET PHARMACY #1244","address1": "356 12TH ST SW","address2": "","city": "FOREST LAKE","state": "MN","zip": "55025","zip+4": "0000","phone": "6514641994"}
{"name": "WAL-MART PHARMACY #102812","address1": "25 25TH STREET S.E.","address2": "","city": "ROCHESTER","state": "MN","zip": "55904","zip+4": "0000","phone": "5072921475"}
{"name": "WALGREEN DRUG STORE #5635","address1": "340 W WASHINGTON ST","address2": "","city": "BRAINERD","state": "MN","zip": "56401","zip+4": "0000","phone": "2188250775"}
{"name": "WALGREEN DRUG STORE #5685","address1": "2200 HWY 13 E","address2": "","city": "BURNSVILLE","state": "MN","zip": "55337","zip+4": "0000","phone": "9528829787"}
{"name": "THRIFTY WHITE DRUG #740","address1": "105 INTERNATIONAL DRIVE","address2": "","city": "RED LAKE FALLS","state": "MN","zip": "56750","zip+4": "0189","phone": "2182533480"}
{"name": "HY VEE PHARMACY #1400","address1": "900 EAST MAIN STREET","address2": "","city": "MARSHALL","state": "MN","zip": "56258","zip+4": "0000","phone": "5075322556"}
{"name": "BLUE EARTH DRUG INC","address1": "405 S GROVE ST","address2": "","city": "BLUE EARTH","state": "MN","zip": "56013","zip+4": "0000","phone": "5075262121"}
{"name": "TARGET PHARMACY #1272","address1": "1685 17TH AVE EAST","address2": "","city": "SHAKOPEE","state": "MN","zip": "55379","zip+4": "0000","phone": "9524451727"}
{"name": "CHOSEN VALLEY PHARMACY #237","address1": "237 MAIN ST NORTH","address2": "","city": "CHATFIELD","state": "MN","zip": "55923","zip+4": "1391","phone": "5078674425"}
{"name": "WALGREEN DRUG STORE #5413","address1": "600 HWY 10 NE","address2": "","city": "BLAINE","state": "MN","zip": "55434","zip+4": "0000","phone": "7637863980"}
{"name": "HY VEE PHARMACY #1393","address1": "410 SOUTH RIVER FRONT DRIVE","address2": "","city": "MANKATO","state": "MN","zip": "56001","zip+4": "0000","phone": "5073455091"}
{"name": "WALGREEN DRUG STORE #6056","address1": "1965 DONEGAL DRIVE","address2": "","city": "WOODBURY","state": "MN","zip": "55125","zip+4": "0000","phone": "6517350088"}
{"name": "TARGET PHARMACY #1303","address1": "215 BALSAM ST N STE 100","address2": "","city": "CAMBRIDGE","state": "MN","zip": "55008","zip+4": "0000","phone": "7636893687"}
{"name": "CASH WISE CLINIC PHARMACY #180","address1": "1420 E COLLEGE DR","address2": "","city": "MARSHALL","state": "MN","zip": "56258","zip+4": "0000","phone": "5075371230"}
{"name": "SAMS PHARMACY #106318","address1": "3745 LOUISIANA AVE SOUTH","address2": "","city": "ST. LOUIS PARK","state": "MN","zip": "55426","zip+4": "0000","phone": "9529260170"}
{"name": "COSTCO PHARMACY #377","address1": "5801 16TH ST W","address2": "","city": "ST LOUIS PARK","state": "MN","zip": "55416","zip+4": "0000","phone": "7635829602"}
{"name": "THRIFTY WHITE DRUG #741","address1": "1101 EAST 37TH STREET SUITE 4","address2": "","city": "HIBBING","state": "MN","zip": "55746","zip+4": "0000","phone": "2182626140"}
{"name": "WAL-MART PHARMACY #103209","address1": "18185 ZANE STREET","address2": "","city": "ELK RIVER","state": "MN","zip": "55330","zip+4": "0000","phone": "7634415332"}
{"name": "SNYDER'S DRUG STORE # #5025","address1": "2380 SHADYWOOD ROAD","address2": "","city": "ORONO","state": "MN","zip": "55391","zip+4": "0000","phone": "9524713600"}
{"name": "WAL-MART PHARMACY #102882","address1": "9451 DUNKIRK LANE NO.","address2": "","city": "MAPLE GROVE","state": "MN","zip": "55311","zip+4": "0000","phone": "7634162300"}
{"name": "CUB PHARMACY #1606","address1": "1800 MADISON AVE","address2": "","city": "MANKATO","state": "MN","zip": "56001","zip+4": "0000","phone": "5076251241"}
{"name": "SAMS PHARMACY #106320","address1": "4743 MAPLE GROVE ROAD","address2": "","city": "HERMANTOWN","state": "MN","zip": "55811","zip+4": "0000","phone": "2182792858"}
{"name": "WALGREEN DRUG STORE #6489","address1": "1291 TASHA DRIVE","address2": "","city": "SHAKOPEE","state": "MN","zip": "55379","zip+4": "0000","phone": "9522337321"}
{"name": "STERLING LTC PHARMACY #15","address1": "1601 STATE AVE NW","address2": "","city": "OWATONNA","state": "MN","zip": "55060","zip+4": "0000","phone": "5074559684"}
{"name": "WAL-MART PHARMACY #102937","address1": "12080 HWY 169","address2": "","city": "HIBBING","state": "MN","zip": "55746","zip+4": "0000","phone": "2182623419"}
{"name": "WAL-MART PHARMACY #102957","address1": "1583 HWY 10 WEST","address2": "","city": "DETROIT LAKES","state": "MN","zip": "56501","zip+4": "0000","phone": "2188477225"}
{"name": "CUB PHARMACY #1602","address1": "1021 15TH AVE SE","address2": "","city": "ROCHESTER","state": "MN","zip": "55904","zip+4": "0000","phone": "5072883234"}
{"name": "CHILDREN'S HOSPITAL AND CLINIC","address1": "345 N SMITH AVE","address2": "","city": "ST PAUL","state": "MN","zip": "55102","zip+4": "0000","phone": "6512206806"}
{"name": "CUB PHARMACY #1934","address1": "2410 S POKEGAMA AVE","address2": "","city": "GRAND RAPIDS","state": "MN","zip": "55744","zip+4": "0000","phone": "2183269089"}
{"name": "WALGREEN DRUG STORE #6573","address1": "3470 RIVER RAPIDS DR NW","address2": "","city": "COON RAPIDS","state": "MN","zip": "55448","zip+4": "0000","phone": "7634271057"}
{"name": "WALGREEN DRUG STORE #5080","address1": "10180 HENNEPIN TOWN RD","address2": "","city": "EDEN PRAIRIE","state": "MN","zip": "55347","zip+4": "0000","phone": "9529417604"}
{"name": "WALGREEN DRUG STORE #6447","address1": "2387 HIGHWAY 10","address2": "","city": "MOUNDS VIEW","state": "MN","zip": "55112","zip+4": "0000","phone": "7637847038"}
{"name": "THRIFTY BENSON DRUG #742","address1": "533 ATLANTIC AVENUE","address2": "","city": "MORRIS","state": "MN","zip": "56267","zip+4": "0435","phone": "3205894550"}
{"name": "MAPLE GROVE URGENT CARE","address1": "12000 ELM CREEK BLVD","address2": "STE 140","city": "MAPLE GROVE","state": "MN","zip": "55369","zip+4": "0000","phone": "7634205279"}
{"name": "TARGET PHARMACY #1351","address1": "3827 MARKETPLACE DRIVE NW","address2": "","city": "ROCHESTER","state": "MN","zip": "55901","zip+4": "0000","phone": "5075363898"}
{"name": "CUB PHARMACY #1649","address1": "2600 RICE CREEK RD","address2": "","city": "NEW BRIGHTON","state": "MN","zip": "55112","zip+4": "0000","phone": "6516318202"}
{"name": "PAMIDA PHARMACY #197","address1": "301 1ST AVE S","address2": "","city": "SAINT JAMES","state": "MN","zip": "56081","zip+4": "1723","phone": "5073758115"}
{"name": "THRIFTY WHITE DRUG #743","address1": "21 MAIN STREET SOUTH","address2": "","city": "ST. MICHAEL","state": "MN","zip": "55376","zip+4": "0000","phone": "7634972552"}
{"name": "CUYUNA LAKES PHARMACY","address1": "320 E MAIN ST","address2": "STE 2","city": "CROSBY","state": "MN","zip": "56441","zip+4": "0000","phone": "2185462345"}
{"name": "FALKS NEWMAN PHARMACY","address1": "2908 W 3RD ST","address2": "","city": "DULUTH","state": "MN","zip": "55806","zip+4": "0000","phone": "2186245755"}
{"name": "SAMS PHARMACY #104736","address1": "14940 FLORENCE TRAIL","address2": "","city": "APPLE VALLEY","state": "MN","zip": "55124","zip+4": "0000","phone": "9524327133"}
{"name": "SAMS PHARMACY #104738","address1": "3035 DENMARK AVENUE","address2": "","city": "EAGAN","state": "MN","zip": "55121","zip+4": "0000","phone": "6514053879"}
{"name": "SAMS PHARMACY #106309","address1": "1850 BUERKLE ROAD","address2": "","city": "WHITE BEAR LAKE","state": "MN","zip": "55110","zip+4": "0000","phone": "6517796710"}
{"name": "SAMS PHARMACY #106310","address1": "8150 UNIVERSITY AVE NE","address2": "","city": "FRIDLEY","state": "MN","zip": "55432","zip+4": "0000","phone": "7637926653"}
{"name": "WEBER AND JUDD CLINIC PHARMACY","address1": "210 NINTH ST SE","address2": "","city": "ROCHESTER","state": "MN","zip": "55904","zip+4": "0000","phone": "5072882483"}
{"name": "CUB PHARMACY #1651","address1": "3784 150TH ST","address2": "","city": "ROSEMOUNT","state": "MN","zip": "55068","zip+4": "0000","phone": "6514230316"}
{"name": "TARGET PHARMACY #1352","address1": "111 PIONEER TRIAL","address2": "","city": "CHASKA","state": "MN","zip": "55318","zip+4": "0000","phone": "9523613766"}
{"name": "TARGET PHARMACY #1356","address1": "4848 COUNTY RD 101","address2": "","city": "MINNETONKA","state": "MN","zip": "55345","zip+4": "0000","phone": "9524013814"}
{"name": "TARGET PHARMACY #1375","address1": "900 NICOLLET MALL","address2": "","city": "MINNEAPOLIS","state": "MN","zip": "55403","zip+4": "0000","phone": "6123385215"}
{"name": "CUB PHARMACY #1653","address1": "1200 S RIVERFRONT DR","address2": "","city": "MANKATO","state": "MN","zip": "56001","zip+4": "0000","phone": "5073455066"}
{"name": "COSTCO PHARMACY #372","address1": "12547 RIVERDALE BLVD","address2": "","city": "COON RAPIDS","state": "MN","zip": "55433","zip+4": "0000","phone": "7637127762"}
{"name": "CUB PHARMACY #1652","address1": "4205 PHEASANT RIDGE DR","address2": "","city": "BLAINE","state": "MN","zip": "55449","zip+4": "0000","phone": "7637840334"}
{"name": "WALGREEN DRUG STORE #6735","address1": "3700 SILVER LAKE RD NE","address2": "","city": "SAINT ANTHONY","state": "MN","zip": "55421","zip+4": "0000","phone": "6127061983"}
{"name": "CENTRACARE PHARMACY HEALTH PLA","address1": "1900 CENTRACARE CIRCLE","address2": "STE 1350","city": "ST CLOUD","state": "MN","zip": "56303","zip+4": "0000","phone": "3202294904"}
{"name": "WALGREEN DRUG STORE #5634","address1": "7560 160TH ST WEST","address2": "","city": "LAKEVILLE","state": "MN","zip": "55044","zip+4": "0000","phone": "9528911148"}
{"name": "COBORNS PHARMACY #28","address1": "1400 BABCOCK BLVD E","address2": "","city": "DELANO","state": "MN","zip": "55328","zip+4": "0000","phone": "7639728385"}
{"name": "SAMS PHARMACY #106254","address1": "16701 94TH AVENUE NORTH","address2": "","city": "MAPLE GROVE","state": "MN","zip": "55311","zip+4": "0000","phone": "7634165930"}
{"name": "GOODRICH PHARMACY ST FRANCIS","address1": "23122 ST FRANCIS BLVD","address2": "","city": "ST FRANCIS","state": "MN","zip": "55070","zip+4": "0000","phone": "7637530222"}
{"name": "WAL-MART PHARMACY #103233","address1": "2025 PAUL BUNYAN DRIVE N.W.","address2": "","city": "BEMIDJI","state": "MN","zip": "56601","zip+4": "0000","phone": "2187556132"}
{"name": "CUB PHARMACY #1634","address1": "2013 BROADWAY AVE W","address2": "","city": "FOREST LAKE","state": "MN","zip": "55025","zip+4": "0000","phone": "6519824603"}
{"name": "WAL-MART PHARMACY #103498","address1": "4405 PHEASANT RIDGE DRIVE N E","address2": "","city": "BLAINE","state": "MN","zip": "55449","zip+4": "0000","phone": "7637840862"}
{"name": "CUB PHARMACY #1932","address1": "2100 SNELLING AVE N","address2": "","city": "ROSEVILLE","state": "MN","zip": "55113","zip+4": "0000","phone": "6516339720"}
{"name": "HY VEE PHARMACY #1896","address1": "1475 SERVICE ROAD","address2": "","city": "WINONA","state": "MN","zip": "55987","zip+4": "0000","phone": "5074525254"}
{"name": "CORAM SPECIALTY INFUSION SERVI","address1": "2901 FRONTAGE RD S 10 HWY E","address2": "STE 7","city": "MOOREHEAD","state": "MN","zip": "56560","zip+4": "0000","phone": "2182332210"}
{"name": "BIOSCRIP PHARMACY #4046","address1": "2100 LYNDALE AV S","address2": "","city": "MINNEAPOLIS","state": "MN","zip": "55405","zip+4": "0000","phone": "6128727808"}
{"name": "FAIRVIEW HEALTH SERVICES PHARM","address1": "5200 FAIRVIEW BLVD","address2": "","city": "WYOMING","state": "MN","zip": "55092","zip+4": "0000","phone": "6519827235"}
{"name": "WJ NURSING CARE RX","address1": "1814 15TH ST NW","address2": "","city": "ROCHESTER","state": "MN","zip": "55901","zip+4": "0214","phone": "5072859079"}
{"name": "FAIRVIEW OXBORO PHARMACY #38","address1": "600 W 98TH STREET","address2": "","city": "BLOOMINGTON","state": "MN","zip": "55420","zip+4": "0000","phone": "9528856166"}
{"name": "TARGET PHARMACY #1448","address1": "749 APOLLO DRIVE","address2": "","city": "LINO LAKES","state": "MN","zip": "55014","zip+4": "0000","phone": "6517847618"}
{"name": "TARGET PHARMACY #1456","address1": "21615 S DIAMOND LAKE ROAD","address2": "","city": "ROGERS","state": "MN","zip": "55374","zip+4": "0000","phone": "7634286392"}
{"name": "BARONS PHARMACY","address1": "1120 E 34TH ST","address2": "","city": "HIBBING","state": "MN","zip": "55746","zip+4": "0000","phone": "2182637455"}
{"name": "FAIRVIEW UNIVERSITY DISCHARGE","address1": "500 HARVARD STREET SOUTHEAST","address2": "","city": "MINNEAPOLIS","state": "MN","zip": "55455","zip+4": "0000","phone": "6122732121"}
{"name": "WESTSIDE COMMUNITY HLTH SVCS P","address1": "153 CESAR CHAVEZ ST","address2": "","city": "ST PAUL","state": "MN","zip": "55107","zip+4": "0000","phone": "6516027589"}
{"name": "SAMS PHARMACY #106312","address1": "9925 HUDSON ROAD","address2": "","city": "WOODBURY","state": "MN","zip": "55125","zip+4": "0000","phone": "6517027980"}
{"name": "WALGREEN DRUG STORE #6730","address1": "1511 HIGHWAY 7","address2": "","city": "HOPKINS","state": "MN","zip": "55305","zip+4": "0000","phone": "9529394067"}
{"name": "FAIRVIEW UNIVERSITY ONCOLOGY P","address1": "424 HARVARD STREET SOUTHEAST","address2": "","city": "MINNEAPOLIS","state": "MN","zip": "55455","zip+4": "0000","phone": "6126254900"}
{"name": "PAMIDA PHARMACY #293","address1": "1087 3RD ST NW","address2": "","city": "ROSEAU","state": "MN","zip": "56751","zip+4": "1902","phone": "2184632420"}
{"name": "CUB PHARMACY #1936","address1": "417 8TH AVE NE","address2": "","city": "BRAINERD","state": "MN","zip": "56401","zip+4": "0000","phone": "2188280440"}
{"name": "MAYO CLINIC PHARMACY MARY BRIG","address1": "1216 2ND ST SW","address2": "","city": "ROCHESTER","state": "MN","zip": "55902","zip+4": "0000","phone": "5072555731"}
{"name": "MAYO CLINIC PHARMACY EISENBERG","address1": "201 W CENTER ST","address2": "","city": "ROCHESTER","state": "MN","zip": "55902","zip+4": "0000","phone": "5072667416"}
{"name": "TARGET PHARMACY #1484","address1": "18275 KENRICK AVENUE","address2": "","city": "LAKEVILLE","state": "MN","zip": "55044","zip+4": "0000","phone": "9528925454"}
{"name": "WALGREEN DRUG STORE #6995","address1": "1788 OLD HUDSON RD","address2": "","city": "ST PAUL","state": "MN","zip": "55119","zip+4": "0000","phone": "6517317625"}
{"name": "COBORNS PHARMACY #30","address1": "209 WEST FIRST ST","address2": "","city": "PARK RAPIDS","state": "MN","zip": "56470","zip+4": "0000","phone": "2187320836"}
{"name": "CUB PHARMACY #1639","address1": "7850 CAHILL DR","address2": "","city": "INVER GROVE HEIGHT","state": "MN","zip": "55076","zip+4": "0000","phone": "6514500676"}
{"name": "TRI-COUNTY HOSPITAL O/P PHCY","address1": "415 N JEFFERSON ST","address2": "","city": "WADENA","state": "MN","zip": "56482","zip+4": "0000","phone": "2186317598"}
{"name": "MERWIN LONG TERM CARE PHARMACY","address1": "1811 OLD HIGHWAY 8","address2": "SUITE B","city": "NEW BRIGHTON","state": "MN","zip": "55112","zip+4": "0000","phone": "6516390608"}
{"name": "COBORNS PHARMACY #29","address1": "5698 LA CENTRE AVE NE","address2": "","city": "ALBERTVILLE","state": "MN","zip": "55301","zip+4": "0000","phone": "7634971139"}
{"name": "THRIFTY WHITE DRUG #745","address1": "200 CENTRAL AVENUE","address2": "","city": "OSAKIS","state": "MN","zip": "56360","zip+4": "0000","phone": "3208592161"}
{"name": "CUB PHARMACY #1638","address1": "2050 NORTHDALE BOULEVARD","address2": "","city": "COON RAPIDS","state": "MN","zip": "55433","zip+4": "0000","phone": "7637549036"}
{"name": "TARGET PHARMACY #0661","address1": "2505 1ST STREET SOUTH","address2": "","city": "WILLMAR","state": "MN","zip": "56201","zip+4": "0000","phone": "3202353026"}
{"name": "TARGET PHARMACY #1522","address1": "151 TYLER ROAD NORTH","address2": "","city": "RED WING","state": "MN","zip": "55066","zip+4": "0000","phone": "6513882433"}
{"name": "CUB PHARMACY #1635","address1": "1729 MARKET BOULEVARD","address2": "","city": "HASTINGS","state": "MN","zip": "55003","zip+4": "0000","phone": "6514382135"}
{"name": "SAMS PHARMACY #106311","address1": "8201 OLD CARRIAGE CT","address2": "","city": "SHAKOPEE","state": "MN","zip": "55379","zip+4": "0000","phone": "9524962982"}
{"name": "WAL-MART PHARMACY #103513","address1": "8101 OLD CARRIAGE COURT","address2": "","city": "SHAKOPEE","state": "MN","zip": "55379","zip+4": "0000","phone": "9524458058"}
{"name": "WAL-MART PHARMACY #103534","address1": "295 TYLER ROAD SOUTH","address2": "","city": "RED WING","state": "MN","zip": "55066","zip+4": "0000","phone": "6513850594"}
{"name": "CUB PHARMACY #1637","address1": "2423 S HWY 3","address2": "","city": "NORTHFIELD","state": "MN","zip": "55057","zip+4": "0000","phone": "5076649029"}
{"name": "SNYDERS DRUG STORE #5022","address1": "1201 A2 EAST FRANKLIN AVE","address2": "","city": "MINNEAPOLIS","state": "MN","zip": "55404","zip+4": "0000","phone": "6128798969"}
{"name": "THRIFTY WHITE DRUG #747","address1": "30 MAIN STREET SOUTH","address2": "","city": "CLEARBROOK","state": "MN","zip": "56634","zip+4": "0000","phone": "2187763111"}
{"name": "THRIFTY WHITE DRUG #746","address1": "31 NORTH MAIN","address2": "","city": "BAGLEY","state": "MN","zip": "56621","zip+4": "0000","phone": "2186946210"}
{"name": "SAMS PHARMACY #104787","address1": "200 WEST AMERICAN BLVD","address2": "","city": "MINNEAPOLIS","state": "MN","zip": "55420","zip+4": "0000","phone": "9528886079"}
{"name": "THRIFTY WHITE DRUG #748","address1": "603 W MINNESOTA AVENUE WEST","address2": "","city": "WALKER","state": "MN","zip": "56484","zip+4": "0000","phone": "2185471016"}
{"name": "THRIFTY WHITE DRUG #749","address1": "110 MICHIGAN AVENUE W","address2": "","city": "WALKER","state": "MN","zip": "56484","zip+4": "0000","phone": "2185474734"}
{"name": "THRIFTY WHITE DRUG #750","address1": "203 MILL STREET N","address2": "","city": "FERTILE","state": "MN","zip": "56540","zip+4": "0000","phone": "2189456174"}
{"name": "MERWIN LTC PHARMACY #3","address1": "124 EMERSON ST N","address2": "","city": "CAMBRIDGE","state": "MN","zip": "55008","zip+4": "0000","phone": "7636899300"}
{"name": "THRIFTY WHITE DRUG #751","address1": "101 WEST SECOND STREET","address2": "","city": "CROOKSTON","state": "MN","zip": "56716","zip+4": "0000","phone": "2182813700"}
{"name": "RAINBOW PHARMACY #8853","address1": "551 87TH LANE NE","address2": "","city": "BLAINE","state": "MN","zip": "55434","zip+4": "0000","phone": "7637854707"}
{"name": "RAINBOW PHARMACY #8874","address1": "2600 W 80TH STREET","address2": "","city": "BLOOMINGTON","state": "MN","zip": "55433","zip+4": "0000","phone": "9523460121"}
{"name": "RAINBOW PHARMACY #8878","address1": "14100 S HIGHWAY 13 WEST","address2": "","city": "SAVAGE","state": "MN","zip": "55378","zip+4": "0000","phone": "9522261571"}
{"name": "RAINBOW PHARMACY #8868","address1": "1540 NEW BRIGHTON BLVD","address2": "","city": "MINNEAPOLIS","state": "MN","zip": "55413","zip+4": "0000","phone": "6127884246"}
{"name": "RAINBOW PHARMACY #8870","address1": "200 PIONEER TRAIL","address2": "","city": "CHASKA","state": "MN","zip": "55318","zip+4": "0000","phone": "9524485112"}
{"name": "RAINBOW PHARMACY #8850","address1": "892 ARCADE STREET","address2": "","city": "SAINT PAUL","state": "MN","zip": "55106","zip+4": "0000","phone": "6517710556"}
{"name": "RAINBOW PHARMACY #8875","address1": "16401 COUNTY ROAD 30","address2": "","city": "MAPLE GROVE","state": "MN","zip": "55431","zip+4": "0000","phone": "7634161563"}
{"name": "RAINBOW PHARMACY #8872","address1": "3340 124TH AVENUE NW","address2": "","city": "COON RAPIDS","state": "MN","zip": "55433","zip+4": "0000","phone": "7635769343"}
{"name": "RAINBOW PHARMACY #8855","address1": "1104 LAGOON AVENUE","address2": "","city": "MINNEAPOLIS","state": "MN","zip": "55408","zip+4": "0000","phone": "6128210547"}
{"name": "RAINBOW PHARMACY #8860","address1": "140 W 66TH STREET","address2": "","city": "RICHFIELD","state": "MN","zip": "55423","zip+4": "0000","phone": "6128661256"}
{"name": "RAINBOW PHARMACY #8851","address1": "10200 6TH AVENUE NORTH","address2": "","city": "PLYMOUTH","state": "MN","zip": "55441","zip+4": "0000","phone": "7635462311"}
{"name": "RAINBOW PHARMACY #8852","address1": "7053 10TH STREET NORTH","address2": "","city": "OAKDALE","state": "MN","zip": "55128","zip+4": "0000","phone": "6517396247"}
{"name": "WALGREEN DRUG STORE #6943","address1": "4560 S ROBERT TRL","address2": "","city": "INVER GROVE HEIGHT","state": "MN","zip": "55077","zip+4": "0000","phone": "6512562041"}
{"name": "RAINBOW PHARMACY #8873","address1": "16705 COUNTY ROAD 24","address2": "","city": "PLYMOUTH","state": "MN","zip": "55447","zip+4": "0000","phone": "7635597591"}
{"name": "SMART-FILL #17","address1": "905 N MAIN ST","address2": "","city": "AUSTIN","state": "MN","zip": "55912","zip+4": "0000","phone": "5074337447"}
{"name": "COBORNS PHARMACY #31","address1": "711 ROSE DR","address2": "","city": "BIG LAKE","state": "MN","zip": "55309","zip+4": "0000","phone": "7632637030"}
{"name": "WALGREEN DRUG STORE #7111","address1": "1207 W BROADWAY AVE","address2": "","city": "FOREST LAKE","state": "MN","zip": "55025","zip+4": "0000","phone": "6512551884"}
{"name": "ABBOTT NORTHWESTERN HOSPITAL","address1": "ABBOTT NORTHWESTERN HOSPITAL","address2": "800 E 28TH ST","city": "MINNEAPOLIS","state": "MN","zip": "55407","zip+4": "0000","phone": "6128634233"}
{"name": "BUFFALO HOSPITAL PHARMACY","address1": "303 CATLIN ST","address2": "","city": "BUFFALO","state": "MN","zip": "55313","zip+4": "0000","phone": "7636821212"}
{"name": "NORTH MEMORIAL MEDICAL CENTER","address1": "3300 OAKDALE AVE N","address2": "","city": "ROBBINSDALE","state": "MN","zip": "55422","zip+4": "0000","phone": "7635205542"}
{"name": "MONTICELLO BIG LAKE COM HOSPIT","address1": "MONTICELLO BIG LAKE COM HOSPIT","address2": "1013 HART BLVD","city": "MONTICELLO","state": "MN","zip": "55362","zip+4": "0000","phone": "7632952945"}
{"name": "THELEN THRIFTY WHITE DRUG #752","address1": "113 NORTH MAIN STREET","address2": "","city": "MAHNOMEN","state": "MN","zip": "56557","zip+4": "0000","phone": "2189352525"}
{"name": "WALGREEN DRUG STORE #7781","address1": "4202 PHEASANT RIDGE DR NE","address2": "","city": "BLAINE","state": "MN","zip": "55449","zip+4": "0000","phone": "6512551494"}
{"name": "TARGET PHARMACY #1831","address1": "11990 BUSINESS PARK BLVD N","address2": "","city": "CHAMPLIN","state": "MN","zip": "55316","zip+4": "0000","phone": "7633541007"}
{"name": "TARGET PHARMACY #1832","address1": "1500 109TH AVE NE","address2": "","city": "BLAINE","state": "MN","zip": "55449","zip+4": "0000","phone": "7633541001"}
{"name": "TARGET PHARMACY #1833","address1": "14333 HWY 13","address2": "","city": "SAVAGE","state": "MN","zip": "55378","zip+4": "0000","phone": "9522261442"}
{"name": "WALGREEN DRUG STORE #7388","address1": "1665 WHITE BEAR AVE N","address2": "","city": "ST PAUL","state": "MN","zip": "55106","zip+4": "0000","phone": "6512511930"}
{"name": "MERITCARE NORTH PHARMACY","address1": "1705 ANNE ST NW","address2": "STE 3 4 5 6 7","city": "BEMIDJI","state": "MN","zip": "56601","zip+4": "0000","phone": "2183334770"}
{"name": "THRIFTY WHITE DRUG #753","address1": "2040 2ND STREET","address2": "","city": "LAKE PARK","state": "MN","zip": "56554","zip+4": "0000","phone": "2182386642"}
{"name": "NORTHFIELD HOSPITAL","address1": "2000 NORTH AVE","address2": "","city": "NORTHFIELD","state": "MN","zip": "55057","zip+4": "0000","phone": "5076461000"}
{"name": "CUB PHARMACY #1636","address1": "23800 STATE HWY 7","address2": "","city": "SHOREWOOD","state": "MN","zip": "55331","zip+4": "0000","phone": "9524013990"}
{"name": "WACONIA PHARMACY","address1": "430 HWY 5 WEST","address2": "","city": "WACONIA","state": "MN","zip": "55387","zip+4": "0000","phone": "9524423274"}
{"name": "CUB PHARMACY #1640","address1": "14075 HWY 13","address2": "","city": "SAVAGE","state": "MN","zip": "55378","zip+4": "0000","phone": "9524471611"}
{"name": "UMMC DEPARTMENT OF PHARMACEUTI","address1": "500 HARVARD STREET SOUTHEAST R","address2": "","city": "MINNEAPOLIS","state": "MN","zip": "55455","zip+4": "0000","phone": "6122733200"}
{"name": "CURTS PHARMACY","address1": "1615 W MAIN ST","address2": "","city": "ALBERT LEA","state": "MN","zip": "56007","zip+4": "0000","phone": "5073736337"}
{"name": "QUEEN OF PEACE HOSPITAL","address1": "301 2ND ST NE","address2": "","city": "NEW PRAGUE","state": "MN","zip": "56071","zip+4": "0000","phone": "9527584431"}
{"name": "CUB PHARMACY #1641","address1": "3717 LEXINGTON AVE N","address2": "","city": "ARDEN HILLS","state": "MN","zip": "55126","zip+4": "0000","phone": "6514831504"}
{"name": "WALGREEN DRUG STORE #7812","address1": "21495 141ST AVE N","address2": "","city": "ROGERS","state": "MN","zip": "55374","zip+4": "0000","phone": "7634285340"}
{"name": "WAL-MART PHARMACY #105089","address1": "9165 CAHILL AVENUE","address2": "","city": "INVER GROVE HEIGHT","state": "MN","zip": "55076","zip+4": "0000","phone": "6514517860"}
{"name": "PRAIRIESTONE PHARMACY #2","address1": "800 W 78TH ST","address2": "","city": "CHANHASSEN","state": "MN","zip": "55317","zip+4": "0000","phone": "9523805970"}
{"name": "PRAIRIESTONE PHARMACY #1","address1": "3777 PARK CENTER BLVD","address2": "","city": "ST LOUIS PARK","state": "MN","zip": "55416","zip+4": "0000","phone": "9529292315"}
{"name": "PRAIRIESTONE PHARMACY #3","address1": "13081 RIDGEDALE DRIVE","address2": "","city": "MINNETONKA","state": "MN","zip": "55305","zip+4": "0000","phone": "9524170322"}
{"name": "PRAIRIESTONE PHARMACY #4","address1": "6228 PENN AVE S","address2": "","city": "RICHFIELD","state": "MN","zip": "55423","zip+4": "0000","phone": "6128668362"}
{"name": "HY VEE PHARMACY #1848","address1": "1230 NORTH STATE STREET","address2": "","city": "WASECA","state": "MN","zip": "56093","zip+4": "0000","phone": "5078337007"}
{"name": "CUB PHARMACY #1656","address1": "7435 179TH ST","address2": "","city": "LAKEVILLE","state": "MN","zip": "55044","zip+4": "0000","phone": "9528915050"}
{"name": "HUTCHINSON AREA HEALTH CARE","address1": "1095 S HWY 15","address2": "","city": "HUTCHINSON","state": "MN","zip": "55350","zip+4": "0000","phone": "3202345000"}
{"name": "WASECA MEDICAL CENTER","address1": "501 N STATE ST","address2": "","city": "WASECA","state": "MN","zip": "56093","zip+4": "0000","phone": "5078351210"}
{"name": "FAIRVIEW COMPOUNDING PHARMACY","address1": "711 KASOTA AVE SE","address2": "STE C","city": "MINNEAPOLIS","state": "MN","zip": "55414","zip+4": "0000","phone": "6126725737"}
{"name": "LAKE REGION HEALTHCARE CORP","address1": "712 S CASCADE ST","address2": "","city": "FERGUS FALLS","state": "MN","zip": "56537","zip+4": "0000","phone": "2187368000"}
{"name": "MAYO CLINIC PHARMACY NORTHEAST","address1": "3041 STONEHEDGE DR NE","address2": "","city": "ROCHESTER","state": "MN","zip": "55906","zip+4": "0000","phone": "5075388550"}
{"name": "CUB PHARMACY #1935","address1": "2197 HUDSON RD","address2": "","city": "ST PAUL","state": "MN","zip": "55119","zip+4": "0000","phone": "6515014934"}
{"name": "WALGREEN DRUG STORE #6916","address1": "6061 OSGOOD AVE N","address2": "","city": "OAK PARK HEIGHTS","state": "MN","zip": "55082","zip+4": "0000","phone": "6516890043"}
{"name": "PRAIRIESTONE PHARMACY #5","address1": "7171 FRANCE AVE S","address2": "","city": "EDINA","state": "MN","zip": "55435","zip+4": "0000","phone": "9522778663"}
{"name": "WAL-MART PHARMACY #105437","address1": "1450 UNIVERSITY AVENUE WEST","address2": "","city": "ST PAUL","state": "MN","zip": "55104","zip+4": "0000","phone": "6516444286"}
{"name": "FAIRVIEW CEDAR RIDGE PHARMACY","address1": "15650 CEDAR AVENUE SOUTH","address2": "","city": "APPLE VALLEY","state": "MN","zip": "55124","zip+4": "0000","phone": "9529974155"}
{"name": "COBORNS PHARMACY #16","address1": "645 LAKE ST S","address2": "","city": "LONG PRAIRIE","state": "MN","zip": "56347","zip+4": "0000","phone": "3207322915"}
{"name": "PRAIRIESTONE PHARMACY #6","address1": "2128 FORD PKWY","address2": "","city": "ST PAUL","state": "MN","zip": "55116","zip+4": "0000","phone": "6512513491"}
{"name": "WALGREEN DRUG STORE #1951","address1": "612 4TH ST NW","address2": "","city": "FARIBAULT","state": "MN","zip": "55021","zip+4": "0000","phone": "5073328035"}
{"name": "THRIFTY WHITE DRUG #754","address1": "441 NORTH ARROWHEAD LANE","address2": "","city": "MOOSE LAKE","state": "MN","zip": "55767","zip+4": "0000","phone": "2184854401"}
{"name": "FALKS SPIRIT VALLEY PHARMACY","address1": "5300 BRISTOL ST","address2": "","city": "DULUTH","state": "MN","zip": "55807","zip+4": "0000","phone": "2186241222"}
{"name": "WALGREEN DRUG STORE #2316","address1": "2024 85TH AVE N","address2": "","city": "BROOKLYN PARK","state": "MN","zip": "55444","zip+4": "0000","phone": "7634249714"}
{"name": "MOOB PHARMACY","address1": "1202 PAYNE AVE","address2": "","city": "ST PAUL","state": "MN","zip": "55130","zip+4": "0000","phone": "6517722626"}
{"name": "WITTS PHARMACY LTC","address1": "213 S MILL ST","address2": "","city": "RUSHFORD","state": "MN","zip": "55971","zip+4": "0000","phone": "5078643159"}
{"name": "WALGREEN DRUG STORE #2460","address1": "115 GARFIELD ST N","address2": "","city": "CAMBRIDGE","state": "MN","zip": "55008","zip+4": "0000","phone": "7635523100"}
{"name": "WALGREEN DRUG STORE #9094","address1": "1420 W OAKLAND AVE","address2": "","city": "AUSTIN","state": "MN","zip": "55912","zip+4": "0000","phone": "5073960194"}
{"name": "WALGREEN DRUG STORE #7727","address1": "750 MANKATO AVE","address2": "","city": "WINONA","state": "MN","zip": "55987","zip+4": "0000","phone": "5074524035"}
{"name": "THRIFTY WHITE DRUG #755","address1": "205 6TH AVENUE","address2": "","city": "MADISON","state": "MN","zip": "56256","zip+4": "0000","phone": "3205983864"}
{"name": "ST JOSEPHS AREA HEALTH SERVICE","address1": "600 PLEASANT AVE","address2": "","city": "PARK RAPIDS","state": "MN","zip": "56470","zip+4": "0000","phone": "2187323311"}
{"name": "CUYUNA REGIONAL MEDICAL CENTER","address1": "320 E MAIN ST","address2": "","city": "CROSBY","state": "MN","zip": "56441","zip+4": "0000","phone": "2185467000"}
{"name": "PRAIRIESTONE PHARMACY #7","address1": "1151 WAYZATA BLVD","address2": "","city": "WAYATA","state": "MN","zip": "55391","zip+4": "0000","phone": "9524731687"}
{"name": "CVS PHARMACY #05997","address1": "2017 COON RAPIDS BLVD","address2": "","city": "COON RAPIDS","state": "MN","zip": "55433","zip+4": "0000","phone": "7637576052"}
{"name": "CVS PHARMACY #06715","address1": "4241 JONNY CAKE RD","address2": "","city": "EAGAN","state": "MN","zip": "55122","zip+4": "0000","phone": "6516887041"}
{"name": "CUB PHARMACY #1939","address1": "701 W BROADWAY AVE","address2": "","city": "MINNEAPOLIS","state": "MN","zip": "55411","zip+4": "0000","phone": "6123028740"}
{"name": "HUGOS FAMILY PHARMACY","address1": "215 PENNINGTON AVE","address2": "","city": "THIEF RIVER FALLS","state": "MN","zip": "56701","zip+4": "0000","phone": "2186811515"}
{"name": "COBORNS PHARMACY #32","address1": "1725 PINE CONE RD S","address2": "","city": "SARTELL","state": "MN","zip": "56377","zip+4": "0000","phone": "3202584942"}
{"name": "PRAIRIESTONE PHARMACY #8","address1": "3455 VICKSBURG LANE","address2": "","city": "PLYMOUTH","state": "MN","zip": "55447","zip+4": "0000","phone": "7635531248"}
{"name": "WALGREEN DRUG STORE #1445","address1": "9124 BRODERICK BLVD","address2": "","city": "INVER GROVE HEIGHT","state": "MN","zip": "55076","zip+4": "0000","phone": "6512513829"}
{"name": "WAL-MART PHARMACY #105397","address1": "955 FRONTENAC DRIVE","address2": "","city": "WINONA","state": "MN","zip": "55987","zip+4": "0000","phone": "5074520615"}
{"name": "WALGREEN DRUG STORE #9095","address1": "125 18TH ST SE","address2": "","city": "OWATONNA","state": "MN","zip": "55060","zip+4": "0000","phone": "5074514404"}
{"name": "CVS PHARMACY #06811","address1": "4140 RD 101 N","address2": "","city": "PLYMOUTH","state": "MN","zip": "55446","zip+4": "0000","phone": "7634784612"}
{"name": "CVS PHARMACY #07110","address1": "3633 BUNKER LAKE BLVD NW","address2": "","city": "ANDOVER","state": "MN","zip": "55304","zip+4": "0000","phone": "7634215011"}
{"name": "PRAIRIESTONE PHARMACY #9","address1": "3945 W 50TH ST","address2": "","city": "EDINA","state": "MN","zip": "55424","zip+4": "0000","phone": "9522249880"}
{"name": "WALGREEN DRUG STORE #2078","address1": "2134 BUNKER LAKE BLVD NW","address2": "","city": "ANDOVER","state": "MN","zip": "55304","zip+4": "0000","phone": "7637540330"}
{"name": "COSTCO PHARMACY #783","address1": "12011 TECHNOLOGY DRIVE","address2": "","city": "EDEN PRAIRIE","state": "MN","zip": "55344","zip+4": "0000","phone": "9529434828"}
{"name": "WALGREEN DRUG STORE #9065","address1": "401 5TH ST W","address2": "","city": "NORTHFIELD","state": "MN","zip": "55057","zip+4": "0000","phone": "5076459523"}
{"name": "WALGREEN DRUG STORE #9350","address1": "1123 E BLUE EARTH AVE","address2": "","city": "FAIRMONT","state": "MN","zip": "56031","zip+4": "0000","phone": "5072355065"}
{"name": "THRIFTY WHITE DRUG #756","address1": "101 CLEVELAND AVENUE EAST","address2": "","city": "KARLSTAD","state": "MN","zip": "56732","zip+4": "0000","phone": "2184362438"}
{"name": "CVS PHARMACY #07060","address1": "810 MARYLAND AVE E","address2": "","city": "ST PAUL","state": "MN","zip": "55106","zip+4": "0000","phone": "6517741005"}
{"name": "CVS PHARMACY #07152","address1": "2357 108TH LANE NE","address2": "","city": "BLAINE","state": "MN","zip": "55449","zip+4": "0000","phone": "7637800776"}
{"name": "CVS PHARMACY #07197","address1": "6300 WEDGEWOOD RD N","address2": "","city": "MAPLE GROVE","state": "MN","zip": "55311","zip+4": "0000","phone": "7635511215"}
{"name": "CVS PHARMACY #05996","address1": "3655 CENTRAL AVE NE","address2": "","city": "MINNEAPOLIS","state": "MN","zip": "55418","zip+4": "0000","phone": "6127892460"}
{"name": "RAINBOW PHARMACY #8828","address1": "15125 CEDAR AVE","address2": "","city": "APPLE VALLEY","state": "MN","zip": "55124","zip+4": "0000","phone": "9524319774"}
{"name": "PRAIRIESTONE PHARMACY #10","address1": "12880 ELM CREEK BLVD","address2": "","city": "MAPLE GROVE","state": "MN","zip": "55369","zip+4": "0000","phone": "7634203005"}
{"name": "RAINBOW PHARMACY #8815","address1": "1276 TOWN CENTRE DR","address2": "","city": "EAGAN","state": "MN","zip": "55123","zip+4": "0000","phone": "6514525663"}
{"name": "GERALD L MONTIE","address1": "UNITED FAMILY PRACTICE","address2": "545 W 7TH ST","city": "ST PAUL","state": "MN","zip": "55102","zip+4": "0000","phone": "6512411000"}
{"name": "WAL-MART PHARMACY #103364","address1": "1644 SOUTH ROBERT STREET SO","address2": "","city": "WEST ST PAUL","state": "MN","zip": "55118","zip+4": "0000","phone": "6514539671"}
{"name": "WALGREEN DRUG STORE #7218","address1": "12480 ABERDEEN ST NE","address2": "","city": "BLAINE","state": "MN","zip": "55449","zip+4": "0000","phone": "7638626722"}
{"name": "CVS PHARMACY #05999","address1": "2800 COUNTY RD 10","address2": "","city": "MOUNDS VIEW","state": "MN","zip": "55112","zip+4": "0000","phone": "7637801549"}
{"name": "CITY CENTER DRUG #757","address1": "618 ATLANTIC AVENUE","address2": "","city": "MORRIS","state": "MN","zip": "56267","zip+4": "0000","phone": "3205891100"}
{"name": "REGINA MEDICAL CENTER","address1": "1175 NININGER RD","address2": "","city": "HASTINGS","state": "MN","zip": "55033","zip+4": "0000","phone": "9524804100"}
{"name": "FAIRVIEW EDEN PRAIRIE PHARMACY","address1": "830 PRAIRIE CENTER DRIVE","address2": "","city": "EDEN PRAIRIE","state": "MN","zip": "55344","zip+4": "0000","phone": "9528266680"}
{"name": "PRAIRIESTONE PHARMACY #12","address1": "1299 PROMENADE PLACE","address2": "","city": "EAGAN","state": "MN","zip": "55121","zip+4": "0000","phone": "6512092974"}
{"name": "FIRST CHOICE PHARMACY","address1": "660 3RD ST","address2": "","city": "GAYLORD","state": "MN","zip": "55334","zip+4": "0000","phone": "5072372933"}
{"name": "WAL-MART PHARMACY #103404","address1": "3800 SILVER LAKE ROAD NE","address2": "","city": "ST. ANTHONY","state": "MN","zip": "55421","zip+4": "0000","phone": "6127881478"}
{"name": "TARGET PHARMACY #2025","address1": "2000 BUNKER LAKE BLVD NW","address2": "","city": "ANDOVER","state": "MN","zip": "55304","zip+4": "0000","phone": "7638520114"}
{"name": "EXPRESS HEALTHCARE","address1": "10190 BALTIMORE ST NE","address2": "STE 110","city": "BLAINE","state": "MN","zip": "55449","zip+4": "0000","phone": "7637959363"}
{"name": "ALLINA COMMUNITY PHARMACIES #1","address1": "825 NICHOLLET MALL","address2": "STE 150","city": "MINNEAPOLIS","state": "MN","zip": "55402","zip+4": "0000","phone": "6123176500"}
{"name": "ALLINA COMMUNITY PHARMACIES #1","address1": "800 E 28TH ST","address2": "STE H2005","city": "MINNEAPOLIS","state": "MN","zip": "55407","zip+4": "0000","phone": "6127753100"}
{"name": "PRAIRIESTONE PHARMACY #14","address1": "401 EAST COUNTY RD 42","address2": "","city": "BURNSVILLE","state": "MN","zip": "55306","zip+4": "0000","phone": "9524358145"}
{"name": "CVS PHARMACY #07175","address1": "4800 HWY 61","address2": "","city": "WHITE BEAR LAKE","state": "MN","zip": "55110","zip+4": "0000","phone": "6517623864"}
{"name": "HUGOS FAMILY PHARMACY","address1": "1310 UNIVERSITY AVE","address2": "","city": "CROOKSTON","state": "MN","zip": "56716","zip+4": "0000","phone": "2182813174"}
{"name": "WALGREEN DRUG STORE #7728","address1": "17630 KENWOOD TRL","address2": "","city": "LAKEVILLE","state": "MN","zip": "55044","zip+4": "0000","phone": "9528925900"}
{"name": "WAL-MART PHARMACY #103624","address1": "9320 CEDAR STREET","address2": "","city": "MONTICELLO","state": "MN","zip": "55362","zip+4": "0000","phone": "7632959813"}
{"name": "COBORNS PHARMACY #8","address1": "705 COUNTY ROAD 75","address2": "","city": "CLEARWATER","state": "MN","zip": "55320","zip+4": "0000","phone": "3205582454"}
{"name": "MERCY SAMEDAY SURG CTR","address1": "14181 BUSINESS CENTER DR NW","address2": "","city": "ELK RIVER","state": "MN","zip": "55330","zip+4": "0000","phone": "7632360500"}
{"name": "CVS PHARMACY #01747","address1": "7765 GALPIN BLVD","address2": "","city": "CHANHASSEN","state": "MN","zip": "55317","zip+4": "0000","phone": "9524746623"}
{"name": "PARK NICOLLET PHARMACY","address1": "300 LAKE DRIVE EAST","address2": "","city": "CHANHASSEN","state": "MN","zip": "55317","zip+4": "0000","phone": "9529934430"}
{"name": "THRIFTY WHITE DRUG #758","address1": "18 SOUTH MARSHALL AVENUE","address2": "","city": "SPRINGFIELD","state": "MN","zip": "56087","zip+4": "0000","phone": "5077234313"}
{"name": "CVS PHARMACY #05992","address1": "7901 BASS LAKE RD","address2": "","city": "NEW HOPE","state": "MN","zip": "55428","zip+4": "0000","phone": "7632570130"}
{"name": "CUB PHARMACY #1643","address1": "8600 114TH AVE N","address2": "","city": "CHAMPLIN","state": "MN","zip": "55316","zip+4": "0000","phone": "7634228700"}
{"name": "RAINBOW PHARMACY #8822","address1": "17756 KENWOOD TRAIL","address2": "","city": "LAKEVILLE","state": "MN","zip": "55044","zip+4": "0000","phone": "9528984505"}
{"name": "SAMS PHARMACY #106427","address1": "3410 NORTHWEST 55TH STREET","address2": "","city": "ROCHESTER","state": "MN","zip": "55901","zip+4": "0000","phone": "5072925783"}
{"name": "WAL-MART PHARMACY #102643","address1": "10240 HUDSON ROAD","address2": "","city": "WOODBURY","state": "MN","zip": "55129","zip+4": "0000","phone": "6517355190"}
{"name": "ECONO DRUG OTTERTAIL","address1": "300 MN HWY 78 NORTH","address2": "","city": "OTTERTAIL","state": "MN","zip": "56571","zip+4": "0000","phone": "2183672196"}
{"name": "HEALTHPARTNERS SPECIALTY CENTE","address1": "401 PHALEN BLVD","address2": "","city": "ST PAUL","state": "MN","zip": "55130","zip+4": "5302","phone": "6512548280"}
{"name": "PRAIRIESTONE PHARMACY #16","address1": "5159 W 98TH ST","address2": "","city": "BLOOMINGTON","state": "MN","zip": "55437","zip+4": "0000","phone": "9522245034"}
{"name": "COBORNS PHARMACY #33","address1": "7900 SUNWOOD DR NW","address2": "","city": "RAMSEY","state": "MN","zip": "55303","zip+4": "0000","phone": "7633231004"}
{"name": "ALLINA COMMUNITY APPLE VALLEY","address1": "14655 GALAXIE AVE","address2": "","city": "APPLE VALLEY","state": "MN","zip": "55124","zip+4": "0000","phone": "6512413800"}
{"name": "CVS PHARMACY #01746","address1": "2150 EAGLE CREEK LN","address2": "","city": "WOODBURY","state": "MN","zip": "55129","zip+4": "0000","phone": "6514364732"}
{"name": "ZOSS DRUG","address1": "14400 EXCELSIOR BLVD","address2": "","city": "MINNETONKA","state": "MN","zip": "55345","zip+4": "0000","phone": "9529385347"}
{"name": "CVS PHARMACY # #05998","address1": "499 SNELLING AVE N","address2": "","city": "SAINT PAUL","state": "MN","zip": "55104","zip+4": "0000","phone": "6519172001"}
{"name": "CVS PHARMACY #07117","address1": "2426 W BROADWAY AVE","address2": "","city": "MINNEAPOLIS","state": "MN","zip": "55411","zip+4": "0000","phone": "6122870140"}
{"name": "THRIFTY WHITE DRUG #759","address1": "104 WEST 3RD AVENUE","address2": "","city": "ADA","state": "MN","zip": "56510","zip+4": "0000","phone": "2187842434"}
{"name": "SNYDER'S DRUG STORE # #5040","address1": "309 NORTH FAXON ROAD","address2": "","city": "NORWOOD","state": "MN","zip": "55368","zip+4": "0000","phone": "9524673144"}
{"name": "CUB PHARMACY #1644","address1": "7900 MARKET BLVD","address2": "","city": "CHANHASSEN","state": "MN","zip": "55317","zip+4": "0000","phone": "9529342865"}
{"name": "HERRMANN THRIFTY WHITE PHARMAC","address1": "744 ASH ST NE","address2": "","city": "LONSDALE","state": "MN","zip": "55046","zip+4": "0000","phone": "5077443373"}
{"name": "WALGREEN DRUG STORE #9633","address1": "421 PAUL BUNYAN DR NW","address2": "","city": "BEMIDJI","state": "MN","zip": "56601","zip+4": "0000","phone": "2183334030"}
{"name": "WALGREEN DRUG STORE #9727","address1": "14020 PILOT KNOB RD","address2": "","city": "APPLE VALLEY","state": "MN","zip": "55124","zip+4": "0000","phone": "9523223277"}
{"name": "CVS PHARMACY #05161","address1": "1040 GRAND AVE","address2": "","city": "ST PAUL","state": "MN","zip": "55105","zip+4": "0000","phone": "6512242155"}
{"name": "CVS PHARMACY #01751","address1": "2196 WHITE BEAR N","address2": "","city": "MAPLEWOOD","state": "MN","zip": "55109","zip+4": "0000","phone": "6517040322"}
{"name": "THRIFTY WHITE DRUG #760","address1": "760 PRENTICE STREET","address2": "","city": "GRANITE FALLS","state": "MN","zip": "56241","zip+4": "0000","phone": "3205642339"}
{"name": "WALGREEN DRUG STORE #9728","address1": "600 79TH ST W","address2": "","city": "CHANHASSEN","state": "MN","zip": "55317","zip+4": "0000","phone": "9522521081"}
{"name": "WALGREEN DRUG STORE #10210","address1": "1100 2ND ST S","address2": "","city": "SARTELL","state": "MN","zip": "56377","zip+4": "0000","phone": "3206548274"}
{"name": "WALGREEN DRUG STORE #10189","address1": "1321 OXFORD ST","address2": "","city": "WORTHINGTON","state": "MN","zip": "56187","zip+4": "0000","phone": "5073722592"}
{"name": "GOODRICH PHARMACY BLAINE","address1": "11855 ULYSSES ST NE","address2": "","city": "BLANE","state": "MN","zip": "55434","zip+4": "0000","phone": "7637170222"}
{"name": "WALGREEN DRUG STORE #1002","address1": "3255 VICKSBURG LN N","address2": "","city": "PLYMOUTH","state": "MN","zip": "55447","zip+4": "0000","phone": "7632538914"}
{"name": "NORTHWEST MEDICAL CENTER CLINI","address1": "120 LABREE AVE S","address2": "","city": "THIEF RIVER FALLS","state": "MN","zip": "56701","zip+4": "0000","phone": "2186814240"}
{"name": "CVS PHARMACY #01303","address1": "10930 UNIVERSITY AVE NW","address2": "","city": "COON RAPIDS","state": "MN","zip": "55443","zip+4": "0000","phone": "7637556316"}
{"name": "CVS PHARMACY #01683","address1": "5801 BROOKLYN BLVD","address2": "","city": "BROOKLYN CENTER","state": "MN","zip": "55429","zip+4": "0000","phone": "7635371237"}
{"name": "ASPEN MEDICAL GROUP","address1": "1850 BEAM AVE","address2": "","city": "MAPLEWOOD","state": "MN","zip": "55109","zip+4": "0000","phone": "6516417176"}
{"name": "FAIRVIEW PHARMACY UNIVERSITY V","address1": "2545 UNIVERSITY AVENUE SOUTHEA","address2": "","city": "MINNEAPOLIS","state": "MN","zip": "55414","zip+4": "0000","phone": "6126721430"}
{"name": "WAL-MART PHARMACY #103761","address1": "1755 HIGHWAY 59 SE","address2": "","city": "THIEF RIVER FALLS","state": "MN","zip": "56701","zip+4": "0000","phone": "2186833655"}
{"name": "CVS PHARMACY #08527","address1": "822 30TH AVE SOUTH","address2": "","city": "MOORHEAD","state": "MN","zip": "56560","zip+4": "0000","phone": "2182360807"}
{"name": "MERWIN IV AND SPECIALTY PHCY","address1": "3001 LOUISIANA AVE N","address2": "STE B","city": "NEW HOPE","state": "MN","zip": "55427","zip+4": "2947","phone": "7637469890"}
{"name": "DULUTH CLINIC 1ST ST PHCY","address1": "420 E 1ST STREET","address2": "","city": "DULUTH","state": "MN","zip": "55805","zip+4": "1901","phone": "2187861685"}
{"name": "ST JOSEPHS MEDICAL CENTER","address1": "523 N 3RD ST","address2": "","city": "BRAINERD","state": "MN","zip": "56401","zip+4": "0000","phone": "2188292861"}
{"name": "GILLETTE CHILDRENS SPECIALTY H","address1": "200 UNIVERSITY AVE E","address2": "","city": "ST PAUL","state": "MN","zip": "55101","zip+4": "0000","phone": "6517262890"}
{"name": "COBORNS PHARMACY #27","address1": "2211 11TH ST E","address2": "","city": "GLENCOE","state": "MN","zip": "55336","zip+4": "0000","phone": "3208645192"}
{"name": "LAKEVIEW COMMUNITY PHARMACY","address1": "1500 CURVE CREST BLVD","address2": "","city": "STILLWATER","state": "MN","zip": "55082","zip+4": "0000","phone": "6514304670"}
{"name": "TARGET PHARMACY #2135","address1": "7900 32ND ST N","address2": "","city": "OAKDALE","state": "MN","zip": "55128","zip+4": "0000","phone": "6518550991"}
{"name": "USDRUGS COM","address1": "3505 8TH ST S","address2": "STE 9","city": "MOORHEAD","state": "MN","zip": "56560","zip+4": "5108","phone": "2182845559"}
{"name": "THRIFTY WHITE DRUG #762","address1": "6901 E FISH LAKE ROAD","address2": "SUITE 118A","city": "MAPLE GROVE","state": "MN","zip": "55369","zip+4": "0000","phone": "7634634400"}
{"name": "WALGREEN DRUG STORE #10516","address1": "608 N BROADWAY ST","address2": "","city": "NEW ULM","state": "MN","zip": "56073","zip+4": "1726","phone": "5073598793"}
{"name": "CUB PHARMACY #1654","address1": "9655 COLORADO LN N","address2": "","city": "BROOKLYN PARK","state": "MN","zip": "55445","zip+4": "0000","phone": "7633150737"}
{"name": "WALGREEN DRUG STORE #09794","address1": "7940 PENN AVE S","address2": "","city": "BLOOMINGTON","state": "MN","zip": "55431","zip+4": "1315","phone": "9252521154"}
{"name": "TARGET PHARMACY #2189","address1": "8900 HIGHWAY 7","address2": "","city": "ST LOUIS PK","state": "MN","zip": "55426","zip+4": "0000","phone": "9529358407"}
{"name": "TARGET PHARMACY #2200","address1": "755 53RD AVE NE","address2": "","city": "FRIDLEY","state": "MN","zip": "55421","zip+4": "0000","phone": "7635719766"}
{"name": "CVS PHARMACY #01129","address1": "4152 LAKELAND AVE N","address2": "","city": "ROBBINSDALE","state": "MN","zip": "55422","zip+4": "0000","phone": "7635352459"}
{"name": "TARGET PHARMACY #2223","address1": "300 HIGHWAY 55","address2": "","city": "MEDINA","state": "MN","zip": "55340","zip+4": "0000","phone": "7638520007"}
{"name": "CUB PHARMACY #1941","address1": "1001 4TH ST SE","address2": "","city": "ST CLOUD","state": "MN","zip": "56304","zip+4": "0000","phone": "3202580155"}
{"name": "CVS PHARMACY #1784","address1": "17578 DOOD BLVD","address2": "","city": "LAKEVILLE","state": "MN","zip": "55044","zip+4": "0000","phone": "9524328770"}
{"name": "WALGREEN DRUG STORE #10289","address1": "18267 CARSON CT","address2": "","city": "ELK RIVER","state": "MN","zip": "55330","zip+4": "0000","phone": "7632521175"}
{"name": "COSTCO PHARMACY #648","address1": "11330 FOUNTAINS DR N","address2": "","city": "MAPLE GROVE","state": "MN","zip": "55369","zip+4": "0000","phone": "7634948059"}
{"name": "COUNTRY MANOR LTC PHARMACY","address1": "520 1ST ST NE","address2": "SUITE A","city": "SARTELL","state": "MN","zip": "56377","zip+4": "0000","phone": "3202550801"}
{"name": "CVS PHARMACY #00663","address1": "15051 GALAXIE","address2": "","city": "APPLE VALLEY","state": "MN","zip": "55124","zip+4": "0000","phone": "9524323535"}
{"name": "CVS PHARMACY #08435","address1": "5696 UNIVERISTY AVE","address2": "","city": "FRIDLEY","state": "MN","zip": "55432","zip+4": "0000","phone": "7635712081"}
{"name": "ST MARYS PHARMACY SERVICES","address1": "1027 WASHINGTON AVE","address2": "SUITE A","city": "DETROIT LAKES","state": "MN","zip": "56501","zip+4": "0000","phone": "2188440788"}
{"name": "THRIFTY WHITE DRUG #763","address1": "1001 CENTER AVE","address2": "SUITE J","city": "MOORHEAD","state": "MN","zip": "56560","zip+4": "0000","phone": "2182270052"}
{"name": "PACE PEDIATRICS","address1": "1547 LIVINGSTON AVE","address2": "","city": "WEST ST PAUL","state": "MN","zip": "55118","zip+4": "0000","phone": "6514518050"}
{"name": "PRAIRIESTONE PHARMACY #18","address1": "55 UNIVERSITY AVE SE","address2": "","city": "MINNEAPOLIS","state": "MN","zip": "55414","zip+4": "0000","phone": "6125483835"}
{"name": "RIDGEVIEW MEDICAL CENTER","address1": "500 SOUTH MAPLE ST","address2": "","city": "WACONIA","state": "MN","zip": "55387","zip+4": "0000","phone": "9524422191"}
{"name": "WAL-MART PHARMACY #104246","address1": "100 JUNIPER AVE NW","address2": "","city": "WADENA","state": "MN","zip": "56482","zip+4": "0000","phone": "2186311723"}
{"name": "WALGREEN DRUG STORE #01479","address1": "16750 CTY RD 30","address2": "","city": "MAPLE GROVE","state": "MN","zip": "55311","zip+4": "4523","phone": "7634161863"}
{"name": "THRIFTY WHITE PHARMACY #767","address1": "127 2ND AVE SW","address2": "","city": "MILACA","state": "MN","zip": "56353","zip+4": "0000","phone": "3209823300"}
{"name": "THRIFTY WHITE PHARMACY #766","address1": "115 RUM RIVER DR N","address2": "","city": "PRINCETON","state": "MN","zip": "55371","zip+4": "0000","phone": "7633891411"}
{"name": "CUB PHARMACY #1940","address1": "13855 ROGERS DR","address2": "","city": "ROGERS","state": "MN","zip": "55374","zip+4": "0000","phone": "7634286080"}
{"name": "SOUTH LAKE PEDIATRICS","address1": "17705 HUTCHINS DR","address2": "STE 101","city": "MINNETONKA","state": "MN","zip": "55345","zip+4": "0000","phone": "9524018300"}
{"name": "TARGET PHARMACY #2180","address1": "1447 EAST 7TH ST","address2": "","city": "MONTICELLO","state": "MN","zip": "55362","zip+4": "0000","phone": "7632711101"}
{"name": "SNYDER DRUG STORE INC #5033","address1": "4151 FREMONT AVE N","address2": "","city": "MINNEAPOLIS","state": "MN","zip": "55412","zip+4": "0000","phone": "6125223634"}
{"name": "SNYDER'S DRUG STORE # #5056","address1": "3235 CHASKA ROAD","address2": "","city": "CHASKA","state": "MN","zip": "55318","zip+4": "0000","phone": "9524482737"}
{"name": "THRIFTY WHITE PHARMACY #765","address1": "303 N MAIN ST","address2": "","city": "RENVILLE","state": "MN","zip": "56284","zip+4": "0602","phone": "3203298308"}
{"name": "LONGVILLE LAKES CLINIC","address1": "180 JORDAN LANE","address2": "","city": "LONGVILLE","state": "MN","zip": "55344","zip+4": "0000","phone": "2183633300"}
{"name": "GENOA HEALTHCARE #52","address1": "1821 UNIVERSITY AVE","address2": "","city": "ST PAUL","state": "MN","zip": "55104","zip+4": "0000","phone": "6519174029"}
{"name": "CUB PHARMACY #1645","address1": "100 XYLITE ST NE","address2": "","city": "CAMBRIDGE","state": "MN","zip": "55008","zip+4": "0000","phone": "7636890185"}
{"name": "FAIRVIEW PHARMACY SMILEYS CLIN","address1": "2020 28TH ST EAST","address2": "","city": "MINNEAPOLIS","state": "MN","zip": "55407","zip+4": "0000","phone": "6126724020"}
{"name": "UVANTA PHARMACY-MINNEAPOLIS","address1": "414 GATEWAY BLVD","address2": "","city": "BURNSVILLE","state": "MN","zip": "55337","zip+4": "2559","phone": "9528086909"}
{"name": "FAIRVIEW UNIVERSITY MASONIC PH","address1": "424 HARVARD ST SE","address2": "STE 300","city": "MINNEAPOLIS","state": "MN","zip": "55455","zip+4": "0000","phone": "6126266429"}
{"name": "WAL-MART PHARMACY #104244","address1": "1303 CHARLES STREET","address2": "","city": "PARK RAPIDS","state": "MN","zip": "56470","zip+4": "0000","phone": "2187320329"}
{"name": "WALGREEN DRUG STORE #10501","address1": "5474 MOUTAIN IRON DR","address2": "","city": "VIRGINIA","state": "MN","zip": "55792","zip+4": "3371","phone": "2187412421"}
{"name": "WAL-MART PHARMACY #103760","address1": "1720 WESTRIDGE ROAD","address2": "","city": "NEW ULM","state": "MN","zip": "56073","zip+4": "0000","phone": "5073540912"}
{"name": "WAL-MART PHARMACY #104253","address1": "205 12TH STREET SOUTH","address2": "","city": "SAUK CENTRE","state": "MN","zip": "56378","zip+4": "0000","phone": "3203527943"}
{"name": "HHHCC ONCOLOGY PHARMACY","address1": "3435 W BROADWAY","address2": "STE 1135","city": "ROBBINSDALE","state": "MN","zip": "55422","zip+4": "0000","phone": "7635201152"}
{"name": "DAILY MED PHARMACY","address1": "9995 W 69TH STREET","address2": "STE 102","city": "EDEN PRAIRIE","state": "MN","zip": "55344","zip+4": "0000","phone": "9525485327"}
{"name": "GLENCOE REGIONAL HEALTH SERVIC","address1": "1805 HENNEPIN AVE NO","address2": "","city": "GLENCOE","state": "MN","zip": "55336","zip+4": "0000","phone": "3208643121"}
{"name": "CVS PHARMACY #03344","address1": "4050 DEAN LAKE BLVD","address2": "","city": "SHAKOPEE","state": "MN","zip": "55379","zip+4": "0000","phone": "9524029039"}
{"name": "WALGREENS DRUG STORE #11125","address1": "1130 E 37TH ST","address2": "","city": "HIBBING","state": "MN","zip": "55746","zip+4": "2962","phone": "2182621358"}
{"name": "ARROW ASSISTED LIVING PHARMACY","address1": "109 N 2ND AVE W","address2": "STE 200","city": "DULUTH","state": "MN","zip": "55802","zip+4": "0000","phone": "2187336800"}
{"name": "RIVERWOOD GARRISON CLINIC PHAR","address1": "27278 STATE HWY 18","address2": "","city": "GARRISON","state": "MN","zip": "56450","zip+4": "0000","phone": "3205253401"}
{"name": "CVS PHARMACY #04696","address1": "21455 JOHN MILLESS DR","address2": "","city": "ROGERS","state": "MN","zip": "55374","zip+4": "0000","phone": "7634282629"}
{"name": "WAL-MART PHARMACY #103758","address1": "1930 SAHLSTROM DRIVE","address2": "","city": "CROOKSTON","state": "MN","zip": "56716","zip+4": "0000","phone": "2182816170"}
{"name": "WAL-MART PHARMACY #103806","address1": "1250 GOEMANN ROAD","address2": "","city": "FAIRMONT","state": "MN","zip": "56031","zip+4": "0000","phone": "5072352517"}
{"name": "WAL-MART PHARMACY #104374","address1": "2301 EAST FRONTAGE ROAD","address2": "","city": "LITCHFIELD","state": "MN","zip": "55355","zip+4": "0000","phone": "3206932004"}
{"name": "FARIVIEW PHARMACY MAPLE GROVE","address1": "14500 99TH AVE N","address2": "1A029","city": "MAPLE GROVE","state": "MN","zip": "55369","zip+4": "0000","phone": "7638981800"}
{"name": "WALGREENS DRUG STORE #10473","address1": "1700 RICE ST","address2": "","city": "SAINT PAUL","state": "MN","zip": "55113","zip+4": "6812","phone": "6512519811"}
{"name": "FOND DU LAC MASHKIKI WAAKAAIGA","address1": "1433 EAST FRANKLIN AVE","address2": "STE 13","city": "MINNEAPOLIS","state": "MN","zip": "55404","zip+4": "0000","phone": "6128711989"}
{"name": "RICE MEMORIAL HOSPITAL","address1": "301 BECKER AVE SW","address2": "","city": "WILLMAR","state": "MN","zip": "56201","zip+4": "0000","phone": "3202354543"}
{"name": "WALGREENS DRUG STORE #10640","address1": "703 E MAIN ST","address2": "","city": "ALBERT LEA","state": "MN","zip": "56007","zip+4": "0000","phone": "5073690260"}
{"name": "THRIFTY WHITE PHARMACY #768","address1": "183 N TYLER ST","address2": "","city": "TYLER","state": "MN","zip": "56178","zip+4": "0000","phone": "5072475504"}
{"name": "MOORHEAD DRUG COMPANY","address1": "420 CENTER AVE","address2": "STE 12","city": "MOORHEAD","state": "MN","zip": "56560","zip+4": "1957","phone": "2182331529"}
{"name": "FALKS MT ROYAL PHARMACY","address1": "1600 WOODLAND AVE","address2": "","city": "DULUTH","state": "MN","zip": "55803","zip+4": "0000","phone": "2187405600"}
{"name": "NORTH DRUGS #2","address1": "9825 HOSPITAL DRIVE","address2": "STE 100","city": "MAPLE GROVE","state": "MN","zip": "55369","zip+4": "0000","phone": "7639813100"}
{"name": "TARGET PHARMACY #2300","address1": "6445 RICHFIELD PKWY","address2": "","city": "RICHFIELD","state": "MN","zip": "55423","zip+4": "0000","phone": "6122520474"}
{"name": "TARGET PHARMACY #2321","address1": "4611 MAINE AVE SE","address2": "","city": "ROCHESTER","state": "MN","zip": "55904","zip+4": "0000","phone": "5072065020"}
{"name": "UNITY FAMILY HEALTHCARE OUTPAT","address1": "815 2ND ST SE","address2": "","city": "LITTLE FALLS","state": "MN","zip": "56345","zip+4": "0000","phone": "3206321172"}
{"name": "CVS PHARMACY #01776","address1": "2730 COUNTRY ROAD EAST","address2": "","city": "WHITE BEAR LAKE","state": "MN","zip": "55110","zip+4": "0000","phone": "6517776816"}
{"name": "CUB PHARMACY #1657","address1": "20250 HERITAGE DR","address2": "","city": "LAKEVILLE","state": "MN","zip": "55044","zip+4": "0000","phone": "9524698404"}
{"name": "COBORNS PHARMACY #2037","address1": "225 33RD ST W","address2": "","city": "HASTINGS","state": "MN","zip": "55033","zip+4": "0000","phone": "6514376716"}
{"name": "CVS PHARMACY #00241","address1": "19605 PILOT KNOB RD","address2": "","city": "FARMINGTON","state": "MN","zip": "55024","zip+4": "0000","phone": "6514633693"}
{"name": "CVS PHARMACY #01995","address1": "15115 DOVE TRAIL","address2": "","city": "APPLE VALLEY","state": "MN","zip": "55124","zip+4": "0000","phone": "9524233200"}
{"name": "LAKE ELMO PHARMACY","address1": "11240 STILLWATER BLVD N","address2": "","city": "LAKE ELMO","state": "MN","zip": "55042","zip+4": "9640","phone": "6517730889"}
{"name": "MERCY HOSPITAL","address1": "4050 COON RAPIDS BLVD","address2": "","city": "COON RAPIDS","state": "MN","zip": "55433","zip+4": "0000","phone": "7632366000"}
{"name": "OWATONNA HOSPITAL","address1": "903 S OAK ST","address2": "","city": "OWATONNA","state": "MN","zip": "55060","zip+4": "0000","phone": "5074513850"}
{"name": "TRUCARE PHARMACY","address1": "316 SW 4TH ST","address2": "STE 7","city": "WILLMAR","state": "MN","zip": "56201","zip+4": "0000","phone": "3204417011"}
{"name": "FAIRVIEW COLUMBIA HEIGHTS PHAR","address1": "4000 CENTRAL AVE NE","address2": "","city": "COLUMBIA HEIGHTS","state": "MN","zip": "55421","zip+4": "0000","phone": "7637828149"}
{"name": "MERIT CARE THIEF RIVER FALLS S","address1": "1720 HWY 59 S","address2": "STE 2","city": "THIEF RIVER FALLS","state": "MN","zip": "56701","zip+4": "0000","phone": "2816832725"}
{"name": "WALGREEN DRUG STORE #01751","address1": "2920 WHITE BEAR AVE N","address2": "","city": "MAPLEWOOD","state": "MN","zip": "55109","zip+4": "0000","phone": "6512519938"}
{"name": "WALGREEN DRUG STORE #11421","address1": "1180 ARCADE ST","address2": "","city": "SAINT PAUL","state": "MN","zip": "55106","zip+4": "2629","phone": "6512519887"}
{"name": "WALGREEN DRUG STORE #11916","address1": "1221 WEST LAKE ST","address2": "STE 200","city": "MINNEAPOLIS","state": "MN","zip": "55408","zip+4": "3397","phone": "6128241036"}
{"name": "FAIRVIEW ANDOVER PHARMACY #49","address1": "13819 HANSON BLVD","address2": "SUITE 100","city": "ANDOVER","state": "MN","zip": "55304","zip+4": "0000","phone": "7638624445"}
{"name": "PAMIDA PHARMACY #682","address1": "506 2ND ST","address2": "","city": "JACKSON","state": "MN","zip": "56143","zip+4": "0233","phone": "5078473161"}
{"name": "WALGREEN DRUG STORE #11287","address1": "10905 UYLSSES ST NE","address2": "","city": "BLAINE","state": "MN","zip": "55434","zip+4": "3801","phone": "7632520687"}
{"name": "WALGREEN DRUG STORE #11157","address1": "910 BROADWAY ST","address2": "","city": "ALEXANDRIA","state": "MN","zip": "56308","zip+4": "1814","phone": "3207634360"}
{"name": "DAKOTA PEDIATRIC CLINIC","address1": "17504 DODD BLVD","address2": "","city": "LAKEVILLE","state": "MN","zip": "55044","zip+4": "0000","phone": "9529972572"}
{"name": "TARGET PHARMACY #2390","address1": "15560 PILOT KNOB RD","address2": "","city": "APPLE VALLEY","state": "MN","zip": "55124","zip+4": "0000","phone": "9522363166"}
{"name": "NORTHEAST PEDIATRIC CLINIC PA","address1": "4520 CENTERVILLE RD","address2": "","city": "VADNAIS HEIGHTS","state": "MN","zip": "55127","zip+4": "0000","phone": "6514261144"}
{"name": "CVS PHARMACY #07172","address1": "2001 NICOLLET AVENUE","address2": "","city": "MINNEAPOLIS","state": "MN","zip": "55404","zip+4": "0000","phone": "6128722656"}
{"name": "GENOA HEALTHCARE MINNESOTA LLC","address1": "317 YORK AVENUE","address2": "","city": "ST PAUL","state": "MN","zip": "55101","zip+4": "0000","phone": "6517710286"}
{"name": "CVS PHARMACY #05311","address1": "1314 BABCOCK BLVD","address2": "","city": "DELANO","state": "MN","zip": "55328","zip+4": "0000","phone": "7639723266"}
{"name": "CVS PHARMACY #05308","address1": "17665 KENWOOD TRAIL","address2": "","city": "LAKEVILLE","state": "MN","zip": "55044","zip+4": "0000","phone": "9524353784"}
{"name": "CVS PHARMACY #06040","address1": "1110 HENNEPIN AVE","address2": "","city": "MINNEAPOLIS","state": "MN","zip": "55403","zip+4": "0000","phone": "6123385867"}
{"name": "CVS PHARMACY #00313","address1": "1471 ROBERT ST","address2": "","city": "WEST SAINT PAUL","state": "MN","zip": "55118","zip+4": "0000","phone": "6515526029"}
{"name": "COBORNS PHARMACY #2038","address1": "200 ALTON AVE SE","address2": "","city": "NEW PRAQUE","state": "MN","zip": "56071","zip+4": "0000","phone": "9527583132"}
{"name": "THRIFTY WHITE PHARMACY #769","address1": "2000 PAUL BUNYAN DRIVE NW","address2": "","city": "BEMIDJI","state": "MN","zip": "56601","zip+4": "0000","phone": "2187516380"}
{"name": "WALGREEN DRUG STORE #11690","address1": "121 DEPOT DR","address2": "","city": "WACONIA","state": "MN","zip": "55387","zip+4": "0000","phone": "9524422146"}
{"name": "TRUMAN CLINIC MAYO HEALTH SYST","address1": "401 N 4TH AVE E","address2": "","city": "TRUMAN","state": "MN","zip": "56088","zip+4": "0000","phone": "5077762811"}
{"name": "FAIRVIEW NEW BRIGHTON PHARMACY","address1": "1151 SILVER LAKE RD","address2": "","city": "NEW BRIGHTON","state": "MN","zip": "55112","zip+4": "0000","phone": "6517462580"}
{"name": "CASH WISE CLINIC PHARMACY #180","address1": "600 PETERSON PARKWAY","address2": "","city": "NEW LONDON","state": "MN","zip": "56273","zip+4": "0000","phone": "3203543998"}
{"name": "THRIFTY WHITE PHARMACY #770","address1": "1234 E HWY 17","address2": "","city": "MONTEVIDEO","state": "MN","zip": "56265","zip+4": "0000","phone": "3202696412"}
{"name": "GLOBAL HEALTH MART PHARMACY","address1": "811 E 24TH ST","address2": "","city": "MINNEAPOLIS","state": "MN","zip": "55404","zip+4": "0000","phone": "6128863337"}
{"name": "FAIRVIEW PHARMACY BROOKLYN PAR","address1": "10000 ZANE AVE NORTH","address2": "","city": "BROOKLYN PARK","state": "MN","zip": "55443","zip+4": "0000","phone": "7635696281"}
{"name": "WAL-MART PHARMACY #104257","address1": "1000 18TH AVE NW","address2": "","city": "AUSTIN","state": "MN","zip": "55912","zip+4": "0000","phone": "5074348159"}
{"name": "NEW ULM MEDICAL CENTER","address1": "1324 NORTH 5TH ST","address2": "","city": "NEW ULM","state": "MN","zip": "56073","zip+4": "0000","phone": "5072331000"}
{"name": "ST FRANCIS REGIONAL MEDICAL CE","address1": "1455 ST FRANCIS AVE","address2": "","city": "SHAKOPEE","state": "MN","zip": "55379","zip+4": "0000","phone": "9524033000"}
{"name": "COSTCO PHARMACY #1021","address1": "1431 BEAM AVE","address2": "","city": "MAPLEWOOD","state": "MN","zip": "55109","zip+4": "0000","phone": "6124861747"}
{"name": "WALGREENS #11952","address1": "4205 EGAN RD","address2": "","city": "SAVAGE","state": "MN","zip": "55378","zip+4": "0000","phone": "9527462202"}
{"name": "CAREPLUS CVS PHARMACY #05754","address1": "3M CENTER BUILDING 224 2E","address2": "","city": "ST PAUL","state": "MN","zip": "55144","zip+4": "1000","phone": "4017651500"}
{"name": "WALGREENS #12535","address1": "1705 COMMERCE DR","address2": "","city": "NORTH MANKATO","state": "MN","zip": "56003","zip+4": "0000","phone": "5073881617"}
{"name": "WALGREENS #12765","address1": "825 S 8TH ST","address2": "SL10","city": "MINNEAPOLIS","state": "MN","zip": "55404","zip+4": "1208","phone": "6123328500"}
{"name": "VITALIFERX PHARMACY","address1": "4151 FREMONT AVE N","address2": "","city": "MINNEAPOLIS","state": "MN","zip": "55412","zip+4": "0000","phone": "6122941200"}
{"name": "TARGET PHARMACY #2449","address1": "875 E MAIN STREET","address2": "","city": "WACONIA","state": "MN","zip": "55387","zip+4": "1081","phone": "9524429334"}
{"name": "TARGET PHARMACY #2456","address1": "15800 87TH ST NE","address2": "","city": "OTSEGO","state": "MN","zip": "55330","zip+4": "6546","phone": "8777982738"}
{"name": "WALGREENS #11832","address1": "3605 ROUND LAKE BLVD. NW","address2": "","city": "ANOKA","state": "MN","zip": "55303","zip+4": "0000","phone": "7632520751"}
{"name": "THRIFTY WHITE PHARMACY #771","address1": "4570 COUNTY HIGHWAY 61","address2": "","city": "MOOSE LAKE","state": "MN","zip": "55767","zip+4": "0000","phone": "2184852111"}
{"name": "THRIFTY WHITE PHARMACY #772","address1": "204 LUNDORFF DRIVE","address2": "","city": "SANDSTONE","state": "MN","zip": "55072","zip+4": "0000","phone": "3202455500"}
{"name": "CUB PHARMACY #4973","address1": "1177 CLARENCE ST","address2": "","city": "SAINT PAUL","state": "MN","zip": "55106","zip+4": "0000","phone": "6517747772"}
{"name": "CVS PHARMACY #03562","address1": "8251 COLUMBINE RD","address2": "","city": "EDEN PRAIRIE","state": "MN","zip": "55344","zip+4": "0000","phone": "9529411266"}
{"name": "SHOPKO PHARMACY #2179","address1": "5630 ST CROIX TRAIL","address2": "","city": "NORTH BRANCH","state": "MN","zip": "55056","zip+4": "4202","phone": "6516749956"}
{"name": "PAYNESVILLE COMMUNITY HOSPITAL","address1": "200 FIRST STREET WEST","address2": "","city": "PAYNESVILLE","state": "MN","zip": "56362","zip+4": "0000","phone": "3205972122"}
{"name": "RAINBOW FOODS PHARMACY #8848","address1": "970 EDEN PRAIRIE DR","address2": "","city": "EDEN PRAIRIE","state": "MN","zip": "55344","zip+4": "0000","phone": "9529345520"}
{"name": "RAINBOW FOODS PHARMACY #8802","address1": "1201 LARPENTEUR AVE W","address2": "","city": "ROSEVILLE","state": "MN","zip": "55113","zip+4": "0000","phone": "6514898620"}
{"name": "WALGREENS # #12403","address1": "600 VILLAGE CENTER DR","address2": "","city": "NORTH OAKS","state": "MN","zip": "55127","zip+4": "0000","phone": "6512511014"}
{"name": "CUB PHARMACY #4974","address1": "1020 DIFFLEY ROAD","address2": "","city": "EAGAN","state": "MN","zip": "55123","zip+4": "0000","phone": "6514525500"}
{"name": "BEST AID PHARMACY","address1": "4335 EXCELCIOR BVD","address2": "","city": "ST LOUIS PARK","state": "MN","zip": "55416","zip+4": "0000","phone": "9529224444"}
{"name": "FALLS MEMORIAL HOSPITAL","address1": "1400 HIGHWAY 7","address2": "","city": "INTERNATIONAL FALL","state": "MN","zip": "56649","zip+4": "0000","phone": "2182835449"}
{"name": "PINE MEDICAL CENTER","address1": "109 COURT AVENUE SOUTH","address2": "","city": "SANDSTONE","state": "MN","zip": "55072","zip+4": "0000","phone": "9526532568"}
{"name": "STERLING DRUG #19","address1": "430 2ND AVE NW","address2": "","city": "FARIBAULT","state": "MN","zip": "55021","zip+4": "0000","phone": "5073335464"}
{"name": "COBORN'S PHARMACY #2039","address1": "1500 ELM ST E","address2": "","city": "SAINT JOSEPH","state": "MN","zip": "56374","zip+4": "0000","phone": "3202711135"}
{"name": "LAKE CEDAR PHARMACY LLC","address1": "1822 EAST  LAKE STREET","address2": "","city": "MINNEAPOLIS","state": "MN","zip": "55406","zip+4": "0000","phone": "6513371405"}
{"name": "WALGREENS #12510","address1": "6025 SHENANDOAH LN N","address2": "","city": "PLYMOUTH","state": "MN","zip": "55446","zip+4": "0000","phone": "7632521300"}
{"name": "ERICKSON MEDICAL CLINIC","address1": "205 W. SEVENTH STREET","address2": "","city": "PARK RAPIDS","state": "MN","zip": "56470","zip+4": "0000","phone": "2187327760"}
{"name": "WALGREENS #11374","address1": "1023 1ST AVE NE","address2": "","city": "LITTLE FALLS","state": "MN","zip": "56345","zip+4": "3336","phone": "3206321639"}
{"name": "WALGREENS #12131","address1": "1301 1ST ST S","address2": "","city": "WILLMAR","state": "MN","zip": "56201","zip+4": "4201","phone": "3202224000"}
{"name": "THRIFTY WHITE PHARMACY # #773","address1": "808 SOUTH LAKE STREET","address2": "","city": "FOREST LAKE","state": "MN","zip": "55025","zip+4": "0000","phone": "6514645518"}
{"name": "WALGREENS #11956","address1": "17 DIVISION ST","address2": "","city": "WAITE PARK","state": "MN","zip": "56387","zip+4": "1349","phone": "3202031035"}
{"name": "MOKA PHARMACY","address1": "1515 E FRANKLIN AVENUE","address2": "","city": "MINNEAPOLLIS","state": "MN","zip": "55404","zip+4": "0000","phone": "6128740575"}
{"name": "CVS PHARMACY # #08930","address1": "657 E MAIN ST","address2": "","city": "ANOKA","state": "MN","zip": "55303","zip+4": "0000","phone": "4017651500"}
{"name": "PHARMA LIFE MINNESOTA","address1": "9 W 14TH STREET","address2": "","city": "MINNEAPOLIS","state": "MN","zip": "55403","zip+4": "0000","phone": "6516888866"}
{"name": "THRIFTY WHITE PHARMACY # #774","address1": "2622 BROADWAY AVENUE","address2": "","city": "SLAYTON","state": "MN","zip": "56172","zip+4": "0000","phone": "5078366702"}
{"name": "CUB PHARMACY #1950","address1": "10520 FRANCE AVE SOUTH","address2": "","city": "BLOOMINGTON","state": "MN","zip": "55431","zip+4": "0000","phone": "9528884310"}
{"name": "PLAINVIEW PHARMACY","address1": "245 1ST STREET SW","address2": "","city": "PLAINVIEW","state": "MN","zip": "55964","zip+4": "1304","phone": "5075343815"}
{"name": "STEWARTVILLE PHARMACY","address1": "220 CENTERTOWN PLAZA","address2": "","city": "STEWARTVILLE","state": "MN","zip": "55976","zip+4": "0000","phone": "5075336883"}
{"name": "ZUMBROTA PHARMACY","address1": "98 WEST 5TH STREET","address2": "","city": "ZUMBROTA","state": "MN","zip": "55992","zip+4": "1649","phone": "5077327309"}
{"name": "STERLING DRUG #20","address1": "209 MAINE AVE","address2": "SUITE 105","city": "ADRIAN","state": "MN","zip": "56110","zip+4": "0000","phone": "5074832332"}
{"name": "ST. JAMES MEDICAL CENTER","address1": "1101 MOULTON AND PARSONS DR","address2": "","city": "ST. JAMES","state": "MN","zip": "56081","zip+4": "0000","phone": "5073753391"}
{"name": "GUIDEPOINT LTC PHARMACY #201","address1": "108 S 6TH ST  SUITE A","address2": "","city": "BRAINERD","state": "MN","zip": "56401","zip+4": "0000","phone": "2188293476"}
{"name": "WALGREENS # #12592","address1": "326 W LINCOLN AVE","address2": "","city": "FERGUS FALLS","state": "MN","zip": "56537","zip+4": "0000","phone": "2187361028"}
{"name": "HY-VEE PHARMACY #1511","address1": "1620 SOUTH CEDAR","address2": "","city": "OWATONNA","state": "MN","zip": "55060","zip+4": "0000","phone": "5074510179"}
{"name": "WALGREENS # #11835","address1": "7200 CEDAR LAKE RD","address2": "","city": "ST LOUIS PARK","state": "MN","zip": "55426","zip+4": "2725","phone": "9522522502"}
{"name": "CVS PHARMACY # #07406","address1": "8468 TAMARACK BAY","address2": "","city": "WOODBURY","state": "MN","zip": "55125","zip+4": "3738","phone": "4017651500"}
{"name": "WALGREENS #11250","address1": "3913 W OLD SKAKOPEE RD","address2": "","city": "BLOOMINGTON","state": "MN","zip": "55437","zip+4": "0000","phone": "9522521062"}
{"name": "ST. MARY'S REGIONAL HEALTH CEN","address1": "1027 WASHINGTON AVE","address2": "","city": "DETROIT LAKES","state": "MN","zip": "56501","zip+4": "3409","phone": "2188475611"}
{"name": "WALGREENS # #12404","address1": "3141 S SERVICE DR","address2": "","city": "RED WING","state": "MN","zip": "55066","zip+4": "1943","phone": "6513275000"}
{"name": "CHILDREN'S HOSPTIALS AND CLINI","address1": "2530 CHICAGO AVE","address2": "CSC 225","city": "MINNEAPOLIS","state": "MN","zip": "55404","zip+4": "4570","phone": "6128137290"}
{"name": "THRIFTY WHITE PHARMACY # #775","address1": "601 1ST AVE","address2": "","city": "WESTBROOK","state": "MN","zip": "56183","zip+4": "9500","phone": "5072746479"}
{"name": "SUMMIT ORTHOPEDIC ASSOCIATES","address1": "17 EXCHANGE ST W","address2": "","city": "SAINT PAUL","state": "MN","zip": "55102","zip+4": "1045","phone": "6518425200"}
{"name": "PHARMACY @ PARK NICOLLET","address1": "15800 95TH AVE N","address2": "","city": "MAPLE GROVE","state": "MN","zip": "55369","zip+4": "0000","phone": "9529932200"}
{"name": "WALGREENS #12434","address1": "2499 HIGHWAY 7","address2": "","city": "EXCELSIOR","state": "MN","zip": "55331","zip+4": "9701","phone": "9522521070"}
{"name": "RAINBOW FOODS PHARMACY #8803","address1": "5370 16TH AVE","address2": "","city": "ST LOUIS PARK","state": "MN","zip": "55416","zip+4": "0000","phone": "9525461951"}
{"name": "CVS PHARMACY # #03205","address1": "949 PORTLAND AVE","address2": "","city": "MINNEAPOLIS","state": "MN","zip": "55404","zip+4": "1192","phone": "6123329647"}
{"name": "FAIRVIEW PHARMACY HUGO #34","address1": "14712 VICTOR HUGO BLVD N STE 1","address2": "","city": "HUGO","state": "MN","zip": "55038","zip+4": "4561","phone": "6514661970"}
{"name": "CVS PHARMACY # #04573","address1": "2650 RICE ST.","address2": "","city": "LITTLE CANADA","state": "MN","zip": "55117","zip+4": "0000","phone": "6514840504"}
{"name": "CVS PHARMACY #04597","address1": "7996 BROOKLYN BLVD","address2": "","city": "BROOKLYN PARK","state": "MN","zip": "55445","zip+4": "2722","phone": "7634881624"}
{"name": "WALGREENS #11834","address1": "80 14TH ST SW","address2": "","city": "ROCHESTER","state": "MN","zip": "55902","zip+4": "3821","phone": "5072065132"}
{"name": "KEAVENY LTC PHARMACY # #21","address1": "201 BROADWAY AVE S","address2": "","city": "COKATO","state": "MN","zip": "55321","zip+4": "4681","phone": "3202865129"}
{"name": "WALGREENS #12044","address1": "8240 FLYING CLOUD DR","address2": "","city": "EDEN PRAIRIE","state": "MN","zip": "55344","zip+4": "5316","phone": "9522521112"}
{"name": "GENOA HEALTHCARE #80","address1": "1900 SILVER LAKE ROADSUITE 1","address2": "","city": "NEW BRIGHTON","state": "MN","zip": "55112","zip+4": "0000","phone": "6515837097"}
{"name": "PRAIRIESTONE PHARMACY","address1": "PRAIRIESTONE PHARMACY","address2": "2800 CAMPUS DR STE 30","city": "PLYMOUTH","state": "MN","zip": "55441","zip+4": "0000","phone": "6169403580"}
{"name": "P&C FOOD MARKETS","address1": "PO BOX 751490","address2": "2901 INTERSTATE 85 S","city": "CHARLOTTE","state": "NC","zip": "28228","zip+4": "9997","phone": "3154612481"}
{"name": "COSTCO CORP","address1": "999 LAKE DR","address2": "","city": "ISSAQUAH","state": "WA","zip": "98027","zip+4": "0000","phone": "4253138100"}
{"name": "DULUTH CLINIC","address1": "400 E 3RD ST","address2": "BSC POD G10","city": "DULUTH","state": "MN","zip": "55805","zip+4": "0000","phone": "2187253137"}
{"name": "WEBER & JUDD","address1": "PO BOX 5877","address2": "","city": "ROCHESTER","state": "MN","zip": "55903","zip+4": "5877","phone": "5072891666"}
{"name": "THRIFTY-WHITE STORES","address1": "6901 E FISH LAKE RD #118","address2": "","city": "MAPLE GROVE","state": "MN","zip": "55369","zip+4": "0000","phone": "7635134300"}
{"name": "HEALTHPARTNERS PHARMACY","address1": "8100 34TH AVE S","address2": "PO BOX 1309","city": "MINNEAPOLIS","state": "MN","zip": "55440","zip+4": "1309","phone": "6128835847"}
{"name": "SUPERVALU INC","address1": "19011 LAKE DRIVE EAST","address2": "","city": "CHANHASSEN","state": "MN","zip": "55317","zip+4": "0000","phone": "9522947243"}
{"name": "SNYDER'S DRUG STORESINC.","address1": "PHARMACY OPERATIONS","address2": "14525 HIGHWAY 7","city": "MINNETONKA","state": "MN","zip": "55345","zip+4": "0000","phone": "9529362416"}
{"name": "TARGET PHARMACY RECEIVABLES","address1": "7000 TARGET PARKWAY","address2": "MAIL STOP 2440","city": "BROOKLYN PARK","state": "MN","zip": "55445","zip+4": "0000","phone": "7634402902"}
{"name": "NASH FINCH COMPANY","address1": "7600 FRANCE AVENUE SO","address2": "","city": "EDINA","state": "MN","zip": "55435","zip+4": "0000","phone": "6128442125"}
{"name": "PARK NICOLLET PHARMACIES","address1": "3800 PARK NICOLLET BLVD.","address2": "","city": "ST. LOUIS PARK","state": "MN","zip": "55416","zip+4": "0000","phone": "9529933148"}
{"name": "FAIRVIEW PHARMACY SERVICES","address1": "711 KASOTA AVE","address2": "","city": "MINNEAPOLIS","state": "MN","zip": "55414","zip+4": "0000","phone": "6126725302"}
{"name": "BIOSCRIP INC","address1": "10050 CROSSTOWN CIRCLE","address2": "SUITE 300","city": "EDEN PRAIRIE","state": "MN","zip": "55344","zip+4": "0000","phone": "9529793683"}
{"name": "COBORN'SINC.","address1": "1445 EAST HIGHWAY 23","address2": "","city": "ST CLOUD","state": "MN","zip": "56304","zip+4": "0000","phone": "3202524222"}
{"name": "ALLINA COMMUNITY PHARMACIE","address1": "2545 CHICAGO AVE S","address2": "SUITE 411","city": "MINNEAPOLIS","state": "MN","zip": "55404","zip+4": "0000","phone": "6128634452"}
{"name": "MAYO PHARMACY","address1": "21 SW 2ND STREET","address2": "STE 1-18","city": "ROCHESTER","state": "MN","zip": "55902","zip+4": "3023","phone": ""}
{"name": "INSTY MEDS CORPORATION","address1": "6501 CITY WEST PARKWAY","address2": "","city": "EDEN PRAIRIE","state": "MN","zip": "55344","zip+4": "0000","phone": "9525489400"}
{"name": "FAIRVIEW PHARMACY SERVICES","address1": "711 KASOTA AVE","address2": "","city": "MINNEAPOLIS","state": "MN","zip": "55414","zip+4": "0000","phone": "6126725302"}