{"name": "G & P PHARMACY INC","address1": "127 N HAYDEN ST","address2": "","city": "BELZONI","state": "MS","zip": "39038","zip+4": "3931","phone": "6628874135"}
{"name": "BEEMON DRUGS","address1": "1220 E NORTHSIDE DR","address2": "","city": "JACKSON","state": "MS","zip": "39211","zip+4": "0000","phone": "6013669431"}
{"name": "C AND C DRUGS INC","address1": "204 MAIN ST","address2": "","city": "COLLINS","state": "MS","zip": "39428","zip+4": "0327","phone": "6017656817"}
{"name": "FARLOWS PHARMACY INC","address1": "971 LAKELAND DR","address2": "STE 101","city": "JACKSON","state": "MS","zip": "39216","zip+4": "0000","phone": "6012002900"}
{"name": "WALGREEN DRUG STORE #4172","address1": "2405 PASS ROAD","address2": "","city": "BILOXI","state": "MS","zip": "39531","zip+4": "0000","phone": "2283882434"}
{"name": "CVS PHARMACY #05850","address1": "3657 MARKET ST","address2": "","city": "PASCAGOULA","state": "MS","zip": "39567","zip+4": "0000","phone": "2287629683"}
{"name": "CVS PHARMACY #05744","address1": "3910 HARDY ST","address2": "","city": "HATTIESBURG","state": "MS","zip": "39402","zip+4": "0000","phone": "6012646300"}
{"name": "TOTAL CARE SPECIALTY","address1": "425 MAIN STREET","address2": "","city": "COLUMBUS","state": "MS","zip": "39701","zip+4": "0000","phone": "6623281766"}
{"name": "CVS PHARMACY #05825","address1": "820 HWY 19 N STE 195","address2": "","city": "MERIDIAN","state": "MS","zip": "39307","zip+4": "0000","phone": "6014827194"}
{"name": "CVS PHARMACY #05801","address1": "212 W PARK AVE","address2": "","city": "GREENWOOD","state": "MS","zip": "38930","zip+4": "0000","phone": "6624538505"}
{"name": "CVS PHARMACY #05777","address1": "922 HWY 15 N","address2": "","city": "LAUREL","state": "MS","zip": "39440","zip+4": "0000","phone": "6014280408"}
{"name": "ROSE DRUG COMPANY","address1": "137 COMMERCE ST","address2": "","city": "WEST POINT","state": "MS","zip": "39773","zip+4": "0000","phone": "6624943341"}
{"name": "CVS PHARMACY #05808","address1": "760 S MARTIN LUTHER KING HWY","address2": "","city": "GREENVILLE","state": "MS","zip": "38701","zip+4": "0000","phone": "6623321518"}
{"name": "MEDICAL ARTS PHARMACY OF COLUM","address1": "504 MILITARY RD","address2": "","city": "COLUMBUS","state": "MS","zip": "39701","zip+4": "0000","phone": "6623288660"}
{"name": "CVS PHARMACY #05756","address1": "1420 CANTON MART RD","address2": "","city": "JACKSON","state": "MS","zip": "39211","zip+4": "0000","phone": "6019565143"}
{"name": "CVS PHARMACY #05835","address1": "5017 HWY 493 AND BROADMOOR","address2": "","city": "MERIDIAN","state": "MS","zip": "39305","zip+4": "0000","phone": "6014823141"}
{"name": "OLIVER DRUG STORE INC","address1": "25 PHYSICIAN LN","address2": "","city": "SOUTHAVEN","state": "MS","zip": "38671","zip+4": "6102","phone": "6623499481"}
{"name": "SHELTONS PHARMACY","address1": "115 ALABAMA ST","address2": "","city": "COLUMBUS","state": "MS","zip": "39702","zip+4": "0000","phone": "6623271614"}
{"name": "SUPER D DRUGS #26","address1": "4329 N STATE ST","address2": "SUITE 10","city": "JACKSON","state": "MS","zip": "39206","zip+4": "0000","phone": "6013661449"}
{"name": "RITE AID PHARMACY #07227","address1": "200 WEST RAILROAD STREET","address2": "SUITE B","city": "LONG BEACH","state": "MS","zip": "39560","zip+4": "4517","phone": "2288640334"}
{"name": "RITE AID PHARMACY #07231","address1": "1703 DELAWARE AVENUE","address2": "","city": "MCCOMB","state": "MS","zip": "39648","zip+4": "3611","phone": "6016840510"}
{"name": "RITE AID PHARMACY #07219","address1": "5916 US HIGHWAY 49","address2": "","city": "HATTIESBURG","state": "MS","zip": "39401","zip+4": "7577","phone": "6015449418"}
{"name": "CVS PHARMACY #05739","address1": "2190 BIENVILLE BLVD","address2": "","city": "OCEAN SPRINGS","state": "MS","zip": "39564","zip+4": "0000","phone": "2288752881"}
{"name": "CVS PHARMACY #05740","address1": "1701 A HWY 43 N","address2": "","city": "PICAYUNE","state": "MS","zip": "39466","zip+4": "0000","phone": "6017492213"}
{"name": "POINT REXALL DRUG","address1": "2127 24TH AVE","address2": "","city": "MERIDIAN","state": "MS","zip": "39301","zip+4": "2199","phone": "6014833367"}
{"name": "COLDWATER PHARMACY INC","address1": "421 CENTRAL ST","address2": "","city": "COLDWATER","state": "MS","zip": "38618","zip+4": "0000","phone": "6626227441"}
{"name": "SOUTHWEST DRUG STORE","address1": "1601 ADELINE ST","address2": "","city": "HATTIESBURG","state": "MS","zip": "39401","zip+4": "6267","phone": "6015822481"}
{"name": "VANJONS PHARMACY","address1": "320 E FIFTEEENTH ST","address2": "","city": "YAZOO CITY","state": "MS","zip": "39194","zip+4": "0000","phone": "6627463562"}
{"name": "SUPER D DRUGS #25","address1": "4500 I55 NORTH","address2": "","city": "JACKSON","state": "MS","zip": "39211","zip+4": "0000","phone": "6013667363"}
{"name": "SUPER D DRUGS #31","address1": "940 BROOKWAY BLVD","address2": "","city": "BROOKHAVEN","state": "MS","zip": "39601","zip+4": "0000","phone": "6018337757"}
{"name": "SUPER D DRUGS #14","address1": "1141 WEST MAIN","address2": "","city": "TUPELO","state": "MS","zip": "38801","zip+4": "0000","phone": "6628428716"}
{"name": "CVS PHARMACY #05745","address1": "2803 SUNCREST DR","address2": "","city": "JACKSON","state": "MS","zip": "39212","zip+4": "0000","phone": "6013732111"}
{"name": "CVS PHARMACY #05746","address1": "3510 HWY 80 E","address2": "","city": "PEARL","state": "MS","zip": "39208","zip+4": "0000","phone": "6019390834"}
{"name": "WELLS PHARMACY","address1": "320 CENTRAL AVE","address2": "","city": "LAUREL","state": "MS","zip": "39440","zip+4": "0000","phone": "6014262362"}
{"name": "PEOPLES DRUG STORE","address1": "100 MAIN ST","address2": "","city": "BUDE","state": "MS","zip": "39630","zip+4": "0000","phone": "6013842383"}
{"name": "BYRONS DISCOUNT DRUGS","address1": "196 SGT S PRENTISS DR","address2": "UNIT B","city": "NATCHEZ","state": "MS","zip": "39120","zip+4": "4737","phone": "6014428623"}
{"name": "WILSON-HOLDER DRUG COMPANY","address1": "636 FRANKLIN ST","address2": "","city": "NATCHEZ","state": "MS","zip": "39120","zip+4": "3312","phone": "6014427611"}
{"name": "CRANFORDS DRUG STORE","address1": "121 MAIN ST","address2": "","city": "SEMINARY","state": "MS","zip": "39479","zip+4": "0000","phone": "6017223291"}
{"name": "HENDERSON REXALL DRUGS","address1": "270 DELTA AVE","address2": "","city": "CLARKSDALE","state": "MS","zip": "38614","zip+4": "0000","phone": "6626246591"}
{"name": "SUPER SAVE DRUGS","address1": "488 E MAIN ST","address2": "","city": "MEADVILLE","state": "MS","zip": "39653","zip+4": "0000","phone": "6013842288"}
{"name": "QUINN PHARMACY","address1": "3160 AUDUBON DR","address2": "","city": "LAUREL","state": "MS","zip": "39440","zip+4": "0000","phone": "6014280688"}
{"name": "PEOPLES DRUG STORE INC","address1": "1521 WASHINGTON ST","address2": "","city": "VICKSBURG","state": "MS","zip": "39180","zip+4": "3539","phone": "6016365214"}
{"name": "WALLACE DISCOUNT DRUGS","address1": "520 N MAGNOLIA ST","address2": "","city": "LAUREL","state": "MS","zip": "39440","zip+4": "0000","phone": "6014284334"}
{"name": "HAGGARD DRUG STORE INC","address1": "301 THIRD STREET","address2": "","city": "CLARKSDALE","state": "MS","zip": "38614","zip+4": "4386","phone": "6626248361"}
{"name": "CRAWFORD PROFESSIONAL DRUGS IN","address1": "1107 JEFFERSON ST","address2": "","city": "LAUREL","state": "MS","zip": "39440","zip+4": "0000","phone": "6014252527"}
{"name": "ROSES SUPER DISCOUNT DRUGS","address1": "218 CALDWELL DR","address2": "","city": "HAZLEHURST","state": "MS","zip": "39083","zip+4": "0000","phone": "6018941222"}
{"name": "VILLAGE PHARMACY #1","address1": "1442 S MAIN ST","address2": "STE 4397","city": "GREENVILLE","state": "MS","zip": "38701","zip+4": "7098","phone": "6623351173"}
{"name": "MISSISSIPPI DISCOUNT DRUGS HEA","address1": "224 CLINTON BLVD","address2": "","city": "CLINTON","state": "MS","zip": "39056","zip+4": "5198","phone": "6019245212"}
{"name": "CITY DRUG STORE","address1": "113 BOBO DRIVE","address2": "","city": "CRYSTAL SPRINGS","state": "MS","zip": "39059","zip+4": "0000","phone": "6018924121"}
{"name": "CLAYTON DRUG STORE","address1": "216 MAIN ST","address2": "PO BOX 787","city": "COLLINS","state": "MS","zip": "39428","zip+4": "0787","phone": "6017654323"}
{"name": "FAYETTE DISCOUNT DRUGS","address1": "1418 MAIN ST","address2": "","city": "FAYETTE","state": "MS","zip": "39069","zip+4": "9802","phone": "6017863391"}
{"name": "TRIPLETT DAY DRUG COMPANY INC","address1": "2429 14TH ST","address2": "","city": "GULFPORT","state": "MS","zip": "39501","zip+4": "2083","phone": "2288632363"}
{"name": "MEDICAL ARTS PHARMACY","address1": "735 S 4TH ST","address2": "","city": "BALDWYN","state": "MS","zip": "38824","zip+4": "2612","phone": "6623655036"}
{"name": "MCGUFFEE DRUG INC #00549","address1": "102 N MAIN ST","address2": "","city": "MENDENHALL","state": "MS","zip": "39114","zip+4": "3596","phone": "6018472511"}
{"name": "ALLREDS PHARMACY INC","address1": "214 W GALLATIN ST","address2": "","city": "HAZLEHURST","state": "MS","zip": "39083","zip+4": "0000","phone": "6018943571"}
{"name": "PEOPLES DRUGS CO","address1": "117 NORTH MAIN ST","address2": "","city": "AMORY","state": "MS","zip": "38821","zip+4": "0000","phone": "6622568844"}
{"name": "BALDWYN DISCOUNT DRUGS","address1": "111 S SECOND AVE","address2": "","city": "BALDWYN","state": "MS","zip": "38824","zip+4": "0000","phone": "6623655294"}
{"name": "DAVIS FAMILY PHARMACY","address1": "124 PUBLIC SQ","address2": "","city": "BATESVILLE","state": "MS","zip": "38606","zip+4": "2122","phone": "6625639262"}
{"name": "SAVEREX DRUGS","address1": "287 HWY 6 WEST","address2": "","city": "BATESVILLE","state": "MS","zip": "38606","zip+4": "0000","phone": "6625637651"}
{"name": "SULLIVANS DRUG STORE","address1": "107 VAN VORIS ST","address2": "","city": "BATESVILLE","state": "MS","zip": "38606","zip+4": "2198","phone": "6625637687"}
{"name": "BEAUMONT DRUGS","address1": "881 HWY 198","address2": "","city": "BEAUMONT","state": "MS","zip": "39423","zip+4": "0000","phone": "6017843313"}
{"name": "YARBER DRUGS #8030","address1": "85 MAIN ST","address2": "","city": "BELMONT","state": "MS","zip": "38827","zip+4": "0188","phone": "6624543371"}
{"name": "CALVERTS PHARMACY","address1": "2561 PASS RD","address2": "STE A","city": "BILOXI","state": "MS","zip": "39531","zip+4": "0000","phone": "2283881411"}
{"name": "ECONOMY DRUGS","address1": "1053 HOWARD AVE","address2": "","city": "BILOXI","state": "MS","zip": "39530","zip+4": "0000","phone": "2284325581"}
{"name": "MEDICAL ARTS PHARMACY","address1": "186 BOHN STREET","address2": "","city": "BILOXI","state": "MS","zip": "39530","zip+4": "3812","phone": "2284327071"}
{"name": "BOONEVILLE DISCOUNT DRUGS INC","address1": "417A NORTH SECOND ST","address2": "","city": "BOONEVILLE","state": "MS","zip": "38829","zip+4": "0330","phone": "6627287781"}
{"name": "COX BLYTHE DRUGS","address1": "122 W COLLEGE ST","address2": "","city": "BOONEVILLE","state": "MS","zip": "38829","zip+4": "3498","phone": "6627287332"}
{"name": "BRANDON DISCOUNT DRUGS INC","address1": "200 TAMBERLIN","address2": "PO BOX 395","city": "BRANDON","state": "MS","zip": "39043","zip+4": "0395","phone": "6018252897"}
{"name": "BANE DRUGS","address1": "360 W MONTICELLO ST","address2": "","city": "BROOKHAVEN","state": "MS","zip": "39601","zip+4": "0000","phone": "6018331922"}
{"name": "CHANDLER DRUG INC","address1": "131 PUBLIC SQUARE","address2": "","city": "CALHOUN CITY","state": "MS","zip": "38916","zip+4": "0000","phone": "6626285331"}
{"name": "MISSISSIPPI DISCOUNT DRUGS","address1": "195 E PEACE ST","address2": "","city": "CANTON","state": "MS","zip": "39046","zip+4": "0000","phone": "6018593939"}
{"name": "MOSBYS DRUG STORE","address1": "1301 E PEACE ST","address2": "","city": "CANTON","state": "MS","zip": "39046","zip+4": "0000","phone": "6018594212"}
{"name": "CARTHAGE DISCOUNT DRUG CO","address1": "602 HWY 16 E","address2": "","city": "CARTHAGE","state": "MS","zip": "39051","zip+4": "4212","phone": "6012674533"}
{"name": "THE PRESCRIPTION SHOP","address1": "301 N ELLIS STREET","address2": "","city": "CARTHAGE","state": "MS","zip": "39051","zip+4": "3808","phone": "6012678078"}
{"name": "MAIN STREET PHARMACY","address1": "315 W MAIN ST","address2": "","city": "CHARLESTON","state": "MS","zip": "38921","zip+4": "2232","phone": "6626475541"}
{"name": "ECONOMY DRUGS OF CLARKSDALE IN","address1": "2021 HOSPITAL DR","address2": "","city": "CLARKSDALE","state": "MS","zip": "38614","zip+4": "6104","phone": "6626242356"}
{"name": "THE DRUG STORE","address1": "31 FRONT ST","address2": "","city": "COFFEEVILLE","state": "MS","zip": "38922","zip+4": "0279","phone": "6626752775"}
{"name": "COOK AND FORTENBERRY PHARMACY","address1": "718 MAIN ST","address2": "","city": "COLUMBIA","state": "MS","zip": "39429","zip+4": "2938","phone": "6017363481"}
{"name": "TAYLORS PHARMACY","address1": "508 HIGH SCHOOL AVE","address2": "","city": "COLUMBIA","state": "MS","zip": "39429","zip+4": "2916","phone": "6017364562"}
{"name": "BIGGS DRUG STORE INC #3440","address1": "101 E GEORGETOWN ST","address2": "","city": "CRYSTAL SPRINGS","state": "MS","zip": "39059","zip+4": "0000","phone": "6018924062"}
{"name": "WHEELER DRUG STORE","address1": "95 WEST BROAD ST","address2": "","city": "DECATUR","state": "MS","zip": "39327","zip+4": "0000","phone": "6016352646"}
{"name": "HOWELL AND HEGGIE DRUG COMPANY","address1": "389 NORTHWEST DEPOT STREET","address2": "","city": "DURANT","state": "MS","zip": "39063","zip+4": "0000","phone": "6626536441"}
{"name": "ELLISVILLE STATE SCHOOL PHARMA","address1": "1101 HWY 11 S","address2": "","city": "ELLISVILLE","state": "MS","zip": "39437","zip+4": "2602","phone": "6014775785"}
{"name": "WARDS PHARMACY #01","address1": "122 S FRONT ST","address2": "","city": "ELLISVILLE","state": "MS","zip": "39437","zip+4": "3118","phone": "6014778587"}
{"name": "BURNHAM MCKINNEY PHARMACIES IN","address1": "7709 HWY 613","address2": "","city": "MOSS POINT","state": "MS","zip": "39562","zip+4": "0000","phone": "2284753909"}
{"name": "MURPHY DRUGS AND GIFTS #8163","address1": "1357 VETERANS MEMORIAL BLVD","address2": "","city": "EUPORA","state": "MS","zip": "39744","zip+4": "0000","phone": "6622582631"}
{"name": "ROBINSONS DRUG","address1": "108 COLLEGE AVE","address2": "","city": "HOLLY SPRINGS","state": "MS","zip": "38635","zip+4": "2908","phone": "6622524171"}
{"name": "FAMILY DISCOUNT DRUG","address1": "512 AIRPORT RD","address2": "","city": "FOREST","state": "MS","zip": "39074","zip+4": "4032","phone": "6014691424"}
{"name": "S AND W PHARMACY INC","address1": "116 S CUMMINGS ST","address2": "","city": "FULTON","state": "MS","zip": "38843","zip+4": "0000","phone": "6628629025"}
{"name": "SAV REX PHARMACY #634","address1": "2307 HWY 90","address2": "","city": "GAUTIER","state": "MS","zip": "39553","zip+4": "0000","phone": "2284974090"}
{"name": "CONDON EAST UNION PHARMACY #12","address1": "1403 E UNION ST","address2": "","city": "GREENVILLE","state": "MS","zip": "38703","zip+4": "0000","phone": "6623320941"}
{"name": "CROSSTOWN PHARMACY","address1": "111 W PARK AVE","address2": "STE C","city": "GREENWOOD","state": "MS","zip": "38930","zip+4": "3006","phone": "6624535615"}
{"name": "MARASCALCOS SAV MOR DRUGS","address1": "1967 COMMERCE ST","address2": "","city": "GRENADA","state": "MS","zip": "38901","zip+4": "5196","phone": "6622266741"}
{"name": "BEACH PHARMACY","address1": "1110 COWAN ROAD","address2": "","city": "GULFPORT","state": "MS","zip": "39507","zip+4": "0000","phone": "2288967070"}
{"name": "FRENCH DRUG COMPANY INC","address1": "400 E PASS RD","address2": "","city": "GULFPORT","state": "MS","zip": "39507","zip+4": "2901","phone": "2288965656"}
{"name": "HATTIESBURG CONVALESENT CENTER","address1": "514 BAY ST","address2": "","city": "HATTIESBURG","state": "MS","zip": "39401","zip+4": "3998","phone": "6015444230"}
{"name": "FUNDERBURKS PHARMACY","address1": "134 W COMMERCE ST","address2": "","city": "HERNANDO","state": "MS","zip": "38632","zip+4": "2240","phone": "6624295337"}
{"name": "CITY DRUGS","address1": "100 W WASHINGTON ST","address2": "","city": "HOLLANDALE","state": "MS","zip": "38748","zip+4": "0000","phone": "6628275561"}
{"name": "TYSON DRUGS #3570","address1": "145 E VAN DORN ST","address2": "","city": "HOLLY SPRINGS","state": "MS","zip": "38635","zip+4": "3096","phone": "6622522321"}
{"name": "RUSHING DRUG CO","address1": "1519 WEST QUITMAN ST","address2": "","city": "IUKA","state": "MS","zip": "38852","zip+4": "2323","phone": "6624233629"}
{"name": "BRENTS DRUGS INC","address1": "655 DULING ST","address2": "","city": "JACKSON","state": "MS","zip": "39216","zip+4": "0000","phone": "6013663428"}
{"name": "KILMICHAEL DRUGS","address1": "306 LAMAR ST","address2": "","city": "KILMICHAEL","state": "MS","zip": "39747","zip+4": "0000","phone": "6622624220"}
{"name": "BOYDS DRUGSTORE","address1": "101 W JEFFERSON ST","address2": "","city": "KOSCIUSKO","state": "MS","zip": "39090","zip+4": "0000","phone": "6622892211"}
{"name": "PICKLES DRUGS","address1": "100 N JACKSON STREET","address2": "","city": "KOSCIUSKO","state": "MS","zip": "39090","zip+4": "0000","phone": "6622891112"}
{"name": "SULLIVANS DISCOUNT DRUGS","address1": "109 NORTHSIDE SHOPPING CTR","address2": "","city": "KOSCIUSKO","state": "MS","zip": "39090","zip+4": "0000","phone": "6622893234"}
{"name": "SOUTH CENTRAL REG MED CTR PHCY","address1": "1220 JEFFERSON ST","address2": "","city": "LAUREL","state": "MS","zip": "39441","zip+4": "0000","phone": "6014264024"}
{"name": "HUFF PHARMACY","address1": "405 MAIN ST","address2": "","city": "LEAKESVILLE","state": "MS","zip": "39451","zip+4": "0000","phone": "6013942901"}
{"name": "HODGES PHARMACY","address1": "413 ST FRANCIS ST","address2": "","city": "LEAKESVILLE","state": "MS","zip": "39451","zip+4": "0000","phone": "6013942602"}
{"name": "PEOPLES DRUG STORE","address1": "102 COURT SQ","address2": "","city": "LEXINGTON","state": "MS","zip": "39095","zip+4": "3626","phone": "6628342722"}
{"name": "LIBERTY DRUG STORE INC","address1": "110 MAIN ST","address2": "","city": "LIBERTY","state": "MS","zip": "39645","zip+4": "0000","phone": "6016578051"}
{"name": "CHARLEY MCCOOL'S PRESCRIPTIONS","address1": "109 W MAIN ST","address2": "","city": "LOUISVILLE","state": "MS","zip": "39339","zip+4": "2698","phone": "6627735046"}
{"name": "TABOR DRUGS","address1": "104 W MAIN ST","address2": "","city": "LOUISVILLE","state": "MS","zip": "39339","zip+4": "2702","phone": "6627735363"}
{"name": "MAIN DRUG CO","address1": "5199 MAIN ST","address2": "","city": "LUCEDALE","state": "MS","zip": "39452","zip+4": "0000","phone": "6019478168"}
{"name": "JOHNS DISCOUNT DRUGS LUMBERTON","address1": "410 W MAIN AVE","address2": "","city": "LUMBERTON","state": "MS","zip": "39455","zip+4": "2437","phone": "6017964761"}
{"name": "CITY DRUG STORE","address1": "314 S JEFFERSON","address2": "","city": "MACON","state": "MS","zip": "39341","zip+4": "0000","phone": "6627265143"}
{"name": "GENE POLKS PHCY","address1": "406 SIMPSON HWY 149","address2": "","city": "MAGEE","state": "MS","zip": "39111","zip+4": "0000","phone": "6018492532"}
{"name": "CORNER DRUG STORE","address1": "101 W RAILROAD AVE N","address2": "","city": "MAGNOLIA","state": "MS","zip": "39652","zip+4": "2895","phone": "6017832321"}
{"name": "DONS PHARMACY INC","address1": "200 E MAIN ST","address2": "","city": "MARKS","state": "MS","zip": "38646","zip+4": "0000","phone": "6623264241"}
{"name": "GILLIS DRUGSTORE INC","address1": "219 STATE ST","address2": "","city": "MCCOMB","state": "MS","zip": "39666","zip+4": "0000","phone": "6016842621"}
{"name": "SERVICE DRUGS","address1": "167 N MAIN ST","address2": "","city": "MENDENHALL","state": "MS","zip": "39114","zip+4": "0000","phone": "6018472323"}
{"name": "HUDSON PHARMACY","address1": "702 BROAD ST","address2": "","city": "MONTICELLO","state": "MS","zip": "39654","zip+4": "0000","phone": "6015874011"}
{"name": "POWELL DRUG STORE","address1": "519 N MAIN ST","address2": "","city": "MT OLIVE","state": "MS","zip": "39119","zip+4": "0000","phone": "6017973355"}
{"name": "MCDUFFIE DRUGS","address1": "174A YOUNG AVE","address2": "","city": "NETTLETON","state": "MS","zip": "38858","zip+4": "0000","phone": "6629632367"}
{"name": "ANDERSONS PHARMACY","address1": "112 E MAIN ST","address2": "","city": "N CARROLLTON","state": "MS","zip": "38947","zip+4": "0250","phone": "6622379294"}
{"name": "OKOLONA DRUG","address1": "210 W MAIN ST","address2": "","city": "OKOLONA","state": "MS","zip": "38860","zip+4": "1490","phone": "6624475471"}
{"name": "CHANEYS PHARMACY","address1": "501 BRAMLETT BLVD","address2": "","city": "OXFORD","state": "MS","zip": "38655","zip+4": "4129","phone": "6622347221"}
{"name": "WALLERS DISCOUNT DRUG INC","address1": "2209 S LAMAR BLVD","address2": "","city": "OXFORD","state": "MS","zip": "38655","zip+4": "5225","phone": "6622346315"}
{"name": "GULF COAST SAV REX PHARMACY #6","address1": "1420 INGALLS AVE","address2": "","city": "PASCAGOULA","state": "MS","zip": "39567","zip+4": "0000","phone": "2287624622"}
{"name": "MEDICAL ARTS PHARMACY","address1": "4105 HOSPITAL RD","address2": "","city": "PASCAGOULA","state": "MS","zip": "39581","zip+4": "0000","phone": "2287621682"}
{"name": "PLAZA PHARMACY INC","address1": "4211 HOSPITAL RD","address2": "STE 104","city": "PASCAGOULA","state": "MS","zip": "39581","zip+4": "0000","phone": "2287621940"}
{"name": "RHODES ROBBY DRUGSTORE","address1": "114 BROOK ST","address2": "","city": "PELAHATCHIE","state": "MS","zip": "39145","zip+4": "0249","phone": "6018548252"}
{"name": "GIBSON PHARMACY #3","address1": "216 W CENTRAL AVE","address2": "","city": "PETAL","state": "MS","zip": "39465","zip+4": "2095","phone": "6015820254"}
{"name": "PETAL DRUG COMPANY INC","address1": "201 OLD RICHTON RD","address2": "","city": "PETAL","state": "MS","zip": "39465","zip+4": "2999","phone": "6015453141"}
{"name": "BROWNS DISCOUNT DRUGS","address1": "584 E MAIN ST","address2": "STE B-3","city": "PHILADELPHIA","state": "MS","zip": "39350","zip+4": "0000","phone": "6016562272"}
{"name": "STRIBLING DRUG STORE","address1": "430 BEACON ST","address2": "","city": "PHILADELPHIA","state": "MS","zip": "39350","zip+4": "2953","phone": "6016562472"}
{"name": "CITY REXALL DRUGS INC","address1": "349 SOUTH MAIN STREET","address2": "","city": "PICAYUNE","state": "MS","zip": "39466","zip+4": "4401","phone": "6017984761"}
{"name": "PICAYUNE DRUG COMPANY INC","address1": "110 HWY 11 NORTH","address2": "","city": "PICAYUNE","state": "MS","zip": "39466","zip+4": "0000","phone": "6017984846"}
{"name": "BOONES PHARMACY","address1": "937 S MAIN ST","address2": "","city": "POPLARVILLE","state": "MS","zip": "39470","zip+4": "3199","phone": "6017954566"}
{"name": "PEARL RIVER DRUG","address1": "510 S MAIN ST","address2": "","city": "POPLARVILLE","state": "MS","zip": "39470","zip+4": "3097","phone": "6017954239"}
{"name": "MCDANIEL PHARMACY","address1": "1005 MARKET ST","address2": "","city": "PORT GIBSON","state": "MS","zip": "39150","zip+4": "0000","phone": "6014375121"}
{"name": "S AND B DISCOUNT DRUGS","address1": "310 CHURCH ST","address2": "","city": "PORT GIBSON","state": "MS","zip": "39150","zip+4": "9802","phone": "6014375781"}
{"name": "HUDSON DRUGS","address1": "945 HWY 42","address2": "","city": "PRENTISS","state": "MS","zip": "39474","zip+4": "0658","phone": "6017924467"}
{"name": "PALACE DRUG STORE","address1": "2234 COLUMBIA AVE","address2": "","city": "PRENTISS","state": "MS","zip": "39474","zip+4": "0819","phone": "6017924959"}
{"name": "JOHNS DISCOUNT DRUGS INC","address1": "248 SHELBY SPEIGHTS DR","address2": "","city": "PURVIS","state": "MS","zip": "39475","zip+4": "0219","phone": "6017946701"}
{"name": "HAMMACK DRUGS LLC","address1": "101 A W DONALD ST","address2": "","city": "QUITMAN","state": "MS","zip": "39355","zip+4": "0000","phone": "6017763711"}
{"name": "QUITMAN DRUGS","address1": "205 N ARCHUSA AVE","address2": "","city": "QUITMAN","state": "MS","zip": "39355","zip+4": "0003","phone": "6017762146"}
{"name": "RAYMOND DRUG STORE","address1": "112 W MAIN","address2": "","city": "RAYMOND","state": "MS","zip": "39154","zip+4": "0000","phone": "6018578773"}
{"name": "SMITH DRUG COMPANY","address1": "89 MAIN STREET","address2": "","city": "RIENZI","state": "MS","zip": "38865","zip+4": "0000","phone": "6624625314"}
{"name": "LOCKE DRUG STORE INC","address1": "410 E WALNUT ST","address2": "","city": "RIPLEY","state": "MS","zip": "38663","zip+4": "2112","phone": "6628377177"}
{"name": "LEWIS DRUG STORE","address1": "302 COURT ST","address2": "","city": "ROSEDALE","state": "MS","zip": "38769","zip+4": "0000","phone": "6627593561"}
{"name": "EDWARDS REXALL DRUGS INC","address1": "101 W FLOYCE ST","address2": "","city": "RULEVILLE","state": "MS","zip": "38771","zip+4": "0000","phone": "6627564381"}
{"name": "SPENCERS DRUGS","address1": "107 W FLOYCE ST","address2": "","city": "RULEVILLE","state": "MS","zip": "38771","zip+4": "0000","phone": "6627564650"}
{"name": "METTESAVE DISCOUNT DRUGS","address1": "330 E LEE ST","address2": "","city": "SARDIS","state": "MS","zip": "38666","zip+4": "1233","phone": "6624871224"}
{"name": "SENATOBIA CITY DRUG CO INC","address1": "122 NORFLEET DR","address2": "","city": "SENATOBIA","state": "MS","zip": "38668","zip+4": "0000","phone": "6625628042"}
{"name": "FREDS PHARMACY #2936","address1": "102 NORFLEET DRIVE","address2": "","city": "SENATOBIA","state": "MS","zip": "38668","zip+4": "0000","phone": "6625628021"}
{"name": "MAYS PHARMACY","address1": "4385 HWY 51 SOUTH","address2": "","city": "SENATOBIA","state": "MS","zip": "38668","zip+4": "0000","phone": "6625625162"}
{"name": "SHELBY DRUG COMPANY","address1": "1211 BROADWAY HWY 61 SO","address2": "","city": "SHELBY","state": "MS","zip": "38774","zip+4": "0000","phone": "6623987487"}
{"name": "GATLINS PHARMACY","address1": "18 FIRST AVE","address2": "","city": "TISHOMINGO","state": "MS","zip": "38873","zip+4": "9802","phone": "6624386605"}
{"name": "TUNICA PHARMACY","address1": "1181 MAIN ST","address2": "","city": "TUNICA","state": "MS","zip": "38676","zip+4": "0007","phone": "6623631431"}
{"name": "NORTH MISS MEDICAL CENTER","address1": "609 GARFIELD ST","address2": "STE A","city": "TUPELO","state": "MS","zip": "38801","zip+4": "4996","phone": "6623775749"}
{"name": "BRUMFIELDS DRUG","address1": "109 BALL AVE","address2": "","city": "TYLERTOWN","state": "MS","zip": "39667","zip+4": "0329","phone": "6018763665"}
{"name": "COLONIAL DISCOUNT DRUGS","address1": "1017 MISSION 66","address2": "","city": "VICKSBURG","state": "MS","zip": "39183","zip+4": "0000","phone": "6016385521"}
{"name": "CORNER DRUG STORE","address1": "1123 WASHINGTON ST","address2": "","city": "VICKSBURG","state": "MS","zip": "39183","zip+4": "0000","phone": "6016362756"}
{"name": "DURST DISCOUNT DRUGS INC #1","address1": "2122 CLAY STREET","address2": "","city": "VICKSBURG","state": "MS","zip": "39183","zip+4": "0000","phone": "6016365042"}
{"name": "TURNAGE DRUGS","address1": "323 N MAIN ST","address2": "","city": "WATER VALLEY","state": "MS","zip": "38965","zip+4": "2505","phone": "6624732442"}
{"name": "PLAZA DRUG COMPANY INC","address1": "545 E MAIN ST","address2": "SUITE 721","city": "WEST POINT","state": "MS","zip": "39773","zip+4": "3005","phone": "6624942535"}
{"name": "WHITES PHARMACY INC","address1": "301 FIFTH AVE W","address2": "","city": "WIGGINS","state": "MS","zip": "39577","zip+4": "2795","phone": "6019284421"}
{"name": "WILSON PHARMACY INC","address1": "101 E PINE AVE","address2": "","city": "WIGGINS","state": "MS","zip": "39577","zip+4": "2752","phone": "6019284446"}
{"name": "PLAZA DRUGS","address1": "420 N APPLEGATE","address2": "","city": "WINONA","state": "MS","zip": "38967","zip+4": "0000","phone": "6622832798"}
{"name": "ESSCO DISCOUNT DRUG CENTER","address1": "732 E 15TH ST","address2": "","city": "YAZOO CITY","state": "MS","zip": "39194","zip+4": "2706","phone": "6627467423"}
{"name": "P AND S PHARMACY","address1": "804 GRAND AVENUE","address2": "","city": "YAZOO CITY","state": "MS","zip": "39194","zip+4": "0000","phone": "6627461341"}
{"name": "WEBBS PHARMACY","address1": "216 S MAIN ST","address2": "","city": "YAZOO CITY","state": "MS","zip": "39194","zip+4": "4010","phone": "6627463253"}
{"name": "IUKA DISCOUNT DRUGS","address1": "1411 W QUITMAN ST","address2": "","city": "IUKA","state": "MS","zip": "38852","zip+4": "1100","phone": "6624239039"}
{"name": "STRICKLANDS CASH AND SAVE DISC","address1": "703 FRONT ST NORTH","address2": "","city": "RICHTON","state": "MS","zip": "39476","zip+4": "0000","phone": "6017886332"}
{"name": "SAV-ON DRUGS OF COLUMBIA INC","address1": "345 BROAD ST","address2": "","city": "COLUMBIA","state": "MS","zip": "39429","zip+4": "0000","phone": "6017366321"}
{"name": "HOSPITAL HEALTHMART PHARMACY","address1": "212 HWY 30 W","address2": "","city": "NEW ALBANY","state": "MS","zip": "38652","zip+4": "3112","phone": "6625349036"}
{"name": "JAMES BENNETT APOTHECARY #8032","address1": "2049 SHILOH RD","address2": "","city": "CORINTH","state": "MS","zip": "38834","zip+4": "3726","phone": "6622866914"}
{"name": "RIDGELAND DISCOUNT DRUGS","address1": "297 HWY 51","address2": "SUITE E","city": "RIDGELAND","state": "MS","zip": "39157","zip+4": "0000","phone": "6018564104"}
{"name": "WHITES DRUGS OF RICHTON LLC","address1": "505 FRONT ST NO","address2": "","city": "RICHTON","state": "MS","zip": "39476","zip+4": "0000","phone": "6017886335"}
{"name": "MR DISCOUNT DRUGS","address1": "2205 14TH ST","address2": "","city": "MERIDIAN","state": "MS","zip": "39301","zip+4": "0000","phone": "6016931978"}
{"name": "HAIRE DRUG CENTER","address1": "805 1ST ST","address2": "","city": "CLEVELAND","state": "MS","zip": "38732","zip+4": "2309","phone": "6628434211"}
{"name": "OAK PLACE PHARMACY","address1": "1311 BROAD AVE","address2": "","city": "GULFPORT","state": "MS","zip": "39501","zip+4": "2419","phone": "2288646647"}
{"name": "TERRY DISCOUNT DRUGS","address1": "128 CUNNINGHAM AVE","address2": "","city": "TERRY","state": "MS","zip": "39170","zip+4": "0037","phone": "6018785841"}
{"name": "GIBSON PHARMACY","address1": "710 LAKEVIEW DR","address2": "","city": "GRENADA","state": "MS","zip": "38901","zip+4": "0000","phone": "6622266589"}
{"name": "PATTERSONS PHARMACY","address1": "1121 OCEAN SPRINGS RD","address2": "","city": "OCEAN SPRINGS","state": "MS","zip": "39564","zip+4": "3497","phone": "2288750158"}
{"name": "T D PHARMACY INC","address1": "12372 HIGHWAY 49","address2": "","city": "GULFPORT","state": "MS","zip": "39503","zip+4": "4828","phone": "2288321414"}
{"name": "ATTALA DISCOUNT DRUGS","address1": "337 HWY 12 WEST","address2": "","city": "KOSCIUSKO","state": "MS","zip": "39090","zip+4": "0000","phone": "6622892312"}
{"name": "HAIRE DRUG CENTER","address1": "112 MERCER ST","address2": "","city": "TCHULA","state": "MS","zip": "39169","zip+4": "0217","phone": "6622354301"}
{"name": "ESCATAWPA SAV REX DRUGS #636","address1": "7818 HWY 613 N","address2": "","city": "MOSS POINT","state": "MS","zip": "39563","zip+4": "0000","phone": "2284756912"}
{"name": "MISSISSIPPI STATE HOSPITAL","address1": "HWY 468","address2": "BLDG 50","city": "WHITFIELD","state": "MS","zip": "39193","zip+4": "0000","phone": "6013518026"}
{"name": "MARTINS PHARMACY","address1": "124 BAKER ST","address2": "","city": "INDIANOLA","state": "MS","zip": "38751","zip+4": "2451","phone": "6628874533"}
{"name": "SMITH DRUG AND HOME MEDICAL IN","address1": "100 S SECOND ST","address2": "","city": "BOONEVILLE","state": "MS","zip": "38829","zip+4": "0000","phone": "6627285322"}
{"name": "JASPER GENERAL HOSPITAL PHARMA","address1": "15A SOUTH SIXTH STREET","address2": "","city": "BAY SPRINGS","state": "MS","zip": "39422","zip+4": "0527","phone": "6017642101"}
{"name": "NESHOBA CNTY GNRL HOSP PHCY","address1": "1001 HOLLAND AVE","address2": "","city": "PHILADELPHIA","state": "MS","zip": "39350","zip+4": "0648","phone": "6016631270"}
{"name": "DELTA HEALTH CENTER PHARMACY","address1": "702 MARTIN LUTHER KING ST","address2": "","city": "MOUND BAYOU","state": "MS","zip": "38762","zip+4": "2090","phone": "6627412151"}
{"name": "GREATER MERIDIAN HEALTH CLINIC","address1": "2701 DAVIS STREET","address2": "","city": "MERIDIAN","state": "MS","zip": "39301","zip+4": "5711","phone": "6016930162"}
{"name": "EDWARDS DISCOUNT DRUGS","address1": "103 W FRONTAGE RD","address2": "SUITE A","city": "LUCEDALE","state": "MS","zip": "39452","zip+4": "0000","phone": "6019474941"}
{"name": "RITE AID PHARMACY #07209","address1": "285 SERGEANT PRENTISS DRIVE","address2": "","city": "NATCHEZ","state": "MS","zip": "39120","zip+4": "4224","phone": "6014468688"}
{"name": "MID TOWN DRUGS","address1": "800 N LAMAR","address2": "","city": "OXFORD","state": "MS","zip": "38655","zip+4": "3212","phone": "6622344419"}
{"name": "STATE LINE DRUGS","address1": "194 MAIN ST","address2": "","city": "STATE LINE","state": "MS","zip": "39362","zip+4": "0159","phone": "6018487866"}
{"name": "RITE AID PHARMACY #07137","address1": "205 HWY 30 WEST","address2": "","city": "NEW ALBANY","state": "MS","zip": "38652","zip+4": "3111","phone": "6625348181"}
{"name": "W AND D PHARMACY","address1": "110 COURT SQUARE","address2": "","city": "SUMNER","state": "MS","zip": "38957","zip+4": "0217","phone": "6623758768"}
{"name": "BURNHAM-MCKINNEY PHARMACIES IN","address1": "5001 MAIN ST","address2": "","city": "MOSS POINT","state": "MS","zip": "39563","zip+4": "0000","phone": "2284753411"}
{"name": "RITE AID PHARMACY #07142","address1": "200 HIGHWAY 45 NORTH","address2": "","city": "ABERDEEN","state": "MS","zip": "39730","zip+4": "0886","phone": "6623699311"}
{"name": "METTESAVE DISCOUNT DRUGS INC","address1": "595 HWY 6 EAST","address2": "","city": "BATESVILLE","state": "MS","zip": "38606","zip+4": "3003","phone": "6625634557"}
{"name": "STARKVILLE DISCOUNT DRUGS #803","address1": "117 N JACKSON ST","address2": "","city": "STARKVILLE","state": "MS","zip": "39759","zip+4": "0000","phone": "6623240321"}
{"name": "TUNICA QUALITY DRUGS","address1": "TUNICA S C HWY 61 S","address2": "","city": "TUNICA","state": "MS","zip": "38676","zip+4": "0000","phone": "6623631540"}
{"name": "DESOTO DISCOUNT DRUG #8069","address1": "2260 HWY 51 SOUTH","address2": "","city": "HERNANDO","state": "MS","zip": "38632","zip+4": "1737","phone": "6624299074"}
{"name": "COLUMBIA DISC DRUGS INC","address1": "1201 HWY 13 N","address2": "","city": "COLUMBIA","state": "MS","zip": "39429","zip+4": "2015","phone": "6017361514"}
{"name": "VACLEAVE SAVREX PHARMACY #637","address1": "11936 HWY 57","address2": "","city": "VANCLEAVE","state": "MS","zip": "39565","zip+4": "0000","phone": "2288264403"}
{"name": "RITE AID PHARMACY #07222","address1": "416 MEMORIAL BOULEVARD","address2": "","city": "PICAYUNE","state": "MS","zip": "39466","zip+4": "5544","phone": "6017980330"}
{"name": "RITE AID PHARMACY #07212","address1": "1220 JERRY CLOWER BOULEVARD","address2": "","city": "YAZOO CITY","state": "MS","zip": "39194","zip+4": "3057","phone": "6627469926"}
{"name": "LOGANS DISCOUNT DRUGS","address1": "129 S NEWBERGER","address2": "","city": "BRUCE","state": "MS","zip": "38915","zip+4": "0000","phone": "6629837800"}
{"name": "CANTON DISCOUNT DRUGS","address1": "726 E PEACE ST","address2": "","city": "CANTON","state": "MS","zip": "39046","zip+4": "4731","phone": "6018593827"}
{"name": "RIPLEY DRUG COMPANY #2406","address1": "1010 CITY AVE N","address2": "","city": "RIPLEY","state": "MS","zip": "38663","zip+4": "0000","phone": "6628371354"}
{"name": "RITE AID PHARMACY #07230","address1": "820 BROOKWAY BOULEVARD","address2": "","city": "BROOKHAVEN","state": "MS","zip": "39601","zip+4": "2642","phone": "6018339063"}
{"name": "HOLLIS DISCOUNT PHARMACY #1","address1": "1008 CITY AVE N","address2": "","city": "RIPLEY","state": "MS","zip": "38663","zip+4": "0000","phone": "6628377300"}
{"name": "BYHALIA DRUG","address1": "2438 CHURCH STREET","address2": "","city": "BYHALIA","state": "MS","zip": "38611","zip+4": "0000","phone": "6628382521"}
{"name": "BONNER DISCOUNT DRUGS","address1": "1017 HWY 84 E","address2": "","city": "WAYNESBORO","state": "MS","zip": "39367","zip+4": "9803","phone": "6017352141"}
{"name": "COMMUNITY DISCOUNT PHARMACY","address1": "305 NORFLEET DR","address2": "","city": "SENATOBIA","state": "MS","zip": "38668","zip+4": "2225","phone": "6625625268"}
{"name": "CVS PHARMACY #05842","address1": "1619 DELAWARE AVE","address2": "","city": "MCCOMB","state": "MS","zip": "39648","zip+4": "0000","phone": "6016848670"}
{"name": "CVS PHARMACY #05846","address1": "822 HWY 35 N","address2": "","city": "FOREST","state": "MS","zip": "39074","zip+4": "0000","phone": "6014691540"}
{"name": "MEDICAL PLAZA PHARMACY","address1": "111 ALCORN DR","address2": "","city": "CORINTH","state": "MS","zip": "38834","zip+4": "9301","phone": "6622866991"}
{"name": "POLKS DISCOUNT DRUGS #1","address1": "335 CROSSGATES BLVD","address2": "","city": "BRANDON","state": "MS","zip": "39042","zip+4": "2689","phone": "6018258660"}
{"name": "KINGS DISCOUNT PHARMACY","address1": "44 HWY 98 E","address2": "","city": "BUDE","state": "MS","zip": "39630","zip+4": "0134","phone": "6013842898"}
{"name": "MR DISCOUNT DRUGS #2","address1": "4832 POPLAR SPRINGS DR","address2": "","city": "MERIDIAN","state": "MS","zip": "39305","zip+4": "0000","phone": "6014833784"}
{"name": "MEDI CENTER PHARMACY","address1": "1629 STATE ST","address2": "","city": "CLARKSDALE","state": "MS","zip": "38614","zip+4": "6617","phone": "6626246561"}
{"name": "BATTLEFIELD DISCOUNT DRUGS","address1": "3040 INDIANA AVE","address2": "STE A","city": "VICKSBURG","state": "MS","zip": "39180","zip+4": "0000","phone": "6016363374"}
{"name": "RITE AID PHARMACY #07141","address1": "201 B ALABAMA STREET","address2": "","city": "COLUMBUS","state": "MS","zip": "39702","zip+4": "5203","phone": "6623270900"}
{"name": "MEDICAL CENTER PHARMACY","address1": "218 OXFORD RD","address2": "","city": "NEW ALBANY","state": "MS","zip": "38652","zip+4": "0000","phone": "6625342101"}
{"name": "G AND M PHARMACY","address1": "2159 S LAMAR","address2": "","city": "OXFORD","state": "MS","zip": "38655","zip+4": "5299","phone": "6622362222"}
{"name": "LONGS DRUG STORE","address1": "110 E JACKSON ST","address2": "","city": "BELZONI","state": "MS","zip": "39038","zip+4": "3599","phone": "6622471695"}
{"name": "ROBERTS APOTHECARY","address1": "2219 5TH ST N","address2": "","city": "COLUMBUS","state": "MS","zip": "39705","zip+4": "0000","phone": "6623275400"}
{"name": "RITE AID PHARMACY #07214","address1": "114 EAST MCDOWELL ROAD","address2": "","city": "JACKSON","state": "MS","zip": "39204","zip+4": "5718","phone": "6013725821"}
{"name": "MOORES PHARMACY","address1": "16831 HWY 21 S","address2": "","city": "SEBASTOPOL","state": "MS","zip": "39359","zip+4": "0000","phone": "6016257158"}
{"name": "MEDICAL CENTER PHARMACY","address1": "312 MARION ST","address2": "","city": "MCCOMB","state": "MS","zip": "39648","zip+4": "0000","phone": "6016849602"}
{"name": "COUNTY DISCOUNT DRUG","address1": "820 HALL ST","address2": "","city": "WIGGINS","state": "MS","zip": "39573","zip+4": "0000","phone": "6019284482"}
{"name": "MR DISCOUNT DRUGS #3","address1": "4420 8TH ST","address2": "","city": "MERIDIAN","state": "MS","zip": "39307","zip+4": "5954","phone": "6014825578"}
{"name": "SUPER SAVER DRUGS","address1": "498 BANKHEAD ST W","address2": "","city": "NEW ALBANY","state": "MS","zip": "38652","zip+4": "3319","phone": "6625344774"}
{"name": "D AND B DISCOUNT DRUGS","address1": "4581 HWY 80","address2": "","city": "MORTON","state": "MS","zip": "39117","zip+4": "0000","phone": "6017328366"}
{"name": "SUPER D DRUGS #47","address1": "738 SOUTH GOLSTER","address2": "","city": "TUPELO","state": "MS","zip": "38801","zip+4": "0000","phone": "6628440432"}
{"name": "RITE AID PHARMACY #07221","address1": "100 HIGHWAY 42","address2": "","city": "PETAL","state": "MS","zip": "39465","zip+4": "2881","phone": "6015452056"}
{"name": "FREDS PHARMACY #1736","address1": "813 WEST PARK","address2": "","city": "GREENWOOD","state": "MS","zip": "38930","zip+4": "0000","phone": "6624553527"}
{"name": "FREDS PHARMACY #2902","address1": "401 EAST LEE STREET","address2": "","city": "SARDIS","state": "MS","zip": "38666","zip+4": "0000","phone": "6624873101"}
{"name": "SOUTHWEST DISCOUNT DRUGS #3358","address1": "1220 LA SALLE ST","address2": "","city": "MCCOMB","state": "MS","zip": "39648","zip+4": "5158","phone": "6016844541"}
{"name": "SOUTHERN DISC DRUGS OF CHRLSTN","address1": "109 W WALNUT ST","address2": "","city": "CHARLESTON","state": "MS","zip": "38921","zip+4": "2242","phone": "6626475172"}
{"name": "MONTGOMERY DRUG COMPANY","address1": "349 HWY 15 N","address2": "","city": "PONTOTOC","state": "MS","zip": "38863","zip+4": "2813","phone": "6624895555"}
{"name": "JIMS DISCOUNT DRUGS","address1": "705 WINTER ST","address2": "","city": "LUCEDALE","state": "MS","zip": "39452","zip+4": "0000","phone": "6019476331"}
{"name": "THIRTEENTH AVENUE PHARMACY","address1": "216 S 13TH AVE","address2": "","city": "LAUREL","state": "MS","zip": "39440","zip+4": "0000","phone": "6014287257"}
{"name": "CVS PHARMACY #05865","address1": "112 STRIBLING LN","address2": "","city": "BRANDON","state": "MS","zip": "39042","zip+4": "0000","phone": "6016647226"}
{"name": "JIM BAIN'S PHARMACY #8043","address1": "367 N GLOSTER ST","address2": "","city": "TUPELO","state": "MS","zip": "38804","zip+4": "0000","phone": "6628444530"}
{"name": "ASHLAND DRUG","address1": "15917 BOUNDRY DR","address2": "","city": "ASHLAND","state": "MS","zip": "38603","zip+4": "0000","phone": "6622248922"}
{"name": "FRENCHS PHARMACY","address1": "365 S 4TH ST","address2": "","city": "MORTON","state": "MS","zip": "39117","zip+4": "3407","phone": "6017328821"}
{"name": "KROGER PHARMACY #25377","address1": "406 SPRING RIDGE ROAD","address2": "","city": "CLINTON","state": "MS","zip": "39506","zip+4": "0000","phone": "6019247422"}
{"name": "RITE AID PHARMACY #07228","address1": "3082 BIENVILLE BOULEVARD","address2": "","city": "OCEAN SPRINGS","state": "MS","zip": "39564","zip+4": "4354","phone": "2288722646"}
{"name": "SANDERS VILLAGE PHARMACY #3","address1": "1427 S MAIN ST","address2": "","city": "GREENVILLE","state": "MS","zip": "38701","zip+4": "7000","phone": "6623781874"}
{"name": "CVS PHARMACY #05870","address1": "436 HWY 61 N","address2": "","city": "NATCHEZ","state": "MS","zip": "39120","zip+4": "0000","phone": "6014467167"}
{"name": "MR DISCOUNT DRUGS","address1": "9155 HWY 19","address2": "","city": "COLLINSVILLE","state": "MS","zip": "39325","zip+4": "0175","phone": "6016268242"}
{"name": "RITE AID PHARMACY #07223","address1": "11279 HIGHWAY 49","address2": "","city": "GULFPORT","state": "MS","zip": "39503","zip+4": "3396","phone": "2288326280"}
{"name": "FREDS PHARMACY #2671","address1": "1635 COLUMBIA AVENUE","address2": "","city": "PRENTISS","state": "MS","zip": "39474","zip+4": "0000","phone": "6017925145"}
{"name": "KROGER PHARMACY #25357","address1": "2000 EAST COUNTY LINE RD","address2": "","city": "RIDGELAND","state": "MS","zip": "39157","zip+4": "0000","phone": "6019560335"}
{"name": "THRIFT DRUGS","address1": "119 W PRESLEY BLVD","address2": "","city": "MCCOMB","state": "MS","zip": "39648","zip+4": "5521","phone": "6016843401"}
{"name": "CVS PHARMACY #05876","address1": "914 N STATE ST","address2": "","city": "JACKSON","state": "MS","zip": "39202","zip+4": "0000","phone": "6013527566"}
{"name": "LAB DISCOUNT DRUGS INC","address1": "923 WAYNE ST","address2": "","city": "WAYNESBORO","state": "MS","zip": "39367","zip+4": "0000","phone": "6017354444"}
{"name": "DAVIDSON PHARMACY INC","address1": "203 N 2ND ST","address2": "","city": "BOONEVILLE","state": "MS","zip": "38829","zip+4": "2701","phone": "6627284401"}
{"name": "SOUTHERN DISCOUNT DRUGS","address1": "1101 N MAIN ST","address2": "","city": "CALHOUN CITY","state": "MS","zip": "38916","zip+4": "0000","phone": "6626285000"}
{"name": "RITE AID PHARMACY #07218","address1": "4400 WEST HARDY STREET","address2": "","city": "HATTIESBURG","state": "MS","zip": "39401","zip+4": "2254","phone": "6012689681"}
{"name": "KROGER PHARMACY #25355","address1": "2340 HIGHWAY 15 NORTH","address2": "","city": "LAUREL","state": "MS","zip": "39440","zip+4": "0000","phone": "6014269812"}
{"name": "COOLEY DRUG INC","address1": "310 MISSISSIPPI DRIVE","address2": "","city": "WAYNESBORO","state": "MS","zip": "39367","zip+4": "0000","phone": "6017352227"}
{"name": "RITE AID PHARMACY #07226","address1": "4031 POPPS FERRY ROAD","address2": "SUITE A","city": "DIBERVILLE","state": "MS","zip": "39540","zip+4": "2367","phone": "2283927310"}
{"name": "SARTINS DISCOUNT DRUGS","address1": "4300 15TH ST","address2": "STE 1","city": "GULFPORT","state": "MS","zip": "39501","zip+4": "2522","phone": "2288643514"}
{"name": "QUITMAN DRUG COMPANY","address1": "1026 MARTIN LUTHER KING DR","address2": "","city": "MARKS","state": "MS","zip": "38646","zip+4": "0363","phone": "6623263505"}
{"name": "FREDS PHARMACY #2946","address1": "8912 OFFICE PARK PLAZA DR","address2": "","city": "SOUTHAVEN","state": "MS","zip": "38671","zip+4": "0000","phone": "6623936300"}
{"name": "KROGER PHARMACY #25404","address1": "465 STATELINE ROAD","address2": "","city": "SOUTHAVEN","state": "MS","zip": "38671","zip+4": "0000","phone": "6623933426"}
{"name": "FREDS PHARMACY #1021","address1": "905 HIGHWAY 278 EAST","address2": "","city": "AMORY","state": "MS","zip": "38821","zip+4": "0000","phone": "6622568483"}
{"name": "MR DISCOUNT DRUGS #5","address1": "18205 HIGHWAY 80","address2": "","city": "HICKORY","state": "MS","zip": "39332","zip+4": "0000","phone": "6016465426"}
{"name": "WAL-MART PHARMACY #100495","address1": "1913 HWY 45 NORTH","address2": "","city": "COLUMBUS","state": "MS","zip": "39701","zip+4": "0000","phone": "6623291766"}
{"name": "GUNN DRUG CO.INC.","address1": "1815 SHILOH RD","address2": "","city": "CORINTH","state": "MS","zip": "38834","zip+4": "3696","phone": "6622878062"}
{"name": "RITE AID PHARMACY #07213","address1": "6075 OLD CANTON ROAD","address2": "","city": "JACKSON","state": "MS","zip": "39211","zip+4": "3335","phone": "6019570453"}
{"name": "BURNHAM DRUGS LLC #4","address1": "12500 HWY 57","address2": "","city": "VANCLEAVE","state": "MS","zip": "39565","zip+4": "0000","phone": "2288264747"}
{"name": "MEDICAL ARTS PHARMACY","address1": "810 E SUNFLOWER RD STE 100 D","address2": "","city": "CLEVELAND","state": "MS","zip": "38732","zip+4": "0000","phone": "6628434214"}
{"name": "WAL-MART PHARMACY #100164","address1": "100 MCCORD ROAD","address2": "","city": "PONTOTOC","state": "MS","zip": "38863","zip+4": "0000","phone": "6624895421"}
{"name": "WAL-MART PHARMACY #100112","address1": "1010 HWY 12 WEST","address2": "","city": "STARKVILLE","state": "MS","zip": "39759","zip+4": "0000","phone": "6623241901"}
{"name": "MARTYS PHARMACY AND COMPOUNDIN","address1": "1042 RIVER OAKS DR","address2": "","city": "FLOWOOD","state": "MS","zip": "39232","zip+4": "0000","phone": "6019322027"}
{"name": "STEPP-SAVER PHARMACY","address1": "203 N NEUBERGER","address2": "PO BOX 656","city": "BRUCE","state": "MS","zip": "38915","zip+4": "0656","phone": "6629834011"}
{"name": "ROBERT WATTS PHARMACY","address1": "515 BROOKWAY BLVD","address2": "","city": "BROOKHAVEN","state": "MS","zip": "39601","zip+4": "3266","phone": "6018333160"}
{"name": "DUNCANS PHARMACY INC","address1": "28271 HWY 15","address2": "","city": "WALNUT","state": "MS","zip": "38683","zip+4": "0000","phone": "6622234727"}
{"name": "WAL-MART PHARMACY #100155","address1": "5219 HWY 51 NORTH","address2": "","city": "SENATOBIA","state": "MS","zip": "38668","zip+4": "0000","phone": "6625628266"}
{"name": "HAIRE DRUG CENTER","address1": "549 MEDICAL DRIVE","address2": "","city": "CLARKSDALE","state": "MS","zip": "38614","zip+4": "0000","phone": "6626242526"}
{"name": "WAL-MART PHARMACY #100708","address1": "2150 IOWA BLVD","address2": "","city": "VICKSBURG","state": "MS","zip": "39180","zip+4": "0000","phone": "6016389202"}
{"name": "WAL-MART PHARMACY #100785","address1": "1350 AZALEA DRIVE","address2": "","city": "WAYNESBORO","state": "MS","zip": "39367","zip+4": "0000","phone": "6017353194"}
{"name": "WAL-MART PHARMACY #100205","address1": "1002 BEACON STREET","address2": "","city": "PHILADELPHIA","state": "MS","zip": "39350","zip+4": "0000","phone": "6016565310"}
{"name": "WAL-MART PHARMACY #100501","address1": "1621 HWY 15 NORTH","address2": "","city": "LAUREL","state": "MS","zip": "39440","zip+4": "0000","phone": "6016494670"}
{"name": "MEDICAL CENTER PHARMACY","address1": "141 KIRKWOOD ST","address2": "","city": "PICAYUNE","state": "MS","zip": "39466","zip+4": "3868","phone": "6017982100"}
{"name": "TURNER DRUGS","address1": "10595 AUTO MALL PKWY","address2": "","city": "DIBERVILLE","state": "MS","zip": "39540","zip+4": "0000","phone": "2283920219"}
{"name": "DWC INC","address1": "403 SOUTH CHURCH AVE","address2": "","city": "LOUISVILLE","state": "MS","zip": "39339","zip+4": "2991","phone": "6627737847"}
{"name": "FREDS PHARMACY #1256","address1": "200 CLINTON PLAZA","address2": "","city": "CLINTON","state": "MS","zip": "39056","zip+4": "0000","phone": "6019243232"}
{"name": "PEARSONS DISCOUNT DRUGS LLC","address1": "101 E WASHINGTON ST","address2": "","city": "HOUSTON","state": "MS","zip": "38851","zip+4": "2225","phone": "6624562551"}
{"name": "FREDS PHARMACY #1921","address1": "210 HIGHWAY 82 WEST","address2": "","city": "INDIANOLA","state": "MS","zip": "38751","zip+4": "0000","phone": "6628875471"}
{"name": "FREDS PHARMACY #1156","address1": "502 NORTH SECOND STREET","address2": "","city": "BOONEVILLE","state": "MS","zip": "38829","zip+4": "0000","phone": "6627283107"}
{"name": "FREDS PHARMACY #1301","address1": "236 DESOTO","address2": "","city": "CLARKSDALE","state": "MS","zip": "38614","zip+4": "0000","phone": "6626245456"}
{"name": "R AND D PHARMACY","address1": "23457 CENTRAL DR","address2": "STE A","city": "SAUCIER","state": "MS","zip": "39574","zip+4": "0000","phone": "2288321898"}
{"name": "KROGER PHARMACY #25388","address1": "1811 WEST GOVERNMENT STREET","address2": "","city": "BRANDON","state": "MS","zip": "39042","zip+4": "0000","phone": "6018253697"}
{"name": "WAL-MART PHARMACY #100816","address1": "960 BROOKWAY BLVD","address2": "","city": "BROOKHAVEN","state": "MS","zip": "39601","zip+4": "0000","phone": "6018338436"}
{"name": "WAL-MART PHARMACY #100848","address1": "6811 SOUTHCREST PKWY","address2": "","city": "SOUTHAVEN","state": "MS","zip": "38671","zip+4": "0000","phone": "6623499242"}
{"name": "WAL-MART PHARMACY #100874","address1": "314 SGT. S. PRENTISS DR.","address2": "","city": "NATCHEZ","state": "MS","zip": "39120","zip+4": "0000","phone": "6014427878"}
{"name": "WAL-MART PHARMACY #100183","address1": "159 HIGHWAY 15 SOUTH","address2": "","city": "LOUISVILLE","state": "MS","zip": "39339","zip+4": "0000","phone": "6627739033"}
{"name": "WAL-MART PHARMACY #100875","address1": "815 S. WHEATLEY ROAD","address2": "","city": "RIDGELAND","state": "MS","zip": "39157","zip+4": "0000","phone": "6019561466"}
{"name": "KROGER PHARMACY #25370","address1": "602 N DAVIS","address2": "","city": "CLEVELAND","state": "MS","zip": "38732","zip+4": "0000","phone": "6628430835"}
{"name": "SUPER D EXPRESS RX #138","address1": "3119 WEST CAPITOL","address2": "","city": "JACKSON","state": "MS","zip": "39209","zip+4": "0000","phone": "6013523344"}
{"name": "SUPER D DRUGS #139","address1": "3012 WHY 80 EAST","address2": "","city": "PEARL","state": "MS","zip": "39208","zip+4": "0000","phone": "6019394813"}
{"name": "ANDERSON PHARMACY","address1": "2024 15TH ST","address2": "FIRST FLOOR","city": "MERIDIAN","state": "MS","zip": "39301","zip+4": "4189","phone": "6014834221"}
{"name": "WAL-MART PHARMACY #100916","address1": "6072 U.S. HIGHWAY 98","address2": "","city": "HATTIESBURG","state": "MS","zip": "39402","zip+4": "0000","phone": "6012643631"}
{"name": "WAL-MART PHARMACY #100954","address1": "527 LAKE ST","address2": "","city": "HAZLEHURST","state": "MS","zip": "39083","zip+4": "0000","phone": "6018941476"}
{"name": "WAL-MART PHARMACY #100969","address1": "9350-A HIGHWAY 49","address2": "","city": "GULFPORT","state": "MS","zip": "39503","zip+4": "0000","phone": "2288650505"}
{"name": "WAL-MART PHARMACY #100970","address1": "235 FRONTAGE RD","address2": "","city": "PICAYUNE","state": "MS","zip": "39466","zip+4": "0000","phone": "6017991063"}
{"name": "WAL-MART PHARMACY #100981","address1": "1733 2ND STREET SOUTH","address2": "","city": "MERIDIAN","state": "MS","zip": "39301","zip+4": "0000","phone": "6014852218"}
{"name": "WAL-MART PHARMACY #100182","address1": "1831 S DR MARTIN L. KING BLVD","address2": "","city": "GREENVILLE","state": "MS","zip": "38701","zip+4": "0000","phone": "6623329955"}
{"name": "STANDARD DRUG STORE","address1": "32 SOUTH 6TH STREET","address2": "","city": "BAY SPRINGS","state": "MS","zip": "39422","zip+4": "0000","phone": "6017642862"}
{"name": "WAL-MART PHARMACY #100365","address1": "5520 HWY 80 EAST","address2": "","city": "PEARL","state": "MS","zip": "39208","zip+4": "0000","phone": "6019394342"}
{"name": "WAL-MART PHARMACY #100699","address1": "2530 WEST JACKSON AVENUE","address2": "","city": "OXFORD","state": "MS","zip": "38655","zip+4": "0000","phone": "6622365905"}
{"name": "FREDS WESTSIDE PHARMACY","address1": "207 KIRKWOOD ST","address2": "","city": "PICAYUNE","state": "MS","zip": "39466","zip+4": "3869","phone": "6017988888"}
{"name": "SUPER D DRUGS #143","address1": "1201 OFFICE PARK DRIVE","address2": "","city": "OXFORD","state": "MS","zip": "38655","zip+4": "0000","phone": "6622347666"}
{"name": "KROGER PHARMACY #25417","address1": "3405 PEMBERTON SQUARE BLVD","address2": "","city": "VICKSBURG","state": "MS","zip": "39180","zip+4": "0000","phone": "6016383412"}
{"name": "CENTREVILLE DRUGS","address1": "149 MAIN ST","address2": "","city": "CENTREVILLE","state": "MS","zip": "39631","zip+4": "0000","phone": "6016455411"}
{"name": "WAL-MART PHARMACY #101025","address1": "1608 SMITHDALE RD","address2": "","city": "MCCOMB","state": "MS","zip": "39648","zip+4": "0000","phone": "6016841445"}
{"name": "RUSSELLS MR DISCOUNT DRUG","address1": "334 DEPOT STREET","address2": "","city": "LEXINGTON","state": "MS","zip": "39095","zip+4": "3605","phone": "6628341154"}
{"name": "KROGER PHARMACY #25431","address1": "870 S STATE ST","address2": "","city": "CLARKSDALE","state": "MS","zip": "38614","zip+4": "0000","phone": "6626273475"}
{"name": "FAIRVIEW DISCOUNT PHARMACY","address1": "500 KATIE AVE","address2": "","city": "HATTIESBURG","state": "MS","zip": "39401","zip+4": "4399","phone": "6015444871"}
{"name": "HOSPITAL DISCOUNT DRUGS","address1": "919 HOLLAND AVE","address2": "","city": "PHILADELPHIA","state": "MS","zip": "39350","zip+4": "2115","phone": "6016562621"}
{"name": "GILBOWS DRUG STORE","address1": "103 N MAIN ST","address2": "","city": "DREW","state": "MS","zip": "38737","zip+4": "3406","phone": "6627458919"}
{"name": "BUCKLEYS PHARMACY","address1": "301 HOSPITAL DR","address2": "","city": "CLEVELAND","state": "MS","zip": "38732","zip+4": "2357","phone": "6628433654"}
{"name": "WAL-MART PHARMACY #101069","address1": "231 EASTSIDE DRIVE","address2": "","city": "NEWTON","state": "MS","zip": "39345","zip+4": "0000","phone": "6016836117"}
{"name": "FREDS PHARMACY #3241","address1": "603 MIDDLETON ROAD","address2": "","city": "WINONA","state": "MS","zip": "38967","zip+4": "0000","phone": "6622831393"}
{"name": "WAL-MART PHARMACY #101059","address1": "1309 HWY 35 SO","address2": "","city": "FOREST","state": "MS","zip": "39074","zip+4": "0000","phone": "6014692190"}
{"name": "WAL-MART PHARMACY #101066","address1": "4253 DENNY AVE.","address2": "","city": "PASCAGOULA","state": "MS","zip": "39581","zip+4": "0000","phone": "2287629343"}
{"name": "WAL-MART PHARMACY #101074","address1": "1655 SUNSET DRIVE","address2": "","city": "GRENADA","state": "MS","zip": "38901","zip+4": "0000","phone": "6622266550"}
{"name": "POLKS DISCOUNT DRUGS #2","address1": "118 E MAIN","address2": "","city": "FLORENCE","state": "MS","zip": "39073","zip+4": "0266","phone": "6018458610"}
{"name": "CLAYTON DRUGS","address1": "247 CAYUGA STREET","address2": "","city": "UTICA","state": "MS","zip": "39175","zip+4": "0004","phone": "6018858388"}
{"name": "RITE AID PHARMACY #07211","address1": "3046 INDIANA AVENUE","address2": "","city": "VICKSBURG","state": "MS","zip": "39180","zip+4": "5252","phone": "6016360598"}
{"name": "WALGREEN DRUG STORE #4455","address1": "35 STATELINE RD","address2": "","city": "SOUTHAVEN","state": "MS","zip": "38671","zip+4": "0000","phone": "6623422904"}
{"name": "SUPER D DRUGS #147","address1": "602 GRANTS FERRY ROAD","address2": "","city": "BRANDON","state": "MS","zip": "39047","zip+4": "0000","phone": "6019924322"}
{"name": "FREDS PHARMACY #1136","address1": "475 HWY 6 EAST","address2": "","city": "BATESVILLE","state": "MS","zip": "38606","zip+4": "0000","phone": "6625630074"}
{"name": "WAL-MART PHARMACY #101088","address1": "2381 PASS ROAD","address2": "","city": "BILOXI","state": "MS","zip": "39531","zip+4": "0000","phone": "2283851042"}
{"name": "KMART PHARMACY #7642","address1": "280 JOHN R JUNKIN DR","address2": "","city": "NATCHEZ","state": "MS","zip": "39120","zip+4": "0000","phone": "6014420086"}
{"name": "WAL-MART PHARMACY #100707","address1": "1000 SO STATE STREET","address2": "","city": "CLARKSDALE","state": "MS","zip": "38614","zip+4": "0000","phone": "6626242523"}
{"name": "WAL-MART PHARMACY #100391","address1": "2270 WEST MAIN STREET","address2": "","city": "TUPELO","state": "MS","zip": "38801","zip+4": "0000","phone": "6628429375"}
{"name": "WAL-MART PHARMACY #101168","address1": "1001 HWY 98 BYPASS","address2": "","city": "COLUMBIA","state": "MS","zip": "39429","zip+4": "0000","phone": "6017311266"}
{"name": "OWL DRUG STORE","address1": "MEDICAL BLVD","address2": "STE 2","city": "HATTIESBURG","state": "MS","zip": "39401","zip+4": "0000","phone": "6012685740"}
{"name": "DELTA DISCOUNT DRUGS","address1": "731 S STATE ST","address2": "","city": "CLARKSDALE","state": "MS","zip": "38614","zip+4": "4801","phone": "6626245190"}
{"name": "FREDS PHARMACY #3046","address1": "809 VARSITY DRIVE","address2": "","city": "TUPELO","state": "MS","zip": "38801","zip+4": "0000","phone": "6628411983"}
{"name": "K MART PHARMACY #9682","address1": "344 HWY 90 WEST","address2": "","city": "WAVELAND","state": "MS","zip": "39576","zip+4": "2600","phone": "2284676804"}
{"name": "WAL-MART PHARMACY #101192","address1": "1625 SIMPSON HWY 49","address2": "","city": "MAGEE","state": "MS","zip": "39111","zip+4": "0000","phone": "6018493228"}
{"name": "WAL-MART PHARMACY #100115","address1": "1313 HWY 45 SO","address2": "","city": "WEST POINT","state": "MS","zip": "39773","zip+4": "0000","phone": "6624947267"}
{"name": "WAL-MART PHARMACY #100215","address1": "620 SOUTH APPLEGATE ST","address2": "","city": "WINONA","state": "MS","zip": "38967","zip+4": "0000","phone": "6622831213"}
{"name": "WAL-MART PHARMACY #101195","address1": "460 HWY 90","address2": "","city": "WAVELAND","state": "MS","zip": "39576","zip+4": "0000","phone": "2284674717"}
{"name": "KMART PHARMACY #3663","address1": "1355 EAST PASS ROAD","address2": "","city": "GULFPORT","state": "MS","zip": "39507","zip+4": "0000","phone": "2288961086"}
{"name": "RITE AID PHARMACY #07139","address1": "1800 HWY 45 NORTH","address2": "","city": "COLUMBUS","state": "MS","zip": "39705","zip+4": "2110","phone": "6623276138"}
{"name": "WAL-MART PHARMACY #101260","address1": "11228 OLD 63 SOUTH","address2": "","city": "LUCEDALE","state": "MS","zip": "39452","zip+4": "0000","phone": "6019474287"}
{"name": "WAL-MART PHARMACY #101271","address1": "2400 HIGHWAY 19 N","address2": "","city": "MERIDIAN","state": "MS","zip": "39307","zip+4": "0000","phone": "6014823170"}
{"name": "ECRU DISCOUNT PHARMACY","address1": "186 MAIN ST","address2": "","city": "ECRU","state": "MS","zip": "38841","zip+4": "0397","phone": "6624898080"}
{"name": "FREDS PHARMACY #1266","address1": "306 E SUNFLOWER ROAD","address2": "","city": "CLEVELAND","state": "MS","zip": "38732","zip+4": "0000","phone": "6628439800"}
{"name": "DIAMONDHEAD PHARMACY AND GIFTS","address1": "4422 KALANI PL","address2": "","city": "DIAMONDHEAD","state": "MS","zip": "39525","zip+4": "0000","phone": "2282557343"}
{"name": "B AND R PHARMACY","address1": "2012 E SHILOH RD","address2": "","city": "CORINTH","state": "MS","zip": "38834","zip+4": "3727","phone": "6622868300"}
{"name": "FREDS PHARMACY #1341","address1": "HWY 13 NORTH","address2": "NORTHGATE SHOPPING CENTER","city": "COLUMBIA","state": "MS","zip": "39429","zip+4": "0000","phone": "6017363394"}
{"name": "SUPER D EXPRESS RX #1048","address1": "7253 GOODMAN ROAD","address2": "","city": "OLIVE BRANCH","state": "MS","zip": "38654","zip+4": "0000","phone": "6628958383"}
{"name": "LIDDYS HEALTH MART INC","address1": "575 CRAFT ST","address2": "","city": "HOLLY SPRINGS","state": "MS","zip": "38635","zip+4": "1316","phone": "6622522285"}
{"name": "WAL-MART PHARMACY #101346","address1": "3911 BIENVILLE BLVD","address2": "","city": "OCEAN SPRINGS","state": "MS","zip": "39564","zip+4": "0000","phone": "2288754267"}
{"name": "MEDCENTER DISCOUNT PHY INC","address1": "376 B SIMPSON HWY 149","address2": "","city": "MAGEE","state": "MS","zip": "39111","zip+4": "0000","phone": "6018493393"}
{"name": "WAL-MART PHARMACY #100716","address1": "2202 HWY 82 WEST","address2": "","city": "GREENWOOD","state": "MS","zip": "38930","zip+4": "0000","phone": "6624533967"}
{"name": "RITE AID PHARMACY #07217","address1": "2901 NORTH HILLS STREET","address2": "","city": "MERIDIAN","state": "MS","zip": "39305","zip+4": "2200","phone": "6014828197"}
{"name": "WAL-MART PHARMACY #100347","address1": "633 HIGHWAY 82 WEST","address2": "","city": "INDIANOLA","state": "MS","zip": "38751","zip+4": "0000","phone": "6628873788"}
{"name": "WAL-MART PHARMACY #101468","address1": "205 HOUSE-CARLSON DRIVE","address2": "","city": "BATESVILLE","state": "MS","zip": "38606","zip+4": "0000","phone": "6625633141"}
{"name": "FAMILY PHARMACY #1","address1": "1245 LEHMBERG RD","address2": "","city": "COLUMBUS","state": "MS","zip": "39702","zip+4": "0000","phone": "6623299060"}
{"name": "ROGERS FAMILY PHARMACY","address1": "130 W CENTRAL AVE","address2": "","city": "PETAL","state": "MS","zip": "39465","zip+4": "2397","phone": "6015828351"}
{"name": "CVS PHARMACY #05878","address1": "1201 US HWY 49 S","address2": "","city": "RICHLAND","state": "MS","zip": "39218","zip+4": "0000","phone": "6019393970"}
{"name": "CVS PHARMACY #05883","address1": "108 HWY 12 EAST","address2": "","city": "KOSCIUSKO","state": "MS","zip": "39090","zip+4": "0000","phone": "6622891963"}
{"name": "CVS PHARMACY #05900","address1": "1568 SIMPSON HWY 49","address2": "","city": "MAGEE","state": "MS","zip": "39111","zip+4": "0000","phone": "6018494376"}
{"name": "CVS PHARMACY #05908","address1": "11022 HWY 49","address2": "","city": "GULFPORT","state": "MS","zip": "39503","zip+4": "0000","phone": "2288328981"}
{"name": "OAK GROVE PHARMACY","address1": "5039 OLD HWY 11","address2": "STE 1","city": "HATTIESBURG","state": "MS","zip": "39402","zip+4": "0000","phone": "6012641198"}
{"name": "HUDSONS SUMNER DRUG","address1": "108 N COURT SQUARE","address2": "","city": "SUMNER","state": "MS","zip": "38957","zip+4": "9999","phone": "6623758813"}
{"name": "SUPER D DRUGS #220","address1": "5781 TERRY ROAD","address2": "","city": "BYRAM","state": "MS","zip": "39272","zip+4": "0000","phone": "6013731266"}
{"name": "WAL-MART PHARMACY #101530","address1": "710 NORTH DAVIS AVENUE","address2": "","city": "CLEVELAND","state": "MS","zip": "38732","zip+4": "0000","phone": "6628466008"}
{"name": "WAL-MART PHARMACY #100411","address1": "660 EAST MADISON","address2": "","city": "HOUSTON","state": "MS","zip": "38851","zip+4": "0000","phone": "6624569244"}
{"name": "FREDS PHARMACY #3211","address1": "409 DUNCAN STREET","address2": "","city": "WATER VALLEY","state": "MS","zip": "38965","zip+4": "0000","phone": "6624733333"}
{"name": "MADISON DISCOUNT DRUGS","address1": "980A HWY 51","address2": "","city": "MADISON","state": "MS","zip": "39110","zip+4": "0000","phone": "6018567111"}
{"name": "WAL-MART PHARMACY #101710","address1": "950 HWY 80 EAST","address2": "","city": "CLINTON","state": "MS","zip": "39056","zip+4": "0000","phone": "6019248778"}
{"name": "FREDS PHARMACY #1211","address1": "229 NORTH UNION","address2": "","city": "CANTON","state": "MS","zip": "39046","zip+4": "0000","phone": "6018594681"}
{"name": "FREDS PHARMACY #2521","address1": "1930 UNIVERSITY","address2": "","city": "OXFORD","state": "MS","zip": "38655","zip+4": "0000","phone": "6622343376"}
{"name": "ANDERSON DRUGS","address1": "5796 US HWY 11","address2": "","city": "PURVIS","state": "MS","zip": "39475","zip+4": "0407","phone": "6017945525"}
{"name": "RITE AID PHARMACY #07206","address1": "984 MAIN STREET","address2": "","city": "SOUTHAVEN","state": "MS","zip": "38671","zip+4": "1509","phone": "6623421915"}
{"name": "JACKSONS DISCOUNT PHARMACY","address1": "11340 THREE RIVERS RD","address2": "STE A","city": "GULFPORT","state": "MS","zip": "39503","zip+4": "3366","phone": "2288328000"}
{"name": "WAL-MART PHARMACY #100114","address1": "200 WALMART CIRCLE","address2": "","city": "BOONEVILLE","state": "MS","zip": "38829","zip+4": "0000","phone": "6627286863"}
{"name": "METRO PHARMACY","address1": "1815 HOSPITAL DR","address2": "","city": "JACKSON","state": "MS","zip": "39204","zip+4": "0000","phone": "6013465567"}
{"name": "LARUES DISCOUNT DRUG","address1": "430 HWY 51 N","address2": "","city": "BROOKHAVEN","state": "MS","zip": "39601","zip+4": "2351","phone": "6018337455"}
{"name": "KROGER PHARMACY #25432","address1": "3520 TERRY ROAD","address2": "","city": "JACKSON","state": "MS","zip": "39212","zip+4": "0000","phone": "6013715067"}
{"name": "POLKS DISCOUNT DRUGS #4","address1": "1866 SPILLWAY RD","address2": "","city": "BRANDON","state": "MS","zip": "39047","zip+4": "0000","phone": "6019924466"}
{"name": "FREDS PHARMACY #1221","address1": "300 SOUTH PEARL STREET","address2": "","city": "CARTHAGE","state": "MS","zip": "39051","zip+4": "0000","phone": "6012673293"}
{"name": "WALGREEN DRUG STORE #5396","address1": "1011 GOODMAN","address2": "","city": "SOUTHAVEN","state": "MS","zip": "38671","zip+4": "0000","phone": "6623496784"}
{"name": "WAL-MART PHARMACY #100176","address1": "822 CITY AVENUE SOUTH","address2": "","city": "RIPLEY","state": "MS","zip": "38663","zip+4": "0000","phone": "6628374100"}
{"name": "FREDS PHARMACY #2211","address1": "502 SOUTH CHURCH STREET","address2": "","city": "LOUISVILLE","state": "MS","zip": "39339","zip+4": "0000","phone": "6627738021"}
{"name": "FREDS PHARMACY #2111","address1": "340 HWY 12 WEST","address2": "","city": "KOSCIUSKO","state": "MS","zip": "39090","zip+4": "0000","phone": "6012891551"}
{"name": "KROGER PHARMACY #25447","address1": "930 BARNES CROSSING","address2": "","city": "TUPELO","state": "MS","zip": "38801","zip+4": "0000","phone": "6628445247"}
{"name": "FREDS PHARMACY #2851","address1": "706 CITY AVENUE NORTH","address2": "","city": "RIPLEY","state": "MS","zip": "38663","zip+4": "0000","phone": "6628373414"}
{"name": "MR DISCOUNT AT RUSH","address1": "1800 12TH AVE","address2": "","city": "MERIDIAN","state": "MS","zip": "39301","zip+4": "0000","phone": "6017039642"}
{"name": "ERNST PHARMACY","address1": "300 HIGHLAND BLVD","address2": "STE E","city": "NATCHEZ","state": "MS","zip": "39120","zip+4": "4611","phone": "6014429853"}
{"name": "FREDS PHARMACY #2641","address1": "170 HWY 15 NORTH","address2": "","city": "PONTOTOC","state": "MS","zip": "38863","zip+4": "0000","phone": "6624894721"}
{"name": "WAL-MART PHARMACY #100258","address1": "3929 N GLOSTER STREET","address2": "","city": "TUPELO","state": "MS","zip": "38804","zip+4": "0000","phone": "6628405546"}
{"name": "MAGIC MART PHARMACY","address1": "903 HWY 82 E","address2": "BLDG 3","city": "INDIANOLA","state": "MS","zip": "38751","zip+4": "2321","phone": "6628514135"}
{"name": "FAMILY PHARMACY NORTH #2","address1": "1214 HWY 45 N","address2": "","city": "COLUMBUS","state": "MS","zip": "39705","zip+4": "0000","phone": "6623290054"}
{"name": "WAL-MART PHARMACY #100153","address1": "202 PARK PLAZA","address2": "","city": "NEW ALBANY","state": "MS","zip": "38652","zip+4": "0000","phone": "6625341859"}
{"name": "KROGER PHARMACY #25381","address1": "826 HIGHWAY 12 WEST","address2": "","city": "STARKVILLE","state": "MS","zip": "39759","zip+4": "0000","phone": "6623248053"}
{"name": "FREDS PHARMACY #1836","address1": "140 TRADE CENTER LANE","address2": "","city": "HAZLEHURST","state": "MS","zip": "39083","zip+4": "0000","phone": "6018943008"}
{"name": "FREDS PHARMACY #2446","address1": "31 SGT PRENTISS DRIVE","address2": "","city": "NATCHEZ","state": "MS","zip": "39120","zip+4": "0000","phone": "6014466331"}
{"name": "KMART PHARMACY #4883","address1": "118 HIGHWAY 72 WEST","address2": "","city": "CORINTH","state": "MS","zip": "38834","zip+4": "0000","phone": "6622866057"}
{"name": "DURST DISCOUNT DRUGS INC #2","address1": "3117 HALLS FERRY ROAD","address2": "","city": "VICKSBURG","state": "MS","zip": "39180","zip+4": "0000","phone": "6016364333"}
{"name": "FREDS PHARMACY #1171","address1": "218 20 S WHITWORTH","address2": "","city": "BROOKHAVEN","state": "MS","zip": "39601","zip+4": "0000","phone": "6018350370"}
{"name": "POLKS DISCOUNT DRUGS #5","address1": "120 SCARBROUGH DR","address2": "STE 1","city": "RICHLAND","state": "MS","zip": "39218","zip+4": "0000","phone": "6019328609"}
{"name": "WAL-MART PHARMACY #100118","address1": "1515 US HWY 278 EAST","address2": "","city": "AMORY","state": "MS","zip": "38821","zip+4": "0000","phone": "6622562281"}
{"name": "CORAM SPECIALTY INFUSION SERVI","address1": "2929 LAYFAIR DR","address2": "SUITE 100","city": "FLOWOOD","state": "MS","zip": "39232","zip+4": "0000","phone": "6013530097"}
{"name": "FREDS PHARMACY #2231","address1": "1700 SIMPSON HWY 49","address2": "","city": "MAGEE","state": "MS","zip": "39111","zip+4": "0000","phone": "6018495380"}
{"name": "WAL-MART PHARMACY #100105","address1": "2301 HARPER ROAD","address2": "","city": "CORINTH","state": "MS","zip": "38834","zip+4": "0000","phone": "6622861051"}
{"name": "MEDICAP PHARMACY #8115","address1": "821 E NORTHSIDE DR","address2": "","city": "CLINTON","state": "MS","zip": "39056","zip+4": "0000","phone": "6019248935"}
{"name": "FREDS PHARMACY #1791","address1": "06 EAST COMMERCE ST","address2": "","city": "HERNANDO","state": "MS","zip": "38632","zip+4": "0000","phone": "6624295241"}
{"name": "SUPER D DRUGS #231","address1": "200 MARION AVENUE","address2": "","city": "MCCOMB","state": "MS","zip": "39648","zip+4": "0000","phone": "6016847621"}
{"name": "MEDICINE SHOPPE PHARMACY #1271","address1": "2952 MARKET ST","address2": "","city": "PASCAGOULA","state": "MS","zip": "39567","zip+4": "0000","phone": "2287625664"}
{"name": "WINN DIXIE #1511","address1": "11312H HWY 49","address2": "","city": "GULFPORT","state": "MS","zip": "39503","zip+4": "0000","phone": "2288320051"}
{"name": "POTTS CAMP FAMILY PHARMACY","address1": "41 S CENTER ST","address2": "","city": "POTTS CAMP","state": "MS","zip": "38659","zip+4": "0000","phone": "6623337782"}
{"name": "WAL-MART PHARMACY #100274","address1": "1110 BATTLEGROUND DRIVE","address2": "","city": "IUKA","state": "MS","zip": "38852","zip+4": "0000","phone": "6624239330"}
{"name": "WAL-MART PHARMACY #100303","address1": "950 MACKIE DRIVE","address2": "","city": "HOLLY SPRINGS","state": "MS","zip": "38635","zip+4": "0000","phone": "6622529988"}
{"name": "WAL-MART PHARMACY #100305","address1": "905 HWY 16 WEST","address2": "","city": "CARTHAGE","state": "MS","zip": "39051","zip+4": "0000","phone": "6012675999"}
{"name": "MEDICAP PHARMACY #8123","address1": "110 HIGHWAY 51 N","address2": "","city": "BATESVILLE","state": "MS","zip": "38606","zip+4": "0000","phone": "6625630266"}
{"name": "FREDS PHARMACY #2051","address1": "5050 PARKWAY RD SUITE 12","address2": "","city": "JACKSON","state": "MS","zip": "39211","zip+4": "0000","phone": "6019570909"}
{"name": "MERIDIAN LONG TERM CARE PHCY","address1": "1313 22ND AVE","address2": "","city": "MERIDIAN","state": "MS","zip": "39301","zip+4": "0000","phone": "6016931635"}
{"name": "KROGER PHARMACY #25454","address1": "104 HIGHWAY 72 WEST","address2": "","city": "CORINTH","state": "MS","zip": "38834","zip+4": "0000","phone": "6622878304"}
{"name": "RITE AID PHARMACY #07210","address1": "398 HIGHWAY 51","address2": "","city": "RIDGELAND","state": "MS","zip": "39157","zip+4": "3401","phone": "6018539864"}
{"name": "FREDS PHARMACY #2046","address1": "2885 TERRY ROAD","address2": "","city": "JACKSON","state": "MS","zip": "39212","zip+4": "0000","phone": "6013736783"}
{"name": "FREDS PHARMACY #2621","address1": "235 GEORGE WALLACE DRIVE","address2": "","city": "PEARL","state": "MS","zip": "39208","zip+4": "0000","phone": "6019321660"}
{"name": "QUALITY DRUGS","address1": "513 HWY 82 W","address2": "","city": "GREENWOOD","state": "MS","zip": "38930","zip+4": "5034","phone": "6624538070"}
{"name": "WALGREEN DRUG STORE #3323","address1": "1501 GOODMAN RD WEST","address2": "","city": "HORN LAKE","state": "MS","zip": "38637","zip+4": "0000","phone": "6623429281"}
{"name": "HUDSPETH CENTER PHARMACY","address1": "HWY 475 SOUTH","address2": "","city": "WHITFIELD","state": "MS","zip": "39193","zip+4": "0000","phone": "6016646352"}
{"name": "MOORES PHARMACY #2","address1": "103 CHADWICK AVE","address2": "","city": "WALNUT GROVE","state": "MS","zip": "39189","zip+4": "0000","phone": "6012532599"}
{"name": "KMART PHARMACY #7719","address1": "2308 HIGHWAY 45 N","address2": "","city": "COLUMBUS","state": "MS","zip": "39705","zip+4": "0000","phone": "6623294598"}
{"name": "KROGER PHARMACY #25442","address1": "1070 HIGHWAY STE 51","address2": "","city": "MADISON","state": "MS","zip": "39110","zip+4": "0000","phone": "6018563275"}
{"name": "FREDS PHARMACY #2176","address1": "301 YAZOO STREET","address2": "","city": "LEXINGTON","state": "MS","zip": "39095","zip+4": "0000","phone": "6628343378"}
{"name": "SERVICE DRUGS","address1": "680 HWY 51","address2": "STE G","city": "RIDGELAND","state": "MS","zip": "39157","zip+4": "0000","phone": "6018534611"}
{"name": "KROGER PHARMACY #25427","address1": "1829 HIGHWAY 45 NORTH","address2": "","city": "COLUMBUS","state": "MS","zip": "39701","zip+4": "0000","phone": "6623279562"}
{"name": "KROGER PHARMACY #25429","address1": "1778 HIGHWAY 1 SO","address2": "","city": "GREENVILLE","state": "MS","zip": "38701","zip+4": "0000","phone": "6623320231"}
{"name": "WINN DIXIE #1534","address1": "771 US HWY 98","address2": "","city": "COLUMBIA","state": "MS","zip": "39429","zip+4": "0000","phone": "6017367799"}
{"name": "THOMAS PHARMACY GARDINER CTR","address1": "170 BEACON ST","address2": "","city": "LAUREL","state": "MS","zip": "39440","zip+4": "0000","phone": "6014285977"}
{"name": "FREDS PHARMACY #2406","address1": "5186 HWY 80","address2": "","city": "MORTON","state": "MS","zip": "39117","zip+4": "0000","phone": "6017328683"}
{"name": "PRESCRIPTION SHOPPE","address1": "504 ALCORN DR","address2": "","city": "CORINTH","state": "MS","zip": "38834","zip+4": "0000","phone": "6622865747"}
{"name": "WALGREEN DRUG STORE #3452","address1": "2 WEST PASS ROAD","address2": "","city": "GULFPORT","state": "MS","zip": "39507","zip+4": "0000","phone": "2288648013"}
{"name": "FREDS PHARMACY #1126","address1": "2675 HWY 15","address2": "","city": "BAY SPRINGS","state": "MS","zip": "39422","zip+4": "0000","phone": "6017644342"}
{"name": "WINN DIXIE #1477","address1": "1701 HWY 43 NORTH","address2": "","city": "PICAYUNE","state": "MS","zip": "39466","zip+4": "0000","phone": "6017995081"}
{"name": "FREDS PHARMACY #1061","address1": "318 NORTH ALFORD","address2": "","city": "ACKERMAN","state": "MS","zip": "39735","zip+4": "0000","phone": "6622856039"}
{"name": "FREDS PHARMACY #2781","address1": "20917 HWY 61 N","address2": "","city": "ROLLING FORK","state": "MS","zip": "39159","zip+4": "0000","phone": "6628734723"}
{"name": "KROGER PHARMACY #25345","address1": "4910 I 55 NORTH","address2": "","city": "JACKSON","state": "MS","zip": "39211","zip+4": "0000","phone": "6013666554"}
{"name": "KROGER PHARMACY #25453","address1": "7251 INTERSTATE BLVD","address2": "","city": "HORN LAKE","state": "MS","zip": "38637","zip+4": "0000","phone": "6623498336"}
{"name": "KROGER PHARMACY #25452","address1": "7427 GOODMAN RD","address2": "","city": "OLIVE BRANCH","state": "MS","zip": "38654","zip+4": "0000","phone": "6628951956"}
{"name": "VILLAGE PHARMACY INC","address1": "48 S 4TH STREET","address2": "","city": "ROLLING FORK","state": "MS","zip": "39159","zip+4": "0000","phone": "6628739020"}
{"name": "WINN DIXIE #1483","address1": "801 HWY 11 SOUTH","address2": "","city": "PICAYUNE","state": "MS","zip": "39466","zip+4": "0000","phone": "6017984771"}
{"name": "POLKS DISCOUNT DRUGS #6","address1": "7264 SIWELL RD","address2": "","city": "BYRAM","state": "MS","zip": "39272","zip+4": "0000","phone": "6013718662"}
{"name": "MEDICAP PHARMACY #8156","address1": "425 DESOTO AVENUE","address2": "","city": "CLARKSDALE","state": "MS","zip": "38614","zip+4": "0000","phone": "6626270100"}
{"name": "BURNHAM DRUGS LLC #3","address1": "2525 HWY 90","address2": "","city": "GAUTIER","state": "MS","zip": "39553","zip+4": "0000","phone": "2284974483"}
{"name": "FREDS XPRESS #3651","address1": "HWY 528 WEST","address2": "","city": "HEIDELBERG","state": "MS","zip": "39439","zip+4": "0000","phone": "6017874940"}
{"name": "MEDICAP PHARMACY #8162","address1": "2000 24TH AVE","address2": "","city": "MERIDIAN","state": "MS","zip": "39301","zip+4": "0000","phone": "6016930033"}
{"name": "BJP PHARMACY","address1": "1668 W PEACE ST","address2": "","city": "CANTON","state": "MS","zip": "39046","zip+4": "0000","phone": "6018590050"}
{"name": "FREDS PHARMACY #1471","address1": "33674 HIGHWAY 12","address2": "","city": "DURANT","state": "MS","zip": "39063","zip+4": "0000","phone": "6626533007"}
{"name": "WINN DIXIE #1512","address1": "1444 E PASS RD","address2": "","city": "GULFPORT","state": "MS","zip": "39507","zip+4": "0000","phone": "2288960034"}
{"name": "FREDS PHARMACY #2961","address1": "605 S JACKSON","address2": "","city": "STARKVILLE","state": "MS","zip": "39759","zip+4": "0000","phone": "6623238133"}
{"name": "FREDS XPRESS #3666","address1": "118 HUMPHREY","address2": "","city": "ITTA BENA","state": "MS","zip": "38941","zip+4": "0000","phone": "6622546241"}
{"name": "KROGER PHARMACY #25449","address1": "1167 HIGHWAY 49 SOUTH","address2": "","city": "RICHLAND","state": "MS","zip": "39218","zip+4": "0000","phone": "6016640600"}
{"name": "WINN DIXIE #1479","address1": "109 N CLEVELAND AVE","address2": "","city": "LONG BEACH","state": "MS","zip": "39560","zip+4": "0000","phone": "2288630631"}
{"name": "FREDS PHARMACY #1911","address1": "615 HWY 25 SOUTH","address2": "","city": "IUKA","state": "MS","zip": "38852","zip+4": "0000","phone": "6624233676"}
{"name": "OMNICARE OF JACKSON","address1": "100 BUSINESS PARK DR","address2": "STE 100D","city": "RIDGELAND","state": "MS","zip": "39213","zip+4": "0000","phone": "6019566228"}
{"name": "BELL PHARMACY","address1": "427 E MADISON","address2": "","city": "DURANT","state": "MS","zip": "39063","zip+4": "0000","phone": "6626533006"}
{"name": "FREDS XPRESS #3731","address1": "407 N MAIN","address2": "","city": "LELAND","state": "MS","zip": "38756","zip+4": "0000","phone": "6626867802"}
{"name": "FREDS PHARMACY #1279","address1": "1211 S FIR AVE","address2": "","city": "COLLINS","state": "MS","zip": "39428","zip+4": "0000","phone": "6017656725"}
{"name": "FREDS PHARMACY #2366","address1": "1509 HWY 84 WEST","address2": "","city": "MONTICELLO","state": "MS","zip": "39654","zip+4": "0000","phone": "6015872531"}
{"name": "BAY PHARMACY INC","address1": "308 HWY 90","address2": "","city": "BAY ST LOUIS","state": "MS","zip": "39520","zip+4": "0000","phone": "2284669333"}
{"name": "FREDS PHARMACY #1306","address1": "599 W VETERANS BLVD","address2": "","city": "CALHOUN CITY","state": "MS","zip": "38916","zip+4": "0000","phone": "6626285811"}
{"name": "FREDS PHARMACY #1011","address1": "107 N MERIDIAN STREET","address2": "","city": "ABERDEEN","state": "MS","zip": "39730","zip+4": "0000","phone": "6623690060"}
{"name": "WINN DIXIE #0472","address1": "2014 HWY 45 NORTH","address2": "","city": "MERIDIAN","state": "MS","zip": "39301","zip+4": "0000","phone": "6014825299"}
{"name": "FREDS PHARMACY #3236","address1": "116 2ND STREET SOUTH","address2": "","city": "WIGGINS","state": "MS","zip": "39577","zip+4": "0000","phone": "6019283215"}
{"name": "WAL-MART PHARMACY #100903","address1": "2711 GREENWAY DRIVE","address2": "","city": "JACKSON","state": "MS","zip": "39204","zip+4": "0000","phone": "6019222876"}
{"name": "FREDS PHARMACY #1146","address1": "403 W CALHOUN STREET","address2": "","city": "BRUCE","state": "MS","zip": "38915","zip+4": "0000","phone": "6629832712"}
{"name": "FREDS PHARMACY #2896","address1": "4233 ROCKY BRANCH RD","address2": "","city": "SUMRALL","state": "MS","zip": "39482","zip+4": "0000","phone": "6017583361"}
{"name": "FREDS XPRESS #3926","address1": "101 WEST SWEET POTATO AVE","address2": "","city": "VARDAMAN","state": "MS","zip": "38878","zip+4": "0000","phone": "6626827489"}
{"name": "DRUGS FOR LESS #1991","address1": "225 MEADOWBROOK ROAD","address2": "","city": "JACKSON","state": "MS","zip": "39204","zip+4": "0000","phone": "6013629792"}
{"name": "DRUGS FOR LESS #1996","address1": "540 RAYMOND ROAD","address2": "","city": "JACKSON","state": "MS","zip": "39204","zip+4": "0000","phone": "6013710468"}
{"name": "UNI CARE RX","address1": "124 WALNUT ST","address2": "STE 1","city": "HATTIESBURG","state": "MS","zip": "39401","zip+4": "0000","phone": "6015444848"}
{"name": "WALGREEN DRUG STORE #4191","address1": "3445 TERRY RD","address2": "","city": "JACKSON","state": "MS","zip": "39212","zip+4": "0000","phone": "6013728802"}
{"name": "FREDS PHARMACY #1631","address1": "237 WOODLAND DRIVE","address2": "","city": "FOREST","state": "MS","zip": "39074","zip+4": "0000","phone": "6014692242"}
{"name": "WAL-MART PHARMACY #100239","address1": "220 VETERAN MEM DR","address2": "","city": "KOSCIUSKO","state": "MS","zip": "39090","zip+4": "0000","phone": "6622894593"}
{"name": "MEDICINE SHOPPE #1547","address1": "9065 SANDIDGE CENTER COVE","address2": "SUITE A","city": "OLIVE BRANCH","state": "MS","zip": "38654","zip+4": "0000","phone": "6628937400"}
{"name": "FREDS PHARMACY #1521","address1": "300 HWY 9 NORTH","address2": "","city": "EUPORA","state": "MS","zip": "39744","zip+4": "0000","phone": "6622586800"}
{"name": "WALGREEN DRUG STORE #4196","address1": "3835 NORTHBROOK DR","address2": "","city": "JACKSON","state": "MS","zip": "39206","zip+4": "0000","phone": "6013628084"}
{"name": "WINN PHARMACY","address1": "149 WILSON RD","address2": "","city": "NATCHEZ","state": "MS","zip": "39120","zip+4": "0000","phone": "6014424527"}
{"name": "TYSON MEDICAL CENTER PHARMACY","address1": "530 ACCESS RD","address2": "","city": "HOLLY SPRINGS","state": "MS","zip": "38635","zip+4": "0000","phone": "6622521011"}
{"name": "FREDS PHARMACY #1236","address1": "456 HIGHWAY 24","address2": "","city": "CENTREVILLE","state": "MS","zip": "39631","zip+4": "0000","phone": "6016459190"}
{"name": "RITE AID PHARMACY #07208","address1": "1073 HIGHWAY 51","address2": "","city": "MADISON","state": "MS","zip": "39110","zip+4": "9085","phone": "6016050402"}
{"name": "RITE AID PHARMACY #07381","address1": "403 HIGHWAY 90","address2": "","city": "WAVELAND","state": "MS","zip": "39576","zip+4": "2507","phone": "2284679247"}
{"name": "WINN DIXIE #0536","address1": "2120 HWY 19 NORTH","address2": "","city": "MERIDIAN","state": "MS","zip": "39305","zip+4": "0000","phone": "6014859850"}
{"name": "FREDS PHARMACY #2501","address1": "7105 COCKRUM STREET","address2": "","city": "OLIVE BRANCH","state": "MS","zip": "38654","zip+4": "0000","phone": "6628952116"}
{"name": "FREDS PHARMACY #1161","address1": "520 N HAYDEN STREET","address2": "","city": "BELZONI","state": "MS","zip": "39038","zip+4": "0000","phone": "6622473434"}
{"name": "FREDS XPRESS #3956","address1": "179 BOSTON ROW","address2": "","city": "WOODVILLE","state": "MS","zip": "39669","zip+4": "0000","phone": "6018883346"}
{"name": "RX EXPRESS PHARMACY","address1": "7100 H HWY 614","address2": "","city": "MOSS POINT","state": "MS","zip": "39562","zip+4": "0000","phone": "2285882888"}
{"name": "FREDS PHARMACY #2631","address1": "714 PECAN AVE","address2": "STE 1","city": "PHILADELPHIA","state": "MS","zip": "39350","zip+4": "0000","phone": "6016562544"}
{"name": "WALGREEN DRUG STORE #4873","address1": "1100 HIGHWAY 51","address2": "","city": "MADISON","state": "MS","zip": "39110","zip+4": "0000","phone": "6018532088"}
{"name": "WALGREEN DRUG STORE #4990","address1": "6308 RIDGEWOOD RD","address2": "","city": "JACKSON","state": "MS","zip": "39211","zip+4": "0000","phone": "6019522945"}
{"name": "WINN DIXIE #0533","address1": "5100 HWY 39 N","address2": "","city": "MERIDIAN","state": "MS","zip": "39301","zip+4": "0000","phone": "6014850818"}
{"name": "FREDS PHARMACY #1906","address1": "1000 BROADWAY DR STE 50","address2": "","city": "HATTIESBURG","state": "MS","zip": "39401","zip+4": "0000","phone": "6015836411"}
{"name": "WINN DIXIE #1513","address1": "10511 DIBERVILLE BLVD","address2": "","city": "DIBERVILLE","state": "MS","zip": "39540","zip+4": "0000","phone": "2283923560"}
{"name": "FREDS PHARMACY #1701","address1": "101 MANSKER DRIVE","address2": "","city": "FLORA","state": "MS","zip": "39071","zip+4": "0000","phone": "6018793168"}
{"name": "RITE AID PHARMACY #07398","address1": "3100 GOODMAN ROAD","address2": "","city": "HORN LAKE","state": "MS","zip": "38637","zip+4": "1159","phone": "6623932656"}
{"name": "RITE AID PHARMACY #07405","address1": "380 WEST WOODROW WILSON AVENUE","address2": "","city": "JACKSON","state": "MS","zip": "39213","zip+4": "7657","phone": "6017131130"}
{"name": "WAL-MART PHARMACY #100273","address1": "100 INTERCHANGE DRIVE","address2": "","city": "FULTON","state": "MS","zip": "38843","zip+4": "0000","phone": "6628625284"}
{"name": "WALGREEN DRUG STORE #5165","address1": "204 HWY 80 EAST","address2": "","city": "CLINTON","state": "MS","zip": "39056","zip+4": "4716","phone": "6019261116"}
{"name": "FAMILY PHARMACY #399","address1": "113 LEHMBERG RD","address2": "","city": "COLUMBUS","state": "MS","zip": "39702","zip+4": "0000","phone": "6623291810"}
{"name": "WAL-MART PHARMACY #102715","address1": "3615 SANGANI BLVD","address2": "","city": "DIBERVILLE","state": "MS","zip": "39540","zip+4": "0000","phone": "2283964778"}
{"name": "RITE AID PHARMACY #07400","address1": "2310 CLAY STREET","address2": "","city": "VICKSBURG","state": "MS","zip": "39183","zip+4": "3123","phone": "6016615856"}
{"name": "FREDS PHARMACY #2396","address1": "3050 SIMPSON HWY 13","address2": "","city": "MENDENHALL","state": "MS","zip": "39114","zip+4": "0000","phone": "6018477272"}
{"name": "WALGREEN DRUG STORE #5307","address1": "6130 HWY 49","address2": "","city": "HATTIESBURG","state": "MS","zip": "39401","zip+4": "0000","phone": "6015456956"}
{"name": "WAL-MART PHARMACY #102717","address1": "5901 HWY 49 SOUTH","address2": "","city": "HATTIESBURG","state": "MS","zip": "39402","zip+4": "0000","phone": "6012969566"}
{"name": "WALGREEN DRUG STORE #5098","address1": "955 N STATE ST","address2": "","city": "JACKSON","state": "MS","zip": "39202","zip+4": "0000","phone": "6019695383"}
{"name": "WALGREEN DRUG STORE #5195","address1": "15371 DEDEAUX RD","address2": "","city": "GULFPORT","state": "MS","zip": "39503","zip+4": "3123","phone": "2285392352"}
{"name": "KMART PHARMACY #4213","address1": "3001 HIGHWAY 82 E","address2": "","city": "GREENVILLE","state": "MS","zip": "38703","zip+4": "0000","phone": "6623327223"}
{"name": "WAL-MART PHARMACY #102755","address1": "5341 LAKELAND DRIVE","address2": "","city": "FLOWOOD","state": "MS","zip": "39047","zip+4": "0000","phone": "6019928144"}
{"name": "QUALITY PHARMACY INC","address1": "999 HOWARD AVE STE 2","address2": "","city": "BILOXI","state": "MS","zip": "39530","zip+4": "0000","phone": "2283743789"}
{"name": "FAMILY PHARMACY OF FULTON","address1": "1408 SOUTH ADAMS","address2": "ROUTE 4","city": "FULTON","state": "MS","zip": "38843","zip+4": "0000","phone": "6628627979"}
{"name": "FAMILY PHARMACY OF PONTOTOC","address1": "247A WEST OXFORD STREET","address2": "","city": "PONTOTOC","state": "MS","zip": "38863","zip+4": "0000","phone": "6624892321"}
{"name": "KROGER PHARMACY #25434","address1": "110 KEATING RD","address2": "","city": "BATESVILLE","state": "MS","zip": "38606","zip+4": "0000","phone": "6625784399"}
{"name": "FREDS PHARMACY #1641","address1": "1409 ADAMS STREET SUITE A","address2": "","city": "FULTON","state": "MS","zip": "38843","zip+4": "0000","phone": "6628623361"}
{"name": "CURRIES FAMILY CARE PHARMACY O","address1": "314 HWY 145 NORTH","address2": "","city": "ABERDEEN","state": "MS","zip": "39730","zip+4": "0000","phone": "6623697775"}
{"name": "BOONEVILLE COMMUNITY PHARMACY","address1": "206 N 2ND ST","address2": "","city": "BOONEVILLE","state": "MS","zip": "38829","zip+4": "0000","phone": "6627281951"}
{"name": "WAL-MART PHARMACY #102846","address1": "7950 CRAFT GOODMAN FRONTAGE RD","address2": "","city": "OLIVE BRANCH","state": "MS","zip": "38654","zip+4": "0000","phone": "6628905868"}
{"name": "PHARM CARE INC","address1": "7135 GETWELL RD","address2": "STE 101","city": "SOUTHAVEN","state": "MS","zip": "38672","zip+4": "0000","phone": "6623497150"}
{"name": "WALGREEN DRUG STORE #5653","address1": "3800 MARKET ST","address2": "","city": "PASCAGOULA","state": "MS","zip": "39567","zip+4": "0000","phone": "2282028226"}
{"name": "FREDS PHARMACY #2411","address1": "126 WEST MAIN STREET","address2": "","city": "NEW ALBANY","state": "MS","zip": "38652","zip+4": "0000","phone": "6625344731"}
{"name": "PHARM NET","address1": "403 SUMMITT","address2": "","city": "WINONA","state": "MS","zip": "38967","zip+4": "0000","phone": "6622831331"}
{"name": "WOOLMARKET PHARMACY INC","address1": "13066 HWY 67","address2": "STE F","city": "BILOXI","state": "MS","zip": "39532","zip+4": "0000","phone": "2283925355"}
{"name": "CVS PHARMACY #05923","address1": "2424 25TH AVE","address2": "","city": "GULFPORT","state": "MS","zip": "39501","zip+4": "0000","phone": "2288220163"}
{"name": "FREDS PHARMACY #1091","address1": "5760 HWY 80 EAST","address2": "","city": "PEARL","state": "MS","zip": "39208","zip+4": "0000","phone": "6016640202"}
{"name": "SAV-REX DRUGS #638","address1": "641 DELMAS AVE","address2": "","city": "PASCAGOULA","state": "MS","zip": "39567","zip+4": "0000","phone": "2287696362"}
{"name": "CVS PHARMACY #05933","address1": "1422 E PASS RD","address2": "","city": "GULFPORT","state": "MS","zip": "39507","zip+4": "0000","phone": "2286040138"}
{"name": "FREDS PHARMACY #2229","address1": "11299 HWY 63 SOUTH","address2": "","city": "LUCEDALE","state": "MS","zip": "39452","zip+4": "0000","phone": "6019478105"}
{"name": "PMO PHARMACY","address1": "319 CROSSPARK DR","address2": "","city": "PEARL","state": "MS","zip": "39208","zip+4": "0000","phone": "6014205150"}
{"name": "SAVE RITE PHARMACY CARTERS","address1": "6390 WASHINGTON AVE","address2": "","city": "OCEAN SPRINGS","state": "MS","zip": "39564","zip+4": "0000","phone": "2288183391"}
{"name": "WAL-MART PHARMACY #102939","address1": "200 MARKETPLACE DRIVE","address2": "","city": "RICHLAND","state": "MS","zip": "39218","zip+4": "0000","phone": "6019392958"}
{"name": "WALGREEN DRUG STORE #5791","address1": "1497 CANTON MAR RD","address2": "","city": "JACKSON","state": "MS","zip": "39211","zip+4": "0000","phone": "6019770757"}
{"name": "WINN DIXIE #1357","address1": "2384 PASS RD","address2": "","city": "BILOXI","state": "MS","zip": "39531","zip+4": "0000","phone": "2283884015"}
{"name": "COUNTY MARKET PHARMACY #9327","address1": "3111 HWY 80 E","address2": "","city": "PEARL","state": "MS","zip": "39208","zip+4": "0000","phone": "6019325337"}
{"name": "COVENANT PHARMACY LLC","address1": "2506 LAKELAND DR STE 101","address2": "","city": "FLOWOOD","state": "MS","zip": "39232","zip+4": "0000","phone": "6019329558"}
{"name": "KROGER PHARMACY #25473","address1": "2013 UNIVERSITY AVE","address2": "","city": "OXFORD","state": "MS","zip": "38655","zip+4": "0000","phone": "6622366811"}
{"name": "SAMS PHARMACY #104740","address1": "465 GOODMAN ROAD","address2": "","city": "SOUTHAVEN","state": "MS","zip": "38671","zip+4": "0000","phone": "6623493740"}
{"name": "WALGREEN DRUG STORE #5655","address1": "6910 OLD CANTON RD","address2": "","city": "RIDGELAND","state": "MS","zip": "39157","zip+4": "0000","phone": "6019561685"}
{"name": "FIRST HEALTH PHARMACY","address1": "1300 SUNSET DR","address2": "STE C","city": "GRENADA","state": "MS","zip": "38901","zip+4": "0000","phone": "6622260666"}
{"name": "CVS PHARMACY #05925","address1": "1600 E COUNTY LINE RD","address2": "","city": "RIDGELAND","state": "MS","zip": "39157","zip+4": "0000","phone": "6019571874"}
{"name": "KROGER PHARMACY #25475","address1": "2380 MT PLEASANT","address2": "","city": "HERNANDO","state": "MS","zip": "38632","zip+4": "0000","phone": "6624295327"}
{"name": "BACK BAY DRUGS LLC","address1": "10437 LAMEY BRIDGE","address2": "STE A","city": "DIBERVILLE","state": "MS","zip": "39532","zip+4": "0000","phone": "2283962228"}
{"name": "FREDS PHARMACY #2871","address1": "111 WILLOWBROOK DRIVE","address2": "","city": "SALTILLO","state": "MS","zip": "38866","zip+4": "0000","phone": "6628698600"}
{"name": "WALGREEN DRUG STORE #6754","address1": "4028 GOODMAN RD","address2": "","city": "HORN LAKE","state": "MS","zip": "38637","zip+4": "0000","phone": "6623931183"}
{"name": "WALGREEN DRUG STORE #6771","address1": "817 W MAIN ST","address2": "","city": "TUPELO","state": "MS","zip": "38801","zip+4": "0000","phone": "6626207956"}
{"name": "SAMS PHARMACY #108271","address1": "6360 RIDGEWOOD COURT DR","address2": "","city": "JACKSON","state": "MS","zip": "39211","zip+4": "0000","phone": "6019770948"}
{"name": "WAVELAND PHARMACY","address1": "112 AUDERER BLVD","address2": "","city": "WAVELAND","state": "MS","zip": "39576","zip+4": "0000","phone": "2284631055"}
{"name": "WALGREEN DRUG STORE #6770","address1": "220 HIGHWAY 12 W","address2": "","city": "STARKVILLE","state": "MS","zip": "39759","zip+4": "0000","phone": "6623230848"}
{"name": "KROGER PHARMACY #25471","address1": "960 W MAIN ST","address2": "","city": "TUPELO","state": "MS","zip": "38801","zip+4": "0000","phone": "6628408559"}
{"name": "FREDS PHARMACY #3071","address1": "3000 PLAZA DRIVE","address2": "","city": "TYLERTOWN","state": "MS","zip": "39667","zip+4": "0000","phone": "6018762152"}
{"name": "UNION DISCOUNT DRUGS","address1": "25025 HWY 15","address2": "","city": "UNION","state": "MS","zip": "39365","zip+4": "0000","phone": "6017742772"}
{"name": "F AND M SPECIALTY PHARMACY","address1": "631 LAKELAND E","address2": "STE 700","city": "FLOWOOD","state": "MS","zip": "39232","zip+4": "0000","phone": "6019399353"}
{"name": "DOGWOOD FAMILY PHARMACY","address1": "103 TOWN CREEK DRIVE","address2": "","city": "SALTILLO","state": "MS","zip": "38866","zip+4": "0000","phone": "6628698383"}
{"name": "WAL-MART PHARMACY #100887","address1": "36 BYRD BLVD","address2": "","city": "PETAL","state": "MS","zip": "39465","zip+4": "0000","phone": "6015847525"}
{"name": "BROOKSHIRES PHARMACY #00000001","address1": "7045 OLD CANTON ROAD","address2": "ATTENTION PHARMACY DEPT","city": "RIDGELAND","state": "MS","zip": "39157","zip+4": "0000","phone": "6018560977"}
{"name": "BROOKSHIRES PHARMACY #00000001","address1": "5841 RIDGEWOOD ROAD","address2": "ATTENTION PHARMACY DEPT","city": "JACKSON","state": "MS","zip": "39211","zip+4": "0000","phone": "6019781747"}
{"name": "BROOKSHIRES PHARMACY #00000001","address1": "2861 TERRY ROAD","address2": "ATTENTION PHARMACY DEPT","city": "JACKSON","state": "MS","zip": "39212","zip+4": "0000","phone": "6013722387"}
{"name": "BROOKSHIRES PHARMACY #00000001","address1": "143 PLAZA DRIVE EXT","address2": "ATTENTION PHARMACY DEPT","city": "BRANDON","state": "MS","zip": "39047","zip+4": "0000","phone": "6019926873"}
{"name": "SCHNUCKS PHARMACY #779","address1": "945 GOODMAN RD","address2": "","city": "SOUTH HAVEN","state": "MS","zip": "38671","zip+4": "0000","phone": "6622802103"}
{"name": "SCHNUCKS PHARMACY #787","address1": "3926 GOODMAN RD","address2": "","city": "HORN LAKE","state": "MS","zip": "38637","zip+4": "0000","phone": "6623937868"}
{"name": "BARNETT APOTHECARY","address1": "606 BATTLEGROUND DR","address2": "","city": "IUKA","state": "MS","zip": "38852","zip+4": "0000","phone": "6624239994"}
{"name": "WAL-MART PHARMACY #103528","address1": "1053 FRONTAGE DRIVE EAST","address2": "","city": "WIGGINS","state": "MS","zip": "39577","zip+4": "0000","phone": "6019289996"}
{"name": "WALGREEN DRUG STORE #7130","address1": "6958 GOODMAN RD","address2": "","city": "OLIVE BRANCH","state": "MS","zip": "38654","zip+4": "0000","phone": "6628905044"}
{"name": "WAL-MART PHARMACY #103593","address1": "2401 GOODMAN ROAD","address2": "","city": "HORN LAKE","state": "MS","zip": "38637","zip+4": "0000","phone": "6623426229"}
{"name": "HOME CARE PHARMACY","address1": "708 E NORTHSIDE DR","address2": "","city": "CLINTON","state": "MS","zip": "39056","zip+4": "0000","phone": "6019258005"}
{"name": "KLEPZIG FAMILY PHARMACY","address1": "2173 S LAMAR AVE","address2": "","city": "OXFORD","state": "MS","zip": "38655","zip+4": "0000","phone": "6622343610"}
{"name": "HELPING HAND FAMILY PHARMACY","address1": "1670 HWY 61 NORTH","address2": "","city": "VICKSBURG","state": "MS","zip": "39183","zip+4": "0000","phone": "6016316837"}
{"name": "GATHRIGHT REED","address1": "1420 N LAMAR BLVD","address2": "SUITE 102","city": "OXFORD","state": "MS","zip": "38655","zip+4": "0000","phone": "6622344843"}
{"name": "FREDS XPRESS #2244","address1": "59 FRONTAGE RD","address2": "","city": "MACON","state": "MS","zip": "39341","zip+4": "0000","phone": "6627265151"}
{"name": "WALGREEN DRUG STORE #7580","address1": "1415 24TH AVE","address2": "","city": "MERIDIAN","state": "MS","zip": "39301","zip+4": "0000","phone": "6016931051"}
{"name": "WALGREEN DRUG STORE #7517","address1": "977 ELLLIS AVE","address2": "","city": "JACKSON","state": "MS","zip": "39209","zip+4": "0000","phone": "6019441271"}
{"name": "WAL-MART PHARMACY #102720","address1": "127 GRAND VIEW BLVD","address2": "","city": "MADISON","state": "MS","zip": "39110","zip+4": "0000","phone": "6016059615"}
{"name": "NEWPOINTE PHARMACY","address1": "6555 US HWY 98 WEST","address2": "SUITE 6","city": "HATTIESBURG","state": "MS","zip": "39402","zip+4": "0000","phone": "6014503345"}
{"name": "WALGREEN DRUG STORE #7579","address1": "5093 HARDY ST","address2": "","city": "HATTIESBURG","state": "MS","zip": "39402","zip+4": "0000","phone": "6015797465"}
{"name": "WALGREEN DRUG STORE #7184","address1": "2896 W MCDOWELL RD EXIT","address2": "","city": "JACKSON","state": "MS","zip": "39204","zip+4": "0000","phone": "6013713063"}
{"name": "SOUTH STREET PHARMACY","address1": "410 SOUTH ST","address2": "","city": "CLEVELAND","state": "MS","zip": "38732","zip+4": "0000","phone": "6628436700"}
{"name": "LITTLES PHARMACY","address1": "122 MAIN ST","address2": "","city": "RALEIGH","state": "MS","zip": "39153","zip+4": "9802","phone": "6017824552"}
{"name": "APS PHARMACY #801LLC","address1": "7420 GUTHRIE DR N","address2": "STE 109","city": "SOUTHAVEN","state": "MS","zip": "38671","zip+4": "0000","phone": "6625360384"}
{"name": "WALGREEN DRUG STORE #3918","address1": "3189 HIGHWAY 80 E","address2": "","city": "PEARL","state": "MS","zip": "39208","zip+4": "0000","phone": "6016640356"}
{"name": "FREDS XPRESS #3634","address1": "40474 HWY 45 S","address2": "","city": "HAMILTON","state": "MS","zip": "39746","zip+4": "0000","phone": "6623435462"}
{"name": "MEDFUSION RX LLC","address1": "2102 5TH ST NORTH","address2": "STE 3","city": "COLUMBUS","state": "MS","zip": "39705","zip+4": "0000","phone": "6622408900"}
{"name": "CLINIC PHARMACY","address1": "1883 HWY 43 SOUTH","address2": "","city": "CANTON","state": "MS","zip": "39046","zip+4": "0000","phone": "6014071440"}
{"name": "FREDS XPRESS #2469","address1": "7122 WILL ROBBINS HWY","address2": "","city": "NETTLETON","state": "MS","zip": "38858","zip+4": "0000","phone": "6629632856"}
{"name": "WALGREEN DRUG STORE #7849","address1": "4991 HIGHWAY 51 N","address2": "","city": "HORN LAKE","state": "MS","zip": "38637","zip+4": "0000","phone": "6623933042"}
{"name": "KROGER PHARMACY #25464","address1": "3095 GOODMAN ROAD","address2": "","city": "SOUTHAVEN","state": "MS","zip": "38672","zip+4": "0000","phone": "6625363743"}
{"name": "A PLUS HEALTHCARE PHARMACY","address1": "100 PEAR ORCHARD DR","address2": "STE A","city": "VICKSBURG","state": "MS","zip": "39180","zip+4": "7153","phone": "6018831900"}
{"name": "BURNSVILLE DISCOUNT DRUGS","address1": "603 HWY 365 S","address2": "","city": "BURNSVILLE","state": "MS","zip": "38833","zip+4": "0000","phone": "6624270100"}
{"name": "WALGREEN DRUG STORE #1166","address1": "719 BROOKWAY BLVD","address2": "","city": "BROOKHAVEN","state": "MS","zip": "39601","zip+4": "0000","phone": "6018331149"}
{"name": "WALGREEN DRUG STORE #7757","address1": "1808 UNIVERSITY AVE","address2": "","city": "OXFORD","state": "MS","zip": "38655","zip+4": "0000","phone": "6625130417"}
{"name": "FREDS PHARMACY #7841","address1": "125 MAIN ST","address2": "","city": "QUITMAN","state": "MS","zip": "39355","zip+4": "0000","phone": "6017766282"}
{"name": "WALGREEN DRUG STORE #2676","address1": "1720 HIGHWAY 45 N","address2": "","city": "COLUMBUS","state": "MS","zip": "39705","zip+4": "0000","phone": "6623280256"}
{"name": "WALGREEN DRUG STORE #1913","address1": "2026 HIGHWAY 72 E","address2": "","city": "CORINTH","state": "MS","zip": "38834","zip+4": "0000","phone": "6622873790"}
{"name": "QUEST PHARMACY","address1": "2122 OAK GROVE ROAD","address2": "STE D","city": "HATTIESBURG","state": "MS","zip": "39402","zip+4": "0000","phone": "6012686704"}
{"name": "CURRIES FAMILY CARE PHARMACY O","address1": "702 EARL FRYE BLVD","address2": "","city": "AMORY","state": "MS","zip": "38821","zip+4": "0000","phone": "6622571212"}
{"name": "LONG BEACH PHARMACY","address1": "5107 BEATLINE RD","address2": "STE 100","city": "LONG BEACH","state": "MS","zip": "39560","zip+4": "0000","phone": "2288229868"}
{"name": "FREDS PHARMACY #1894","address1": "905 N PONTOTOC STREET","address2": "","city": "HOUSTON","state": "MS","zip": "38851","zip+4": "0000","phone": "6624486011"}
{"name": "FREDS PHARMACY #2431","address1": "304 NORTHSIDE DRIVE","address2": "","city": "NEWTON","state": "MS","zip": "39345","zip+4": "0000","phone": "6016833391"}
{"name": "FREDS PHARMACY #1746","address1": "2616 HWY 82 E","address2": "","city": "GREENVILLE","state": "MS","zip": "38701","zip+4": "0000","phone": "6623322331"}
{"name": "FREDS XPRESS #3921","address1": "801 EAST JACKSON STREET","address2": "","city": "UNION","state": "MS","zip": "39365","zip+4": "0000","phone": "6017748283"}
{"name": "WALGREEN DRUG STORE #9037","address1": "419 N 16TH AVE","address2": "","city": "LAUREL","state": "MS","zip": "39440","zip+4": "0000","phone": "6014252360"}
{"name": "WALGREEN DRUG STORE #9013","address1": "1065 STATELINE RD W","address2": "","city": "SOUTHHAVEN","state": "MS","zip": "38671","zip+4": "0000","phone": "6623935026"}
{"name": "WALGREEN DRUG STORE #9142","address1": "49 SGT PRENTISS DR","address2": "","city": "NATCHEZ","state": "MS","zip": "39120","zip+4": "0000","phone": "6014465022"}
{"name": "TARGET PHARMACY #0754","address1": "6365 I55 NORTH","address2": "","city": "JACKSON","state": "MS","zip": "39213","zip+4": "0000","phone": "6017180021"}
{"name": "TARGET PHARMACY #1920","address1": "170 PROMENADE BLVD","address2": "","city": "FLOWOOD","state": "MS","zip": "39232","zip+4": "0000","phone": "6019920676"}
{"name": "KROGER PHARMACY #25479","address1": "110 PROMENADE","address2": "","city": "FLOWOOD","state": "MS","zip": "39232","zip+4": "0000","phone": "6017182233"}
{"name": "WAL-MART PHARMACY #105419","address1": "2600 MCINGVALE ROAD","address2": "","city": "HERNANDO","state": "MS","zip": "38632","zip+4": "0000","phone": "6624298767"}
{"name": "NEWPOINTE PHARMACY #2","address1": "345 GENERAL ROBERT E BLOUNT DR","address2": "","city": "BASSFIELD","state": "MS","zip": "39421","zip+4": "0547","phone": "6019436913"}
{"name": "CVS PHARMACY #08311","address1": "4899 LAKELAND DR","address2": "","city": "FLOWOOD","state": "MS","zip": "39232","zip+4": "0000","phone": "6019193044"}
{"name": "CVS PHARMACY #08310","address1": "110 COLONY CRSG","address2": "","city": "MADISON","state": "MS","zip": "39110","zip+4": "0000","phone": "6016051348"}
{"name": "WALGREEN DRUG STORE #9144","address1": "747 DR MARTIN LUTHER KING JR B","address2": "","city": "GREENVILLE","state": "MS","zip": "38703","zip+4": "0000","phone": "6623350100"}
{"name": "FREDS XPRESS #3741","address1": "3518 HWY 371 N","address2": "","city": "MANTACHIE","state": "MS","zip": "38855","zip+4": "0000","phone": "6622824245"}
{"name": "KROGER PHARMACY #25490","address1": "6745 S SIWELL RD","address2": "","city": "BYRAM","state": "MS","zip": "39272","zip+4": "8747","phone": "6018632004"}
{"name": "REGION IV MH MR COMMISSION PHC","address1": "2200 E CHAMBERS DR","address2": "","city": "BOONEVILLE","state": "MS","zip": "38829","zip+4": "0000","phone": "6627283174"}
{"name": "WALGREEN DRUG STORE #9402","address1": "3341 HALLS FERRY RD","address2": "","city": "VICKSBURG","state": "MS","zip": "39180","zip+4": "0000","phone": "6016619013"}
{"name": "WALGREEN DRUG STORE #9545","address1": "120 W RAILROAD ST","address2": "","city": "LONG BEACH","state": "MS","zip": "39560","zip+4": "0000","phone": "2285753497"}
{"name": "WALGREEN DRUG STORE #7656","address1": "1199 HIGHWAY 49 S","address2": "","city": "RICHLAND","state": "MS","zip": "39218","zip+4": "4425","phone": "6019323065"}
{"name": "FREDS PHARMACY #1299","address1": "7261 SIWELL ROAD","address2": "","city": "BYRAM","state": "MS","zip": "39272","zip+4": "0000","phone": "6013725884"}
{"name": "CVS PHARMACY #01119","address1": "7021 HWY 614","address2": "","city": "MOSS POINT","state": "MS","zip": "39562","zip+4": "0000","phone": "2285886053"}
{"name": "SOUTHERN FAMILY MARKET #215","address1": "118 HWY 12 WEST","address2": "","city": "STARKVILLE","state": "MS","zip": "39759","zip+4": "0000","phone": "6623248070"}
{"name": "SOUTHERN FAMILY MARKET #75","address1": "2934 NORTH HILLS STREET","address2": "","city": "MERIDIAN","state": "MS","zip": "39305","zip+4": "0000","phone": "6016933681"}
{"name": "DIXONS DISCOUNT PHARMACY","address1": "434 B SOUTH CAPTIAN GLOSTER DR","address2": "","city": "GLOSTER","state": "MS","zip": "39638","zip+4": "0000","phone": "6012257907"}
{"name": "KILN PHARMACY LLC","address1": "16331 HWY 603","address2": "STE 1","city": "KILN","state": "MS","zip": "39556","zip+4": "0000","phone": "2285861998"}
{"name": "SOUTHERN FAMILY MARKET #524","address1": "939 ALABAMA STREET","address2": "","city": "COLUMBUS","state": "MS","zip": "39702","zip+4": "0000","phone": "6623299909"}
{"name": "TARGET PHARMACY #2055","address1": "6143 U S HIGHWAY 98 STE 80","address2": "","city": "HATTIESBURG","state": "MS","zip": "39402","zip+4": "0000","phone": "6012969245"}
{"name": "PIONEER FAMILY PHARMACY OF ABE","address1": "502 JACKSON ST","address2": "STE 1","city": "ABERDEEN","state": "MS","zip": "39730","zip+4": "0000","phone": "6623694249"}
{"name": "HAMMONDS PHARMACY","address1": "405 C NORTH APPLEGATE","address2": "","city": "WINONA","state": "MS","zip": "38967","zip+4": "0000","phone": "6622838802"}
{"name": "SAMS PHARMACY #108236","address1": "15065 CREOSOTE ROAD","address2": "","city": "GULFPORT","state": "MS","zip": "39503","zip+4": "0000","phone": "2288640628"}
{"name": "WALGREEN DRUG STORE #9896","address1": "301 N DAVIS AVE","address2": "","city": "CLEVELAND","state": "MS","zip": "38732","zip+4": "0000","phone": "6628461206"}
{"name": "WINN DIXIE #1334","address1": "2800 LINCOLN RD","address2": "","city": "HATTIESBURG","state": "MS","zip": "39402","zip+4": "0000","phone": "6012682780"}
{"name": "WALGREEN DRUG STORE #10273","address1": "2209 HIGHWAY 11 N","address2": "","city": "PICAYUNE","state": "MS","zip": "39466","zip+4": "0000","phone": "6017990147"}
{"name": "FREDS XPRESS #3576","address1": "100 MAIN STREET","address2": "","city": "DEKALB","state": "MS","zip": "39328","zip+4": "0000","phone": "6017432917"}
{"name": "WALGREEN DRUG STORE #10290","address1": "1505 HIGHWAY 43 S","address2": "","city": "PICAYUNE","state": "MS","zip": "39466","zip+4": "9297","phone": "6018899509"}
{"name": "SAMS PHARMACY #106329","address1": "3833 NORTH GLOSTER ST","address2": "","city": "TUPELO","state": "MS","zip": "38804","zip+4": "0000","phone": "6628407601"}
{"name": "OCEAN SPRINGS DISCOUNT PHARMAC","address1": "2120 BIENVILLE BLVD","address2": "","city": "OCEAN SPRINGS","state": "MS","zip": "39564","zip+4": "0000","phone": "2288758330"}
{"name": "ELDERSCRIPT SVCS LLC","address1": "144 S THOMAS ST","address2": "STE 100 1","city": "TUPELO","state": "MS","zip": "38801","zip+4": "0000","phone": "6628426204"}
{"name": "FREDS PHARMACY #7601","address1": "1039 MARTIN LUTHER KING DR","address2": "","city": "MARKS","state": "MS","zip": "38646","zip+4": "0000","phone": "6623269272"}
{"name": "WALGREEN DRUG STORE #10131","address1": "303 DEVEREAUX DR","address2": "","city": "NATCHEZ","state": "MS","zip": "39120","zip+4": "4207","phone": "6014465810"}
{"name": "LTC PHARMACY SOLUTIONS","address1": "2801 W MAIN ST","address2": "","city": "TUPELO","state": "MS","zip": "38801","zip+4": "0000","phone": "6628406411"}
{"name": "MERIDIAN ONCOLOGY ASSOCIATES P","address1": "1704 23RD AVE","address2": "2ND FLR","city": "MERIDIAN","state": "MS","zip": "39301","zip+4": "0000","phone": "6014821555"}
{"name": "WALGREEN DRUG STORE #10270","address1": "1000 HUGH WARD BLVD","address2": "","city": "FLOWOOD","state": "MS","zip": "39232","zip+4": "0000","phone": "6019923426"}
{"name": "SUMRALL DRUG STORE LLC","address1": "1109 HWY 42","address2": "","city": "SUMRALL","state": "MS","zip": "39482","zip+4": "0246","phone": "6017584243"}
{"name": "BAZE PHARMACY LLC #1","address1": "900 STARK ROAD","address2": "","city": "STARKVILLE","state": "MS","zip": "39759","zip+4": "0000","phone": "6623235033"}
{"name": "MEDISTART PHARMACY","address1": "3188 W NORTHSIDE DR","address2": "","city": "JACKSON","state": "MS","zip": "39213","zip+4": "0000","phone": "6013218883"}
{"name": "WALGREEN DRUG STORE #10430","address1": "103 W CENTRAL AVE","address2": "","city": "PETAL","state": "MS","zip": "39465","zip+4": "2313","phone": "6015543236"}
{"name": "FREDS STORES OF TENNESSEE #182","address1": "5266 OLD HWY 11","address2": "SUITE 160","city": "HATTIESBURG","state": "MS","zip": "39402","zip+4": "0000","phone": "6012961533"}
{"name": "LOVELACE DRUG STORE","address1": "801 WASHINGTON AVE","address2": "","city": "OCEAN SPRINGS","state": "MS","zip": "39564","zip+4": "0000","phone": "2288754272"}
{"name": "NE MHMR COMMISSION REG III","address1": "317 MAIN ST","address2": "","city": "AMORY","state": "MS","zip": "38821","zip+4": "0000","phone": "6628429217"}
{"name": "OLE RIVER PHARMACY","address1": "5315 OLD HWY 11","address2": "SUITE 4","city": "HATTIESBURG","state": "MS","zip": "39402","zip+4": "0000","phone": "6012712006"}
{"name": "WALGREEN DRUG STORE #10067","address1": "1005 W BEACON ST","address2": "","city": "PHILADELPHIA","state": "MS","zip": "39350","zip+4": "3203","phone": "6013891119"}
{"name": "FREDS STORES OF TENNESSEE INC","address1": "1776 MCCULLOUGH BLVD","address2": "","city": "TUPELO","state": "MS","zip": "38801","zip+4": "0000","phone": "6626209606"}
{"name": "FREDS STORES OF TENNESSEE INC","address1": "305 FRONT ST","address2": "","city": "TAYLORSVILLE","state": "MS","zip": "39168","zip+4": "0818","phone": "6017856812"}
{"name": "FREDS PHARMACY QUITMAN LLC #76","address1": "626 22ND AVE SOUTH","address2": "","city": "MERIDIAN","state": "MS","zip": "39301","zip+4": "0000","phone": "6017010019"}
{"name": "WALGREENS DRUG STORE #11599","address1": "2461 5TH STREET NORTH","address2": "","city": "COLUMBUS","state": "MS","zip": "39705","zip+4": "2005","phone": "6623270079"}
{"name": "WALGREENS # #12750","address1": "805 US HWY 278 EAST","address2": "","city": "AMORY","state": "MS","zip": "38821","zip+4": "0000","phone": "6622569603"}
{"name": "WALGREENS # #12689","address1": "902 S GLOSTER","address2": "","city": "TUPELO","state": "MS","zip": "38801","zip+4": "0000","phone": "6628441318"}
{"name": "FAILLAS VITAL CARE INC","address1": "110 HWY 11 N","address2": "STE A","city": "PICAYUNE","state": "MS","zip": "39466","zip+4": "0000","phone": "6017984830"}
{"name": "WALGREENS DRUG STORE #11171","address1": "700 W PARK AVE","address2": "","city": "GREENWOOD","state": "MS","zip": "38930","zip+4": "2910","phone": "6624511121"}
{"name": "WALGREENS DRUG STORE #10517","address1": "7030 HACKS CROSS RD","address2": "","city": "OLIVE BRANCH","state": "MS","zip": "38654","zip+4": "0000","phone": "6628908644"}
{"name": "MEDICINE CABINET OF LAUREL","address1": "30 CIRCLE J DRIVE","address2": "STE 2","city": "LAUREL","state": "MS","zip": "39440","zip+4": "0000","phone": "6014250450"}
{"name": "TARA PHARMACY SELLC","address1": "110 METROPLEX BLVD","address2": "STE H","city": "PEARL","state": "MS","zip": "39208","zip+4": "9210","phone": "6016641664"}
{"name": "CVS PHARMACY #05573","address1": "401 HWY 12 EAST","address2": "","city": "STARKVILLE","state": "MS","zip": "39759","zip+4": "0000","phone": "6626156033"}
{"name": "WALGREENS DRUG STORE #10805","address1": "1628 SIMPSON HWY 49","address2": "","city": "MAGEE","state": "MS","zip": "39111","zip+4": "5000","phone": "6018494959"}
{"name": "FREDS STORES OF TENNESSE INC #","address1": "1001 EAST MAIN ST","address2": "","city": "TUPELO","state": "MS","zip": "38804","zip+4": "0000","phone": "6628441921"}
{"name": "WALGREENS DRUG STORE #10835","address1": "906 MARION AVE","address2": "","city": "MCCOMB","state": "MS","zip": "39648","zip+4": "2040","phone": "6016847976"}
{"name": "WALGREENS DRUG STORE #10360","address1": "2601 HWY 90","address2": "","city": "GAUTIER","state": "MS","zip": "39553","zip+4": "5167","phone": "2284978110"}
{"name": "WALGREEN DRUG STORE #11289","address1": "105 HIGHWAY 51 N","address2": "","city": "BATESVILLE","state": "MS","zip": "38606","zip+4": "0000","phone": "6625632855"}
{"name": "WALGREEN DRUG STORE #11290","address1": "834 BARNES CROSSING RD","address2": "","city": "TUPELO","state": "MS","zip": "38804","zip+4": "0909","phone": "6628408462"}
{"name": "CVS PHARMACY #07963","address1": "1502 GOODMAN RD","address2": "","city": "HORN LAKE","state": "MS","zip": "38637","zip+4": "0000","phone": "6623426436"}
{"name": "KROGER PHARMACY #25472","address1": "115 COLONY CROSSING WAY","address2": "","city": "MADISON","state": "MS","zip": "39110","zip+4": "0000","phone": "6016055024"}
{"name": "CVS PHARMACY #02038","address1": "720 WEST MAIN ST","address2": "","city": "WEST POINT","state": "MS","zip": "39773","zip+4": "0000","phone": "6624944990"}
{"name": "SHERMAN DRUGS #1","address1": "670 HWY 178","address2": "STE 1","city": "SHERMAN","state": "MS","zip": "38869","zip+4": "0000","phone": "6628448880"}
{"name": "WALGREENS #10694","address1": "5780 TERRY RD","address2": "","city": "BYRAM","state": "MS","zip": "39272","zip+4": "9745","phone": "6013462553"}
{"name": "WALGREEN DRUG STORE #11890","address1": "2996 CHURCH RD E","address2": "","city": "SOUTHHAVEN","state": "MS","zip": "38671","zip+4": "9825","phone": "6623494418"}
{"name": "WALGREEN DRUG STORE #10321","address1": "348 HIGHWAY 90","address2": "","city": "WAVELAND","state": "MS","zip": "39576","zip+4": "2672","phone": "2284674436"}
{"name": "CVS PHARMACY #03426","address1": "6040 GOODMAN RD","address2": "","city": "WALLS","state": "MS","zip": "38680","zip+4": "0000","phone": "6627811290"}
{"name": "ADVANTAGE PHARMACY","address1": "6614 US HWY 98 EAST","address2": "STE B","city": "HATTIESBURG","state": "MS","zip": "39402","zip+4": "0000","phone": "6012681422"}
{"name": "WALGREEN DRUG STORE #10706","address1": "950 E COMMERCE ST","address2": "","city": "HERNANDO","state": "MS","zip": "38632","zip+4": "2433","phone": "6624293349"}
{"name": "TARGET PHARMACY #2442","address1": "5150 GOODMAN RD","address2": "","city": "OLIVE BRANCH","state": "MS","zip": "38654","zip+4": "7903","phone": "6628923032"}
{"name": "WALGREEN DRUG STORE #10909","address1": "12007 LAMEY BRIDGE RD","address2": "","city": "DIBERVILLE","state": "MS","zip": "39540","zip+4": "0000","phone": "2283922388"}
{"name": "FREDS PHARMACY #1589","address1": "441 N FOURTH STREET","address2": "","city": "BALDWYN","state": "MS","zip": "38824","zip+4": "0000","phone": "6623658877"}
{"name": "CVS PHARMACY #04376","address1": "1209 SUNSET DR","address2": "","city": "GRENADA","state": "MS","zip": "38901","zip+4": "0000","phone": "6622940665"}
{"name": "WALGREEN DRUG STORE #12269","address1": "329 SUNSET DR","address2": "","city": "GRENADA","state": "MS","zip": "38901","zip+4": "4505","phone": "6622266631"}
{"name": "WALGREENS #12154","address1": "28095 HWY 28","address2": "","city": "HAZELHURST","state": "MS","zip": "39083","zip+4": "0000","phone": "6018945501"}
{"name": "KROGER LIMITED PARTNERSHIP I #","address1": "1070 SPILLWAY CIRCLE","address2": "","city": "BRANDON","state": "MS","zip": "39047","zip+4": "6035","phone": "6018290743"}
{"name": "WALGREENS #12308","address1": "5148 HIGHWAY 51 N","address2": "","city": "SENATOBIA","state": "MS","zip": "38668","zip+4": "1720","phone": "6625629366"}
{"name": "KROGER PHARMACY #25466","address1": "3408 PEMBERTON SQUARE BLVD","address2": "","city": "VICKSBURG","state": "MS","zip": "39180","zip+4": "5573","phone": "6016304003"}
{"name": "KROGER PHARMACY #25474","address1": "107 HWY 80 EAST","address2": "","city": "CLINTON","state": "MS","zip": "39056","zip+4": "4738","phone": "6019256343"}
{"name": "POLKS DISCOUNT DRUGS # #7","address1": "1031 STAR ROAD","address2": "","city": "BRANDON","state": "MS","zip": "39042","zip+4": "0000","phone": "6018254507"}
{"name": "NEW HOPE PHARMACY","address1": "3654 NEW HOPE RD","address2": "","city": "COLUMBUS","state": "MS","zip": "39702","zip+4": "0000","phone": "6623288028"}
{"name": "SOUTHERN DRUGS","address1": "1202 MAIN STREET","address2": "","city": "COLUMBUS","state": "MS","zip": "39701","zip+4": "0000","phone": "6623280833"}
{"name": "SUPER DRUGS #7","address1": "1433 GOODMAN ROAD","address2": "","city": "HORN LAKE","state": "MS","zip": "38637","zip+4": "0000","phone": "6622807455"}
{"name": "STANLEYA WALGREENS PHARMACY","address1": "804 SPRING ST","address2": "","city": "WAYNESBORO","state": "MS","zip": "39367","zip+4": "2422","phone": "6017352513"}
{"name": "PINE BELT MENTAL HEALTHCARE RE","address1": "103 S 19TH AVENUE","address2": "","city": "HATTIESBURG","state": "MS","zip": "39403","zip+4": "0000","phone": "6015444641"}
{"name": "FRED'S PHARMACY #3658","address1": "1467 HWY 1 SOUTH","address2": "","city": "GREENVILLE","state": "MS","zip": "38701","zip+4": "0000","phone": "6623356060"}
{"name": "FRED'S PHARMACY #3648","address1": "1221 E. UNION STREET","address2": "","city": "GREENVILLE","state": "MS","zip": "38703","zip+4": "0000","phone": "6623323600"}
{"name": "FRED'S PHARMACY #3654","address1": "1427 S. MAIN STREET","address2": "","city": "GREENVILLE","state": "MS","zip": "38701","zip+4": "0000","phone": "6623782060"}
{"name": "FRED'S PHARMACY #3664","address1": "1907 NORTH MEDICAL PARK DR.","address2": "","city": "GREENVILLE","state": "MS","zip": "38703","zip+4": "0000","phone": "6623784138"}
{"name": "FRED'S PHARMACY #3644","address1": "202 E. STARLING STREET","address2": "","city": "GREENVILLE","state": "MS","zip": "38701","zip+4": "0000","phone": "6623353385"}
{"name": "PAIN MANAGEMENT CENTER OF N. M","address1": "2089 SOUTHRIDGE DR","address2": "","city": "TUPELO","state": "MS","zip": "38801","zip+4": "0000","phone": "6624070801"}
{"name": "DOWNTOWN DRUGS","address1": "105 CAROLLTON AVE","address2": "","city": "GREENWOOD","state": "MS","zip": "38930","zip+4": "0000","phone": "6624534401"}
{"name": "GRENADA PHARMNET","address1": "353 W MONROE","address2": "","city": "GRENADA","state": "MS","zip": "38901","zip+4": "0000","phone": "6622941111"}
{"name": "SUPER SAV-ON-DRUGS","address1": "200 HOSPITAL RD","address2": "BLDG 3","city": "STARKVILLE","state": "MS","zip": "39759","zip+4": "0000","phone": "6628406411"}
{"name": "SUPER SAV-ON-DRUGS","address1": "203 S CHURCH ST","address2": "","city": "OKOLONA","state": "MS","zip": "38860","zip+4": "0000","phone": "6628406411"}
{"name": "WALGREENS # #12536","address1": "219 N WOODLAND DR NORTH","address2": "","city": "FOREST","state": "MS","zip": "39074","zip+4": "3307","phone": "6014693393"}
{"name": "WALGREENS # #12537","address1": "4910 POPLAR SPRINGS DR","address2": "","city": "MERIDIAN","state": "MS","zip": "39305","zip+4": "0000","phone": "6014833997"}
{"name": "CVS PHARMACY # #04997","address1": "305 MEADOWBROOK RD.","address2": "","city": "JACKSON","state": "MS","zip": "39206","zip+4": "0000","phone": "4017651500"}
{"name": "ACKERMAN DISCOUNT DRUGS","address1": "518 CHESTER STREET","address2": "SUITE 2","city": "ACKERMAN","state": "MS","zip": "39735","zip+4": "0000","phone": "6622859333"}
{"name": "WALGREENS #12436","address1": "225 STATE HIGHWAY 30 W","address2": "","city": "NEW ALBANY","state": "MS","zip": "38652","zip+4": "3129","phone": "6625348044"}
{"name": "FRED'S STORES OF TENNESSEE INC","address1": "25096 HWY 51","address2": "","city": "CRYSTAL SPRINGS","state": "MS","zip": "39059","zip+4": "0000","phone": "6018922227"}
{"name": "APOTHECARE,LLC #001","address1": "102 MAIN STREET","address2": "","city": "BUDE","state": "MS","zip": "39630","zip+4": "0000","phone": "6013843105"}
{"name": "WALGREENS #12822","address1": "1790 W GOVERNMENT ST","address2": "","city": "BRANDON","state": "MS","zip": "39042","zip+4": "2411","phone": "6018253473"}
{"name": "CVS PHARMACY # #08955","address1": "55 GOODMAN ROAD WEST","address2": "","city": "SOUTHAVEN","state": "MS","zip": "38671","zip+4": "0000","phone": "4017651500"}
{"name": "SOUTHERN LTC","address1": "103 12TH ST SOUTH","address2": "","city": "COLUMBUS","state": "MS","zip": "39701","zip+4": "0000","phone": "6623280833"}
{"name": "BROOKSVILLE PHARMACYLLC","address1": "139 N OLIVER ST","address2": "","city": "BROOKSVILLE","state": "MS","zip": "39739","zip+4": "0000","phone": "6627385041"}
{"name": "CVS PHARMACY # #08491","address1": "2945 GOODMAN RD E","address2": "","city": "SOUTHAVEN","state": "MS","zip": "38672","zip+4": "9073","phone": "4017651500"}
{"name": "CVS PHARMACY # #08994","address1": "2955 CHURCH RD E","address2": "","city": "SOUTHAVEN","state": "MS","zip": "38671","zip+4": "9767","phone": "6623497375"}
{"name": "CVS PHARMACY # #08954","address1": "7363 GOODMAN RD","address2": "","city": "OLIVE BRANCH","state": "MS","zip": "38654","zip+4": "1906","phone": "4017651500"}
{"name": "CVS PHARMACY # #08992","address1": "702 W MAIN ST","address2": "","city": "TUPELO","state": "MS","zip": "38804","zip+4": "3734","phone": "6628404818"}
{"name": "TARGET PHARMACY #2485","address1": "3867 PROMENADE PKWY","address2": "","city": "DIBERVILLE","state": "MS","zip": "39540","zip+4": "5363","phone": "2282333302"}
{"name": "KCC INC","address1": "1501 23RD AVE STE B","address2": "","city": "MERIDIAN","state": "MS","zip": "39301","zip+4": "4027","phone": "6014824003"}
{"name": "BATTLEFIELD EXPRESS DRUGS","address1": "2080 SOUTH FRONTAGE RD","address2": "SUITE 101","city": "VICKSBURG","state": "MS","zip": "39180","zip+4": "0000","phone": "6016191550"}
{"name": "CVS PHARMACY # #04993","address1": "980 HIGHWAY 51","address2": "","city": "MADISON","state": "MS","zip": "39110","zip+4": "8409","phone": "6018562021"}
{"name": "FRED'S STORES OF TENNESSEE INC","address1": "2616 HIGHWAY 82 E","address2": "","city": "GREENWOOD","state": "MS","zip": "38930","zip+4": "6069","phone": "6624551141"}
{"name": "VICKSBURG SPECIAL CARE PHA","address1": "4075 PEMBERTON BLVD.","address2": "","city": "VICKSBURG","state": "MS","zip": "39180","zip+4": "0000","phone": "6016364667"}