{"name": "THRIFTY DRUG","address1": "201 E PARK ST","address2": "","city": "ANACONDA","state": "MT","zip": "59711","zip+4": "0000","phone": "4065638441"}
{"name": "BAKER REXALL DRUG","address1": "103 S MAIN","address2": "","city": "BAKER","state": "MT","zip": "59313","zip+4": "0459","phone": "4067782214"}
{"name": "DEACONESS BILLINGS CLINIC","address1": "2800 10TH AVE N","address2": "","city": "BILLINGS","state": "MT","zip": "59101","zip+4": "0000","phone": "4062382084"}
{"name": "BILLINGS HEALTH AND REHAB COMM","address1": "2115 CENTRAL AVE","address2": "","city": "BILLINGS","state": "MT","zip": "59102","zip+4": "4787","phone": "4066562992"}
{"name": "MSU STUDENT HEALTH SERVICE PHC","address1": "MSU STUDENT HEALTH SERVICE RX","address2": "","city": "BOZEMAN","state": "MT","zip": "59715","zip+4": "0002","phone": "4069945498"}
{"name": "LIBERTY DRUG INC","address1": "34 1ST STREET EAST","address2": "","city": "CHESTER","state": "MT","zip": "59522","zip+4": "0000","phone": "4067595225"}
{"name": "CHOTEAU DRUG","address1": "102 MAIN AVE","address2": "","city": "CHOTEAU","state": "MT","zip": "59422","zip+4": "0040","phone": "4064662700"}
{"name": "CORVALLIS DRUG","address1": "1029 MAIN ST","address2": "","city": "CORVALLIS","state": "MT","zip": "59828","zip+4": "0009","phone": "4069613221"}
{"name": "DRUGMART PHARMACY","address1": "601 W MAIN","address2": "NORTHERN VILLAGE MALL","city": "CUT BANK","state": "MT","zip": "59427","zip+4": "2802","phone": "4068735631"}
{"name": "KEYSTONE DRUG LLP","address1": "407 MAIN ST","address2": "","city": "DEER LODGE","state": "MT","zip": "59722","zip+4": "1414","phone": "4068462120"}
{"name": "ENNIS HEALTHMART PHARMACY","address1": "124 MAIN ST","address2": "","city": "ENNIS","state": "MT","zip": "59729","zip+4": "0000","phone": "4066824246"}
{"name": "YELLOWSTONE PHARMACY","address1": "1025 MAIN ST","address2": "","city": "FORSYTH","state": "MT","zip": "59327","zip+4": "0000","phone": "4063562134"}
{"name": "BENTON PHARMACY #1151","address1": "1418 FRONT ST","address2": "","city": "FORT BENTON","state": "MT","zip": "59442","zip+4": "0000","phone": "4066225588"}
{"name": "WESTERN DRUG","address1": "537 2ND AVE S","address2": "","city": "GLASGOW","state": "MT","zip": "59230","zip+4": "0000","phone": "4062284308"}
{"name": "F & G PHARMACY","address1": "107 N MERRILL AVE","address2": "","city": "GLENDIVE","state": "MT","zip": "59330","zip+4": "0000","phone": "4063775665"}
{"name": "PUBLIC DRUG COMPANY INC","address1": "301 CENTRAL AVE","address2": "","city": "GREAT FALLS","state": "MT","zip": "59401","zip+4": "3187","phone": "4064531497"}
{"name": "SNYDER DRUGS","address1": "2515 6TH AVE NO","address2": "","city": "GREAT FALLS","state": "MT","zip": "59401","zip+4": "0000","phone": "4064526461"}
{"name": "BITTERROOT DRUG INC","address1": "211 MAIN ST","address2": "","city": "HAMILTON","state": "MT","zip": "59840","zip+4": "2591","phone": "4063633611"}
{"name": "JORDAN DRUG","address1": "437 MAIN ST","address2": "","city": "JORDAN","state": "MT","zip": "59337","zip+4": "0005","phone": "4065576180"}
{"name": "SMITHS PHARMACY #172 #706172","address1": "195 3RD AVE NE","address2": "","city": "KALISPEL","state": "MT","zip": "59901","zip+4": "0000","phone": "4062571397"}
{"name": "STOICK DRUG","address1": "142 E IDAHO ST","address2": "","city": "KALISPELL","state": "MT","zip": "59903","zip+4": "0637","phone": "4067554103"}
{"name": "GENES PHARMACY","address1": "111 E MAIN ST","address2": "","city": "LAUREL","state": "MT","zip": "59044","zip+4": "3137","phone": "4066287217"}
{"name": "PRICES PHARMACY","address1": "18 1ST AVE","address2": "","city": "LAUREL","state": "MT","zip": "59044","zip+4": "3146","phone": "4066286022"}
{"name": "LEWISTOWN PHARMACY","address1": "210 W MAIN ST","address2": "","city": "LEWISTOWN","state": "MT","zip": "59457","zip+4": "2797","phone": "4065388128"}
{"name": "SEIDEN DRUG COMPANY INC","address1": "310 WENDELL AVE","address2": "STE 102","city": "LEWISTOWN","state": "MT","zip": "59457","zip+4": "0000","phone": "4065381470"}
{"name": "CENTER DRUG INC","address1": "517 W 9TH ST","address2": "","city": "LIBBY","state": "MT","zip": "59923","zip+4": "1630","phone": "4062936276"}
{"name": "VALLEY DRUG COMPANY OF MALTA","address1": "131 S 1ST AVE E","address2": "","city": "MALTA","state": "MT","zip": "59538","zip+4": "0000","phone": "4066542632"}
{"name": "BIG SKY PHARMACY #1","address1": "701 MAIN ST","address2": "","city": "MILES CITY","state": "MT","zip": "59301","zip+4": "3188","phone": "4062341241"}
{"name": "HOLY ROSARY HEALTH CENTER","address1": "2600 WILSON","address2": "","city": "MILES CITY","state": "MT","zip": "59301","zip+4": "0000","phone": "4062322540"}
{"name": "A AND C DRUG","address1": "523 N HIGGINS","address2": "","city": "MISSOULA","state": "MT","zip": "59802","zip+4": "0000","phone": "4067216640"}
{"name": "EAST GATE DRUG","address1": "1003 E BROADWAY ST","address2": "","city": "MISSOULA","state": "MT","zip": "59802","zip+4": "0000","phone": "4065496163"}
{"name": "BROADWAY PHARMACY","address1": "500 W BROADWAY","address2": "","city": "MISSOULA","state": "MT","zip": "59802","zip+4": "0000","phone": "4063271650"}
{"name": "PLAINS DRUG","address1": "214 RAILROAD ST","address2": "","city": "PLAINS","state": "MT","zip": "59859","zip+4": "0000","phone": "4068263552"}
{"name": "ST JOSEPH PHARMACY","address1": "6 13TH AVE E","address2": "PO BOX 1010","city": "POLSON","state": "MT","zip": "59860","zip+4": "1010","phone": "4068838444"}
{"name": "RED LODGE DRUG","address1": "211 NORTH BROADWAY","address2": "","city": "RED LODGE","state": "MT","zip": "59068","zip+4": "1030","phone": "4064461017"}
{"name": "NORTHTOWN DRUGS LLC","address1": "333 MAIN ST","address2": "","city": "SHELBY","state": "MT","zip": "59474","zip+4": "0000","phone": "4064345115"}
{"name": "VALLEY DRUG","address1": "301 MAIN ST","address2": "","city": "STEVENSVILLE","state": "MT","zip": "59870","zip+4": "0000","phone": "4067775591"}
{"name": "SNYDER DRUG EMPORIUM #5104","address1": "3065 NORTH MONTANA AVE","address2": "","city": "HELENA","state": "MT","zip": "59601","zip+4": "0000","phone": "4064435850"}
{"name": "LOLO DRUG","address1": "103 GLACIER DRIVE","address2": "","city": "LOLO","state": "MT","zip": "59847","zip+4": "0156","phone": "4062732322"}
{"name": "WHITE DRUG #25","address1": "402 EAST MAIN","address2": "","city": "SIDNEY","state": "MT","zip": "59270","zip+4": "4699","phone": "4064821420"}
{"name": "GRANITE CNTY MED HOSP PHCY","address1": "310 SANSOME ST","address2": "","city": "PHILIPSBURG","state": "MT","zip": "59858","zip+4": "0729","phone": "4068593271"}
{"name": "MONTANA STATE HOSPITAL PHARMAC","address1": "202 GARNET WAY","address2": "","city": "WARM SPRINGS","state": "MT","zip": "59756","zip+4": "0000","phone": "4066937178"}
{"name": "ROSAUERS PHARMACY #14","address1": "703 W 9TH ST","address2": "","city": "LIBBY","state": "MT","zip": "59923","zip+4": "1263","phone": "4062937702"}
{"name": "MEDICAL ARTS PHARMACY","address1": "209 CONWAY DR","address2": "","city": "KALISPELL","state": "MT","zip": "59901","zip+4": "3111","phone": "4067522492"}
{"name": "KOOTENAI DRUG","address1": "611 E MISSOULA AVE","address2": "","city": "TROY","state": "MT","zip": "59935","zip+4": "0000","phone": "4062954361"}
{"name": "ROSAUERS PHARMACY #27","address1": "2350 RESERVE ST","address2": "","city": "MISSOULA","state": "MT","zip": "59801","zip+4": "6497","phone": "4067215330"}
{"name": "KALISPELL REGIONALMEDICAL CENT","address1": "310 SUNNYVIEW LANE","address2": "","city": "KALISPELL","state": "MT","zip": "59901","zip+4": "3199","phone": "4067521761"}
{"name": "ANDERSON FAMILY","address1": "1417 9TH ST S","address2": "STE 101","city": "GREAT FALLS","state": "MT","zip": "59405","zip+4": "0000","phone": "4067618781"}
{"name": "WESTERN DRUG OF LIVINGSTON #9","address1": "1313 W PARK STREET","address2": "","city": "LIVINGSTON","state": "MT","zip": "59047","zip+4": "0000","phone": "4062227332"}
{"name": "LEE AND DADS PHARMACY","address1": "205 W MADISON AVE","address2": "","city": "BELGRADE","state": "MT","zip": "59714","zip+4": "0000","phone": "4063884111"}
{"name": "JUROS UNITED DRUGS #0759","address1": "2043 GRAND AVE","address2": "","city": "BILLINGS","state": "MT","zip": "59102","zip+4": "0000","phone": "4062592562"}
{"name": "ROSAUERS PHARMACY #37","address1": "2150 US HWY 93 S","address2": "","city": "KALISPELL","state": "MT","zip": "59901","zip+4": "5793","phone": "4067555088"}
{"name": "FIFTH AVE PHCY AND GIFT #1223","address1": "621 3RD ST S","address2": "","city": "GLASGOW","state": "MT","zip": "59230","zip+4": "0000","phone": "4062283693"}
{"name": "SYKES PHARMACY INC","address1": "202 2ND AVE WEST","address2": "","city": "KALISPELL","state": "MT","zip": "59901","zip+4": "4463","phone": "4062574806"}
{"name": "DOUGS DRUG","address1": "1221 MAIN ST","address2": "","city": "THOMPSON FALLS","state": "MT","zip": "59873","zip+4": "0000","phone": "4068274349"}
{"name": "OLSONS DRUG","address1": "5 4TH AVE SE","address2": "","city": "CONRAD","state": "MT","zip": "59425","zip+4": "2327","phone": "4062783261"}
{"name": "PHARMACY 1","address1": "2900 12TH AVE N","address2": "","city": "BILLINGS","state": "MT","zip": "59101","zip+4": "0000","phone": "4062456717"}
{"name": "FAMILY PHARMACY INC","address1": "3804 EASTSIDE HWY","address2": "","city": "STEVENSVILLE","state": "MT","zip": "59870","zip+4": "0000","phone": "4067775002"}
{"name": "PALMERS DRUG","address1": "918 SW HIGGINS AVE","address2": "","city": "MISSOULA","state": "MT","zip": "59803","zip+4": "0000","phone": "4065494125"}
{"name": "MISSION DRUG PHARMACY","address1": "110 N MAIN ST","address2": "","city": "ST IGNATIUS","state": "MT","zip": "59865","zip+4": "0000","phone": "4067453000"}
{"name": "CMC RETAIL RX","address1": "2827 FT MISSOULA RD","address2": "","city": "MISSOULA","state": "MT","zip": "59804","zip+4": "0000","phone": "4063274767"}
{"name": "PRICE RITE DRUG","address1": "910 N 7TH AVE","address2": "","city": "BOZEMAN","state": "MT","zip": "59715","zip+4": "2566","phone": "4065870608"}
{"name": "SHOPKO PHARMACY #62","address1": "301 NORTHWEST BYP","address2": "","city": "GREAT FALLS","state": "MT","zip": "59404","zip+4": "4125","phone": "4067279682"}
{"name": "CLINIC PHARMACY","address1": "1400 29TH ST S","address2": "","city": "GREAT FALLS","state": "MT","zip": "59405","zip+4": "0000","phone": "4067713399"}
{"name": "BERGUM DRUG INC","address1": "2600 WINNE AVE","address2": "","city": "HELENA","state": "MT","zip": "59601","zip+4": "0000","phone": "4064430506"}
{"name": "COLUMBUS HEALTH MART","address1": "133 N 5TH","address2": "","city": "COLUMBUS","state": "MT","zip": "59019","zip+4": "0000","phone": "4063225652"}
{"name": "SHOPKO PHARMACY #75","address1": "2510 S RESERVE ST","address2": "","city": "MISSOULA","state": "MT","zip": "59801","zip+4": "7546","phone": "4067213789"}
{"name": "HEALTHCARE PLUS","address1": "50331 A HWY 93 E","address2": "","city": "POLSON","state": "MT","zip": "59860","zip+4": "0000","phone": "4068833838"}
{"name": "KMART PHARMACY #7029","address1": "1700 CEDAR STREET","address2": "","city": "HELENA","state": "MT","zip": "59601","zip+4": "0000","phone": "4064495587"}
{"name": "VILLAGE DRUG","address1": "608 S MAIN ST","address2": "SUITE 2","city": "CONRAD","state": "MT","zip": "59425","zip+4": "2531","phone": "4062783267"}
{"name": "KMART PHARMACY #3749","address1": "3300 HARRISON AVENUE","address2": "","city": "BUTTE","state": "MT","zip": "59701","zip+4": "0000","phone": "4064941075"}
{"name": "FAMILY HEALTH PHARMACY","address1": "63307 US HWY 935","address2": "","city": "RONAN","state": "MT","zip": "59864","zip+4": "0000","phone": "4066762111"}
{"name": "HIGHLAND PARK PHARMACY #664","address1": "925 HIGHLAND BLVD","address2": "SUITE 2000","city": "BOZEMAN","state": "MT","zip": "59715","zip+4": "6902","phone": "4065851030"}
{"name": "PAMIDA PHARMACY #321","address1": "100 WASHINGTON ST","address2": "","city": "LIVINGSTON","state": "MT","zip": "59047","zip+4": "4200","phone": "4062227082"}
{"name": "KMART PHARMACY #7030","address1": "2024 US HWY 2 E","address2": "","city": "KALISPELL","state": "MT","zip": "59901","zip+4": "2999","phone": "4062575452"}
{"name": "KMART PHARMACY #4303","address1": "2424 CENTRAL AVE","address2": "","city": "BILLINGS","state": "MT","zip": "59102","zip+4": "0000","phone": "4066560913"}
{"name": "SHOPKO PHARMACY #106","address1": "905 S 24TH ST W","address2": "","city": "BILLINGS","state": "MT","zip": "59102","zip+4": "7408","phone": "4066526715"}
{"name": "HEALTHCARE PLUS","address1": "1900 N FIRST ST","address2": "","city": "HAMILTON","state": "MT","zip": "59840","zip+4": "0000","phone": "4063636203"}
{"name": "SAFEWAY #3279","address1": "2500 MASSACHUSETTS AVENUE","address2": "","city": "BUTTE","state": "MT","zip": "59701","zip+4": "0000","phone": "4064943754"}
{"name": "SAFEWAY #0289","address1": "901 W MAIN ST","address2": "","city": "BOZEMAN","state": "MT","zip": "59715","zip+4": "0000","phone": "4065859155"}
{"name": "MINERAL PHARMACY INC #9994","address1": "207 RIVER ST","address2": "","city": "SUPERIOR","state": "MT","zip": "59872","zip+4": "0000","phone": "4068224681"}
{"name": "KMART PHARMACY #7027","address1": "1126 NORTH 7TH AVE","address2": "","city": "BOZEMAN","state": "MT","zip": "59715","zip+4": "0000","phone": "4065878570"}
{"name": "KMART PHARMACY #3094","address1": "1000 3RD STREET NW","address2": "","city": "GREAT FALLS","state": "MT","zip": "59404","zip+4": "0000","phone": "4064536107"}
{"name": "SAFEWAY #3355","address1": "800 WEST BROADWAY STREET","address2": "","city": "MISSOULA","state": "MT","zip": "59802","zip+4": "0000","phone": "4067216009"}
{"name": "PAMIDA PHARMACY #327","address1": "1950 ROOSEVELT HWY","address2": "","city": "SHELBY","state": "MT","zip": "59474","zip+4": "0920","phone": "4064342377"}
{"name": "SAFEWAY #1486","address1": "611 NORTH MONTANA STREET","address2": "","city": "HELENA","state": "MT","zip": "59601","zip+4": "0000","phone": "4064434508"}
{"name": "SHOPKO PHARMACY #112","address1": "3101 N MONTANA AVE","address2": "","city": "HELENA","state": "MT","zip": "59602","zip+4": "7813","phone": "4064438823"}
{"name": "COSTCO PHARMACY #67","address1": "3220 NORTHERN PACIFIC AVENUE","address2": "","city": "MISSOULA","state": "MT","zip": "59808","zip+4": "0000","phone": "4065423807"}
{"name": "COSTCO PHARMACY #69","address1": "2290 KING AVE W","address2": "","city": "BILLINGS","state": "MT","zip": "59102","zip+4": "0000","phone": "4066528556"}
{"name": "WAL-MART PHARMACY #101901","address1": "3901 HARRISON AVENUE","address2": "","city": "BUTTE","state": "MT","zip": "59701","zip+4": "0000","phone": "4064941225"}
{"name": "KMART PHARMACY #4814","address1": "3180 HIGHWAY 2 WEST","address2": "","city": "HAVRE","state": "MT","zip": "59501","zip+4": "0000","phone": "4062651854"}
{"name": "WAL-MART PHARMACY #101872","address1": "2750 PROSPECT AVENUE","address2": "","city": "HELENA","state": "MT","zip": "59601","zip+4": "0000","phone": "4064433455"}
{"name": "LARRYS IGA PHARMACY #50","address1": "120 S PARK","address2": "","city": "BROADUS","state": "MT","zip": "59317","zip+4": "0549","phone": "4064362270"}
{"name": "OSCO PHARMACY #2006","address1": "200 S 23RD","address2": "","city": "BOZEMAN","state": "MT","zip": "59718","zip+4": "0000","phone": "4065878800"}
{"name": "WAL-MART PHARMACY #101956","address1": "2525 KING AVE WEST","address2": "","city": "BILLINGS","state": "MT","zip": "59102","zip+4": "0000","phone": "4066529688"}
{"name": "SAFEWAY #3256","address1": "1525 WEST PARK AVENUE","address2": "","city": "ANACONDA","state": "MT","zip": "59711","zip+4": "0000","phone": "4065638410"}
{"name": "WAL-MART PHARMACY #102084","address1": "1500 NORTH 7TH AVENUE","address2": "","city": "BOZEMAN","state": "MT","zip": "59715","zip+4": "0000","phone": "4065858753"}
{"name": "DRISCOLL DRUG","address1": "327 S EXCELSIOR","address2": "","city": "BUTTE","state": "MT","zip": "59701","zip+4": "1595","phone": "4067233308"}
{"name": "EVERGREEN RX","address1": "2141 HWY 2 EAST","address2": "STE 300","city": "KALISPELL","state": "MT","zip": "59901","zip+4": "3227","phone": "4062572083"}
{"name": "SAFEWAY #1581","address1": "570 N MONTANA ST","address2": "","city": "DILLON","state": "MT","zip": "59725","zip+4": "0000","phone": "4066836226"}
{"name": "CHINOOK PHARMACY","address1": "96 3RD STREET","address2": "","city": "CHINOOK","state": "MT","zip": "59523","zip+4": "0609","phone": "4063573333"}
{"name": "SHOPKO PHARMACY #128","address1": "1370 US HIGHWAY 2 E","address2": "","city": "KALISPELL","state": "MT","zip": "59901","zip+4": "3221","phone": "4062571274"}
{"name": "WAL-MART PHARMACY #102147","address1": "4000 HWY 93 SOUTH","address2": "","city": "MISSOULA","state": "MT","zip": "59804","zip+4": "0000","phone": "4062516066"}
{"name": "CULBERTSON PHARMACY INC","address1": "115 BROADWAY","address2": "","city": "CULBERTSON","state": "MT","zip": "59218","zip+4": "0311","phone": "4067875313"}
{"name": "PLAZA UNITED PHARMACY","address1": "2800 11TH AVE S","address2": "","city": "GREAT FALLS","state": "MT","zip": "59405","zip+4": "5250","phone": "4067270070"}
{"name": "SAVMOR DRUG #1","address1": "1610 S 3RD ST W","address2": "SUITE 100","city": "MISSOULA","state": "MT","zip": "59801","zip+4": "2248","phone": "4067216017"}
{"name": "SPECTRUM PHARMACY","address1": "2509 7TH AVE S C4","address2": "","city": "GREATFALLS","state": "MT","zip": "59443","zip+4": "0000","phone": "4067611701"}
{"name": "WAL-MART PHARMACY #102259","address1": "1150 EAST IDAHO ST","address2": "","city": "KALISPELL","state": "MT","zip": "59901","zip+4": "0000","phone": "4067567256"}
{"name": "SAFEWAY #2106","address1": "6580 HIGHWAY 93 SOUTH","address2": "","city": "WHITEFISH","state": "MT","zip": "59937","zip+4": "0000","phone": "4068622526"}
{"name": "APOTHECARY DRUG STORE","address1": "20 THIRD ST NORTH","address2": "","city": "GREAT FALLS","state": "MT","zip": "59401","zip+4": "0000","phone": "4064542399"}
{"name": "SMITHS PHARMACY #168 #706168","address1": "419 NUCLEUS AVE","address2": "","city": "COLUMBIA FALLS","state": "MT","zip": "59912","zip+4": "0000","phone": "4068929088"}
{"name": "WAL-MART PHARMACY #102455","address1": "701 SMELTER AVE N.E.","address2": "","city": "GREAT FALLS","state": "MT","zip": "59404","zip+4": "0000","phone": "4067611456"}
{"name": "GARDEN CITY PHARMACY INC","address1": "2910 S RESERVE ST","address2": "","city": "MISSOULA","state": "MT","zip": "59801","zip+4": "0000","phone": "4065490898"}
{"name": "COSTCO PHARMACY #96","address1": "2505 CATRON STREET","address2": "","city": "BOZEMAN","state": "MT","zip": "59718","zip+4": "0000","phone": "4065857575"}
{"name": "WAL-MART PHARMACY #102608","address1": "3205 STOWER STREET","address2": "","city": "MILES CITY","state": "MT","zip": "59301","zip+4": "0000","phone": "4062327320"}
{"name": "WAL-MART PHARMACY #102607","address1": "170 HERITAGE LANE","address2": "","city": "POLSON","state": "MT","zip": "59860","zip+4": "0000","phone": "4068839221"}
{"name": "GABERT CLINIC PHARMACY","address1": "107 DILWORTH","address2": "","city": "GLENDIVE","state": "MT","zip": "59330","zip+4": "0000","phone": "4064657948"}
{"name": "OSCO PHARMACY #2009","address1": "6999 JACKRABBIT LN","address2": "","city": "BELGRADE","state": "MT","zip": "59714","zip+4": "0000","phone": "4063881696"}
{"name": "OMNICARE OF BILLINGS","address1": "2747 ENTERPRISE AVE","address2": "STE 1","city": "BILLINGS","state": "MT","zip": "59102","zip+4": "0000","phone": "4068963399"}
{"name": "SAFEWAY #1646","address1": "146 SOUTH SHORE ROAD","address2": "","city": "POLSON","state": "MT","zip": "59860","zip+4": "0000","phone": "4068833674"}
{"name": "RIDGEWAY PHARMACY","address1": "39 STEVENSVILLE CUTOFF RD W","address2": "","city": "STEVENSVILLE","state": "MT","zip": "59870","zip+4": "0000","phone": "4067774410"}
{"name": "SMITHS PHARMACY #170 #706170","address1": "1400 N 19TH AVE","address2": "","city": "BOZEMAN","state": "MT","zip": "59715","zip+4": "0000","phone": "4065863550"}
{"name": "SMITHS PHARMACY #166 #706166","address1": "1601 MARKET PLACE DRIVE","address2": "","city": "GREAT FALLS","state": "MT","zip": "59404","zip+4": "0000","phone": "4067710475"}
{"name": "OSCO PHARMACY #2018","address1": "900 W IDAHO","address2": "","city": "KALISPELL","state": "MT","zip": "59901","zip+4": "0000","phone": "4062577556"}
{"name": "OSCO PHARMACY #2019","address1": "117 W JANEAUX ST","address2": "","city": "LEWISTOWN","state": "MT","zip": "59457","zip+4": "0000","phone": "4065386674"}
{"name": "OSCO PHARMACY #2020","address1": "2205 OXFORD ST","address2": "","city": "MISSOULA","state": "MT","zip": "59801","zip+4": "0000","phone": "4065495127"}
{"name": "OSCO PHARMACY #2038","address1": "1212 GRAND AVE","address2": "","city": "BILLINGS","state": "MT","zip": "59102","zip+4": "0000","phone": "4062485544"}
{"name": "OSCO PHARMACY #2023","address1": "307 N HARMON","address2": "","city": "GLENDIVE","state": "MT","zip": "59330","zip+4": "0000","phone": "4063655209"}
{"name": "OSCO PHARMACY #2025","address1": "611 N 27TH ST","address2": "","city": "BILLINGS","state": "MT","zip": "59101","zip+4": "0000","phone": "4062591441"}
{"name": "OSCO PHARMACY #2047","address1": "511 CENTRAL","address2": "","city": "BILLINGS","state": "MT","zip": "59102","zip+4": "0000","phone": "4062454301"}
{"name": "OSCO PHARMACY #2027","address1": "670 MAIN ST","address2": "","city": "BILLINGS","state": "MT","zip": "59105","zip+4": "0000","phone": "4062456979"}
{"name": "OSCO PHARMACY #2030","address1": "2334 CENTRAL AVE","address2": "","city": "BILLINGS","state": "MT","zip": "59102","zip+4": "0000","phone": "4066566652"}
{"name": "OSCO PHARMACY #2033","address1": "501 W MAIN","address2": "","city": "CUT BANK","state": "MT","zip": "59427","zip+4": "0000","phone": "4068732055"}
{"name": "OSCO PHARMACY #2035","address1": "1414 3RD ST NW","address2": "","city": "GREAT FALLS","state": "MT","zip": "59404","zip+4": "0000","phone": "4067618420"}
{"name": "OSCO PHARMACY #2037","address1": "2250 10TH AVE S","address2": "","city": "GREAT FALLS","state": "MT","zip": "59405","zip+4": "0000","phone": "4067279880"}
{"name": "OSCO PHARMACY #2039","address1": "519 S HAYNES","address2": "","city": "MILES CITY","state": "MT","zip": "59301","zip+4": "0000","phone": "4062324627"}
{"name": "OSCO PHARMACY #2040","address1": "1313 N FIRST ST","address2": "","city": "HAMILTON","state": "MT","zip": "59840","zip+4": "0000","phone": "4063637089"}
{"name": "OSCO PHARMACY #2041","address1": "3137 GRAND AVE","address2": "","city": "BILLINGS","state": "MT","zip": "59102","zip+4": "0000","phone": "4066528359"}
{"name": "OSCO PHARMACY #2042","address1": "2120 PARK ST S","address2": "","city": "LIVINGSTON","state": "MT","zip": "59047","zip+4": "0000","phone": "4062221188"}
{"name": "OSCO PHARMACY #2043","address1": "2230 N RESERVE ST","address2": "","city": "MISSOULA","state": "MT","zip": "59808","zip+4": "0000","phone": "4067281118"}
{"name": "SAFEWAY #1158","address1": "201 N MAIN","address2": "","city": "DEER LODGE","state": "MT","zip": "59722","zip+4": "0000","phone": "4068461414"}
{"name": "OSCO PHARMACY #2010","address1": "3800 RUSSELL ST","address2": "","city": "MISSOULA","state": "MT","zip": "59801","zip+4": "0000","phone": "4065497717"}
{"name": "PARTNERSHIP HEALTH CENTER PHAR","address1": "323 W ALDER ST","address2": "","city": "MISSOULA","state": "MT","zip": "59802","zip+4": "0000","phone": "4062584789"}
{"name": "FIRST PHARMACY","address1": "1540 13TH ST W","address2": "","city": "BILLINGS","state": "MT","zip": "59102","zip+4": "0000","phone": "4068968325"}
{"name": "KMART PHARMACY #3072","address1": "3626 BROOKS ST","address2": "","city": "MISSOULA","state": "MT","zip": "59801","zip+4": "0000","phone": "4062510497"}
{"name": "SAFEWAY #1573","address1": "3801 S RESERVE ST","address2": "","city": "MISSOULA","state": "MT","zip": "59801","zip+4": "0000","phone": "4062515415"}
{"name": "PAMIDA PHARMACY #392","address1": "804 US HIGHWAY 2 W","address2": "","city": "GLASGOW","state": "MT","zip": "59230","zip+4": "1600","phone": "4062288911"}
{"name": "ST JOHNS PHARMACY","address1": "3940 RIMROCK RD","address2": "","city": "BILLINGS","state": "MT","zip": "59102","zip+4": "0000","phone": "4066555827"}
{"name": "TOWNSEND DRUG #2","address1": "308 BROADWAY","address2": "","city": "TOWNSEND","state": "MT","zip": "59644","zip+4": "0000","phone": "4062664379"}
{"name": "WAL-MART PHARMACY #102923","address1": "1649 MAIN STREET","address2": "","city": "BILLINGS","state": "MT","zip": "59105","zip+4": "0000","phone": "4062542947"}
{"name": "RIVERSTONEHEALTH PHARMACY","address1": "123 S 27TH ST","address2": "STE E","city": "BILLINGS","state": "MT","zip": "59101","zip+4": "0000","phone": "4062473330"}
{"name": "BUTTE COMMUNITY HEALTH CENTER","address1": "445 CENTENNIAL AVE","address2": "","city": "BUTTE","state": "MT","zip": "59701","zip+4": "0000","phone": "4064966029"}
{"name": "WAL-MART PHARMACY #103259","address1": "3555 MULLAN ROAD","address2": "","city": "MISSOULA","state": "MT","zip": "59808","zip+4": "0000","phone": "4068298532"}
{"name": "DEACONESS BILLINGS CLINIC","address1": "3155 AVE C","address2": "","city": "BILLINGS","state": "MT","zip": "59102","zip+4": "0000","phone": "4062385977"}
{"name": "R AND R HEALTH CARE SOLUTIONS","address1": "63802 US HIGHWAY 93","address2": "STE B","city": "RONAN","state": "MT","zip": "59864","zip+4": "0000","phone": "4066765600"}
{"name": "PAMIDA PHARMACY #264","address1": "825 NE MAIN ST","address2": "","city": "LEWISTOWN","state": "MT","zip": "59457","zip+4": "2080","phone": "4065389262"}
{"name": "FRANKS 293 DRUG","address1": "1401 MINNESOTA AVE","address2": "","city": "LIBBY","state": "MT","zip": "59923","zip+4": "0000","phone": "4062933784"}
{"name": "GOOD MEDICINE PHARMACY","address1": "2100 9TH ST W","address2": "","city": "COLUMBIA FALLS","state": "MT","zip": "59912","zip+4": "0000","phone": "4068929997"}
{"name": "TIMBER RIDGE PHARMACY","address1": "1131 N 1ST ST","address2": "","city": "HAMILTON","state": "MT","zip": "59840","zip+4": "0000","phone": "4063639003"}
{"name": "PAMIDA PHARMACY #196","address1": "1153 S CENTRAL AVE","address2": "","city": "SIDNEY","state": "MT","zip": "59270","zip+4": "5219","phone": "4064826401"}
{"name": "CASTLE MTN DRUG #6","address1": "25 E MAIN","address2": "","city": "WHITE SULPHUR SPRG","state": "MT","zip": "59645","zip+4": "0000","phone": "4065472316"}
{"name": "SAMS PHARMACY #106379","address1": "401 NW BYPASS","address2": "","city": "GREAT FALLS","state": "MT","zip": "59404","zip+4": "0000","phone": "4064533466"}
{"name": "TARGET PHARMACY #0171","address1": "2601 CENTRAL AVE","address2": "","city": "BILLINGS","state": "MT","zip": "59102","zip+4": "0000","phone": "4066522263"}
{"name": "PHARMCARE PHARMACY","address1": "901 N CENTER AVE","address2": "","city": "HARDIN","state": "MT","zip": "59034","zip+4": "0000","phone": "4066651602"}
{"name": "MAC'S CHC PHARMACY","address1": "117 N MAIN","address2": "SUITE B","city": "SHERIDAN","state": "MT","zip": "59749","zip+4": "0000","phone": "4068425624"}
{"name": "PAMIDA PHARMACY #127","address1": "900 1ST AVE W","address2": "","city": "COLUMBIA FALLS","state": "MT","zip": "59912","zip+4": "4025","phone": "4068922860"}
{"name": "RAILWAY DRUG","address1": "16 NORTH RAILWAY AVE","address2": "","city": "THREE FORKS","state": "MT","zip": "59752","zip+4": "0000","phone": "4062853883"}
{"name": "WALGREEN DRUG STORE #9242","address1": "40 W IDAHO ST","address2": "","city": "KALISPELL","state": "MT","zip": "59901","zip+4": "0000","phone": "4062570334"}
{"name": "BOZEMAN DEACONESS PHARMACY","address1": "36 CENTER LANE","address2": "STE 2","city": "BIG SKY","state": "MT","zip": "59716","zip+4": "0000","phone": "4069939390"}
{"name": "HAMILTON PHARMACY #595","address1": "135 MAIN ST","address2": "","city": "HAMILTON","state": "MT","zip": "59840","zip+4": "2555","phone": "4063632300"}
{"name": "WALGREEN DRUG STORE #9351","address1": "2527 N RESERVE ST","address2": "","city": "MISSOULA","state": "MT","zip": "59808","zip+4": "0000","phone": "4065431016"}
{"name": "FLORENCE PHARMACY NORTH","address1": "5549 OLD HIGHWAY 93","address2": "","city": "FLORENCE","state": "MT","zip": "59833","zip+4": "0000","phone": "4062737979"}
{"name": "HEALTHCARE PLUS","address1": "3194 HWY 83","address2": "","city": "SEELEY LAKE","state": "MT","zip": "59868","zip+4": "0575","phone": "4066772424"}
{"name": "PLANNED PARENTHOOD OF MONTANA","address1": "2525 4TH AVE N","address2": "STE 201","city": "BILLINGS","state": "MT","zip": "59101","zip+4": "0000","phone": "4062483636"}
{"name": "COSTCO PHARMACY #745","address1": "2330 US HIGHWAY 93 N","address2": "","city": "KALISPELL","state": "MT","zip": "59901","zip+4": "0000","phone": "4067582528"}
{"name": "ST PETER COMMUNITY PHARMACY","address1": "2475 BROADWAY","address2": "","city": "HELENA","state": "MT","zip": "59601","zip+4": "0000","phone": "4064442350"}
{"name": "HEALTHCARE PLUS","address1": "ONE 7TH AVE E","address2": "SUITE C","city": "POLSON","state": "MT","zip": "59860","zip+4": "0000","phone": "4068830565"}
{"name": "FAIRFIELD DRUG INC","address1": "407 CENTRAL AVE","address2": "","city": "FAIRFIELD","state": "MT","zip": "59436","zip+4": "0000","phone": "4064672336"}
{"name": "SOUTH HILLS PHARMACY INC","address1": "2600 WINNE AVE","address2": "","city": "HELENA","state": "MT","zip": "59601","zip+4": "0000","phone": "4064432540"}
{"name": "CVS PHARMACY #08618","address1": "1300 E PARK AVE","address2": "","city": "ANACONDA","state": "MT","zip": "59711","zip+4": "0000","phone": "4065635266"}
{"name": "CVS PHARMACY #08621","address1": "1525 W MAIN","address2": "","city": "BOZEMAN","state": "MT","zip": "59715","zip+4": "0000","phone": "4065879252"}
{"name": "CVS PHARMACY #08623","address1": "1633 GRAND AVE","address2": "","city": "BILLINGS","state": "MT","zip": "59102","zip+4": "0000","phone": "4062526334"}
{"name": "CVS PHARMACY #08624","address1": "1200 10TH AVE SOUTH","address2": "","city": "GREAT FALLS","state": "MT","zip": "59405","zip+4": "0000","phone": "4064531318"}
{"name": "CVS PHARMACY #08622","address1": "1914 BROOKS ST","address2": "","city": "MISSOULA","state": "MT","zip": "59801","zip+4": "0000","phone": "4067281380"}
{"name": "CVS PHARMACY #08627","address1": "1275 HARRISON ST","address2": "","city": "BUTTE","state": "MT","zip": "59701","zip+4": "0000","phone": "4067239408"}
{"name": "CVS PHARMACY #08619","address1": "526 EUCLID","address2": "","city": "HELENA","state": "MT","zip": "59601","zip+4": "0000","phone": "4064422196"}
{"name": "CVS PHARMACY #08617","address1": "603 N MONTANA","address2": "","city": "HELENA","state": "MT","zip": "59601","zip+4": "0000","phone": "4064429800"}
{"name": "CTR FOR HEALTHY AGING PHCY","address1": "3940 RIMROCK RD","address2": "","city": "BILLINGS","state": "MT","zip": "59102","zip+4": "0000","phone": "4066555836"}
{"name": "PHARMACY 1 LTC","address1": "2900 12TH AVE N","address2": "STE 110B","city": "BILLINGS","state": "MT","zip": "59101","zip+4": "0000","phone": "4062456718"}
{"name": "MISSOULA PHARMACY INC","address1": "1211 S RESERVE ST","address2": "STE 102","city": "MISSOULA","state": "MT","zip": "59801","zip+4": "0000","phone": "4067285650"}
{"name": "COSTCO PHARMACY #633","address1": "2195 E CUSTER AVE","address2": "","city": "HELENA","state": "MT","zip": "59602","zip+4": "0000","phone": "4064957049"}
{"name": "MEDICAL ARTS PHARMACY","address1": "435 S CRYSTAL ST","address2": "STE 230","city": "BUTTE","state": "MT","zip": "59701","zip+4": "0000","phone": "4067232441"}
{"name": "WAL-MART PHARMACY #104247","address1": "3510 HIGHWAY 2 WEST","address2": "","city": "HAVRE","state": "MT","zip": "59501","zip+4": "0000","phone": "4062629174"}
{"name": "WALGREEN DRUG STORE #10726","address1": "2100 BROOKS ST","address2": "","city": "MISSOULA","state": "MT","zip": "59801","zip+4": "6649","phone": "4067282089"}
{"name": "THREE BEARS PHARMACY #70","address1": "45 THREE BEARS DR","address2": "","city": "BUTTE","state": "MT","zip": "59701","zip+4": "0000","phone": "4064944116"}
{"name": "BIGFORK DRUG","address1": "8111 MT HIGHWAY 35","address2": "","city": "BIGFORK","state": "MT","zip": "59911","zip+4": "0000","phone": "4068374370"}
{"name": "WALGREENS DRUG STORE #10859","address1": "1213 3RD ST NW","address2": "","city": "GREAT FALLS","state": "MT","zip": "59404","zip+4": "4116","phone": "4067610214"}
{"name": "WALGREENS DRUG STORE #10083","address1": "2301 10TH AVE","address2": "","city": "GREAT FALLS","state": "MT","zip": "59405","zip+4": "2967","phone": "4067271376"}
{"name": "WALGREENS DRUG STORE #10652","address1": "1602 MAIN ST","address2": "","city": "BILLINGS","state": "MT","zip": "59105","zip+4": "4038","phone": "4062450178"}
{"name": "TARGET PHARMACY #0885","address1": "2420 N RESERVE ST","address2": "","city": "MISSOULA","state": "MT","zip": "59808","zip+4": "0000","phone": "4065434000"}
{"name": "PAMIDA PHARMACY #662","address1": "148 MAIN ST","address2": "","city": "ROUNDUP","state": "MT","zip": "59072","zip+4": "2735","phone": "4063231811"}
{"name": "WAL-MART PHARMACY #104412","address1": "101 BERNHARDT","address2": "","city": "LAUREL","state": "MT","zip": "59044","zip+4": "0000","phone": "4066281762"}
{"name": "ROSAUERS PHARMACY #40","address1": "3255 TECHNOLOGY BLVD","address2": "","city": "BOZERMAN","state": "MT","zip": "59718","zip+4": "0000","phone": "4065874005"}
{"name": "MILK RIVER PHARMACY","address1": "42465 US HWY 2","address2": "","city": "HARLEM","state": "MT","zip": "59526","zip+4": "0000","phone": "4063533535"}
{"name": "WALGREEN DRUG STORE #11503","address1": "3333 GRAND AVE","address2": "","city": "BILLINGS","state": "MT","zip": "59102","zip+4": "6565","phone": "4066521620"}
{"name": "FRENCHTOWN DRUG","address1": "16862 BECKWITH ST","address2": "STE P","city": "FRENCHTOWN","state": "MT","zip": "59834","zip+4": "0000","phone": "4066264113"}
{"name": "PAMIDA PHARMACY #671","address1": "125 E GLENDALE ST","address2": "","city": "DILLON","state": "MT","zip": "59725","zip+4": "0000","phone": "4066832316"}
{"name": "SILVERTIP PHARMACY","address1": "120 N CANYON ST","address2": "STE F","city": "WEST YELLOWSTONE","state": "MT","zip": "59758","zip+4": "0000","phone": "4066467056"}
{"name": "SEELEY SWAN PHARMACY","address1": "3027 HWY 83","address2": "LAZY PINE MALL STE J","city": "SEELEY LAKE","state": "MT","zip": "59868","zip+4": "0000","phone": "4066778989"}
{"name": "CVS PHARMACY #05301","address1": "1311 GRAND AVENUE","address2": "","city": "BILLINGS","state": "MT","zip": "59102","zip+4": "0000","phone": "4062597034"}
{"name": "CVS PHARMACY #05302","address1": "425 MAIN STREET","address2": "","city": "BILLINGS","state": "MT","zip": "59105","zip+4": "0000","phone": "4062597861"}
{"name": "CVS PHARMACY #05305","address1": "307 SE 4TH","address2": "","city": "LAUREL","state": "MT","zip": "59044","zip+4": "0000","phone": "4066288746"}
{"name": "CVS PHARMACY #05307","address1": "823 NORTH 27TH STREET","address2": "","city": "BILLINGS","state": "MT","zip": "59101","zip+4": "0000","phone": "4062529000"}
{"name": "WALGREEN DRUG STORE #11891","address1": "901 N 1ST STREET","address2": "","city": "HAMILTON","state": "MT","zip": "59840","zip+4": "2137","phone": "4063752264"}
{"name": "HEALTH MART","address1": "730 1ST ST","address2": "","city": "HAVRE","state": "MT","zip": "59501","zip+4": "0000","phone": "4062651229"}
{"name": "THE CLINICAL PHARMACY","address1": "200 CONWAY DRIVE","address2": "","city": "KALLISPELL","state": "MT","zip": "59901","zip+4": "0000","phone": "4067517600"}
{"name": "WOLF POINT IDE PHARMACY #1","address1": "1115 4TH AVE NORTH","address2": "","city": "WOLF POINT","state": "MT","zip": "59201","zip+4": "0000","phone": "4066536572"}
{"name": "PAMIDA PHARMACY #690","address1": "136 MCLEOD","address2": "","city": "BIG TIMBER","state": "MT","zip": "59011","zip+4": "0000","phone": "4069325316"}
{"name": "WALGREENS #10084","address1": "1150 11TH AVE","address2": "","city": "HELENA","state": "MT","zip": "59601","zip+4": "3838","phone": "4064421265"}
{"name": "POPLAR PHARMACY","address1": "213 H ST EAST","address2": "","city": "POPLAR","state": "MT","zip": "59255","zip+4": "0000","phone": "4067686147"}
{"name": "WALGREENS #12155","address1": "1330 GRAND AVE","address2": "","city": "BILLINGS","state": "MT","zip": "59102","zip+4": "0000","phone": "4062520096"}
{"name": "ST PETERS PHARMACY-BROADWAY","address1": "2550 BROADWAY","address2": "","city": "HELENA","state": "MT","zip": "59601","zip+4": "0000","phone": "4064442200"}
{"name": "PAMIDA PHARMACY #696","address1": "998 US HWY 93 NORTH","address2": "","city": "EUREKA","state": "MT","zip": "59917","zip+4": "9550","phone": "4062973496"}
{"name": "KC WESTERN DRUG LONG TERM CARE","address1": "1313 W PARK STREET","address2": "STE B","city": "LIVINGSTON","state": "MT","zip": "59047","zip+4": "0000","phone": "4062227332"}
{"name": "WALGREENS #12347","address1": "700 E 13TH ST","address2": "","city": "WHITEFISH","state": "MT","zip": "59937","zip+4": "0000","phone": "4067564800"}
{"name": "OSCO PHARMACY #2008","address1": "3151 N MONTANA","address2": "","city": "HELENA","state": "MT","zip": "59601","zip+4": "0000","phone": "4064492295"}
{"name": "ELKHORN PHARMACY INC","address1": "215 N MAIN","address2": "","city": "BOULDER","state": "MT","zip": "59632","zip+4": "0026","phone": "4062253240"}
{"name": "WESTERN DRUG PHARMACY","address1": "123 5TH AVE","address2": "STE B","city": "HAVRE","state": "MT","zip": "59501","zip+4": "0000","phone": "4062659601"}
{"name": "GLACIER RIDGE PHARMACY","address1": "55 1ST AVE EAST N","address2": "","city": "KALISPELL","state": "MT","zip": "59901","zip+4": "0000","phone": "4067557979"}
{"name": "CVS PHARMACY # #08944","address1": "617 CENTRAL AVE","address2": "","city": "BILLINGS","state": "MT","zip": "59102","zip+4": "5814","phone": "4062564924"}
{"name": "EUREKA DRUG","address1": "33 KAYLIN LANE","address2": "","city": "EUREKA","state": "MT","zip": "59917","zip+4": "0000","phone": "4062977748"}