{"name": "ALPINE RIDGE PHARMACY","address1": "6475 HWY 93 S","address2": "","city": "WHITEFISH","state": "MT","zip": "59937","zip+4": "0000","phone": "4067557979"}
{"name": "WALGREEN DRUG STORE #541","address1": "1301 O STREET","address2": "","city": "LINCOLN","state": "NE","zip": "68508","zip+4": "0000","phone": "4024352102"}
{"name": "WALGREEN DRUG STORE #3182","address1": "7045 O STREET","address2": "","city": "LINCOLN","state": "NE","zip": "68510","zip+4": "0000","phone": "4024848111"}
{"name": "WALGREEN DRUG STORE #5143","address1": "7151 CASS ST","address2": "","city": "OMAHA","state": "NE","zip": "68132","zip+4": "0000","phone": "4025588511"}
{"name": "WALGREEN DRUG STORE #2855","address1": "6101 NW RADIAL","address2": "","city": "OMAHA","state": "NE","zip": "68104","zip+4": "0000","phone": "4025516044"}
{"name": "WALGREEN DRUG STORE #7693","address1": "225 N SADDLE CREEK RD","address2": "","city": "OMAHA","state": "NE","zip": "68131","zip+4": "0000","phone": "4025511544"}
{"name": "HEARTLAND MEDICAL AND PRESCRIP","address1": "11024 Q STREET","address2": "","city": "OMAHA","state": "NE","zip": "68510","zip+4": "0000","phone": "4023312661"}
{"name": "WALGREEN DRUG STORE #4443","address1": "9001 W CENTER RD","address2": "","city": "OMAHA","state": "NE","zip": "68124","zip+4": "0000","phone": "4023938429"}
{"name": "WALGREEN DRUG STORE #3269","address1": "705 N BURLINGTON AVE","address2": "","city": "HASTINGS","state": "NE","zip": "68901","zip+4": "0000","phone": "4024634551"}
{"name": "WALGREEN DRUG STORE #3621","address1": "9001 BLONDO STREET","address2": "","city": "OMAHA","state": "NE","zip": "68114","zip+4": "0000","phone": "4023938019"}
{"name": "WALGREEN DRUG STORE #3694","address1": "1802 GALVIN RD S","address2": "","city": "BELLEVUE","state": "NE","zip": "68005","zip+4": "0000","phone": "4022918404"}
{"name": "WALGREEN DRUG STORE #7272","address1": "13155 W CENTER RD","address2": "","city": "OMAHA","state": "NE","zip": "68144","zip+4": "0000","phone": "4023349094"}
{"name": "THIELE DRUG CO INC","address1": "304 BOX BUTTE AVE","address2": "","city": "ALLIANCE","state": "NE","zip": "69301","zip+4": "3342","phone": "3087624033"}
{"name": "SHAVERS PHARMACY","address1": "508 NIOBRARA","address2": "","city": "HEMINGFORD","state": "NE","zip": "69348","zip+4": "0000","phone": "3084875212"}
{"name": "MEDICINE CHEST CO #1","address1": "7328 MAPLE ST","address2": "","city": "OMAHA","state": "NE","zip": "68134","zip+4": "6896","phone": "4023912659"}
{"name": "FARRELL PHARMACY","address1": "120 WEST B ST","address2": "","city": "MCCOOK","state": "NE","zip": "69001","zip+4": "0000","phone": "3083451781"}
{"name": "KOHLLS PHARMACY #23","address1": "3427 S 84TH ST","address2": "","city": "OMAHA","state": "NE","zip": "68124","zip+4": "0000","phone": "4023931404"}
{"name": "KOHLLS PHARMACY #21","address1": "2923 LEAVENWORTH ST","address2": "","city": "OMAHA","state": "NE","zip": "68105","zip+4": "0000","phone": "4023426547"}
{"name": "KOHLLS PHARMACY #42","address1": "617 N 114TH ST","address2": "","city": "OMAHA","state": "NE","zip": "68154","zip+4": "0000","phone": "4024080012"}
{"name": "KOHLLS PHARMACY #34","address1": "12739 Q ST","address2": "","city": "OMAHA","state": "NE","zip": "68137","zip+4": "0000","phone": "4028953101"}
{"name": "KOHLLS RXMPSS #4","address1": "5110 L STREET","address2": "","city": "OMAHA","state": "NE","zip": "68117","zip+4": "0000","phone": "4027332000"}
{"name": "GERING PHARMACY","address1": "1400 10TH STREET","address2": "","city": "GERING","state": "NE","zip": "69341","zip+4": "0000","phone": "3084362181"}
{"name": "U SAVE PHARMACY INC","address1": "2105 S LOCUST ST","address2": "","city": "GRAND ISLAND","state": "NE","zip": "68801","zip+4": "0000","phone": "3083823784"}
{"name": "SKAGWAY PHARMACY","address1": "620 W STATE ST","address2": "P O BOX 1647","city": "GRAND ISLAND","state": "NE","zip": "68801","zip+4": "0000","phone": "3083848228"}
{"name": "KUBAT PHARMACY","address1": "4924 CENTER ST","address2": "","city": "OMAHA","state": "NE","zip": "68106","zip+4": "3296","phone": "4025588888"}
{"name": "KOHLLS PHARMACY #25","address1": "5000 DODGE ST","address2": "","city": "OMAHA","state": "NE","zip": "68132","zip+4": "0000","phone": "4025538900"}
{"name": "EDS REXALL","address1": "2701 S 10TH ST","address2": "","city": "OMAHA","state": "NE","zip": "68108","zip+4": "1697","phone": "4023421731"}
{"name": "KEITHS DRIVE IN DRUG","address1": "500 N HASTINGS","address2": "","city": "HASTINGS","state": "NE","zip": "68901","zip+4": "5173","phone": "4024626101"}
{"name": "MILLER PHARMACY NORTH","address1": "322 E 22ND STREET","address2": "","city": "FREMONT","state": "NE","zip": "68025","zip+4": "0000","phone": "4027215433"}
{"name": "SAV RX PHARMACY","address1": "1612 N BELL","address2": "","city": "FREMONT","state": "NE","zip": "68025","zip+4": "0000","phone": "4027217634"}
{"name": "MILLER PHARMACY INC","address1": "1900 E MILITARY","address2": "STE 220","city": "FREMONT","state": "NE","zip": "68025","zip+4": "5494","phone": "4027211100"}
{"name": "SEIG PHARMACY","address1": "6655 SORENSEN PKWY","address2": "","city": "OMAHA","state": "NE","zip": "68152","zip+4": "0000","phone": "4028293282"}
{"name": "BREHM DRUG","address1": "608 HOWARD AVE","address2": "","city": "SAINT PAUL","state": "NE","zip": "68873","zip+4": "2023","phone": "3087544611"}
{"name": "TOOLEY DRUG INC","address1": "2615 13TH ST","address2": "","city": "COLUMBUS","state": "NE","zip": "68601","zip+4": "4984","phone": "4025647205"}
{"name": "ABC DRUG","address1": "2202 CENTRAL AVE","address2": "","city": "KEARNEY","state": "NE","zip": "68847","zip+4": "0000","phone": "3082372178"}
{"name": "SCRIBNER PHARMACY","address1": "416 MAIN ST","address2": "","city": "SCRIBNER","state": "NE","zip": "68057","zip+4": "0547","phone": "4026643133"}
{"name": "LLOYDS DRUG MART","address1": "2600 W NORFOLK AVE","address2": "","city": "NORFOLK","state": "NE","zip": "68701","zip+4": "4496","phone": "4023713284"}
{"name": "WRAGGE PHARMACY","address1": "332 S 13TH STREET","address2": "","city": "TEKAMAH","state": "NE","zip": "68061","zip+4": "0000","phone": "4023741400"}
{"name": "WALGREEN DRUG STORE #515","address1": "2600 SOUTH 48TH STREET","address2": "","city": "LINCOLN","state": "NE","zip": "68506","zip+4": "0000","phone": "4024832831"}
{"name": "WAGONER PHARMACY","address1": "2444 W FAIDLEY","address2": "","city": "GRAND ISLAND","state": "NE","zip": "68803","zip+4": "0000","phone": "3083821100"}
{"name": "PANHANDLE COOP PHARMACY","address1": "401 S BELTLINE HWY W","address2": "","city": "SCOTTSBLUFF","state": "NE","zip": "69361","zip+4": "0000","phone": "3086323900"}
{"name": "WELLS HEALTHMART DRUG","address1": "113 S 4TH ST","address2": "","city": "ALBION","state": "NE","zip": "68620","zip+4": "1215","phone": "4023952184"}
{"name": "HAYS PHARMACY","address1": "706 W MAIN","address2": "","city": "ALMA","state": "NE","zip": "68920","zip+4": "0000","phone": "3089282022"}
{"name": "MEDICINE SHOPPE #1742","address1": "601 COURT STREET","address2": "","city": "BEATRICE","state": "NE","zip": "68310","zip+4": "0000","phone": "4022232379"}
{"name": "POLING DRUG","address1": "711 E COURT ST","address2": "","city": "BEATRICE","state": "NE","zip": "68310","zip+4": "3984","phone": "4022233529"}
{"name": "RONS PHARMACY","address1": "537 E GAGE ST","address2": "","city": "BLUE HILL","state": "NE","zip": "68930","zip+4": "0307","phone": "4027563811"}
{"name": "BURWELL PHARMACY","address1": "137 GRAND ST","address2": "PO BOX 520","city": "BURWELL","state": "NE","zip": "68823","zip+4": "9802","phone": "3083464747"}
{"name": "RIGHT DRUG STORE","address1": "113 E KIMBALL","address2": "","city": "CALLAWAY","state": "NE","zip": "68825","zip+4": "0130","phone": "3088362219"}
{"name": "PETERSEN DRUG","address1": "302 MAIN ST","address2": "","city": "CHADRON","state": "NE","zip": "69337","zip+4": "2358","phone": "3084322400"}
{"name": "SERVICE DRUG STORE","address1": "133 E 8TH ST","address2": "","city": "COZAD","state": "NE","zip": "69130","zip+4": "1729","phone": "3087842238"}
{"name": "MANIONS HEALTHMART PHARMACY","address1": "719 MAIN ST","address2": "","city": "CREIGHTON","state": "NE","zip": "68729","zip+4": "0085","phone": "4023583535"}
{"name": "JOHNSON PHARMACY","address1": "151 MAPLE ST","address2": "","city": "FRIEND","state": "NE","zip": "68359","zip+4": "1030","phone": "4029472341"}
{"name": "GRANT PHARMACY","address1": "218 CENTRAL AVE","address2": "","city": "GRANT","state": "NE","zip": "69140","zip+4": "0000","phone": "3083524511"}
{"name": "STEFFEN DRUG","address1": "214 N BROADWAY","address2": "","city": "HARTINGTON","state": "NE","zip": "68739","zip+4": "0218","phone": "4022543549"}
{"name": "BERTS PHARMACY","address1": "1021 W 14TH ST","address2": "","city": "HASTINGS","state": "NE","zip": "68901","zip+4": "3047","phone": "4024624466"}
{"name": "BERTS PHARMACY","address1": "700 W 2ND ST","address2": "","city": "HASTINGS","state": "NE","zip": "68901","zip+4": "5103","phone": "4024624343"}
{"name": "SUN MART PHARMACY #450","address1": "920 S BURLINGTON AVE","address2": "","city": "HASTINGS","state": "NE","zip": "68901","zip+4": "0000","phone": "4024637700"}
{"name": "HENDERSON PHARMACY","address1": "1060 N MAIN ST","address2": "","city": "HENDERSON","state": "NE","zip": "68371","zip+4": "0711","phone": "4027234475"}
{"name": "NOBLE DRUG","address1": "702 4TH AVE","address2": "","city": "HOLDREGE","state": "NE","zip": "68949","zip+4": "2292","phone": "3089956105"}
{"name": "U SAVE PHARMACY","address1": "3611 2ND AVE","address2": "","city": "KEARNEY","state": "NE","zip": "68848","zip+4": "0000","phone": "3082341973"}
{"name": "BEMIS DRUG","address1": "121 E 2ND ST","address2": "","city": "KIMBALL","state": "NE","zip": "69145","zip+4": "1208","phone": "3082353936"}
{"name": "FOUR STAR DRUG","address1": "1265 S COTNER BLVD","address2": "","city": "LINCOLN","state": "NE","zip": "68510","zip+4": "4924","phone": "4024347730"}
{"name": "FOUR STAR DRUG OF BETHANY","address1": "1340 N 66TH ST","address2": "","city": "LINCOLN","state": "NE","zip": "68505","zip+4": "1897","phone": "4024347701"}
{"name": "STOCKWELL PHARMACY","address1": "3811 S 27TH ST","address2": "","city": "LINCOLN","state": "NE","zip": "68502","zip+4": "5700","phone": "4024238588"}
{"name": "UNIVERSITY HEALTH CENTER PHCY","address1": "15TH AND U STS","address2": "","city": "LINCOLN","state": "NE","zip": "68588","zip+4": "0618","phone": "4024727457"}
{"name": "WAGEY DRUG COMPANY INC","address1": "800 N 27TH ST","address2": "","city": "LINCOLN","state": "NE","zip": "68503","zip+4": "2599","phone": "4024763341"}
{"name": "LT PEDLEY DRUG","address1": "419 N COLORADO","address2": "","city": "MINDEN","state": "NE","zip": "68959","zip+4": "0000","phone": "3088322815"}
{"name": "MOSER'S U SAVE PHARMACY","address1": "824 CENTRAL AVE","address2": "","city": "NEBRASKA CITY","state": "NE","zip": "68410","zip+4": "0000","phone": "4028733397"}
{"name": "WANEK PHARMACY","address1": "410 MAINE STREET","address2": "","city": "NELIGH","state": "NE","zip": "68756","zip+4": "0000","phone": "4028875426"}
{"name": "ONEILL FAMILY PHARMACY","address1": "317 E DOUGLAS ST","address2": "","city": "ONEILL","state": "NE","zip": "68763","zip+4": "1829","phone": "4023362660"}
{"name": "CORNER DRUG","address1": "301 N OAKLAND AVENUE","address2": "","city": "OAKLAND","state": "NE","zip": "68045","zip+4": "0000","phone": "4026855883"}
{"name": "U SAVE PHARMACY","address1": "23 N SPRUCE ST","address2": "","city": "OGALLALA","state": "NE","zip": "69153","zip+4": "0000","phone": "3082842242"}
{"name": "CREIGHTON UNIVERSITY MED CTR C","address1": "601 N 30TH ST","address2": "CUMC CLINIC PHARMACY","city": "OMAHA","state": "NE","zip": "68131","zip+4": "2137","phone": "4024494560"}
{"name": "THE NEBRASKA MED CENTER CLINIC","address1": "989200 NEBRASKA MEDICAL CTR","address2": "","city": "OMAHA","state": "NE","zip": "68198","zip+4": "9200","phone": "4025595215"}
{"name": "PETES PHARMACY","address1": "643 G ST","address2": "","city": "PAWNEE CITY","state": "NE","zip": "68420","zip+4": "0072","phone": "4028522322"}
{"name": "THE APOTHECARY SHOP","address1": "100 VALLEYVIEW DR","address2": "","city": "PENDER","state": "NE","zip": "68047","zip+4": "0139","phone": "4023853350"}
{"name": "PLAINVIEW PHARMACY","address1": "504 W LOCUST","address2": "","city": "PLAINVIEW","state": "NE","zip": "68769","zip+4": "0129","phone": "4025824202"}
{"name": "HERITAGE PHARMACY","address1": "517 MAIN ST","address2": "","city": "PLATTSMOUTH","state": "NE","zip": "68048","zip+4": "1992","phone": "4022964455"}
{"name": "KELLER PHARMACY #1433","address1": "119 E 3RD ST","address2": "","city": "PONCA","state": "NE","zip": "68770","zip+4": "0365","phone": "4027552216"}
{"name": "SVANDA PHARMACY","address1": "314 GRAND AVE","address2": "","city": "RAVENNA","state": "NE","zip": "68869","zip+4": "1393","phone": "3084523672"}
{"name": "CUNNINGHAM DRUG","address1": "220 E 12TH ST","address2": "","city": "SCHUYLER","state": "NE","zip": "68661","zip+4": "1906","phone": "4023522611"}
{"name": "WILSON AND TOBIN DRUG","address1": "1000 ILLINOIS","address2": "","city": "SIDNEY","state": "NE","zip": "69162","zip+4": "0000","phone": "3082544553"}
{"name": "WESTERN DRUG #0936","address1": "806 ILLINIOS","address2": "","city": "SIDNEY","state": "NE","zip": "69162","zip+4": "0000","phone": "3082542032"}
{"name": "SUPERIOR PHARMACY","address1": "348 N CENTRAL AVE","address2": "","city": "SUPERIOR","state": "NE","zip": "68978","zip+4": "0000","phone": "4028794234"}
{"name": "SYRACUSE TOWN AND COUNTRY PHRM","address1": "448 5TH ST","address2": "","city": "SYRACUSE","state": "NE","zip": "68446","zip+4": "0220","phone": "4022692001"}
{"name": "CHIEF DRUG","address1": "123 SOUTH 3RD ST","address2": "","city": "TECUMSEH","state": "NE","zip": "68450","zip+4": "0000","phone": "4023353375"}
{"name": "HOFMANN PHARMACY","address1": "103 E 2ND STREET","address2": "","city": "TILDEN","state": "NE","zip": "68781","zip+4": "0190","phone": "4023685385"}
{"name": "WAHOO PHARMACY AND GIFTS","address1": "526 N LINDEN ST","address2": "","city": "WAHOO","state": "NE","zip": "68066","zip+4": "0000","phone": "4024434167"}
{"name": "FOUR STAR DRUG","address1": "13851 GUILDFORD STREET","address2": "SUITE D","city": "WAVERLY","state": "NE","zip": "68462","zip+4": "0000","phone": "4027862222"}
{"name": "U-SAVE PHARMACY","address1": "216 E 7TH ST","address2": "","city": "WAYNE","state": "NE","zip": "68787","zip+4": "0000","phone": "4023752922"}
{"name": "BARNAS DRUG INC","address1": "124 W 3RD ST","address2": "","city": "WILBER","state": "NE","zip": "68465","zip+4": "0547","phone": "4028212834"}
{"name": "LA VISTA PHARMACY","address1": "7101 S 84TH ST","address2": "","city": "LA VISTA","state": "NE","zip": "68128","zip+4": "2177","phone": "4025922500"}
{"name": "REDLERS PROFESSIONAL PHARMACY","address1": "1010 W 29TH ST","address2": "STE 208","city": "S SIOUX CITY","state": "NE","zip": "68776","zip+4": "0000","phone": "4024945542"}
{"name": "BEATRICE COMMUNITY HOSP PHCY","address1": "1110 N 10TH ST","address2": "","city": "BEATRICE","state": "NE","zip": "68310","zip+4": "2039","phone": "4022237314"}
{"name": "ALLISON PHARMACY","address1": "1118 J ST","address2": "","city": "AUBURN","state": "NE","zip": "68305","zip+4": "1531","phone": "4022744315"}
{"name": "STEIER PHARMACY","address1": "6828 N 72ND ST","address2": "STE 2160","city": "OMAHA","state": "NE","zip": "68122","zip+4": "0000","phone": "4025723553"}
{"name": "RX EXPRESS PHARMACY","address1": "402 N JEFFERS ST","address2": "","city": "NORTH PLATTE","state": "NE","zip": "69101","zip+4": "0000","phone": "3085327010"}
{"name": "HASSELBALCH PHARMACY","address1": "143 S 3RD ST","address2": "","city": "TECUMSEH","state": "NE","zip": "68450","zip+4": "0537","phone": "4023353303"}
{"name": "SPRINGFIELD DRUG #3374","address1": "205 MAIN ST","address2": "PO BOX 130","city": "SPRINGFIELD","state": "NE","zip": "68059","zip+4": "0130","phone": "4022532000"}
{"name": "BERGAN MERCY OUTPATIENT PHARMA","address1": "7710 MERCY RD","address2": "STE 110","city": "OMAHA","state": "NE","zip": "68124","zip+4": "2346","phone": "4023986781"}
{"name": "GOTHENBURG DISCOUNT PHARMACY","address1": "902 AVENUE D","address2": "","city": "GOTHENBURG","state": "NE","zip": "69138","zip+4": "0000","phone": "3085377155"}
{"name": "U SAVE PHARMACY","address1": "211 W LEOTA ST","address2": "","city": "NORTH PLATTE","state": "NE","zip": "69101","zip+4": "6503","phone": "3085320310"}
{"name": "U SAVE PHARMACY LEX","address1": "603 N WASHINGTON","address2": "","city": "LEXINGTON","state": "NE","zip": "68850","zip+4": "0000","phone": "3083246325"}
{"name": "SUPER SAVER PHARMACY #20","address1": "5710 S 144TH ST","address2": "","city": "OMAHA","state": "NE","zip": "68137","zip+4": "0000","phone": "4028955644"}
{"name": "JIMS U SAVE PHARMACY","address1": "219 Q STREET","address2": "","city": "AURORA","state": "NE","zip": "68818","zip+4": "0000","phone": "4026943187"}
{"name": "KMART PHARMACY #3907","address1": "3535 W 13TH STREET","address2": "","city": "GRAND ISLAND","state": "NE","zip": "68803","zip+4": "0000","phone": "3083811240"}
{"name": "KMART PHARMACY #7024","address1": "802 E 27TH STREET","address2": "","city": "SCOTTS BLUFF","state": "NE","zip": "69361","zip+4": "0000","phone": "3086323822"}
{"name": "KMART PHARMACY #4130","address1": "5000 L STREET","address2": "","city": "OMAHA","state": "NE","zip": "68117","zip+4": "0000","phone": "4027336935"}
{"name": "WALGREEN DRUG STORE #3467","address1": "1515 W 2ND ST","address2": "","city": "GRAND ISLAND","state": "NE","zip": "68801","zip+4": "0000","phone": "3083844202"}
{"name": "NORMS U SAVE PHARMACY","address1": "1414 16TH ST","address2": "","city": "CENTRAL CITY","state": "NE","zip": "68826","zip+4": "1812","phone": "3089463859"}
{"name": "WEAVER PHARMCY","address1": "1014 G ST","address2": "","city": "GENEVA","state": "NE","zip": "68361","zip+4": "0000","phone": "4027594433"}
{"name": "KEITHS MEDICAL PARK PHARMACY","address1": "2115 N KANSAS AVE","address2": "","city": "HASTINGS","state": "NE","zip": "68901","zip+4": "2615","phone": "4024630515"}
{"name": "VILLAGE PHARMACY INC","address1": "300 S 1ST AVE","address2": "","city": "HASTINGS","state": "NE","zip": "68901","zip+4": "6499","phone": "4024632441"}
{"name": "SAFEWAY #0556","address1": "601 BROADWAY","address2": "","city": "SCOTTSBLUFF","state": "NE","zip": "69361","zip+4": "0000","phone": "3086351444"}
{"name": "WALGREEN DRUG STORE #4754","address1": "8380 HARRISON ST","address2": "","city": "LA VISTA","state": "NE","zip": "68128","zip+4": "0000","phone": "4025927970"}
{"name": "WALGREEN DRUG STORE #5540","address1": "6905 S 36TH ST","address2": "","city": "BELLEVUE","state": "NE","zip": "68147","zip+4": "0000","phone": "4027347517"}
{"name": "WALGREEN DRUG STORE #6936","address1": "4310 AMES AVE","address2": "","city": "OMAHA","state": "NE","zip": "68111","zip+4": "0000","phone": "4024533400"}
{"name": "KMART PHARMACY #7493","address1": "5808 S 144TH STREET","address2": "","city": "OMAHA","state": "NE","zip": "68137","zip+4": "0000","phone": "4028957220"}
{"name": "KMART PHARMACY #7579","address1": "13450 MAPLE ROAD","address2": "","city": "OMAHA","state": "NE","zip": "68164","zip+4": "0000","phone": "4024922605"}
{"name": "GERIMED INC","address1": "7915 N 30TH ST","address2": "","city": "OMAHA","state": "NE","zip": "68112","zip+4": "2444","phone": "4028276080"}
{"name": "DEPOT DRUG","address1": "1400 DOUGLAS ST","address2": "STOP 0050","city": "OMAHA","state": "NE","zip": "68179","zip+4": "0000","phone": "4025443740"}
{"name": "LOUISVILLE DRUG INC","address1": "213 MAIN ST","address2": "","city": "LOUISVILLE","state": "NE","zip": "68037","zip+4": "0339","phone": "4022343025"}
{"name": "U SAVE PHARMACY AND MEDICAL SU","address1": "902 N HWY 83","address2": "","city": "MCCOOK","state": "NE","zip": "69001","zip+4": "0944","phone": "3083455670"}
{"name": "MAIN ST APOTHECARY","address1": "201 E 2ND ST","address2": "","city": "LAUREL","state": "NE","zip": "68745","zip+4": "0515","phone": "4022563511"}
{"name": "HY VEE PHARMACY #1465","address1": "5150 CENTER","address2": "","city": "OMAHA","state": "NE","zip": "68106","zip+4": "0000","phone": "4025534143"}
{"name": "THE PHARMACY","address1": "1221 N COTNER BLVD","address2": "STE 3","city": "LINCOLN","state": "NE","zip": "68505","zip+4": "1837","phone": "4024667283"}
{"name": "CLABAUGH PHARMACY INC","address1": "501 COURT ST","address2": "","city": "BEATRICE","state": "NE","zip": "68310","zip+4": "3989","phone": "4022233591"}
{"name": "VALLEY PHARMACY","address1": "123 E GARDINER ST","address2": "","city": "VALLEY","state": "NE","zip": "68064","zip+4": "0630","phone": "4023592284"}
{"name": "HY VEE PHARMACY 2 #1386","address1": "1601 N 84TH STREET","address2": "","city": "LINCOLN","state": "NE","zip": "68505","zip+4": "0000","phone": "4024675157"}
{"name": "SHOPKO PHARMACY #38","address1": "2208 N WEBB RD","address2": "","city": "GRAND ISLAND","state": "NE","zip": "68803","zip+4": "1739","phone": "3083826744"}
{"name": "SHOPKO PHARMACY #39","address1": "4200 S 27TH ST","address2": "","city": "LINCOLN","state": "NE","zip": "68502","zip+4": "5858","phone": "4024212444"}
{"name": "WALGREEN DRUG STORE #6962","address1": "3121 S 24TH ST","address2": "","city": "OMAHA","state": "NE","zip": "68108","zip+4": "0000","phone": "4023455041"}
{"name": "GOOD LIFE PHARMACY","address1": "125 S 16TH ST","address2": "","city": "ORD","state": "NE","zip": "68862","zip+4": "0000","phone": "3087283295"}
{"name": "LAKE CREST PHARMACY","address1": "200 LEVI LANE","address2": "STE 101","city": "ADAMS","state": "NE","zip": "68301","zip+4": "9801","phone": "4029887145"}
{"name": "WALGREEN DRUG STORE #4088","address1": "2502 N 48TH","address2": "","city": "LINCOLN","state": "NE","zip": "68504","zip+4": "0000","phone": "4024661404"}
{"name": "PAC N SAVE DISCOUNT PHARMACY","address1": "1519 W HWY 34","address2": "STE 1","city": "SEWARD","state": "NE","zip": "68434","zip+4": "0000","phone": "4026432918"}
{"name": "IMMANUALHOSPITAL PHARMACY","address1": "6901 N 72ND ST","address2": "","city": "OMAHA","state": "NE","zip": "68122","zip+4": "1799","phone": "4025722300"}
{"name": "VERDIGRE PHARMACY","address1": "403 JAMES ST","address2": "","city": "VERDIGRE","state": "NE","zip": "68783","zip+4": "0000","phone": "4026682218"}
{"name": "SHOPKO PHARMACY #48","address1": "2005 KRENZIEN DR","address2": "","city": "NORFOLK","state": "NE","zip": "68701","zip+4": "4601","phone": "4023794380"}
{"name": "SHOPKO PHARMACY #44","address1": "3020 S 84TH ST","address2": "","city": "OMAHA","state": "NE","zip": "68124","zip+4": "3215","phone": "4023916299"}
{"name": "WAL-MART PHARMACY #100645","address1": "2400 PASEWALK AVE","address2": "","city": "NORFOLK","state": "NE","zip": "68701","zip+4": "0000","phone": "4023716232"}
{"name": "SHOPKO PHARMACY #45","address1": "601 GALVIN RD S","address2": "","city": "BELLEVUE","state": "NE","zip": "68005","zip+4": "2249","phone": "4022931845"}
{"name": "SHOPKO PHARMACY #46","address1": "5646 N 90TH ST","address2": "","city": "OMAHA","state": "NE","zip": "68134","zip+4": "1808","phone": "4025721662"}
{"name": "SHOPKO PHARMACY #47","address1": "100 S 66TH ST","address2": "","city": "LINCOLN","state": "NE","zip": "68510","zip+4": "2301","phone": "4024897148"}
{"name": "CHARLIES U SAVE PHARMACY","address1": "2029 LINCOLN AVE","address2": "","city": "YORK","state": "NE","zip": "68467","zip+4": "1025","phone": "4023624429"}
{"name": "WALGREEN DRUG STORE #3716","address1": "2ND AVE AND HIGHWAY 30","address2": "","city": "KEARNEY","state": "NE","zip": "68847","zip+4": "0000","phone": "3082346631"}
{"name": "WAL-MART PHARMACY #100637","address1": "200 FRONTIER STREET","address2": "","city": "LEXINGTON","state": "NE","zip": "68850","zip+4": "0000","phone": "3083247437"}
{"name": "WAL-MART PHARMACY #100776","address1": "3010 E 23RD AVE N","address2": "","city": "FREMONT","state": "NE","zip": "68025","zip+4": "0000","phone": "4027278772"}
{"name": "WAL-MART PHARMACY #100774","address1": "818 EAST 23RD ST.","address2": "","city": "COLUMBUS","state": "NE","zip": "68601","zip+4": "0000","phone": "4025634571"}
{"name": "SA RX HINKY DINKY PHARMACY","address1": "2145 S 17TH ST","address2": "","city": "LINCOLN","state": "NE","zip": "68502","zip+4": "3711","phone": "4024351090"}
{"name": "WALGREEN DRUG STORE #1430","address1": "1701 SOUTH","address2": "","city": "LINCOLN","state": "NE","zip": "68502","zip+4": "0000","phone": "4024352135"}
{"name": "WALGREEN DRUG STORE #12115","address1": "2320 23RD AVE","address2": "","city": "COLUMBUS","state": "NE","zip": "68601","zip+4": "0000","phone": "4025633586"}
{"name": "SHOPKO PHARMACY #53","address1": "510 E PHILIP AVE","address2": "","city": "NORTH PLATTE","state": "NE","zip": "69101","zip+4": "5538","phone": "3085347353"}
{"name": "WAL-MART PHARMACY #100790","address1": "1902 WEST B","address2": "","city": "MCCOOK","state": "NE","zip": "69001","zip+4": "0000","phone": "3083457024"}
{"name": "WESTFIELD PHARMACY","address1": "1845 WEST A ST","address2": "","city": "NORTH PLATTE","state": "NE","zip": "69101","zip+4": "0000","phone": "3085325539"}
{"name": "HY VEE PHARMACY 4 #1388","address1": "6001 VILLAGE DRIVE","address2": "","city": "LINCOLN","state": "NE","zip": "68516","zip+4": "0000","phone": "4024211040"}
{"name": "SHOPKO PHARMACY #56","address1": "14445 W CENTER RD","address2": "","city": "OMAHA","state": "NE","zip": "68144","zip+4": "5401","phone": "4023336930"}
{"name": "ARAPAHOE PHARMACY","address1": "507 NEBRASKA AVE","address2": "","city": "ARAPAHOE","state": "NE","zip": "68922","zip+4": "0000","phone": "3089627895"}
{"name": "E STREET DISCOUNT PHCY","address1": "470 E ST","address2": "","city": "DAVID CITY","state": "NE","zip": "68632","zip+4": "1637","phone": "4023673122"}
{"name": "WALGREEN DRUG STORE #4974","address1": "5038 CENTER ST","address2": "","city": "OMAHA","state": "NE","zip": "68106","zip+4": "0000","phone": "4025516040"}
{"name": "WAL-MART PHARMACY #100867","address1": "3322 AVENUE","address2": "","city": "SCOTTS BLUFF","state": "NE","zip": "69361","zip+4": "0000","phone": "3086323767"}
{"name": "WAL-MART PHARMACY #100885","address1": "1326 280TH ROAD","address2": "","city": "SEWARD","state": "NE","zip": "68434","zip+4": "0000","phone": "4026436611"}
{"name": "WAL-MART PHARMACY #100598","address1": "5411 N. SECOND AVENUE","address2": "","city": "KEARNEY","state": "NE","zip": "68847","zip+4": "0000","phone": "3082346681"}
{"name": "DELANEY PHARMACY","address1": "312 BROADWAY","address2": "","city": "FULLERTON","state": "NE","zip": "68638","zip+4": "0000","phone": "3085362641"}
{"name": "HAEBERLE'S GRAND CENTRAL PHARM","address1": "7 W 25TH ST","address2": "","city": "KEARNEY","state": "NE","zip": "68847","zip+4": "4432","phone": "3082372545"}
{"name": "MIKES U SAVE PHARMACY","address1": "1317 HILL ST","address2": "","city": "HOLDREGE","state": "NE","zip": "68949","zip+4": "0000","phone": "3089954401"}
{"name": "SPENCER PHARMACY","address1": "211 N THAYER ST","address2": "","city": "SPENCER","state": "NE","zip": "68777","zip+4": "0000","phone": "4025890062"}
{"name": "KOHLLS PHARMACY #27","address1": "1413 S WASHINGTON","address2": "","city": "PAPILLION","state": "NE","zip": "68046","zip+4": "0000","phone": "4023318632"}
{"name": "WALGREEN DRUG STORE #09899","address1": "1525 E 23 ST","address2": "","city": "FREMONT","state": "NE","zip": "68025","zip+4": "0000","phone": "4027218872"}
{"name": "WALGREEN DRUG STORE #1738","address1": "5244 S 136TH ST","address2": "","city": "OMAHA","state": "NE","zip": "68137","zip+4": "0000","phone": "4028951202"}
{"name": "ASHLAND PHARMACY INC","address1": "1401 SILVER ST","address2": "","city": "ASHLAND","state": "NE","zip": "68003","zip+4": "0000","phone": "4029443303"}
{"name": "HY VEE PHARMACY 7 #1468","address1": "3505 L STREET","address2": "","city": "OMAHA","state": "NE","zip": "68107","zip+4": "0000","phone": "4027319971"}
{"name": "BAILEY DRUG INC","address1": "260 N STATE ST","address2": "","city": "OSCEOLA","state": "NE","zip": "68651","zip+4": "0000","phone": "4027472441"}
{"name": "SUPER SAVER PHARMACY # #9","address1": "2662 CORNHUSKER HWY","address2": "","city": "LINCOLN","state": "NE","zip": "68521","zip+4": "0000","phone": "4024667775"}
{"name": "HY VEE PHARMACY 8 #1471","address1": "747 NORTH 132ND STREET","address2": "","city": "OMAHA","state": "NE","zip": "68154","zip+4": "0000","phone": "4024933110"}
{"name": "DAVID CITY DISCOUNT PHARMACY","address1": "422 5TH ST","address2": "","city": "DAVID CITY","state": "NE","zip": "68632","zip+4": "0000","phone": "4023673068"}
{"name": "WAL-MART PHARMACY #101326","address1": "2250 NO. DIERS AVE","address2": "","city": "GRAND ISLAND","state": "NE","zip": "68803","zip+4": "0000","phone": "3083810337"}
{"name": "OSMOND PHARMACY","address1": "322 STATE STREET","address2": "STATE ST","city": "OSMOND","state": "NE","zip": "68765","zip+4": "0462","phone": "4027483708"}
{"name": "PAMIDA PHARMACY #309","address1": "1300 STONE ST","address2": "","city": "FALLS CITY","state": "NE","zip": "68355","zip+4": "2657","phone": "4022455282"}
{"name": "WAL-MART PHARMACY #101332","address1": "1601 CORNHUSKERS DRIVE","address2": "","city": "SOUTH SIOUX CITY","state": "NE","zip": "68776","zip+4": "0000","phone": "4024948850"}
{"name": "WALGREEN DRUG STORE #10502","address1": "1030 W 21ST ST","address2": "","city": "S SIOUX CITY","state": "NE","zip": "68776","zip+4": "2661","phone": "4024948827"}
{"name": "MEDICINE MAN PHARMACY","address1": "715 N 132ND ST","address2": "","city": "OMAHA","state": "NE","zip": "68154","zip+4": "4000","phone": "4024969757"}
{"name": "HY VEE PHARMACY 6 #1535","address1": "9707 Q STREET","address2": "","city": "OMAHA","state": "NE","zip": "68127","zip+4": "0000","phone": "4023393054"}
{"name": "WAL-MART PHARMACY #100350","address1": "101 EAST DAVID DRIVE","address2": "","city": "YORK","state": "NE","zip": "68467","zip+4": "0000","phone": "4023622092"}
{"name": "PAMIDA PHARMACY #318","address1": "211 S 23RD ST","address2": "","city": "PLATTSMOUTH","state": "NE","zip": "68048","zip+4": "2903","phone": "4022966256"}
{"name": "OMNICARE OF NEBRASKA","address1": "10004 S 152ND ST","address2": "","city": "OMAHA","state": "NE","zip": "68138","zip+4": "3862","phone": "4028963636"}
{"name": "U SAVE PHARMACY","address1": "2220 J STREET","address2": "","city": "AUBURN","state": "NE","zip": "68305","zip+4": "0000","phone": "4022744186"}
{"name": "CURASCRIPT SP SPECIALTY PHARMA","address1": "10841 Q STREET","address2": "STE 102","city": "OMAHA","state": "NE","zip": "68137","zip+4": "0000","phone": "4023393933"}
{"name": "KMART PHARMACY #3814","address1": "4700 SECOND AVE","address2": "","city": "KEARNEY","state": "NE","zip": "68848","zip+4": "0000","phone": "3082342399"}
{"name": "WAL-MART PHARMACY #101460","address1": "3803 OSBORNE DRIVE WEST","address2": "","city": "HASTINGS","state": "NE","zip": "68901","zip+4": "0000","phone": "4024626100"}
{"name": "WAL-MART PHARMACY #101585","address1": "1401 SOUTH DEWEY ST.","address2": "","city": "NORTH PLATTE","state": "NE","zip": "69101","zip+4": "0000","phone": "3085325830"}
{"name": "SEWARD FAMILY PHARMACY","address1": "250 N COLUMBIA AVE","address2": "","city": "SEWARD","state": "NE","zip": "68434","zip+4": "0000","phone": "4026464607"}
{"name": "SONNYS PHARMACY","address1": "310 N MAIN","address2": "","city": "BRIDGEPORT","state": "NE","zip": "69336","zip+4": "0000","phone": "3082620580"}
{"name": "WAL-MART PHARMACY #101637","address1": "6304 NORTH 99TH STREET","address2": "","city": "OMAHA","state": "NE","zip": "68122","zip+4": "0000","phone": "4024929349"}
{"name": "DEINES PHARMACY","address1": "910 E COURT ST","address2": "","city": "BEATRICE","state": "NE","zip": "68310","zip+4": "0000","phone": "4022234779"}
{"name": "SKAGWAY PHARMACY #2","address1": "1607 S LOCUST ST","address2": "","city": "GRAND ISLAND","state": "NE","zip": "68801","zip+4": "0000","phone": "3083849120"}
{"name": "KENS U SAVE PHARMACY","address1": "1302 LINDEN AVE","address2": "","city": "CRETE","state": "NE","zip": "68333","zip+4": "2257","phone": "4028263784"}
{"name": "HY VEE PHARMACY 4 #1467","address1": "10808 FORT STREET","address2": "","city": "OMAHA","state": "NE","zip": "68164","zip+4": "0000","phone": "4024932323"}
{"name": "WAL-MART PHARMACY #101671","address1": "8525 S. 71ST ST. PLAZA","address2": "","city": "PAPILLION","state": "NE","zip": "68133","zip+4": "0000","phone": "4025978982"}
{"name": "RUSS PHARMACY #1","address1": "1709 WASHINGTON ST","address2": "","city": "LINCOLN","state": "NE","zip": "68502","zip+4": "0000","phone": "4024742102"}
{"name": "WESTERN DRUG OF CHAPPELL","address1": "650 2ND ST","address2": "","city": "CHAPPELL","state": "NE","zip": "69129","zip+4": "0000","phone": "3088742200"}
{"name": "WALGREEN DRUG STORE #2845","address1": "5701 VILLAGE DRIVE","address2": "","city": "LINCOLN","state": "NE","zip": "68516","zip+4": "0000","phone": "4024217116"}
{"name": "PRIEFERT PHARMACY","address1": "428 LINCOLN ST","address2": "","city": "HEBRON","state": "NE","zip": "68370","zip+4": "1526","phone": "4027686319"}
{"name": "BOBS U SAVE PHARMACY","address1": "2759 33RD AVE","address2": "","city": "COLUMBUS","state": "NE","zip": "68601","zip+4": "0000","phone": "4025642883"}
{"name": "YUNGDAHLS APOTHECARY","address1": "313 COMMERCIAL ST","address2": "","city": "STROMSBURG","state": "NE","zip": "68666","zip+4": "0774","phone": "4027642827"}
{"name": "NATIONAL PHARMACY","address1": "3306 A STREET","address2": "","city": "LINCOLN","state": "NE","zip": "68510","zip+4": "4512","phone": "4024766231"}
{"name": "WAL-MART PHARMACY #101943","address1": "4700 N 27TH STREET","address2": "","city": "LINCOLN","state": "NE","zip": "68521","zip+4": "0000","phone": "4024384381"}
{"name": "ELGIN PHARMACY","address1": "112 S SECOND ST","address2": "PO BOX 429","city": "ELGIN","state": "NE","zip": "68636","zip+4": "0000","phone": "4028435555"}
{"name": "WALGREEN DRUG STORE #5736","address1": "815 N 27TH ST","address2": "","city": "LINCOLN","state": "NE","zip": "68503","zip+4": "0000","phone": "4024355050"}
{"name": "TOMS REXALL DRUG","address1": "124 N MAIN ST","address2": "","city": "WEST POINT","state": "NE","zip": "68788","zip+4": "1498","phone": "4023722108"}
{"name": "ST FRANCES MEDICAL CTR PHCY","address1": "2620 W FAIDLEY AVE","address2": "","city": "GRAND ISLAND","state": "NE","zip": "68803","zip+4": "0000","phone": "3083895569"}
{"name": "HY VEE PHARMACY 2 #1466","address1": "3405 OAK VIEW DRIVE","address2": "","city": "OMAHA","state": "NE","zip": "68144","zip+4": "0000","phone": "4026970928"}
{"name": "WAL-MART PHARMACY #100418","address1": "2831 HWY 15","address2": "","city": "FAIRBURY","state": "NE","zip": "68352","zip+4": "0000","phone": "4027293755"}
{"name": "CAMPBELL DRUG","address1": "311 MAIN ST","address2": "","city": "OSHKOSH","state": "NE","zip": "69154","zip+4": "0000","phone": "3087723333"}
{"name": "TARGET PHARMACY #2383","address1": "12500 K PLAZA","address2": "","city": "OMAHA","state": "NE","zip": "68137","zip+4": "2207","phone": "4022012660"}
{"name": "WALGREEN DRUG STORE #3186","address1": "3701 NORTH 132ND ST","address2": "","city": "OMAHA","state": "NE","zip": "68164","zip+4": "0000","phone": "4024310651"}
{"name": "TARGET PHARMACY #0530","address1": "4001 NORTH 132ND ST","address2": "","city": "OMAHA","state": "NE","zip": "68164","zip+4": "0000","phone": "4024319161"}
{"name": "WALGREEN DRUG STORE #3202","address1": "7202 NORTH 30TH ST","address2": "","city": "OMAHA","state": "NE","zip": "68112","zip+4": "0000","phone": "4024575612"}
{"name": "CORAM SPECIALTY INFUSION SERVI","address1": "2324 36 S 156TH CIRCLE","address2": "","city": "OMAHA","state": "NE","zip": "68130","zip+4": "0000","phone": "4023305482"}
{"name": "NEBRASKA MED CTR SUMMIT PLAZA","address1": "3604 SUMMIT PLAZA DR","address2": "","city": "BELLEVUE","state": "NE","zip": "68123","zip+4": "0000","phone": "4025951156"}
{"name": "PAMIDA PHARMACY #350","address1": "150 S 1ST ST","address2": "","city": "BLAIR","state": "NE","zip": "68008","zip+4": "2540","phone": "4024269189"}
{"name": "PAMIDA PHARMACY #351","address1": "100 TEXAS TRAIL DR","address2": "","city": "OGALLALA","state": "NE","zip": "69153","zip+4": "3035","phone": "3082848111"}
{"name": "TARGET PHARMACY #0532","address1": "718 NORTH WASHINGTON","address2": "","city": "PAPILLION","state": "NE","zip": "68046","zip+4": "0000","phone": "4025979499"}
{"name": "U SAVE PHARMACY","address1": "3224 W 13TH ST","address2": "","city": "GRAND ISLAND","state": "NE","zip": "68803","zip+4": "0000","phone": "3083849010"}
{"name": "TARGET PHARMACY #2125","address1": "7200 DODGE ST","address2": "","city": "OMAHA","state": "NE","zip": "68114","zip+4": "0000","phone": "4023908881"}
{"name": "ALEGENT HEALTH LAKESIDE PHARMA","address1": "16909 LAKESIDE HILLS CT","address2": "STE 107","city": "OMAHA","state": "NE","zip": "68130","zip+4": "2325","phone": "4027585006"}
{"name": "HY VEE PHARMACY 3 #1387","address1": "5020 N 27TH STREET","address2": "","city": "LINCOLN","state": "NE","zip": "68521","zip+4": "0000","phone": "4024775099"}
{"name": "ELMWOOD PHARMACY","address1": "808 SO 52ND","address2": "","city": "OMAHA","state": "NE","zip": "68106","zip+4": "0000","phone": "4025515200"}
{"name": "MCKINNEYS PHARMACY","address1": "215 ENTERPRISE DR","address2": "","city": "GRETNA","state": "NE","zip": "68028","zip+4": "0688","phone": "4023325167"}
{"name": "SUN MART PHARMACY #025","address1": "1340 WEST O STREET","address2": "","city": "LINCOLN","state": "NE","zip": "68528","zip+4": "0000","phone": "4024769833"}
{"name": "DIABETES SUPPLY CENTER OF THE","address1": "2910 S 84TH ST","address2": "","city": "OMAHA","state": "NE","zip": "68124","zip+4": "0000","phone": "4023998444"}
{"name": "HY VEE PHARMACY #1460","address1": "120 E NORFOLK","address2": "","city": "NORFOLK","state": "NE","zip": "68701","zip+4": "0000","phone": "4023710610"}
{"name": "HY VEE PHARMACY 2 #1461","address1": "2107 TAYLOR AVENUE","address2": "","city": "NORFOLK","state": "NE","zip": "68701","zip+4": "0000","phone": "4023711300"}
{"name": "HY VEE PHARMACY 5 #1470","address1": "7910 CASS STREET","address2": "","city": "OMAHA","state": "NE","zip": "68114","zip+4": "0000","phone": "4023848767"}
{"name": "RUSS'S PHARMACY #16","address1": "4400 SOUTH 33RD STREET COURT","address2": "","city": "LINCOLN","state": "NE","zip": "68516","zip+4": "0000","phone": "4024211333"}
{"name": "HEALTH MART PHARMACY #1510","address1": "1510 HARLAN DR","address2": "","city": "BELLEVUE","state": "NE","zip": "68005","zip+4": "0000","phone": "4026571793"}
{"name": "GOOD LIFE LONG TERM CARE","address1": "127 S 16TH ST","address2": "","city": "ORD","state": "NE","zip": "68862","zip+4": "0000","phone": "3087283295"}
{"name": "GOOD LIFE PHARMACY","address1": "727 O ST","address2": "","city": "LOUP CITY","state": "NE","zip": "68853","zip+4": "0000","phone": "3087451614"}
{"name": "WAL-MART PHARMACY #102579","address1": "510 LINDEN STREET","address2": "","city": "CHADRON","state": "NE","zip": "69337","zip+4": "0000","phone": "3084326995"}
{"name": "TOOLEY DRUG INC CLINICAL PHARM","address1": "4508 38TH ST","address2": "STE 160","city": "COLUMBUS","state": "NE","zip": "68601","zip+4": "0000","phone": "4025628627"}
{"name": "RUSS'S PHARMACY # #15","address1": "2840 S 70TH ST","address2": "","city": "LINCOLN","state": "NE","zip": "68506","zip+4": "0000","phone": "4024896085"}
{"name": "BENKELMAN PHARMACY","address1": "509 S CHIEF","address2": "","city": "BENKELMAN","state": "NE","zip": "69021","zip+4": "0000","phone": "3084232759"}
{"name": "HEALTH MART PHARMACY #8005","address1": "8005 BLONDO ST","address2": "","city": "OMAHA","state": "NE","zip": "68134","zip+4": "0000","phone": "4026571793"}
{"name": "HY VEE DRUGSTORE #7062","address1": "8404 N 30TH STREET","address2": "","city": "OMAHA","state": "NE","zip": "68112","zip+4": "0000","phone": "4024518842"}
{"name": "PAMIDA PHARMACY #372","address1": "312 FLACK AVE","address2": "","city": "ALLIANCE","state": "NE","zip": "69301","zip+4": "3542","phone": "3087624451"}
{"name": "AMBER PHARMACY","address1": "10004 S 152ND ST","address2": "STE A","city": "OMAHA","state": "NE","zip": "68138","zip+4": "0000","phone": "4028965000"}
{"name": "PAMIDA PHARMACY #376","address1": "1738 S 11TH ST","address2": "","city": "NEBRASKA CITY","state": "NE","zip": "68410","zip+4": "3471","phone": "4028735565"}
{"name": "HY VEE PHARMACY 5 #1390","address1": "7151 STACY LANE","address2": "","city": "LINCOLN","state": "NE","zip": "68516","zip+4": "0000","phone": "4024890588"}
{"name": "FAMCARE PHARMACY","address1": "450 E 23RD ST","address2": "","city": "FREMONT","state": "NE","zip": "68025","zip+4": "2303","phone": "4027273820"}
{"name": "WALGREEN DRUG STORE #4531","address1": "1300 NORFOLK AVE","address2": "","city": "NORFOLK","state": "NE","zip": "68701","zip+4": "0000","phone": "4023718055"}
{"name": "SAFEWAY #0557","address1": "611 N SPRUCE ST","address2": "","city": "OGALLALA","state": "NE","zip": "69153","zip+4": "0000","phone": "3082843670"}
{"name": "QUANTUM MED PHARMACY","address1": "3744 S 132ND ST","address2": "","city": "OMAHA","state": "NE","zip": "68144","zip+4": "0000","phone": "4023394036"}
{"name": "WALGREEN DRUG STORE #4772","address1": "3005 LAKE ST","address2": "","city": "OMAHA","state": "NE","zip": "68110","zip+4": "0000","phone": "4024517120"}
{"name": "SUPER SAVERS PHARMACY #18","address1": "3318 23RD ST","address2": "","city": "COLUMBUS","state": "NE","zip": "68601","zip+4": "0000","phone": "4025633349"}
{"name": "SAFEWAY #2555","address1": "1930 ILLINOIS ST","address2": "","city": "SIDNEY","state": "NE","zip": "69162","zip+4": "0000","phone": "3082544531"}
{"name": "NATIONAL LTC PHARMACY SERVICES","address1": "6891 6891 A STREET","address2": "STE 105","city": "LINCOLN","state": "NE","zip": "68510","zip+4": "0000","phone": "4024898676"}
{"name": "LOUDERBACK DRUG","address1": "201 S MAIN ST","address2": "","city": "MADISON","state": "NE","zip": "68748","zip+4": "0000","phone": "4024542525"}
{"name": "HY VEE PHARMACY 3 #1469","address1": "8809 W CENTER ROAD","address2": "","city": "OMAHA","state": "NE","zip": "68124","zip+4": "0000","phone": "4023849085"}
{"name": "WALGREEN DRUG STORE #4753","address1": "1404 SUPERIOR","address2": "","city": "LINCOLN","state": "NE","zip": "68521","zip+4": "0000","phone": "4024772121"}
{"name": "ALEGENT HEALTH BELLEVUE HEALTH","address1": "3308 SAMSON WAY","address2": "STE 106","city": "BELLEVUE","state": "NE","zip": "68123","zip+4": "0000","phone": "4022915076"}
{"name": "ALEGENT HEALTH PAPILLION PHARM","address1": "11109 S 84TH ST STE 1841","address2": "","city": "PAPILLION","state": "NE","zip": "68046","zip+4": "0000","phone": "4028274200"}
{"name": "HY VEE PHARMACY #1078","address1": "2268 33RD AVENUE","address2": "","city": "COLUMBUS","state": "NE","zip": "68601","zip+4": "0000","phone": "4025627668"}
{"name": "SUPER SAVER PHARMACY #17","address1": "2525 PINE LAKE ROAD","address2": "","city": "LINCOLN","state": "NE","zip": "68512","zip+4": "0000","phone": "4024208268"}
{"name": "ALEGENT HEALTH PHARMACY FLOREN","address1": "8613 N 30TH ST","address2": "","city": "OMAHA","state": "NE","zip": "68112","zip+4": "0000","phone": "4024512125"}
{"name": "WAL-MART PHARMACY #102784","address1": "3620 NORTH 6TH STREET","address2": "","city": "BEATRICE","state": "NE","zip": "68310","zip+4": "0000","phone": "4022284594"}
{"name": "HEALTH MART PHARMACY #238","address1": "238 S 8TH ST","address2": "","city": "BLAIR","state": "NE","zip": "68008","zip+4": "0000","phone": "4026571793"}
{"name": "WALGREEN DRUG STORE #5360","address1": "5062 S 155TH ST","address2": "","city": "OMAHA","state": "NE","zip": "68137","zip+4": "0000","phone": "4028616999"}
{"name": "WALGREEN DRUG STORE #5190","address1": "2323 L STREET","address2": "","city": "OMAHA","state": "NE","zip": "68107","zip+4": "1847","phone": "4027388051"}
{"name": "SHOPKO PHARMACY #172","address1": "3400 N 27TH ST","address2": "","city": "LINCOLN","state": "NE","zip": "68521","zip+4": "1314","phone": "4024655588"}
{"name": "SAFEWAY #2563","address1": "230 MOREHEAD STREET","address2": "","city": "CHADRON","state": "NE","zip": "69337","zip+4": "0000","phone": "3084322070"}
{"name": "SHOPKO PHARMACY #175","address1": "6845 S 27TH ST","address2": "","city": "LINCOLN","state": "NE","zip": "68512","zip+4": "4823","phone": "4024201199"}
{"name": "WALGREEN DRUG STORE #5874","address1": "2630 PINE LAKE RD","address2": "","city": "LINCOLN","state": "NE","zip": "68512","zip+4": "0000","phone": "4024211155"}
{"name": "WALGREEN DRUG STORE #5059","address1": "10725 FORT ST","address2": "","city": "OMAHA","state": "NE","zip": "68134","zip+4": "0000","phone": "4024964355"}
{"name": "WALGREEN DRUG STORE #5966","address1": "2605 S 171ST ST","address2": "","city": "OMAHA","state": "NE","zip": "68130","zip+4": "0000","phone": "4026970316"}
{"name": "PAMIDA PHARMACY #836","address1": "2410 DAHLKE AVE","address2": "","city": "AUBURN","state": "NE","zip": "68305","zip+4": "3025","phone": "4022742434"}
{"name": "WAL-MART PHARMACY #102847","address1": "10504 SOUTH 15TH STREET","address2": "","city": "BELLEVUE","state": "NE","zip": "68123","zip+4": "0000","phone": "402292463"}
{"name": "TARGET PHARMACY #1777","address1": "17810 WEST CENTER","address2": "","city": "OMAHA","state": "NE","zip": "68130","zip+4": "0000","phone": "4026974876"}
{"name": "BAKERS PHARMACY #615311","address1": "5555 N 90TH ST","address2": "","city": "OMAHA","state": "NE","zip": "68134","zip+4": "0000","phone": "4025730947"}
{"name": "BAKERS PHARMACY #615312","address1": "5222 S 136TH ST","address2": "","city": "OMAHA","state": "NE","zip": "68137","zip+4": "0000","phone": "4028950670"}
{"name": "BAKERS PHARMACY #615315","address1": "13250 W MAPLE RD","address2": "","city": "OMAHA","state": "NE","zip": "68164","zip+4": "0000","phone": "4029658339"}
{"name": "BAKERS PHARMACY #615316","address1": "7312 N 30TH ST","address2": "","city": "OMAHA","state": "NE","zip": "68112","zip+4": "0000","phone": "4024513980"}
{"name": "BAKERS PHARMACY #615319","address1": "888 SADDLECREEK RD","address2": "","city": "OMAHA","state": "NE","zip": "68106","zip+4": "0000","phone": "4025565600"}
{"name": "BAKERS PHARMACY #615320","address1": "17370 LAKESIDE HILLS PLAZA","address2": "","city": "OMAHA","state": "NE","zip": "68130","zip+4": "0000","phone": "4023335351"}
{"name": "BAKERS PHARMACY #615321","address1": "505 N 155TH PLAZA","address2": "","city": "OMAHA","state": "NE","zip": "68154","zip+4": "0000","phone": "4029640888"}
{"name": "BAKERS PHARMACY #615323","address1": "1531 N BELL ST","address2": "","city": "FREMONT","state": "NE","zip": "68025","zip+4": "0000","phone": "4027271995"}
{"name": "WAL-MART PHARMACY #103267","address1": "18201 WRIGHT ST.","address2": "","city": "OMAHA","state": "NE","zip": "68130","zip+4": "0000","phone": "4023303650"}
{"name": "MILFORD VALU RITE PHARMACY","address1": "610 1ST ST","address2": "","city": "MILFORD","state": "NE","zip": "68405","zip+4": "0000","phone": "4027612222"}
{"name": "GOOD LIFE PHARMACY","address1": "124 S 4TH ST","address2": "","city": "ALBION","state": "NE","zip": "68620","zip+4": "0000","phone": "4023953353"}
{"name": "PAMIDA PHARMACY #202","address1": "930 MAIN AVE","address2": "","city": "CRETE","state": "NE","zip": "68333","zip+4": "2254","phone": "4028262996"}
{"name": "SAMS PHARMACY #106413","address1": "4900 NORTH 27TH STREET","address2": "","city": "LINCOLN","state": "NE","zip": "68521","zip+4": "0000","phone": "4024383015"}
{"name": "HY VEE PHARMACY #1620","address1": "2501 CORNHUSKER PLAZA","address2": "","city": "SOUTH SIOUX CITY","state": "NE","zip": "68776","zip+4": "0000","phone": "4024943021"}
{"name": "RUSS'S PHARMACY # #21","address1": "1550 S CODDINGTON","address2": "","city": "LINCOLN","state": "NE","zip": "68522","zip+4": "0000","phone": "4024358241"}
{"name": "BAKERS PHARMACY #615318","address1": "801 GALVIN RD","address2": "","city": "BELLEVUE","state": "NE","zip": "68005","zip+4": "0000","phone": "4022920331"}
{"name": "PAMIDA PHARMACY #238","address1": "518 S LINCOLN AVE","address2": "","city": "YORK","state": "NE","zip": "68467","zip+4": "4212","phone": "4023624131"}
{"name": "WALGREEN DRUG STORE #6884","address1": "4000 S 70TH ST","address2": "","city": "LINCOLN","state": "NE","zip": "68506","zip+4": "0000","phone": "4024899992"}
{"name": "BARR PHARMACY","address1": "1651 WASHINGTON ST","address2": "","city": "BLAIR","state": "NE","zip": "68008","zip+4": "0000","phone": "4024262187"}
{"name": "MARKS PHARMACY CAMBRIDGE","address1": "624 PATTERSON ST","address2": "","city": "CAMBRIDGE","state": "NE","zip": "69022","zip+4": "0017","phone": "3086973400"}
{"name": "VALLEY LONG TERM CARE PHARMACY","address1": "123 E GARDINER ST","address2": "","city": "VALLEY","state": "NE","zip": "68064","zip+4": "0000","phone": "4023592284"}
{"name": "HEARTLAND LTC PHARMACY SERVICE","address1": "11028 Q STREET","address2": "","city": "OMAHA","state": "NE","zip": "68510","zip+4": "0000","phone": "4023312661"}
{"name": "TARGET PHARMACY #0217","address1": "333 NORTH 48TH STREET","address2": "","city": "LINCOLN","state": "NE","zip": "68504","zip+4": "0000","phone": "4024648066"}
{"name": "WALGREEN DRUG STORE #5741","address1": "3001 DODGE ST","address2": "","city": "OMAHA","state": "NE","zip": "68131","zip+4": "0000","phone": "4023424445"}
{"name": "HOPE PHARMACY","address1": "4920 S 30TH ST","address2": "STE 105","city": "OMAHA","state": "NE","zip": "68107","zip+4": "0000","phone": "4025025832"}
{"name": "TARGET PHARMACY #1537","address1": "3808 TWIN CREEK DRIVE","address2": "","city": "BELLEVUE","state": "NE","zip": "68123","zip+4": "0000","phone": "4022916779"}
{"name": "WALGREEN DRUG STORE #7383","address1": "205 W 27TH ST","address2": "","city": "SCOTTSBLUFF","state": "NE","zip": "69361","zip+4": "0000","phone": "3086352192"}
{"name": "WALGREEN DRUG STORE #7563","address1": "8989 W DODGE RD","address2": "","city": "OMAHA","state": "NE","zip": "68114","zip+4": "0000","phone": "4023937799"}
{"name": "WAL-MART PHARMACY #103278","address1": "8700 ANDERMATT DRIVE","address2": "","city": "LINCOLN","state": "NE","zip": "68526","zip+4": "0000","phone": "4024846342"}
{"name": "WALGREEN DRUG STORE #6802","address1": "15525 SPAULDING PLAZA","address2": "","city": "OMAHA","state": "NE","zip": "68116","zip+4": "0000","phone": "4024081075"}
{"name": "PAMIDA PHARMACY #155","address1": "HWY 8 E AND NOREN ST","address2": "","city": "SUPERIOR","state": "NE","zip": "68978","zip+4": "0006","phone": "4028794811"}
{"name": "PAMIDA PHARMACY #165","address1": "615 DEARBORN ST","address2": "","city": "WAYNE","state": "NE","zip": "68787","zip+4": "2244","phone": "4023752079"}
{"name": "SUPER SAVER PHARMACY # #4","address1": "233 N 48TH ST","address2": "","city": "LINCOLN","state": "NE","zip": "68504","zip+4": "0000","phone": "4024648822"}
{"name": "HY VEE PHARMACY 9 #1472","address1": "17810 WELCH PLAZA","address2": "","city": "OMAHA","state": "NE","zip": "68135","zip+4": "0000","phone": "4028910600"}
{"name": "MEDICAP PHARMACY #8342","address1": "2706 2ND AVE","address2": "STE A","city": "KEARNEY","state": "NE","zip": "68845","zip+4": "0000","phone": "3082348056"}
{"name": "RUFFNER PHARMACY","address1": "506 CHICAGO AVE","address2": "","city": "PLATTSMOUTH","state": "NE","zip": "68048","zip+4": "0000","phone": "4022966900"}
{"name": "WAL-MART PHARMACY #105170","address1": "3001 SILVERBERG DRIVE","address2": "","city": "SIDNEY","state": "NE","zip": "69162","zip+4": "0000","phone": "3082549149"}
{"name": "ROCK COUNTY CLINIC PHARMACY","address1": "801 S STATE ST","address2": "","city": "BASSETT","state": "NE","zip": "68714","zip+4": "0000","phone": "4026842906"}
{"name": "GRETNA DRUG","address1": "820 VILLAGE SQUARE","address2": "","city": "GRETNA","state": "NE","zip": "68028","zip+4": "0000","phone": "4023325990"}
{"name": "MILLER PHARMACY SPECIALTIES","address1": "1900 E MILITARY","address2": "STE 216","city": "FREMONT","state": "NE","zip": "68025","zip+4": "0000","phone": "4027211177"}
{"name": "SAMS PHARMACY #108146","address1": "13130 L STREET","address2": "","city": "OMAHA","state": "NE","zip": "68137","zip+4": "0000","phone": "4023343496"}
{"name": "WAL-MART PHARMACY #105361","address1": "12850 L STREET","address2": "","city": "OMAHA","state": "NE","zip": "68137","zip+4": "0000","phone": "4026971742"}
{"name": "HEALTH MART PHARMACY #14444","address1": "14444 W CENTER RD","address2": "","city": "OMAHA","state": "NE","zip": "68144","zip+4": "3217","phone": "4023341036"}
{"name": "HEALTH MART PHARMACY #820","address1": "820 N SADDLE CREEK RD","address2": "","city": "OMAHA","state": "NE","zip": "68132","zip+4": "2520","phone": "4025569313"}
{"name": "U-SAVE PHARMACY #511","address1": "5011 S 108TH ST","address2": "","city": "OMAHA","state": "NE","zip": "68137","zip+4": "0000","phone": "4029333311"}
{"name": "U SAVE PHARMACY MAPLE","address1": "3003 N 108TH ST","address2": "","city": "OMAHA","state": "NE","zip": "68164","zip+4": "3759","phone": "4024933952"}
{"name": "HY VEE PHARMACY #1185","address1": "840 EAST 23RD STREET","address2": "","city": "FREMONT","state": "NE","zip": "68025","zip+4": "0000","phone": "4027532460"}
{"name": "BAKERS PHARMACY #615301","address1": "4405 N 72ND ST","address2": "","city": "OMAHA","state": "NE","zip": "68134","zip+4": "0000","phone": "4025713122"}
{"name": "BAKERS PHARMACY #615302","address1": "12025 W CENTER RD","address2": "","city": "OMAHA","state": "NE","zip": "68144","zip+4": "0000","phone": "4023336500"}
{"name": "BAKERS PHARMACY #615300","address1": "3614 TWIN CREEK DR","address2": "","city": "BELLEVUE","state": "NE","zip": "68123","zip+4": "0000","phone": "4022923580"}
{"name": "NEBRASKA LONG TERM CARE LLC","address1": "910 COURT ST","address2": "STE D","city": "BEATRICE","state": "NE","zip": "68310","zip+4": "0000","phone": "4022234779"}
{"name": "WALGREEN DRUG STORE #2472","address1": "18040 R PLAZA","address2": "","city": "OMAHA","state": "NE","zip": "68135","zip+4": "0000","phone": "4024082339"}
{"name": "PAMIDA PHARMACY #237","address1": "404 E HWY 20","address2": "","city": "ONEILL","state": "NE","zip": "68763","zip+4": "0000","phone": "4023362000"}
{"name": "MEDICAP #8364","address1": "2555 KENSINGTON DRIVE","address2": "","city": "LINCOLN","state": "NE","zip": "68521","zip+4": "0000","phone": "4024354800"}
{"name": "NEIN PHARMACY","address1": "1013 MAIN ST","address2": "","city": "BRIDGEPORT","state": "NE","zip": "69336","zip+4": "0000","phone": "3082621070"}
{"name": "HY VEE PHARMACY 10 #1474","address1": "3410 NORTH 156TH STREET","address2": "","city": "OMAHA","state": "NE","zip": "68116","zip+4": "0000","phone": "4024456109"}
{"name": "WALGREEN DRUG STORE #1162","address1": "8300 NORTHERN LIGHTS DR","address2": "","city": "LINCOLN","state": "NE","zip": "68505","zip+4": "0000","phone": "4024648300"}
{"name": "PAMIDA PHARMACY #81","address1": "1533 BURLINGTON ST","address2": "","city": "HOLDREGE","state": "NE","zip": "68949","zip+4": "1309","phone": "3089952075"}
{"name": "PAMIDA PHARMACY #179","address1": "123 N 24TH ST","address2": "","city": "BEATRICE","state": "NE","zip": "68310","zip+4": "3426","phone": "4022232240"}
{"name": "PAMIDA PHARMACY #233","address1": "2353 SOUTH E","address2": "","city": "BROKEN BOW","state": "NE","zip": "68822","zip+4": "0000","phone": "3088726818"}
{"name": "PAMIDA PHARMACY #234","address1": "500 W PLAZA DR","address2": "","city": "WEST POINT","state": "NE","zip": "68788","zip+4": "1835","phone": "4023725655"}
{"name": "U SAVE PHARMACY","address1": "16869 AUDREY ST","address2": "","city": "OMAHA","state": "NE","zip": "68136","zip+4": "0000","phone": "4029342744"}
{"name": "VARNEY HEALTH MART","address1": "744 SOUTH E ST","address2": "","city": "BROKEN BOW","state": "NE","zip": "68822","zip+4": "0070","phone": "3088722321"}
{"name": "WAL-MART PHARMACY #103395","address1": "3501 SOUTH LOCUST STREET","address2": "","city": "GRAND ISLAND","state": "NE","zip": "68801","zip+4": "0000","phone": "3083815859"}
{"name": "CROSIER PARK PHARMACY","address1": "405 EAST 14TH STREET","address2": "","city": "HASTINGS","state": "NE","zip": "68901","zip+4": "0000","phone": "4024624600"}
{"name": "WAL-MART PHARMACY #105141","address1": "16960 WEST MAPLE ROAD","address2": "","city": "OMAHA","state": "NE","zip": "68116","zip+4": "0000","phone": "4022899276"}
{"name": "MIDWEST LTC PHARMACY","address1": "3003 FRONTAGE ROAD","address2": "STE 2","city": "GRAND ISLAND","state": "NE","zip": "68803","zip+4": "0000","phone": "3083980538"}
{"name": "U SAVE PHCY NORFOLK PHARMACY","address1": "1001 W BENJAMIN AVE","address2": "","city": "NORFOLK","state": "NE","zip": "68701","zip+4": "0000","phone": "4023798728"}
{"name": "CVS PHARMACY #08626","address1": "130 B N 66TH ST","address2": "","city": "LINCOLN","state": "NE","zip": "68505","zip+4": "0000","phone": "4024675342"}
{"name": "CVS PHARMACY #08616","address1": "5500 SOUTH 56TH ST","address2": "","city": "LINCOLN","state": "NE","zip": "68516","zip+4": "0000","phone": "4024233839"}
{"name": "CVS PHARMACY #08615","address1": "1401 SUPERIOR STREET","address2": "","city": "LINCOLN","state": "NE","zip": "68521","zip+4": "0000","phone": "4024779200"}
{"name": "CVS PHARMACY #08610","address1": "2711 S 48TH STREET","address2": "","city": "LINCOLN","state": "NE","zip": "68506","zip+4": "0000","phone": "4024845777"}
{"name": "TARGET PHARMACY #2010","address1": "6636 N 73RD PLAZA","address2": "","city": "OMAHA","state": "NE","zip": "68122","zip+4": "0000","phone": "4025732221"}
{"name": "LINCOLN NEIGHBORHOOD PHARMACY","address1": "6811 O ST","address2": "","city": "LINCOLN","state": "NE","zip": "68510","zip+4": "0000","phone": "4024641150"}
{"name": "TARGET PHARMACY #0857","address1": "4800 3ROAD AVE","address2": "","city": "KEARNEY","state": "NE","zip": "68845","zip+4": "0000","phone": "3082372002"}
{"name": "WALGREEN DRUG STORE #10437","address1": "5225 N 90TH ST","address2": "","city": "OMAHA","state": "NE","zip": "68134","zip+4": "0000","phone": "9103250038"}
{"name": "KUBAT PHARMACY","address1": "2401 N ST","address2": "","city": "OMAHA","state": "NE","zip": "68107","zip+4": "0000","phone": "4027314333"}
{"name": "MEDWELL RX","address1": "11134 Q ST","address2": "","city": "OMAHA","state": "NE","zip": "68137","zip+4": "0000","phone": "4025925244"}
{"name": "WALGREEN DRUG STORE #10408","address1": "4811 O ST","address2": "","city": "LINCOLN","state": "NE","zip": "68528","zip+4": "9143","phone": "4024892232"}
{"name": "WAL-MART PHARMACY #104209","address1": "2101 S. 11TH STREET","address2": "","city": "NEBRASKA CITY","state": "NE","zip": "68410","zip+4": "0000","phone": "4028749093"}
{"name": "HY VEE PHARMACY #1514","address1": "111650 S 73RD ST","address2": "","city": "PAPILLION","state": "NE","zip": "68046","zip+4": "0000","phone": "4025975056"}
{"name": "WALGREEN DRUG STORE #11089","address1": "5500 RED ROCK LN","address2": "","city": "LINCOLN","state": "NE","zip": "68516","zip+4": "6512","phone": "4024212122"}
{"name": "COMMUNITY PHARMACY SERVICES","address1": "20584 HWY 370","address2": "","city": "GRETNA","state": "NE","zip": "68028","zip+4": "0000","phone": "4022890431"}
{"name": "WAL-MART PHARMACY #104322","address1": "1800 EAST 29TH STREET","address2": "","city": "CRETE","state": "NE","zip": "68333","zip+4": "0000","phone": "4028261032"}
{"name": "TARGET PHARMACY #2303","address1": "8201 S 40TH ST","address2": "","city": "LINCOLN","state": "NE","zip": "68516","zip+4": "0000","phone": "4024203541"}
{"name": "CRAWFORD PHARMACY","address1": "312 SECOND ST","address2": "","city": "CRAWFORD","state": "NE","zip": "69339","zip+4": "0000","phone": "3086651395"}
{"name": "WALGREENS DRUG STORE #10892","address1": "533 S LINCOLN AVE","address2": "","city": "YORK","state": "NE","zip": "68467","zip+4": "4211","phone": "4023621280"}
{"name": "WALGREENS DRUG STORE #11204","address1": "20201 MANDERSON ST","address2": "","city": "OMAHA","state": "NE","zip": "68022","zip+4": "0000","phone": "4022890520"}
{"name": "TARGET PHARMACY #2326","address1": "16959 EVANS PLAZA","address2": "","city": "OMAHA","state": "NE","zip": "68116","zip+4": "0000","phone": "4029701000"}
{"name": "PAMIDA PHARMACY #656","address1": "1511 EAST 4TH","address2": "","city": "ANISWORTH","state": "NE","zip": "69210","zip+4": "0000","phone": "4023871533"}
{"name": "SUTTON PHARMACY INC","address1": "210 N SAUNDERS","address2": "","city": "SUTTON","state": "NE","zip": "68979","zip+4": "0000","phone": "4027734300"}
{"name": "WALGREEN DRUG STORE #11205","address1": "6005 N 72ND ST","address2": "","city": "OMAHA","state": "NE","zip": "68134","zip+4": "2300","phone": "4022012729"}
{"name": "COSTCO PHARMACY #1012","address1": "12300 W DODGE RD","address2": "","city": "OMAHA","state": "NE","zip": "68154","zip+4": "0000","phone": "4029523249"}
{"name": "EXTENDCARE THE PHARMACY","address1": "1221 NORTH COTNER BLVD","address2": "STE 3","city": "LINCOLN","state": "NE","zip": "68505","zip+4": "0000","phone": "4024666083"}
{"name": "PAMIDA PHARMACY #665","address1": "272 N MAIN","address2": "","city": "VALENTINE","state": "NE","zip": "69201","zip+4": "0000","phone": "4023763531"}
{"name": "URBAN CLINIC PHARMACY INC","address1": "1760 COUNTY RD J","address2": "","city": "WAHOO","state": "NE","zip": "68066","zip+4": "0000","phone": "4024431630"}
{"name": "KUBAT PHARMACY INC","address1": "350 WEST 23 STREET","address2": "","city": "FREMONT","state": "NE","zip": "68025","zip+4": "0000","phone": "4027274044"}
{"name": "HY VEE PHARMACY #1221","address1": "115 WILMAR AVE","address2": "","city": "GRAND ISLAND","state": "NE","zip": "68803","zip+4": "0000","phone": "3083810328"}
{"name": "FAMILY THRIFT CENTER #452","address1": "2817 AVE B","address2": "","city": "SCOTTSBLUFF","state": "NE","zip": "69361","zip+4": "0000","phone": "3086328605"}
{"name": "WALGREEN DRUG STORE #11203","address1": "17909 BURKE ST","address2": "","city": "OMAHA","state": "NE","zip": "68118","zip+4": "0000","phone": "4022890808"}
{"name": "AFFINITY BIOTECH INC","address1": "1810 N 203RD ST","address2": "","city": "OMAHA","state": "NE","zip": "68022","zip+4": "2885","phone": "4022890189"}
{"name": "PAMIDA PHARMACY #655","address1": "718 4TH STREET","address2": "","city": "GOTHENBURG","state": "NE","zip": "69138","zip+4": "0000","phone": "3085378780"}
{"name": "WALGREEN DRUG STORE #11957","address1": "1260 WASHINGTON ST","address2": "","city": "BLAIR","state": "NE","zip": "68008","zip+4": "0000","phone": "4025338444"}
{"name": "HY VEE PHARMACY #1385","address1": "5010 O STREET","address2": "","city": "LINCOLN","state": "NE","zip": "68510","zip+4": "0000","phone": "4024650413"}
{"name": "SOUTHEAST NEBRASKA CANCER CENT","address1": "201 S 68TH ST","address2": "","city": "LINCOLN","state": "NE","zip": "68510","zip+4": "0000","phone": "4023277340"}
{"name": "WALGREENS #11356","address1": "11343 S 96TH ST","address2": "","city": "PAPILLION","state": "NE","zip": "68046","zip+4": "4280","phone": "4024080761"}
{"name": "ROCKBROOK HEALTH MART PHAR","address1": "10913 PRAIRIE BROOK RD","address2": "","city": "OMAHA","state": "NE","zip": "68144","zip+4": "0000","phone": "4029326077"}
{"name": "WAL-MART PHARMACY #4358","address1": "1606 SOUTH 72ND STREET","address2": "","city": "OMAHA","state": "NE","zip": "68124","zip+4": "0000","phone": "4023939560"}
{"name": "WAL-MART PHARMACY #3823","address1": "3400 NORTH 85TH STREET","address2": "","city": "LINCOLN","state": "NE","zip": "68507","zip+4": "0000","phone": "4024660447"}
{"name": "U SAVE PHARMACY","address1": "20330 VETERANS DR","address2": "STE 7","city": "ELKHORN","state": "NE","zip": "68022","zip+4": "0000","phone": "4022892576"}
{"name": "SUN MART PHARMACY #765","address1": "3920 2ND AVENUE","address2": "","city": "KEARNEY","state": "NE","zip": "68847","zip+4": "2485","phone": "3082346086"}
{"name": "HILLTOP DRUGS ETC INC","address1": "108 E 11TH STREET","address2": "","city": "NELIGH","state": "NE","zip": "68756","zip+4": "0000","phone": "4028875551"}
{"name": "NO FRILLS PHARMACY #14","address1": "7402 NORTH 30TH STREET","address2": "","city": "OMAHA","state": "NE","zip": "68112","zip+4": "0000","phone": "4024081044"}
{"name": "NO FRILLS PHARMACY #18","address1": "3026 SOUTH 24TH STREET","address2": "","city": "OMAHA","state": "NE","zip": "68108","zip+4": "0000","phone": "4023418627"}
{"name": "NO FRILLS PHARMACY #8","address1": "3548 Q STREET","address2": "","city": "OMAHA","state": "NE","zip": "68107","zip+4": "0000","phone": "4027333561"}
{"name": "HEARTLAND PHARMACY AT NORTH PL","address1": "3700 W PHILLIPS AT THE ATRIUM","address2": "","city": "NORTH PLATTE","state": "NE","zip": "69101","zip+4": "0000","phone": "3085344029"}
{"name": "GENEOA COMMUNITY PHARMACY #1","address1": "508 WILLARD AVE.","address2": "","city": "GENEOA","state": "NE","zip": "68640","zip+4": "0000","phone": "4029932400"}
{"name": "WALGREENS #12538","address1": "1230 N WEBB ST","address2": "","city": "GRAND ISLAND","state": "NE","zip": "68803","zip+4": "0000","phone": "3083842626"}
{"name": "NO FRILLS PHARMACY #17","address1": "1230 N WASHINGTON ST","address2": "","city": "PAPILLION","state": "NE","zip": "68046","zip+4": "0000","phone": "4023392858"}
{"name": "NO FRILLS PHARMACY #19","address1": "4240 S 50TH STREET","address2": "","city": "OMAHA","state": "NE","zip": "68117","zip+4": "0000","phone": "4027332260"}
{"name": "WALGREENS #11355","address1": "9512 S 71ST PLAZA","address2": "","city": "PAPILLION","state": "NE","zip": "68133","zip+4": "0000","phone": "4024081086"}
{"name": "NO FRILLS PHARMACY # #21","address1": "13215 W CENTER RD","address2": "","city": "OMAHA","state": "NE","zip": "68144","zip+4": "3466","phone": "4023300270"}