{"name": "MAYS #36","address1": "6160 SOUTH YALE","address2": "","city": "TULSA","state": "OK","zip": "74136","zip+4": "0000","phone": "9184927400"}
{"name": "WALGREEN DRUG STORE #5421","address1": "1438 N LEWIS AVE","address2": "","city": "TULSA","state": "OK","zip": "74110","zip+4": "0000","phone": "9185837591"}
{"name": "T ROY BARNES DRUGRY #4","address1": "3404 S YALE AVE","address2": "","city": "TULSA","state": "OK","zip": "74135","zip+4": "8016","phone": "9187436623"}
{"name": "QUALITY CARE PHARMACY #2","address1": "3414 S YALE","address2": "STE F","city": "TULSA","state": "OK","zip": "74135","zip+4": "0000","phone": "9187494200"}
{"name": "MEDX #3","address1": "5234 NORTH PEORIA AVE","address2": "","city": "TULSA","state": "OK","zip": "74126","zip+4": "0000","phone": "9184251341"}
{"name": "MEDX #4","address1": "4423 SOUTHWEST BLVD","address2": "","city": "TULSA","state": "OK","zip": "74107","zip+4": "6472","phone": "9184463541"}
{"name": "MEDX #7","address1": "1515 NORTH HARVARD AVE","address2": "","city": "TULSA","state": "OK","zip": "74115","zip+4": "0000","phone": "9188343366"}
{"name": "DRUG WAREHOUSE #1","address1": "11331 E 31ST ST","address2": "","city": "TULSA","state": "OK","zip": "74145","zip+4": "0000","phone": "9186274142"}
{"name": "JOHNS DRUG STORE","address1": "201 E ROGERS BLVD AND A ST","address2": "","city": "SKIATOOK","state": "OK","zip": "74070","zip+4": "0000","phone": "9183961636"}
{"name": "PALACE DRUG STORE","address1": "301 N BROADWAY ST","address2": "","city": "CLEVELAND","state": "OK","zip": "74020","zip+4": "3421","phone": "9183582524"}
{"name": "KENDALL DRUG","address1": "222 E ROGERS","address2": "","city": "SKIATOOK","state": "OK","zip": "74070","zip+4": "1250","phone": "9183962411"}
{"name": "REASORS PHARMACY #9","address1": "11815 E 86TH ST N","address2": "","city": "OWASSO","state": "OK","zip": "74055","zip+4": "0000","phone": "9182723030"}
{"name": "COLLINSVILLE FAMILY PHARMACY","address1": "1205 W MAIN ST","address2": "","city": "COLLINSVILLE","state": "OK","zip": "74021","zip+4": "3114","phone": "9183712547"}
{"name": "HEALTH CENTER PHARMACY","address1": "113 E BLUE STARR DRIVE","address2": "","city": "CLAREMORE","state": "OK","zip": "74017","zip+4": "0000","phone": "9183411236"}
{"name": "BLACK DRUG","address1": "412 E MAIN ST","address2": "","city": "LOCUST GROVE","state": "OK","zip": "74352","zip+4": "0000","phone": "9184795223"}
{"name": "OSBORN DRUGS INC","address1": "11 W CENTRAL","address2": "PO BOX 31","city": "MIAMI","state": "OK","zip": "74355","zip+4": "0000","phone": "9185424444"}
{"name": "GROVE DRIVE-IN PHARMACY","address1": "1027 S MAIN","address2": "","city": "GROVE","state": "OK","zip": "74344","zip+4": "0000","phone": "9187862268"}
{"name": "PLYMOUTH DRUG COMPANY","address1": "25 SOUTH PARK","address2": "","city": "SAPULPA","state": "OK","zip": "74066","zip+4": "0000","phone": "9182243883"}
{"name": "V AND V DRUG","address1": "201 N SCRAPER ST","address2": "","city": "VINITA","state": "OK","zip": "74301","zip+4": "3209","phone": "9182562541"}
{"name": "MEDX #11","address1": "1714 UTICA SQUARE","address2": "","city": "TULSA","state": "OK","zip": "74114","zip+4": "0000","phone": "9187439968"}
{"name": "T ROY BARNES DRUGRY #5","address1": "9757 E 31ST ST","address2": "","city": "TULSA","state": "OK","zip": "74146","zip+4": "1222","phone": "9186223213"}
{"name": "SAFFA COMPOUNDING PHARMACY","address1": "8002 S SHERIDAN","address2": "","city": "TULSA","state": "OK","zip": "74133","zip+4": "8945","phone": "9184924242"}
{"name": "HENRYETTA DRUGS","address1": "623 W MAIN ST","address2": "","city": "HENRYETTA","state": "OK","zip": "74437","zip+4": "4242","phone": "9186523361"}
{"name": "WILSON PHARMACY","address1": "7128 E RENO","address2": "STE A","city": "MIDWEST CITY","state": "OK","zip": "73110","zip+4": "0000","phone": "4057373464"}
{"name": "EXCHANGE PHARMACY","address1": "2300 EXCHANGE","address2": "","city": "OKLAHOMA CITY","state": "OK","zip": "73108","zip+4": "2436","phone": "4052354242"}
{"name": "LASSITER DRUG #4","address1": "3252 SE 29TH ST","address2": "","city": "DEL CITY","state": "OK","zip": "73115","zip+4": "0000","phone": "4056770549"}
{"name": "PARKVIEW PHARMACY #434162","address1": "115 MEDICAL DR","address2": "","city": "GUYMON","state": "OK","zip": "73942","zip+4": "3698","phone": "5803387565"}
{"name": "RTS FAMILY DISCOUNT PHARMACY","address1": "310 FAIRVIEW","address2": "","city": "PONCA CITY","state": "OK","zip": "74601","zip+4": "0000","phone": "5807626335"}
{"name": "CLINIC PHARMACY","address1": "1210 N LELIA","address2": "","city": "GUYMON","state": "OK","zip": "73942","zip+4": "3640","phone": "5803383339"}
{"name": "RELIABLE DISCOUNT PHARMACY INC","address1": "5900 S PENNSYLVANIA STE A","address2": "","city": "OKLAHOMA CITY","state": "OK","zip": "73119","zip+4": "7098","phone": "4056816631"}
{"name": "BETHANY UNITED DRUG COMPANY","address1": "6736 NW 39TH EXPY","address2": "","city": "BETHANY","state": "OK","zip": "73008","zip+4": "2647","phone": "4057892126"}
{"name": "RX PRESCRIPTION SHOP #1","address1": "6517 S WESTERN AVE","address2": "","city": "OKLAHOMA CITY","state": "OK","zip": "73139","zip+4": "1705","phone": "4056341415"}
{"name": "REASORS PHARMACY #20","address1": "446 SOUTH ELM","address2": "","city": "JENKS","state": "OK","zip": "74037","zip+4": "0000","phone": "9182992684"}
{"name": "CONRAD MARR DRUG","address1": "2600 N MUSTANG RD","address2": "","city": "YUKON","state": "OK","zip": "73099","zip+4": "1801","phone": "4053542582"}
{"name": "UNITED DISCOUNT PHARMACY #2","address1": "5420 N PORTLAND","address2": "","city": "OKLAHOMA CITY","state": "OK","zip": "73112","zip+4": "2072","phone": "4059476828"}
{"name": "BARRETT DRUG CENTER","address1": "410 W EDMOND RD","address2": "","city": "EDMOND","state": "OK","zip": "73003","zip+4": "0000","phone": "4053411505"}
{"name": "NEWCASTLE DRUG COMPANY","address1": "1021 N MAIN ST","address2": "","city": "NEWCASTLE","state": "OK","zip": "73065","zip+4": "4122","phone": "4053874386"}
{"name": "CVS PHARMACY #05959","address1": "900 SW 44TH ST","address2": "","city": "OKLAHOMA CITY","state": "OK","zip": "73109","zip+4": "0000","phone": "4056821651"}
{"name": "FREELAND BROWN PHARMACY INC","address1": "4112 S PEORIA","address2": "","city": "TULSA","state": "OK","zip": "74105","zip+4": "4579","phone": "9187434491"}
{"name": "CVS PHARMACY # #06003","address1": "4026 N MACARTHUR BLVD","address2": "","city": "WARR ACRES","state": "OK","zip": "73122","zip+4": "0000","phone": "4057890101"}
{"name": "CVS PHARMACY # #06004","address1": "9401 N PENNSYLVANIA PL","address2": "","city": "THE VILLAGE","state": "OK","zip": "73120","zip+4": "0000","phone": "4057513553"}
{"name": "CVS PHARMACY # #06006","address1": "6951 SE 15TH ST","address2": "","city": "MIDWEST CITY","state": "OK","zip": "73110","zip+4": "0000","phone": "4057377886"}
{"name": "CVS PHARMACY # #06010","address1": "2412 N CLASSEN BLVD","address2": "","city": "OKLAHOMA CITY","state": "OK","zip": "73106","zip+4": "0000","phone": "4055210996"}
{"name": "UNITED PHARMACY","address1": "901 S CORNWELL","address2": "","city": "YUKON","state": "OK","zip": "73099","zip+4": "0000","phone": "4053545233"}
{"name": "CLINIC PHARMACY","address1": "120 N BRYANT","address2": "","city": "EDMOND","state": "OK","zip": "73034","zip+4": "6303","phone": "4053418490"}
{"name": "BESTYET PHARMACY","address1": "600 W STRUTHERS","address2": "","city": "SEMINOLE","state": "OK","zip": "74818","zip+4": "0991","phone": "4053824130"}
{"name": "CVS PHARMACY # #06009","address1": "5025 N MAY AVE","address2": "","city": "OKLAHOMA CITY","state": "OK","zip": "73112","zip+4": "0000","phone": "4059476743"}
{"name": "RUKES DISCOUNT PHARMACY INC","address1": "108 S ROCK ISLAND","address2": "","city": "EL RENO","state": "OK","zip": "73036","zip+4": "0000","phone": "4052625590"}
{"name": "BEGGS PHARMACY","address1": "200 S ADAIR ST","address2": "","city": "PRYOR","state": "OK","zip": "74361","zip+4": "0000","phone": "9188253059"}
{"name": "V AND V DRUG","address1": "453 S MAIN","address2": "","city": "JAY","state": "OK","zip": "74346","zip+4": "0449","phone": "9182534519"}
{"name": "CANADIAN VALLEY PHARMACY","address1": "2005 PARKVIEW DR","address2": "STE 3","city": "EL RENO","state": "OK","zip": "73036","zip+4": "2107","phone": "4052624154"}
{"name": "LEWIS PHARMACY","address1": "219 E JOSEPHINE","address2": "","city": "FREDERICK","state": "OK","zip": "73542","zip+4": "0000","phone": "5803357575"}
{"name": "HOSPITAL DISCOUNT PHARMACY","address1": "104 S BRYANT","address2": "","city": "EDMOND","state": "OK","zip": "73034","zip+4": "6327","phone": "4053481677"}
{"name": "DISHMANS PHARMACY","address1": "1310 SW LEE BLVD","address2": "","city": "LAWTON","state": "OK","zip": "73501","zip+4": "0000","phone": "5803538560"}
{"name": "OWL DRUG STORE INC","address1": "115 S MAIN ST","address2": "","city": "WAGONER","state": "OK","zip": "74467","zip+4": "5220","phone": "9184852722"}
{"name": "CREST RX PHARMACY","address1": "249 N DOUGLAS BLVD","address2": "","city": "MIDWEST CITY","state": "OK","zip": "73130","zip+4": "0000","phone": "4057414411"}
{"name": "SOONER PHARMACY","address1": "1811 W LINDSAY STREET","address2": "","city": "NORMAN","state": "OK","zip": "73069","zip+4": "4307","phone": "4053296001"}
{"name": "SOONER PHARMACY","address1": "815 W BROADWAY ST","address2": "","city": "SULPHUR","state": "OK","zip": "73086","zip+4": "0579","phone": "5806222208"}
{"name": "LIBERTY DRUG INC","address1": "315 CHICKASHA AVE","address2": "","city": "CHICKASHA","state": "OK","zip": "73018","zip+4": "0000","phone": "4052241204"}
{"name": "ECK DRUG CO INC","address1": "322 W MAIN ST","address2": "","city": "HEALDTON","state": "OK","zip": "73438","zip+4": "0460","phone": "5802291141"}
{"name": "COUCH PHARMACY ON SHERIDAN","address1": "444 S SHERIDAN RD","address2": "","city": "TULSA","state": "OK","zip": "74112","zip+4": "1716","phone": "9188359577"}
{"name": "SAPULPA DRIVE IN PHARMACY INC","address1": "1029 E CLEVELAND AVE","address2": "","city": "SAPULPA","state": "OK","zip": "74066","zip+4": "4516","phone": "9182246558"}
{"name": "LARRYS HEALTHMART PHARMACY","address1": "1012 W 2ND ST","address2": "","city": "SULPHUR","state": "OK","zip": "73086","zip+4": "0000","phone": "5806223131"}
{"name": "DICUS PHARMACY","address1": "312 W 12TH ST","address2": "","city": "ADA","state": "OK","zip": "74820","zip+4": "6497","phone": "5803328888"}
{"name": "WAL-MART PHARMACY #100231","address1": "1419 N COUNTRY CLUB RD","address2": "","city": "ADA","state": "OK","zip": "74820","zip+4": "0000","phone": "5803324755"}
{"name": "BUNKER HILL PHARMACY","address1": "1600 N MAIN","address2": "","city": "ALTUS","state": "OK","zip": "73521","zip+4": "2196","phone": "5804827530"}
{"name": "UNITED DISCOUNT DRUG","address1": "600 E BROADWAY ST","address2": "","city": "ALTUS","state": "OK","zip": "73521","zip+4": "5594","phone": "5804770800"}
{"name": "T AND M PHARMACY","address1": "423 12TH AVE NW","address2": "","city": "ARDMORE","state": "OK","zip": "73401","zip+4": "5700","phone": "5802230671"}
{"name": "WAL-MART PHARMACY #100041","address1": "4000 GREEN COUNTRY RD","address2": "","city": "BARTLESVILLE","state": "OK","zip": "74006","zip+4": "0000","phone": "9183336910"}
{"name": "DONS PHARMACY","address1": "6801 NW 39TH EXPY","address2": "","city": "BETHANY","state": "OK","zip": "73008","zip+4": "2599","phone": "4057892453"}
{"name": "WESTERN OAKS PHARMACY","address1": "2703 N ROCKWELL","address2": "","city": "BETHANY","state": "OK","zip": "73008","zip+4": "0000","phone": "4057896881"}
{"name": "HUTTON PHARMACY","address1": "119 N MAIN","address2": "","city": "BLACKWELL","state": "OK","zip": "74631","zip+4": "0110","phone": "5803632137"}
{"name": "BLANCHARD RED CROSS DRUG","address1": "301 NE 10TH STREET","address2": "","city": "BLANCHARD","state": "OK","zip": "73010","zip+4": "0000","phone": "4054859311"}
{"name": "CHANDLER HEWITT DRUG","address1": "121 N MAIN ST","address2": "","city": "BROKEN BOW","state": "OK","zip": "74728","zip+4": "3973","phone": "5805843378"}
{"name": "SHERILLS PHARMACY AND GIFTS","address1": "101 MAIN ST","address2": "","city": "BROKEN BOW","state": "OK","zip": "74728","zip+4": "3973","phone": "5805843353"}
{"name": "T AND L PHARMACY INC","address1": "1001 HWY 64 N","address2": "","city": "BUFFALO","state": "OK","zip": "73834","zip+4": "0120","phone": "5807352161"}
{"name": "LIBERTY DRUG","address1": "15 WEST MAIN","address2": "","city": "CARNEGIE","state": "OK","zip": "73015","zip+4": "0000","phone": "5806541111"}
{"name": "CENTRAL DRUG STORE INC","address1": "307 N MAIN ST","address2": "","city": "CEMENT","state": "OK","zip": "73017","zip+4": "0000","phone": "4054893521"}
{"name": "HITE DRUG","address1": "913 MANVEL AVE","address2": "","city": "CHANDLER","state": "OK","zip": "74834","zip+4": "3851","phone": "4052581218"}
{"name": "SMITH DRUG","address1": "121 S GRAND","address2": "","city": "CHEROKEE","state": "OK","zip": "73728","zip+4": "2028","phone": "5805962411"}
{"name": "CHEYENNE PROFESSIONAL DRUG","address1": "413 BROADWAY","address2": "","city": "CHEYENNE","state": "OK","zip": "73628","zip+4": "0000","phone": "5804973325"}
{"name": "S & D DRUG","address1": "915 FRISCO AVE","address2": "","city": "CLINTON","state": "OK","zip": "73601","zip+4": "0937","phone": "5803232020"}
{"name": "SALISBURY PHARMACY","address1": "815 FRISCO AVE","address2": "","city": "CLINTON","state": "OK","zip": "73601","zip+4": "0000","phone": "5803231244"}
{"name": "PALACE DRUG STORE","address1": "104 N OHIO","address2": "","city": "COALGATE","state": "OK","zip": "74538","zip+4": "0000","phone": "5809272064"}
{"name": "EVETTS DRUG INC","address1": "100 E 1ST ST","address2": "","city": "CORDELL","state": "OK","zip": "73632","zip+4": "4810","phone": "5808323388"}
{"name": "CITY DRUG OF COWETA","address1": "114 N BROADWAY","address2": "","city": "COWETA","state": "OK","zip": "74429","zip+4": "2600","phone": "9184862193"}
{"name": "DONS DRUG","address1": "101 N GRAND","address2": "","city": "CRESCENT","state": "OK","zip": "73028","zip+4": "0000","phone": "4059693518"}
{"name": "BAKER PHARMACY INC","address1": "1022 E CHERRY ST","address2": "","city": "CUSHING","state": "OK","zip": "74023","zip+4": "4102","phone": "9182252200"}
{"name": "CITY DRUG OF DAVIS","address1": "218 E MAIN ST","address2": "","city": "DAVIS","state": "OK","zip": "73030","zip+4": "1904","phone": "5803692831"}
{"name": "R AND S DRUG #1","address1": "821 W MAIN ST","address2": "","city": "DUNCAN","state": "OK","zip": "73533","zip+4": "0000","phone": "5802556292"}
{"name": "R AND S DRUG #2","address1": "101 E MAIN ST","address2": "","city": "DUNCAN","state": "OK","zip": "73533","zip+4": "6658","phone": "5802559648"}
{"name": "CORNER DRUG OF DURANT","address1": "1005 W MAIN ST","address2": "","city": "DURANT","state": "OK","zip": "74701","zip+4": "4900","phone": "5809244444"}
{"name": "MEDICAL CENTER PHARMACY INC","address1": "1022 RADIO RD","address2": "","city": "DURANT","state": "OK","zip": "74701","zip+4": "0000","phone": "5809247425"}
{"name": "PAUL JONES DRUG","address1": "105 N MAIN ST","address2": "","city": "ELK CITY","state": "OK","zip": "73644","zip+4": "0000","phone": "5802253263"}
{"name": "SWARTZ DRUG","address1": "122 W BROADWAY","address2": "","city": "ELK CITY","state": "OK","zip": "73644","zip+4": "0000","phone": "5802253610"}
{"name": "EVANS DRUG LLC","address1": "1106 W WILLOW RD","address2": "","city": "ENID","state": "OK","zip": "73703","zip+4": "2503","phone": "5802344343"}
{"name": "FAMILY PHARMACY","address1": "915 E GARRIOTT RD","address2": "","city": "ENID","state": "OK","zip": "73701","zip+4": "6153","phone": "5802334244"}
{"name": "SCHEFFE PRESCRIPTION SHOP MEDI","address1": "302 S 5TH ST","address2": "","city": "ENID","state": "OK","zip": "73701","zip+4": "5820","phone": "5802332157"}
{"name": "SCHEFFE PRESCRIPTION SHOP PARK","address1": "330 S 5TH ST","address2": "","city": "ENID","state": "OK","zip": "73701","zip+4": "5825","phone": "5802332128"}
{"name": "SCHEFFE PRESCRIPTION SHOP","address1": "127 E RANDOLPH ST","address2": "","city": "ENID","state": "OK","zip": "73701","zip+4": "0000","phone": "5802332152"}
{"name": "MEADOR DRUG","address1": "215 W ROGER MILLER BLVD","address2": "","city": "ERICK","state": "OK","zip": "73645","zip+4": "0090","phone": "5805263311"}
{"name": "KIDD DRUGS GIFT INC","address1": "104 N MAIN ST","address2": "","city": "FAIRVIEW","state": "OK","zip": "73737","zip+4": "1621","phone": "5802274685"}
{"name": "GRANITE DRUG STORE","address1": "316 MAIN ST","address2": "","city": "GRANITE","state": "OK","zip": "73547","zip+4": "0158","phone": "5805352130"}
{"name": "DANIELS DRUG","address1": "206 W OKLAHOMA AVE","address2": "","city": "GUTHRIE","state": "OK","zip": "73044","zip+4": "0000","phone": "4052820661"}
{"name": "MARKS DRUG","address1": "112 W OKLAHOMA AVE","address2": "","city": "GUTHRIE","state": "OK","zip": "73044","zip+4": "3197","phone": "4052822700"}
{"name": "GREENS PRESCRIPTION CENTER","address1": "115 E AVE C","address2": "","city": "HEAVENER","state": "OK","zip": "74937","zip+4": "2603","phone": "9186534803"}
{"name": "LA PORTE PHARMACY","address1": "103 S MAIN","address2": "","city": "HENNESSEY","state": "OK","zip": "73742","zip+4": "0216","phone": "4058532557"}
{"name": "BOOTHE DRUG STORE","address1": "100 W 4TH ST","address2": "","city": "HOBART","state": "OK","zip": "73651","zip+4": "4010","phone": "5807262221"}
{"name": "GRINNELL PRESCRIPTION SHOP INC","address1": "304 S BROADWAY","address2": "","city": "HOBART","state": "OK","zip": "73651","zip+4": "0195","phone": "5807262206"}
{"name": "HOMINY REXALL DRUG","address1": "104 W MAIN ST","address2": "","city": "HOMINY","state": "OK","zip": "74035","zip+4": "1032","phone": "9188852715"}
{"name": "CHANDLER HEWITT RX","address1": "4 E MAIN ST","address2": "","city": "IDABEL","state": "OK","zip": "74745","zip+4": "4628","phone": "5802863474"}
{"name": "PALACE DRUG","address1": "1200 SE LINCOLN RD","address2": "","city": "IDABEL","state": "OK","zip": "74745","zip+4": "6059","phone": "5802862190"}
{"name": "TOMS DRUG STORE","address1": "119 W ADMIRE","address2": "","city": "KINGFISHER","state": "OK","zip": "73750","zip+4": "2627","phone": "4053753202"}
{"name": "HASKELLS PRESCRIPTION SHOP","address1": "2702 W GORE BLVD","address2": "","city": "LAWTON","state": "OK","zip": "73505","zip+4": "6319","phone": "5803530760"}
{"name": "LEEDEY DRUG INC","address1": "421 S MAIN","address2": "","city": "LEEDEY","state": "OK","zip": "73654","zip+4": "0296","phone": "5804883393"}
{"name": "TABORS DRUG INC","address1": "225 S MAIN ST","address2": "","city": "LINDSAY","state": "OK","zip": "73052","zip+4": "5633","phone": "4057564511"}
{"name": "BRATTON DRUG INC","address1": "109 S OKLAHOMA ST","address2": "","city": "MANGUM","state": "OK","zip": "73554","zip+4": "4219","phone": "5807822195"}
{"name": "WOODS PHARMACY #1","address1": "7 E CHICKASAW AVE","address2": "","city": "MCALESTER","state": "OK","zip": "74501","zip+4": "0000","phone": "9184234333"}
{"name": "KENNEDY DRUG CO #1","address1": "107 E CHEROKEE ST","address2": "","city": "MEDFORD","state": "OK","zip": "73759","zip+4": "1209","phone": "5803952831"}
{"name": "LEONS MEDICAL CLINIC PHARMACY","address1": "322 N SERVICE RD","address2": "","city": "MOORE","state": "OK","zip": "73160","zip+4": "0000","phone": "4057943565"}
{"name": "MOORE REXALL DRUG","address1": "621 N BROADWAY ST","address2": "","city": "MOORE","state": "OK","zip": "73160","zip+4": "4813","phone": "4057944455"}
{"name": "JERRYS PHARMACY","address1": "221 MAIN","address2": "","city": "MOUNTAIN VIEW","state": "OK","zip": "73062","zip+4": "0720","phone": "5803472519"}
{"name": "MULDROW PHARMACY","address1": "710 E SHAWNTEL SMITH BLVD","address2": "","city": "MULDROW","state": "OK","zip": "74948","zip+4": "1109","phone": "9184273243"}
{"name": "DOCTORS PARK PHARMACY","address1": "500 E ROBINSON ST","address2": "SUITE 200","city": "NORMAN","state": "OK","zip": "73071","zip+4": "6648","phone": "4053645020"}
{"name": "CENTRAL PHARMACY","address1": "222 ALAMEDA ST","address2": "","city": "NORMAN","state": "OK","zip": "73069","zip+4": "6093","phone": "4053212838"}
{"name": "CITY HEALTHMART DRUG","address1": "128 E CHEROKEE","address2": "","city": "NOWATA","state": "OK","zip": "74048","zip+4": "2702","phone": "9182733825"}
{"name": "HAFFNER DRUG","address1": "116 N MAIN ST","address2": "","city": "OKEENE","state": "OK","zip": "73763","zip+4": "9401","phone": "5808223789"}
{"name": "SOONER DRUG","address1": "324 W BROADWAY ST","address2": "","city": "OKEMAH","state": "OK","zip": "74859","zip+4": "0000","phone": "9186231771"}
{"name": "PARKER PRESCRIPTION SERV INC","address1": "4901 S PENNSYLVANIA AVE","address2": "","city": "OKLAHOMA CITY","state": "OK","zip": "73119","zip+4": "4991","phone": "4056824423"}
{"name": "NICHOLS HILLS DRUG","address1": "6411 AVONDALE DR","address2": "","city": "OKLAHOMA CITY","state": "OK","zip": "73116","zip+4": "6483","phone": "4058439501"}
{"name": "M AND D STAR DRUG COMPANY","address1": "108 S MORTON","address2": "","city": "OKMULGEE","state": "OK","zip": "74447","zip+4": "5022","phone": "9187561322"}
{"name": "REAVIS DRUG","address1": "110 A BURR AVE","address2": "PO BOX 1220","city": "PAULS VALLEY","state": "OK","zip": "73075","zip+4": "1220","phone": "4052387391"}
{"name": "PAWNEE HILLCREST PHARMACY","address1": "539 6TH ST","address2": "","city": "PAWNEE","state": "OK","zip": "74058","zip+4": "2542","phone": "9187623666"}
{"name": "PAWNEE DRUG COMPANY","address1": "553 HARRISON ST","address2": "","city": "PAWNEE","state": "OK","zip": "74058","zip+4": "2566","phone": "9187622148"}
{"name": "FOSTER CORNER DRUG INC","address1": "328 6TH ST","address2": "","city": "PERRY","state": "OK","zip": "73077","zip+4": "0000","phone": "5803362136"}
{"name": "PERRY PHARMACY","address1": "800 FIR AVE","address2": "","city": "PERRY","state": "OK","zip": "73077","zip+4": "4239","phone": "5803364474"}
{"name": "OCONNOR PHARMACY #1","address1": "1113 E HARTFORD","address2": "","city": "PONCA CITY","state": "OK","zip": "74601","zip+4": "2016","phone": "5807653055"}
{"name": "TONIS WESTSIDE REXALL INC","address1": "301 W GRAND AVE","address2": "","city": "PONCA CITY","state": "OK","zip": "74601","zip+4": "5118","phone": "5807654456"}
{"name": "SIMPSONS PRAGUE PHARMACY","address1": "917 JIM THORPE BLVD","address2": "","city": "PRAGUE","state": "OK","zip": "74864","zip+4": "0843","phone": "4055674322"}
{"name": "DON'S DISCOUNT PHARMACY","address1": "204 WEST MAIN","address2": "","city": "PURCELL","state": "OK","zip": "73080","zip+4": "0000","phone": "4055272186"}
{"name": "MOORE DRUG INC","address1": "101 W MAIN","address2": "","city": "RINGLING","state": "OK","zip": "73456","zip+4": "0000","phone": "5806622366"}
{"name": "RYAN DRUG STORE","address1": "520 W WASHINGTON","address2": "","city": "RYAN","state": "OK","zip": "73565","zip+4": "0130","phone": "5807572230"}
{"name": "CITY PHARMACY","address1": "414 E WASHINGTON AVENUE","address2": "","city": "SAYRE","state": "OK","zip": "73662","zip+4": "0000","phone": "5809283323"}
{"name": "CLINIC PHARMACY","address1": "1601 N WATTS","address2": "","city": "SAYRE","state": "OK","zip": "73662","zip+4": "0000","phone": "5809283058"}
{"name": "BIVENS DRUG","address1": "217 N MAIN","address2": "","city": "SEILING","state": "OK","zip": "73663","zip+4": "0426","phone": "5809224812"}
{"name": "PARKS DRUG","address1": "330 N MAIN ST","address2": "","city": "SEMINOLE","state": "OK","zip": "74818","zip+4": "0030","phone": "4053823870"}
{"name": "NEWMAN MEDICAL CENTER PHARMACY","address1": "905 S MAIN ST","address2": "","city": "SHATTUCK","state": "OK","zip": "73858","zip+4": "9602","phone": "5809385127"}
{"name": "RICHARDS DRUG","address1": "324 E MAIN ST","address2": "","city": "SHAWNEE","state": "OK","zip": "74801","zip+4": "7012","phone": "4052737810"}
{"name": "LARRYS REXALL DRUG","address1": "616 E ST","address2": "","city": "SNYDER","state": "OK","zip": "73566","zip+4": "0344","phone": "5805692008"}
{"name": "DEDMON PHARMACY INC","address1": "213 W BROADWAY","address2": "","city": "SPIRO","state": "OK","zip": "74959","zip+4": "0000","phone": "9189622131"}
{"name": "HEADS PHARMACY","address1": "501 NW H ST","address2": "","city": "STIGLER","state": "OK","zip": "74462","zip+4": "1627","phone": "9189678877"}
{"name": "TIGER DRUG COMPANY","address1": "825 S WALNUT ST","address2": "","city": "STILLWATER","state": "OK","zip": "74074","zip+4": "4226","phone": "4053727900"}
{"name": "STILWELL PHARMACY","address1": "202 S 2ND STREET","address2": "","city": "STILWELL","state": "OK","zip": "74960","zip+4": "0000","phone": "9186962500"}
{"name": "BAYLESS DRUG COMPANY","address1": "120 W MAIN","address2": "","city": "STRATFORD","state": "OK","zip": "74872","zip+4": "0150","phone": "5807592312"}
{"name": "STROUD DRUG","address1": "406 W MAIN","address2": "","city": "STROUD","state": "OK","zip": "74079","zip+4": "3614","phone": "9189682323"}
{"name": "CHEROKEE HILLS PHARMACY","address1": "1607 D S MUSKOGEE","address2": "","city": "TAHLEQUAH","state": "OK","zip": "74464","zip+4": "0000","phone": "9184562581"}
{"name": "HALEY DRUG","address1": "102 S COMMERCIAL","address2": "","city": "TEMPLE","state": "OK","zip": "73568","zip+4": "9801","phone": "5803426691"}
{"name": "THOMAS DRUG COMPANY","address1": "145 W BROADWAY","address2": "","city": "THOMAS","state": "OK","zip": "73669","zip+4": "0347","phone": "5806613545"}
{"name": "GENE LAFITTE PHARMACY","address1": "140 E MAIN ST","address2": "","city": "TISHOMINGO","state": "OK","zip": "73460","zip+4": "2351","phone": "5803712355"}
{"name": "DOOLEY PHARMACY","address1": "4120 S 25TH W AVE","address2": "","city": "TULSA","state": "OK","zip": "74107","zip+4": "6506","phone": "9184464524"}
{"name": "MORTON HEALTH CENTER PHARMACY","address1": "1334 N LANSING AVE","address2": "","city": "TULSA","state": "OK","zip": "74106","zip+4": "4895","phone": "9182956130"}
{"name": "VIAN PHARMACY","address1": "10 THORTON ST","address2": "","city": "VIAN","state": "OK","zip": "74962","zip+4": "0000","phone": "9187738111"}
{"name": "CITY PHARMACY","address1": "101 N CLARENCE NASH BLVD","address2": "","city": "WATONGA","state": "OK","zip": "73772","zip+4": "0582","phone": "5806234545"}
{"name": "SWANNS PHARMACY","address1": "407 W MAIN ST","address2": "","city": "WATONGA","state": "OK","zip": "73772","zip+4": "4298","phone": "5806234505"}
{"name": "ECK DRUG AND GIFT","address1": "101 S MAIN ST","address2": "","city": "WAURIKA","state": "OK","zip": "73573","zip+4": "3053","phone": "5802282383"}
{"name": "ALLEN PHARMACY INC","address1": "521 E FRANKLIN","address2": "","city": "WEATHERFORD","state": "OK","zip": "73096","zip+4": "0389","phone": "5807723347"}
{"name": "MORE THAN MEDICINE","address1": "101 W MAIN","address2": "","city": "WEATHERFORD","state": "OK","zip": "73096","zip+4": "4451","phone": "5807722781"}
{"name": "WESTVILLE PRESCRIPTION CENTER","address1": "100 S WILLIAMS","address2": "","city": "WESTVILLE","state": "OK","zip": "74965","zip+4": "0000","phone": "9187235466"}
{"name": "TYLER DRUG","address1": "105 N MAIN ST","address2": "","city": "WETUMKA","state": "OK","zip": "74883","zip+4": "3006","phone": "4054523203"}
{"name": "NORMAN DRUG COMPANY","address1": "109 N WEWOKA","address2": "","city": "WEWOKA","state": "OK","zip": "74884","zip+4": "0899","phone": "4052575461"}
{"name": "ROBERTS DRUG STORE","address1": "309 S WEWOKA","address2": "","city": "WEWOKA","state": "OK","zip": "74884","zip+4": "2641","phone": "4052573388"}
{"name": "CRESCENT DRUG AND APOTH INC PC","address1": "116 S DEAN A MCGEE AVE","address2": "","city": "WYNNEWOOD","state": "OK","zip": "73098","zip+4": "7822","phone": "4056654115"}
{"name": "G AND A PHARMACY","address1": "210 E STATE RD","address2": "","city": "FAIRVIEW","state": "OK","zip": "73737","zip+4": "0000","phone": "5802272045"}
{"name": "CLINIC PHARMACY","address1": "509 E CHESTNUT ST","address2": "","city": "HOLLIS","state": "OK","zip": "73550","zip+4": "2031","phone": "5806882247"}
{"name": "REASORS PHARMACY #2","address1": "2001 S MUSKOGEE AVE","address2": "","city": "TAHLEQUAH","state": "OK","zip": "74464","zip+4": "0000","phone": "9184566103"}
{"name": "STAR MEDICAL CENTER PHARMACY","address1": "2120 W ELK AVE","address2": "STE 10","city": "DUNCAN","state": "OK","zip": "73533","zip+4": "1537","phone": "5802557165"}
{"name": "HOOVER DRUG","address1": "107 W MAIN ST","address2": "","city": "STIGLER","state": "OK","zip": "74462","zip+4": "0000","phone": "9189678321"}
{"name": "OKEMAH PHARMACY","address1": "106 S WOODY GUTHRIE","address2": "","city": "OKEMAH","state": "OK","zip": "74859","zip+4": "0070","phone": "9186232510"}
{"name": "D AND D PHARMACY","address1": "1940 N BROADWAY","address2": "","city": "POTEAU","state": "OK","zip": "74953","zip+4": "0592","phone": "9186473137"}
{"name": "SEMINOLE DRUG INC","address1": "1717 N MILT PHILLIPS AVE","address2": "","city": "SEMINOLE","state": "OK","zip": "74868","zip+4": "2395","phone": "4053825420"}
{"name": "RALPHS PHARMACY INC","address1": "211 N BROADWAY ST","address2": "","city": "TECUMSEH","state": "OK","zip": "74873","zip+4": "3227","phone": "4055983729"}
{"name": "RAZOOKS DRUG","address1": "1518 W 9TH AVE","address2": "","city": "STILLWATER","state": "OK","zip": "74074","zip+4": "5468","phone": "4053774445"}
{"name": "THE DRUG STORE","address1": "2801 PARKLAWN 102","address2": "","city": "MIDWEST CITY","state": "OK","zip": "73110","zip+4": "4294","phone": "4057332881"}
{"name": "ELK CITY UNITED DRUG","address1": "2700 W 3RD ST","address2": "","city": "ELK CITY","state": "OK","zip": "73644","zip+4": "4320","phone": "5802251600"}
{"name": "TURNERS DRUG","address1": "405 GRANT AVE","address2": "","city": "PURCELL","state": "OK","zip": "73080","zip+4": "0000","phone": "4055272107"}
{"name": "WILLIAMS PHARMACY","address1": "700 E BROADWAY","address2": "","city": "LEXINGTON","state": "OK","zip": "73051","zip+4": "1250","phone": "4055275682"}
{"name": "EDDIE ALLENS PHARMACY","address1": "659 S PARK DR","address2": "","city": "BROKEN BOW","state": "OK","zip": "74728","zip+4": "0997","phone": "5805845841"}
{"name": "JONES DRUG STORE","address1": "101 W MAIN ST","address2": "","city": "JONES","state": "OK","zip": "73049","zip+4": "0000","phone": "4053992277"}
{"name": "RX SHOPPE","address1": "1002 W 13TH","address2": "","city": "ATOKA","state": "OK","zip": "74525","zip+4": "0000","phone": "5808893331"}
{"name": "LAWSON PHARMACY","address1": "301 2ND ST","address2": "","city": "TALIHINA","state": "OK","zip": "74571","zip+4": "0456","phone": "9185673111"}
{"name": "MARKS PRESCRIPTION SHOP","address1": "7201 E RENO","address2": "","city": "MIDWEST CITY","state": "OK","zip": "73110","zip+4": "0000","phone": "4057373451"}
{"name": "UNITED DISCOUNT DRUGS #1","address1": "1602 N GREEN AVE","address2": "","city": "PURCELL","state": "OK","zip": "73080","zip+4": "1712","phone": "4055275900"}
{"name": "UNITED DISCOUNT DRUG","address1": "1902 N ACADEMY","address2": "","city": "GUYMON","state": "OK","zip": "73942","zip+4": "0000","phone": "5803388421"}
{"name": "DENNIS EXPRESS PHARMACY","address1": "1308 S MAIN","address2": "","city": "KINGFISHER","state": "OK","zip": "73750","zip+4": "4408","phone": "4053755400"}
{"name": "MARY MAHONEY MEM CTR PHCY","address1": "12716 NE 36TH","address2": "","city": "OKLAHOMA CITY","state": "OK","zip": "73140","zip+4": "0000","phone": "4057693301"}
{"name": "THOMPSONS DRUG","address1": "4503 SE 29TH ST","address2": "","city": "DEL CITY","state": "OK","zip": "73115","zip+4": "3300","phone": "4056772467"}
{"name": "CLINIC PHARMACY","address1": "1213 N GLENN ENGLISH","address2": "","city": "CORDELL","state": "OK","zip": "73632","zip+4": "2009","phone": "5808323714"}
{"name": "GADDYS DISCOUNT DRUG","address1": "1126 W BROADWAY ST","address2": "","city": "MUSKOGEE","state": "OK","zip": "74401","zip+4": "0000","phone": "9186825584"}
{"name": "MCCORTNEYS FAMILY PHARMACY","address1": "711 E 9TH ST","address2": "","city": "ADA","state": "OK","zip": "74820","zip+4": "0000","phone": "5803323344"}
{"name": "UNITED PHARMACY #373","address1": "2821 8TH ST","address2": "","city": "WOODWARD","state": "OK","zip": "73801","zip+4": "6733","phone": "5802543411"}
{"name": "CITY DRUG","address1": "12 S CENTRAL AVE","address2": "","city": "IDABEL","state": "OK","zip": "74745","zip+4": "4626","phone": "5802863235"}
{"name": "GORE GREEN COUNTRY DRUG","address1": "305 N MAIN ST","address2": "","city": "GORE","state": "OK","zip": "74435","zip+4": "0330","phone": "9184895558"}
{"name": "FREDERICK PHARMACY INC","address1": "1600 N MAIN ST","address2": "","city": "FREDERICK","state": "OK","zip": "73542","zip+4": "0981","phone": "5803355501"}
{"name": "UHLES DRUG STORE","address1": "208 N HIGH STREET","address2": "","city": "ANTLERS","state": "OK","zip": "74523","zip+4": "0000","phone": "5802983377"}
{"name": "KMART PHARMACY #3238","address1": "3132 EAST 51ST ST","address2": "","city": "TULSA","state": "OK","zip": "74105","zip+4": "0000","phone": "9187493157"}
{"name": "THRIFTY PHARMACY","address1": "10904 L NORTH MAY AVE","address2": "","city": "OKLAHOMA CITY","state": "OK","zip": "73120","zip+4": "0000","phone": "4057512852"}
{"name": "PERKINS DRUG","address1": "246 S MAIN ST","address2": "","city": "PERKINS","state": "OK","zip": "74059","zip+4": "0129","phone": "4055472414"}
{"name": "DON COODY PHARMACY","address1": "7530 NW 23RD ST","address2": "","city": "BETHANY","state": "OK","zip": "73008","zip+4": "4942","phone": "4057898921"}
{"name": "KMART PHARMACY #4473","address1": "10131 E 21ST STREET S","address2": "","city": "TULSA","state": "OK","zip": "74129","zip+4": "0000","phone": "9186649972"}
{"name": "SAYRE PROFESSIONAL PHARMACY","address1": "1505 N WATTS","address2": "","city": "SAYRE","state": "OK","zip": "73662","zip+4": "1312","phone": "5809283633"}
{"name": "CVS PHARMACY # #06015","address1": "4251 SE 44TH ST","address2": "","city": "DEL CITY","state": "OK","zip": "73135","zip+4": "0000","phone": "4056703637"}
{"name": "COMANCHE PHARMACY","address1": "211 MAIN AVE","address2": "","city": "COMANCHE","state": "OK","zip": "73529","zip+4": "1445","phone": "5804398846"}
{"name": "KENS HEALTH MART PHARMACY","address1": "200 S HIGHLAND","address2": "","city": "CUSHING","state": "OK","zip": "74023","zip+4": "4117","phone": "9182255200"}
{"name": "KMART PHARMACY #3067","address1": "1200 E CHARLES PAGE BLVD","address2": "","city": "SAND SPRINGS","state": "OK","zip": "74063","zip+4": "0000","phone": "9182451323"}
{"name": "TV DISCOUNT DRUGS","address1": "1701 E 2ND ST","address2": "","city": "EDMOND","state": "OK","zip": "73034","zip+4": "5799","phone": "4053480220"}
{"name": "DRUG WAREHOUSE #8","address1": "651 CHARLES PAIGE BLVD","address2": "","city": "SAND SPRINGS","state": "OK","zip": "74063","zip+4": "0000","phone": "9182450568"}
{"name": "DRUG WAREHOUSE #9","address1": "1150 SOUTH GARNETT ROAD","address2": "","city": "TULSA","state": "OK","zip": "74128","zip+4": "0000","phone": "9184379677"}
{"name": "KMART PHARMACY #7003","address1": "4 EAST SHAWNEE ROAD","address2": "","city": "MUSKOGEE","state": "OK","zip": "74401","zip+4": "0000","phone": "9186830135"}
{"name": "KMART PHARMACY #3044","address1": "1050 NW 38TH ST","address2": "","city": "LAWTON","state": "OK","zip": "73505","zip+4": "3738","phone": "5803557124"}
{"name": "KMART PHARMACY #3128","address1": "4010 W OWEN K GARRIOTT RD","address2": "","city": "ENID","state": "OK","zip": "73703","zip+4": "4803","phone": "5802348021"}
{"name": "KMART PHARMACY #7041","address1": "501 SE WASHINGTON BLVD","address2": "","city": "BARTLESVILLE","state": "OK","zip": "74003","zip+4": "0000","phone": "9183339140"}
{"name": "WAL-MART PHARMACY #100081","address1": "ROUTE 6 BOX 1895","address2": "","city": "STILWELL","state": "OK","zip": "74960","zip+4": "0000","phone": "9186963186"}
{"name": "LANGLEY DRUG","address1": "1631 N THIRD STREET","address2": "","city": "LANGLEY","state": "OK","zip": "74350","zip+4": "0000","phone": "9187823271"}
{"name": "R AND S DRUG #3","address1": "1507 N 81 HWY","address2": "","city": "DUNCAN","state": "OK","zip": "73533","zip+4": "1407","phone": "5802520140"}
{"name": "CVS PHARMACY # #06016","address1": "9001 S WESTERN AVE","address2": "","city": "OKLAHOMA CITY","state": "OK","zip": "73139","zip+4": "0000","phone": "4056916620"}
{"name": "CVS PHARMACY # #06020","address1": "5903 NWEST EXPRESSWAY","address2": "","city": "OKLAHOMA CITY","state": "OK","zip": "73132","zip+4": "0000","phone": "4057218947"}
{"name": "TMC PHARMACY","address1": "1500 E DOWNING","address2": "STE 106","city": "TAHLEQUAH","state": "OK","zip": "74464","zip+4": "3354","phone": "9184568811"}
{"name": "RITTER EXPRESS PHARMACY","address1": "702 S MISSISSIPPI","address2": "","city": "ATOKA","state": "OK","zip": "74525","zip+4": "0000","phone": "5808893353"}
{"name": "CENTER PHARMACY","address1": "124 COONROD AVE","address2": "","city": "MANNFORD","state": "OK","zip": "74044","zip+4": "0971","phone": "9188652164"}
{"name": "CHARLIES DISCOUNT DRUG","address1": "723 S WALNUT ST","address2": "","city": "STILLWATER","state": "OK","zip": "74074","zip+4": "4224","phone": "4056243535"}
{"name": "KINGSTON PHARMACY","address1": "7 NORTH MAIN ST","address2": "","city": "KINGSTON","state": "OK","zip": "73439","zip+4": "0000","phone": "5805642337"}
{"name": "MARIETTA DISCOUNT PHARMACY","address1": "300 S HWY 77","address2": "","city": "MARIETTA","state": "OK","zip": "73448","zip+4": "2206","phone": "5802765555"}
{"name": "CLINIC PHARMACY","address1": "2803 N SARATOGA","address2": "","city": "SHAWNEE","state": "OK","zip": "74804","zip+4": "0000","phone": "4052739417"}
{"name": "DAVIDS PHARMACY","address1": "1300 E ROBERT S KERR","address2": "","city": "WYNNEWOOD","state": "OK","zip": "73098","zip+4": "1099","phone": "4056654225"}
{"name": "SPOON DRUG INC","address1": "540 PLAZA CT","address2": "","city": "SAND SPRINGS","state": "OK","zip": "74063","zip+4": "7994","phone": "9182459693"}
{"name": "DRUG WAREHOUSE #14","address1": "2041 WEST HOUSTON","address2": "","city": "BROKEN ARROW","state": "OK","zip": "74012","zip+4": "0000","phone": "9182588533"}
{"name": "TRENTS DISCOUNT PHARMACY","address1": "428 E COLE","address2": "","city": "FLETCHER","state": "OK","zip": "73541","zip+4": "0000","phone": "5805496115"}
{"name": "P AND S PHARMACY","address1": "820 E HWY","address2": "","city": "HOLDENVILLE","state": "OK","zip": "74848","zip+4": "0071","phone": "4053795431"}
{"name": "CAL DRUG LLC","address1": "401 W HWY 270","address2": "","city": "HARTSHORNE","state": "OK","zip": "74547","zip+4": "2831","phone": "9182977283"}
{"name": "ROLAND PHARMACY INC","address1": "100 E RAY FINE BLVD","address2": "","city": "ROLAND","state": "OK","zip": "74954","zip+4": "0000","phone": "9184273219"}
{"name": "LONE GROVE DRUG #1","address1": "16662 US HWY 70","address2": "","city": "LONE GROVE","state": "OK","zip": "73443","zip+4": "1019","phone": "5806573555"}
{"name": "WAL-MART PHARMACY #100277","address1": "501 SW 19TH STREET","address2": "","city": "MOORE","state": "OK","zip": "73160","zip+4": "0000","phone": "4057999581"}
{"name": "MAYS #28","address1": "3812 EAST TUXEDO BLVD","address2": "","city": "BARLESVILLE","state": "OK","zip": "74006","zip+4": "0000","phone": "9183331277"}
{"name": "WAL-MART PHARMACY #100090","address1": "2115 S MAIN ST","address2": "","city": "GROVE","state": "OK","zip": "74344","zip+4": "0000","phone": "9187864491"}
{"name": "WAL-MART PHARMACY #100031","address1": "3108 N BROADWAY","address2": "","city": "POTEAU","state": "OK","zip": "74953","zip+4": "0000","phone": "9186472641"}
{"name": "DRUG WAREHOUSE #16","address1": "11650 E 86TH ST N","address2": "","city": "OWASSO","state": "OK","zip": "74055","zip+4": "0000","phone": "9182729595"}
{"name": "REIDS DISCOUNT PHARMACY","address1": "206 S ASH ST","address2": "","city": "NOWATA","state": "OK","zip": "74048","zip+4": "4629","phone": "9182730433"}
{"name": "SUPER H PHARMACY","address1": "201 E 7TH AVE","address2": "","city": "BRISTOW","state": "OK","zip": "74010","zip+4": "2504","phone": "9183673328"}
{"name": "WAL-MART PHARMACY #100012","address1": "1500 LYNN RIGGS BLVD","address2": "","city": "CLAREMORE","state": "OK","zip": "74017","zip+4": "0000","phone": "9183415181"}
{"name": "WAL-MART PHARMACY #100022","address1": "4901 SO MILL ROAD","address2": "","city": "PRYOR","state": "OK","zip": "74361","zip+4": "0000","phone": "9188253663"}
{"name": "WAL-MART PHARMACY #101597","address1": "10938 S. MEMORIAL DR.","address2": "","city": "TULSA","state": "OK","zip": "74133","zip+4": "0000","phone": "9183944075"}
{"name": "WAL-MART PHARMACY #100063","address1": "410 SOUTH DEWEY","address2": "","city": "WAGONER","state": "OK","zip": "74467","zip+4": "0000","phone": "9184854581"}
{"name": "WAL-MART PHARMACY #100073","address1": "1002 WEST TAFT","address2": "","city": "SAPULPA","state": "OK","zip": "74066","zip+4": "0000","phone": "9182242800"}
{"name": "WAL-MART PHARMACY #100121","address1": "1800 SOUTH WOOD DRIVE","address2": "","city": "OKMULGEE","state": "OK","zip": "74447","zip+4": "0000","phone": "9187563545"}
{"name": "WAL-MART PHARMACY #100247","address1": "605 EAST MAIN","address2": "","city": "HENRYETTA","state": "OK","zip": "74437","zip+4": "0000","phone": "9186529447"}
{"name": "HOMELAND PHARMCY #181","address1": "12508 NORTH MAY AVENUE","address2": "","city": "OKLAHOMA CITY","state": "OK","zip": "73120","zip+4": "1947","phone": "4057512950"}
{"name": "HOMELAND PHARMCY #178","address1": "505 SOUTH CHICKASAW","address2": "","city": "PAULS VALLEY","state": "OK","zip": "73075","zip+4": "4601","phone": "4052387505"}
{"name": "TRUMMELS DRUG STORE","address1": "459 S HWY 169","address2": "","city": "OOLOGAH","state": "OK","zip": "74053","zip+4": "0000","phone": "9184432414"}
{"name": "CVS PHARMACY # #06021","address1": "800 SE 4TH ST","address2": "","city": "MOORE","state": "OK","zip": "73160","zip+4": "0000","phone": "4057941539"}
{"name": "STAR DISCOUNT DRUGS","address1": "1206 N HWY 81","address2": "STE 42","city": "DUNCAN","state": "OK","zip": "73533","zip+4": "1790","phone": "5802552937"}
{"name": "HOMELAND PHARMCY #154","address1": "2016 NW 39TH","address2": "","city": "OKLAHOMA CITY","state": "OK","zip": "73118","zip+4": "2614","phone": "4055219516"}
{"name": "HOMELAND PHARMCY #182","address1": "1401 BEECH AVENUE","address2": "","city": "DUNCAN","state": "OK","zip": "73533","zip+4": "6905","phone": "5802550228"}
{"name": "MED-WORLD PHARMACY INC","address1": "14 S MISSION ST","address2": "","city": "SAPULPA","state": "OK","zip": "74066","zip+4": "4634","phone": "9182272010"}
{"name": "HOMELAND PHARMCY #188","address1": "220 EAST CLEVELAND","address2": "","city": "GUTHRIE","state": "OK","zip": "73044","zip+4": "3239","phone": "4052820466"}
{"name": "WAL-MART PHARMACY #100340","address1": "131 PAUL CARR DR","address2": "","city": "CHECOTAH","state": "OK","zip": "74426","zip+4": "0000","phone": "9184735404"}
{"name": "JERRYS PHARMACY","address1": "1549 MAIN STREET","address2": "","city": "WAYNOKA","state": "OK","zip": "73860","zip+4": "0000","phone": "5808241741"}
{"name": "CVS PHARMACY # #06022","address1": "12322 N MAY AVE","address2": "","city": "OKLAHOMA CITY","state": "OK","zip": "73120","zip+4": "0000","phone": "4057552892"}
{"name": "HERITAGE PARK PHARMACY","address1": "6908 E RENO AVE","address2": "STE 101","city": "MIDWEST CITY","state": "OK","zip": "73110","zip+4": "0000","phone": "4057376697"}
{"name": "HOMELAND PHARMCY #148","address1": "1200 WEST GARY BLVD","address2": "","city": "CLINTON","state": "OK","zip": "73601","zip+4": "2728","phone": "5803230230"}
{"name": "HOMELAND PHARMCY #170","address1": "412 WEST THIRD","address2": "","city": "ELK CITY","state": "OK","zip": "73644","zip+4": "5202","phone": "5802257961"}
{"name": "HOMELAND PHARMCY #169","address1": "205 NORTH COMMERCE","address2": "","city": "ARDMORE","state": "OK","zip": "73401","zip+4": "3911","phone": "5802230143"}
{"name": "MED ECON DRUG","address1": "311 W 9TH ST","address2": "","city": "WELEETKA","state": "OK","zip": "74880","zip+4": "9801","phone": "4057862246"}
{"name": "WAL-MART PHARMACY #100123","address1": "1500 E WRANGLER BLVD","address2": "","city": "SEMINOLE","state": "OK","zip": "74868","zip+4": "0000","phone": "4053820201"}
{"name": "WAL-MART PHARMACY #100010","address1": "2020 SOUTH MUSKOGEE","address2": "","city": "TAHLEQUAH","state": "OK","zip": "74464","zip+4": "0000","phone": "9184562437"}
{"name": "MEDICAL PARK CTR PHARMACY","address1": "3400 E FRANK PHILLIPS","address2": "STE 203","city": "BARTLESVILLE","state": "OK","zip": "74006","zip+4": "2438","phone": "9183312525"}
{"name": "DRUG WAREHOUSE #15","address1": "5046 SOUTH SHERIDAN ROAD","address2": "","city": "TULSA","state": "OK","zip": "74145","zip+4": "0000","phone": "9186276464"}
{"name": "MEDX #6","address1": "302 SOUTH LEWIS STREET","address2": "","city": "TULSA","state": "OK","zip": "74104","zip+4": "0000","phone": "9185823774"}
{"name": "MEDICINE SHOPPE PHARMACY #0867","address1": "622 E WYANDOTTE AVENUE","address2": "","city": "MCALESTER","state": "OK","zip": "74501","zip+4": "0000","phone": "9184265223"}
{"name": "WAL-MART PHARMACY #100227","address1": "2400 SOUTH COUNTRY CLUB ROAD","address2": "","city": "EL RENO","state": "OK","zip": "73036","zip+4": "0000","phone": "4052626112"}
{"name": "SHERRYS DISCOUNT PHARMACY","address1": "220 S LITTLER AVE","address2": "","city": "EDMOND","state": "OK","zip": "73034","zip+4": "0000","phone": "4053411683"}
{"name": "HOMELAND PHARMCY #563","address1": "811 SE FRANK PHILLIPS BLVD","address2": "","city": "BARTLESVILLE","state": "OK","zip": "74003","zip+4": "4025","phone": "9183699411"}
{"name": "ELGIN DISCOUNT PHARMACY","address1": "7523 US HWY 277","address2": "PO BOX 449","city": "ELGIN","state": "OK","zip": "73538","zip+4": "0449","phone": "5804925007"}
{"name": "WAL-MART PHARMACY #100269","address1": "1002 NW SHERIDAN RD","address2": "","city": "LAWTON","state": "OK","zip": "73505","zip+4": "0000","phone": "5803574842"}
{"name": "WAL-MART PHARMACY #100113","address1": "2001 SO 1ST ST","address2": "","city": "CHICKASHA","state": "OK","zip": "73018","zip+4": "0000","phone": "4052240292"}
{"name": "YALE DRUG","address1": "121 N MAIN ST","address2": "","city": "YALE","state": "OK","zip": "74085","zip+4": "2507","phone": "9183874183"}
{"name": "CAMP PHARMACY","address1": "1 MEDICAL PLAZA","address2": "","city": "RATLIFF CITY","state": "OK","zip": "73481","zip+4": "0000","phone": "5808563333"}
{"name": "NOBLE PHARMACY","address1": "125 S MAIN ST","address2": "","city": "NOBLE","state": "OK","zip": "73068","zip+4": "0615","phone": "4058725531"}
{"name": "CLINIC PHARMACY","address1": "2224 IOWA AVE","address2": "","city": "CHICKASHA","state": "OK","zip": "73018","zip+4": "0000","phone": "4052244851"}
{"name": "SALLISAW PHARMACY","address1": "1212A E CHEROKEE","address2": "","city": "SALLISAW","state": "OK","zip": "74955","zip+4": "5231","phone": "9187754451"}
{"name": "WEIGANTS PHARMACY","address1": "714 KIHEKAH","address2": "","city": "PAWHUSKA","state": "OK","zip": "74056","zip+4": "0337","phone": "9182871317"}
{"name": "WAL-MART PHARMACY #100050","address1": "268 SO 7TH ST","address2": "","city": "VINITA","state": "OK","zip": "74301","zip+4": "0000","phone": "9182566435"}
{"name": "HOMELAND PHARMCY #195","address1": "4301 SOUTH MAY AVENUE","address2": "","city": "OKLAHOMA CITY","state": "OK","zip": "73119","zip+4": "3267","phone": "4056826191"}
{"name": "KRITTENBRINK PHARMACY","address1": "315 KANSAS AVE","address2": "","city": "OKARCHE","state": "OK","zip": "73762","zip+4": "0405","phone": "4052634433"}
{"name": "MILLER DRUG","address1": "11101 SURREY HILLS BLVD","address2": "","city": "YUKON","state": "OK","zip": "73099","zip+4": "0000","phone": "4053731717"}
{"name": "EUFAULA PHARMACY","address1": "401 S MAIN","address2": "","city": "EUFAULA","state": "OK","zip": "74432","zip+4": "3253","phone": "9186897701"}
{"name": "MEDX #14","address1": "1339 EAST 41ST STREET","address2": "","city": "TULSA","state": "OK","zip": "74105","zip+4": "0000","phone": "9187445490"}
{"name": "WAL-MART PHARMACY #100151","address1": "432 SOUTH GEORGE NIGH EXWY","address2": "","city": "MCALESTER","state": "OK","zip": "74501","zip+4": "0000","phone": "9184238060"}
{"name": "PHARMACY PLUS INC","address1": "211 S FIRST ST","address2": "","city": "MADILL","state": "OK","zip": "73446","zip+4": "0000","phone": "5807957322"}
{"name": "NEWBERRY EXPRESS PHARMACY","address1": "801 S BROADWAY","address2": "","city": "MARLOW","state": "OK","zip": "73055","zip+4": "0000","phone": "5806583784"}
{"name": "PUCKETT DISCOUNT DRUG","address1": "101 N LOUIS TITTLE","address2": "","city": "MANGUM","state": "OK","zip": "73554","zip+4": "1618","phone": "5807822131"}
{"name": "WAL-MART PHARMACY #100544","address1": "5401 TINKER DIAGONAL ST","address2": "","city": "DEL CITY","state": "OK","zip": "73115","zip+4": "0000","phone": "4056701030"}
{"name": "WAL-MART PHARMACY #100499","address1": "5505 W OWEN K GARRIOTT RD","address2": "","city": "ENID","state": "OK","zip": "73703","zip+4": "0000","phone": "5802339948"}
{"name": "CEDAR SPRINGS PHARMACY","address1": "5310 E HWY 37","address2": "","city": "TUTTLE","state": "OK","zip": "73089","zip+4": "9803","phone": "4053814425"}
{"name": "YOUNGS DRUG STORE","address1": "219 DEWEY AVE","address2": "","city": "POTEAU","state": "OK","zip": "74953","zip+4": "4203","phone": "9186472113"}
{"name": "WAL-MART PHARMACY #100517","address1": "951 EAST STATE HWY 152","address2": "","city": "MUSTANG","state": "OK","zip": "73064","zip+4": "0000","phone": "4053764525"}
{"name": "WAL-MART PHARMACY #100576","address1": "207 S MEMORIAL DRIVE","address2": "","city": "TULSA","state": "OK","zip": "74112","zip+4": "0000","phone": "9188382937"}
{"name": "WAL-MART PHARMACY #100564","address1": "6100 WEST RENO AVE","address2": "","city": "OKLAHOMA CITY","state": "OK","zip": "73127","zip+4": "0000","phone": "4054910482"}
{"name": "SOONER PHARMACY OF DAVIS","address1": "705 E MAIN ST","address2": "","city": "DAVIS","state": "OK","zip": "73030","zip+4": "1913","phone": "5803695220"}
{"name": "BOBS PHARMACY","address1": "210 SW 89TH ST","address2": "","city": "OKLAHOMA CITY","state": "OK","zip": "73139","zip+4": "8514","phone": "4056318174"}
{"name": "WAL-MART PHARMACY #100103","address1": "196 SHAWNEE MALL DRIVE","address2": "","city": "SHAWNEE","state": "OK","zip": "74804","zip+4": "0000","phone": "4058780281"}
{"name": "MEDICAP PHARMACY #8125","address1": "262 E 141ST STREET","address2": "","city": "GLENPOOL","state": "OK","zip": "74033","zip+4": "0000","phone": "9183223667"}
{"name": "STEELE DRUG INC","address1": "907 GRAND AVE","address2": "","city": "ARDMORE","state": "OK","zip": "73401","zip+4": "0000","phone": "5802233000"}
{"name": "SOONER PHARMACY INC OF TISHOMI","address1": "101 S BYRD ST","address2": "","city": "TISHOMINGO","state": "OK","zip": "73460","zip+4": "2216","phone": "5803719509"}
{"name": "CLINIC PHARMACY","address1": "205 S PARK LANE","address2": "STE 110","city": "ALTUS","state": "OK","zip": "73521","zip+4": "5733","phone": "5804826464"}
{"name": "WESTVIEW PHARMACY","address1": "3606 N CINCINNATI","address2": "","city": "TULSA","state": "OK","zip": "74106","zip+4": "0000","phone": "9184251385"}
{"name": "WAL-MART PHARMACY #100743","address1": "100 EAST I-240 SERVICE ROAD","address2": "","city": "OKLAHOMA CITY","state": "OK","zip": "73149","zip+4": "0000","phone": "4056312207"}
{"name": "COUNTRY BOY PHARMACY","address1": "1530 S CHOCTAW RD","address2": "A","city": "CHOCTAW","state": "OK","zip": "73020","zip+4": "0000","phone": "4053903205"}
{"name": "CVS PHARMACY #06024","address1": "1100 E LINDSEY ST","address2": "","city": "NORMAN","state": "OK","zip": "73071","zip+4": "0000","phone": "4053210226"}
{"name": "HEROD DISCOUNT DRUG STORE","address1": "107 W MAIN ST","address2": "","city": "CANTON","state": "OK","zip": "73724","zip+4": "0000","phone": "5808863444"}
{"name": "WAL-MART PHARMACY #100212","address1": "333 INTERSTATE DRIVE","address2": "","city": "NORMAN","state": "OK","zip": "73069","zip+4": "0000","phone": "4053295761"}
{"name": "WAL-MART PHARMACY #100622","address1": "7800 NW EXPRESSWAY","address2": "","city": "OKLAHOMA CITY","state": "OK","zip": "73132","zip+4": "0000","phone": "4057217260"}
{"name": "HOMELAND PHARMCY #208","address1": "2205 WEST EDMOND ROAD","address2": "","city": "EDMOND","state": "OK","zip": "73003","zip+4": "0000","phone": "4053400236"}
{"name": "ALANS PHARMACY","address1": "1721 W 6TH AVE","address2": "","city": "STILLWATER","state": "OK","zip": "74074","zip+4": "4200","phone": "4053723331"}
{"name": "CVS PHARMACY # #06109","address1": "2350 N HARPER RD","address2": "","city": "CHOCTAW","state": "OK","zip": "73020","zip+4": "0000","phone": "4053903611"}
{"name": "KENS RX","address1": "802 W GORE BLVD","address2": "","city": "LAWTON","state": "OK","zip": "73501","zip+4": "3735","phone": "5803534113"}
{"name": "HOMETOWN PHARMACY","address1": "2001 NE 23RD ST","address2": "","city": "OKLAHOMA CITY","state": "OK","zip": "73111","zip+4": "3401","phone": "4054244361"}
{"name": "WAL-MART PHARMACY #100130","address1": "1000 WEST SHAWNEE ST","address2": "","city": "MUSKOGEE","state": "OK","zip": "74403","zip+4": "0000","phone": "9186871231"}
{"name": "HUMPTY PHARMACY","address1": "1001 E DEWEY","address2": "","city": "SAPULPA","state": "OK","zip": "74066","zip+4": "4556","phone": "9182242704"}
{"name": "LOVELLS PHARMACY INC","address1": "602 W CENTRAL","address2": "","city": "ANADARKO","state": "OK","zip": "73005","zip+4": "3228","phone": "4052473348"}
{"name": "CVS PHARMACY # #06072","address1": "10800 N ROCKWELL AVE","address2": "","city": "OKLAHOMA CITY","state": "OK","zip": "73162","zip+4": "0000","phone": "4057288081"}
{"name": "BEACHLERS PHARMACY","address1": "210 W ELM ST","address2": "","city": "EL RENO","state": "OK","zip": "73036","zip+4": "5204","phone": "4052623212"}
{"name": "CVS PHARMACY # #06096","address1": "1301 N SANTA FE AVE","address2": "","city": "EDMOND","state": "OK","zip": "73003","zip+4": "0000","phone": "4053400522"}
{"name": "J AND J PHARMACY","address1": "979 W WILL ROGERS","address2": "","city": "CLAREMORE","state": "OK","zip": "74018","zip+4": "0000","phone": "9183411184"}
{"name": "CVS PHARMACY # #06128","address1": "1016 SW LEE BLVD","address2": "","city": "LAWTON","state": "OK","zip": "73501","zip+4": "0000","phone": "5803531940"}
{"name": "WAL-MART PHARMACY #100225","address1": "2108 WEST BROADWAY","address2": "","city": "SULPHUR","state": "OK","zip": "73086","zip+4": "0000","phone": "5806226181"}
{"name": "WAL-MART PHARMACY #100210","address1": "500 EAST HIGHWAY 270","address2": "","city": "HOLDENVILLE","state": "OK","zip": "74848","zip+4": "0000","phone": "4053793305"}
{"name": "WAL-MART PHARMACY #100162","address1": "1201 WEST PETREE RD","address2": "","city": "ANADARKO","state": "OK","zip": "73005","zip+4": "0000","phone": "4052472404"}
{"name": "MEDICINE SHOPPE #0674","address1": "720 SOUTH 4TH","address2": "","city": "CHICKASHA","state": "OK","zip": "73018","zip+4": "4601","phone": "4052224100"}
{"name": "CVS PHARMACY #06142","address1": "4500 W KICKAPOO AVE","address2": "","city": "SHAWNEE","state": "OK","zip": "74804","zip+4": "0000","phone": "4058780244"}
{"name": "JIMS TOWER PHARMACY","address1": "1044 SW 44TH","address2": "STE 103","city": "OKLAHOMA CITY","state": "OK","zip": "73109","zip+4": "3609","phone": "4056319625"}
{"name": "DRUG WAREHOUSE #7","address1": "3126 SOUTH HARVARD","address2": "","city": "TULSA","state": "OK","zip": "74135","zip+4": "0000","phone": "9187473622"}
{"name": "TIGERT PHARMACY LLC","address1": "35 C TIFFANY PLAZA","address2": "","city": "ARDMORE","state": "OK","zip": "73401","zip+4": "0000","phone": "5802231331"}
{"name": "BOISE CITY FAMILY PHARMACY","address1": "318 W MAIN","address2": "","city": "BOISE CITY","state": "OK","zip": "73933","zip+4": "0000","phone": "5805443441"}
{"name": "WAL-MART PHARMACY #100823","address1": "1101 EAST PROSPECT","address2": "","city": "PONCA CITY","state": "OK","zip": "74601","zip+4": "0000","phone": "5807650152"}
{"name": "MAYS #13","address1": "1500 NORTH MAIN","address2": "","city": "MIAMI","state": "OK","zip": "74354","zip+4": "0000","phone": "9185428426"}
{"name": "SHERIDAN EXPRESS PHARMACY","address1": "205 SW SHERIDAN RD","address2": "","city": "LAWTON","state": "OK","zip": "73505","zip+4": "0000","phone": "5802480300"}
{"name": "BLANCHARD DRUG","address1": "1203 N COUNCIL","address2": "","city": "BLANCHARD","state": "OK","zip": "73010","zip+4": "8000","phone": "4054852112"}
{"name": "WAL-MART PHARMACY #100838","address1": "220 SO. STATE HWY 97","address2": "","city": "S SANDS SPRINGS","state": "OK","zip": "74063","zip+4": "0000","phone": "9182459523"}
{"name": "ASBURY PHARMACY","address1": "6719 N MAY AVE","address2": "","city": "OKLAHOMA CITY","state": "OK","zip": "73116","zip+4": "3424","phone": "4058436691"}
{"name": "MEDX #16","address1": "3989 SOUTH HIGHWAY 97","address2": "","city": "SAND SPRINGS","state": "OK","zip": "74063","zip+4": "0000","phone": "9182456661"}
{"name": "PHYSICIANS AND SURGEONS PHARMA","address1": "900 N PORTER","address2": "SUITE 101","city": "NORMAN","state": "OK","zip": "73071","zip+4": "0000","phone": "4053645222"}
{"name": "MEDICINE SHOPPE #0736","address1": "1006 N HARRISON","address2": "","city": "SHAWNEE","state": "OK","zip": "74801","zip+4": "0000","phone": "4052737360"}
{"name": "WAL-MART PHARMACY #100276","address1": "1312 E MAIN","address2": "","city": "STIGLER","state": "OK","zip": "74462","zip+4": "0000","phone": "9189673369"}
{"name": "WAL-MART PHARMACY #100472","address1": "2301 WEST KENOSHA ST","address2": "","city": "BROKEN ARROW","state": "OK","zip": "74012","zip+4": "0000","phone": "9182599136"}
{"name": "MEDX #15","address1": "15030 SOUTH MEMORIAL","address2": "","city": "BIXBY","state": "OK","zip": "74008","zip+4": "0000","phone": "9183669410"}
{"name": "HARRISON DISCOUNT PHARMACY","address1": "1442 N HARRISON ST","address2": "","city": "SHAWNEE","state": "OK","zip": "74801","zip+4": "5208","phone": "4052739906"}
{"name": "WAL-MART PHARMACY #100893","address1": "401 LINWOOD PLAZA","address2": "","city": "LINDSAY","state": "OK","zip": "73052","zip+4": "0000","phone": "4057569591"}
{"name": "RANDYS PHARMACY INC","address1": "1310 MAIN ST","address2": "","city": "WOODWARD","state": "OK","zip": "73801","zip+4": "3117","phone": "5802566600"}
{"name": "WAL-MART PHARMACY #100894","address1": "6625 S MEMORIAL DRIVE","address2": "","city": "TULSA","state": "OK","zip": "74133","zip+4": "0000","phone": "9182949700"}
{"name": "BESTYET HEALTHMART PHARMACY","address1": "19671 NE 23RD","address2": "","city": "HARRAH","state": "OK","zip": "73045","zip+4": "0098","phone": "4054546261"}
{"name": "WAL-MART PHARMACY #100207","address1": "1004 NORTH BROADWAY","address2": "","city": "CLEVELAND","state": "OK","zip": "74020","zip+4": "0000","phone": "9183585269"}
{"name": "MERCY PHARMACY","address1": "4200 W MEMORIAL RD","address2": "SUITE 106","city": "OKLAHOMA CITY","state": "OK","zip": "73120","zip+4": "0000","phone": "4057523590"}
{"name": "WAL-MART PHARMACY #100992","address1": "2019 EAST 81ST ST SOUTH","address2": "","city": "TULSA","state": "OK","zip": "74137","zip+4": "0000","phone": "9184960053"}
{"name": "MAYS #18","address1": "1330 EAST 51ST STREET","address2": "","city": "TULSA","state": "OK","zip": "74105","zip+4": "0000","phone": "9187494601"}
{"name": "DRUG WAREHOUSE #20","address1": "12037 SOUTH MEMORIAL","address2": "","city": "BIXBY","state": "OK","zip": "74008","zip+4": "0000","phone": "9183692226"}
{"name": "DRUG WAREHOUSE #22","address1": "6505 EAST 71ST STREET","address2": "","city": "TULSA","state": "OK","zip": "74133","zip+4": "0000","phone": "9184923650"}
{"name": "DRUG WAREHOUSE #26","address1": "1205 EAST KENOSHA","address2": "","city": "BROKEN ARROW","state": "OK","zip": "74012","zip+4": "0000","phone": "9182512674"}
{"name": "MAYS #27","address1": "2323 WEST EDISON","address2": "","city": "TULSA","state": "OK","zip": "74127","zip+4": "0000","phone": "9185821375"}
{"name": "THOMPSONS PHARMACY","address1": "513 HILLIARY ROAD","address2": "SUITE B","city": "COMANCHE","state": "OK","zip": "73529","zip+4": "1240","phone": "5804398869"}
{"name": "ROGERS DRUG COMPANY","address1": "326 E CHEROKEE ST","address2": "","city": "WAGONER","state": "OK","zip": "74467","zip+4": "0000","phone": "9184852317"}
{"name": "PRUETTS CUT RATE PHARMACY","address1": "906 E MAIN ST","address2": "","city": "ANTLERS","state": "OK","zip": "74523","zip+4": "2808","phone": "5802985064"}
{"name": "WAL-MART PHARMACY #101043","address1": "2008 WEST GRANT","address2": "","city": "PAULS VALLEY","state": "OK","zip": "73075","zip+4": "0000","phone": "4052387525"}
{"name": "MEDIC PHARMACY HEFNER POINTE","address1": "11101 HEFNER POINTE DR","address2": "STE 101","city": "OKLAHOMA CITY","state": "OK","zip": "73120","zip+4": "0000","phone": "4057553921"}
{"name": "BAKER EXPRESS PHARMACY","address1": "1842 N HWY 81","address2": "","city": "DUNCAN","state": "OK","zip": "73533","zip+4": "0000","phone": "5802553784"}
{"name": "HARRAH PHARMACY","address1": "2060 N CHURCH","address2": "PO BOX 247","city": "HARRAH","state": "OK","zip": "73045","zip+4": "0247","phone": "4054542476"}
{"name": "MURPHYS DRUG","address1": "145 E BROADWAY ST","address2": "","city": "DRUMRIGHT","state": "OK","zip": "74030","zip+4": "3801","phone": "9183529301"}
{"name": "SCOTT ROBINSONS PRESCRIPTIONS","address1": "1560 E 21ST STREET","address2": "STE 104","city": "TULSA","state": "OK","zip": "74114","zip+4": "1304","phone": "9187432351"}
{"name": "FAIRFAX HEALTH MART DRUG","address1": "249 N MAIN ST","address2": "","city": "FAIRFAX","state": "OK","zip": "74637","zip+4": "3024","phone": "9186423318"}
{"name": "HOMELAND PHARMCY #153","address1": "1108 NW 18TH","address2": "","city": "OKLAHOMA CITY","state": "OK","zip": "73106","zip+4": "6002","phone": "4055247741"}
{"name": "ALLCARE PHARMACY AND GIFTS","address1": "20914 SE 29TH ST","address2": "","city": "HARRAH","state": "OK","zip": "73045","zip+4": "9142","phone": "4053917433"}
{"name": "APACHE DRUG","address1": "116 E EVANS","address2": "","city": "APACHE","state": "OK","zip": "73006","zip+4": "9802","phone": "5805883639"}
{"name": "SEQUOIA HEALTH SERVICES","address1": "4141 HIGHLINE BLVD","address2": "STE 100","city": "OKLAHOMA CITY","state": "OK","zip": "73108","zip+4": "0000","phone": "4055245511"}
{"name": "WAL-MART PHARMACY #101295","address1": "903 SOUTH FIRST ROUTE 3","address2": "","city": "MADILL","state": "OK","zip": "73446","zip+4": "0000","phone": "5807953358"}
{"name": "RIDGECREST PHARMACY","address1": "8220 S PENNSYLVANIA AVE","address2": "","city": "OKLAHOMA CITY","state": "OK","zip": "73159","zip+4": "5202","phone": "4056821648"}
{"name": "FAMILY HEALTH CENTER SO PHCY","address1": "10021 S WESTERN","address2": "","city": "OKLAHOMA CITY","state": "OK","zip": "73139","zip+4": "0000","phone": "4056923370"}
{"name": "GRANDVIEW PHARMACY","address1": "2406 BELL AVENUE","address2": "","city": "ELK CITY","state": "OK","zip": "73644","zip+4": "0000","phone": "5802255550"}
{"name": "BUY FOR LESS PHARMACY #3","address1": "2500 N PENNSYLVANIA AVE","address2": "","city": "OKLAHOMA CITY","state": "OK","zip": "73107","zip+4": "2427","phone": "4055255120"}
{"name": "CVS PHARMACY # #06165","address1": "3651 W ROBINSON ST","address2": "","city": "NORMAN","state": "OK","zip": "73072","zip+4": "0000","phone": "4053605406"}
{"name": "REASORS PHARMACY #4","address1": "1000 W WILL ROGERS BLVD","address2": "","city": "CLAREMORE","state": "OK","zip": "74017","zip+4": "5419","phone": "9183414557"}
{"name": "MICKS FAMILY PHARMACY INC","address1": "2116 OKLAHOMA AVE","address2": "","city": "WOODWARD","state": "OK","zip": "73801","zip+4": "4528","phone": "5802543504"}
{"name": "PRICE CUTTER PHARMACY #102","address1": "2219 N BROADWAY ST","address2": "","city": "POTEAU","state": "OK","zip": "74953","zip+4": "2611","phone": "9186479531"}
{"name": "MEDICINE SHOPPE PHARMACY","address1": "111 WEST GRANT AVE","address2": "","city": "PAULS VALLEY","state": "OK","zip": "73075","zip+4": "0000","phone": "4052383305"}
{"name": "REED FAMILY PHARMACY","address1": "814 W BROADWAY","address2": "","city": "ARDMORE","state": "OK","zip": "73401","zip+4": "0000","phone": "5802237636"}
{"name": "WAL-MART PHARMACY #101437","address1": "2600 NORTH HIGHWAY 64","address2": "","city": "GUYMON","state": "OK","zip": "73942","zip+4": "0000","phone": "5803381312"}
{"name": "COMMUNITY PHARMACY","address1": "212 E 8TH ST","address2": "","city": "BEAVER","state": "OK","zip": "73932","zip+4": "0640","phone": "5806253646"}
{"name": "WAL-MART PHARMACY #100108","address1": "1608 SOUTH DIVISION","address2": "","city": "GUTHRIE","state": "OK","zip": "73044","zip+4": "0000","phone": "4052821051"}
{"name": "CVS PHARMACY #06222","address1": "1220 N COMMERCE ST","address2": "","city": "ARDMORE","state": "OK","zip": "73401","zip+4": "0000","phone": "5802231041"}
{"name": "CVS PHARMACY # #06224","address1": "1802 S 4TH ST","address2": "","city": "CHICKASHA","state": "OK","zip": "73018","zip+4": "0000","phone": "4052220305"}
{"name": "DRUG WAREHOUSE #2","address1": "215 NORTH LYNN RIGGS","address2": "","city": "CLAREMORE","state": "OK","zip": "74017","zip+4": "0000","phone": "9183422100"}
{"name": "DRUG WAREHOUSE #29","address1": "1331 ARLINGTON","address2": "","city": "ADA","state": "OK","zip": "74820","zip+4": "0000","phone": "5803329213"}
{"name": "MEDX DRUG #31","address1": "2110 O EAST MAIN","address2": "","city": "CUSHING","state": "OK","zip": "74023","zip+4": "0000","phone": "9182255233"}
{"name": "DRUG WAREHOUSE #33","address1": "1302 SOUTH YORK","address2": "","city": "MUSKOGEE","state": "OK","zip": "74403","zip+4": "0000","phone": "9186827865"}
{"name": "MAYS #30","address1": "721 NORTH PERKINS","address2": "","city": "STILLWATER","state": "OK","zip": "74075","zip+4": "0000","phone": "4086248585"}
{"name": "REXCO DRUG","address1": "2101 NORTH MAIN","address2": "","city": "ALTUS","state": "OK","zip": "73521","zip+4": "0000","phone": "5804770381"}
{"name": "WAL-MART PHARMACY #100134","address1": "3105 WEST 3RD","address2": "","city": "ELK CITY","state": "OK","zip": "73644","zip+4": "0000","phone": "5802251575"}
{"name": "HOMELAND PHARMCY #146","address1": "1701 N. MILT PHILLIPS","address2": "","city": "SEMINOLE","state": "OK","zip": "74868","zip+4": "2333","phone": "4053821467"}
{"name": "HOMELAND PHARMCY #495","address1": "310 WEST TRUDGEON STREET","address2": "","city": "HENRYETTA","state": "OK","zip": "74437","zip+4": "4026","phone": "9186528753"}
{"name": "WAL-MART PHARMACY #101626","address1": "2000 W MEMORIAL ROAD","address2": "","city": "OKLAHOMA CITY","state": "OK","zip": "73134","zip+4": "0000","phone": "4057522888"}
{"name": "DRUG WAREHOUSE #5","address1": "3202 WEST OKMULGEE","address2": "","city": "MUSKOGEE","state": "OK","zip": "74401","zip+4": "0000","phone": "9156832211"}
{"name": "DRUG WAREHOUSE #34","address1": "708 EST AYRE STREET","address2": "","city": "SHAWNEE","state": "OK","zip": "74801","zip+4": "0000","phone": "4082753400"}
{"name": "WAL-MART PHARMACY #100137","address1": "111 NORTH PERKINS ROAD","address2": "","city": "STILLWATER","state": "OK","zip": "74075","zip+4": "0000","phone": "4053729186"}
{"name": "DRUG WAREHOUSE #35","address1": "950 EAST TAFT","address2": "","city": "TULSA","state": "OK","zip": "74066","zip+4": "0000","phone": "9182277200"}
{"name": "VALU-MED PHARMACY","address1": "1212-A S DOUGLAS BLVD","address2": "","city": "MIDWEST CITY","state": "OK","zip": "73130","zip+4": "5213","phone": "4057411200"}
{"name": "KMART PHARMACY #9582","address1": "2323 2327 NORTH HARRISON","address2": "","city": "SHAWNEE","state": "OK","zip": "74804","zip+4": "3134","phone": "4052752355"}
{"name": "KMART PHARMACY #4782","address1": "2501 REDWHEAT DRIVE","address2": "","city": "CLINTON","state": "OK","zip": "73601","zip+4": "0000","phone": "5803230157"}
{"name": "DOCTORS PARK PHARMACY","address1": "1414 ARLINGTON ST","address2": "SUITE 2000","city": "ADA","state": "OK","zip": "74820","zip+4": "2627","phone": "5803325720"}
{"name": "MEDICINE SHOPPE #1186","address1": "1001 N WASHINGTON","address2": "","city": "WEATHERFORD","state": "OK","zip": "73096","zip+4": "0000","phone": "5807741200"}
{"name": "LYONS DRUG AND GIFT","address1": "112 S BROADWAY ST","address2": "","city": "WALTERS","state": "OK","zip": "73572","zip+4": "2098","phone": "5808753188"}
{"name": "PYRAMID PHARMACY #62","address1": "3328 E 51ST ST","address2": "","city": "TULSA","state": "OK","zip": "74135","zip+4": "0000","phone": "9187435782"}
{"name": "PYRAMID PHARMACY #63","address1": "7990 E 51ST ST","address2": "","city": "TULSA","state": "OK","zip": "74145","zip+4": "0000","phone": "9186639440"}
{"name": "HOMELAND PHARMCY #222","address1": "5857 NW EXPRESSWAY","address2": "","city": "OKLAHOMA CITY","state": "OK","zip": "73132","zip+4": "0000","phone": "4057213351"}
{"name": "HOMELAND PHARMCY #267","address1": "9225 NORTH MAY AVENUE","address2": "","city": "OKLAHOMA CITY","state": "OK","zip": "73120","zip+4": "0000","phone": "4057517119"}
{"name": "HOMELAND PHARMACY #217","address1": "7101 NW 23RD","address2": "","city": "BETHANY","state": "OK","zip": "73008","zip+4": "0000","phone": "4057892596"}
{"name": "PYRAMID PHARMACY #65","address1": "4818 E 80TH ST S","address2": "","city": "TULSA","state": "OK","zip": "74136","zip+4": "0000","phone": "9184811003"}
{"name": "HOMELAND PHARMCY #219","address1": "2600 WEST ROBINSON","address2": "","city": "NORMAN","state": "OK","zip": "73069","zip+4": "0000","phone": "4053609701"}
{"name": "PYRAMID PHARMACY #67","address1": "2501 SE WASHINGTON","address2": "","city": "BARTLESVILLE","state": "OK","zip": "74006","zip+4": "0000","phone": "9183352020"}
{"name": "REASORS PHARMACY #8","address1": "3701 S ELM PL","address2": "","city": "BROKEN ARROW","state": "OK","zip": "74011","zip+4": "7920","phone": "9184558102"}
{"name": "OSBORN DRUGS","address1": "116 S WILSON ST","address2": "","city": "VINITA","state": "OK","zip": "74301","zip+4": "3730","phone": "9182566459"}
{"name": "WAL-MART PHARMACY #100028","address1": "2415 NW MAIN ST","address2": "","city": "MIAMI","state": "OK","zip": "74354","zip+4": "0000","phone": "9185428429"}
{"name": "WAL-MART PHARMACY #100136","address1": "1219 WEST DOOLIN","address2": "","city": "BLACKWELL","state": "OK","zip": "74631","zip+4": "0000","phone": "5803634090"}
{"name": "WAL-MART PHARMACY #100221","address1": "1200 GARTH BROOKS BLVD","address2": "","city": "YUKON","state": "OK","zip": "73099","zip+4": "0000","phone": "4053500500"}
{"name": "WAL-MART PHARMACY #100246","address1": "700 WEST ROGERS BLVD","address2": "","city": "SKIATOOK","state": "OK","zip": "74070","zip+4": "0000","phone": "9183963194"}
{"name": "MEDX #20","address1": "6040 SOUTH YALE AVE","address2": "","city": "TULSA","state": "OK","zip": "74135","zip+4": "0000","phone": "9184944040"}
{"name": "WAL-MART PHARMACY #100132","address1": "200 WEST STARLITE DRIVE","address2": "","city": "KINGFISHER","state": "OK","zip": "73750","zip+4": "0000","phone": "4053755747"}
{"name": "WAL-MART PHARMACY #100607","address1": "923 WEST 11 STREET HWY 9","address2": "","city": "HOBART","state": "OK","zip": "73651","zip+4": "0000","phone": "5807262630"}
{"name": "UNITED DISCOUNT DRUG #2","address1": "1602 AND ONE HALF N GREEN","address2": "","city": "PURCELL","state": "OK","zip": "73080","zip+4": "1712","phone": "4055278357"}
{"name": "OKMULGEE DISCOUNT PHARMACY","address1": "1160 S BELMONT","address2": "","city": "OKMULGEE","state": "OK","zip": "74447","zip+4": "6310","phone": "9187561223"}
{"name": "WALGREEN DRUG STORE #3040","address1": "701 WEST HOUSTON","address2": "","city": "BROKEN ARROW","state": "OK","zip": "74012","zip+4": "0000","phone": "9182517926"}
{"name": "WAL-MART PHARMACY #101056","address1": "3300 NORTH TRI-CITY DRIVE","address2": "","city": "NEWCASTLE","state": "OK","zip": "73065","zip+4": "0000","phone": "4053873404"}
{"name": "CANADIAN VALLEY MED SOLUTIONS","address1": "3401 S MERIDIAN","address2": "","city": "OKLAHOMA CITY","state": "OK","zip": "73119","zip+4": "0000","phone": "4056818118"}
{"name": "PYRAMID PHARMACY #69","address1": "421 N MAIN","address2": "","city": "STILLWATER","state": "OK","zip": "74075","zip+4": "0000","phone": "4057431080"}
{"name": "WALGREEN DRUG STORE #3037","address1": "11332 EAST 31ST","address2": "","city": "TULSA","state": "OK","zip": "74146","zip+4": "0000","phone": "9186229636"}
{"name": "WALGREEN DRUG STORE #3052","address1": "2115 S MEMORIAL DR","address2": "","city": "TULSA","state": "OK","zip": "74129","zip+4": "0000","phone": "9186224887"}
{"name": "WALGREEN DRUG STORE #3039","address1": "6415 EAST PINE","address2": "","city": "TULSA","state": "OK","zip": "74115","zip+4": "0000","phone": "9188340519"}
{"name": "BROADWAY CORNER DRUG","address1": "101 E SHAWNTEL SMITH BLVD","address2": "","city": "MULDROW","state": "OK","zip": "74948","zip+4": "0000","phone": "9184271985"}
{"name": "WALGREEN DRUG STORE #3038","address1": "1440 SOUTH LEWIS","address2": "","city": "TULSA","state": "OK","zip": "74104","zip+4": "0000","phone": "9187475963"}
{"name": "WALGREEN DRUG STORE #3051","address1": "9106 S SHERIDAN","address2": "","city": "TULSA","state": "OK","zip": "74133","zip+4": "0000","phone": "9184923509"}
{"name": "PYRAMID PHARMACY #61","address1": "3915 S PEORIA","address2": "","city": "TULSA","state": "OK","zip": "74105","zip+4": "0000","phone": "9187479740"}
{"name": "CONSUMERS PHARMACY #8","address1": "909 W 6TH ST","address2": "","city": "STILLWATER","state": "OK","zip": "74074","zip+4": "4302","phone": "4053725242"}
{"name": "GREAT PLAINS PHARMACY","address1": "3201 W GORE BLVD","address2": "","city": "LAWTON","state": "OK","zip": "73505","zip+4": "6334","phone": "5805855401"}
{"name": "POPKESS PHARMACY","address1": "524 E DON TYLER AVE","address2": "","city": "DEWEY","state": "OK","zip": "74029","zip+4": "2518","phone": "9185342262"}
{"name": "WALGREEN DRUG STORE #3018","address1": "3112 S HARVARD","address2": "","city": "TULSA","state": "OK","zip": "74135","zip+4": "0000","phone": "9187421202"}
{"name": "WAL-MART PHARMACY #100168","address1": "12101 E 96TH ST N","address2": "","city": "OWASSO","state": "OK","zip": "74055","zip+4": "0000","phone": "9182721134"}
{"name": "WAREHOUSE MARKET PHARMACY #32","address1": "1507 W 51ST ST","address2": "","city": "TULSA","state": "OK","zip": "74107","zip+4": "8041","phone": "9184461404"}
{"name": "THE MEDICINE STORE","address1": "311 N WASHINGTON AVE","address2": "","city": "DURANT","state": "OK","zip": "74701","zip+4": "3641","phone": "5809243784"}
{"name": "WAL-MART PHARMACY #100117","address1": "501 SOUTH PARK DRIVE","address2": "","city": "BROKEN BOW","state": "OK","zip": "74728","zip+4": "0000","phone": "5805843335"}
{"name": "LAVERNE DRUG AND GIFTS","address1": "102 W JANE JAYROE","address2": "","city": "LAVERNE","state": "OK","zip": "73848","zip+4": "1250","phone": "5809213373"}
{"name": "JOHNNYS HOMETOWN PHARMACY","address1": "303 E RAY FINE BLVD","address2": "STE 100","city": "ROLAND","state": "OK","zip": "74954","zip+4": "1600","phone": "9184270400"}
{"name": "WALGREEN DRUG STORE #3258","address1": "4971 S MEMORIAL","address2": "","city": "TULSA","state": "OK","zip": "74145","zip+4": "0000","phone": "9186639707"}
{"name": "HINTON PHARMACY","address1": "401 N BROADWAY","address2": "","city": "HINTON","state": "OK","zip": "73047","zip+4": "0000","phone": "4055426222"}
{"name": "HOMELAND PHARMCY #200","address1": "1724 WEST LINDSEY","address2": "","city": "NORMAN","state": "OK","zip": "73069","zip+4": "4306","phone": "4053643900"}
{"name": "THE APOTHECARY","address1": "1419 COMMERCIAL AVE","address2": "","city": "MOUNDS","state": "OK","zip": "74047","zip+4": "0000","phone": "9188276301"}
{"name": "WAL-MART PHARMACY #100178","address1": "914 E OKLAHOMA BLVD","address2": "","city": "ALVA","state": "OK","zip": "73717","zip+4": "0000","phone": "5803274054"}
{"name": "ARDMORE INDIAN CLINIC PHCY","address1": "2510 CHICKASAW BLVD","address2": "","city": "ARDMORE","state": "OK","zip": "73401","zip+4": "1341","phone": "5802268181"}
{"name": "TISHAMINGO INDIAN CLINIC PHARM","address1": "815 E 6TH ST","address2": "","city": "TISHAMINGO","state": "OK","zip": "73460","zip+4": "0430","phone": "5803712392"}
{"name": "MAYS #21","address1": "10106 SOUTH SHERIDAN","address2": "","city": "TULSA","state": "OK","zip": "74133","zip+4": "0000","phone": "9182988838"}
{"name": "FAMILY MEDICINE PHARMACY","address1": "900 NE 10TH ST","address2": "SUITE 1101","city": "OKLAHOMA CITY","state": "OK","zip": "73104","zip+4": "3114","phone": "4052712333"}
{"name": "HOMELAND PHARMCY #273","address1": "10700 SOUTH PENNSYLVANIA","address2": "","city": "OKLAHOMA CITY","state": "OK","zip": "73170","zip+4": "0000","phone": "4056913604"}
{"name": "CVS PHARMACY # #06225","address1": "1520 S BRYANT AVE","address2": "","city": "EDMOND","state": "OK","zip": "73013","zip+4": "0000","phone": "4053487982"}
{"name": "WAL-MART PHARMACY #100479","address1": "2500 NORTH MAIN","address2": "","city": "ALTUS","state": "OK","zip": "73521","zip+4": "0000","phone": "5804828466"}
{"name": "ERICS DISCOUNT PHARMACY","address1": "3700 N KICKAPOO ST","address2": "STE 140","city": "SHAWNEE","state": "OK","zip": "74804","zip+4": "0000","phone": "4052759640"}
{"name": "COUNTRY MART PHARMACY","address1": "601 E WYANDOTTE","address2": "","city": "MCALESTER","state": "OK","zip": "74501","zip+4": "5425","phone": "9184232980"}
{"name": "WAL-MART PHARMACY #100374","address1": "11207 S HWY 51","address2": "","city": "COWETA","state": "OK","zip": "74429","zip+4": "0000","phone": "9184867286"}
{"name": "WAL-MART PHARMACY #100327","address1": "1107 SOUTH MAIN STREET","address2": "","city": "JAY","state": "OK","zip": "74346","zip+4": "0000","phone": "9182534034"}
{"name": "WALGREEN DRUG STORE #3534","address1": "4704 S ELM PLACE","address2": "","city": "BROKEN ARROW","state": "OK","zip": "74011","zip+4": "0000","phone": "9184554424"}
{"name": "THE APOTHECARY SHOPPE","address1": "6136 E 51ST STREET","address2": "","city": "TULSA","state": "OK","zip": "74135","zip+4": "0000","phone": "9186652003"}
{"name": "CORAM SPECIALTY INFUSION SERVI","address1": "235 N MACARTHUR BLVD","address2": "STE 100","city": "OKLAHOMA CITY","state": "OK","zip": "73127","zip+4": "0000","phone": "4054952273"}
{"name": "PYRAMID PHARMACY #66","address1": "10122 MEMORIAL DR","address2": "","city": "TULSA","state": "OK","zip": "74133","zip+4": "0000","phone": "9183696575"}
{"name": "PYRAMID PHARMACY #64","address1": "11214 E 71ST ST S","address2": "","city": "TULSA","state": "OK","zip": "74133","zip+4": "0000","phone": "9184592538"}
{"name": "CYRIL HOME CARE PHARMACY INC","address1": "214 MISSOURI AVE","address2": "","city": "CYRIL","state": "OK","zip": "73029","zip+4": "0000","phone": "8882582453"}
{"name": "HOMELAND PHARMCY #886","address1": "24 EAST 33RD STREET","address2": "","city": "EDMOND","state": "OK","zip": "73013","zip+4": "0000","phone": "4053307202"}
{"name": "WALGREEN DRUG STORE #3643","address1": "9011 S PENNSYLVANIA AVE","address2": "","city": "OKLAHOMA CITY","state": "OK","zip": "73159","zip+4": "0000","phone": "4056921844"}
{"name": "WALGREEN DRUG STORE #3645","address1": "101 NORTH MIDWEST BLVD","address2": "","city": "MIDWEST CITY","state": "OK","zip": "73110","zip+4": "0000","phone": "4057410808"}
{"name": "WALGREEN DRUG STORE #3648","address1": "301 S SANTE FE AVENUE","address2": "","city": "EDMOND","state": "OK","zip": "73003","zip+4": "0000","phone": "4053306181"}
{"name": "WAL-MART PHARMACY #100038","address1": "1907 SE WASHINGTON ST","address2": "","city": "IDABEL","state": "OK","zip": "74745","zip+4": "0000","phone": "5802863323"}
{"name": "MEDIC PHARMACY","address1": "522 S MAIN ST","address2": "","city": "SHATTUCK","state": "OK","zip": "73858","zip+4": "0099","phone": "5809382854"}
{"name": "WALGREEN DRUG STORE #3642","address1": "4500 S SHIELDS BLVD","address2": "","city": "OKLAHOMA CITY","state": "OK","zip": "73129","zip+4": "0000","phone": "4056313425"}
{"name": "WEST END DRUG","address1": "7210 NW CACHE RD","address2": "","city": "LAWTON","state": "OK","zip": "73505","zip+4": "0000","phone": "5805361133"}
{"name": "RHOADS BROTHERS PHARMACY","address1": "106 W 7TH ST","address2": "","city": "NEWKIRK","state": "OK","zip": "74647","zip+4": "4012","phone": "5803622420"}
{"name": "WALGREEN DRUG STORE #3786","address1": "1201 NW 12TH ST","address2": "","city": "MOORE","state": "OK","zip": "73170","zip+4": "0000","phone": "4057991081"}
{"name": "WALGREEN DRUG STORE #3748","address1": "4300 SE 29TH ST","address2": "","city": "DEL CITY","state": "OK","zip": "73115","zip+4": "0000","phone": "4056774900"}
{"name": "DRUG WAREHOUSE #11","address1": "905 C SOUTH MUSKOGEE AVE","address2": "","city": "TAHLEQUAH","state": "OK","zip": "74464","zip+4": "0000","phone": "9184568220"}
{"name": "WALGREEN DRUG STORE #3718","address1": "6350 N MACARTHUR","address2": "","city": "WARR ACRES","state": "OK","zip": "73122","zip+4": "0000","phone": "4057280687"}
{"name": "WALGREEN DRUG STORE #3668","address1": "7101 W HEFNER RD","address2": "","city": "OKLAHOMA CITY","state": "OK","zip": "73162","zip+4": "0000","phone": "4057730664"}
{"name": "WALGREEN DRUG STORE #3771","address1": "7111 S LEWIS AVE","address2": "","city": "TULSA","state": "OK","zip": "74136","zip+4": "0000","phone": "9184815061"}
{"name": "WAL-MART PHARMACY #101278","address1": "1506 FIR AVENUE","address2": "","city": "PERRY","state": "OK","zip": "73077","zip+4": "0000","phone": "5803364117"}
{"name": "CVS PHARMACY # #06226","address1": "2323 N MARTIN LUTHER KING AVE","address2": "","city": "OKLAHOMA CITY","state": "OK","zip": "73111","zip+4": "0000","phone": "4054240557"}
{"name": "CVS PHARMACY # #06230","address1": "715 NW 50TH ST","address2": "","city": "OKLAHOMA CITY","state": "OK","zip": "73118","zip+4": "0000","phone": "4058431501"}
{"name": "CVS PHARMACY # #06231","address1": "4500 NW 23RD ST","address2": "","city": "OKLAHOMA CITY","state": "OK","zip": "73127","zip+4": "0000","phone": "4059475505"}
{"name": "CVS PHARMACY # #06228","address1": "700 W MAIN ST","address2": "","city": "NORMAN","state": "OK","zip": "73069","zip+4": "0000","phone": "4053217106"}
{"name": "CVS PHARMACY # #06232","address1": "110 W VANDAMENT AVE","address2": "","city": "YUKON","state": "OK","zip": "73099","zip+4": "0000","phone": "4053544869"}
{"name": "CVS PHARMACY # #06233","address1": "1327 E DANFORTH","address2": "","city": "EDMOND","state": "OK","zip": "73034","zip+4": "0000","phone": "4053591025"}
{"name": "TECUMSEH MED CLINIC PHY","address1": "418 E WALNUT","address2": "SUITE 100","city": "TECUMSEH","state": "OK","zip": "74873","zip+4": "0000","phone": "4055986597"}
{"name": "THE PHARMACY OF POCOLA","address1": "102 E FOLSOM BLVD","address2": "","city": "POCOLA","state": "OK","zip": "74902","zip+4": "0000","phone": "9184362900"}
{"name": "WILLIAMS PHARMACY #14","address1": "10011 SE 15TH ST","address2": "","city": "MIDWEST CITY","state": "OK","zip": "73130","zip+4": "0000","phone": "4057378100"}
{"name": "CLAYTON PHARMACY","address1": "102 LAWSON BLVD","address2": "PO BOX 517","city": "CLAYTON","state": "OK","zip": "74536","zip+4": "0000","phone": "9185694884"}
{"name": "PYRAMID PHARMACY #68","address1": "2005 N 14TH ST","address2": "SUITE 110","city": "PONCA CITY","state": "OK","zip": "74601","zip+4": "0000","phone": "5807627444"}
{"name": "CLINIC PHARMACY","address1": "1104 E CENTRAL","address2": "STE A","city": "ANADARKO","state": "OK","zip": "73005","zip+4": "0000","phone": "4052473081"}
{"name": "WAL-MART PHARMACY #100975","address1": "3712 WEST MAIN","address2": "","city": "DURANT","state": "OK","zip": "74701","zip+4": "0000","phone": "5809245112"}
{"name": "REASORS PHARMACY #13","address1": "11005 E 41ST STREET","address2": "","city": "TULSA","state": "OK","zip": "74146","zip+4": "0000","phone": "9186103245"}
{"name": "CORNER DRUG STORE","address1": "100 E MAIN","address2": "","city": "MADILL","state": "OK","zip": "73446","zip+4": "0000","phone": "5807953376"}
{"name": "WALGREEN DRUG STORE #4011","address1": "2835 SW 29TH STREET","address2": "","city": "OKLAHOMA CITY","state": "OK","zip": "73119","zip+4": "0000","phone": "4056319293"}
{"name": "JACKS PHARMACY","address1": "500 WILLIAMS","address2": "","city": "MAYSVILLE","state": "OK","zip": "73057","zip+4": "0000","phone": "4058674427"}
{"name": "WAL-MART PHARMACY #100049","address1": "1911 E JACKSON ST","address2": "","city": "HUGO","state": "OK","zip": "74743","zip+4": "0000","phone": "5803267541"}
{"name": "BUY FOR LESS PHARMACY #3701","address1": "3701 N MACARTHUR BLVD","address2": "","city": "OKLAHOMA CITY","state": "OK","zip": "73122","zip+4": "0000","phone": "4054958283"}
{"name": "WALGREEN DRUG STORE #4098","address1": "5120 N MAY AVE","address2": "","city": "OKLAHOMA CITY","state": "OK","zip": "73112","zip+4": "0000","phone": "4059423485"}
{"name": "WAL-MART PHARMACY #101116","address1": "1845 NORTH 81 HWY","address2": "","city": "DUNCAN","state": "OK","zip": "73533","zip+4": "0000","phone": "5802524888"}
{"name": "WALGREEN DRUG STORE #4066","address1": "1099 GARTH BROOKS BLVD","address2": "","city": "YUKON","state": "OK","zip": "73099","zip+4": "0000","phone": "4053544016"}
{"name": "DRUG WAREHOUSE #17","address1": "1920 SE WASHINGTON BLVD","address2": "","city": "BARTLESVILLE","state": "OK","zip": "74006","zip+4": "0000","phone": "9183354305"}
{"name": "CLIFS PHARMACY","address1": "505 E REDWOOD","address2": "","city": "SALLISAW","state": "OK","zip": "74955","zip+4": "0000","phone": "9187760100"}
{"name": "HENRY ROBERTS EXPRESS PHARMACY","address1": "1306 12TH NW","address2": "","city": "ARDMORE","state": "OK","zip": "73401","zip+4": "0000","phone": "5802235828"}
{"name": "WAL-MART PHARMACY #100392","address1": "800 EAST MAIN STREET","address2": "","city": "WEATHERFORD","state": "OK","zip": "73096","zip+4": "0000","phone": "5807722712"}
{"name": "WAL-MART PHARMACY #100047","address1": "1101 WEST RUTH AVE","address2": "","city": "SALLISAW","state": "OK","zip": "74955","zip+4": "0000","phone": "9187755552"}
{"name": "WAL-MART PHARMACY #100129","address1": "1715 NORTH COMMERCE STREET","address2": "","city": "ARDMORE","state": "OK","zip": "73401","zip+4": "0000","phone": "5802266444"}
{"name": "HOMELAND PHARMCY #247","address1": "2410 CHANDLER ROAD","address2": "","city": "MUSKOGEE","state": "OK","zip": "74402","zip+4": "0000","phone": "9186866734"}
{"name": "WALGREEN DRUG STORE #4111","address1": "12240 N MAY AVE","address2": "","city": "OKLAHOMA CITY","state": "OK","zip": "73120","zip+4": "0000","phone": "4057515030"}
{"name": "REASORS PHARMACY #14","address1": "1100 E KENOSHA","address2": "","city": "BROKEN ARROW","state": "OK","zip": "74012","zip+4": "0000","phone": "9182511295"}
{"name": "BUY FOR LESS PHARMACY","address1": "3501 NW EXPRESSWAY","address2": "","city": "OKLAHOMA CITY","state": "OK","zip": "73112","zip+4": "0000","phone": "4059466386"}
{"name": "DURANT INDIAN CLINIC PHARMACY","address1": "1600 N WASHINGTON","address2": "","city": "DURRANT","state": "OK","zip": "74701","zip+4": "0000","phone": "5809202100"}
{"name": "CARL ALBERT INDIAN HEALTH FAC","address1": "1001 N COUNTRY CLUB RD","address2": "","city": "ADA","state": "OK","zip": "74820","zip+4": "0000","phone": "5804214597"}
{"name": "WAL-MART PHARMACY #100232","address1": "1901 SOUTH MISSISSIPPI","address2": "","city": "ATOKA","state": "OK","zip": "74525","zip+4": "0000","phone": "5808893000"}
{"name": "WAL-MART PHARMACY #100389","address1": "1225 W I 35 FRONTAGE ROAD","address2": "","city": "EDMOND","state": "OK","zip": "73013","zip+4": "0000","phone": "4053483677"}
{"name": "WALGREEN DRUG STORE #4269","address1": "1427 N HARRISON","address2": "","city": "SHAWNEE","state": "OK","zip": "74801","zip+4": "0000","phone": "4052738220"}
{"name": "H AND G HOME MEDICAL PHARMACY","address1": "112 NE WASHINGTON BLVD","address2": "","city": "BARTLESVILLE","state": "OK","zip": "74006","zip+4": "0000","phone": "9183334848"}
{"name": "CF SOLUTIONS INC","address1": "7471 E 46TH PL","address2": "","city": "TULSA","state": "OK","zip": "74145","zip+4": "0000","phone": "9186100772"}
{"name": "WAL-MART PHARMACY #100387","address1": "3900 E 1ST ST","address2": "","city": "CHANDLER","state": "OK","zip": "74834","zip+4": "0000","phone": "4052582012"}
{"name": "WAL-MART PHARMACY #100360","address1": "3100  EAST MAIN STREET","address2": "","city": "CUSHING","state": "OK","zip": "74023","zip+4": "0000","phone": "9182256320"}
{"name": "WAL-MART PHARMACY #100324","address1": "105 WEST HWY 16","address2": "","city": "BRISTOW","state": "OK","zip": "74010","zip+4": "0000","phone": "9183675515"}
{"name": "OLE MINERS PHARMACY","address1": "103 S CONNELL","address2": "","city": "PICHER","state": "OK","zip": "74360","zip+4": "0248","phone": "9186731552"}
{"name": "PHARMACY SOLUTIONS LLC","address1": "4350 WILL ROGERS PKWY","address2": "STE 200","city": "OKLAHOMA CITY","state": "OK","zip": "73108","zip+4": "0000","phone": "4059484600"}
{"name": "WAL-MART PHARMACY #100150","address1": "3215 WILLIAMS AVENUE","address2": "","city": "WOODWARD","state": "OK","zip": "73801","zip+4": "0000","phone": "5802560097"}
{"name": "ABSENTEE SHAWNEE PHARMACY","address1": "2029 S GORDON COOPER DR","address2": "","city": "SHAWNEE","state": "OK","zip": "74801","zip+4": "0000","phone": "4058785859"}
{"name": "FIKES PHARMACY","address1": "101 E 2ND STREET","address2": "","city": "GRANDFIELD","state": "OK","zip": "73546","zip+4": "0000","phone": "5804795696"}
{"name": "SAMS PHARMACY #106342","address1": "6922 S MINGO ROAD","address2": "","city": "TULSA","state": "OK","zip": "74133","zip+4": "0000","phone": "9182949100"}
{"name": "SAMARITAN INFUSION SERVICE","address1": "3500 NW 56TH ST","address2": "SUITE 201","city": "OKLAHOMA CITY","state": "OK","zip": "73112","zip+4": "4518","phone": "4059518400"}
{"name": "WALGREEN DRUG STORE #4603","address1": "6000 S PENNSYLVANIA","address2": "","city": "OKLAHOMA CITY","state": "OK","zip": "73159","zip+4": "0000","phone": "4056818240"}
{"name": "MEDICAP PHARMACY #8224","address1": "12 N SHERIDAN RD","address2": "","city": "LAWTON","state": "OK","zip": "73505","zip+4": "0000","phone": "5802487360"}
{"name": "DRUG WAREHOUSE #4","address1": "714 WEST MAIN","address2": "","city": "JENKS","state": "OK","zip": "74037","zip+4": "0000","phone": "9182981305"}
{"name": "WALGREEN DRUG STORE #4673","address1": "5901 NW 39TH EXPRESSWAY","address2": "","city": "WARR ACRES","state": "OK","zip": "73122","zip+4": "0000","phone": "4054958243"}
{"name": "WALGREEN DRUG STORE #4723","address1": "11 W TAFT","address2": "","city": "SAPULPA","state": "OK","zip": "74066","zip+4": "0000","phone": "9182279631"}
{"name": "REASORS PHARMACY #15","address1": "4909 E 41ST ST","address2": "","city": "TULSA","state": "OK","zip": "74135","zip+4": "0000","phone": "9182707060"}
{"name": "WALGREEN DRUG STORE #4703","address1": "701 N SHERIDAN","address2": "","city": "LAWTON","state": "OK","zip": "73505","zip+4": "0000","phone": "5803534362"}
{"name": "TARGET PHARMACY #0019","address1": "1701 S YALE AVE","address2": "","city": "TULSA","state": "OK","zip": "74112","zip+4": "0000","phone": "9182930196"}
{"name": "KICKAPOO HEALTH CENTER PHARMAC","address1": "407 N HWY 102","address2": "","city": "MCLOUD","state": "OK","zip": "74851","zip+4": "0000","phone": "4059642081"}
{"name": "QUANTUM HEALTH CARE PHARMACY","address1": "4202 SW LEE BLVD BLD-B C","address2": "","city": "LAWTON","state": "OK","zip": "73505","zip+4": "0000","phone": "5802480808"}
{"name": "KATHYS PHARMACY AND GIFTS","address1": "114 E MAIN","address2": "","city": "BEGGS","state": "OK","zip": "74421","zip+4": "0000","phone": "9182674890"}
{"name": "HOMELAND PHARMCY #255","address1": "1251 ALAMDEA STREET","address2": "","city": "NORMAN","state": "OK","zip": "73071","zip+4": "0000","phone": "4054470041"}
{"name": "THRIFTY PHARMACY EDMOND","address1": "2200 W 15TH ST","address2": "SUITE 124","city": "EDMOND","state": "OK","zip": "73013","zip+4": "0000","phone": "4057154405"}
{"name": "WALGREEN DRUG STORE #4784","address1": "2100 W BRITTON RD","address2": "","city": "THE VILLAGE","state": "OK","zip": "73120","zip+4": "0000","phone": "4058426221"}
{"name": "DRUG WAREHOUSE #38","address1": "6336 EAST 4TH PLACE","address2": "","city": "TULSA","state": "OK","zip": "74112","zip+4": "0000","phone": "9188335180"}
{"name": "WALGREEN DRUG STORE #5142","address1": "1100 N HIGHWAY 81","address2": "","city": "DUNCAN","state": "OK","zip": "73533","zip+4": "0000","phone": "5802523152"}
{"name": "INOLA DRUG","address1": "19 W COMMERCIAL","address2": "","city": "INOLA","state": "OK","zip": "74036","zip+4": "0700","phone": "9185438777"}
{"name": "WAL-MART PHARMACY #102734","address1": "601 12TH AVENUE N.E.","address2": "","city": "NORMAN","state": "OK","zip": "73071","zip+4": "0000","phone": "4055795208"}
{"name": "WESTERN DRUG","address1": "1003 17TH ST","address2": "","city": "WOODWARD","state": "OK","zip": "73801","zip+4": "0000","phone": "5802565586"}
{"name": "CVS PHARMACY # #06235","address1": "106 W HWY 152","address2": "","city": "MUSTANG","state": "OK","zip": "73064","zip+4": "0000","phone": "4053763340"}
{"name": "WALGREEN DRUG STORE #4896","address1": "185 E 33 ST","address2": "","city": "EDMOND","state": "OK","zip": "73013","zip+4": "0000","phone": "4053488708"}
{"name": "REASORS PHARMACY #19","address1": "2429 E 15TH ST SOUTH","address2": "","city": "TULSA","state": "OK","zip": "74104","zip+4": "0000","phone": "9187488350"}
{"name": "LEGEND CARE PHARMACY","address1": "2330 MCKNOWN","address2": "STE B","city": "NORMAN","state": "OK","zip": "73072","zip+4": "0000","phone": "4053215300"}
{"name": "DRUG WAREHOUSE #6","address1": "1001 WYANDOTTE","address2": "","city": "MCALESTER","state": "OK","zip": "74501","zip+4": "0000","phone": "9184263535"}
{"name": "CLAREMORE COMPOUNDING CENTER I","address1": "1151 N LYNN RIGGS BLVD","address2": "","city": "CLAREMORE","state": "OK","zip": "74017","zip+4": "0000","phone": "9182833784"}
{"name": "WAL-MART PHARMACY #102875","address1": "6000 NW 23RD STREET","address2": "","city": "OKLAHOMA CITY","state": "OK","zip": "73127","zip+4": "0000","phone": "4054951040"}
{"name": "WAL-MART PHARMACY #102877","address1": "11101 NORTH ROCKWELL AVE","address2": "","city": "OKLAHOMA CITY","state": "OK","zip": "73162","zip+4": "0000","phone": "4057733478"}
{"name": "WALGREEN DRUG STORE #4895","address1": "2400 N MAY AVE","address2": "","city": "OKLAHOMA CITY","state": "OK","zip": "73107","zip+4": "0000","phone": "4059439289"}
{"name": "PHARMCARE OK INC","address1": "6800 NW 39TH ST","address2": "","city": "BETHANY","state": "OK","zip": "73008","zip+4": "2513","phone": "4057873939"}
{"name": "ANDERSON PHARMACY AND ACCENTS","address1": "5366 NW CACHE RD","address2": "SUITE 1","city": "LAWTON","state": "OK","zip": "73505","zip+4": "0000","phone": "5805959500"}
{"name": "PHARMCARE OK OF TULSA","address1": "750 S CHEROKEE ST","address2": "STE B","city": "CATOOSA","state": "OK","zip": "74015","zip+4": "2538","phone": "9183790404"}
{"name": "BROKEN ARROW FAMILY DRUG","address1": "3359 S ELM PLACE","address2": "","city": "BROKEN ARROW","state": "OK","zip": "74012","zip+4": "0000","phone": "9184513784"}
{"name": "WALGREEN DRUG STORE #3647","address1": "100 12 AVE NE","address2": "","city": "NORMAN","state": "OK","zip": "73071","zip+4": "0000","phone": "4053292162"}
{"name": "WALGREEN DRUG STORE #5531","address1": "929 WEST GARRIOTT","address2": "","city": "ENID","state": "OK","zip": "73703","zip+4": "0000","phone": "5802373221"}
{"name": "PHARMACY PROVIDERS INC","address1": "104 E 2ND AVE","address2": "STE B1","city": "OWASSO","state": "OK","zip": "74055","zip+4": "3127","phone": "9183760303"}
{"name": "WAL-MART PHARMACY #102803","address1": "2200 WEST DANFORTH ROAD","address2": "","city": "EDMOND","state": "OK","zip": "73003","zip+4": "0000","phone": "4052160525"}
{"name": "WAL-MART PHARMACY #102878","address1": "911 SW 104TH ST","address2": "","city": "OKLAHOMA CITY","state": "OK","zip": "73139","zip+4": "0000","phone": "4056923866"}
{"name": "WALGREEN DRUG STORE #5739","address1": "1111 N COMMERCE ST","address2": "","city": "ARDMORE","state": "OK","zip": "73401","zip+4": "0000","phone": "5802266826"}
{"name": "WALGREEN DRUG STORE #5740","address1": "7930 NW EXPRESSWAY","address2": "","city": "OKLAHOMA CITY","state": "OK","zip": "73132","zip+4": "0000","phone": "4057735014"}
{"name": "SAMS PHARMACY #108263","address1": "4420 SOUTH SHERIDAN ROAD","address2": "","city": "TULSA","state": "OK","zip": "74145","zip+4": "0000","phone": "9186100270"}
{"name": "SAMS PHARMACY #108241","address1": "6521 SE 29TH STREET","address2": "","city": "OKLAHOMA CITY","state": "OK","zip": "73110","zip+4": "0000","phone": "4057377457"}
{"name": "WAL-MART PHARMACY #102804","address1": "1801 BELLE ISLE BLVD","address2": "","city": "OKLAHOMA CITY","state": "OK","zip": "73118","zip+4": "0000","phone": "4058416516"}
{"name": "WAL-MART PHARMACY #102393","address1": "640 SE 4TH STREET","address2": "","city": "MOORE","state": "OK","zip": "73160","zip+4": "0000","phone": "4057943581"}
{"name": "WAL-MART PHARMACY #102394","address1": "1500 SW 59TH ST","address2": "","city": "OKLAHOMA CITY","state": "OK","zip": "73119","zip+4": "0000","phone": "4056849764"}
{"name": "WALGREEN DRUG STORE #6109","address1": "1640 SW 119TH ST","address2": "","city": "OKLAHOMA CITY","state": "OK","zip": "73170","zip+4": "0000","phone": "4056920016"}
{"name": "WALGREEN DRUG STORE #6199","address1": "6701 NORTHWEST CACHE RD","address2": "","city": "LAWTON","state": "OK","zip": "73505","zip+4": "0000","phone": "5805312696"}
{"name": "TARGET PHARMACY #0044","address1": "800 SW 44TH STREET","address2": "","city": "OKLAHOMA CITY","state": "OK","zip": "73109","zip+4": "0000","phone": "4056324964"}
{"name": "WAL-MART PHARMACY #102876","address1": "1301 EAST 2ND ST","address2": "","city": "EDMOND","state": "OK","zip": "73034","zip+4": "0000","phone": "4057153280"}
{"name": "WAL-MART PHARMACY #102880","address1": "6606 EAST 81ST ST SOUTH","address2": "","city": "TULSA","state": "OK","zip": "74133","zip+4": "0000","phone": "9185241692"}
{"name": "CHOTEAU DISCOUNT PHARMACY","address1": "214 N CHOUTEAU","address2": "","city": "CHOUTEAU","state": "OK","zip": "74337","zip+4": "0000","phone": "9184766455"}
{"name": "WALGREEN DRUG STORE #5529","address1": "2330 CHANDLER RD","address2": "","city": "MUSKOGEE","state": "OK","zip": "74403","zip+4": "0000","phone": "9186814766"}
{"name": "WALGREEN DRUG STORE #6268","address1": "4561 N PEORIA AVE","address2": "","city": "TULSA","state": "OK","zip": "74106","zip+4": "0000","phone": "9184255648"}
{"name": "THE APOTHECARY SHOPPE","address1": "510 N ELM PLACE","address2": "","city": "BROKEN ARROW","state": "OK","zip": "74012","zip+4": "0000","phone": "9184499988"}
{"name": "WALGREEN DRUG STORE #5738","address1": "1229 N EASTERN AVE","address2": "","city": "MOORE","state": "OK","zip": "73160","zip+4": "0000","phone": "4057939433"}
{"name": "WALGREEN DRUG STORE #5967","address1": "1601 S AIR DEPOT","address2": "","city": "MIDWEST CITY","state": "OK","zip": "73110","zip+4": "0000","phone": "4057411304"}
{"name": "WAL-MART PHARMACY #103275","address1": "1101 NW 164TH STREET","address2": "","city": "OKLAHOMA CITY","state": "OK","zip": "73013","zip+4": "0000","phone": "4052168375"}
{"name": "WALGREEN DRUG STORE #5530","address1": "519 S MAIN ST","address2": "","city": "STILLWATER","state": "OK","zip": "74074","zip+4": "0000","phone": "4053770187"}
{"name": "REASORS PHARMACY #16","address1": "1885 S YALE","address2": "","city": "TULSA","state": "OK","zip": "74112","zip+4": "0000","phone": "9182932256"}
{"name": "JIMS COMMUNITY PHARMACY","address1": "908 STRAKA TERRACE","address2": "","city": "OKLAHOMA CITY","state": "OK","zip": "73139","zip+4": "0000","phone": "4056050346"}
{"name": "MEDICAP PHARMACY #8299","address1": "130 S MAIN ST","address2": "","city": "OWASSO","state": "OK","zip": "74055","zip+4": "0000","phone": "9182741737"}
{"name": "SAMS PHARMACY #104731","address1": "9000 NW PASSAGE","address2": "","city": "OK CITY","state": "OK","zip": "73132","zip+4": "0000","phone": "4057723616"}
{"name": "SAMS PHARMACY #108117","address1": "1900 WEST MEMORIAL ROAD","address2": "","city": "OKLAHOMA CITY","state": "OK","zip": "73134","zip+4": "0000","phone": "4057486521"}
{"name": "HARPS PHARMACY #185","address1": "1010 EAST POPLAR","address2": "","city": "FORT GIBSON","state": "OK","zip": "74434","zip+4": "0000","phone": "9184783784"}
{"name": "WAL-MART PHARMACY #103457","address1": "3116 SOUTH GARNETT ROAD","address2": "","city": "TULSA","state": "OK","zip": "74146","zip+4": "0000","phone": "9186227923"}
{"name": "WALGREEN DRUG STORE #6551","address1": "4901 W KENOSHA ST","address2": "","city": "BROKEN ARROW","state": "OK","zip": "74012","zip+4": "0000","phone": "9182490200"}
{"name": "NORCE PHARMACY","address1": "2600 E WILLOW","address2": "","city": "ENID","state": "OK","zip": "73701","zip+4": "0000","phone": "5802371027"}
{"name": "WAL-MART PHARMACY #102395","address1": "9411 SO DELAWARE AVE","address2": "","city": "TULSA","state": "OK","zip": "74137","zip+4": "0000","phone": "9182995764"}
{"name": "SAMS PHARMACY #108289","address1": "5510 SW FIFTH AVENUE","address2": "","city": "OKLAHOMA CITY","state": "OK","zip": "73128","zip+4": "0000","phone": "4059467847"}
{"name": "WALGREEN DRUG STORE #6436","address1": "1400 E SECOND ST","address2": "","city": "EDMOND","state": "OK","zip": "73034","zip+4": "0000","phone": "4052169658"}
{"name": "OU PHARMACISTS CARE CENTER","address1": "825 NE 10TH ST","address2": "NUMBER 2200","city": "OKLAHOMA CITY","state": "OK","zip": "73104","zip+4": "0000","phone": "4052716449"}
{"name": "WALGREEN DRUG STORE #6477","address1": "615 W MAIN ST","address2": "","city": "NORMAN","state": "OK","zip": "73069","zip+4": "0000","phone": "4055735016"}
{"name": "WAL-MART PHARMACY #103508","address1": "1770 S ELM PLACE","address2": "","city": "BROKEN ARROW","state": "OK","zip": "74012","zip+4": "0000","phone": "9182586185"}
{"name": "EASTSIDE CLINIC PHARMACY","address1": "1102 SE 36TH ST","address2": "SUITE A","city": "LAWTON","state": "OK","zip": "73501","zip+4": "8462","phone": "5803556400"}
{"name": "WESTERN DRUG","address1": "104 W BROADWAY","address2": "","city": "VICI","state": "OK","zip": "73859","zip+4": "0000","phone": "5809953500"}
{"name": "TARGET PHARMACY #1397","address1": "13924 N PENNSYLVANIA AVE","address2": "","city": "OKLAHOMA CITY","state": "OK","zip": "73134","zip+4": "0000","phone": "4057520511"}
{"name": "TARGET PHARMACY #1782","address1": "10711 E 71ST STREET S","address2": "","city": "TULSA","state": "OK","zip": "74133","zip+4": "0000","phone": "9183078178"}
{"name": "WALGREEN DRUG STORE #6973","address1": "8102 S YALE","address2": "","city": "TULSA","state": "OK","zip": "74137","zip+4": "0000","phone": "9184777881"}
{"name": "WALGREEN DRUG STORE #6618","address1": "3816 E FRANK PHILLIPS BLVD","address2": "","city": "BARTLESVILLE","state": "OK","zip": "74006","zip+4": "0000","phone": "9183330422"}
{"name": "WALGREEN DRUG STORE #6834","address1": "4400 NW 23RD ST","address2": "","city": "OKLAHOMA CITY","state": "OK","zip": "73107","zip+4": "0000","phone": "4059439585"}
{"name": "PRESCRIPTIONS COMPOUNDING PHAR","address1": "806 SOUTH ASPEN AVE","address2": "STE B","city": "BROKEN ARROW","state": "OK","zip": "74012","zip+4": "0000","phone": "9182516655"}
{"name": "TARGET PHARMACY #1398","address1": "1200 EAST 2ND STREET","address2": "","city": "EDMOND","state": "OK","zip": "73034","zip+4": "0000","phone": "4058445099"}
{"name": "WALGREEN DRUG STORE #6839","address1": "11118 S MEMORIAL DR","address2": "","city": "BIXBY","state": "OK","zip": "74008","zip+4": "0000","phone": "9183697111"}
{"name": "WALGREEN DRUG STORE #7222","address1": "112 E STATE HWY 152","address2": "","city": "MUSTANG","state": "OK","zip": "73064","zip+4": "0000","phone": "4053769100"}
{"name": "PHARMACAREOK OF ENID INC","address1": "1119A E OWEN GARRIOTT RD","address2": "","city": "ENID","state": "OK","zip": "73701","zip+4": "0000","phone": "5802425252"}
{"name": "PHARMACAREOK OF HYDRO INC","address1": "509 S ARAPAHO AVE","address2": "","city": "HYDRO","state": "OK","zip": "73048","zip+4": "0000","phone": "4056634111"}
{"name": "SELECT RX","address1": "11414 E 51ST STREET","address2": "SUITE A","city": "TULSA","state": "OK","zip": "74146","zip+4": "0000","phone": "9184618103"}
{"name": "GRAND CARE PHARMACY INC","address1": "1527 W GRAND AVE","address2": "","city": "CHICKASHA","state": "OK","zip": "73018","zip+4": "0000","phone": "4052222273"}
{"name": "WALGREEN DRUG STORE #7135","address1": "10021 S YALE AVE","address2": "","city": "TULSA","state": "OK","zip": "74137","zip+4": "0000","phone": "9182988423"}
{"name": "TAYLOR DRUG LTC","address1": "8241 S WALKER","address2": "STE 120","city": "OKLAHOMA CITY","state": "OK","zip": "73139","zip+4": "0000","phone": "4056161941"}
{"name": "NORTH ROCK COMMUNITY PHARMACY","address1": "4400 N LINCOLN BLVD","address2": "","city": "OKLAHOMA CITY","state": "OK","zip": "73105","zip+4": "0000","phone": "4054250464"}
{"name": "WAL-MART PHARMACY #103295","address1": "6310 SOUTH ELM PLACE","address2": "","city": "BROKEN ARROW","state": "OK","zip": "74011","zip+4": "0000","phone": "9184554386"}
{"name": "WAL-MART PHARMACY #105093","address1": "4404 SOUTH PEORIA AVENUE EAST","address2": "","city": "TULSA","state": "OK","zip": "74105","zip+4": "0000","phone": "9187491607"}
{"name": "WALGREEN DRUG STORE #7444","address1": "15100 N WESTERN","address2": "","city": "EDMOND","state": "OK","zip": "73013","zip+4": "0000","phone": "4053303485"}
{"name": "WAL-MART PHARMACY #105071","address1": "6301 NW QUANNAH PARKER TRWAY","address2": "","city": "LAWTON","state": "OK","zip": "73505","zip+4": "0000","phone": "5805100357"}
{"name": "CENTRAL OKLAHOMA FAMILY ME","address1": "527 W 3RD ST","address2": "","city": "KONAWA","state": "OK","zip": "74849","zip+4": "0000","phone": "5809258911"}
{"name": "CHELSEA FAMILY PHARMACY","address1": "406 W 6TH ST","address2": "","city": "CHELSEA","state": "OK","zip": "74016","zip+4": "1640","phone": "9187892241"}
{"name": "MAIN STREET DRUG STORE","address1": "225 W MAIN","address2": "","city": "WILBURTON","state": "OK","zip": "74578","zip+4": "0000","phone": "9184659300"}
{"name": "DRUG WAREHOUSE #40","address1": "591 SOUTH MILL STREET","address2": "","city": "PRYOR","state": "OK","zip": "74361","zip+4": "0000","phone": "9188255303"}
{"name": "ONE POINT PATIENT CARE","address1": "808 S MUSTANG RD","address2": "","city": "YUKON","state": "OK","zip": "73099","zip+4": "0000","phone": "4054947800"}
{"name": "CVS PHARMACY # #06236","address1": "2100 SW 119TH ST","address2": "","city": "OKLAHOMA CITY","state": "OK","zip": "73170","zip+4": "0000","phone": "4056911041"}
{"name": "GETMAN APOTHECARY SHOPPE","address1": "1725 E 19TH ST","address2": "SUITE 103","city": "TULSA","state": "OK","zip": "74104","zip+4": "0000","phone": "9187421111"}
{"name": "LAKE COUNTRY HEALTHCARE LLC","address1": "27753 S WELLING RD","address2": "","city": "WELLING","state": "OK","zip": "74471","zip+4": "0000","phone": "9184579997"}
{"name": "WALGREEN DRUG STORE #7547","address1": "3600 W WASHINGTON PLACE","address2": "","city": "BROKEN ARROW","state": "OK","zip": "74012","zip+4": "0000","phone": "9182529279"}
{"name": "WALGREEN DRUG STORE #7698","address1": "2300 N 14TH ST","address2": "","city": "PONCA CITY","state": "OK","zip": "74601","zip+4": "0000","phone": "5807670882"}
{"name": "PHARMCAREOK OF DURANT INC","address1": "2915 UNIVERSITY BLVD","address2": "","city": "DURANT","state": "OK","zip": "74701","zip+4": "0000","phone": "5809202211"}
{"name": "WALGREEN DRUG STORE #7504","address1": "601 W WILL ROGERS BLVD","address2": "","city": "CLAREMORE","state": "OK","zip": "74017","zip+4": "0000","phone": "9183438822"}
{"name": "TARGET PHARMACY #1860","address1": "8315 N ROCKWELL AVE","address2": "","city": "OKLAHOMA CITY","state": "OK","zip": "73132","zip+4": "0000","phone": "4055066087"}
{"name": "WALGREEN DRUG STORE #7503","address1": "1424 S YALE AVE","address2": "","city": "TULSA","state": "OK","zip": "74112","zip+4": "0000","phone": "9188342855"}
{"name": "CVS PHARMACY # #06234","address1": "3200 S SANTA FE AVE","address2": "","city": "EDMOND","state": "OK","zip": "73013","zip+4": "0000","phone": "4053308107"}
{"name": "PREFERRED PHARMACY","address1": "12331 E 60TH ST","address2": "","city": "TULSA","state": "OK","zip": "74146","zip+4": "0000","phone": "9182522000"}
{"name": "RANEY DRUG PLLC","address1": "1106 SE WASHINGTON ST","address2": "","city": "IDABEL","state": "OK","zip": "74745","zip+4": "0000","phone": "5802082400"}
{"name": "WALGREEN DRUG STORE #7821","address1": "950 E KENOSHA ST","address2": "","city": "BROKEN ARROW","state": "OK","zip": "74012","zip+4": "0000","phone": "9182513959"}
{"name": "WALGREEN DRUG STORE #7858","address1": "5104 S LEWIS AVE","address2": "","city": "TULSA","state": "OK","zip": "74105","zip+4": "0000","phone": "9187476252"}
{"name": "WALGREEN DRUG STORE #7816","address1": "1019 E MAIN ST","address2": "","city": "WEATHERFORD","state": "OK","zip": "73096","zip+4": "0000","phone": "5807722613"}
{"name": "WAL-MART PHARMACY #105286","address1": "9320 NORTH PENN AVENUE","address2": "","city": "THE VILLAGE","state": "OK","zip": "73120","zip+4": "0000","phone": "4058402105"}
{"name": "PRUETT FOODS PHARMACY","address1": "201 S PARK DR","address2": "","city": "BROKEN BOW","state": "OK","zip": "74728","zip+4": "0000","phone": "5805846085"}
{"name": "NORTH POINTE PHARMACY","address1": "13925 N MAY AVE","address2": "","city": "OKLAHOMA CITY","state": "OK","zip": "73134","zip+4": "0000","phone": "4057513333"}
{"name": "WALGREEN DRUG STORE #7889","address1": "910 N MAIN ST","address2": "","city": "MIAMI","state": "OK","zip": "74354","zip+4": "0000","phone": "9185421045"}
{"name": "TAHLEQUAH DRUG COMPANY","address1": "2028 MAHANCY AVE","address2": "","city": "TAHLEQUAH","state": "OK","zip": "74464","zip+4": "0000","phone": "9184310555"}
{"name": "WALGREEN DRUG STORE #7857","address1": "405 E 2ND AVENUE","address2": "","city": "SAND SPRINGS","state": "OK","zip": "74063","zip+4": "0000","phone": "9182460881"}
{"name": "PREFERRED PHCY PROVIDERS OF SE","address1": "116 E COURT ST","address2": "","city": "ATOKA","state": "OK","zip": "74525","zip+4": "0000","phone": "5808899191"}
{"name": "DRUG WAREHOUSE #19","address1": "3063 SOUTH SHERIDAN","address2": "","city": "TULSA","state": "OK","zip": "74129","zip+4": "0000","phone": "9183840260"}
{"name": "WESTERN DRUG","address1": "200 S 30TH","address2": "","city": "CLINTON","state": "OK","zip": "73601","zip+4": "0000","phone": "5803231136"}
{"name": "WAL-MART PHARMACY #105314","address1": "4420 SOUTH WESTERN AVENUE","address2": "","city": "OKLAHOMA CITY","state": "OK","zip": "73109","zip+4": "0000","phone": "4056323742"}
{"name": "WALGREEN DRUG STORE #2361","address1": "12802 E 96TH ST NORTH","address2": "","city": "OWASSO","state": "OK","zip": "74055","zip+4": "0000","phone": "9182727054"}
{"name": "WALGREEN DRUG STORE #1423","address1": "2316 N ROCKWELL AVE","address2": "","city": "BETHANY","state": "OK","zip": "73008","zip+4": "0000","phone": "4054402369"}
{"name": "MCLOUD CLINIC PHARMACY","address1": "704 S 8TH ST","address2": "STE B","city": "MCLOUD","state": "OK","zip": "74851","zip+4": "0010","phone": "4059643956"}
{"name": "REASORS PHARMACY #6","address1": "1624 N 3RD ST","address2": "","city": "LANGLEY","state": "OK","zip": "74350","zip+4": "0000","phone": "9187829619"}
{"name": "CVS PHARMACY # #08314","address1": "1040 SW 19TH ST","address2": "","city": "MOORE","state": "OK","zip": "73160","zip+4": "0000","phone": "4057943001"}
{"name": "WALGREEN DRUG STORE #9223","address1": "9950 SE 15TH ST","address2": "","city": "MIDWEST CITY","state": "OK","zip": "73130","zip+4": "0000","phone": "4057410753"}
{"name": "PURCELL INDIAN HEALTH CLINIC","address1": "1438 HARDCASTLE BLVD","address2": "","city": "PURCELL","state": "OK","zip": "73080","zip+4": "0000","phone": "4055274700"}
{"name": "SAMS PHARMACY #104761","address1": "3400 WEST MAIN STREET","address2": "","city": "NORMAN","state": "OK","zip": "73072","zip+4": "0000","phone": "4053078369"}
{"name": "SEQUOIA HEALTH SERVICES TULSA","address1": "5460 S 103RD EAST AVE","address2": "","city": "TULSA","state": "OK","zip": "73146","zip+4": "0000","phone": "9186228070"}
{"name": "UNITED PHARMACY OF MANGUM","address1": "1000 N LOUIS TITTLE","address2": "","city": "MAGNUM","state": "OK","zip": "73554","zip+4": "0000","phone": "5807825400"}
{"name": "WALGREEN DRUG STORE #9375","address1": "1041 SW 19TH ST","address2": "","city": "MOORE","state": "OK","zip": "73160","zip+4": "0000","phone": "4057932502"}
{"name": "FAMILY AND CHILDRENS SERVICES","address1": "2325 S HARVARD","address2": "STE 400","city": "TULSA","state": "OK","zip": "74114","zip+4": "3300","phone": "9187123407"}
{"name": "SO OKLAHOMA RESOURCE CTR","address1": "RR 1 BOX 44 A","address2": "","city": "PAULS VALLEY","state": "OK","zip": "73075","zip+4": "0000","phone": "4052386401"}
{"name": "CVS PHARMACY # #08312","address1": "201 SMUSTANG RD","address2": "","city": "YUKON","state": "OK","zip": "73099","zip+4": "0000","phone": "4053248170"}
{"name": "ELLIOTT PLAZA PHARMACY","address1": "510 S ELLIOTT","address2": "","city": "PRYOR","state": "OK","zip": "74361","zip+4": "4225","phone": "9188252225"}
{"name": "WALGREEN DRUG STORE #2543","address1": "2345 CLASSEN","address2": "","city": "OKLAHOMA CITY","state": "OK","zip": "73106","zip+4": "0000","phone": "4055210906"}
{"name": "WAL-MART PHARMACY #103615","address1": "2217 NORTHWEST 23RD STREET","address2": "","city": "OKLAHOMA CITY","state": "OK","zip": "73107","zip+4": "0000","phone": "4055210804"}
{"name": "WALGREEN DRUG STORE #9693","address1": "1000 E CARL ALBERT PKWY","address2": "","city": "MCALESTER","state": "OK","zip": "74501","zip+4": "0000","phone": "9184260421"}
{"name": "WALGREEN DRUG STORE #9582","address1": "8917 NE 23RD ST","address2": "","city": "OKLAHOMA CITY","state": "OK","zip": "73141","zip+4": "0000","phone": "4057692774"}
{"name": "TARGET PHARMACY #0043","address1": "5400 N MAY AVE","address2": "","city": "OKLAHOMA CITY N","state": "OK","zip": "73112","zip+4": "0000","phone": "4059458375"}
{"name": "TARGET PHARMACY #2061","address1": "7305 SE 29TH ST","address2": "","city": "MIDWEST CITY","state": "OK","zip": "73110","zip+4": "0000","phone": "4054554001"}
{"name": "TARGET PHARMACY #2095","address1": "9010 N 121ST EAST AVE","address2": "","city": "OWASSO","state": "OK","zip": "74055","zip+4": "0000","phone": "9184018001"}
{"name": "PREFERRED PHARMACY","address1": "7100 N BROADWAY EXT","address2": "","city": "OKLAHOMA CITY","state": "OK","zip": "73116","zip+4": "0000","phone": "4058487337"}
{"name": "WALGREEN DRUG STORE #9874","address1": "115 W 3RD ST","address2": "","city": "ELK CITY","state": "OK","zip": "73644","zip+4": "4721","phone": "5802254409"}
{"name": "SCOTTS PHARMACY","address1": "114 N LEE ST","address2": "","city": "FORT GIBSON","state": "OK","zip": "74434","zip+4": "0000","phone": "9184783002"}
{"name": "WALGREEN DRUG STORE #9595","address1": "210 S ELM ST","address2": "","city": "JENKS","state": "OK","zip": "74037","zip+4": "0000","phone": "9182982649"}
{"name": "REASORS PHARMACY #17","address1": "2500 N HWY 66","address2": "","city": "CATOOSA","state": "OK","zip": "74015","zip+4": "0000","phone": "9182668113"}
{"name": "MCBRIDE CLINIC ORTHOPEDIC HOSP","address1": "9600 N BROADWAY EXTENSION","address2": "","city": "OKLAHOMA CITY","state": "OK","zip": "73114","zip+4": "0000","phone": "4054862185"}
{"name": "WALGREEN DRUG STORE #9735","address1": "901 OKLAHOMA AVE","address2": "","city": "WOODWARD","state": "OK","zip": "73801","zip+4": "0000","phone": "5802543618"}
{"name": "ECONOMY PHARMACY LTC #3","address1": "104 N 35TH ST","address2": "","city": "MUSKOGEE","state": "OK","zip": "74401","zip+4": "0000","phone": "9186822714"}
{"name": "SIMPSON PHARMACY","address1": "813 W CHOCTAW","address2": "","city": "BROKEN BOW","state": "OK","zip": "74728","zip+4": "0000","phone": "5805842850"}
{"name": "WALGREEN DRUG STORE #10223","address1": "100 N 32ND ST","address2": "","city": "MUSKOGEE","state": "OK","zip": "74401","zip+4": "2101","phone": "9186871021"}
{"name": "WAL-MART PHARMACY #100139","address1": "2015 S GREEN AVE","address2": "","city": "PURCELL","state": "OK","zip": "73080","zip+4": "0000","phone": "4055277396"}
{"name": "WAL-MART PHARMACY #103430","address1": "9011 NE 23RD STREET","address2": "","city": "MIDWEST CITY","state": "OK","zip": "73141","zip+4": "0000","phone": "4057693193"}
{"name": "TARGET PHARMACY #2220","address1": "1400 24TH AVE NW","address2": "","city": "NORMAN","state": "OK","zip": "73069","zip+4": "0000","phone": "4052533001"}
{"name": "WESTMINSTER FAMILY DRUG","address1": "10911 NE 23RD","address2": "","city": "NICOMA PARK","state": "OK","zip": "73066","zip+4": "0000","phone": "4057698585"}
{"name": "WALGREEN DRUG STORE #10643","address1": "1119 S MAIN ST","address2": "","city": "GROVE","state": "OK","zip": "74344","zip+4": "0000","phone": "9187866867"}
{"name": "DEER CREEK PHARMACY INC","address1": "509 ARAPAHO","address2": "","city": "HYDRO","state": "OK","zip": "73048","zip+4": "0000","phone": "4056634111"}
{"name": "FOCUS HOME MEDICAL INC","address1": "1100 N MUSTANG RD","address2": "","city": "MUSTANG","state": "OK","zip": "73064","zip+4": "0000","phone": "4053766119"}
{"name": "WAL-MART PHARMACY #103340","address1": "4720 EAST 21ST STREET","address2": "","city": "TULSA","state": "OK","zip": "74114","zip+4": "0000","phone": "9183927025"}
{"name": "WAL-MART PHARMACY #104241","address1": "4545 WEST 6TH AVE","address2": "","city": "STILLWATER","state": "OK","zip": "74074","zip+4": "0000","phone": "4057070756"}
{"name": "CVS PHARMACY #03883","address1": "9000 SOUTH MAY AVE","address2": "","city": "OKLAHOMA","state": "OK","zip": "73159","zip+4": "0000","phone": "4056911148"}
{"name": "WALGREEN DRUG STORE #09670","address1": "1132 N MAIN ST","address2": "","city": "ALTUS","state": "OK","zip": "73521","zip+4": "3122","phone": "5804771316"}
{"name": "WALGREEN DRUG STORE #10094","address1": "2675 N KELLY AVE","address2": "","city": "EDMOND","state": "OK","zip": "73003","zip+4": "0000","phone": "4058440280"}
{"name": "WALGREEN DRUG STORE #11585","address1": "700 24TH AVENUE NW","address2": "","city": "NORMAN","state": "OK","zip": "73069","zip+4": "0000","phone": "4053662288"}
{"name": "WALGREEN DRUG STORE #11596","address1": "6465 S YALE AVE","address2": "STE 110","city": "TULSA","state": "OK","zip": "74136","zip+4": "0000","phone": "9184951161"}
{"name": "WALGREEN DRUG STORE #11588","address1": "3281 SOUTH 79TH EAST AVENUE","address2": "","city": "TULSA","state": "OK","zip": "74145","zip+4": "0000","phone": "9186636464"}
{"name": "WALGREEN DRUG STORE #11587","address1": "8125 SOUTH WALKER AVENUE","address2": "","city": "OKLAHOMA CITY","state": "OK","zip": "73139","zip+4": "0000","phone": "4056364100"}
{"name": "WALGREEN DRUG STORE #11584","address1": "3330 NW 56TH STREET","address2": "SUITE 100","city": "OKLAHOMA CITY","state": "OK","zip": "73112","zip+4": "0000","phone": "4059478200"}
{"name": "WALGREEN DRUG STORE #11589","address1": "608 NW NINTH STREET","address2": "SUITE 3200","city": "OKLAHOMA CITY","state": "OK","zip": "73102","zip+4": "0000","phone": "4052350610"}
{"name": "WALGREEN DRUG STORE #11586","address1": "1201 SOUTH DOUGLAS BOULEVARD","address2": "SUITE D","city": "MIDWEST CITY","state": "OK","zip": "73130","zip+4": "0000","phone": "4057329494"}
{"name": "HUNTERS PRECISION RX","address1": "9432 N MAY AVE","address2": "STE A","city": "OKLAHOMA","state": "OK","zip": "73120","zip+4": "0000","phone": "4054182929"}
{"name": "EVANS SPECIALTY PHARMACY LLC","address1": "1110 W WILLOW","address2": "","city": "ENID","state": "OK","zip": "73703","zip+4": "0000","phone": "5802421116"}
{"name": "GREEN COUNTRY PHARMACY","address1": "619 N MAIN","address2": "","city": "MUSKOGEE","state": "OK","zip": "74401","zip+4": "0000","phone": "9186828407"}
{"name": "OU CLINIC PHARMACY","address1": "4444 E 41ST ST","address2": "","city": "TULSA","state": "OK","zip": "74135","zip+4": "2527","phone": "9186194990"}
{"name": "CVS PHARMACY #04319","address1": "7925 NW EXPRESSWAY","address2": "","city": "OKLAHOMA CITY","state": "OK","zip": "73132","zip+4": "0000","phone": "4057281392"}
{"name": "CORYS PHARMACY","address1": "102 W NOBLE","address2": "","city": "GUTHIRE","state": "OK","zip": "73044","zip+4": "0000","phone": "4052822595"}
{"name": "COUNTRY MART PHARMACY","address1": "13937 SOUTH HWY 51","address2": "","city": "COWETA","state": "OK","zip": "74429","zip+4": "0000","phone": "9182796600"}
{"name": "ERNIES PHARMACY AND WELLNESS C","address1": "410 SOUTH 32ND STREET","address2": "","city": "MUSKOQEE","state": "OK","zip": "74401","zip+4": "5007","phone": "9186830611"}
{"name": "WALGREENS DRUG STORE #10916","address1": "1621 S DIVISION ST","address2": "","city": "GUTHRIE","state": "OK","zip": "73044","zip+4": "5020","phone": "4052601574"}
{"name": "WALGREENS DRUG STORE #10957","address1": "3232 TRI CITY DR","address2": "","city": "NEWCASTLE","state": "OK","zip": "73065","zip+4": "0000","phone": "4053875006"}
{"name": "REASORS PHARMACY #18","address1": "11550 NORTH 135TH E AVE","address2": "","city": "OWASSO","state": "OK","zip": "74055","zip+4": "0000","phone": "9183716455"}
{"name": "MEDIC PHARMACY","address1": "1925 W OWEN K GARRIOTT RD","address2": "","city": "ENID","state": "OK","zip": "73703","zip+4": "0000","phone": "5802423784"}
{"name": "WALGREEN DRUG STORE #10836","address1": "1403 S WOOD DR","address2": "","city": "OKMULGEE","state": "OK","zip": "74447","zip+4": "0000","phone": "9187562483"}
{"name": "WALGREEN DRUG STORE #11295","address1": "1005 ARLINGTON ST","address2": "","city": "ADA","state": "OK","zip": "74820","zip+4": "4036","phone": "5802720283"}
{"name": "WALGREEN DRUG STORE #12094","address1": "535 NW 9TH STREET","address2": "","city": "OKLAHOMA CITY","state": "OK","zip": "73102","zip+4": "0000","phone": "4052312133"}
{"name": "TARGET PHARMACY #2357","address1": "7437 S OLYMPIA AVE W","address2": "","city": "TULSA","state": "OK","zip": "74132","zip+4": "0000","phone": "9188771621"}
{"name": "CHECOTAH PHARMACY","address1": "1003 W GENTRY","address2": "","city": "CHECOTAH","state": "OK","zip": "74426","zip+4": "0000","phone": "9184733836"}
{"name": "WALGREEN DRUG STORE #11317","address1": "302 UNIVERSITY PLACE","address2": "","city": "DURANT","state": "OK","zip": "74701","zip+4": "0000","phone": "5809201145"}
{"name": "ONCOLOGY RX","address1": "1705 E 19TH ST","address2": "STE 102","city": "TULSA","state": "OK","zip": "74104","zip+4": "0000","phone": "9187442908"}
{"name": "WALGREEN DRUG STORE #10765","address1": "1909 MUSKOGEE AVE","address2": "","city": "TAHLEQUAH","state": "OK","zip": "74464","zip+4": "5436","phone": "9184584283"}
{"name": "OMNICARE CLINICAL INTERVENTION","address1": "4500 NORTH COOPER","address2": "","city": "OKLAHOMA CITY","state": "OK","zip": "73118","zip+4": "7803","phone": "8009409963"}
{"name": "SPOON DRUG #2","address1": "3801 S STATE HWY 97","address2": "","city": "SAND SPRINGS","state": "OK","zip": "74063","zip+4": "0000","phone": "9182457373"}
{"name": "WAL-MART PHARMACY #104615","address1": "12200 S WACO","address2": "","city": "GLENPOOL","state": "OK","zip": "74033","zip+4": "0000","phone": "9182998030"}
{"name": "WALGREEN DRUG STORE #11559","address1": "1305 W CHEORKEE ST","address2": "","city": "WAGONER","state": "OK","zip": "74467","zip+4": "4625","phone": "9184856688"}
{"name": "FAMILY PHARMACY","address1": "2311 W WILLOW","address2": "","city": "ENID","state": "OK","zip": "73703","zip+4": "0000","phone": "5802347700"}
{"name": "HOOVER DRUG","address1": "107 W MAIN","address2": "","city": "STIGLER","state": "OK","zip": "74462","zip+4": "0000","phone": "9189678321"}
{"name": "WALGREEN DRUG STORE #11095","address1": "5901 NW 122ND ST","address2": "","city": "OKLAHOMA CITY","state": "OK","zip": "73142","zip+4": "0000","phone": "4057221356"}
{"name": "WALGREEN DRUG STORE #12009","address1": "2120 S 4TH ST","address2": "","city": "CHICKASHA","state": "OK","zip": "73018","zip+4": "0000","phone": "4052220278"}
{"name": "OLYMPIA PHARMACY","address1": "6802 S OLYMPIA AVE","address2": "STE 125","city": "TULSA","state": "OK","zip": "74132","zip+4": "0000","phone": "9183986279"}
{"name": "WALGREENS #11718","address1": "3915 W OWEN GARRIOT RD","address2": "","city": "ENID","state": "OK","zip": "73703","zip+4": "0000","phone": "5802372237"}
{"name": "THE CROSS PHARMACY","address1": "1101 NE 1ST ST","address2": "","city": "PRYOR","state": "OK","zip": "74361","zip+4": "0000","phone": "9188241300"}
{"name": "TARGET PHARMACY #2460","address1": "1700 GARTH BROOKS BLVD","address2": "","city": "YUKON","state": "OK","zip": "73099","zip+4": "6387","phone": "4054943180"}
{"name": "WALGREENS #12160","address1": "3751 N ASPEN AVE","address2": "","city": "BROKEN ARROW","state": "OK","zip": "74012","zip+4": "0000","phone": "9183552317"}
{"name": "HALO RX","address1": "703 N BROADWAY","address2": "STE 3","city": "ADA","state": "OK","zip": "74820","zip+4": "0000","phone": "5804219885"}
{"name": "HOMELAND PHARMACY # #236","address1": "2400 S CORNWELL DR","address2": "","city": "YUKON","state": "OK","zip": "73099","zip+4": "5804","phone": "4053547449"}
{"name": "HOMELAND PHARMACY # #235","address1": "7001 NW 122ND ST","address2": "","city": "OKLAHOMA CITY","state": "OK","zip": "73142","zip+4": "0000","phone": "4057209303"}
{"name": "HOMELAND PHARMACY #237","address1": "4129 SE 29TH ST","address2": "","city": "DEL CITY","state": "OK","zip": "73115","zip+4": "0000","phone": "4056722180"}
{"name": "HOMELAND PHARMACY #234","address1": "7000 S MAY AVE","address2": "","city": "OKLAHOMA CITY","state": "OK","zip": "73159","zip+4": "0000","phone": "4056821608"}
{"name": "HOMELAND PHAMACY # #238","address1": "1151 N BRYANT AVE","address2": "","city": "EDMOND","state": "OK","zip": "73034","zip+4": "0000","phone": "4058444404"}
{"name": "12 AND 12","address1": "6333 EAST SKELLY DRIVE","address2": "","city": "TULSA","state": "OK","zip": "74135","zip+4": "0000","phone": "9187797141"}
{"name": "CLINIC PHARMACY","address1": "3741 LEGACY","address2": "","city": "WEATHERFORD","state": "OK","zip": "73096","zip+4": "0000","phone": "5807722235"}
{"name": "TARGET PHARMACY #2422","address1": "1150 E HILLSIDE DR","address2": "","city": "BROKEN ARROW","state": "OK","zip": "74012","zip+4": "0000","phone": "9186151901"}
{"name": "WESTERN DRUG # #5","address1": "N.W. HIGHWAY 270 LONGHORN","address2": "BLDG A","city": "SEILING","state": "OK","zip": "73663","zip+4": "0000","phone": "5809224403"}
{"name": "BUY FOR LESS PHARMACY # #1006","address1": "10011 SOUTHEAST 15TH STREET","address2": "","city": "MIDWEST CITY","state": "OK","zip": "73130","zip+4": "5625","phone": "4057378100"}
{"name": "FAIRVIEW PHARMACY","address1": "210 E. STATE RD","address2": "","city": "FAIRVIEW","state": "OK","zip": "73737","zip+4": "0000","phone": "5802272045"}
{"name": "NORMAN NEUROSURGICAL PC","address1": "2412 PALMER CIRCLE","address2": "","city": "NORMAN","state": "OK","zip": "73069","zip+4": "0000","phone": "4053212984"}
{"name": "WALGREENS #12161","address1": "11605 N 135TH E AVE","address2": "","city": "COLLINSVILLE","state": "OK","zip": "74021","zip+4": "0000","phone": "9183715563"}
{"name": "PIEDMONT PHARMACY AND GIFTS","address1": "97 GOODER SIMPSON BLVD","address2": "","city": "PIEDMONT","state": "OK","zip": "73078","zip+4": "0000","phone": "4053733090"}
{"name": "URGENT MED","address1": "2004 N HIGHWAY 81","address2": "","city": "DUNCAN","state": "OK","zip": "73533","zip+4": "0000","phone": "5802521911"}
{"name": "WALGREENS #12027","address1": "1550 SW 27TH ST","address2": "","city": "EL RENO","state": "OK","zip": "73036","zip+4": "5852","phone": "4052620293"}
{"name": "OKLAHOMA INSTITUTE OF ALLERGY","address1": "609 S KELLY ST","address2": "STE J 1","city": "EDMOND","state": "OK","zip": "73003","zip+4": "0000","phone": "4052858315"}
{"name": "GREEN COUNTRY FAMILY CLINIC","address1": "1312 S GARNETT ROAD","address2": "STE E","city": "TULSA","state": "OK","zip": "74128","zip+4": "0000","phone": "9184372500"}
{"name": "CANCER CARE ASSOCIATES SPECIAL","address1": "4401 WEST MEMORIAL ROAD","address2": "STE 138","city": "OKLAHOMA CITY","state": "OK","zip": "73134","zip+4": "0000","phone": "4059362825"}
{"name": "MCALESTER REGIONAL HEALTH CENT","address1": "727 EAST WYANDOTTE","address2": "","city": "MCALESTER","state": "OK","zip": "74501","zip+4": "0000","phone": "9526532568"}
{"name": "ORTHOPAEDIC & SPORTS MEDICINE","address1": "825 E ROBINSON","address2": "","city": "NORMAN","state": "OK","zip": "73101","zip+4": "0000","phone": "4053647900"}
{"name": "WALGREENS #11811","address1": "600 SHAWNEE MALL DR","address2": "","city": "SHAWNEE","state": "OK","zip": "74804","zip+4": "1322","phone": "4058781437"}
{"name": "WALGREENS #12714","address1": "315 N 193RD EAST AVE","address2": "","city": "CATOOSA","state": "OK","zip": "74015","zip+4": "2862","phone": "9182668837"}
{"name": "REASOR'S PHARMACY #3","address1": "132 W. TAFT","address2": "","city": "SAPULPA","state": "OK","zip": "74066","zip+4": "5433","phone": "9182243600"}
{"name": "L & L PHARMACY LLC","address1": "5057 S YALE","address2": "","city": "TULSA","state": "OK","zip": "74135","zip+4": "0000","phone": "9183943784"}
{"name": "REASOR'S PHARMACY #7","address1": "7114 S SHERIDAN RD","address2": "","city": "TULSA","state": "OK","zip": "74133","zip+4": "2748","phone": "9184810000"}
{"name": "OKLAHOMA BONE AND JOINT CLINIC","address1": "4221 S WESTERN AVENUE","address2": "STE 4030","city": "OKLAHOMA CITY`","state": "OK","zip": "73109","zip+4": "0000","phone": "4056310753"}
{"name": "WAL-MART PHARMACY #105840","address1": "12912 E 86TH ST NORTH","address2": "","city": "OWASSO","state": "OK","zip": "74055","zip+4": "0000","phone": "9182741233"}
{"name": "WALGREENS #12833","address1": "1107 SW LEE BLVD","address2": "","city": "LAWTON","state": "OK","zip": "73501","zip+4": "5605","phone": "5805811067"}
{"name": "ACT PHARMACYLLC","address1": "7010 S YALE AVE STE 215","address2": "","city": "TULSA","state": "OK","zip": "74136","zip+4": "5743","phone": "9184931800"}
{"name": "CVS PHARMACY # #08986","address1": "7041 S YALE AVE","address2": "","city": "TULSA","state": "OK","zip": "74136","zip+4": "5701","phone": "9184777185"}
{"name": "CVS PHARMACY # #07971","address1": "101 ST. & MEMORIAL DRIVE (SEC)","address2": "","city": "BIXBY","state": "OK","zip": "74133","zip+4": "0000","phone": "4017651500"}
{"name": "WALGREENS #13059","address1": "15111 S MEMORIAL DR","address2": "","city": "BIXBY","state": "OK","zip": "74008","zip+4": "4123","phone": "9183662910"}
{"name": "TARGET PHARMACY #2542","address1": "10019 S MEMORIAL DR","address2": "","city": "TULSA","state": "OK","zip": "74133","zip+4": "6103","phone": "9186155001"}
{"name": "CVS PHARMACY # #02489","address1": "100 S DOUGLAS BLVD","address2": "","city": "MIDWEST CITY","state": "OK","zip": "73130","zip+4": "4207","phone": "4057410036"}
{"name": "RICK'S PHARMACY","address1": "811 W RANDOLPH STREET","address2": "","city": "ENID","state": "OK","zip": "73701","zip+4": "0000","phone": "5802337242"}
{"name": "PRUETTS FOOD-PHARMACY #02","address1": "53 W WILSON ST","address2": "","city": "VALLIANT","state": "OK","zip": "74764","zip+4": "9018","phone": "5805846056"}
{"name": "METRO PHARMACY","address1": "575 E 36TH ST N","address2": "","city": "TULSA","state": "OK","zip": "74106","zip+4": "1812","phone": "9184257770"}
{"name": "DRUG WAREHOUSE #6046","address1": "14003 S STATE HIGHWAY 51","address2": "","city": "COWETA","state": "OK","zip": "74429","zip+4": "7100","phone": "9184868800"}
{"name": "HOMELAND STORES INC","address1": "2601 NW EXPWY","address2": "OIL CENTER E","city": "OKLAHOMA CITY","state": "OK","zip": "73112","zip+4": "0000","phone": "4058796645"}
{"name": "MAYS DRUG STORES INC","address1": "1437 S BOULDER STE 1100","address2": "","city": "TULSA","state": "OK","zip": "74119","zip+4": "0000","phone": "9185926297"}
{"name": "PHARMACY PROVIDERS OF OK,I","address1": "PO BOX 18204","address2": "","city": "OKLAHOMA CITY","state": "OK","zip": "73154","zip+4": "0000","phone": ""}
{"name": "MED-X CORPORATION","address1": "7130 S LEWIS STE 520","address2": "","city": "TULSA","state": "OK","zip": "74182","zip+4": "0000","phone": "9184971400"}
{"name": "REASOR'S INC.","address1": "200 W CHOCTAW","address2": "","city": "TAHLEQUAH","state": "OK","zip": "74464","zip+4": "0000","phone": "9184561472"}