{"name": "FARMACIA NUEVA","address1": "LUIS MUNOZ RIVERA ST 58","address2": "ESQ JACINTO SEIJO","city": "VEGA ALTA","state": "PR","zip": "00692","zip+4": "0000","phone": "7878832460"}
{"name": "WALGREEN DRUG STORE #61","address1": "BAYAMON SHOP CTR","address2": "","city": "BAYAMON","state": "PR","zip": "00956","zip+4": "0000","phone": "7877802145"}
{"name": "WALGREEN DRUG STORE #55","address1": "2505 CARR 841","address2": "","city": "GUAYNABO","state": "PR","zip": "00969","zip+4": "0000","phone": "7872870500"}
{"name": "WALGREEN DRUG STORE #10160","address1": "SAN PATRICIO AVE AND ROOSEVELT","address2": "","city": "GUAYNABO","state": "PR","zip": "00968","zip+4": "0000","phone": "7877923725"}
{"name": "WALGREEN DRUG STORE #891","address1": "65TH INFANTRY SH CTR","address2": "","city": "RIO PIEDRAS","state": "PR","zip": "00925","zip+4": "0000","phone": "7877671143"}
{"name": "WALGREEN DRUG STORE #251","address1": "4203 CALLE MARGINAL","address2": "","city": "FAJARDO","state": "PR","zip": "00738","zip+4": "0000","phone": "7878601600"}
{"name": "WALGREEN DRUG STORE #403","address1": "221 GAUTIER BENITEZ","address2": "","city": "CAGUAS","state": "PR","zip": "00725","zip+4": "0000","phone": "7877046464"}
{"name": "WALGREEN DRUG STORE #314","address1": "992 AVENIDA HOSTOS","address2": "","city": "MAYAGUEZ","state": "PR","zip": "00682","zip+4": "0000","phone": "7878319249"}
{"name": "WALGREEN DRUG STORE #967","address1": "YAUCO SHP CTR","address2": "","city": "YAUCO","state": "PR","zip": "00698","zip+4": "0000","phone": "7878560134"}
{"name": "ARECIBO DRUG","address1": "153 DE DIEGO AVE","address2": "","city": "ARECIBO","state": "PR","zip": "00613","zip+4": "0000","phone": "7878780105"}
{"name": "FARMACIA HOSTOS","address1": "CALLE MENDEZ VIGO,","address2": "ESQUINA POST","city": "MAYAGUEZ","state": "PR","zip": "00680","zip+4": "0000","phone": "7878321322"}
{"name": "WALGREEN DRUG STORE #412","address1": "10 CARR 149","address2": "SUITE 100","city": "MANATI","state": "PR","zip": "00674","zip+4": "0000","phone": "7878840545"}
{"name": "FARMACIA PLAZA #2","address1": "MARGINAL D 32 EST FOREST HILLS","address2": "","city": "BAYAMON","state": "PR","zip": "00951","zip+4": "0000","phone": "7876209602"}
{"name": "FARMACIA PLAZA #1","address1": "CALLE DR VEVE 76","address2": "","city": "BAYAMON","state": "PR","zip": "00961","zip+4": "0000","phone": "7876209601"}
{"name": "FARMACIA PLAZA #3","address1": "57 BARBOSA ST","address2": "","city": "BAYAMON","state": "PR","zip": "00961","zip+4": "0000","phone": "7876209603"}
{"name": "FARMACIA MODELO #1","address1": "12 CALLE GANDARA","address2": "","city": "COROZAL","state": "PR","zip": "00783","zip+4": "1926","phone": "7878593040"}
{"name": "FARMACIA CENTRAL","address1": "CALLE ROMAN 100","address2": "","city": "ISABELA","state": "PR","zip": "00662","zip+4": "2908","phone": "7878722630"}
{"name": "FARMACIA SANTA ANA","address1": "CALLE VICTORIA 367","address2": "","city": "PONCE","state": "PR","zip": "00730","zip+4": "0000","phone": "7878422285"}
{"name": "FARMACIA VILLALBA","address1": "CARR 149 KM 58 1","address2": "SECTOR TIERRA SANTA","city": "VILLALBA","state": "PR","zip": "00766","zip+4": "1199","phone": "7878478600"}
{"name": "FARMACIA PLAZA #4","address1": "CENTRO COMERCIAL RIVERVIEW","address2": "","city": "BAYAMON","state": "PR","zip": "00956","zip+4": "0000","phone": "7876209604"}
{"name": "FARMACIA SAN MARTIN","address1": "105 CARR 686","address2": "","city": "VEGA BAJA","state": "PR","zip": "00693","zip+4": "4551","phone": "7878583712"}
{"name": "WALGREEN DRUG STORE #710","address1": "DRIVE IN PLAZA CARR 2 AND LOS","address2": "","city": "BAYAMON","state": "PR","zip": "00961","zip+4": "0000","phone": "7877859191"}
{"name": "FARMACIA PLAZA #13","address1": "CARR 167 KM 15 4","address2": "BO BUENA VISTA","city": "BAYAMON","state": "PR","zip": "00956","zip+4": "0000","phone": "7876209613"}
{"name": "FARMACIA MEDINA INC #5","address1": "CALLE DE DIEGO STE 486","address2": "BO SABANA LLANA","city": "RIO PIEDRAS","state": "PR","zip": "00923","zip+4": "3054","phone": "7877630255"}
{"name": "WALGREEN DRUG STORE #174","address1": "65TH INFANTRY JESUS FRAGOS","address2": "","city": "CAROLINA","state": "PR","zip": "00983","zip+4": "0000","phone": "7872578055"}
{"name": "WALGREEN DRUG STORE #380","address1": "RR 5 BUZON 4699","address2": "","city": "BAYAMON","state": "PR","zip": "00957","zip+4": "0000","phone": "7877300250"}
{"name": "FARMACIA PLAZA #11","address1": "CARR 863 KM 0 6","address2": "BARRIO PAJAROS CANDELARIA","city": "TOA BAJA","state": "PR","zip": "00949","zip+4": "0000","phone": "7876209611"}
{"name": "FARMACIA MODELO","address1": "16 AVE BUENA VISTA","address2": "","city": "MOROVIS","state": "PR","zip": "00687","zip+4": "0000","phone": "7878623525"}
{"name": "FARMACIA HATILLO INC","address1": "CALLE L H LACOMBA 61","address2": "","city": "HATILLO","state": "PR","zip": "00659","zip+4": "0000","phone": "7878983343"}
{"name": "WALGREEN DRUG STORE #02803","address1": "ESQ EL COMMANDANTE","address2": "","city": "CAROLINA","state": "PR","zip": "00982","zip+4": "0000","phone": "7872573022"}
{"name": "FARMACIA CRISTINA","address1": "200 AVE ORQUIDEA 5 RPTO VALENC","address2": "","city": "BAYAMON","state": "PR","zip": "00959","zip+4": "0000","phone": "7877861084"}
{"name": "WALGREEN DRUG STORE #355","address1": "547 CALLE DEL MAR","address2": "","city": "HATILLO","state": "PR","zip": "00659","zip+4": "0000","phone": "7878800290"}
{"name": "FARMACIA PLAZA #5","address1": "DR VEVE STREET 101","address2": "","city": "BAYAMON","state": "PR","zip": "00961","zip+4": "0000","phone": "7876209605"}
{"name": "FARMACIA PLAZA #6","address1": "CANTON MALL","address2": "","city": "BAYAMON","state": "PR","zip": "00961","zip+4": "0000","phone": "7876206906"}
{"name": "FARMACIA LAS PIEDRAS","address1": "CALLE BARBOSA","address2": "SUITE 52","city": "LAS PIEDRAS","state": "PR","zip": "00771","zip+4": "0000","phone": "7877338255"}
{"name": "FIRST PHARMACY #3","address1": "CALLE GEORGETTI 46","address2": "","city": "RIO PIEDRAS","state": "PR","zip": "00925","zip+4": "3607","phone": "7877516646"}
{"name": "FARMACIA PLAZA #15","address1": "AVE LOS DOMINICOS ESQ CALLE 25","address2": "URB MIRAFLORES","city": "BAYAMON","state": "PR","zip": "00958","zip+4": "0000","phone": "7876209615"}
{"name": "WALGREEN DRUG STORE #655","address1": "121 CRUZ ORTIZ STELLA ST","address2": "","city": "HUMACAO","state": "PR","zip": "00791","zip+4": "0000","phone": "7872850808"}
{"name": "WALGREEN DRUG STORE #217","address1": "1130 ASHFORD AVE CONDADO","address2": "","city": "SANTURCE","state": "PR","zip": "00907","zip+4": "0000","phone": "7877251510"}
{"name": "WALGREEN DRUG STORE #161","address1": "CALLA CERRA AND PONCE DE LEON","address2": "","city": "MIRAMAR","state": "PR","zip": "00907","zip+4": "0000","phone": "7877215300"}
{"name": "WALGREEN DRUG STORE #235","address1": "PLAZA RIO HONDO","address2": "","city": "BAYAMON","state": "PR","zip": "00961","zip+4": "0000","phone": "7877844450"}
{"name": "FARMACIA SAN MARTIN BARCELONTA","address1": "GEORGETTI","address2": "STE 9","city": "BARCELONETA","state": "PR","zip": "00617","zip+4": "2712","phone": "7878463474"}
{"name": "FARMACIA PEPINO","address1": "1001 AVE EMERITO ESTRADA","address2": "","city": "SAN SEBASTIAN","state": "PR","zip": "00685","zip+4": "0000","phone": "7878963090"}
{"name": "FARMACIA PLAZA #14","address1": "AVE DOMENECH","address2": "STE 400","city": "HATO REY","state": "PR","zip": "00918","zip+4": "0000","phone": "7876209614"}
{"name": "FARMACIA CENTRAL","address1": "65 INFANTERIA NO 2 SUR","address2": "","city": "LAJAS","state": "PR","zip": "00667","zip+4": "0000","phone": "7878992270"}
{"name": "FARMACIA BRISAS DEL MAR","address1": "CALLE 2 BRISAS DEL MAR SUITE 9","address2": "BOX1238","city": "LUQUILLO","state": "PR","zip": "00773","zip+4": "0000","phone": "7878894880"}
{"name": "WALGREEN DRUG STORE #374","address1": "2097 AVE HOSTOS","address2": "","city": "MAYAGUEZ","state": "PR","zip": "00682","zip+4": "0000","phone": "7878054005"}
{"name": "FARMACIA SAN ARCANGEL","address1": "APARTADO 863","address2": "MUNOX RIVERA NO 2","city": "CAGUAS","state": "PR","zip": "00726","zip+4": "0000","phone": "7877443400"}
{"name": "WALGREEN DRUG STORE #667","address1": "1963 LOIZA ST","address2": "","city": "SAN JUAN","state": "PR","zip": "00911","zip+4": "0000","phone": "7877280510"}
{"name": "FARMACIA BELEMAR","address1": "COM PARQUE ECUESTRE CALLE 13","address2": "UA 4","city": "CAROLINA","state": "PR","zip": "00987","zip+4": "8570","phone": "7877623525"}
{"name": "FARMACIA LA SALUD","address1": "CALLE SAN IGNACIO 250","address2": "","city": "MAYAGUEZ","state": "PR","zip": "00680","zip+4": "4625","phone": "7878326355"}
{"name": "WALGREEN DRUG STORE #199","address1": "2023 LAS AMERICAS AVE","address2": "","city": "PONCE","state": "PR","zip": "00731","zip+4": "4607","phone": "7878406090"}
{"name": "FARMACIA ALIMAR","address1": "AVE ESMERALDA 47 URB MUNOZ RIV","address2": "","city": "GUAYNABO","state": "PR","zip": "00969","zip+4": "0000","phone": "7877207439"}
{"name": "WALGREEN DRUG STORE #338","address1": "RT 30 CORDERO AVE","address2": "","city": "CAGUAS","state": "PR","zip": "00725","zip+4": "0000","phone": "7877469888"}
{"name": "FARMACIA GENERICA RAMALLOSA","address1": "BO MULAS CARRETERA 174 KM 21 1","address2": "","city": "AGUAS BUENAS","state": "PR","zip": "00703","zip+4": "0000","phone": "7877327900"}
{"name": "WALGREEN DRUG STORE #499","address1": "65 ESTRELLA ST","address2": "","city": "PONCE","state": "PR","zip": "00731","zip+4": "0000","phone": "7878402820"}
{"name": "SUPER FARMACIA DEL PUEBLO","address1": "44 CALLE RAFAEL LASA","address2": "","city": "AGUAS BUENAS","state": "PR","zip": "00703","zip+4": "3337","phone": "7877322272"}
{"name": "FARMACIA PLAZA #7","address1": "CALLE DEGETAU 11","address2": "","city": "BAYAMON","state": "PR","zip": "00961","zip+4": "0000","phone": "7876209607"}
{"name": "WALGREEN DRUG STORE #997","address1": "1 FAGOT AVENUE","address2": "","city": "PONCE","state": "PR","zip": "00731","zip+4": "0000","phone": "7878412136"}
{"name": "FARMACIA ROYAL","address1": "AVE BORINQUEN 2001","address2": "","city": "SANTURCE","state": "PR","zip": "00916","zip+4": "0000","phone": "7877272221"}
{"name": "FARMACIA PARQUE","address1": "CALLE PARQUE 6","address2": "","city": "BAYAMON","state": "PR","zip": "00961","zip+4": "6125","phone": "7877857284"}
{"name": "DCQ CORPORATION","address1": "62 E DE DIEGO","address2": "","city": "MAYAGUEZ","state": "PR","zip": "00680","zip+4": "0000","phone": "7878325620"}
{"name": "WALGREEN DRUG STORE #37","address1": "STATE RD 2 AND 155","address2": "","city": "VEGA BAJA","state": "PR","zip": "00693","zip+4": "0000","phone": "7878584900"}
{"name": "WALGREEN DRUG STORE #473","address1": "PLAZA LAS AMERICAS","address2": "","city": "SAN JUAN","state": "PR","zip": "00918","zip+4": "0000","phone": "7877510890"}
{"name": "FARMACIA SAN MARTIN MANATI INC","address1": "CENTRO COMERCIAL PUERTA","address2": "DEL SOL 54 CARR 2 STE 3","city": "MANATI","state": "PR","zip": "00674","zip+4": "4922","phone": "7878844444"}
{"name": "SARIMAR DRUG","address1": "SAN CLAUDIO MAIL ST 101","address2": "","city": "SAN JUAN","state": "PR","zip": "00926","zip+4": "0000","phone": "7877601280"}
{"name": "CARIBBEAN PHARMACY","address1": "670 AVE PONCE DE LEON","address2": "CARIBBEAN TOWER","city": "HATO REY","state": "PR","zip": "00917","zip+4": "0000","phone": "7876140195"}
{"name": "FARMACIA PLAZA #8","address1": "AVE DOMENECH 394","address2": "","city": "HATO REY","state": "PR","zip": "00918","zip+4": "0000","phone": "7876209608"}
{"name": "FARMACIA PLAZA #9","address1": "AVE LAS CUMBRES X 1","address2": "","city": "BAYAMON","state": "PR","zip": "00959","zip+4": "0000","phone": "7876209609"}
{"name": "WALGREEN DRUG STORE #157","address1": "LAUREL AVENUE AND ALAMEDA AVE","address2": "","city": "BAYAMON","state": "PR","zip": "00956","zip+4": "0000","phone": "7872694200"}
{"name": "FARMACIA LOS ANGELES","address1": "4406 AVE MILITAR BO COTTO","address2": "","city": "ISABELA","state": "PR","zip": "00662","zip+4": "0000","phone": "7878725943"}
{"name": "WALGREEN DRUG STORE #438","address1": "3 CONDOMINO ISLAND","address2": "","city": "CANOVANAS","state": "PR","zip": "00729","zip+4": "0000","phone": "7872562121"}
{"name": "WALGREEN DRUG STORE #368","address1": "STATE RD 149 AND 584","address2": "","city": "JUANA DIAZ","state": "PR","zip": "00795","zip+4": "0000","phone": "7878377080"}
{"name": "WALGREEN DRUG STORE #677","address1": "5800 JESUS T PINIERO","address2": "","city": "CAYEY","state": "PR","zip": "00736","zip+4": "0000","phone": "7872630246"}
{"name": "KMART PHARMACY #7419","address1": "RAFAEL CORDERO HWY 30","address2": "","city": "CAGUAS","state": "PR","zip": "00725","zip+4": "0000","phone": "7877465212"}
{"name": "WALGREEN DRUG STORE #167","address1": "LUNA ST AND ESQ CARRO","address2": "","city": "SAN GERMAN","state": "PR","zip": "00683","zip+4": "0000","phone": "7878921170"}
{"name": "KMART PHARMACY #7566","address1": "STATE ROAD 2 KM 802","address2": "","city": "ARECIBO","state": "PR","zip": "00612","zip+4": "0000","phone": "7878793696"}
{"name": "FARMACIA DE DIEGO","address1": "16 RAMON EMETERIO BETANCES NOR","address2": "","city": "MAYAGUEZ","state": "PR","zip": "00680","zip+4": "0000","phone": "7878324200"}
{"name": "FARMACIA KEILA #2","address1": "37 LUIS MUNOZ RIVERA","address2": "","city": "SANTA ISABEL","state": "PR","zip": "00757","zip+4": "2610","phone": "7878452545"}
{"name": "FARMACIA NUESTRA","address1": "CALLE A B 4","address2": "","city": "VEGA BAJA","state": "PR","zip": "00693","zip+4": "6421","phone": "7878553713"}
{"name": "FARMACIA LAS VEGAS","address1": "AVE FLOR DEL VALLE BB-1","address2": "URB LAS VEGAS","city": "CATANO","state": "PR","zip": "00962","zip+4": "0000","phone": "7877888414"}
{"name": "WALGREEN DRUG STORE #177","address1": "CARR2 KM 1296","address2": "","city": "AGUADILLA","state": "PR","zip": "00603","zip+4": "0000","phone": "7878828005"}
{"name": "WALGREEN DRUG STORE #183","address1": "4210 CARRETERA 693","address2": "","city": "DORADO","state": "PR","zip": "00646","zip+4": "0000","phone": "7872785800"}
{"name": "FARMACIA NUEVA","address1": "CARR 156 KM 49 BO SUMIDERO","address2": "","city": "AGUAS BUENAS","state": "PR","zip": "00703","zip+4": "0000","phone": "7877324799"}
{"name": "KMART PHARMACY #9394","address1": "STATE RD 3","address2": "","city": "FAJARDO","state": "PR","zip": "00738","zip+4": "0000","phone": "7878633518"}
{"name": "WALGREEN DRUG STORE #156","address1": "5984 AVE ISLA VERDE","address2": "","city": "CAROLINA","state": "PR","zip": "00979","zip+4": "0000","phone": "7879820222"}
{"name": "FARMACIA PAJUIL","address1": "CARR 490 KM 3 2 B CAMPO ALEGRE","address2": "","city": "HATILLO","state": "PR","zip": "00659","zip+4": "0000","phone": "7878201972"}
{"name": "KMART PHARMACY #4490","address1": "SAN PATRICAIO PLAZA","address2": "","city": "SAN JUAN","state": "PR","zip": "00920","zip+4": "0000","phone": "7877927708"}
{"name": "KMART PHARMACY #4844","address1": "9410 LOS ROMEROS AVENUE","address2": "","city": "RIO PIEDROS","state": "PR","zip": "00926","zip+4": "0000","phone": "7877205155"}
{"name": "KMART PHARMACY #7570","address1": "PLAZA RIO HONDO","address2": "","city": "BAYAMON","state": "PR","zip": "00961","zip+4": "0000","phone": "7877955088"}
{"name": "WALGREEN DRUG STORE #185","address1": "CARR 123 EDIF 940","address2": "","city": "UTUADO","state": "PR","zip": "00641","zip+4": "0000","phone": "7878940100"}
{"name": "WAL-MART PHARMACY #102240","address1": "PLZ PAIMA REAL PR 3 KM 77 6","address2": "","city": "HUMACAO","state": "PR","zip": "00791","zip+4": "0000","phone": "8098529620"}
{"name": "FARMACIA CDT MANATI","address1": "CARR 2 KM 50","address2": "","city": "MANATI","state": "PR","zip": "00674","zip+4": "0000","phone": "7878844820"}
{"name": "WALGREEN DRUG STORE #315","address1": "100 GRAN BLVD PASEO AVE","address2": "","city": "RIO PIEDRAS","state": "PR","zip": "00926","zip+4": "0000","phone": "7872832525"}
{"name": "KMART PHARMACY #7446","address1": "AVE JESUS T PINERO 4010","address2": "","city": "CAYEY","state": "PR","zip": "00736","zip+4": "0000","phone": "7877382495"}
{"name": "WALGREEN DRUG STORE #00597","address1": "PINEIRO AVE 1198 CAPARRA TER","address2": "","city": "RIO PIEDRAS","state": "PR","zip": "00921","zip+4": "0000","phone": "7877926185"}
{"name": "KMART PHARMACY #3882","address1": "STATE ROAD 2 KM1495","address2": "","city": "MAYAQUEZ","state": "PR","zip": "00680","zip+4": "0000","phone": "7872655300"}
{"name": "KMART PHARMACY #7788","address1": "PR 167 AND PR 199 BAYMON TOWNE","address2": "","city": "BAYAMON","state": "PR","zip": "00957","zip+4": "0000","phone": "7877302615"}
{"name": "WALGREEN DRUG STORE #714","address1": "1000 STATE RD 167 STE 2","address2": "","city": "BAYAMON","state": "PR","zip": "00959","zip+4": "0000","phone": "7877878989"}
{"name": "KMART PHARMACY #4494","address1": "200 CARR 181","address2": "","city": "TRUJILLO ALTO","state": "PR","zip": "00976","zip+4": "3699","phone": "7877557710"}
{"name": "WAL-MART PHARMACY #101822","address1": "150 CARR 940 STE 180","address2": "","city": "FAJARDO","state": "PR","zip": "00738","zip+4": "0000","phone": "7878010502"}
{"name": "SUPER FARMACIA REBECA","address1": "AVENIDA NOEL ESTRADA","address2": "STE 80","city": "ISABELA","state": "PR","zip": "00662","zip+4": "0000","phone": "7878722410"}
{"name": "WALGREEN DRUG STORE #363","address1": "1115 65TH INFANTRY AVE","address2": "","city": "SAN JUAN","state": "PR","zip": "00924","zip+4": "0000","phone": "7877684400"}
{"name": "WAL-MART PHARMACY #102072","address1": "AVE LOS VETERANOS","address2": "","city": "GUAYAMA","state": "PR","zip": "00784","zip+4": "0000","phone": "7878662060"}
{"name": "WALGREEN DRUG STORE #31","address1": "PR 54KM 09 DESIVO SUR","address2": "","city": "GUAYAMA","state": "PR","zip": "00784","zip+4": "0000","phone": "7878645355"}
{"name": "WAL-MART PHARMACY #101854","address1": "PLZ DEL NORTE CARR 2 KM 819","address2": "","city": "HATILLO","state": "PR","zip": "00659","zip+4": "0000","phone": "7878171070"}
{"name": "KMART PHARMACY #7783","address1": "CALLE KALAF 525","address2": "","city": "HATO REY","state": "PR","zip": "00918","zip+4": "0000","phone": "7872822291"}
{"name": "WALGREEN DRUG STORE #13","address1": "35 CALLE JUAN C BORBON STE 77","address2": "","city": "GUAYNABO","state": "PR","zip": "00969","zip+4": "0000","phone": "7872873721"}
{"name": "WALGREEN DRUG STORE #30","address1": "400 AVE LA SIERRA 177","address2": "","city": "CUPEY","state": "PR","zip": "00926","zip+4": "0000","phone": "7872922010"}
{"name": "CANOVANAS PHARMACY","address1": "URB  LOIZA VALLEY AA-12","address2": "CALLE BAUHINIA STE 1","city": "CANOVANAS","state": "PR","zip": "00729","zip+4": "3440","phone": "7878763400"}
{"name": "FARMACIA CDT POLICLINICA FAMIL","address1": "CALLE ARIZMENDI 72","address2": "","city": "FLORIDA","state": "PR","zip": "00650","zip+4": "0000","phone": "7878221648"}
{"name": "WALGREEN DRUG STORE #14","address1": "JUNCOS PLAZA SHOPPING","address2": "","city": "JUNCOS","state": "PR","zip": "00777","zip+4": "0000","phone": "7877131440"}
{"name": "KMART PHARMACY #3993","address1": "STATE 149 AND STATE 584","address2": "","city": "JUANA DIAZ","state": "PR","zip": "00795","zip+4": "0000","phone": "7872600530"}
{"name": "KMART PHARMACY #7665","address1": "65TH INFANTRY AVENUE","address2": "","city": "CAROLINA","state": "PR","zip": "00985","zip+4": "0000","phone": "7877523445"}
{"name": "FARMACIA KEILA","address1": "BALDORIOTY 62","address2": "","city": "SALINAS","state": "PR","zip": "00751","zip+4": "0000","phone": "7878243072"}
{"name": "KMART PHARMACY #4732","address1": "ROAD 2 KM 1264 BO CAIMITAL ALT","address2": "","city": "AGUADILLA","state": "PR","zip": "00605","zip+4": "0000","phone": "7878191805"}
{"name": "WAL-MART PHARMACY #102423","address1": "PARQUE ESCORIAL","address2": "","city": "CAROLINA","state": "PR","zip": "00987","zip+4": "0000","phone": "7877011060"}
{"name": "WALGREEN DRUG STORE #82","address1": "35 LOS DOMINICOS AVE","address2": "","city": "TOA BAJA","state": "PR","zip": "00949","zip+4": "0000","phone": "7877952022"}
{"name": "KMART PHARMACY #7741","address1": "CARR 2 INTER CALLE BARAMAYA","address2": "","city": "PONCE","state": "PR","zip": "00728","zip+4": "0000","phone": "7878121616"}
{"name": "FARMACIA SAN PEDRO","address1": "101 CENTRO COMERCIAL EL MUELLE","address2": "AVE. DE LAS POSCADORES","city": "LAJAS","state": "PR","zip": "00667","zip+4": "0000","phone": "7878998719"}
{"name": "FARMACIA BRAZO DE ORO","address1": "CALLE DR PEDRO OLBIZU CAMPOS","address2": "SUITE 8","city": "LARES","state": "PR","zip": "00669","zip+4": "0000","phone": "7878975398"}
{"name": "FARMACIA PLAZA #10","address1": "AVE PONCE DE LEON","address2": "455","city": "HATO REY","state": "PR","zip": "00917","zip+4": "0000","phone": "7876209610"}
{"name": "KMART PHARMACY #9789","address1": "WINSTON CHURCHILL AVENUE","address2": "","city": "RIO PIEDRAS","state": "PR","zip": "00926","zip+4": "0000","phone": "7872960488"}
{"name": "KMART PHARMACY #7784","address1": "PLAZA CARIBE MALL CARR ESTATAL","address2": "","city": "VEGA ALTA","state": "PR","zip": "00692","zip+4": "0000","phone": "7872707730"}
{"name": "WALGREEN DRUG STORE #323","address1": "RD 2 AND MAIN ST","address2": "","city": "YAUCO","state": "PR","zip": "00698","zip+4": "0000","phone": "7872675725"}
{"name": "WALGREEN DRUG STORE #105","address1": "PR2 LOS COLINAS 100","address2": "","city": "TOA BAJA","state": "PR","zip": "00951","zip+4": "0000","phone": "7877798383"}
{"name": "WAL-MART PHARMACY #102026","address1": "CARRETERA ESTATAL 3","address2": "","city": "PONCE","state": "PR","zip": "00731","zip+4": "0000","phone": "7877094036"}
{"name": "KMART PHARMACY #3896","address1": "PR2 & CASTRO PEREZ AVENUE","address2": "","city": "SAN GERMAN","state": "PR","zip": "00683","zip+4": "0000","phone": "7878921500"}
{"name": "KMART PHARMACY #7752","address1": "601 YAUCO PLAZA","address2": "","city": "YAUCO","state": "PR","zip": "00698","zip+4": "0000","phone": "7872676611"}
{"name": "WALGREEN DRUG STORE #53","address1": "ROAD 181 AND ROAD 183","address2": "","city": "SAN LORENZO","state": "PR","zip": "00754","zip+4": "0000","phone": "7877150500"}
{"name": "WALGREEN DRUG STORE #396","address1": "999 MUNOZ RIVERA AVE","address2": "","city": "SAN JUAN","state": "PR","zip": "00925","zip+4": "0000","phone": "7872940506"}
{"name": "WALGREEN DRUG STORE #165","address1": "2706 AVE MARUCA","address2": "","city": "PONCE","state": "PR","zip": "00728","zip+4": "0000","phone": "7878125960"}
{"name": "FARMACIA SAN LUCAS","address1": "917 AVENIDA TITO CASTRO","address2": "CARRETERA 14","city": "PONCE","state": "PR","zip": "00733","zip+4": "6810","phone": "7878431600"}
{"name": "FARMACIA EL DIVINO NINO","address1": "835 CONCEPCION VERA","address2": "","city": "MOCA","state": "PR","zip": "00676","zip+4": "0000","phone": "7878184839"}
{"name": "WALGREEN DRUG STORE #283","address1": "685 AVE CEZAR GONZALES","address2": "","city": "SAN JUAN","state": "PR","zip": "00918","zip+4": "0000","phone": "7872940096"}
{"name": "WALGREEN DRUG STORE #289","address1": "350 CARR 830","address2": "","city": "BAYAMON","state": "PR","zip": "00957","zip+4": "0000","phone": "7872798200"}
{"name": "WAL-MART PHARMACY #102085","address1": "3535 MILITARY AVE","address2": "","city": "ISABELA","state": "PR","zip": "00662","zip+4": "0000","phone": "7878303007"}
{"name": "SAMS PHARMACY #106689","address1": "AVE MUNOZ MARIN","address2": "","city": "CAGUAS","state": "PR","zip": "00726","zip+4": "0000","phone": "7877461048"}
{"name": "WAL-MART PHARMACY #102721","address1": "PLZ CALLE CENTL STATE 1 735","address2": "","city": "CAYEY","state": "PR","zip": "00736","zip+4": "0000","phone": "7877387240"}
{"name": "WALGREEN DRUG STORE #361","address1": "4145 AVE ARCADIO ESTRADA","address2": "","city": "SAN SEBASTIAN","state": "PR","zip": "00685","zip+4": "0000","phone": "7878961440"}
{"name": "FARMACIA PLAZA #12","address1": "AVE IRLANDA DJ-8","address2": "10MA SECCION SANTA JUANITA","city": "BAYAMON","state": "PR","zip": "00956","zip+4": "0000","phone": "7876209612"}
{"name": "FARMACIA SALCEDO","address1": "CARR 109 KM 2 5 PLAZA SALCEDO","address2": "","city": "ANASCO","state": "PR","zip": "00610","zip+4": "0000","phone": "7878264145"}
{"name": "WALGREEN DRUG STORE #509","address1": "101 CARR 1","address2": "","city": "CAGUAS","state": "PR","zip": "00725","zip+4": "0000","phone": "7877441520"}
{"name": "FARMACIA CDT GMSP INC","address1": "SANTA CRUZ B 7","address2": "","city": "BAYAMON","state": "PR","zip": "00961","zip+4": "0000","phone": "7877861325"}
{"name": "SAMS PHARMACY #104748","address1": "CARRETERA 167 CARRETERA 830","address2": "","city": "BAYAMON SOUTH","state": "PR","zip": "00957","zip+4": "0000","phone": "7877309626"}
{"name": "WALGREEN DRUG STORE #202","address1": "200 CARR 137","address2": "","city": "MOROVIS","state": "PR","zip": "00687","zip+4": "0000","phone": "7878620090"}
{"name": "MIDWAY PHARMACY","address1": "BO MAGINAS 225 C MARGINAL","address2": "","city": "SABANA GRANDE","state": "PR","zip": "00637","zip+4": "0000","phone": "7878731480"}
{"name": "FARMACIA LA 110","address1": "CARR 110 KM 13 PT 0","address2": "","city": "MOCA","state": "PR","zip": "00676","zip+4": "0000","phone": "7878770110"}
{"name": "WALGREEN DRUG STORE #00811","address1": "SHOPPING CENTER AND HWY 147","address2": "","city": "NARANIJITO","state": "PR","zip": "00719","zip+4": "0000","phone": "7878690240"}
{"name": "WALGREEN DRUG STORE #121","address1": "106 CALLE PIEL CAN","address2": "","city": "COAMO","state": "PR","zip": "00769","zip+4": "0000","phone": "7878036800"}
{"name": "WALGREEN DRUG STORE #670","address1": "10 AVENIDA BAXTER","address2": "","city": "SAN GERMAN","state": "PR","zip": "00683","zip+4": "0000","phone": "7878924482"}
{"name": "WALGREEN DRUG STORE #906","address1": "CARR 3 EDF 473","address2": "","city": "SOUTH HUMACAO","state": "PR","zip": "00791","zip+4": "0000","phone": "7878522177"}
{"name": "COSTCO PHARMACY #335","address1": "1185 65TH INFANTRY AVE","address2": "","city": "SAN JUAN","state": "PR","zip": "00924","zip+4": "0000","phone": "7879997203"}
{"name": "WAL-MART PHARMACY #102067","address1": "975 AVENUE HOSTOS STE 2100","address2": "","city": "MAYAGUEZ","state": "PR","zip": "00680","zip+4": "0000","phone": "7872651090"}
{"name": "WAL-MART PHARMACY #103716","address1": "PLAZA MONTE REAL","address2": "","city": "MANATI","state": "PR","zip": "00674","zip+4": "0000","phone": "7876210488"}
{"name": "WALGREEN DRUG STORE #222","address1": "150 CARRETERA 857 AND STATE RD","address2": "","city": "CAROLINA","state": "PR","zip": "00987","zip+4": "0000","phone": "7877010800"}
{"name": "WALGREEN DRUG STORE #929","address1": "PR 3 AND PR 901","address2": "","city": "YABUCOA","state": "PR","zip": "00767","zip+4": "0000","phone": "7878934410"}
{"name": "WALGREEN DRUG STORE #936","address1": "100 BOULEVARD AVE RTE 17","address2": "","city": "SANTA ROSA BAYAMON","state": "PR","zip": "00959","zip+4": "0000","phone": "7877401701"}
{"name": "SAMS PHARMACY #106270","address1": "CARR 2 KM 84 2","address2": "","city": "HATILLO","state": "PR","zip": "00659","zip+4": "0000","phone": "7875447265"}
{"name": "CENTRAL DRUG JM CO INC","address1": "1304 JESUS T PINERO","address2": "","city": "SAN JUAN","state": "PR","zip": "00921","zip+4": "0000","phone": "7877839855"}
{"name": "FARMACIA MONTE REY","address1": "CARR. 694 KM 1.1","address2": "SECTOR MONTERREY BO ESPINOSA","city": "VEGA ALTA","state": "PR","zip": "00692","zip+4": "0000","phone": "7872701816"}
{"name": "FARMACIA EL NORTE","address1": "CARR 2 KM 85 PT 5","address2": "","city": "HATILLO","state": "PR","zip": "00659","zip+4": "0000","phone": "7872624901"}
{"name": "WAL-MART PHARMACY #105793","address1": "333 CARR 14","address2": "","city": "PONCE","state": "PR","zip": "00780","zip+4": "0000","phone": "7878420420"}
{"name": "WALGREEN DRUG STORE #00788","address1": "PR 24 AND PR 165","address2": "","city": "GUAYNBO CATANO","state": "PR","zip": "00962","zip+4": "0000","phone": "7877821798"}
{"name": "ONE STOP PRESCRIPTION #04","address1": "AVE JESUS T PINERO","address2": "ESQ MARTINEZ NADAL","city": "GUAYNABO","state": "PR","zip": "00970","zip+4": "0000","phone": "7877490567"}
{"name": "WALGREEN DRUG STORE #07706","address1": "CHALETS DE CUPEY AND PR 845","address2": "","city": "SAN JUAN","state": "PR","zip": "00927","zip+4": "0000","phone": "7877551375"}
{"name": "WALGREEN DRUG STORE #1476","address1": "PR 2 AND PR 402","address2": "","city": "ANASCO","state": "PR","zip": "00610","zip+4": "0000","phone": "7878260070"}
{"name": "SAMS PHARMACY #106515","address1": "CARR 3 KM 82 0","address2": "","city": "HUMACAO","state": "PR","zip": "00741","zip+4": "0000","phone": "7872850001"}
{"name": "WALGREEN DRUG STORE #7710","address1": "CALLE PUBLICAAND PR 2","address2": "","city": "VEGA BAJA","state": "PR","zip": "00693","zip+4": "0000","phone": "7878553004"}
{"name": "WALGREEN DRUG STORE #973","address1": "ELJIBARO AVE AND PR 172","address2": "","city": "CIDRA","state": "PR","zip": "00739","zip+4": "0000","phone": "7877394351"}
{"name": "WALGREEN DRUG STORE #1463","address1": "PR 10 AND SHOP CENTER","address2": "","city": "ARECIBO","state": "PR","zip": "00612","zip+4": "0000","phone": "7878800384"}
{"name": "WAL-MART PHARMACY #103674","address1": "CARR 194 KM 2 0","address2": "","city": "FAJARDO","state": "PR","zip": "00738","zip+4": "0000","phone": "7878637404"}
{"name": "COSTCO PHARMACY #365","address1": "AVENIDA RAFAEL CORDERO PLAZA C","address2": "","city": "CAGUAS","state": "PR","zip": "00725","zip+4": "0000","phone": "7876536929"}
{"name": "COSTCO PHARMACY #364","address1": "2399 ROUTE 2","address2": "","city": "BAYAMON","state": "PR","zip": "00961","zip+4": "0000","phone": "7874746929"}
{"name": "WALGREEN DRUG STORE #2762","address1": "PR 1 AND ALTOS DE LA FUENTE","address2": "","city": "CAGUAS","state": "PR","zip": "00727","zip+4": "0000","phone": "7872868240"}
{"name": "WAL-MART PHARMACY #102449","address1": "RAFAEL CORDERO AVE 301","address2": "","city": "CAGUAS","state": "PR","zip": "00725","zip+4": "0000","phone": "7876531376"}
{"name": "WAL-MART PHARMACY #103693","address1": "CARR ESTATAL 153 KM 7 2","address2": "","city": "SANTA ISABEL","state": "PR","zip": "00757","zip+4": "0000","phone": "7878457100"}
{"name": "COSTCO PHARMACY #363","address1": "CARR 177 ESQ CALLE 24","address2": "","city": "BAYAMON","state": "PR","zip": "00959","zip+4": "0000","phone": "7879939310"}
{"name": "KMART PHARMACY #7768","address1": "PR20 AND ESMERALDA","address2": "","city": "GUAYNABO","state": "PR","zip": "00970","zip+4": "0000","phone": "7877901400"}
{"name": "SAMS PHARMACY #106680","address1": "1500 CAMERIO AVE","address2": "","city": "BAYAMON","state": "PR","zip": "00961","zip+4": "0000","phone": "7877868017"}
{"name": "WALGREEN DRUG STORE #09215","address1": "CALLE 1 AND PR3","address2": "","city": "LUQUILLO","state": "PR","zip": "00773","zip+4": "0000","phone": "7878893087"}
{"name": "SAMS PHARMACY #106543","address1": "PR 3 PLAZA ESCORIAL","address2": "","city": "CAROLINA","state": "PR","zip": "00987","zip+4": "0000","phone": "7877692025"}
{"name": "WAL-MART PHARMACY #102501","address1": "501 WEST MAIN AVE","address2": "","city": "BAYAMON","state": "PR","zip": "00961","zip+4": "0000","phone": "7877868105"}
{"name": "WALGREEN DRUG STORE #09403","address1": "PR 190 AND CAMPO RICO","address2": "","city": "CAROLINA","state": "PR","zip": "00979","zip+4": "0000","phone": "7877621290"}
{"name": "WALGREEN DRUG STORE #00555","address1": "505 AVE HOSTOS","address2": "","city": "MAYAQUEZ","state": "PR","zip": "00680","zip+4": "1797","phone": "7878311381"}
{"name": "WAL-MART PHARMACY #103399","address1": "CENTRO COM PASEO DEL PLATA","address2": "","city": "DORADO","state": "PR","zip": "00646","zip+4": "0000","phone": "7872785859"}
{"name": "FARMACIA EL YUNQUE INC","address1": "CALLE PIMENTEL 41 C3","address2": "","city": "RIO GRANDE","state": "PR","zip": "00745","zip+4": "0000","phone": "7878881700"}
{"name": "SAMS PHARMACY #104806","address1": "PR 3 KM 15 2","address2": "","city": "CAROLINA EAST","state": "PR","zip": "00979","zip+4": "0000","phone": "7877577556"}
{"name": "WALGREEN DRUG STORE #00117","address1": "PR 181 AND PR 850","address2": "","city": "TRUJILLO ALTO","state": "PR","zip": "00976","zip+4": "0000","phone": "7872833545"}
{"name": "WALGREEN DRUG STORE #00524","address1": "PR 129 AND UNION ST","address2": "","city": "ARECIBO","state": "PR","zip": "00612","zip+4": "0000","phone": "7878150785"}
{"name": "WAL-MART PHARMACY #103670","address1": "LOS DOMINICOS ESQ SABANA SECA","address2": "","city": "LEVITTOWN","state": "PR","zip": "00949","zip+4": "0000","phone": "7872610400"}
{"name": "SAMS PHARMACY #103668","address1": "AVE LOS FILTROS ESQ SANTA ANA","address2": "","city": "GUAYNABO","state": "PR","zip": "00969","zip+4": "0000","phone": "7872723486"}
{"name": "FARMACIA COSSMA HUMACAO","address1": "50 CALLE ULISES MARTINEZ N","address2": "","city": "HUMACAO","state": "PR","zip": "00771","zip+4": "0000","phone": "7878522551"}
{"name": "WAL-MART PHARMACY #103682","address1": "CALLE 2 URB BRISAS DEL MAR","address2": "","city": "LUQUILLO","state": "PR","zip": "00773","zip+4": "0000","phone": "4792736574"}
{"name": "WALGREEN DRUG STORE #09118","address1": "175 CARRETERA PR 385","address2": "","city": "PENUELAS","state": "PR","zip": "00624","zip+4": "0000","phone": "7878361123"}
{"name": "CAREPLUS CVS PHARMACY #02794","address1": "JESUS T PINERO AVE 278 280","address2": "STE A","city": "RIO PIEDRAS","state": "PR","zip": "00918","zip+4": "0000","phone": "7877582700"}
{"name": "WALGREEN DRUG STORE #12660","address1": "CAROLINA SHOPPING COURT CARR 3","address2": "","city": "CAROLINA","state": "PR","zip": "00985","zip+4": "0000","phone": "7877698123"}
{"name": "WALGREEN DRUG STORE #12656","address1": "MONTE SOL SC CARR 3 KM 49 7 QU","address2": "","city": "FAJARDO","state": "PR","zip": "00738","zip+4": "0000","phone": "7878630104"}
{"name": "WALGREEN DRUG STORE #12653","address1": "AVE HOSTOS ESQ CARR 831","address2": "","city": "BAYAMON","state": "PR","zip": "00956","zip+4": "0000","phone": "7877784962"}
{"name": "WALGREEN DRUG STORE #12652","address1": "HILL VIEW CENTER CARR 861 BO P","address2": "","city": "BAYMON","state": "PR","zip": "00957","zip+4": "0000","phone": "7877978705"}
{"name": "WALGREEN DRUG STORE #12648","address1": "LAS CATALINAS MALL AVE ZAFIRO","address2": "RING RD CARR 52 BO PUEBLO","city": "CAGUAS","state": "PR","zip": "00725","zip+4": "0000","phone": "7877460020"}
{"name": "WALGREEN DRUG STORE #12654","address1": "PLAZA CARIBE MALL","address2": "","city": "VEGA ALTA","state": "PR","zip": "00692","zip+4": "0000","phone": "7872701079"}
{"name": "WALGREEN DRUG STORE #12659","address1": "PARQUE ESCORIAL 65 INF KM 54","address2": "","city": "CAROLINA","state": "PR","zip": "00983","zip+4": "0000","phone": "7877685004"}
{"name": "WALGREEN DRUG STORE #12665","address1": "PLAZA ENCANTADA URB ENCANTADA","address2": "","city": "TRUJILLO ALTO","state": "PR","zip": "00976","zip+4": "0000","phone": "7877480013"}
{"name": "WALGREEN DRUG STORE #12651","address1": "PLAZA AQUARIUM CARR 165 KM 4 7","address2": "","city": "TOA ALTA","state": "PR","zip": "00954","zip+4": "0000","phone": "7878704776"}
{"name": "WALGREEN DRUG STORE #12663","address1": "NORTE SHOPPING CENTER AVE BALD","address2": "","city": "SAN JUAN","state": "PR","zip": "00979","zip+4": "0000","phone": "7877277111"}
{"name": "WALGREEN DRUG STORE #12662","address1": "AVE CAMPO RICO ESQ FIDALGO DIA","address2": "","city": "CAROLINA","state": "PR","zip": "00983","zip+4": "0000","phone": "7877501251"}
{"name": "WALGREEN DRUG STORE #12661","address1": "1411 AVE ASHFORD ESQ WASHINGTO","address2": "","city": "SAN JUAN","state": "PR","zip": "00907","zip+4": "0000","phone": "7877254313"}
{"name": "WALGREEN DRUG STORE #12657","address1": "ISLA VERDE MALL DALIA ST CARR","address2": "","city": "CAROLINA","state": "PR","zip": "00979","zip+4": "0000","phone": "7877919764"}
{"name": "WALGREEN DRUG STORE #12658","address1": "CC DAVIDSON PLAZA LEVITTOWN","address2": "","city": "TOA BAJA","state": "PR","zip": "00949","zip+4": "0000","phone": "7877957224"}
{"name": "WALGREENS #12664","address1": "CC PLAZA BORINQUEN CARR 107 KM","address2": "","city": "AGUADILLA","state": "PR","zip": "00605","zip+4": "0000","phone": "7878191326"}
{"name": "WALGREEN DRUG STORE #12647","address1": "LAS PIEDRAS SC CARR 183 INT 91","address2": "","city": "LAS PIEDRAS","state": "PR","zip": "00771","zip+4": "0000","phone": "7877338916"}
{"name": "CAREMARK PUERTO RICO SPECIALTY","address1": "JESUS T PINERO AVE #278-280","address2": "STE B","city": "RIO PIEDRAS","state": "PR","zip": "00918","zip+4": "4109","phone": "7877582700"}
{"name": "RESTO PHARMACY INC","address1": "J 24 AVE BLVD ESQ MIREYA","address2": "","city": "TOA BAJA","state": "PR","zip": "00949","zip+4": "0000","phone": "7877848400"}
{"name": "WALGREEN DRUG STORE #12667","address1": "PLAZA MONTE REAL CARR 2 KM 45","address2": "","city": "MANATI","state": "PR","zip": "00674","zip+4": "0000","phone": "7878840007"}
{"name": "WALGREEN DRUG STORE #12650","address1": "CAYEY SHOPPING CENTER CARR 1 A","address2": "","city": "CAYEY","state": "PR","zip": "00736","zip+4": "0000","phone": "7877382977"}
{"name": "WALGREENS #12655","address1": "URB VILLA MARIA SC CARR 2","address2": "","city": "MANATI","state": "PR","zip": "00674","zip+4": "0000","phone": "7878842936"}
{"name": "WALGREEN DRUG STORE #12649","address1": "EL SENIORAL SC AVE WINSTON CHU","address2": "","city": "SAN JUAN","state": "PR","zip": "00925","zip+4": "0000","phone": "7877517219"}
{"name": "WAL-MART PHARMACY #105802","address1": "WM SC PLAZA CANOVANAS 5802","address2": "","city": "CANOVANAS","state": "PR","zip": "00729","zip+4": "0000","phone": "4792736574"}
{"name": "KMART PHARMACY #4858","address1": "CARR. PR-156 KM 54.00","address2": "LAS CATALINAS MALLLOCAL 4858","city": "CAGUAS","state": "PR","zip": "00725","zip+4": "0000","phone": "7877456344"}
{"name": "FARMACIA MEDINA","address1": "CARR. 188 KM 1.5","address2": "BO. SAN ISIDRO","city": "CANOVANAS","state": "PR","zip": "00729","zip+4": "0000","phone": "7879577577"}
{"name": "WALGREENS #07564","address1": "CARR. 2INTERSECCION CARR. 14","address2": "BO. MANATI ABAJO","city": "BARCELONETA","state": "PR","zip": "00617","zip+4": "0000","phone": "7878466829"}
{"name": "WALGREENS #07521","address1": "ESQ SUROESTE INT PR-159 Y PR-8","address2": "BO PUEBLO","city": "COROZAL","state": "PR","zip": "00783","zip+4": "0000","phone": "7878595439"}
{"name": "UNIVERSAL PHARMACY SUPPLIESC","address1": "CARR 308 KM 3.2","address2": "BO PUERTO REAL","city": "CABO ROJO","state": "PR","zip": "00623","zip+4": "0000","phone": "7872541000"}
{"name": "WALGREENS #00328","address1": "CARR 3KM 23.9","address2": "URB INDUSTRIALLAS FLORES","city": "RIO GRANDE","state": "PR","zip": "00745","zip+4": "0000","phone": "7878870237"}
{"name": "FARMACIA GSINC. #1","address1": "CALLE MONSERRATE #26","address2": "","city": "SALINAS","state": "PR","zip": "00751","zip+4": "0000","phone": "7878244444"}
{"name": "WALGREENS #11231","address1": "PR 2 Y PR 866","address2": "","city": "TOA BAJA","state": "PR","zip": "00949","zip+4": "0000","phone": "2175548924"}
{"name": "WALGREENS #10825","address1": "PR 506 LOS FLAMBOYANES KM 1.0","address2": "","city": "PONCE","state": "PR","zip": "00730","zip+4": "0000","phone": "2175548924"}
{"name": "WALGREENS #11847","address1": "250 AVE MUNOZ RIVERA # 400","address2": "","city": "SAN JUAN","state": "PR","zip": "00918","zip+4": "1808","phone": "7872968463"}
{"name": "CVS PHARMACY # #04594","address1": "CARR PR -2 INT CALLE MORALES","address2": "BARRIO HATO TEJAS","city": "BAYAMON","state": "PR","zip": "00961","zip+4": "0000","phone": "4017651500"}
{"name": "CVS PHARMACY # #07979","address1": "105 GILBERTO CONCEPCION DE GRA","address2": "BARRIO ANTIGUO SAN JUAN","city": "SAN JUAN","state": "PR","zip": "00901","zip+4": "0000","phone": "4017651500"}
{"name": "FARMACIAS PLAZA","address1": "P.O. BOX 246","address2": "","city": "BAYAMON","state": "PR","zip": "00960","zip+4": "0000","phone": "7877850366"}