{"name": "RITE AID PHARMACY #10248","address1": "1665 MINERAL SPRING AVENUE","address2": "","city": "NORTH PROVIDENCE","state": "RI","zip": "02904","zip+4": "4003","phone": "4013533113"}
{"name": "CVS PHARMACY #00590","address1": "166 CASS AVE","address2": "","city": "WOONSOCKET","state": "RI","zip": "02895","zip+4": "0000","phone": "4017673600"}
{"name": "CVS PHARMACY #00037","address1": "1998 MENDON RD","address2": "","city": "CUMBERLAND","state": "RI","zip": "02864","zip+4": "0000","phone": "4013331225"}
{"name": "CAMPAGNAS PHARMACY","address1": "173 STATE ST","address2": "","city": "BRISTOL","state": "RI","zip": "02809","zip+4": "2205","phone": "4012538808"}
{"name": "RITE AID PHARMACY #10262","address1": "250 ATWOOD AVENUE","address2": "","city": "CRANSTON","state": "RI","zip": "02920","zip+4": "4053","phone": "4019447172"}
{"name": "ATWOOD PRESCRIPTION CENTER INC","address1": "1524 ATWOOD AVE","address2": "","city": "JOHNSTON","state": "RI","zip": "02919","zip+4": "3228","phone": "4018310100"}
{"name": "HOWELL SMITH DRUGGIST","address1": "749 CENTRAL AVE","address2": "","city": "PAWTUCKET","state": "RI","zip": "02861","zip+4": "2195","phone": "4017257711"}
{"name": "SIMPSONS PHARMACY INC","address1": "10 NEWPORT AVE","address2": "","city": "PAWTUCKET","state": "RI","zip": "02861","zip+4": "4414","phone": "4017227600"}
{"name": "ANTHONYS DRUG","address1": "219 MANTON AVE","address2": "","city": "PROVIDENCE","state": "RI","zip": "02909","zip+4": "3388","phone": "4013519495"}
{"name": "WAKEFIELD PRESCRIPTION CENTER","address1": "597 KINGSTOWN RD","address2": "","city": "WAKEFIELD","state": "RI","zip": "02879","zip+4": "3685","phone": "4017899791"}
{"name": "CVS PHARMACY #00265","address1": "615 METACOM AVE RTE 136","address2": "","city": "WARREN","state": "RI","zip": "02885","zip+4": "0000","phone": "4012450400"}
{"name": "DELEKTA PHARMACY INC","address1": "496 MAIN ST","address2": "","city": "WARREN","state": "RI","zip": "02885","zip+4": "4397","phone": "4012456767"}
{"name": "SUBURBAN PHARMACY","address1": "242 PAWTUXET AVE","address2": "","city": "WARWICK","state": "RI","zip": "02888","zip+4": "1999","phone": "4017812110"}
{"name": "CVS PHARMACY #00247","address1": "444 WILLETT AVE","address2": "","city": "EAST PROVIDENCE","state": "RI","zip": "02915","zip+4": "0000","phone": "4014331120"}
{"name": "RITE AID PHARMACY #10258","address1": "220 NEWPORT AVENUE","address2": "","city": "EAST PROVIDENCE","state": "RI","zip": "02916","zip+4": "2117","phone": "4014341333"}
{"name": "CVS PHARMACY #00212","address1": "681 RESERVOIR AVE","address2": "","city": "CRANSTON","state": "RI","zip": "02910","zip+4": "0000","phone": "4019437188"}
{"name": "RITE AID PHARMACY #10239","address1": "1080 BALD HILL ROAD","address2": "","city": "WARWICK","state": "RI","zip": "02886","zip+4": "4202","phone": "4018220002"}
{"name": "CVS PHARMACY #00269","address1": "583 TAUNTON AVE","address2": "","city": "EAST PROVIDENCE","state": "RI","zip": "02914","zip+4": "0000","phone": "4014342993"}
{"name": "CVS PHARMACY #01042","address1": "835 NEWPORT AVE","address2": "","city": "PAWTUCKET","state": "RI","zip": "02861","zip+4": "0000","phone": "4017260724"}
{"name": "BAKERS PHARMACY","address1": "53 NARRAGANSETT AVE","address2": "","city": "JAMESTOWN","state": "RI","zip": "02835","zip+4": "1150","phone": "4014232800"}
{"name": "CVS PHARMACY #00311","address1": "507 MAIN ST","address2": "","city": "EAST GREENWICH","state": "RI","zip": "02818","zip+4": "0000","phone": "4018847045"}
{"name": "CVS PHARMACY #00326","address1": "120 EDDIE DOWLING HWY","address2": "","city": "N SMITHFIELD","state": "RI","zip": "02896","zip+4": "0000","phone": "4017623172"}
{"name": "EAST SIDE PRESC CENTER INC","address1": "632 HOPE ST","address2": "","city": "PROVIDENCE","state": "RI","zip": "02906","zip+4": "2698","phone": "4017511430"}
{"name": "CVS PHARMACY #00355","address1": "181 BELLEVUE AVE","address2": "","city": "NEWPORT","state": "RI","zip": "02840","zip+4": "0000","phone": "4018467800"}
{"name": "RITE AID PHARMACY #10229","address1": "727 EAST AVENUE","address2": "","city": "PAWTUCKET","state": "RI","zip": "02860","zip+4": "6100","phone": "4017246800"}
{"name": "CVS PHARMACY #00210","address1": "180 COUNTY RD","address2": "","city": "BARRINGTON","state": "RI","zip": "02806","zip+4": "0000","phone": "4012450464"}
{"name": "RITE AID PHARMACY #10242","address1": "2055 WARWICK AVENUE","address2": "","city": "WARWICK","state": "RI","zip": "02888","zip+4": "3144","phone": "4017386300"}
{"name": "PHREDS DRUG INC","address1": "1300 OAKLAWN AVE","address2": "","city": "CRANSTON","state": "RI","zip": "02920","zip+4": "0000","phone": "4014636300"}
{"name": "CVS PHARMACY #00351","address1": "1919 MINERAL SPRING AVE","address2": "","city": "N. PROVIDENCE","state": "RI","zip": "02904","zip+4": "0000","phone": "4013532501"}
{"name": "CVS PHARMACY #00330","address1": "445 PUTNAM PIKE APPLE VALLEY M","address2": "APPLE VALLEY MALL","city": "GREENVILLE","state": "RI","zip": "02828","zip+4": "0000","phone": "4012315320"}
{"name": "CVS PHARMACY #00469","address1": "1188 PONTIAC AVE","address2": "","city": "CRANSTON","state": "RI","zip": "02920","zip+4": "0000","phone": "4019436452"}
{"name": "RITE AID PHARMACY #10256","address1": "655 WARREN AVENUE","address2": "","city": "EAST PROVIDENCE","state": "RI","zip": "02914","zip+4": "1404","phone": "4014345700"}
{"name": "CVS PHARMACY #00397","address1": "1125 MAIN ST","address2": "","city": "WEST WARWICK","state": "RI","zip": "02893","zip+4": "0000","phone": "4018222762"}
{"name": "CVS PHARMACY #00493","address1": "99 EAST MAIN RD","address2": "","city": "MIDDLETOWN","state": "RI","zip": "02842","zip+4": "0000","phone": "4018470254"}
{"name": "NDS PHARMACY","address1": "866 BROAD ST","address2": "","city": "PROVIDENCE","state": "RI","zip": "02907","zip+4": "1724","phone": "4019415698"}
{"name": "CVS PHARMACY #00621","address1": "763 TIOGUE AVE","address2": "","city": "COVENTRY","state": "RI","zip": "02816","zip+4": "0000","phone": "4018212060"}
{"name": "CVS PHARMACY #00595","address1": "6495 POST RD","address2": "","city": "NORTH KINGSTOWN","state": "RI","zip": "02852","zip+4": "0000","phone": "4018854920"}
{"name": "RITE AID PHARMACY #10222","address1": "7 EAST MAIN ROAD","address2": "","city": "MIDDLETOWN","state": "RI","zip": "02840","zip+4": "4911","phone": "4018494600"}
{"name": "CVS PHARMACY #00642","address1": "767 WARWICK AVE WARWICK AVE SC","address2": "","city": "WARWICK","state": "RI","zip": "02888","zip+4": "0000","phone": "4014677788"}
{"name": "CVS PHARMACY #00494","address1": "1400 HARTFORD AVE","address2": "","city": "JOHNSTON","state": "RI","zip": "02919","zip+4": "0000","phone": "4018610310"}
{"name": "CVS PHARMACY #00645","address1": "400 METACOM AVE","address2": "","city": "BRISTOL","state": "RI","zip": "02809","zip+4": "0000","phone": "4012532050"}
{"name": "CVS PHARMACY #00670","address1": "601 SMITHFIELD AVE","address2": "","city": "PAWTUCKET","state": "RI","zip": "02860","zip+4": "0000","phone": "4017393173"}
{"name": "CVS PHARMACY #00689","address1": "2790 POST RD","address2": "","city": "WARWICK","state": "RI","zip": "02886","zip+4": "0000","phone": "4017393173"}
{"name": "CVS PHARMACY #00733","address1": "2400 WARWICK AVE MEADOWBROOK P","address2": "","city": "WARWICK","state": "RI","zip": "02889","zip+4": "0000","phone": "4017372305"}
{"name": "RITE AID PHARMACY #10223","address1": "5945 POST ROAD","address2": "","city": "NORTH KINGSTOWN","state": "RI","zip": "02852","zip+4": "3301","phone": "4018855100"}
{"name": "CVS PHARMACY #00728","address1": "315 BROAD ST","address2": "","city": "CUMBERLAND","state": "RI","zip": "02864","zip+4": "0000","phone": "4017268110"}
{"name": "CVS PHARMACY #00729","address1": "799 HOPE ST","address2": "","city": "PROVIDENCE","state": "RI","zip": "02906","zip+4": "0000","phone": "4013315240"}
{"name": "NEWPORT PRECRIPTION CENTER INC","address1": "289 BROADWAY","address2": "","city": "NEWPORT","state": "RI","zip": "02840","zip+4": "2613","phone": "4018476762"}
{"name": "RITE AID PHARMACY #10219","address1": "719 TIOGUE AVENUE","address2": "","city": "COVENTRY","state": "RI","zip": "02816","zip+4": "5803","phone": "4018224800"}
{"name": "CHAPEL PHARMACY INC","address1": "2081 DIAMOND HILL RD","address2": "","city": "CUMBERLAND","state": "RI","zip": "02864","zip+4": "0000","phone": "4013335858"}
{"name": "CVS PHARMACY #00856","address1": "400 ADMIRAL ST","address2": "","city": "PROVIDENCE","state": "RI","zip": "02908","zip+4": "0000","phone": "4013515030"}
{"name": "STOP AND SHOP PHARMACY #713","address1": "675 BEVERAGE HILL AVENUE","address2": "","city": "PAWTUCKET","state": "RI","zip": "02861","zip+4": "0000","phone": "4017265332"}
{"name": "STOP AND SHOP PHARMACY #703","address1": "11 COMMERCE WAY","address2": "","city": "JOHNSTON","state": "RI","zip": "02919","zip+4": "0000","phone": "4018613150"}
{"name": "STOP AND SHOP PHARMACY #708","address1": "1360 WEST MAIN ROAD","address2": "","city": "MIDDLETOWN","state": "RI","zip": "02842","zip+4": "0000","phone": "4018499640"}
{"name": "STOP AND SHOP PHARMACY #726","address1": "2470 WARWICK AVE","address2": "","city": "WARWICK","state": "RI","zip": "02889","zip+4": "0000","phone": "4017324060"}
{"name": "STOP AND SHOP PHARMACY #718","address1": "91 POINT JUDITH ROAD","address2": "","city": "NARRAGANSETT","state": "RI","zip": "02882","zip+4": "0000","phone": "4017837768"}
{"name": "OXNARD PHARMACY","address1": "198 BUTTONWOODS AVE","address2": "","city": "WARWICK","state": "RI","zip": "02886","zip+4": "7541","phone": "4017394330"}
{"name": "MCQUADE MARKET PLACE PHARMACY","address1": "106 MAIN ST","address2": "","city": "WESTERLY","state": "RI","zip": "02891","zip+4": "0000","phone": "4015960277"}
{"name": "RITE AID PHARMACY #10259","address1": "452 PUTNAM PIKE","address2": "","city": "SMITHFIELD","state": "RI","zip": "02828","zip+4": "3008","phone": "4012325500"}
{"name": "STOP AND SHOP PHARMACY #702","address1": "20 POST ROAD","address2": "","city": "WESTERLY","state": "RI","zip": "02891","zip+4": "0000","phone": "4015966490"}
{"name": "BROWN UNIV STDNT HLTH CTR PHY","address1": "13 BROWN ST","address2": "","city": "PROVIDENCE","state": "RI","zip": "02912","zip+4": "0000","phone": "4018637882"}
{"name": "CVS PHARMACY #00994","address1": "131 WEBSTER AVE","address2": "","city": "PROVIDENCE","state": "RI","zip": "02909","zip+4": "0000","phone": "4019446060"}
{"name": "STOP AND SHOP PHARMACY #709","address1": "300 QUAKER LANE","address2": "","city": "WARWICK","state": "RI","zip": "02886","zip+4": "0000","phone": "4018280533"}
{"name": "JB PHARMACY","address1": "113 PUTNAM PIKE","address2": "","city": "JOHNSTON","state": "RI","zip": "02919","zip+4": "0000","phone": "4012321194"}
{"name": "CVS PHARMACY #00971","address1": "150 GRANITE ST","address2": "","city": "WESTERLY","state": "RI","zip": "02891","zip+4": "0000","phone": "4013482070"}
{"name": "ELEANOR SLATER PHARMACY","address1": "111 HOWARD AVE","address2": "","city": "CRANSTON","state": "RI","zip": "02920","zip+4": "8269","phone": "4014623077"}
{"name": "ELEANOR SLATER HOSPITAL PHCY","address1": "2090 WALLUM LAKE RD","address2": "","city": "PASCOAG","state": "RI","zip": "02859","zip+4": "0000","phone": "4015675549"}
{"name": "CVS PHARMACY #00934","address1": "1516 DIAMOND HILL RDWALNUT HIL","address2": "","city": "WOONSOCKET","state": "RI","zip": "02895","zip+4": "0000","phone": "4017657133"}
{"name": "WHITE CROSS PHARMACY","address1": "1 RANDALL SQ","address2": "SUITE 310","city": "PROVIDENCE","state": "RI","zip": "02904","zip+4": "2709","phone": "4013515900"}
{"name": "CVS PHARMACY #01086","address1": "496 MAIN RD","address2": "","city": "TIVERTON","state": "RI","zip": "02878","zip+4": "0000","phone": "4016248421"}
{"name": "CVS PHARMACY #01075","address1": "20 HIGH ST","address2": "","city": "PASCOAG","state": "RI","zip": "02859","zip+4": "0000","phone": "4015684224"}
{"name": "RITE AID PHARMACY #10231","address1": "2136 MENDON ROAD","address2": "","city": "CUMBERLAND","state": "RI","zip": "02864","zip+4": "3805","phone": "4013331220"}
{"name": "WALGREEN DRUG STORE #2246","address1": "1000 DIVISION ST","address2": "","city": "EAST GREENWICH","state": "RI","zip": "02818","zip+4": "0000","phone": "4018847370"}
{"name": "STOP AND SHOP PHARMACY #721","address1": "595 SMITHFIELD ROAD","address2": "","city": "N SMITHFIELD","state": "RI","zip": "02896","zip+4": "0000","phone": "4017656722"}
{"name": "WALGREEN DRUG STORE #2639","address1": "700 CENTRAL AVE","address2": "","city": "PAWTUCKET","state": "RI","zip": "02861","zip+4": "0000","phone": "4017274404"}
{"name": "CVS PHARMACY #01294","address1": "481 ANGELL ST","address2": "","city": "PROVIDENCE","state": "RI","zip": "02906","zip+4": "0000","phone": "4015214340"}
{"name": "STOP AND SHOP PHARMACY #720","address1": "900 TIOGUE AVENUE","address2": "","city": "COVENTRY","state": "RI","zip": "02816","zip+4": "0000","phone": "4018234343"}
{"name": "WAL-MART PHARMACY #101964","address1": "258 POST ROAD","address2": "","city": "WESTERLY","state": "RI","zip": "02891","zip+4": "0000","phone": "4013220793"}
{"name": "WAL-MART PHARMACY #101873","address1": "1776 PLAINFIELD PIKE","address2": "","city": "CRANSTON","state": "RI","zip": "02921","zip+4": "0000","phone": "4019462040"}
{"name": "WALGREEN DRUG STORE #3000","address1": "12 E MAIN RD","address2": "","city": "MIDDLETOWN","state": "RI","zip": "02842","zip+4": "0000","phone": "4018478510"}
{"name": "RITE AID PHARMACY #10240","address1": "1201 WARWICK AVENUE","address2": "","city": "WARWICK","state": "RI","zip": "02889","zip+4": "4108","phone": "4014636010"}
{"name": "WALGREEN DRUG STORE #3204","address1": "295 ACADEMY AVE","address2": "","city": "PROVIDENCE","state": "RI","zip": "02908","zip+4": "0000","phone": "4012731785"}
{"name": "STOP AND SHOP PHARMACY #705","address1": "446 PUTNAM PIKE RTE 44","address2": "","city": "SMITHFIELD","state": "RI","zip": "02828","zip+4": "0000","phone": "4019491848"}
{"name": "WAL-MART PHARMACY #102225","address1": "1919 DIAMOND HILL RD","address2": "","city": "WOONSOCKET","state": "RI","zip": "02895","zip+4": "0000","phone": "4017691695"}
{"name": "RITE AID PHARMACY #10218","address1": "580 METACOM AVENUE","address2": "","city": "BRISTOL","state": "RI","zip": "02809","zip+4": "5182","phone": "4012532723"}
{"name": "RITE AID PHARMACY #10254","address1": "570 PONTIAC AVENUE","address2": "","city": "CRANSTON","state": "RI","zip": "02910","zip+4": "4710","phone": "4017816360"}
{"name": "RITE AID PHARMACY #10261","address1": "548 DYER AVENUE","address2": "","city": "CRANSTON","state": "RI","zip": "02920","zip+4": "5227","phone": "4019423386"}
{"name": "RITE AID PHARMACY #10250","address1": "1764 BROAD STREET","address2": "","city": "CRANSTON","state": "RI","zip": "02905","zip+4": "3519","phone": "4014616438"}
{"name": "RITE AID PHARMACY #10257","address1": "1086 WILLET AVENUE","address2": "","city": "EAST PROVIDENCE","state": "RI","zip": "02915","zip+4": "2042","phone": "4014335710"}
{"name": "RITE AID PHARMACY #10260","address1": "1459 ATWOOD AVENUE","address2": "","city": "JOHNSTON","state": "RI","zip": "02919","zip+4": "7706","phone": "4018319804"}
{"name": "RITE AID PHARMACY #10224","address1": "7691 POST ROAD","address2": "","city": "NORTH KINGSTOWN","state": "RI","zip": "02852","zip+4": "3220","phone": "4012947830"}
{"name": "RITE AID PHARMACY #10227","address1": "342 POWER ROAD","address2": "","city": "PAWTUCKET","state": "RI","zip": "02860","zip+4": "3329","phone": "4017243274"}
{"name": "RITE AID PHARMACY #10228","address1": "150 MINERAL SPRING AVENUE","address2": "","city": "PAWTUCKET","state": "RI","zip": "02860","zip+4": "2810","phone": "4017260547"}
{"name": "RITE AID PHARMACY #10232","address1": "3034 EAST MAIN ROAD","address2": "","city": "PORTSMOUTH","state": "RI","zip": "02871","zip+4": "4205","phone": "4016831270"}
{"name": "RITE AID PHARMACY #10233","address1": "2456 EAST MAIN ROAD","address2": "","city": "PORTSMOUTH","state": "RI","zip": "02871","zip+4": "4025","phone": "4016833062"}
{"name": "RITE AID PHARMACY #10247","address1": "1200 NORTH MAIN STREET","address2": "","city": "PROVIDENCE","state": "RI","zip": "02904","zip+4": "1820","phone": "4012723048"}
{"name": "RITE AID PHARMACY #10253","address1": "200 ACADEMY AVENUE","address2": "","city": "PROVIDENCE","state": "RI","zip": "02908","zip+4": "4453","phone": "4015214941"}
{"name": "RITE AID PHARMACY #10234","address1": "900 VICTORY HIGHWAY","address2": "","city": "SLATERSVILLE","state": "RI","zip": "02876","zip+4": "0713","phone": "4017664603"}
{"name": "RITE AID PHARMACY #10235","address1": "677 MAIN ROAD","address2": "","city": "TIVERTON","state": "RI","zip": "02878","zip+4": "1352","phone": "4016248411"}
{"name": "RITE AID PHARMACY #10236","address1": "604 KINGSTOWN ROAD","address2": "","city": "WAKEFIELD","state": "RI","zip": "02879","zip+4": "3612","phone": "4017838630"}
{"name": "RITE AID PHARMACY #10241","address1": "2595 WEST SHORE ROAD","address2": "","city": "WARWICK","state": "RI","zip": "02889","zip+4": "8106","phone": "4017374771"}
{"name": "RITE AID PHARMACY #10244","address1": "1155 MAIN STREET","address2": "","city": "WEST WARWICK","state": "RI","zip": "02893","zip+4": "4830","phone": "4018289793"}
{"name": "RITE AID PHARMACY #10243","address1": "170 GRANITE STREET","address2": "","city": "WESTERLY","state": "RI","zip": "02891","zip+4": "2462","phone": "4015962734"}
{"name": "STOP AND SHOP PHARMACY #704","address1": "70 MENDON ROAD","address2": "","city": "CUMBERLAND","state": "RI","zip": "02864","zip+4": "0000","phone": "4017223401"}
{"name": "STOP AND SHOP PHARMACY #707","address1": "200 ATWOOD AVENUE","address2": "","city": "CRANSTON","state": "RI","zip": "02920","zip+4": "0000","phone": "4019442669"}
{"name": "STOP AND SHOP PHARMACY #724","address1": "1128 MINERAL SPRING AVENUE","address2": "","city": "N PROVIDENCE","state": "RI","zip": "02904","zip+4": "0000","phone": "4017273900"}
{"name": "STOP AND SHOP PHARMACY #722","address1": "850 MANTON AVENUE","address2": "","city": "PROVIDENCE","state": "RI","zip": "02909","zip+4": "0000","phone": "4014530288"}
{"name": "OMNICARE OF RHODE ISLAND","address1": "30 CENTRE OF NEW ENGLAND BLVD","address2": "","city": "COVENTRY","state": "RI","zip": "02816","zip+4": "0000","phone": "4018238575"}
{"name": "WAL-MART PHARMACY #102283","address1": "650 CENTRE OF NEW ENGLAND BLVD","address2": "","city": "COVENTRY","state": "RI","zip": "02816","zip+4": "0000","phone": "4018237060"}
{"name": "WALGREEN DRUG STORE #2850","address1": "1010 PARK AVE","address2": "","city": "CRANSTON","state": "RI","zip": "02910","zip+4": "0000","phone": "4019469694"}
{"name": "RITE AID PHARMACY #10252","address1": "711 BROAD STREET","address2": "","city": "PROVIDENCE","state": "RI","zip": "02907","zip+4": "1481","phone": "4013319550"}
{"name": "RITE AID PHARMACY #10245","address1": "200 SOCIAL STREET","address2": "","city": "WOONSOCKET","state": "RI","zip": "02895","zip+4": "2058","phone": "4017629200"}
{"name": "RITE AID PHARMACY #10263","address1": "1285 RESERVOIR AVENUE","address2": "","city": "CRANSTON","state": "RI","zip": "02920","zip+4": "6034","phone": "4014646155"}
{"name": "WALGREEN DRUG STORE #3491","address1": "1763 BROAD STREET","address2": "","city": "CRANSTON","state": "RI","zip": "02905","zip+4": "0000","phone": "4014614110"}
{"name": "CVS PHARMACY #02048","address1": "1068 PUTNAM PIKE","address2": "","city": "CHEPACHET","state": "RI","zip": "02814","zip+4": "0000","phone": "4015686043"}
{"name": "RITE AID PHARMACY #10226","address1": "47 VILLAGE PLAZA WAY","address2": "","city": "NORTH SCITUATE","state": "RI","zip": "02857","zip+4": "1849","phone": "4019342480"}
{"name": "WAL-MART PHARMACY #102373","address1": "840 POST ROAD","address2": "","city": "WARWICK","state": "RI","zip": "02888","zip+4": "0000","phone": "4017818340"}
{"name": "WALGREEN DRUG STORE #3345","address1": "2399 WARWICK AVE","address2": "","city": "WARWICK","state": "RI","zip": "02889","zip+4": "0000","phone": "4017373540"}
{"name": "CVS PHARMACY #02021","address1": "205 ATWOOD AVE","address2": "","city": "CRANSTON","state": "RI","zip": "02920","zip+4": "0000","phone": "4019424100"}
{"name": "WALGREEN DRUG STORE #3898","address1": "45 CUMBERLAND ST","address2": "","city": "WOONSOCKET","state": "RI","zip": "02895","zip+4": "0000","phone": "4017655010"}
{"name": "WALGREEN DRUG STORE #3719","address1": "25 PUTNAM PIKE","address2": "","city": "JOHNSTON","state": "RI","zip": "02919","zip+4": "0000","phone": "4012313562"}
{"name": "CVS PHARMACY #02065","address1": "11 MAIN ST","address2": "","city": "WAKEFIELD","state": "RI","zip": "02879","zip+4": "0000","phone": "4017833384"}
{"name": "WALGREEN DRUG STORE #3703","address1": "354 ADMIRAL STREET","address2": "","city": "PROVIDENCE","state": "RI","zip": "02908","zip+4": "0000","phone": "4016212222"}
{"name": "WALGREEN DRUG STORE #4145","address1": "533 ELMWOOD AVE","address2": "","city": "PROVIDENCE","state": "RI","zip": "02907","zip+4": "0000","phone": "4017818229"}
{"name": "WALGREEN DRUG STORE #3737","address1": "1074 MINERAL SPRING AVE","address2": "","city": "NORTH PROVIDENCE","state": "RI","zip": "02904","zip+4": "0000","phone": "4017256806"}
{"name": "WAL-MART PHARMACY #102261","address1": "1031 TEN ROD ROAD","address2": "","city": "NORTH KINGSTOWN","state": "RI","zip": "02852","zip+4": "0000","phone": "4012943455"}
{"name": "CARE PLUS CVS/PHARMACY # #0229","address1": "2 DUDLEY ST STE 170","address2": "","city": "PROVIDENCE","state": "RI","zip": "02905","zip+4": "0000","phone": "4014211555"}
{"name": "WALGREEN DRUG STORE #3899","address1": "1387 PLAINFIELD ST","address2": "","city": "JOHNSTON","state": "RI","zip": "02919","zip+4": "0000","phone": "4019425953"}
{"name": "CVS PHARMACY #02234","address1": "425 EAST AVE","address2": "","city": "PAWTUCKET","state": "RI","zip": "02860","zip+4": "0000","phone": "4017228704"}
{"name": "CVS PHARMACY #02384","address1": "834 PROVIDENCE ST","address2": "","city": "WEST WARWICK","state": "RI","zip": "02893","zip+4": "0000","phone": "4018213563"}
{"name": "WALGREEN DRUG STORE #3468","address1": "100 BROAD ST","address2": "","city": "PAWTUCKET","state": "RI","zip": "02860","zip+4": "0000","phone": "4017245912"}
{"name": "RITE AID PHARMACY #10251","address1": "135 PITMAN STREET","address2": "","city": "PROVIDENCE","state": "RI","zip": "02906","zip+4": "5112","phone": "4018614879"}
{"name": "RITE AID PHARMACY #10237","address1": "1193 BOSTON NECK ROAD","address2": "","city": "NARRAGANSETT","state": "RI","zip": "02882","zip+4": "1705","phone": "4017895124"}
{"name": "CVS PHARMACY #02323","address1": "1734 MAIN ST","address2": "","city": "WEST WARWICK","state": "RI","zip": "02893","zip+4": "0000","phone": "4018217428"}
{"name": "WALGREEN DRUG STORE #3704","address1": "3320 POST RD","address2": "","city": "WARWICK","state": "RI","zip": "02886","zip+4": "0000","phone": "4017371905"}
{"name": "RITE AID PHARMACY #10230","address1": "1114 BROAD STREET","address2": "","city": "CENTRAL FALLS","state": "RI","zip": "02863","zip+4": "1509","phone": "4017225801"}
{"name": "CVS PHARMACY #02358","address1": "10 TPK AT E MAIN RD RTE 138","address2": "","city": "PORTSMOUTH","state": "RI","zip": "02871","zip+4": "0000","phone": "4016822098"}
{"name": "OSCO PHARMACY #7443","address1": "15 SMITHFIELD RD ADMIRAL PLZ","address2": "","city": "NORTH PROVIDENCE","state": "RI","zip": "02904","zip+4": "0000","phone": "4013534075"}
{"name": "TARGET PHARMACY #1188","address1": "1245 BALD HILL RD","address2": "","city": "WARWICK","state": "RI","zip": "02888","zip+4": "0000","phone": "4018218283"}
{"name": "RITE AID PHARMACY #10249","address1": "456 BRANCH AVENUE","address2": "","city": "PROVIDENCE","state": "RI","zip": "02904","zip+4": "2205","phone": "4013313554"}
{"name": "CVS PHARMACY #02506","address1": "2125 DIAMOND HILL RD","address2": "","city": "CUMBERLAND","state": "RI","zip": "02864","zip+4": "0000","phone": "4013354563"}
{"name": "CVS PHARMACY #02347","address1": "640 WARREN AVE","address2": "","city": "EAST PROVIDENCE","state": "RI","zip": "02914","zip+4": "0000","phone": "4014382272"}
{"name": "WAL-MART PHARMACY #102885","address1": "199 CONNELL HIGHWAY","address2": "","city": "NEWPORT","state": "RI","zip": "02840","zip+4": "0000","phone": "4018485861"}
{"name": "QUALITY PHARMACEUTICAL SERVICE","address1": "1130 TEN ROD RD","address2": "STE F101","city": "NORTH KINGSTOWN","state": "RI","zip": "02852","zip+4": "0000","phone": "4012941332"}
{"name": "CVS PHARMACY #02417","address1": "935 MANTON AVE","address2": "","city": "PROVIDENCE","state": "RI","zip": "02909","zip+4": "0000","phone": "4014535612"}
{"name": "RITE AID PHARMACY #10217","address1": "236 COUNTY ROAD","address2": "","city": "BARRINGTON","state": "RI","zip": "02806","zip+4": "4514","phone": "4012458855"}
{"name": "STOP AND SHOP PHARMACY #712","address1": "622 GEORGE WASHINGTON HWY","address2": "","city": "LINCOLN","state": "RI","zip": "02865","zip+4": "0000","phone": "4013340754"}
{"name": "STOP AND SHOP PHARMACY #714","address1": "204 GARFIELD AVENUE","address2": "","city": "CRANSTON","state": "RI","zip": "02901","zip+4": "0000","phone": "4019438285"}
{"name": "WAL-MART PHARMACY #102747","address1": "650 BALD HILL ROAD","address2": "","city": "WARWICK","state": "RI","zip": "02886","zip+4": "0000","phone": "4018217844"}
{"name": "RITE AID PHARMACY #10225","address1": "63 BROWN STREET","address2": "","city": "NORTH KINGSTOWN","state": "RI","zip": "02852","zip+4": "5028","phone": "4012943662"}
{"name": "TARGET PHARMACY #1404","address1": "371 PUTNAM PIKE STE A250","address2": "","city": "SMITHFIELD","state": "RI","zip": "02917","zip+4": "0000","phone": "4012322854"}
{"name": "RITE AID PHARMACY #10255","address1": "1510 SMITH STREET","address2": "","city": "NORTH PROVIDENCE","state": "RI","zip": "02911","zip+4": "2918","phone": "4013533500"}
{"name": "RI VILLAGE PHCY","address1": "1 COMMERCE ST","address2": "STE A","city": "LINCOLN","state": "RI","zip": "02865","zip+4": "0000","phone": "8773341610"}
{"name": "OCEAN HEALTHMART PHARMACY","address1": "3986 OLD POST RD","address2": "","city": "CHARLESTOWN","state": "RI","zip": "02813","zip+4": "0000","phone": "4013640900"}
{"name": "CVS PHARMACY #04796","address1": "960 BROAD ST","address2": "","city": "S. PROVIDENCE","state": "RI","zip": "02905","zip+4": "0000","phone": "4104614383"}
{"name": "STOP AND SHOP PHARMACY #710","address1": "368398 COTTAGE STREET","address2": "","city": "PAWTUCKET","state": "RI","zip": "02861","zip+4": "0000","phone": "4017226538"}
{"name": "CVS PHARMACY #08320","address1": "1187 MAIN ST","address2": "","city": "WYOMING","state": "RI","zip": "02898","zip+4": "0000","phone": "4015394000"}
{"name": "WALGREEN DRUG STORE #6592","address1": "1560 WARWICK AVE","address2": "","city": "WARWICK","state": "RI","zip": "02889","zip+4": "1020","phone": "4017370587"}
{"name": "GENOA HEALTHCARE #07","address1": "530 N MAIN ST","address2": "","city": "PROVIDENCE","state": "RI","zip": "02904","zip+4": "0000","phone": "4012766370"}
{"name": "WHITE CROSS PROFESSIONAL SERVI","address1": "1 RANDALL SQ","address2": "SUITE 308","city": "PROVIDENCE","state": "RI","zip": "02904","zip+4": "0000","phone": "4013515900"}
{"name": "TARGET PHARMACY #2073","address1": "620 GEORGE WASHINGTON HWY","address2": "","city": "LINCOLN","state": "RI","zip": "02865","zip+4": "0000","phone": "4016420081"}
{"name": "RITE AID PHARMACY #10246","address1": "21 KINGSTOWN ROAD","address2": "","city": "RICHMOND","state": "RI","zip": "02898","zip+4": "1101","phone": "4015396001"}
{"name": "RITE AID PHARMACY #10238","address1": "20 WOODRUFF AVENUE","address2": "","city": "NARRAGANSETT","state": "RI","zip": "02882","zip+4": "3423","phone": "4017927179"}
{"name": "WALGREEN DRUG STORE #09943","address1": "1279 OAKLAWN AVE","address2": "","city": "CRANSTON","state": "RI","zip": "02920","zip+4": "0000","phone": "4014638039"}
{"name": "WALGREEN DRUG STORE #09995","address1": "1 COWESETT AVE","address2": "","city": "WEST WARWICK","state": "RI","zip": "02893","zip+4": "3207","phone": "4018228503"}
{"name": "CVS PHARMACY #01414","address1": "1195 OAKLAND AVE","address2": "","city": "CRANSTON","state": "RI","zip": "02920","zip+4": "0000","phone": "4014631971"}
{"name": "BAYVIEW PHARMACY INC","address1": "3045 TOWERHILL RD","address2": "UNIT 3","city": "SAUNDERSTOWN","state": "RI","zip": "02874","zip+4": "0000","phone": "4012844505"}
{"name": "WAL-MART PHARMACY #103301","address1": "51 SILVER SPRING STREET","address2": "","city": "PROVIDENCE","state": "RI","zip": "02904","zip+4": "0000","phone": "4012725340"}
{"name": "WALGREEN DRUG STORE #06892","address1": "591 METACOM AVE","address2": "","city": "BRISTOL","state": "RI","zip": "02809","zip+4": "5131","phone": "4012543903"}
{"name": "CVS PHARMACY #9124","address1": "450 CLINTON ST","address2": "","city": "WOONSOCKET","state": "RI","zip": "02895","zip+4": "0000","phone": "4012356850"}
{"name": "QOL MEDS #070","address1": "101 BACON ST","address2": "","city": "PAWTUCKET","state": "RI","zip": "02860","zip+4": "0000","phone": "4017220299"}
{"name": "ELECTRIC BOAT PHARMACY #12959","address1": "7417 POST ROAD","address2": "","city": "NORTH KINGSTOWN","state": "RI","zip": "02852","zip+4": "0000","phone": "4012955791"}
{"name": "WALGREEN DRUG STORE #10256","address1": "1140 N MAIN ST","address2": "","city": "PROVIDENCE","state": "RI","zip": "02904","zip+4": "1819","phone": "4012784901"}
{"name": "CVS PHARMACY #00409","address1": "1123 BOSTON NECK ROAD","address2": "","city": "NARRAGANSETT","state": "RI","zip": "02882","zip+4": "1734","phone": "4017831753"}
{"name": "JB PHARMACY II LLC","address1": "1001 SMITH ST","address2": "","city": "PROVIDENCE","state": "RI","zip": "02908","zip+4": "2737","phone": "4018611194"}
{"name": "CVS PHARMACY #01544","address1": "145 FRANKLIN ST","address2": "","city": "WESTERLY","state": "RI","zip": "02891","zip+4": "0000","phone": "4015968182"}
{"name": "WALGREEN DRUG STORE #10099","address1": "333 ATWELLS AVE","address2": "","city": "PROVIDENCE","state": "RI","zip": "02903","zip+4": "0000","phone": "4012768301"}
{"name": "BLACKSTONE HEALTH MART PHARMAC","address1": "465 LONSDALE AVE","address2": "STE B","city": "PAWTUCKET","state": "RI","zip": "02860","zip+4": "0000","phone": "4014755655"}
{"name": "WALGREEN DRUG STORE #09374","address1": "600 WARREN AVE","address2": "","city": "EAST PROVIDENCE","state": "RI","zip": "02914","zip+4": "0000","phone": "4014389501"}
{"name": "GENOA HEALTHCARE","address1": "2756 POST ROAD","address2": "","city": "WARWICK","state": "RI","zip": "02886","zip+4": "0000","phone": "4019215660"}
{"name": "TARGET PHARMACY #2430","address1": "400 BALD HILL RD","address2": "STE 200","city": "WARWICK","state": "RI","zip": "02886","zip+4": "6101","phone": "4012441973"}
{"name": "WALGREENS #11147","address1": "1 POCASSET AVE","address2": "","city": "PROVIDENCE","state": "RI","zip": "02909","zip+4": "2907","phone": "4014646501"}
{"name": "CVS PHARMACY # #00852","address1": "2250 NEW LONDON TPK","address2": "","city": "COVENTRY","state": "RI","zip": "02816","zip+4": "0000","phone": "4018213145"}
{"name": "CVS PHARMACY #04096","address1": "309 BROAD ST","address2": "","city": "CENTRAL FALLS","state": "RI","zip": "02863","zip+4": "0000","phone": "4017219880"}
{"name": "WALGREENS # #11128","address1": "875 TIOGUE AVE.","address2": "","city": "COVENTRY","state": "RI","zip": "02816","zip+4": "6300","phone": "4018227602"}
{"name": "CVS PHARMACY # #02049","address1": "100 FRANCIS ST.","address2": "","city": "PROVIDENCE","state": "RI","zip": "02903","zip+4": "0000","phone": "4017651500"}
{"name": "DANIEL HOTCHBERGER MD INC","address1": "400 PAWTUCKET AVE","address2": "","city": "RUMFORD","state": "RI","zip": "02916","zip+4": "0000","phone": "4014316224"}
{"name": "RITE AID PHARMACY #06595","address1": "1011 CRANSTON STREET","address2": "","city": "CRANSTON","state": "RI","zip": "02920","zip+4": "7533","phone": "4012750849"}
{"name": "WALGREENS # #10476","address1": "1583 ATWOOD AVE","address2": "","city": "JOHNSTON","state": "RI","zip": "02919","zip+4": "3232","phone": "4012311280"}
{"name": "WALGREENS #11633","address1": "1209 MAIN ST","address2": "","city": "RICHMOND","state": "RI","zip": "02898","zip+4": "0000","phone": "4015397598"}
{"name": "APOTHECARE COMPOUNDING SOLUTIO","address1": "85 SANDY BOTTOM RD","address2": "","city": "COVENTRY","state": "RI","zip": "02816","zip+4": "5863","phone": "4018215000"}
{"name": "NEW ENGLAND HOME INFUSION","address1": "85 SANDY BOTTOM RD","address2": "","city": "COVENTRY","state": "RI","zip": "02816","zip+4": "5863","phone": "4018210600"}
{"name": "STOP & SHOP PHARMACY # #2701","address1": "1925 PAWTUCKET AVE","address2": "","city": "E PROVIDENCE","state": "RI","zip": "02914","zip+4": "1642","phone": "4017265332"}
{"name": "PROCARE PHARMACY INC","address1": "PO BOX 1075 ONE CVS DRIVE","address2": "","city": "WOONSOCKET","state": "RI","zip": "02985","zip+4": "0000","phone": "4017651500"}