{"name": "HALLS DRUG CENTER","address1": "505 S TOWER AVE","address2": "SUITE 2","city": "CENTRALIA","state": "WA","zip": "98531","zip+4": "3997","phone": "3607360703"}
{"name": "CORKS PHARMACY","address1": "821 S AUBURN ST","address2": "","city": "KENNEWICK","state": "WA","zip": "99336","zip+4": "5686","phone": "5095863128"}
{"name": "RICHLAND CLINIC","address1": "780 SWIFT BLVD","address2": "STE 110","city": "RICHLAND","state": "WA","zip": "99352","zip+4": "3512","phone": "5099433030"}
{"name": "MALLEYS HEALTH MART PHARMACY","address1": "1906 GEORGE WASHINGTON WAY","address2": "","city": "RICHLAND","state": "WA","zip": "99354","zip+4": "0000","phone": "5099439173"}
{"name": "U AND I PHARMACY","address1": "29 148TH AVE SE","address2": "","city": "BELLEVUE","state": "WA","zip": "98007","zip+4": "0000","phone": "4257473800"}
{"name": "BATTLE GROUND PHARMACY","address1": "717 W MAIN ST","address2": "","city": "BATTLE GROUND","state": "WA","zip": "98604","zip+4": "0000","phone": "3606873128"}
{"name": "OSTROMS DRUG & GIFT","address1": "6414 NE BOTHELL WAY","address2": "","city": "KENMORE","state": "WA","zip": "98028","zip+4": "0000","phone": "4254867711"}
{"name": "TIETON VILLAGE DRUG","address1": "3708 TIETON DR","address2": "","city": "YAKIMA","state": "WA","zip": "98902","zip+4": "0000","phone": "5099666850"}
{"name": "RITE AID PHARMACY # #05315","address1": "215 NORTH 4TH AVENUE","address2": "","city": "PASCO","state": "WA","zip": "99301","zip+4": "4322","phone": "5095472231"}
{"name": "SAVON PHARMACY #213","address1": "1320 LEE BLVD","address2": "","city": "RICHLAND","state": "WA","zip": "99352","zip+4": "0000","phone": "5099460656"}
{"name": "HALPINS PHARMACY","address1": "11406 E SPRAGUE AVE","address2": "","city": "SPOKANE VALLEY","state": "WA","zip": "99206","zip+4": "0000","phone": "5099289500"}
{"name": "PIONEER MEDICAL CENTER PHCY","address1": "1550 S PIONEER WAY STE 105","address2": "","city": "MOSES LAKE","state": "WA","zip": "98837","zip+4": "0000","phone": "5097658891"}
{"name": "BARTELL DRUGS #47","address1": "22117 SE 237TH STREET","address2": "","city": "MAPLE VALLEY","state": "WA","zip": "98038","zip+4": "8533","phone": "4254321234"}
{"name": "PHARMACA INTEGRATIVE PHARMACY","address1": "15840 REDMOND WAY","address2": "","city": "REDMOND","state": "WA","zip": "98052","zip+4": "3893","phone": "4258852323"}
{"name": "TALLMANS INC","address1": "4 W MAIN ST","address2": "","city": "WALLA WALLA","state": "WA","zip": "99362","zip+4": "2816","phone": "5095251010"}
{"name": "RITE AID PHARMACY # #05297","address1": "2519 MAIN STREET","address2": "","city": "UNION GAP","state": "WA","zip": "98903","zip+4": "1605","phone": "5094533603"}
{"name": "HOWARDS DRUG","address1": "119 E 3RD AVE","address2": "","city": "SELAH","state": "WA","zip": "98942","zip+4": "1498","phone": "5096976125"}
{"name": "KELLEY ROSS PHARMACY DT","address1": "616 OLIVE WAY","address2": "","city": "SEATTLE","state": "WA","zip": "98101","zip+4": "1717","phone": "2066223565"}
{"name": "CITY CENTER DRUG","address1": "108 E WISHKAH ST","address2": "","city": "ABERDEEN","state": "WA","zip": "98520","zip+4": "0000","phone": "3605325182"}
{"name": "RITE AID PHARMACY # #05283","address1": "310 N MYRTLE STREET","address2": "","city": "ABERDEEN","state": "WA","zip": "98520","zip+4": "4416","phone": "3605335531"}
{"name": "FAMILY PHARMACY","address1": "1213 24TH ST","address2": "STE 400","city": "ANACORTES","state": "WA","zip": "98221","zip+4": "0000","phone": "3602932124"}
{"name": "CASCADE MEDICAL CENTER PHCY","address1": "326 S STILLAGUAMISH","address2": "","city": "ARLINGTON","state": "WA","zip": "98223","zip+4": "1652","phone": "3604352810"}
{"name": "ARLINGTON PHARMACY","address1": "540 N WEST AVE","address2": "","city": "ARLINGTON","state": "WA","zip": "98223","zip+4": "1284","phone": "3604355771"}
{"name": "PECKENPAUGH DRUG COMPANY","address1": "1123 EAST MAIN","address2": "","city": "AUBURN","state": "WA","zip": "98002","zip+4": "0000","phone": "2538338020"}
{"name": "WINSLOW DRUGS","address1": "290 WINSLOW WAY E","address2": "","city": "BAINBRIDGE ISLAND","state": "WA","zip": "98110","zip+4": "0000","phone": "2068422652"}
{"name": "BARTELL DRUGS #13","address1": "424 BELLEVUE WAY NE","address2": "","city": "BELLEVUE","state": "WA","zip": "98004","zip+4": "5015","phone": "4254543194"}
{"name": "BARTELL DRUGS #40","address1": "10116 NE 8TH STREET","address2": "","city": "BELLEVUE","state": "WA","zip": "98004","zip+4": "4148","phone": "4254542468"}
{"name": "RITE AID PHARMACY # #05238","address1": "220 36TH STREET","address2": "SEHOME VILLAGE","city": "BELLINGHAM","state": "WA","zip": "98225","zip+4": "6540","phone": "3607348254"}
{"name": "APOTHECARY SHOPPE PHARMACY","address1": "2500 CHERRY AVE","address2": "STE 101","city": "BREMERTON","state": "WA","zip": "98310","zip+4": "4299","phone": "3604794900"}
{"name": "FARRELLS EASTWOOD PHARMACY","address1": "2518 WHEATON WAY","address2": "","city": "BREMERTON","state": "WA","zip": "98310","zip+4": "0000","phone": "3603773753"}
{"name": "BREWSTER HEALTH MART DRUG","address1": "811 STATE HWY 97 NINTH","address2": "","city": "BREWSTER","state": "WA","zip": "98812","zip+4": "0000","phone": "5096892421"}
{"name": "GROSS DRUGS","address1": "2520 FOSTER AVE","address2": "","city": "BRIDGEPORT","state": "WA","zip": "98813","zip+4": "1029","phone": "5096865191"}
{"name": "RITE AID PHARMACY # #05227","address1": "110 SOUTHWEST 148TH STREET","address2": "","city": "BURIEN","state": "WA","zip": "98166","zip+4": "0000","phone": "2068350166"}
{"name": "DOANES VALLEY PHARMACY","address1": "119 COTTAGE AVE","address2": "","city": "CASHMERE","state": "WA","zip": "98815","zip+4": "1001","phone": "5097822717"}
{"name": "CASTLE ROCK PHARMACY","address1": "117 1ST SW","address2": "","city": "CASTLE ROCK","state": "WA","zip": "98611","zip+4": "0000","phone": "3602748211"}
{"name": "LAKE CHELAN PHARMACY INC","address1": "223 E JOHNSON","address2": "","city": "CHELAN","state": "WA","zip": "98816","zip+4": "0000","phone": "5096822751"}
{"name": "VALLEY DRUG CO","address1": "102 E MAIN AVE","address2": "","city": "CHEWELAH","state": "WA","zip": "99109","zip+4": "0000","phone": "5099358611"}
{"name": "OWL TRI-STATE PHARMACY","address1": "1275 HIGHLAND AVE","address2": "","city": "CLARKSTON","state": "WA","zip": "99403","zip+4": "0000","phone": "5097585533"}
{"name": "WASEM PHARMACY","address1": "800 6TH ST","address2": "","city": "CLARKSTON","state": "WA","zip": "99403","zip+4": "2013","phone": "5097582565"}
{"name": "CAVALLINI PHARMACY","address1": "106 E 1ST ST","address2": "","city": "CLE ELUM","state": "WA","zip": "98922","zip+4": "1102","phone": "5096742571"}
{"name": "TICK KLOCK DRUGS LLC","address1": "109 S MAIN","address2": "","city": "COLFAX","state": "WA","zip": "99111","zip+4": "0000","phone": "5093972111"}
{"name": "LINDS COUPEVILLE PHARMACY #2","address1": "40 N MAIN ST","address2": "","city": "COUPEVILLE","state": "WA","zip": "98239","zip+4": "0070","phone": "3606784010"}
{"name": "DAVENPORT PHCY #1320","address1": "525 MORGAN ST","address2": "","city": "DAVENPORT","state": "WA","zip": "99122","zip+4": "0000","phone": "5097251151"}
{"name": "LINCOLN COUNTY HEALTHMART PHAR","address1": "621 MORGAN S","address2": "","city": "DAVENPORT","state": "WA","zip": "99122","zip+4": "0458","phone": "5097253310"}
{"name": "DES MOINES DRUG STORE INC","address1": "627 S 227TH ST","address2": "","city": "DES MOINES","state": "WA","zip": "98198","zip+4": "6897","phone": "2068782345"}
{"name": "EASTMONT PHARMACY","address1": "630 VALLEY MALL PKY","address2": "","city": "E WENATCHEE","state": "WA","zip": "98802","zip+4": "4838","phone": "5098847254"}
{"name": "RAYS PHARMACY","address1": "5 TEMPLIN CTR","address2": "","city": "EASTSOUND","state": "WA","zip": "98245","zip+4": "0000","phone": "3603762230"}
{"name": "BREWER PHARMACY","address1": "402 W MAIN","address2": "","city": "ELMA","state": "WA","zip": "98541","zip+4": "0597","phone": "3604822512"}
{"name": "ELMA PHARMACY","address1": "221 W MAIN ST","address2": "","city": "ELMA","state": "WA","zip": "98541","zip+4": "0000","phone": "3604822442"}
{"name": "THE EVERETT CLINIC PHCY AT MAI","address1": "3909 HOYT AVE","address2": "","city": "EVERETT","state": "WA","zip": "98201","zip+4": "0000","phone": "4253173620"}
{"name": "YOUNGQUIST PHARMACY","address1": "3305 NASSAU ST","address2": "STE 101","city": "EVERETT","state": "WA","zip": "98201","zip+4": "4199","phone": "4252597222"}
{"name": "FRIDAY HARBOR DRUG","address1": "210 SPRING ST W","address2": "","city": "FRIDAY HARBOR","state": "WA","zip": "98250","zip+4": "0000","phone": "3603784421"}
{"name": "GIG HARBOR REXALL PHARMACY","address1": "3114 JUDSON ST","address2": "","city": "GIG HARBOR","state": "WA","zip": "98335","zip+4": "0000","phone": "2538589908"}
{"name": "OLYMPIC PHARMACY","address1": "4700 PT FOSDICK DR NW","address2": "STE 120","city": "GIG HARBOR","state": "WA","zip": "98335","zip+4": "1709","phone": "2538589941"}
{"name": "CROWN DRUG","address1": "2544 SIMPSON AVE","address2": "","city": "HOQUIAM","state": "WA","zip": "98550","zip+4": "3998","phone": "3605330961"}
{"name": "ILWACO DRUGS","address1": "101 1ST AVE SOUTH","address2": "","city": "ILWACO","state": "WA","zip": "98624","zip+4": "0000","phone": "3606423133"}
{"name": "QFC PHARMACY #705821","address1": "1540 GILMAN BLVD","address2": "","city": "ISSAQUAH","state": "WA","zip": "98027","zip+4": "0000","phone": "4253927500"}
{"name": "GODFREYS","address1": "270 NE 1ST ST","address2": "","city": "KALAMA","state": "WA","zip": "98625","zip+4": "0000","phone": "3606732600"}
{"name": "A AND H DRUGS #3","address1": "23826 104TH AVE SE","address2": "","city": "KENT","state": "WA","zip": "98031","zip+4": "0000","phone": "2538526300"}
{"name": "BARTELL DRUGS #46","address1": "621 SR 9 NE","address2": "","city": "LAKE STEVENS","state": "WA","zip": "98258","zip+4": "8525","phone": "4253344028"}
{"name": "LANGLEY DRUG","address1": "105 1ST ST","address2": "","city": "LANGLEY","state": "WA","zip": "98260","zip+4": "0047","phone": "3602214369"}
{"name": "VILLAGE PHARMACY INC","address1": "815 FRONT ST","address2": "","city": "LEAVENWORTH","state": "WA","zip": "98826","zip+4": "0000","phone": "5095487622"}
{"name": "LONG BEACH PHARMACY","address1": "101 BOLSTAD AVE 3","address2": "","city": "LONG BEACH","state": "WA","zip": "98631","zip+4": "0000","phone": "3606423200"}
{"name": "FRED MEYER PHARMACY #701185","address1": "3184 OCEAN BEACH WAY","address2": "","city": "LONGVIEW","state": "WA","zip": "98632","zip+4": "0000","phone": "3604256222"}
{"name": "MEDICAL ARTS APOTHECARY","address1": "901 15TH AVE","address2": "","city": "LONGVIEW","state": "WA","zip": "98632","zip+4": "0000","phone": "3604237847"}
{"name": "FRED MEYER PHARMACY #701180","address1": "4615 196TH ST SW SUITE 175","address2": "","city": "LYNNWOOD","state": "WA","zip": "98036","zip+4": "0000","phone": "4256700233"}
{"name": "PHARM A SAVE MONROE","address1": "17788 147TH ST SE","address2": "","city": "MONROE","state": "WA","zip": "98272","zip+4": "0000","phone": "3607944641"}
{"name": "VALU DRUG","address1": "201 PIONEER AVE E","address2": "","city": "MONTESANO","state": "WA","zip": "98563","zip+4": "0000","phone": "3602494444"}
{"name": "COLTON PHARMACY","address1": "377 S 2ND ST","address2": "","city": "MORTON","state": "WA","zip": "98356","zip+4": "0000","phone": "3604965902"}
{"name": "SEEBERS PHARMACY","address1": "336 S WASHINTON AVE","address2": "","city": "NEWPORT","state": "WA","zip": "99156","zip+4": "0609","phone": "5094472484"}
{"name": "ODESSA DRUG","address1": "19 W 1ST AVE","address2": "","city": "ODESSA","state": "WA","zip": "99159","zip+4": "0000","phone": "5099822541"}
{"name": "RALPHS THRIFTWAY PHARMACY","address1": "1908 4TH AVE E","address2": "","city": "OLYMPIA","state": "WA","zip": "98506","zip+4": "4632","phone": "3603524426"}
{"name": "ULRICH DRUG","address1": "27 N MAIN ST","address2": "","city": "OMAK","state": "WA","zip": "98840","zip+4": "0000","phone": "5098260870"}
{"name": "COPES PHARMACY","address1": "134 WASHINGTON AVE S","address2": "","city": "ORTING","state": "WA","zip": "98360","zip+4": "0000","phone": "3608932117"}
{"name": "POMEROY PHARMACY INC","address1": "764 MAIN ST","address2": "","city": "POMEROY","state": "WA","zip": "99347","zip+4": "0000","phone": "5098431821"}
{"name": "RITE AID PHARMACY # #05258","address1": "110 PLAZA STREET","address2": "","city": "PORT ANGELES","state": "WA","zip": "98362","zip+4": "4935","phone": "3604573456"}
{"name": "DONS PHARMACY INC","address1": "1151 WATER ST","address2": "","city": "PORT TOWNSEND","state": "WA","zip": "98368","zip+4": "6707","phone": "3603850969"}
{"name": "ELFERS LYON PHARMACY","address1": "820 MEMORIAL STREET","address2": "SUITE 2","city": "PROSSER","state": "WA","zip": "99350","zip+4": "1436","phone": "5097863200"}
{"name": "SIDS PROFESSIONAL PHARMACY","address1": "825 SE BISHOP BLVD","address2": "STE 301","city": "PULLMAN","state": "WA","zip": "99163","zip+4": "5491","phone": "5093324608"}
{"name": "SAGENS PHARMACY","address1": "515 COMMERCIAL ST","address2": "PO BOX 591","city": "RAYMOND","state": "WA","zip": "98577","zip+4": "0000","phone": "3609422634"}
{"name": "RAYMOND DRUG COMPANY LLC","address1": "707 WILLAPA PLACE","address2": "","city": "RAYMOND","state": "WA","zip": "98577","zip+4": "0000","phone": "3609422153"}
{"name": "BARTELL DRUGS #68","address1": "17254 140TH AVENUE SE","address2": "","city": "RENTON","state": "WA","zip": "98058","zip+4": "7014","phone": "4252267000"}
{"name": "BARTELL DRUGS #5","address1": "16940 116TH AVENUE SE","address2": "","city": "RENTON","state": "WA","zip": "98058","zip+4": "5952","phone": "4252262901"}
{"name": "REPUBLIC DRUG STORE","address1": "6 N CLARK AVE","address2": "","city": "REPUBLIC","state": "WA","zip": "99166","zip+4": "0000","phone": "5097753351"}
{"name": "RITE AID PHARMACY # #05319","address1": "1329 LEE BOULEVARD","address2": "","city": "RICHLAND","state": "WA","zip": "99352","zip+4": "4141","phone": "5099464684"}
{"name": "RITZVILLE DRUG COMPANY","address1": "209 W MAIN AVE","address2": "","city": "RITZVILLE","state": "WA","zip": "99169","zip+4": "1409","phone": "5096590250"}
{"name": "BARTELL DRUGS #11","address1": "4344 UNIVERSITY WAY NE","address2": "","city": "SEATTLE","state": "WA","zip": "98105","zip+4": "5809","phone": "2066323514"}
{"name": "BARTELL DRUGS #1","address1": "1628 FIFTH AVENUE","address2": "","city": "SEATTLE","state": "WA","zip": "98101","zip+4": "1606","phone": "2066220582"}
{"name": "BARTELL DRUGS #42","address1": "600 FIRST AVENUE NORTH","address2": "","city": "SEATTLE","state": "WA","zip": "98109","zip+4": "4001","phone": "2062841354"}
{"name": "BARTELL DRUGS #4","address1": "5605 22ND AVENUE NW","address2": "","city": "SEATTLE","state": "WA","zip": "98107","zip+4": "3119","phone": "2067833051"}
{"name": "BARTELL DRUGS #8","address1": "9600 15TH AVENUE SW","address2": "","city": "SEATTLE","state": "WA","zip": "98106","zip+4": "2820","phone": "2067632728"}
{"name": "BARTELL DRUGS #9","address1": "120 NORTH 85TH STREET","address2": "","city": "SEATTLE","state": "WA","zip": "98103","zip+4": "3602","phone": "2067847601"}
{"name": "BARTELL DRUGS #24","address1": "6401 12TH AVENUE NE","address2": "","city": "SEATTLE","state": "WA","zip": "98115","zip+4": "6754","phone": "2065253754"}
{"name": "KELLEY ROSS PHARM @ POLY CLINI","address1": "1120 HARVARD AVE","address2": "","city": "SEATTLE","state": "WA","zip": "98122","zip+4": "0000","phone": "2063246990"}
{"name": "GEORGETOWN PHARMACY","address1": "6111 13TH AVE S","address2": "","city": "SEATTLE","state": "WA","zip": "98108","zip+4": "2705","phone": "2067630288"}
{"name": "LUKES PHARMACY","address1": "611 MAYNARD AVE S","address2": "","city": "SEATTLE","state": "WA","zip": "98104","zip+4": "2920","phone": "2066218883"}
{"name": "MEDICINE MAN","address1": "323 N 85TH ST","address2": "","city": "SEATTLE","state": "WA","zip": "98103","zip+4": "3698","phone": "8777890800"}
{"name": "OTTERSENS PHARMACEUTICAL SVCS","address1": "13023 GREENWOOD AVE N","address2": "","city": "SEATTLE","state": "WA","zip": "98133","zip+4": "7397","phone": "2063654048"}
{"name": "RITE AID PHARMACY # #05222","address1": "13201 AURORA AVE NORTH","address2": "","city": "SEATTLE","state": "WA","zip": "98133","zip+4": "7508","phone": "2063647676"}
{"name": "KATTERMANS SAND POINT PHARMACY","address1": "5400 SAND POINT WAY NE","address2": "","city": "SEATTLE","state": "WA","zip": "98105","zip+4": "2941","phone": "2065242211"}
{"name": "SWEDISH PHARMACY FIRST HILL","address1": "747 BROADWAY","address2": "","city": "SEATTLE","state": "WA","zip": "98122","zip+4": "4307","phone": "2063863784"}
{"name": "UNION CENTER PHARMACY","address1": "2324 EASTLAKE AVE E","address2": "STE 405","city": "SEATTLE","state": "WA","zip": "98102","zip+4": "0000","phone": "2064419174"}
{"name": "FRED MEYER PHARMACY #701122","address1": "100 NW 85TH STREET","address2": "","city": "SEATTLE","state": "WA","zip": "98117","zip+4": "0000","phone": "2067832272"}
{"name": "HOLLAND DRUG STORE","address1": "810 METCALF","address2": "SUITE A","city": "SEDRO WOOLLEY","state": "WA","zip": "98284","zip+4": "0311","phone": "3608550251"}
{"name": "FRICK DRUG","address1": "609 SEQUIM VILLAGE CENTER","address2": "","city": "SEQUIM","state": "WA","zip": "98382","zip+4": "0000","phone": "3606839536"}
{"name": "NEILS PHARMACY","address1": "512 W FRANKLIN","address2": "","city": "SHELTON","state": "WA","zip": "98584","zip+4": "3517","phone": "3604263327"}
{"name": "SOUTH BEND PHARMACY","address1": "101  WILLAPA AVE","address2": "","city": "SOUTH BEND","state": "WA","zip": "98586","zip+4": "0000","phone": "3608755757"}
{"name": "FIFTH AND BROWNE PHARMACY","address1": "104 W 5TH AVE","address2": "SUITE 180E","city": "SPOKANE","state": "WA","zip": "99204","zip+4": "2453","phone": "5098384117"}
{"name": "SIXTH AVENUE MEDICAL PHARMACY","address1": "W 508 6TH AVE","address2": "","city": "SPOKANE","state": "WA","zip": "99204","zip+4": "0000","phone": "5094559345"}
{"name": "FRED MEYER PHARMACY #701332","address1": "EAST 525 FRANCIS AVE","address2": "","city": "SPOKANE","state": "WA","zip": "99207","zip+4": "0000","phone": "5094892085"}
{"name": "NICHOLSONS SUMNER PHARMACY","address1": "910 ALDER AVE","address2": "","city": "SUMNER","state": "WA","zip": "98390","zip+4": "1406","phone": "2538638141"}
{"name": "FRED MEYER PHARMACY #701385","address1": "7250 PACIFIC AVE","address2": "","city": "TACOMA","state": "WA","zip": "98408","zip+4": "0000","phone": "2534751994"}
{"name": "FRED MEYER PHARMACY #701390","address1": "4505 S 19TH","address2": "","city": "TACOMA","state": "WA","zip": "98405","zip+4": "0000","phone": "2537529110"}
{"name": "LINCOLN PHARMACY LLC","address1": "821 S 38TH ST","address2": "","city": "TACOMA","state": "WA","zip": "98418","zip+4": "0000","phone": "2534731155"}
{"name": "RANKOS STADIUM PHARMACY INC","address1": "101 TACOMA AVE N","address2": "","city": "TACOMA","state": "WA","zip": "98403","zip+4": "2696","phone": "2533832411"}
{"name": "MULTICARE MEDICAL CENTER","address1": "315 MARTIN LUTHER KING JR WAY","address2": "","city": "TACOMA","state": "WA","zip": "98405","zip+4": "4234","phone": "2534031076"}
{"name": "HEDDENS PHARMACY","address1": "196 W SUSSEX AVE","address2": "","city": "TENINO","state": "WA","zip": "98589","zip+4": "0000","phone": "3602642575"}
{"name": "TOLEDO PHARMACY #1","address1": "241 COWLITZ ST","address2": "","city": "TOLEDO","state": "WA","zip": "98591","zip+4": "0000","phone": "3608644100"}
{"name": "ROYS PHARMACY INC","address1": "318 S WHITCOMB","address2": "","city": "TONASKET","state": "WA","zip": "98855","zip+4": "0000","phone": "5094862149"}
{"name": "ULRICHS VALLEY PHARMACY","address1": "423 METHOW HWY","address2": "","city": "TWISP","state": "WA","zip": "98856","zip+4": "0000","phone": "5099972191"}
{"name": "FRED MEYER PHARMACY #701683","address1": "2500 COLUMBIA HOUSE BLVD","address2": "","city": "VANCOUVER","state": "WA","zip": "98661","zip+4": "0000","phone": "3606191733"}
{"name": "FRED MEYER PHARMACY #701140","address1": "7700 HIGHWAY 99","address2": "","city": "VANCOUVER","state": "WA","zip": "98665","zip+4": "0000","phone": "3606998133"}
{"name": "RITE AID PHARMACY # #05320","address1": "2028 EAST ISAACS AVENUE","address2": "","city": "WALLA WALLA","state": "WA","zip": "99362","zip+4": "2214","phone": "5095291917"}
{"name": "CENTRAL WASHINGTON HOME INFUSI","address1": "1201 S MILLER","address2": "","city": "WENATCHEE","state": "WA","zip": "98801","zip+4": "0000","phone": "5096656058"}
{"name": "RITE AID PHARMACY # #05292","address1": "1380 NORTH MILLER STREET","address2": "VALLEY NORTH S/C","city": "WENATCHEE","state": "WA","zip": "98801","zip+4": "0000","phone": "5096637805"}
{"name": "TWIN HARBOR PHARMACY","address1": "733 N MONTESANO","address2": "","city": "WESTPORT","state": "WA","zip": "98595","zip+4": "0385","phone": "3602680116"}
{"name": "BARTONS CENTER PHARMACY","address1": "1011 W SPRUCE ST","address2": "","city": "YAKIMA","state": "WA","zip": "98902","zip+4": "3332","phone": "5092486232"}
{"name": "BIMART PHARMACY #605","address1": "309 S 5TH AVE","address2": "","city": "YAKIMA","state": "WA","zip": "98902","zip+4": "3548","phone": "5094526648"}
{"name": "MEDICINE MART MED CENTER","address1": "1112 W SPRUCE ST","address2": "","city": "YAKIMA","state": "WA","zip": "98902","zip+4": "3210","phone": "5094534835"}
{"name": "TIMS PHARMACY AND GIFT SHOP","address1": "106 FIRST STREET S","address2": "","city": "YELM","state": "WA","zip": "98597","zip+4": "0000","phone": "3604588467"}
{"name": "ZILLAH DRUG STORE","address1": "607 1ST AVE","address2": "","city": "ZILLAH","state": "WA","zip": "98953","zip+4": "0565","phone": "5098295691"}
{"name": "EVERGREEN PHARMACY","address1": "12911 120TH AVE NE","address2": "STE 20","city": "KIRKLAND","state": "WA","zip": "98034","zip+4": "3027","phone": "4258218888"}
{"name": "LAFFERTYS PHARMACY","address1": "5312 17TH AVE NW","address2": "","city": "SEATTLE","state": "WA","zip": "98107","zip+4": "3815","phone": "2067835133"}
{"name": "ROSAUERS PHARMACY #2","address1": "1808 W 3RD AVE","address2": "","city": "SPOKANE","state": "WA","zip": "99204","zip+4": "0799","phone": "5098383618"}
{"name": "FRED MEYER PHARMACY #701216","address1": "24817 PACIFIC HWY SOUTH","address2": "STE 205","city": "KENT","state": "WA","zip": "98032","zip+4": "0000","phone": "2539467433"}
{"name": "WENATCHEE CLINIC PHARMACY","address1": "820 N CHELAN AVE","address2": "","city": "WENATCHEE","state": "WA","zip": "98801","zip+4": "0000","phone": "5096625801"}
{"name": "FRED MEYER PHARMACY #701023","address1": "2041 148TH NE","address2": "","city": "BELLEVUE","state": "WA","zip": "98007","zip+4": "0000","phone": "4258658593"}
{"name": "FRED MEYER PHARMACY #701025","address1": "800 LAKEWAY DR","address2": "","city": "BELLINGHAM","state": "WA","zip": "98229","zip+4": "6219","phone": "3606761105"}
{"name": "CABRINI MEDICAL TOWER PHARMACY","address1": "901 BOREN AVE","address2": "SUITE 100","city": "SEATTLE","state": "WA","zip": "98104","zip+4": "3508","phone": "2066821011"}
{"name": "RITE AID PHARMACY # #05285","address1": "551 SOUTH MARKET BOULEVARD","address2": "","city": "CHEHALIS","state": "WA","zip": "98532","zip+4": "3045","phone": "3607488801"}
{"name": "ROSAUERS PHARMACY #3","address1": "10618 E SPRAGUE AVE","address2": "","city": "SPOKANE","state": "WA","zip": "99206","zip+4": "3695","phone": "5099245560"}
{"name": "NORTHWEST PRESCRIPTION AND MED","address1": "1536 N 115TH ST","address2": "STE 100","city": "SEATTLE","state": "WA","zip": "98133","zip+4": "0000","phone": "2063652255"}
{"name": "BALLARD PLAZA PHARMACY I INC","address1": "1801 NW MARKET ST","address2": "104","city": "SEATTLE","state": "WA","zip": "98107","zip+4": "0000","phone": "2067827200"}
{"name": "MEDICINE SHOPPE PHARMACY #0922","address1": "25 S COLVILLE","address2": "","city": "WALLA WALLA","state": "WA","zip": "99362","zip+4": "0000","phone": "5095254800"}
{"name": "QFC PHARMACY #705872","address1": "9999 HOLMAN RD NW","address2": "","city": "SEATTLE","state": "WA","zip": "98117","zip+4": "0000","phone": "2067824100"}
{"name": "WILBUR DRUG","address1": "2 SW MAIN AVE","address2": "","city": "WILBUR","state": "WA","zip": "99185","zip+4": "1092","phone": "5096472034"}
{"name": "FRED MEYER PHARMACY #701028","address1": "14300 FIRST AVE SOUTH","address2": "","city": "SEATTLE","state": "WA","zip": "98168","zip+4": "0000","phone": "2064336446"}
{"name": "BELLEGROVE PHARMACY","address1": "1200 112TH AVE NE","address2": "STE A 101","city": "BELLEVUE","state": "WA","zip": "98004","zip+4": "0000","phone": "4254552123"}
{"name": "RITE AID PHARMACY # #05317","address1": "101 NORTH ELY STREET","address2": "101 NORTH ELY STREET","city": "KENNEWICK","state": "WA","zip": "99336","zip+4": "2991","phone": "5097831438"}
{"name": "SOUTH PARK PHARMACY","address1": "1743 VILLAGE LN SE","address2": "","city": "PORT ORCHARD","state": "WA","zip": "98366","zip+4": "2643","phone": "3608711020"}
{"name": "ROSAUERS PHARMACY #10","address1": "907 W 14TH AVE","address2": "","city": "SPOKANE","state": "WA","zip": "99204","zip+4": "3894","phone": "5096242371"}
{"name": "FRED MEYER PHARMACY #701095","address1": "8530 EVERGREEN WAY","address2": "","city": "EVERETT","state": "WA","zip": "98208","zip+4": "0000","phone": "4253488433"}
{"name": "FIFE PHARMACY AND GIFTS","address1": "5303 PACIFIC HWY E","address2": "","city": "FIFE","state": "WA","zip": "98424","zip+4": "0000","phone": "2539220222"}
{"name": "CHENEY OWL PHARMACY","address1": "120 F ST","address2": "","city": "CHENEY","state": "WA","zip": "99004","zip+4": "0000","phone": "5092358441"}
{"name": "SKAGIT VALLEY HOSPITAL PHARMAC","address1": "1415 E KINCAID ST","address2": "","city": "MOUNT VERNON","state": "WA","zip": "98273","zip+4": "4175","phone": "3604282425"}
{"name": "BARTELL DRUGS #22","address1": "21615 PACIFIC HIGHWAY SOUTH","address2": "","city": "DES MOINES","state": "WA","zip": "98198","zip+4": "7703","phone": "2068784627"}
{"name": "PROVIDENCE SACRED HRT MED CTR","address1": "101 W. 8TH AVENUE","address2": "","city": "SPOKANE","state": "WA","zip": "99204","zip+4": "0000","phone": "5094743088"}
{"name": "FRED MEYER PHARMACY #701013","address1": "18325 AURORA AVE NORTH","address2": "","city": "SHORELINE","state": "WA","zip": "98133","zip+4": "0000","phone": "2065463169"}
{"name": "LINDS FREELAND PHARMACY #1","address1": "1609 E MAIN ST","address2": "","city": "FREELAND","state": "WA","zip": "98249","zip+4": "0000","phone": "3603314700"}
{"name": "BARTELL DRUGS #38","address1": "2222 32ND AVE W","address2": "","city": "SEATTLE","state": "WA","zip": "98199","zip+4": "4044","phone": "2062822881"}
{"name": "KITSAP PHARMACY AT CENTRAL MAR","address1": "20148 10TH AVE NE","address2": "","city": "POULSBO","state": "WA","zip": "98370","zip+4": "0000","phone": "3607795335"}
{"name": "RITE AID PHARMACY # #05200","address1": "14880 NORTHEAST 24TH STREET","address2": "","city": "REDMOND","state": "WA","zip": "98052","zip+4": "5593","phone": "4258830900"}
{"name": "RITE AID PHARMACY # #05253","address1": "4220 WHEATON WAY","address2": "","city": "BREMERTON","state": "WA","zip": "98310","zip+4": "3604","phone": "3604793450"}
{"name": "WESTSIDE PHARMACY","address1": "5401 CALIFORNIA AVE SW","address2": "","city": "SEATTLE","state": "WA","zip": "98136","zip+4": "1512","phone": "2069375722"}
{"name": "RITE AID PHARMACY # #05190","address1": "10407 SOUTHEAST 256TH STREET","address2": "24044 104TH AVE SE","city": "KENT","state": "WA","zip": "98031","zip+4": "4976","phone": "2538545343"}
{"name": "HADFIELDS PHARMACY","address1": "7320 216TH ST SW","address2": "STE 100","city": "EDMONDS","state": "WA","zip": "98026","zip+4": "0000","phone": "4256733702"}
{"name": "FRED MEYER PHARMACY #701179","address1": "13000 LAKE CITY WAY NE","address2": "","city": "SEATTLE","state": "WA","zip": "98125","zip+4": "0000","phone": "2064402433"}
{"name": "MARDIX PHARMACY INC","address1": "13308 SE 240TH ST","address2": "","city": "KENT","state": "WA","zip": "98042","zip+4": "0000","phone": "2536303833"}
{"name": "FARRELLS PHARMACY","address1": "450 S KITSAP BLVD","address2": "SUITE 1800","city": "PORT ORCHARD","state": "WA","zip": "98366","zip+4": "0000","phone": "3608761667"}
{"name": "FRED MEYER PHARMACY #701208","address1": "11325 SE MILL PLAIN BLVD","address2": "","city": "VANCOUVER","state": "WA","zip": "98684","zip+4": "5070","phone": "3602537086"}
{"name": "MEDICINE SHOPPE #0292","address1": "1121 WEST COURT STREET","address2": "","city": "PASCO","state": "WA","zip": "99301","zip+4": "4158","phone": "5095477537"}
{"name": "BUCK PAVILION PHARMACY","address1": "1100 9TH AVE","address2": "C1 PO","city": "SEATTLE","state": "WA","zip": "98101","zip+4": "2766","phone": "2062236877"}
{"name": "MEDICAL LAKE OWL PHARMACY","address1": "123 E LAKE ST","address2": "","city": "MEDICAL LAKE","state": "WA","zip": "99022","zip+4": "0000","phone": "5092995113"}
{"name": "ROSAUERS PHARMACY #26","address1": "2610 E 29TH AVE","address2": "","city": "SPOKANE","state": "WA","zip": "99223","zip+4": "4870","phone": "5095353683"}
{"name": "BIMART PHARMACY #619","address1": "1649 PLAZA WAY","address2": "","city": "WALLA WALLA","state": "WA","zip": "99362","zip+4": "4324","phone": "5095299350"}
{"name": "YAKIMA VALLEY FARM WORKERS CLI","address1": "602 A WEST 1ST AVENUE","address2": "","city": "TOPPENISH","state": "WA","zip": "98948","zip+4": "0000","phone": "5098653355"}
{"name": "THE CONNELL PHARMACY","address1": "140 N COLUMBIA AVE","address2": "","city": "CONNELL","state": "WA","zip": "99326","zip+4": "0000","phone": "5092342415"}
{"name": "BARTELL DRUGS #18","address1": "14442 124TH AVENUE NE","address2": "","city": "KIRKLAND","state": "WA","zip": "98034","zip+4": "4801","phone": "4258217899"}
{"name": "HAGGEN #11","address1": "2814 MERIDIAN ST","address2": "","city": "BELLINGHAM","state": "WA","zip": "98225","zip+4": "0000","phone": "3606713305"}
{"name": "CHINOOK PHARMACY INC","address1": "11 S FORKS AVE","address2": "","city": "FORKS","state": "WA","zip": "98331","zip+4": "0000","phone": "3603742294"}
{"name": "BATES PHARMACY","address1": "3704 N NEVADA","address2": "","city": "SPOKANE","state": "WA","zip": "99207","zip+4": "0000","phone": "5094894500"}
{"name": "BRIDGEPORT PROFESSIONAL PHARMA","address1": "7424 BRIDGEPORT WAY W","address2": "","city": "LAKEWOOD","state": "WA","zip": "98499","zip+4": "0000","phone": "2535821662"}
{"name": "QFC PHARMACY #705870","address1": "1890 IRONDALE RD","address2": "","city": "PORT HADLOCK","state": "WA","zip": "98339","zip+4": "0000","phone": "3603851900"}
{"name": "KETTLE FALLS PHARMACY","address1": "W 280 THIRD AVE","address2": "","city": "KETTLE FALLS","state": "WA","zip": "99141","zip+4": "0435","phone": "5097382223"}
{"name": "EVERGREEN PHARMACEUTICAL INC","address1": "12220 113TH AVE NE","address2": "","city": "KIRKLAND","state": "WA","zip": "98083","zip+4": "9730","phone": "4258207600"}
{"name": "FRED MEYER PHARMACY #701265","address1": "1100 N MERIDIAN","address2": "","city": "PUYALLUP","state": "WA","zip": "98371","zip+4": "0000","phone": "2538482383"}
{"name": "SAVON PHARMACY #233","address1": "1617 W NW BLVD","address2": "","city": "SPOKANE","state": "WA","zip": "99205","zip+4": "0000","phone": "5093267022"}
{"name": "WRAYS CHALET PHCY","address1": "5605 SUMMITVIEW AVE","address2": "","city": "YAKIMA","state": "WA","zip": "98908","zip+4": "3099","phone": "5099660530"}
{"name": "RITE AID PHARMACY # #05184","address1": "22631 BOTHELL WAY SOUTHEAST","address2": "CANYON PARK SHOPPING CENTER","city": "BOTHELL","state": "WA","zip": "98021","zip+4": "8498","phone": "4254818667"}
{"name": "SAFEWAY #0517","address1": "7601 EVERGREEN WAY","address2": "","city": "EVERETT","state": "WA","zip": "98203","zip+4": "0000","phone": "4253559303"}
{"name": "SAFEWAY #3255","address1": "E 933 MISSION AVENUE","address2": "","city": "SPOKANE","state": "WA","zip": "99202","zip+4": "0000","phone": "5094822089"}
{"name": "JIMS PHARMACY","address1": "2820 GRIFFIN AVE","address2": "STE 102","city": "ENUMCLAW","state": "WA","zip": "98022","zip+4": "0000","phone": "3608256523"}
{"name": "FRED MEYER PHARMACY #701391","address1": "12221 120TH AVE NE","address2": "","city": "KIRKLAND","state": "WA","zip": "98034","zip+4": "0000","phone": "4258203233"}
{"name": "SAFEWAY #3523","address1": "14826 HWY 99 NORTH","address2": "","city": "LYNNWOOD","state": "WA","zip": "98036","zip+4": "0000","phone": "4257436808"}
{"name": "SAFEWAY #3521","address1": "510 GRANT ROAD","address2": "","city": "EAST WENATCHEE","state": "WA","zip": "98801","zip+4": "0000","phone": "5098840678"}
{"name": "HOAGLAND PHARMACY","address1": "2330 YEW ST","address2": "","city": "BELLINGHAM","state": "WA","zip": "98226","zip+4": "0000","phone": "3607345413"}
{"name": "FRED MEYER PHARMACY #701286","address1": "101 WELLSIAN WAY","address2": "","city": "RICHLAND","state": "WA","zip": "99352","zip+4": "0000","phone": "5099438358"}
{"name": "BARTELL DRUGS #41","address1": "601 SW 150TH STREET","address2": "","city": "BURIEN","state": "WA","zip": "98166","zip+4": "1942","phone": "2062421202"}
{"name": "VALLEY VIEW CLINICAL PHARMACIS","address1": "14692 179TH AVE SE","address2": "STE 200","city": "MONROE","state": "WA","zip": "98272","zip+4": "0000","phone": "3607945555"}
{"name": "VALLEY MISSION PHARMACY","address1": "12509 E MISSION AVE","address2": "STE 103","city": "SPOKANE","state": "WA","zip": "99216","zip+4": "1049","phone": "5099286400"}
{"name": "SAFEWAY #0385","address1": "391 N MAIN ST","address2": "","city": "COLVILLE","state": "WA","zip": "99114","zip+4": "0000","phone": "5096848481"}
{"name": "SWANSONS OWL PHARMACY","address1": "117 N BOONE ST","address2": "","city": "ABERDEEN","state": "WA","zip": "98520","zip+4": "7603","phone": "3605333294"}
{"name": "MEDICINE SHOPPE #1061","address1": "12414 E SPRAGUE","address2": "","city": "SPOKANE","state": "WA","zip": "99216","zip+4": "0000","phone": "5099241222"}
{"name": "OCEAN PARK PHARMACY","address1": "1501 BAY AVE","address2": "","city": "OCEAN PARK","state": "WA","zip": "98640","zip+4": "0000","phone": "3606655181"}
{"name": "COST LESS PRESCRIPTIONS INC","address1": "5431 PACIFIC AVE","address2": "","city": "TACOMA","state": "WA","zip": "98408","zip+4": "0000","phone": "2534749493"}
{"name": "BIMART PHARMACY #626","address1": "1207 N 40TH AVE","address2": "","city": "YAKIMA","state": "WA","zip": "98908","zip+4": "9456","phone": "5094571628"}
{"name": "PACIFIC DRUGS INC #1","address1": "822 1ST AVE","address2": "","city": "SEATTLE","state": "WA","zip": "98104","zip+4": "1405","phone": "2066241454"}
{"name": "WHITE CENTER PHARMACY","address1": "9601 16TH AVE SW","address2": "","city": "SEATTLE","state": "WA","zip": "98106","zip+4": "2890","phone": "2067632500"}
{"name": "YAKIMA VLY FARM WKRS GRANDVIEW","address1": "1000 WALLACE WAY","address2": "","city": "GRANDVIEW","state": "WA","zip": "98930","zip+4": "0000","phone": "5098823977"}
{"name": "SAVON PHARMACY #461","address1": "520 128TH ST SW","address2": "","city": "EVERETT","state": "WA","zip": "98204","zip+4": "0000","phone": "4253471007"}
{"name": "ROSAUERS PHARMACY #29","address1": "9414 N DIVISION ST","address2": "","city": "SPOKANE","state": "WA","zip": "99218","zip+4": "1229","phone": "5094676806"}
{"name": "DOWNTOWN HEALTH MART PHARMACY","address1": "414 N PEARL ST","address2": "","city": "ELLENSBURG","state": "WA","zip": "98926","zip+4": "3112","phone": "5099251514"}
{"name": "THE CONDENSERY PHARMACY","address1": "117 N 1ST ST","address2": "","city": "MOUNT VERNON","state": "WA","zip": "98273","zip+4": "2858","phone": "3603362102"}
{"name": "ALLENMORE PHARMACY #03403","address1": "1901 S UNION AVE","address2": "STE A252","city": "TACOMA","state": "WA","zip": "98405","zip+4": "1702","phone": "2533835519"}
{"name": "OCEAN SHORES PHARMACY","address1": "172 W CHANCE A LA MER NW","address2": "STE 6","city": "OCEAN SHORES","state": "WA","zip": "98569","zip+4": "1659","phone": "3602894647"}
{"name": "BARTELL DRUGS #66","address1": "3018 NE 125TH ST","address2": "","city": "SEATTLE","state": "WA","zip": "98125","zip+4": "4424","phone": "2063627572"}
{"name": "SAFEWAY #0342","address1": "W 1616 NORTHWEST BLVD","address2": "","city": "SPOKANE","state": "WA","zip": "99205","zip+4": "0000","phone": "5093275010"}
{"name": "EAST VALLEY PHARMACY","address1": "7438 SOUTH D AVENUE","address2": "STE C","city": "CONCRETE","state": "WA","zip": "98237","zip+4": "0423","phone": "3608538109"}
{"name": "HOLLAND HEALTH SERVICES INC","address1": "1223 E DIVISION ST","address2": "","city": "MOUNT VERNON","state": "WA","zip": "98273","zip+4": "4101","phone": "3604281710"}
{"name": "BARTELL DRUGS #21","address1": "6619 132ND AVE NE","address2": "","city": "KIRKLAND","state": "WA","zip": "98033","zip+4": "8627","phone": "4258815544"}
{"name": "RITE AID PHARMACY # #05298","address1": "5606 SUMMIT VIEW AVENUE","address2": "","city": "YAKIMA","state": "WA","zip": "98908","zip+4": "3038","phone": "5099652037"}
{"name": "BARTELL DRUGS #33","address1": "1115 13TH STREET","address2": "","city": "SNOHOMISH","state": "WA","zip": "98290","zip+4": "2012","phone": "3605680548"}
{"name": "HEARTLAND PHARMACY","address1": "101 F ST SW","address2": "","city": "QUINCY","state": "WA","zip": "98848","zip+4": "0000","phone": "5097874437"}
{"name": "SAVON PHARMACY #239","address1": "401 S 40TH ST","address2": "","city": "YAKIMA","state": "WA","zip": "98908","zip+4": "0000","phone": "5099652336"}
{"name": "SAVON PHARMACY #465","address1": "8611 STEILACOOM BLVD SW","address2": "","city": "TACOMA","state": "WA","zip": "98498","zip+4": "0000","phone": "2535824149"}
{"name": "JIMS PHARMACY AND HOME HEALTH","address1": "424 E 2ND ST","address2": "","city": "PORT ANGELES","state": "WA","zip": "98362","zip+4": "0220","phone": "3604524200"}
{"name": "SAFEWAY #1485","address1": "1258 STATE AVE","address2": "","city": "MARYSVILLE","state": "WA","zip": "98270","zip+4": "0000","phone": "3606592882"}
{"name": "MILL CREEK PHARMACY","address1": "1025 153RD ST SE STE104","address2": "","city": "MILL CREEK","state": "WA","zip": "98012","zip+4": "0000","phone": "4254817575"}
{"name": "QFC PHARMACY #705853","address1": "2615 BROADWAY","address2": "","city": "EVERETT","state": "WA","zip": "98201","zip+4": "0000","phone": "4252596262"}
{"name": "SAFEWAY #0091","address1": "1227 15TH AVENUE","address2": "","city": "LONGVIEW","state": "WA","zip": "98632","zip+4": "0000","phone": "3605756606"}
{"name": "SAFEWAY #1799","address1": "3919 NORTH MARKET STREET","address2": "","city": "SPOKANE","state": "WA","zip": "99207","zip+4": "0000","phone": "5094823480"}
{"name": "RITE AID PHARMACY # #05237","address1": "3227 NORTHWEST AVENUE","address2": "","city": "BELLINGHAM","state": "WA","zip": "98225","zip+4": "1317","phone": "3606472175"}
{"name": "HILTON PHARMACY","address1": "220 STATE AVE","address2": "","city": "MARYSVILLE","state": "WA","zip": "98270","zip+4": "5108","phone": "3606593222"}
{"name": "RITE AID PHARMACY # #05261","address1": "19475 7TH AVENUE NORTHEAST","address2": "POULSBO VILLAGE","city": "POULSBO","state": "WA","zip": "98370","zip+4": "7527","phone": "3606972209"}
{"name": "BARTELL DRUGS #25","address1": "11020 19TH AVENUE SE","address2": "","city": "EVERETT","state": "WA","zip": "98208","zip+4": "5155","phone": "4253377197"}
{"name": "BARTELL DRUGS #26","address1": "22803 44TH AVENUE WEST","address2": "","city": "MOUNTLAKE TERRACE","state": "WA","zip": "98043","zip+4": "5032","phone": "4257713738"}
{"name": "BARTELL DRUGS #53","address1": "17633 HIGHWAY 99","address2": "","city": "LYNWOOD","state": "WA","zip": "98037","zip+4": "3627","phone": "4257437555"}
{"name": "BARTELL DRUGS #28","address1": "14130 JUANITA DRIVE NE","address2": "","city": "BOTHELL","state": "WA","zip": "98011","zip+4": "4927","phone": "4258216275"}
{"name": "SAVON PHARMACY #467","address1": "3905 BRIDGEPORT WAY W","address2": "","city": "TACOMA","state": "WA","zip": "98466","zip+4": "0000","phone": "2535657997"}
{"name": "WRAYS MEADOWBROOK PHARMACY","address1": "7200 W NOB HILL BLVD","address2": "SUITE 1","city": "YAKIMA","state": "WA","zip": "98908","zip+4": "1928","phone": "5099660202"}
{"name": "RITE AID PHARMACY # #05265","address1": "520 WEST WASHINGTON STREET","address2": "520 W WASHINGTON ST","city": "SEQUIM","state": "WA","zip": "98382","zip+4": "3264","phone": "3606810129"}
{"name": "DONG NAI PHARMACY #1315","address1": "620 JACKSON ST","address2": "","city": "SEATTLE","state": "WA","zip": "98104","zip+4": "2911","phone": "2066244238"}
{"name": "SAFEWAY #0503","address1": "11031 19TH AVE SE","address2": "","city": "EVERETT","state": "WA","zip": "98204","zip+4": "0000","phone": "4253370684"}
{"name": "SAFEWAY #0442","address1": "15332 AURORA AVE N","address2": "","city": "SHORELINE","state": "WA","zip": "98133","zip+4": "0000","phone": "2063624940"}
{"name": "SAFEWAY #1078","address1": "2930 OCEAN BEACH HWY","address2": "","city": "LONGVIEW","state": "WA","zip": "98632","zip+4": "0000","phone": "3605756246"}
{"name": "BARTELL DRUGS #14","address1": "1820 NORTH 45TH STREET","address2": "","city": "SEATTLE","state": "WA","zip": "98103","zip+4": "6803","phone": "2066323314"}
{"name": "RITE AID PHARMACY # #05300","address1": "2010 YAKIMA VALLEY HIGHWAY","address2": "MID VALLEY MALL","city": "SUNNYSIDE","state": "WA","zip": "98944","zip+4": "1289","phone": "5098392711"}
{"name": "MEDICAL CENTER PHARMACY","address1": "3525 ENSIGN RD NE","address2": "H","city": "OLYMPIA","state": "WA","zip": "98506","zip+4": "5065","phone": "3604917521"}
{"name": "MARKS CAMANO PHARMACY PC","address1": "370 NE CAMANO DR","address2": "STE 6","city": "CAMANO ISLAND","state": "WA","zip": "98282","zip+4": "0000","phone": "3603875757"}
{"name": "COLUMBIA UNITED DRUGS #01","address1": "4741 RAINIER AVE S","address2": "","city": "SEATTLE","state": "WA","zip": "98118","zip+4": "1657","phone": "2067235233"}
{"name": "SAFEWAY #0555","address1": "630 228TH AVE NE","address2": "","city": "SAMMAMISH","state": "WA","zip": "98074","zip+4": "0000","phone": "4258686181"}
{"name": "RITE AID PHARMACY # #05250","address1": "26817 88TH DRIVE NORTHWEST","address2": "","city": "STANWOOD","state": "WA","zip": "98292","zip+4": "9804","phone": "3606299519"}
{"name": "RITE AID PHARMACY # #05234","address1": "1517 COMMERCIAL AVENUE","address2": "","city": "ANACORTES","state": "WA","zip": "98221","zip+4": "2234","phone": "3602932119"}
{"name": "SAFEWAY #0585","address1": "600 FRANKLIN ST","address2": "","city": "SHELTON","state": "WA","zip": "98584","zip+4": "0000","phone": "3604260718"}
{"name": "SAFEWAY #4520","address1": "11606 NE 76TH STREET","address2": "","city": "VANCOUVER","state": "WA","zip": "98662","zip+4": "0000","phone": "3609442667"}
{"name": "QUILCEDA PHARMACY","address1": "9528 STATE AVE","address2": "SUITE A","city": "MARYSVILLE","state": "WA","zip": "98270","zip+4": "2236","phone": "3606534857"}
{"name": "SAFEWAY #1492","address1": "110 EAST 3RD STREET","address2": "","city": "PORT ANGELES","state": "WA","zip": "98362","zip+4": "0000","phone": "3604570599"}
{"name": "BEN FRANKLIN PHARMACY","address1": "6 CHENEY AND SPOKANE","address2": "","city": "CHENEY","state": "WA","zip": "99004","zip+4": "0000","phone": "5092358535"}
{"name": "SAVON PHARMACY #463","address1": "2401 N PEARL ST","address2": "","city": "TACOMA","state": "WA","zip": "98406","zip+4": "0000","phone": "2537527919"}
{"name": "SAFEWAY #0537","address1": "19651 HWY 2","address2": "","city": "MONROE","state": "WA","zip": "98272","zip+4": "0000","phone": "3607949644"}
{"name": "RITE AID PHARMACY # #05301","address1": "1630 SOUTH GRAND AVENUEER","address2": "","city": "PULLMAN","state": "WA","zip": "99163","zip+4": "4906","phone": "5093347222"}
{"name": "SAFEWAY #0535","address1": "20711 BOTHELL EVERETT HWY","address2": "","city": "BOTHELL","state": "WA","zip": "98012","zip+4": "0000","phone": "4254864473"}
{"name": "MEGA PHARMACY","address1": "8001 S HOSMER","address2": "SUITE C","city": "TACOMA","state": "WA","zip": "98408","zip+4": "0000","phone": "2534731919"}
{"name": "SAFEWAY #1468","address1": "4300 NE 4TH STREET","address2": "","city": "RENTON","state": "WA","zip": "98059","zip+4": "0000","phone": "4252356251"}
{"name": "PLATTERS PHARMACY","address1": "400 E 5TH AVE","address2": "STE 102","city": "SPOKANE","state": "WA","zip": "99202","zip+4": "0000","phone": "5098383588"}
{"name": "PURDY COST LESS PRESCRIPTIONS","address1": "14218 92ND AVE NW","address2": "","city": "GIG HARBOR","state": "WA","zip": "98329","zip+4": "8710","phone": "2538577944"}
{"name": "SAFEWAY #0531","address1": "101 AUBURN WAY S","address2": "","city": "AUBURN","state": "WA","zip": "98002","zip+4": "0000","phone": "2537354404"}
{"name": "SAFEWAY #0543","address1": "4700 YELM RD SE","address2": "","city": "LACEY","state": "WA","zip": "98503","zip+4": "0000","phone": "3604380081"}
{"name": "AKERS UNITED DRUG","address1": "406 N PARK ST","address2": "","city": "CHEWELAH","state": "WA","zip": "99109","zip+4": "0000","phone": "5099358441"}
{"name": "SAFEWAY #2640","address1": "13308 MERIDIAN ST E","address2": "","city": "PUYALLUP","state": "WA","zip": "98373","zip+4": "0000","phone": "2534351742"}
{"name": "SAFEWAY #0547","address1": "10105 224TH ST E","address2": "","city": "GRAHAM","state": "WA","zip": "98338","zip+4": "0000","phone": "2538477634"}
{"name": "SAFEWAY #0792","address1": "17051 SE 272ND","address2": "","city": "KENT","state": "WA","zip": "98048","zip+4": "0000","phone": "2536312450"}
{"name": "PARKS PHARMACY INC","address1": "401 NE RAVENNA BLVD","address2": "","city": "SEATTLE","state": "WA","zip": "98115","zip+4": "8401","phone": "2065273010"}
{"name": "VALLEY PHARMACY","address1": "221 S 1ST ST","address2": "","city": "MT VERNON","state": "WA","zip": "98273","zip+4": "3802","phone": "3603369658"}
{"name": "SUPER 1 PHARMACY #30","address1": "200 E MOUNTAIN VIEW AVE","address2": "","city": "ELLENSBURG","state": "WA","zip": "98926","zip+4": "3771","phone": "5099627777"}
{"name": "SAVON PHARMACY #469","address1": "12811 BEVERLY PARK RD","address2": "","city": "LYNNWOOD","state": "WA","zip": "98037","zip+4": "0000","phone": "4253473145"}
{"name": "CLE ELUM DRUG HEALTH MART PHAR","address1": "219 E 1ST ST","address2": "","city": "CLE ELUM","state": "WA","zip": "98922","zip+4": "1103","phone": "5096742155"}
{"name": "COSTCO PHARMACY #8","address1": "8629 120TH AVE NE","address2": "","city": "KIRKLAND","state": "WA","zip": "98033","zip+4": "0000","phone": "4258220414"}
{"name": "FRANCISCAN PHCY FEDERAL WAY","address1": "34503 9TH AVE S","address2": "SUITE 110","city": "FEDERAL WAY","state": "WA","zip": "98003","zip+4": "0000","phone": "2539424040"}
{"name": "ROSAUERS PHARMACY #7","address1": "1724 W FRANCIS AVE","address2": "","city": "SPOKANE","state": "WA","zip": "99205","zip+4": "6889","phone": "5093253431"}
{"name": "SOUTH TOWER PHARMACY","address1": "417 S TOWER AVE","address2": "","city": "CENTRALIA","state": "WA","zip": "98531","zip+4": "0000","phone": "3607364433"}
{"name": "BARTELL DRUGS #16","address1": "4706 42ND AVENUE SW","address2": "","city": "SEATTLE","state": "WA","zip": "98116","zip+4": "4500","phone": "2069328045"}
{"name": "BARTELL DRUGS #29","address1": "526 228TH AVENUE NE","address2": "","city": "SAMMAMISH","state": "WA","zip": "98074","zip+4": "7226","phone": "4258681112"}
{"name": "BARTELL DRUGS #30","address1": "6939 COAL CREEK PARKWAY SE","address2": "","city": "NEWCASTLE","state": "WA","zip": "98059","zip+4": "3137","phone": "4256444416"}
{"name": "BARTELL DRUGS #31","address1": "2700 NE UNIVERSITY VILLAGE STR","address2": "","city": "SEATTLE","state": "WA","zip": "98105","zip+4": "5016","phone": "2065250705"}
{"name": "ABERDEEN HEALTH MART PHARMACY","address1": "1812 SUMNER AVE","address2": "STE H","city": "ABERDEEN","state": "WA","zip": "98520","zip+4": "4602","phone": "3605331525"}
{"name": "MAI LINH DRUGS","address1": "1211 S 11TH ST","address2": "","city": "TACOMA","state": "WA","zip": "98405","zip+4": "4020","phone": "2533832576"}
{"name": "FRED MEYER PHARMACY #701209","address1": "9925 STATE AVE","address2": "","city": "MARYSVILLE","state": "WA","zip": "98270","zip+4": "0000","phone": "3606530733"}
{"name": "SHOPKO PHARMACY #70","address1": "13414 E SPRAGUE AVE","address2": "","city": "SPOKANE VALLEY","state": "WA","zip": "99216","zip+4": "0848","phone": "5099241744"}
{"name": "SHOPKO PHARMACY #66","address1": "9520 N NEWPORT HWY","address2": "","city": "SPOKANE","state": "WA","zip": "99218","zip+4": "1219","phone": "5094667414"}
{"name": "SAFEWAY #0558","address1": "6911 COAL CREEK PKWY SE","address2": "","city": "NEWCASTLE","state": "WA","zip": "98056","zip+4": "0000","phone": "4256442726"}
{"name": "SHOPKO PHARMACY #73","address1": "2530 RUDKIN RD","address2": "","city": "UNION GAP","state": "WA","zip": "98903","zip+4": "1632","phone": "5092489567"}
{"name": "COSTCO PHARMACY #6","address1": "400 COSTCO DRIVE","address2": "","city": "TUKWILA","state": "WA","zip": "98188","zip+4": "0000","phone": "2065758147"}
{"name": "BIMART PHARMACY #636","address1": "110 WEST SOUTH HILL RD","address2": "","city": "SUNNYSIDE","state": "WA","zip": "98944","zip+4": "8410","phone": "5098390766"}
{"name": "VM SOUTH PHARMACY","address1": "33501 1ST WAY S","address2": "","city": "FEDERAL WAY","state": "WA","zip": "98003","zip+4": "6299","phone": "2538741650"}
{"name": "RITE AID PHARMACY # #05304","address1": "2215A WEST WELLESLEY AVENUE","address2": "","city": "SPOKANE","state": "WA","zip": "99205","zip+4": "5001","phone": "5093287887"}
{"name": "RITE AID PHARMACY # #05308","address1": "9120 NORTH DIVISION STREET","address2": "","city": "SPOKANE","state": "WA","zip": "99218","zip+4": "1202","phone": "5094644480"}
{"name": "RITE AID PHARMACY # #05313","address1": "4514 SOUTH REGAL STREET","address2": "","city": "SPOKANE","state": "WA","zip": "99223","zip+4": "7937","phone": "5094489063"}
{"name": "RITE AID PHARMACY # #05179","address1": "15100 SOUTHEAST 38TH STREET","address2": "EASTGATE PLAZA","city": "BELLEVUE","state": "WA","zip": "98006","zip+4": "1763","phone": "4257464028"}
{"name": "RITE AID PHARMACY # #05186","address1": "2131 SOUTHWEST 336TH STREET","address2": "TWIN LAKES","city": "FEDERAL WAY","state": "WA","zip": "98023","zip+4": "2898","phone": "2539522803"}
{"name": "RITE AID PHARMACY # #05193","address1": "9820 NORTHEAST 132ND STREET","address2": "","city": "KIRKLAND","state": "WA","zip": "98034","zip+4": "1927","phone": "4258234466"}
{"name": "RITE AID PHARMACY # #05197","address1": "3023 78TH AVENUE SOUTHEAST","address2": "MERCER ISLAND SHOPPING CENTER","city": "MERCER ISLAND","state": "WA","zip": "98040","zip+4": "2894","phone": "2062360776"}
{"name": "RITE AID PHARMACY # #05172","address1": "1509 AUBURN WAY SOUTH","address2": "","city": "AUBURN","state": "WA","zip": "98002","zip+4": "6797","phone": "2539391939"}
{"name": "RITE AID PHARMACY # #05175","address1": "32015 PACIFIC HIGHWAY SOUTH","address2": "","city": "FEDERAL WAY","state": "WA","zip": "98003","zip+4": "6001","phone": "2539456011"}
{"name": "RITE AID PHARMACY # #05203","address1": "3116 NE SUNSET BOULEVARD","address2": "","city": "RENTON","state": "WA","zip": "98056","zip+4": "0000","phone": "4257930787"}
{"name": "SAVON PHARMACY #468","address1": "11012 CANYON RD E","address2": "","city": "PUYALLUP","state": "WA","zip": "98373","zip+4": "0000","phone": "2535373808"}
{"name": "FRED MEYER PHARMACY #701031","address1": "17801 108TH AVE SE","address2": "","city": "RENTON","state": "WA","zip": "98055","zip+4": "0000","phone": "4252355383"}
{"name": "TOP #29","address1": "1313 COOPER PT RD","address2": "","city": "OLYMPIA","state": "WA","zip": "98502","zip+4": "0000","phone": "3607541504"}
{"name": "PHARMACA INTEGRATIVE PHARMACY","address1": "4130 E MADISON","address2": "","city": "SEATTLE","state": "WA","zip": "98112","zip+4": "3296","phone": "2063241188"}
{"name": "COSTCO PHARMACY #13","address1": "10000 MICKELBERRY ROAD NW","address2": "","city": "SILVERDALE","state": "WA","zip": "98383","zip+4": "0000","phone": "3603082116"}
{"name": "SAFEWAY #3265","address1": "106 W MANSON ROAD","address2": "","city": "CHELAN","state": "WA","zip": "98816","zip+4": "0000","phone": "5096824087"}
{"name": "SAVON PHARMACY #470","address1": "14215 SE PETROVITSKY RD","address2": "","city": "RENTON","state": "WA","zip": "98058","zip+4": "0000","phone": "4252357772"}
{"name": "BOB JOHNSONS PHARMACY INC","address1": "1407 NW 85TH ST","address2": "","city": "SEATTLE","state": "WA","zip": "98117","zip+4": "4295","phone": "2067825822"}
{"name": "SAFEWAY #3540","address1": "21401 PACIFIC HWY SOUTH","address2": "","city": "SEATTLE","state": "WA","zip": "98188","zip+4": "0000","phone": "2068244784"}
{"name": "SAFEWAY #1471","address1": "26916 MAPLE VALLEY BK DMD RD","address2": "","city": "MAPLE VALLEY","state": "WA","zip": "98038","zip+4": "0000","phone": "4254323077"}
{"name": "14TH AVENUE PHARMACY","address1": "1200 N 14TH AVE","address2": "STE 100","city": "PASCO","state": "WA","zip": "99301","zip+4": "4177","phone": "5095478360"}
{"name": "COSTCO PHARMACY #486","address1": "8505 WEST GAGE BLVD","address2": "","city": "KENNEWICK","state": "WA","zip": "99336","zip+4": "0000","phone": "5097378877"}
{"name": "COSTCO PHARMACY #670","address1": "5601 EAST SPRAGUE AVE","address2": "","city": "SPOKANE","state": "WA","zip": "99212","zip+4": "0000","phone": "5098420002"}
{"name": "J AND S DRUG","address1": "236 N 2ND AVE","address2": "","city": "OKANOGAN","state": "WA","zip": "98840","zip+4": "0000","phone": "5094223920"}
{"name": "EASTERNS PHARMACY","address1": "515 MINOR AVE","address2": "STE 120","city": "SEATTLE","state": "WA","zip": "98104","zip+4": "2138","phone": "2066226094"}
{"name": "MAPLE LEAF","address1": "8830 ROOSEVELT WY NE","address2": "","city": "SEATTLE","state": "WA","zip": "98115","zip+4": "0000","phone": "2067297514"}
{"name": "SWEDISH CHERRY HILL PHARMACY","address1": "550 17TH AVE","address2": "STE 180","city": "SEATTLE","state": "WA","zip": "98122","zip+4": "5643","phone": "2063202699"}
{"name": "LJS FURNESS DRUG","address1": "114 S PACIFIC AVE","address2": "","city": "KELSO","state": "WA","zip": "98626","zip+4": "1699","phone": "3604253280"}
{"name": "SAFEWAY #1845","address1": "8704 GREENWOOD AVE NORTH","address2": "","city": "SEATTLE","state": "WA","zip": "98103","zip+4": "0000","phone": "2064940440"}
{"name": "YAUGER PARK PHARMACY","address1": "400 YAUGER WAY SW STE B","address2": "","city": "OLYMPIA","state": "WA","zip": "98502","zip+4": "8660","phone": "3603573371"}
{"name": "SAND POINT CLINIC PHARMACY","address1": "4575 SAND POINT WAY","address2": "","city": "SEATTLE","state": "WA","zip": "98105","zip+4": "0000","phone": "2065235700"}
{"name": "RITE AID PHARMACY # #05295","address1": "609 OMACHE DRIVE","address2": "","city": "OMAK","state": "WA","zip": "98841","zip+4": "9672","phone": "5098262806"}
{"name": "SAFEWAY #0544","address1": "21301 HWY 410","address2": "","city": "BONNEY LAKE","state": "WA","zip": "98390","zip+4": "0000","phone": "2538622533"}
{"name": "SAFEWAY #0373","address1": "2622 CALIFORNIA AVE SW","address2": "","city": "SEATTLE","state": "WA","zip": "98116","zip+4": "0000","phone": "2069380103"}
{"name": "SAFEWAY #3424","address1": "2411 NORTH PROCTOR","address2": "","city": "TACOMA","state": "WA","zip": "98406","zip+4": "0000","phone": "2537599889"}
{"name": "TOP #33","address1": "10 GRANT RD","address2": "","city": "E.WENATCHEE","state": "WA","zip": "98802","zip+4": "0000","phone": "5098847373"}
{"name": "SAFEWAY #0400","address1": "3707 N MAIN","address2": "","city": "VANCOUVER","state": "WA","zip": "98663","zip+4": "0000","phone": "3609938604"}
{"name": "SAFEWAY #4405","address1": "408 NE 81ST","address2": "","city": "HAZEL DELL","state": "WA","zip": "98665","zip+4": "0000","phone": "3605748824"}
{"name": "SHOPKO PHARMACY #81","address1": "5801 SUMMITVIEW AVE","address2": "","city": "YAKIMA","state": "WA","zip": "98908","zip+4": "3006","phone": "5099656393"}
{"name": "RITE AID PHARMACY # #05198","address1": "17125 SOUTHEAST 272ND STREET","address2": "SUITE 24","city": "KENT","state": "WA","zip": "98042","zip+4": "4966","phone": "2536309880"}
{"name": "RITE AID PHARMACY # #05280","address1": "8230 MARTIN WAY EAST","address2": "","city": "LACEY","state": "WA","zip": "98516","zip+4": "5726","phone": "3604560444"}
{"name": "FRED MEYER PHARMACY #701172","address1": "10201 SE 240TH","address2": "","city": "KENT","state": "WA","zip": "98031","zip+4": "0000","phone": "2538595533"}
{"name": "MEDICAL CENTER PHARMACY","address1": "450 NW GILMAN BLVD","address2": "STE 107","city": "ISSAQUAH","state": "WA","zip": "98027","zip+4": "2483","phone": "4253928650"}
{"name": "SAFEWAY #0538","address1": "442 W SIMS WAY","address2": "","city": "PORT TOWNSEND","state": "WA","zip": "98368","zip+4": "0000","phone": "3603852860"}
{"name": "SAVON PHARMACY #472","address1": "2800 MILTON WAY","address2": "SUITE 10","city": "MILTON","state": "WA","zip": "98354","zip+4": "0000","phone": "2539528436"}
{"name": "SAAR MARKET PLACE FOOD AND DRU","address1": "32199 ST RTE 20","address2": "","city": "OAK HARBOR","state": "WA","zip": "98277","zip+4": "2606","phone": "3606754511"}
{"name": "COSTCO PHARMACY #61","address1": "35100 ENCHANTED PARKWAY S","address2": "","city": "FEDERAL WAY","state": "WA","zip": "98003","zip+4": "0000","phone": "2538744431"}
{"name": "SAFEWAY #0533","address1": "19150 NE WOODINVILLE DUVALL RD","address2": "","city": "WOODINVILLE","state": "WA","zip": "98072","zip+4": "0000","phone": "4257886658"}
{"name": "RITE AID PHARMACY # #05260","address1": "3282 BETHEL ROAD SOUTHEAST","address2": "","city": "PORT ORCHARD","state": "WA","zip": "98366","zip+4": "5636","phone": "3608760969"}
{"name": "RITE AID PHARMACY # #05311","address1": "12420 NORTH DIVISION STREET","address2": "","city": "SPOKANE","state": "WA","zip": "99218","zip+4": "1930","phone": "5094661946"}
{"name": "RITE AID PHARMACY # #05254","address1": "4117 KITSAP WAY","address2": "","city": "BREMERTON","state": "WA","zip": "98312","zip+4": "2449","phone": "3604792415"}
{"name": "SHOPKO PHARMACY #92","address1": "867 N COLUMBIA CENTER BLVD","address2": "","city": "KENNEWICK","state": "WA","zip": "99336","zip+4": "7771","phone": "5097360505"}
{"name": "SHOPKO PHARMACY #89","address1": "1651 W ROSE ST","address2": "","city": "WALLA WALLA","state": "WA","zip": "99362","zip+4": "1771","phone": "5095259207"}
{"name": "TOP #35","address1": "2203 S 1ST STREET","address2": "","city": "YAKIMA","state": "WA","zip": "98903","zip+4": "0000","phone": "5094520840"}
{"name": "SAFEWAY #3500","address1": "6850 NE BOTHELL WAY","address2": "","city": "KENMORE","state": "WA","zip": "98028","zip+4": "0000","phone": "4254861661"}
{"name": "CHUCKS UNITED DRUGS","address1": "787 MAIN ST","address2": "","city": "BUCKLEY","state": "WA","zip": "98321","zip+4": "0000","phone": "3608290451"}
{"name": "SAFEWAY #1240","address1": "5512 161ST STREET E","address2": "","city": "PUYALLUP","state": "WA","zip": "98375","zip+4": "0000","phone": "2535315831"}
{"name": "BIMART PHARMACY #642","address1": "780 GRANT RD","address2": "","city": "EAST WENATCHEE","state": "WA","zip": "98802","zip+4": "5429","phone": "5098844022"}
{"name": "RITE AID PHARMACY # #05302","address1": "112 NORTH HOWARD STREET","address2": "SUITE 115","city": "SPOKANE","state": "WA","zip": "99201","zip+4": "0516","phone": "5098381851"}
{"name": "RITE AID PHARMACY #05248","address1": "851 MOORE STREET","address2": "","city": "SEDRO WOOLLEY","state": "WA","zip": "98284","zip+4": "1055","phone": "3608562152"}
{"name": "FRED MEYER PHARMACY #701186","address1": "700 SLEATER KINNEY RD SE","address2": "","city": "LACEY","state": "WA","zip": "98503","zip+4": "0000","phone": "2064386483"}
{"name": "RITE AID PHARMACY # #05183","address1": "22515 HIGHWAY 99","address2": "","city": "EDMONDS","state": "WA","zip": "98020","zip+4": "5841","phone": "4256702667"}
{"name": "COSTCO PHARMACY #115","address1": "19105 HIGHWAY 99","address2": "","city": "LYNNWOOD","state": "WA","zip": "98036","zip+4": "0000","phone": "4256407798"}
{"name": "COSTCO PHARMACY #1","address1": "4401 FOURTH AVE S","address2": "","city": "SEATTLE","state": "WA","zip": "98134","zip+4": "0000","phone": "2066826244"}
{"name": "FRED MEYER PHARMACY #701019","address1": "801 AUBURN WAY N","address2": "","city": "AUBURN","state": "WA","zip": "98002","zip+4": "0000","phone": "2539315584"}
{"name": "MT VERNON FOOD PAVILION PHARMA","address1": "1515 N 18TH ST","address2": "","city": "MOUNT VERNON","state": "WA","zip": "98273","zip+4": "0000","phone": "3604283663"}
{"name": "MEDICAL CENTER PHARMACY","address1": "1330 ROCKEFELLER AVE","address2": "STE 150","city": "EVERETT","state": "WA","zip": "98201","zip+4": "1684","phone": "4252613555"}
{"name": "PRESCRIPTION PAD","address1": "4011 TALBOT RD S","address2": "","city": "RENTON","state": "WA","zip": "98055","zip+4": "5791","phone": "4256564050"}
{"name": "SAFEWAY #0526","address1": "14444 124TH AVE NE","address2": "","city": "KIRKLAND","state": "WA","zip": "98033","zip+4": "0000","phone": "4258217455"}
{"name": "BRIDGEPORT PHARMACY SERVICES","address1": "7424 BRIDGEPORT WAY WEST","address2": "STE 109","city": "LAKEWOOD","state": "WA","zip": "98499","zip+4": "0000","phone": "2535822282"}
{"name": "SAVON PHARMACY #240","address1": "E 510 37TH ST","address2": "","city": "SPOKANE","state": "WA","zip": "99203","zip+4": "0000","phone": "5094554437"}
{"name": "BURLINGTON COST CUTTER PHCY #5","address1": "1500 S BURLINGTON BLVD","address2": "","city": "BURLINGTON","state": "WA","zip": "98233","zip+4": "0000","phone": "3607573772"}
{"name": "SAVON PHARMACY #475","address1": "1434 OLNEY AVE SE","address2": "","city": "PORT ORCHARD","state": "WA","zip": "98366","zip+4": "0000","phone": "3608950613"}
{"name": "SAFEWAY #1546","address1": "221 W HERON STREET","address2": "","city": "ABERDEEN","state": "WA","zip": "98520","zip+4": "0000","phone": "3605328743"}
{"name": "SAFEWAY #0497","address1": "17202 15TH AVE NE","address2": "","city": "SEATTLE","state": "WA","zip": "98155","zip+4": "0000","phone": "2063644618"}
{"name": "SAFEWAY #2734","address1": "10020 NE 137TH","address2": "","city": "KIRKLAND","state": "WA","zip": "98033","zip+4": "0000","phone": "4258210708"}
{"name": "SAFEWAY #0459","address1": "20830 108TH SE","address2": "","city": "KENT","state": "WA","zip": "98031","zip+4": "0000","phone": "2538529319"}
{"name": "SAFEWAY #1242","address1": "E 2509 29TH AVENUE","address2": "","city": "SPOKANE","state": "WA","zip": "99203","zip+4": "0000","phone": "5095329182"}
{"name": "BARTELL DRUGS #12","address1": "22833 BOTHELL EVERETT HIGHWAY","address2": "","city": "BOTHELL","state": "WA","zip": "98021","zip+4": "9385","phone": "4254817810"}
{"name": "LINDEMAN PAVILLION PHARMACY","address1": "1201 TERRY AVE","address2": "","city": "SEATTLE","state": "WA","zip": "98101","zip+4": "2700","phone": "2066257202"}
{"name": "MARTINS SOUTHGATE DRUG","address1": "5201 CAPITOL BLVD S","address2": "","city": "TUMWATER","state": "WA","zip": "98501","zip+4": "4492","phone": "3609434043"}
{"name": "BARTELL DRUGS #34","address1": "12946 KENT KANGLEY ROAD","address2": "","city": "KENT","state": "WA","zip": "98030","zip+4": "7940","phone": "2536316874"}
{"name": "SAFEWAY #1252","address1": "253 HIGH SCHOOL ROAD NE","address2": "","city": "BAINBRIDGE ISLAND","state": "WA","zip": "98110","zip+4": "0000","phone": "2068420127"}
{"name": "HIGHLAND PHARMACY","address1": "22618 HWY 99","address2": "STE 109","city": "EDMONDS","state": "WA","zip": "98026","zip+4": "0000","phone": "4256738533"}
{"name": "CVS CAREMARK","address1": "19102 N CREEK PKWY","address2": "STE 110","city": "BOTHELL","state": "WA","zip": "98011","zip+4": "8005","phone": "4254029199"}
{"name": "SAFEWAY #0563","address1": "613 SIXTH","address2": "","city": "SUNNYSIDE","state": "WA","zip": "98944","zip+4": "0000","phone": "5098392103"}
{"name": "SAFEWAY #1273","address1": "N 1441 ARGONNE ROAD","address2": "","city": "SPOKANE","state": "WA","zip": "99212","zip+4": "0000","phone": "5099218032"}
{"name": "RITE AID PHARMACY # #05239","address1": "1225 EAST SUNSET DRIVE","address2": "SUNSET SQUARE SUITE 110","city": "BELLINGHAM","state": "WA","zip": "98226","zip+4": "3554","phone": "3606715041"}
{"name": "SAVON PHARMACY #241","address1": "400 BRIDGE ST","address2": "","city": "CLARKSTON","state": "WA","zip": "99403","zip+4": "0000","phone": "5097587475"}
{"name": "THE EVERETT CLINIC PHCY AT HAR","address1": "4410 106TH PL SW","address2": "","city": "MUKILTEO","state": "WA","zip": "98275","zip+4": "4700","phone": "4254936005"}
{"name": "FRED MEYER PHARMACY #701171","address1": "5050 STATE HIGHWAY 303 NE","address2": "","city": "BREMERTON","state": "WA","zip": "98311","zip+4": "0000","phone": "3607922833"}
{"name": "TACOMA MEDICAL CENTER PHARMACY","address1": "1206 S 11TH ST","address2": "STE 1","city": "TACOMA","state": "WA","zip": "98405","zip+4": "0000","phone": "2533835359"}
{"name": "SKAGIT VALLEY MED CTR PHARMACY","address1": "1410 E KINCAID ST","address2": "","city": "MOUNT VERNON","state": "WA","zip": "98274","zip+4": "0000","phone": "3604286465"}
{"name": "TOP #39","address1": "31515 20TH AVE S","address2": "","city": "FEDERAL WAY","state": "WA","zip": "98003","zip+4": "0000","phone": "2538399322"}
{"name": "SAVON PHARMACY #244","address1": "1128 N MILLER ST","address2": "","city": "WENATCHEE","state": "WA","zip": "98801","zip+4": "0000","phone": "5096622942"}
{"name": "SAFEWAY #1287","address1": "800 NE THIRD","address2": "","city": "CAMAS","state": "WA","zip": "98607","zip+4": "0000","phone": "3608346550"}
{"name": "SAFEWAY #0474","address1": "1715 BROADWAY","address2": "","city": "EVERETT","state": "WA","zip": "98201","zip+4": "0000","phone": "4253399448"}
{"name": "COSTCO PHARMACY #1013","address1": "2310 LONGFIBRE RD","address2": "","city": "UNION GAP","state": "WA","zip": "98903","zip+4": "0000","phone": "5094545249"}
{"name": "CUMULUS PARK PHARMACY","address1": "16410 SMOKEY PT BLVD","address2": "STE 107","city": "ARLINGTON","state": "WA","zip": "98223","zip+4": "8415","phone": "3606532500"}
{"name": "BARTELL DRUGS #32","address1": "27055 PACIFIC HIGHWAY SOUTH","address2": "","city": "DES MOINES","state": "WA","zip": "98198","zip+4": "9250","phone": "2538391693"}
{"name": "NGUYENS PHARMACY","address1": "2120 RAINER AVE S","address2": "","city": "SEATTLE","state": "WA","zip": "98144","zip+4": "0000","phone": "2063239525"}
{"name": "YOKES PHARMACY #2","address1": "15111 E SPRAGUE AVE","address2": "","city": "SPOKANE VALLEY","state": "WA","zip": "99037","zip+4": "8579","phone": "5099277547"}
{"name": "BARTELL DRUGS #37","address1": "1404 THIRD AVENUE","address2": "","city": "SEATTLE","state": "WA","zip": "98101","zip+4": "2106","phone": "2066241401"}
{"name": "SAFEWAY #1103","address1": "6701 E MILL PLAIN","address2": "","city": "VANCOUVER","state": "WA","zip": "98661","zip+4": "0000","phone": "3609925726"}
{"name": "FAIRFIELD OWL PHARMACY","address1": "E 208 MAIN ST","address2": "","city": "FAIRFIELD","state": "WA","zip": "99012","zip+4": "0000","phone": "5092834299"}
{"name": "FAIRHAVEN PHARMACY","address1": "1115 HARRIS AVE","address2": "","city": "BELLINGHAM","state": "WA","zip": "98225","zip+4": "7091","phone": "3607343340"}
{"name": "KMART PHARMACY #3275","address1": "2711 NE ANDRESEN","address2": "","city": "VANCOUVER","state": "WA","zip": "98661","zip+4": "0000","phone": "3609445706"}
{"name": "TOP #57","address1": "1301 AVE D","address2": "","city": "SNOHOMISH","state": "WA","zip": "98290","zip+4": "0000","phone": "3605685154"}
{"name": "FRED MEYER PHARMACY #701111","address1": "33702 21ST AVE SW","address2": "","city": "FEDERAL","state": "WA","zip": "98023","zip+4": "0000","phone": "2539520133"}
{"name": "FRANCISCAN PHARMACY AND HOME M","address1": "1708 S YAKIMA AVE","address2": "","city": "TACOMA","state": "WA","zip": "98405","zip+4": "0000","phone": "2534266920"}
{"name": "SAFEWAY #1664","address1": "138 SW 148TH STREET","address2": "","city": "BURIEN","state": "WA","zip": "98166","zip+4": "0000","phone": "2062432796"}
{"name": "SAFEWAY #1297","address1": "23632 HWY 99","address2": "","city": "EDMONDS","state": "WA","zip": "98026","zip+4": "0000","phone": "4257751030"}
{"name": "KMART PHARMACY #4439","address1": "2304 E NOB HILL BLVD","address2": "","city": "YAKIMA","state": "WA","zip": "98901","zip+4": "0000","phone": "5095757552"}
{"name": "KMART PHARMACY #4155","address1": "6606 N DIVISION ST","address2": "","city": "SPOKANE","state": "WA","zip": "99208","zip+4": "0000","phone": "5094830466"}
{"name": "TOP #41","address1": "3130 S 23RD STREET","address2": "","city": "TACOMA","state": "WA","zip": "98405","zip+4": "0000","phone": "2535913110"}
{"name": "BARTELL DRUGS #39","address1": "5500 OLYMPIC DRIVE","address2": "","city": "GIG HARBOR","state": "WA","zip": "98335","zip+4": "1487","phone": "2538587455"}
{"name": "SAFEWAY #0584","address1": "711 W FIRST ST","address2": "","city": "TOPPENISH","state": "WA","zip": "98948","zip+4": "0000","phone": "5098654700"}
{"name": "SAFEWAY #1508","address1": "3820 RAINIER AVENUE SOUTH","address2": "","city": "SEATTLE","state": "WA","zip": "98118","zip+4": "0000","phone": "2067259887"}
{"name": "COSTCO PHARMACY #19","address1": "4299 GUIDE MERIDIAN STREET","address2": "","city": "BELLINGHAM","state": "WA","zip": "98226","zip+4": "0000","phone": "3607387851"}
{"name": "COSTCO PHARMACY #64","address1": "5500 LITTLEROCK ROAD SW","address2": "","city": "TUMWATER","state": "WA","zip": "98512","zip+4": "0000","phone": "3603577290"}
{"name": "SAFEWAY #1645","address1": "10223 GRAVELLY LAKE DR SW","address2": "","city": "TACOMA","state": "WA","zip": "98499","zip+4": "0000","phone": "2535817181"}
{"name": "RITE AID PHARMACY # #05241","address1": "1733 H STREET","address2": "BLAINE MARKETPLACE SUITE 500","city": "BLAINE","state": "WA","zip": "98230","zip+4": "0404","phone": "3603321616"}
{"name": "SAFEWAY #0360","address1": "12318 15TH NE","address2": "","city": "SEATTLE","state": "WA","zip": "98125","zip+4": "0000","phone": "2063670929"}
{"name": "J AND J PHARMACY","address1": "7315 212TH ST SW","address2": "STE 100","city": "EDMONDS","state": "WA","zip": "98026","zip+4": "7610","phone": "4256708912"}
{"name": "WOODINVILLE PHARMACY INC","address1": "17000 140TH AVE NE","address2": "STE E101","city": "WOODINVILLE","state": "WA","zip": "98072","zip+4": "6903","phone": "4254852900"}
{"name": "SAFEWAY #0368","address1": "2100 QUEEN ANNE AVE N","address2": "","city": "SEATTLE","state": "WA","zip": "98109","zip+4": "0000","phone": "2062844226"}
{"name": "KMART PHARMACY #3389","address1": "4141 MARTIN WAY","address2": "","city": "LACEY","state": "WA","zip": "98506","zip+4": "0000","phone": "3609239344"}
{"name": "SAFEWAY #1472","address1": "315 EAST COLLEGE WAY","address2": "","city": "MT VERNON","state": "WA","zip": "98273","zip+4": "0000","phone": "3604240467"}
{"name": "SAVON PHARMACY #478","address1": "6727 EVERGREEN WAY","address2": "","city": "EVERETT","state": "WA","zip": "98203","zip+4": "0000","phone": "4253537539"}
{"name": "SAFEWAY #0462","address1": "205 N 5TH AVENUE","address2": "","city": "YAKIMA","state": "WA","zip": "98902","zip+4": "0000","phone": "5094578869"}
{"name": "SAFEWAY #0593","address1": "911 11TH ST","address2": "","city": "ANACORTES","state": "WA","zip": "98221","zip+4": "0000","phone": "3602934148"}
{"name": "BARTELL DRUGS #70","address1": "3625 148TH ST SW","address2": "SUITE B","city": "LYNNWOOD","state": "WA","zip": "98037","zip+4": "0000","phone": "4257421120"}
{"name": "COSTCO PHARMACY #95","address1": "2219 SO 37TH ST","address2": "","city": "TACOMA","state": "WA","zip": "98409","zip+4": "0000","phone": "2536716002"}
{"name": "KMART PHARMACY #4253","address1": "1414 E 72ND STREET","address2": "","city": "TACOMA","state": "WA","zip": "98404","zip+4": "0000","phone": "2535376668"}
{"name": "COSTCO PHARMACY #66","address1": "7619 NORTH DIVISION STREET","address2": "","city": "SPOKANE","state": "WA","zip": "99208","zip+4": "0000","phone": "5094663315"}
{"name": "RITE AID PHARMACY # #05236","address1": "1400 CORNWALL AVENUE","address2": "","city": "BELLINGHAM","state": "WA","zip": "98225","zip+4": "4520","phone": "3607331980"}
{"name": "RITE AID PHARMACY # #05216","address1": "8500 35TH AVENUE NORTHEAST","address2": "","city": "SEATTLE","state": "WA","zip": "98115","zip+4": "3699","phone": "2065278373"}
{"name": "RITE AID PHARMACY # #05274","address1": "15801 PACIFIC AVENUE","address2": "SPANAWAY VILLAGE SHOPING CENTE","city": "TACOMA","state": "WA","zip": "98444","zip+4": "6904","phone": "2535317427"}
{"name": "RITE AID PHARMACY # #05288","address1": "364 TRIANGLE SHOP CENTER","address2": "","city": "LONGVIEW","state": "WA","zip": "98632","zip+4": "4651","phone": "3604234833"}
{"name": "RITE AID PHARMACY # #05176","address1": "120 106TH AVENUE NORTHEAST","address2": "","city": "BELLEVUE","state": "WA","zip": "98004","zip+4": "5910","phone": "4254546513"}
{"name": "RITE AID PHARMACY # #05224","address1": "2707 RAINIER AVENUE SOUTH","address2": "","city": "SEATTLE","state": "WA","zip": "98144","zip+4": "5332","phone": "2067215018"}
{"name": "RITE AID PHARMACY # #05225","address1": "17171 BOTHELL WAY NORTHEAST","address2": "LAKE FOREST PRK TOWNE CENTER","city": "LAKE FOREST PARK","state": "WA","zip": "98155","zip+4": "5534","phone": "2063636364"}
{"name": "RITE AID PHARMACY # #05201","address1": "601 SOUTH GRADY WAY","address2": "SUITE P","city": "RENTON","state": "WA","zip": "98057","zip+4": "3229","phone": "4252264390"}
{"name": "RITE AID PHARMACY # #05220","address1": "5217 CALIFORNIA AVENUE SOUTHWE","address2": "SUITE H1","city": "SEATTLE","state": "WA","zip": "98126","zip+4": "3952","phone": "2069384253"}
{"name": "RITE AID PHARMACY # #05279","address1": "691 SLEATER KINNEY ROAD SOUTHE","address2": "","city": "LACEY","state": "WA","zip": "98503","zip+4": "1007","phone": "3604914111"}
{"name": "RITE AID PHARMACY # #05277","address1": "5700 100TH STREET SOUTHWEST","address2": "SUITE 100","city": "LAKEWOOD","state": "WA","zip": "98499","zip+4": "2708","phone": "2535883666"}
{"name": "RITE AID PHARMACY # #05194","address1": "7500-A 196TH STREET SOUTHWEST","address2": "VAUGHN CENTER","city": "LYNNWOOD","state": "WA","zip": "98036","zip+4": "5090","phone": "4257746669"}
{"name": "RITE AID PHARMACY # #05305","address1": "12115 EAST SPRAGUE AVENUE","address2": "","city": "SPOKANE VALLEY","state": "WA","zip": "99206","zip+4": "5146","phone": "5099244922"}
{"name": "RITE AID PHARMACY # #05316","address1": "1321 NORTH COLUMBIA CENTER BOU","address2": "SUITE 845","city": "KENNEWICK","state": "WA","zip": "99336","zip+4": "2184","phone": "5097833413"}
{"name": "RITE AID PHARMACY # #05303","address1": "810 EAST 29TH AVENUE","address2": "MANITO SHOPPING CENTER","city": "SPOKANE","state": "WA","zip": "99203","zip+4": "3219","phone": "5098383508"}
{"name": "RITE AID PHARMACY # #05262","address1": "1323 EAST MAIN AVENUE","address2": "1323 EAST MAIN AVENUE","city": "PUYALLUP","state": "WA","zip": "98372","zip+4": "3136","phone": "2538483564"}
{"name": "RITE AID PHARMACY # #05257","address1": "621 SOUTH LINCOLN STREET","address2": "","city": "PORT ANGELES","state": "WA","zip": "98362","zip+4": "6111","phone": "3604529784"}
{"name": "RITE AID PHARMACY # #05181","address1": "16222 BOTHELL EVERETT HIGHWAY","address2": "","city": "MILL CREEK","state": "WA","zip": "98012","zip+4": "1520","phone": "4257418649"}
{"name": "RITE AID PHARMACY # #05240","address1": "222 TELEGRAPH ROAD","address2": "","city": "BELLINGHAM","state": "WA","zip": "98226","zip+4": "8080","phone": "3606768570"}
{"name": "RITE AID PHARMACY # #05171","address1": "1231 AUBURN WAY NORTH","address2": "AUBURN NORTH SHOPPING CENTER","city": "AUBURN","state": "WA","zip": "98002","zip+4": "4148","phone": "2539395355"}
{"name": "RITE AID PHARMACY # #05217","address1": "9000 RAINIER AVENUE SOUTH","address2": "","city": "SEATTLE","state": "WA","zip": "98118","zip+4": "0000","phone": "2067601076"}
{"name": "RITE AID PHARMACY # #05192","address1": "12421 TOTEM LAKE BOULEVARD","address2": "","city": "KIRKLAND","state": "WA","zip": "98034","zip+4": "7504","phone": "4258211500"}
{"name": "RITE AID PHARMACY # #05245","address1": "242 EAST COLLEGE WAY","address2": "SKAGIT VALLEY MALL","city": "MT VERNON","state": "WA","zip": "98273","zip+4": "5432","phone": "3604247958"}
{"name": "RITE AID PHARMACY # #05266","address1": "2860 NORTHWEST BUCKLIN HILL RO","address2": "","city": "SILVERDALE","state": "WA","zip": "98383","zip+4": "9110","phone": "3606923410"}
{"name": "RITE AID PHARMACY # #05230","address1": "4920-A EVERGREEN WAY","address2": "EVERGREEN PLAZA","city": "EVERETT","state": "WA","zip": "98203","zip+4": "2827","phone": "4252524109"}
{"name": "RITE AID PHARMACY # #05275","address1": "3840 BRIDGEPORT WAY WEST","address2": "","city": "UNIVERSITY PLACE","state": "WA","zip": "98466","zip+4": "4416","phone": "2535642255"}
{"name": "RITE AID PHARMACY # #05199","address1": "17220 REDMOND WAY NORTHEAST","address2": "","city": "REDMOND","state": "WA","zip": "98052","zip+4": "4497","phone": "4258831516"}
{"name": "RITE AID PHARMACY # #05293","address1": "500 SOUTH PIONEER WAY","address2": "","city": "MOSES LAKE","state": "WA","zip": "98837","zip+4": "1812","phone": "5097651219"}
{"name": "RITE AID PHARMACY # #05282","address1": "301 EAST WISHKAH STREET","address2": "","city": "ABERDEEN","state": "WA","zip": "98520","zip+4": "6514","phone": "3605336320"}
{"name": "RITE AID PHARMACY # #05178","address1": "3905 FACTORIA MALL SOUTHEAST","address2": "","city": "BELLEVUE","state": "WA","zip": "98006","zip+4": "1289","phone": "4256442925"}
{"name": "RITE AID PHARMACY # #05185","address1": "232 ROOSEVELT AVENUE","address2": "","city": "ENUMCLAW","state": "WA","zip": "98022","zip+4": "2989","phone": "3608252558"}
{"name": "RITE AID PHARMACY # #05278","address1": "305 COOPER POINT ROAD NORTHWES","address2": "SUITE 103","city": "OLYMPIA","state": "WA","zip": "98502","zip+4": "8705","phone": "3607548014"}
{"name": "RITE AID PHARMACY # #05307","address1": "5520 NORTH DIVISION STREET","address2": "","city": "SPOKANE","state": "WA","zip": "99208","zip+4": "0000","phone": "5094896010"}
{"name": "RITE AID PHARMACY # #05196","address1": "18600-B 33RD AVENUE WEST","address2": "ALDERWOOD PLAZA SHOPPING CENTE","city": "LYNNWOOD","state": "WA","zip": "98037","zip+4": "4715","phone": "4257719427"}
{"name": "RITE AID PHARMACY # #05318","address1": "1549 GEORGE WASHINGTON WAY","address2": "","city": "RICHLAND","state": "WA","zip": "99352","zip+4": "2602","phone": "5099465770"}
{"name": "RITE AID PHARMACY # #05205","address1": "14035 NE WOODINVILLE-DUVALL","address2": "WOODINVILLE PLAZA","city": "WOODINVILLE","state": "WA","zip": "98072","zip+4": "8504","phone": "4254856468"}
{"name": "RITE AID PHARMACY # #05191","address1": "26200 PACIFIC HIGHWAY SOUTH","address2": "","city": "KENT","state": "WA","zip": "98032","zip+4": "6934","phone": "2539414660"}
{"name": "RITE AID PHARMACY # #05256","address1": "900 EAST MERIDIAN","address2": "SUITE 23","city": "MILTON","state": "WA","zip": "98354","zip+4": "7003","phone": "2539522680"}
{"name": "RITE AID PHARMACY # #05187","address1": "1065 NW GILMAN BOULEVARD","address2": "","city": "ISSAQUAH","state": "WA","zip": "98027","zip+4": "5304","phone": "4253922865"}
{"name": "RITE AID PHARMACY # #05243","address1": "251 MARYSVILLE MALL","address2": "","city": "MARYSVILLE","state": "WA","zip": "98270","zip+4": "5501","phone": "3606590492"}
{"name": "RITE AID PHARMACY # #05223","address1": "5217 CALIFORNIA AVENUE SOUTHWE","address2": "","city": "SEATTLE","state": "WA","zip": "98136","zip+4": "1209","phone": "2069372191"}
{"name": "RITE AID PHARMACY # #05207","address1": "201 BROADWAY EAST","address2": "","city": "SEATTLE","state": "WA","zip": "98102","zip+4": "5723","phone": "2063247111"}
{"name": "RITE AID PHARMACY # #05264","address1": "11220 CANYON ROAD EAST","address2": "","city": "PUYALLUP","state": "WA","zip": "98373","zip+4": "0000","phone": "2535373071"}
{"name": "RITE AID PHARMACY # #05269","address1": "1912 NORTH PEARL STREET","address2": "","city": "TACOMA","state": "WA","zip": "98406","zip+4": "2457","phone": "2538790140"}
{"name": "RITE AID PHARMACY # #05210","address1": "802 THIRD AVENUE","address2": "","city": "SEATTLE","state": "WA","zip": "98104","zip+4": "1602","phone": "2066230577"}
{"name": "RITE AID PHARMACY # #05247","address1": "31645 STATE ROUTE 20","address2": "ISLAND PLAZA","city": "OAK HARBOR","state": "WA","zip": "98277","zip+4": "3173","phone": "3606793522"}
{"name": "RITE AID PHARMACY # #05255","address1": "4818 POINT FOSDICK  DRIVE NORT","address2": "HARBOR PLAZA","city": "GIG HARBOR","state": "WA","zip": "98335","zip+4": "1711","phone": "2538516939"}
{"name": "RITE AID PHARMACY # #05296","address1": "2204 B WEST NOB HILL BOULEVARD","address2": "","city": "YAKIMA","state": "WA","zip": "98902","zip+4": "6200","phone": "5094534414"}
{"name": "RITE AID PHARMACY # #05314","address1": "1308 NORTH 20TH AVENUE","address2": "","city": "PASCO","state": "WA","zip": "99301","zip+4": "4054","phone": "5095459581"}
{"name": "RITE AID PHARMACY # #05312","address1": "2929 EAST 29TH AVENUE","address2": "","city": "SPOKANE","state": "WA","zip": "99223","zip+4": "4811","phone": "5095359056"}
{"name": "RITE AID PHARMACY # #05276","address1": "1850 SOUTH MILDRED STREET","address2": "","city": "TACOMA","state": "WA","zip": "98465","zip+4": "1608","phone": "2534609599"}
{"name": "RITE AID PHARMACY # #05284","address1": "1200 HARRISON AVENUE","address2": "","city": "CENTRALIA","state": "WA","zip": "98531","zip+4": "1853","phone": "3608072014"}
{"name": "RITE AID PHARMACY # #05287","address1": "230 KELSO DRIVE","address2": "","city": "KELSO","state": "WA","zip": "98626","zip+4": "3112","phone": "3605772693"}
{"name": "RITE AID PHARMACY # #05231","address1": "10103 EVERGREEN WAY","address2": "","city": "EVERETT","state": "WA","zip": "98204","zip+4": "3860","phone": "4253472180"}
{"name": "RITE AID PHARMACY # #05189","address1": "20518 108TH AVENUE SOUTHEAST","address2": "","city": "KENT","state": "WA","zip": "98031","zip+4": "1542","phone": "2538542999"}
{"name": "RITE AID PHARMACY # #05267","address1": "21302 STATE ROUTE 410 EAST","address2": "","city": "BONNEY LAKE","state": "WA","zip": "98391","zip+4": "8468","phone": "2538622822"}
{"name": "RITE AID PHARMACY # #05215","address1": "301 HIGH SCHOOL ROAD NORTHEAST","address2": "","city": "BAINBRIDGE ISLAND","state": "WA","zip": "98110","zip+4": "1608","phone": "2068424065"}
{"name": "RITE AID PHARMACY # #05244","address1": "18906 STATE ROUTE 2","address2": "","city": "MONROE","state": "WA","zip": "98272","zip+4": "1415","phone": "3607940943"}
{"name": "RITE AID PHARMACY # #05309","address1": "1443 NORTH ARGONNE ROAD","address2": "","city": "SPOKANE VALLEY","state": "WA","zip": "99212","zip+4": "2555","phone": "5099289121"}
{"name": "RITE AID PHARMACY # #05235","address1": "17226 SMOKEY POINT BOULEVARD","address2": "","city": "ARLINGTON","state": "WA","zip": "98223","zip+4": "8718","phone": "3606574410"}
{"name": "RITE AID PHARMACY # #05271","address1": "7041 PACIFIC AVENUE","address2": "","city": "TACOMA","state": "WA","zip": "98408","zip+4": "7220","phone": "2534740115"}
{"name": "RITE AID PHARMACY # #05188","address1": "3066 ISSAQUAH PINE LAKE ROAD S","address2": "","city": "ISSAQUAH","state": "WA","zip": "98029","zip+4": "0000","phone": "4253911582"}
{"name": "TOP #45","address1": "21900 HWY 99","address2": "","city": "EDMONDS","state": "WA","zip": "98026","zip+4": "0000","phone": "4256721520"}
{"name": "LOWRYS PRESCRIPTIONS","address1": "10330 MERIDIAN AVE N","address2": "STE 180","city": "SEATTLE","state": "WA","zip": "98133","zip+4": "0000","phone": "2063686060"}
{"name": "SAFEWAY #1159","address1": "121 WEST WALNUT","address2": "","city": "NEWPORT","state": "WA","zip": "99156","zip+4": "0000","phone": "5094473972"}
{"name": "KMART PHARMACY #7331","address1": "1201 NORTHWEST LOUISIANA","address2": "","city": "CHEHALIS","state": "WA","zip": "98532","zip+4": "0000","phone": "3607489681"}
{"name": "KMART PHARMACY #7621","address1": "32165 STATE ROUTE 20","address2": "","city": "OAK HARBOR","state": "WA","zip": "98277","zip+4": "3774","phone": "3606795546"}
{"name": "SAVON PHARMACY #480","address1": "6100 PACIFIC AVE SE","address2": "","city": "LACEY","state": "WA","zip": "98503","zip+4": "0000","phone": "3604918474"}
{"name": "SAFEWAY #1294","address1": "210 WASHINGTON AVENUE SOUTH","address2": "","city": "KENT","state": "WA","zip": "98032","zip+4": "0000","phone": "2538525115"}
{"name": "SAFEWAY #1448","address1": "680F WEST WASHINGTON","address2": "","city": "SEQUIM","state": "WA","zip": "98382","zip+4": "0000","phone": "3606812120"}
{"name": "SELAH SAVE ON FOODS PHARMACY #","address1": "800 N PARK CTR","address2": "","city": "SELAH","state": "WA","zip": "98942","zip+4": "0000","phone": "5096976188"}
{"name": "SAVON PHARMACY #418","address1": "10616 16TH AVE SW","address2": "","city": "SEATTLE","state": "WA","zip": "98146","zip+4": "0000","phone": "2062434433"}
{"name": "FRED MEYER PHARMACY #701486","address1": "1206 NORTH 40TH AVE","address2": "","city": "YAKIMA","state": "WA","zip": "98908","zip+4": "0000","phone": "5095766833"}
{"name": "SAFEWAY #1449","address1": "501 N MILLER","address2": "","city": "WENATCHEE","state": "WA","zip": "98801","zip+4": "0000","phone": "5096635575"}
{"name": "SAVON PHARMACY #246","address1": "8851 E TRENT AVE","address2": "","city": "MILLWOOD","state": "WA","zip": "99212","zip+4": "0000","phone": "5099249052"}
{"name": "SAVON PHARMACY #485","address1": "19500 HWY 99","address2": "","city": "LYNNWOOD","state": "WA","zip": "98036","zip+4": "0000","phone": "4256709723"}
{"name": "RITE AID PHARMACY # #05246","address1": "11700 MUKILTEO SPEEDWAY #500","address2": "HARBOUR POINTE SHOPPING CENTER","city": "MUKILTEO","state": "WA","zip": "98275","zip+4": "5435","phone": "4255140620"}
{"name": "RITE AID PHARMACY # #05228","address1": "655 NORTHWEST  RICHMOND BEACH","address2": "","city": "SHORELINE","state": "WA","zip": "98177","zip+4": "3121","phone": "2065429688"}
{"name": "WALGREEN DRUG STORE #5818","address1": "2105 E WELLESLEY","address2": "","city": "SPOKANE","state": "WA","zip": "99207","zip+4": "0000","phone": "5094840023"}
{"name": "WALGREEN DRUG STORE #1993","address1": "12312 E SPRAGUE AVE","address2": "","city": "SPOKANE VALLEY","state": "WA","zip": "99216","zip+4": "0000","phone": "5099220567"}
{"name": "WAL-MART PHARMACY #101947","address1": "902 ENGH ROAD","address2": "","city": "OMAK","state": "WA","zip": "98841","zip+4": "0000","phone": "5098266146"}
{"name": "PHARMACA INTEGRATIVE PHARMACY","address1": "4707 CALIFORNIA AVE SW","address2": "","city": "SEATTLE","state": "WA","zip": "98116","zip+4": "0000","phone": "2069324225"}
{"name": "YOKES PHARMACY #8","address1": "12825 W SUSET HWY","address2": "","city": "AIRWAY HEIGHTS","state": "WA","zip": "99001","zip+4": "9405","phone": "5092445822"}
{"name": "WALGREEN DRUG STORE #7034","address1": "12 E EMPIRE AVE","address2": "","city": "SPOKANE","state": "WA","zip": "99207","zip+4": "0000","phone": "5093264034"}
{"name": "SAFEWAY #1993","address1": "2201 E MADISON","address2": "","city": "SEATTLE","state": "WA","zip": "98112","zip+4": "0000","phone": "2064941520"}
{"name": "RITE AID PHARMACY # #05232","address1": "303 91ST AVENUE NORTHEAST","address2": "SUITE D401","city": "LAKE STEVENS","state": "WA","zip": "98205","zip+4": "1529","phone": "4253354513"}
{"name": "RITE AID PHARMACY # #05180","address1": "19107 BOTHELL WAY NORTHEAST","address2": "","city": "BOTHELL","state": "WA","zip": "98011","zip+4": "2938","phone": "4254891814"}
{"name": "SAFEWAY #0307","address1": "215 E ROSE ST","address2": "","city": "WALLA WALLA","state": "WA","zip": "99362","zip+4": "0000","phone": "5095220227"}
{"name": "WAL-MART PHARMACY #102007","address1": "1005 N STRATFORD ROAD","address2": "","city": "MOSES LAKE","state": "WA","zip": "98837","zip+4": "0000","phone": "0509766068"}
{"name": "COSTCO PHARMACY #103","address1": "301 FIFTH STREET","address2": "","city": "CLARKSTON","state": "WA","zip": "99403","zip+4": "0000","phone": "5097588897"}
{"name": "TOP #27","address1": "1605 SE EVERETT MALL WAY","address2": "","city": "EVERETT","state": "WA","zip": "98204","zip+4": "0000","phone": "4253489214"}
{"name": "SIDS PROFESSIONAL PHARMACY","address1": "N 1205 GRAND AVE","address2": "","city": "PULLMAN","state": "WA","zip": "99163","zip+4": "3426","phone": "5093327437"}
{"name": "WAL-MART PHARMACY #102016","address1": "810 NORTH HWY 395","address2": "","city": "COLVILLE","state": "WA","zip": "99114","zip+4": "0000","phone": "5096842973"}
{"name": "TOP #47","address1": "201 37TH AVE SE","address2": "","city": "PUYALLUP","state": "WA","zip": "98374","zip+4": "0000","phone": "2537707720"}
{"name": "QFC PHARMACY #705852","address1": "4919 EVERGREEN WAY","address2": "","city": "EVERETT","state": "WA","zip": "98203","zip+4": "0000","phone": "4252593444"}
{"name": "QFC PHARMACY #705851","address1": "22828 100TH AVE W","address2": "","city": "EDMONDS","state": "WA","zip": "98020","zip+4": "0000","phone": "4257762144"}
{"name": "RITE AID PHARMACY # #05299","address1": "700 SOUTH MAIN STREET","address2": "","city": "ELLENSBURG","state": "WA","zip": "98926","zip+4": "3641","phone": "5099254232"}
{"name": "PARKLAND MARKET PLACE PHARMACY","address1": "13322 PACIFIC AVE S","address2": "","city": "TACOMA","state": "WA","zip": "98444","zip+4": "4864","phone": "2535313711"}
{"name": "WALGREEN DRUG STORE #5913","address1": "7905 N DIVISION ST","address2": "","city": "SPOKANE","state": "WA","zip": "99208","zip+4": "0000","phone": "5094640778"}
{"name": "COVINGTON MULTICARE CLINIC PHA","address1": "17700 SE 272ND ST","address2": "STE 100","city": "COVINGTON","state": "WA","zip": "98042","zip+4": "4951","phone": "2533727220"}
{"name": "SAVON PHARMACY #249","address1": "1610 W LINCOLN","address2": "","city": "YAKIMA","state": "WA","zip": "98902","zip+4": "0000","phone": "5094526567"}
{"name": "FRED MEYER PHARMACY #701236","address1": "7411 NE 117TH AVE","address2": "","city": "VANCOUVER","state": "WA","zip": "98662","zip+4": "0000","phone": "3608963533"}
{"name": "BARTELL DRUGS #44","address1": "10625 NE 68TH","address2": "","city": "KIRKLAND","state": "WA","zip": "98033","zip+4": "7054","phone": "4258222241"}
{"name": "APRIA HEALTHCARE #015","address1": "14935 N E 87TH ST","address2": "","city": "REDMOND","state": "WA","zip": "98052","zip+4": "0000","phone": "4258833525"}
{"name": "SHOPKO PHARMACY #113","address1": "5500 MARTIN WAY E","address2": "","city": "LACEY","state": "WA","zip": "98516","zip+4": "6326","phone": "3604564057"}
{"name": "BARTELL DRUGS #43","address1": "14277 PACIFIC HIGHWAY SOUTH","address2": "","city": "TUKWILA","state": "WA","zip": "98168","zip+4": "4124","phone": "2064319652"}
{"name": "DUVALL FAMILY DRUGS","address1": "15602 MAIN ST NE","address2": "","city": "DUVALL","state": "WA","zip": "98019","zip+4": "0000","phone": "4257882644"}
{"name": "SAVON PHARMACY #248","address1": "1304 N LIBERTY LAKE RD","address2": "","city": "LIBERTY LAKE","state": "WA","zip": "99019","zip+4": "0000","phone": "5098916967"}
{"name": "FRED MEYER PHARMACY #701351","address1": "EAST 15609 SPRAGUE AVE","address2": "","city": "VERADALE","state": "WA","zip": "99037","zip+4": "0000","phone": "5099215383"}
{"name": "FRED MEYER PHARMACY #701024","address1": "920 S BURLINGTON BLVD","address2": "","city": "BURLINGTON","state": "WA","zip": "98233","zip+4": "0000","phone": "3607579133"}
{"name": "SAVON PHARMACY #473","address1": "12725 FIRST AVE S","address2": "","city": "BURIEN","state": "WA","zip": "98168","zip+4": "0000","phone": "2062427942"}
{"name": "SOUTHWEST WA MEDICAL CENTER OP","address1": "400 NE MOTHER JOSEPH PL","address2": "","city": "VANCOUVER","state": "WA","zip": "98664","zip+4": "3269","phone": "3602562294"}
{"name": "WALGREEN DRUG STORE #10946","address1": "2830 S GRAND AVE","address2": "","city": "SPOKANE","state": "WA","zip": "99203","zip+4": "2528","phone": "5094553736"}
{"name": "QFC PHARMACY #705860","address1": "8867 161ST AVE NE","address2": "","city": "REDMOND","state": "WA","zip": "98052","zip+4": "0000","phone": "4258697474"}
{"name": "RITE AID PHARMACY # #05218","address1": "2603 THIRD AVENUE","address2": "","city": "SEATTLE","state": "WA","zip": "98121","zip+4": "1280","phone": "2064418790"}
{"name": "EVERGREEN PROFESSIONAL CENTER","address1": "12303 NE 130TH LN","address2": "STE 210","city": "KIRKLAND","state": "WA","zip": "98034","zip+4": "3052","phone": "4258992790"}
{"name": "WAL-MART PHARMACY #102101","address1": "2720 SO QUILLAN ST","address2": "","city": "KENNEWICK","state": "WA","zip": "99337","zip+4": "0000","phone": "5095861574"}
{"name": "SHOPKO PHARMACY #122","address1": "1340 N WENATCHEE AVE","address2": "","city": "WENATCHEE","state": "WA","zip": "98801","zip+4": "1558","phone": "5096645111"}
{"name": "BARTELL DRUGS #10","address1": "1101 MADISON STREET","address2": "","city": "SEATTLE","state": "WA","zip": "98104","zip+4": "1306","phone": "2063401171"}
{"name": "SAVON PHARMACY #401","address1": "17520 STATE ROUTE 9 SE","address2": "","city": "SNOHOMISH","state": "WA","zip": "98296","zip+4": "0000","phone": "3606681407"}
{"name": "QFC PHARMACY #705841","address1": "990 B EAST WASHINGTON","address2": "","city": "SEQUIM","state": "WA","zip": "98382","zip+4": "0000","phone": "3606831156"}
{"name": "WAL-MART PHARMACY #102037","address1": "909 EAST WISHKAH HWY 12 101 E","address2": "","city": "ABERDEEN","state": "WA","zip": "98520","zip+4": "0000","phone": "3605327875"}
{"name": "COSTCO PHARMACY #106","address1": "1175 NORTH 205TH STREET","address2": "","city": "SEATTLE","state": "WA","zip": "98133","zip+4": "0000","phone": "2065420497"}
{"name": "SAVON PHARMACY #403","address1": "3925 236TH AVE NE","address2": "","city": "REDMOND","state": "WA","zip": "98053","zip+4": "0000","phone": "4258368706"}
{"name": "SAVON PHARMACY #482","address1": "16120 MERIDIAN E","address2": "","city": "PUYALLUP","state": "WA","zip": "98373","zip+4": "0000","phone": "2538459617"}
{"name": "SAVON PHARMACY #580","address1": "14300 NE 20TH AVE","address2": "","city": "VANCOUVER","state": "WA","zip": "98686","zip+4": "0000","phone": "3605764844"}
{"name": "COST LESS PRESCRIPTIONS","address1": "1109 REGENTS BLVD","address2": "","city": "FIRCREST","state": "WA","zip": "98466","zip+4": "6030","phone": "2535645200"}
{"name": "DENSOWS PHARMACY","address1": "1011 WRIGHT ST","address2": "","city": "RICHLAND","state": "WA","zip": "99354","zip+4": "3099","phone": "5099431164"}
{"name": "TOP #49","address1": "5600 MARTIN WAY","address2": "","city": "LACEY","state": "WA","zip": "98516","zip+4": "0000","phone": "3609232020"}
{"name": "CHUNG PHARMACY","address1": "9122 S TACOMA WAY","address2": "STE 104","city": "TACOMA","state": "WA","zip": "98499","zip+4": "0000","phone": "2535842484"}
{"name": "CEDAR VILLAGE PHARMACY","address1": "208 E WALNUT STREET","address2": "","city": "WINLOCK","state": "WA","zip": "98596","zip+4": "0000","phone": "3607854711"}
{"name": "YOKES PHARMACY #3","address1": "210 N FOOTHILLS DR","address2": "","city": "SPOKANE","state": "WA","zip": "99207","zip+4": "2155","phone": "5093256933"}
{"name": "FRED MEYER PHARMACY #701093","address1": "16600 SE MCGILLIVRAY BLVD","address2": "","city": "VANCOUVER","state": "WA","zip": "98683","zip+4": "0000","phone": "3602603333"}
{"name": "SAFEWAY #1142","address1": "12519 NE 85TH STREET","address2": "","city": "KIRKLAND","state": "WA","zip": "98033","zip+4": "0000","phone": "4258229235"}
{"name": "SAFEWAY #3545","address1": "900 E MERIDIAN","address2": "","city": "MILTON","state": "WA","zip": "98354","zip+4": "0000","phone": "2539520390"}
{"name": "SAFEWAY #1436","address1": "1624 72ND STREET EAST","address2": "","city": "TACOMA","state": "WA","zip": "98404","zip+4": "0000","phone": "2535372435"}
{"name": "SAFEWAY #1437","address1": "1302 SOUTH 38TH ST","address2": "","city": "TACOMA","state": "WA","zip": "98418","zip+4": "0000","phone": "2534715511"}
{"name": "RITE AID PHARMACY # #05212","address1": "1300 MADISON STREET","address2": "","city": "SEATTLE","state": "WA","zip": "98104","zip+4": "1315","phone": "2063229316"}
{"name": "SAVON PHARMACY #253","address1": "5204 W CLEARWATER","address2": "","city": "KENNEWICK","state": "WA","zip": "99336","zip+4": "0000","phone": "5097358311"}
{"name": "E WENATCHEE FOOD PAVILION #866","address1": "315 VALLEY MALL PKWY","address2": "","city": "EAST WENATCHEE","state": "WA","zip": "98802","zip+4": "0000","phone": "5098845625"}
{"name": "SAFEWAY #1493","address1": "4011 S 164TH","address2": "","city": "SEA TAC","state": "WA","zip": "98188","zip+4": "0000","phone": "2062480300"}
{"name": "FOOD PAVILION PHARMACY #861","address1": "911 N STRATFORD RD","address2": "","city": "MOSES LAKE","state": "WA","zip": "98837","zip+4": "0000","phone": "5097659591"}
{"name": "KMART PHARMACY #4147","address1": "4110 E SPRAGUE AVENUE","address2": "","city": "SPOKANE","state": "WA","zip": "99202","zip+4": "0000","phone": "5095347367"}
{"name": "COSTCO PHARMACY #110","address1": "1801 10TH AVE NORTHWEST","address2": "","city": "ISSAQUAH","state": "WA","zip": "98027","zip+4": "0000","phone": "4253139200"}
{"name": "WAL-MART PHARMACY #102241","address1": "2675 EAST LINCOLN AVENUE","address2": "","city": "SUNNYSIDE","state": "WA","zip": "98944","zip+4": "0000","phone": "5098397030"}
{"name": "FRED MEYER PHARMACY #701041","address1": "20904 HWY 410","address2": "","city": "BONNEY LAKE","state": "WA","zip": "98390","zip+4": "0000","phone": "2538917333"}
{"name": "QFC PHARMACY #705856","address1": "926 164TH SE","address2": "","city": "MILL CREEK","state": "WA","zip": "98012","zip+4": "0000","phone": "4257434806"}
{"name": "JACKSON PHCY UNITED DRUGS #1","address1": "1400 S JACKSON ST","address2": "STE 3","city": "SEATTLE","state": "WA","zip": "98144","zip+4": "0000","phone": "2063290570"}
{"name": "MERIDIAN COST CUTTER #67","address1": "4131 MERIDIAN","address2": "","city": "BELLINGHAM","state": "WA","zip": "98226","zip+4": "0000","phone": "3606717456"}
{"name": "RITE AID PHARMACY # #05286","address1": "909 EAST YELM AVENUE","address2": "","city": "YELM","state": "WA","zip": "98597","zip+4": "9425","phone": "3604589011"}
{"name": "RITE AID PHARMACY # #05242","address1": "8090 GUIDE MERIDIAN RD","address2": "","city": "LYNDEN","state": "WA","zip": "98264","zip+4": "9210","phone": "3603544284"}
{"name": "WAL-MART PHARMACY #102187","address1": "2000 NORTH WENATCHEE AVE","address2": "","city": "WENATCHEE","state": "WA","zip": "98801","zip+4": "0000","phone": "5096643698"}
{"name": "WAL-MART PHARMACY #102121","address1": "100 E WALLACE KNEELAND BVLD","address2": "","city": "SHELTON","state": "WA","zip": "98584","zip+4": "0000","phone": "0360427071"}
{"name": "SAFEWAY #0488","address1": "3020 NE 45TH ST","address2": "","city": "SEATTLE","state": "WA","zip": "98105","zip+4": "0000","phone": "2065249931"}
{"name": "RITE AID PHARMACY # #05249","address1": "205 PINE STREET","address2": "","city": "SNOHOMISH","state": "WA","zip": "98290","zip+4": "9002","phone": "3605630223"}
{"name": "SAFEWAY #1143","address1": "8340 15TH NW","address2": "","city": "SEATTLE","state": "WA","zip": "98117","zip+4": "0000","phone": "2067827480"}
{"name": "SAVON PHARMACY #252","address1": "690 W GAGE BLVD","address2": "","city": "RICHLAND","state": "WA","zip": "99352","zip+4": "0000","phone": "5096275133"}
{"name": "WAL-MART PHARMACY #102269","address1": "1600 EAST CHESTNUT AVENUE","address2": "","city": "YAKIMA","state": "WA","zip": "98901","zip+4": "0000","phone": "5092483855"}
{"name": "SAFEWAY #1467","address1": "900 CALLOW AVENUE","address2": "","city": "BREMERTON","state": "WA","zip": "98312","zip+4": "0000","phone": "3607929262"}
{"name": "SAFEWAY #1160","address1": "1600 PLAZA WAY","address2": "","city": "WALLA WALLA","state": "WA","zip": "99362","zip+4": "0000","phone": "5095224672"}
{"name": "SAFEWAY #1593","address1": "610 E WINE COUNTRY RD","address2": "","city": "GRANDVIEW","state": "WA","zip": "98930","zip+4": "0000","phone": "5098821060"}
{"name": "GIBBONS PHARMACY","address1": "117 S TOPPENISH AVE","address2": "","city": "TOPPENISH","state": "WA","zip": "98948","zip+4": "0000","phone": "5098652722"}
{"name": "TRADING COMPANY PHARMACY","address1": "13014 E SPRAGUE AVE","address2": "","city": "SPOKANE VALLEY","state": "WA","zip": "99216","zip+4": "0000","phone": "5099262200"}
{"name": "TOP #51","address1": "26015 104TH AVE SE","address2": "","city": "KENT","state": "WA","zip": "98031","zip+4": "0000","phone": "2538506480"}
{"name": "SAFEWAY #1544","address1": "1150 BASIN STREET SW","address2": "","city": "EPHRATA","state": "WA","zip": "98823","zip+4": "0000","phone": "5097543567"}
{"name": "SHOPKO PHARMACY #129","address1": "4515 S REGAL ST","address2": "","city": "SPOKANE","state": "WA","zip": "99223","zip+4": "7938","phone": "5094489585"}
{"name": "HAGGEN #55","address1": "26603 72ND AVE NW","address2": "","city": "STANWOOD","state": "WA","zip": "98292","zip+4": "0000","phone": "3606295520"}
{"name": "BARTELL DRUGS #19","address1": "3902 A STREET SE","address2": "","city": "AUBURN","state": "WA","zip": "98002","zip+4": "8610","phone": "2539398563"}
{"name": "KIRKS PHARMACY","address1": "104 MASHELL AVE","address2": "","city": "EATONVILLE","state": "WA","zip": "98328","zip+4": "0099","phone": "3608323121"}
{"name": "FRED MEYER PHARMACY #701210","address1": "18805 STATE ROUTE 2","address2": "","city": "MONROE","state": "WA","zip": "98272","zip+4": "0000","phone": "3608058133"}
{"name": "BIMART PHARMACY #648","address1": "11912 NE FOURTH PLAIN BLVD","address2": "","city": "ORCHARDS","state": "WA","zip": "98682","zip+4": "5593","phone": "3609448368"}
{"name": "COSTCO PHARMACY #639","address1": "955 W WASHINGTON ST","address2": "","city": "SEQUIM","state": "WA","zip": "98382","zip+4": "0000","phone": "3604062032"}
{"name": "SUMMIT TRADING COMPANY PHCY","address1": "10409 CANYON RD E","address2": "","city": "PUYALLUP","state": "WA","zip": "98373","zip+4": "0000","phone": "2538402098"}
{"name": "WAL-MART PHARMACY #102249","address1": "1601 NW LOUISIANA AVE","address2": "","city": "CHEHALIS","state": "WA","zip": "98532","zip+4": "0000","phone": "3607480858"}
{"name": "YAKIMA VALLEY FARM WORKERS YAK","address1": "602 E NOB HILL BLVD","address2": "","city": "YAKIMA","state": "WA","zip": "98901","zip+4": "0000","phone": "5094528325"}
{"name": "COSTCO PHARMACY #112","address1": "375 HIGHLINE DRIVE SOUTH","address2": "","city": "WENATCHEE","state": "WA","zip": "98802","zip+4": "0000","phone": "5098860754"}
{"name": "HAGGEN #53","address1": "2900 WOBURN","address2": "","city": "BELLINGHAM","state": "WA","zip": "98226","zip+4": "0000","phone": "3607155321"}
{"name": "SAFEWAY #1495","address1": "1129 HARRISON AVENUE","address2": "","city": "CENTRALIA","state": "WA","zip": "98531","zip+4": "0000","phone": "3603305229"}
{"name": "SAFEWAY #1473","address1": "14020 E SPRAGUE","address2": "","city": "SPOKANE","state": "WA","zip": "99216","zip+4": "0000","phone": "5098916319"}
{"name": "CAREPLUS CVS PHARMACY #02926","address1": "1001 MADISON ST","address2": "","city": "SEATTLE","state": "WA","zip": "98104","zip+4": "0000","phone": "4254021492"}
{"name": "CORAM SPECIALTY INFUSION SERVI","address1": "14935 NE 97TH STREER","address2": "SUITE 101","city": "REDMOND","state": "WA","zip": "98052","zip+4": "3474","phone": "8007271415"}
{"name": "WALGREEN DRUG STORE #3519","address1": "4315 6TH AVENUE","address2": "","city": "TACOMA","state": "WA","zip": "98406","zip+4": "0000","phone": "2537565149"}
{"name": "FRANCISCAN PHARMACY ST. CLARE","address1": "11315 BRIDGEPORT WAY SW SUITE","address2": "","city": "LAKEWOOD","state": "WA","zip": "98499","zip+4": "0000","phone": "2539856290"}
{"name": "WAL-MART PHARMACY #102403","address1": "310 31ST AVENUE SE","address2": "","city": "PUYALLUP","state": "WA","zip": "98374","zip+4": "0000","phone": "2537709889"}
{"name": "WALGREEN DRUG STORE #3514","address1": "9505 BRIDGEPORT WAY SW","address2": "","city": "TACOMA","state": "WA","zip": "98499","zip+4": "0000","phone": "2535821641"}
{"name": "FRED MEYER PHARMACY #701459","address1": "365 RENTON CENTER WAY SW","address2": "","city": "RENTON","state": "WA","zip": "98055","zip+4": "0000","phone": "4252045233"}
{"name": "SAFEWAY #1464","address1": "3215 HARRISON AVE NW","address2": "","city": "OLYMPIA","state": "WA","zip": "98502","zip+4": "0000","phone": "3609563827"}
{"name": "WAL-MART PHARMACY #102385","address1": "1425 SUPERMALL WAY","address2": "","city": "AUBURN","state": "WA","zip": "98001","zip+4": "0000","phone": "2537350708"}
{"name": "YOKES PHARMACY #7","address1": "810 S MAIN ST","address2": "","city": "DEER PARK","state": "WA","zip": "99006","zip+4": "8234","phone": "5092762939"}
{"name": "WALGREEN DRUG STORE #3518","address1": "25605 104TH AVE SE","address2": "","city": "KENT","state": "WA","zip": "98031","zip+4": "0000","phone": "2538136809"}
{"name": "FRED MEYER PHARMACY #701163","address1": "2811 W 10TH AVE","address2": "","city": "KENNEWICK","state": "WA","zip": "99336","zip+4": "3104","phone": "5097358733"}
{"name": "SAVON PHARMACY #404","address1": "114 E LAURIDSEN BLVD","address2": "","city": "PORT ANGELES","state": "WA","zip": "98362","zip+4": "0000","phone": "3604524410"}
{"name": "SAVON PHARMACY #407","address1": "705 TROSPER RD SW","address2": "","city": "TUMWATER","state": "WA","zip": "98512","zip+4": "0000","phone": "3607053679"}
{"name": "SAFEWAY #1514","address1": "13314 BOTHELL EVERETT HWY","address2": "","city": "MILL CREEK","state": "WA","zip": "98012","zip+4": "0000","phone": "4253374805"}
{"name": "WAL-MART PHARMACY #102196","address1": "3500 HWY 101","address2": "","city": "PORT ANGELES","state": "WA","zip": "98362","zip+4": "0000","phone": "3604523105"}
{"name": "WALGREEN DRUG STORE #3733","address1": "7707 SE 27TH ST","address2": "","city": "MERCER ISLAND","state": "WA","zip": "98040","zip+4": "0000","phone": "2062321864"}
{"name": "WALGREEN DRUG STORE #5817","address1": "1708 W NORTHWEST BLVD","address2": "","city": "SPOKANE","state": "WA","zip": "99205","zip+4": "0000","phone": "5093242364"}
{"name": "SAFEWAY #0541","address1": "4831 PT FOSDICK DR NW","address2": "","city": "GIG HARBOR","state": "WA","zip": "98335","zip+4": "0000","phone": "2538516870"}
{"name": "SAFEWAY #3248","address1": "902 WEST FRANCIS AVENUE","address2": "","city": "SPOKANE","state": "WA","zip": "99205","zip+4": "0000","phone": "5093276114"}
{"name": "WAL-MART PHARMACY #102325","address1": "3497 BETHEL ROAD SE","address2": "","city": "PORT ORCHARD","state": "WA","zip": "98366","zip+4": "0000","phone": "3608749063"}
{"name": "APRIA HEALTHCARE #051","address1": "520 E NORTH FOOTHILLS DRIVE","address2": "SUITE 400","city": "SPOKANE","state": "WA","zip": "99207","zip+4": "0000","phone": "8007351153"}
{"name": "HI SCHOOL PHARMACY #600","address1": "6926 NE FOURTH PLAIN RD","address2": "STE B","city": "VANCOUVER","state": "WA","zip": "98661","zip+4": "0000","phone": "3606938374"}
{"name": "SAFEWAY #1519","address1": "13719 SE MILL PLAIN BLVD","address2": "","city": "VANCOUVER","state": "WA","zip": "98684","zip+4": "0000","phone": "3608914254"}
{"name": "WAL-MART PHARMACY #102469","address1": "3715 OCEAN BEACH HWY","address2": "","city": "LONGVIEW","state": "WA","zip": "98632","zip+4": "0000","phone": "3604149602"}
{"name": "MULTICARE CLINIC PHARMACY","address1": "521 MARTIN LUTHER KING JR WAY","address2": "","city": "TACOMA","state": "WA","zip": "98405","zip+4": "0000","phone": "2534034920"}
{"name": "QFC PHARMACY #705866","address1": "11100 ROOSEVELT WAY NE","address2": "","city": "SEATTLE","state": "WA","zip": "98125","zip+4": "0000","phone": "2063610188"}
{"name": "YOKES PHARMACY #9","address1": "3321 W INDIAN TRAIL RD","address2": "","city": "SPOKANE","state": "WA","zip": "99208","zip+4": "4762","phone": "5093258720"}
{"name": "KIRKS CLINICAL PHARMACY","address1": "6790 MARTIN WAY E","address2": "SUITE 103","city": "OLYMPIA","state": "WA","zip": "98516","zip+4": "0000","phone": "3604938614"}
{"name": "BRIDGEPORT PROFESSIONAL PHARMA","address1": "3021 GRIFFIN AVE","address2": "","city": "ENUMCLAW","state": "WA","zip": "98022","zip+4": "0000","phone": "3608022442"}
{"name": "WALGREEN DRUG STORE #3662","address1": "647 140TH AVENUE NE","address2": "","city": "BELLEVUE","state": "WA","zip": "98005","zip+4": "0000","phone": "4256031547"}
{"name": "MEDICAP PHARMACY #8159","address1": "1415 COMMERCIAL AVE STE B","address2": "","city": "ANACORTES","state": "WA","zip": "98221","zip+4": "0000","phone": "3602992374"}
{"name": "SAVON PHARMACY #412","address1": "11401 STATE AVE","address2": "","city": "MARYSVILLE","state": "WA","zip": "98270","zip+4": "0000","phone": "3606517229"}
{"name": "SAVON PHARMACY #504","address1": "5000 E FOURTH PLAIN BLVD","address2": "","city": "VANCOUVER","state": "WA","zip": "98661","zip+4": "0000","phone": "3606935030"}
{"name": "WALGREEN DRUG STORE #3632","address1": "2400 S JACKSON STREET","address2": "","city": "SEATTLE","state": "WA","zip": "98144","zip+4": "0000","phone": "2063296824"}
{"name": "BIMART PHARMACY #650","address1": "2601 FALK RD","address2": "","city": "VANCOUVER","state": "WA","zip": "98661","zip+4": "5721","phone": "3606957578"}
{"name": "SUNSET COST CUTTER PHARMACY #4","address1": "1275 E SUNSET DR","address2": "","city": "BELLINGHAM","state": "WA","zip": "98226","zip+4": "0000","phone": "3606501537"}
{"name": "WAL-MART PHARMACY #102317","address1": "6797 STATE HWY 303 N.E.","address2": "","city": "BREMERTON","state": "WA","zip": "98311","zip+4": "0000","phone": "3606983446"}
{"name": "SHOPKO PHARMACY #134","address1": "1450 S GRAND AVE","address2": "","city": "PULLMAN","state": "WA","zip": "99163","zip+4": "4900","phone": "5093320503"}
{"name": "SAFEWAY #3247","address1": "101 GRAND COULEE HWY","address2": "","city": "GRAND COULEE","state": "WA","zip": "99133","zip+4": "0000","phone": "5096330463"}
{"name": "WAL-MART PHARMACY #102450","address1": "4420 MERIDIAN ST","address2": "","city": "BELLINGHAM","state": "WA","zip": "98226","zip+4": "0000","phone": "3606471611"}
{"name": "QFC PHARMACY #705807","address1": "2746 NE 45TH","address2": "","city": "SEATTLE","state": "WA","zip": "98105","zip+4": "0000","phone": "2067293080"}
{"name": "COSTCO PHARMACY #114","address1": "10200 19TH AVE SE","address2": "","city": "EVERETT","state": "WA","zip": "98208","zip+4": "0000","phone": "4253797487"}
{"name": "SAFEWAY #1524","address1": "1401 NE MCWILLIAMS ROAD","address2": "","city": "BREMERTON","state": "WA","zip": "98311","zip+4": "0000","phone": "3603737226"}
{"name": "SAFEWAY #0335","address1": "W 2825 KENNEWICK AVE","address2": "","city": "KENNEWICK","state": "WA","zip": "99336","zip+4": "0000","phone": "5097832622"}
{"name": "SAFEWAY #0329","address1": "1112 S M ST","address2": "","city": "TACOMA","state": "WA","zip": "98405","zip+4": "0000","phone": "2535727753"}
{"name": "WAL-MART PHARMACY #102516","address1": "743 RAINIER AVE SOUTH","address2": "","city": "RENTON","state": "WA","zip": "98057","zip+4": "0000","phone": "4252279307"}
{"name": "NORTHWEST HEALTH SYSTEMS INC","address1": "1011 E 2ND AVE","address2": "STE 6","city": "SPOKANE","state": "WA","zip": "99202","zip+4": "0000","phone": "5097423492"}
{"name": "MERCURY PHARMACY SVCS INC","address1": "21718 66TH AVE W","address2": "STE 202","city": "MOUNTLAKE TERRACE","state": "WA","zip": "98043","zip+4": "0000","phone": "4256735200"}
{"name": "SAFEWAY #1528","address1": "460 SW MOUNT SI BLVD","address2": "","city": "NORTH BEND","state": "WA","zip": "98045","zip+4": "0000","phone": "4258312126"}
{"name": "KING PLAZA PHCY","address1": "7101 ML KING WY S","address2": "STE 101B","city": "SEATTLE","state": "WA","zip": "98118","zip+4": "0000","phone": "2067215009"}
{"name": "SAVON PHARMACY #415","address1": "3520 PACIFIC AVE SE","address2": "","city": "OLYMPIA","state": "WA","zip": "98501","zip+4": "0000","phone": "3604910330"}
{"name": "ST JOHN PHARMACY","address1": "18 E FRONT ST","address2": "","city": "ST JOHN","state": "WA","zip": "99171","zip+4": "0277","phone": "5096483430"}
{"name": "WALGREEN DRUG STORE #3581","address1": "8405 PACIFIC AVENUE","address2": "","city": "TACOMA","state": "WA","zip": "98444","zip+4": "0000","phone": "2535363514"}
{"name": "FRED MEYER PHARMACY #701424","address1": "17404 MERIDIAN EAST","address2": "","city": "PUYALLUP","state": "WA","zip": "98373","zip+4": "0000","phone": "2534457873"}
{"name": "FRED MEYER PHARMACY #701053","address1": "16735 SE 272ND STREET","address2": "","city": "KENT","state": "WA","zip": "98402","zip+4": "0000","phone": "2536397433"}
{"name": "WALGREEN DRUG STORE #3604","address1": "5409 15TH AVENUE NW","address2": "","city": "SEATTLE","state": "WA","zip": "98107","zip+4": "0000","phone": "2067810054"}
{"name": "WELL LIFE LATAH PHARMACY","address1": "4235 S CHENEY SPOKANE RD","address2": "","city": "SPOKANE","state": "WA","zip": "99224","zip+4": "0000","phone": "5098380896"}
{"name": "RITE AID PHARMACY # #05281","address1": "4776 WHITMAN LANE SOUTHEAST","address2": "","city": "LACEY","state": "WA","zip": "98513","zip+4": "2246","phone": "3604125962"}
{"name": "SAVON PHARMACY #413","address1": "3322 132ND ST SE","address2": "","city": "BOTHELL","state": "WA","zip": "98012","zip+4": "0000","phone": "4253381891"}
{"name": "SAFEWAY #3525","address1": "1100 S MARKET BLVD","address2": "","city": "CHEHALIS","state": "WA","zip": "98532","zip+4": "0000","phone": "3607406750"}
{"name": "WALGREEN DRUG STORE #3515","address1": "8701 GREENWOOD AVE N","address2": "","city": "SEATTLE","state": "WA","zip": "98103","zip+4": "0000","phone": "2067062512"}
{"name": "WAL-MART PHARMACY #102539","address1": "15727 EAST BROADWAY","address2": "","city": "SPOKANE VALLEY","state": "WA","zip": "99037","zip+4": "0000","phone": "5099229047"}
{"name": "BARTELL DRUGS #23","address1": "1407 BROADWAY","address2": "","city": "SEATTLE","state": "WA","zip": "98122","zip+4": "3854","phone": "2067263495"}
{"name": "SAFEWAY #1503","address1": "520 CLEVELAND AVENUE","address2": "","city": "TUMWATER","state": "WA","zip": "98501","zip+4": "0000","phone": "3609437600"}
{"name": "WALGREEN DRUG STORE #4064","address1": "8224 STEILACOOM BLVD SW","address2": "","city": "LAKEWOOD","state": "WA","zip": "98498","zip+4": "0000","phone": "2535810196"}
{"name": "TOP #65","address1": "1702 AUBURN WAY N","address2": "","city": "AUBURN","state": "WA","zip": "98009","zip+4": "0000","phone": "2538049616"}
{"name": "WALGREEN DRUG STORE #3723","address1": "7451 CIRQUE DR W","address2": "","city": "UNIVERSITY PLACE","state": "WA","zip": "98466","zip+4": "0000","phone": "2535647326"}
{"name": "WALGREEN DRUG STORE #4156","address1": "12405 NE 85TH STREET","address2": "","city": "KIRKLAND","state": "WA","zip": "98033","zip+4": "0000","phone": "4258229002"}
{"name": "WALGREEN DRUG STORE #3582","address1": "14352 LAKE CITY WAY NE","address2": "","city": "SEATTLE","state": "WA","zip": "98125","zip+4": "0000","phone": "2063619435"}
{"name": "WALGREEN DRUG STORE #3765","address1": "20725 HIGHWAY 99","address2": "","city": "LYNNWOOD","state": "WA","zip": "98036","zip+4": "0000","phone": "4257121220"}
{"name": "SAFEWAY #1555","address1": "1207 SOUTH 320TH STREET","address2": "","city": "FEDERAL WAY","state": "WA","zip": "98003","zip+4": "0000","phone": "2539461505"}
{"name": "TULALIP PHARMACY","address1": "8825 34TH AVE NE","address2": "SUITE A","city": "TULALIP","state": "WA","zip": "98271","zip+4": "0000","phone": "3607162660"}
{"name": "NGUYENS PHARMACY #1","address1": "1221 S MAIN ST","address2": "STE 103","city": "SEATTLE","state": "WA","zip": "98144","zip+4": "0000","phone": "2063236003"}
{"name": "RITE AID PHARMACY # #05204","address1": "201 BROADWAY EAST","address2": "","city": "MILL CREEK","state": "WA","zip": "98012","zip+4": "5624","phone": "4253797105"}
{"name": "RITE AID PHARMACY # #06194","address1": "22311 MOUNTAIN HWY EAST","address2": "","city": "SPANAWAY","state": "WA","zip": "98387","zip+4": "7501","phone": "2538460542"}
{"name": "HAGGEN #63","address1": "1815 MAIN STREET","address2": "","city": "FERNDALE","state": "WA","zip": "98248","zip+4": "0000","phone": "3603807210"}
{"name": "SAFEWAY #1522","address1": "20500 OLYMPIC PLACE","address2": "","city": "ARLINGTON","state": "WA","zip": "98223","zip+4": "0000","phone": "3604033378"}
{"name": "SAFEWAY #1594","address1": "707 S 56TH STREET","address2": "","city": "TACOMA","state": "WA","zip": "98408","zip+4": "0000","phone": "2534711730"}
{"name": "WAL-MART PHARMACY #102596","address1": "2021 MARKET STREET","address2": "","city": "MOUNT VERNON","state": "WA","zip": "98273","zip+4": "0000","phone": "3604283911"}
{"name": "FAMILY MEDICAL CENTER WALLA WA","address1": "1120 W ROSE ST","address2": "","city": "WALLA WALLA","state": "WA","zip": "99362","zip+4": "0000","phone": "5095266967"}
{"name": "CARE FOR LIFE","address1": "3305 MAIN ST","address2": "STE 205","city": "VANCOUVER","state": "WA","zip": "98663","zip+4": "0000","phone": "3604186042"}
{"name": "WALGREEN DRUG STORE #3840","address1": "14656 AMBAUM BLVD SW","address2": "","city": "BURIEN","state": "WA","zip": "98166","zip+4": "0000","phone": "2069011816"}
{"name": "SAVON PHARMACY #486","address1": "8196 STATE ROUTE 104","address2": "","city": "KINGSTON","state": "WA","zip": "98346","zip+4": "0000","phone": "3602971811"}
{"name": "FRED MEYER PHARMACY #701214","address1": "12120 NORTH DIVISION","address2": "","city": "SPOKANE","state": "WA","zip": "99208","zip+4": "0000","phone": "5094654433"}
{"name": "SUPER 1 PHARMACY #35","address1": "1250 N HWY 395","address2": "","city": "COLVILLE","state": "WA","zip": "99114","zip+4": "2005","phone": "5096843151"}
{"name": "RITE AID PHARMACY # #05291","address1": "13511 SOUTHEAST THIRD WAY","address2": "","city": "VANCOUVER","state": "WA","zip": "98685","zip+4": "2817","phone": "3608850839"}
{"name": "SAFEWAY #0494","address1": "152 ROOSEVELT AVE E","address2": "","city": "ENUMCLAW","state": "WA","zip": "98022","zip+4": "0000","phone": "3608021534"}
{"name": "SAVON PHARMACY #414","address1": "4301 212TH ST SW","address2": "","city": "MOUNTLAKE TERRACE","state": "WA","zip": "98043","zip+4": "0000","phone": "4257755011"}
{"name": "QFC PHARMACY #705840","address1": "4560 KLAHANIE DR SE","address2": "","city": "ISSAQUAH","state": "WA","zip": "98027","zip+4": "0000","phone": "4253928551"}
{"name": "SAFEWAY #1550","address1": "7300 ROOSEVELT WAY NE","address2": "","city": "SEATTLE","state": "WA","zip": "98115","zip+4": "0000","phone": "2065241649"}
{"name": "FRED MEYER PHARMACY #701605","address1": "6901 SOUTH 19TH STREET","address2": "","city": "TACOMA","state": "WA","zip": "98466","zip+4": "0000","phone": "2535343033"}
{"name": "FRED MEYER PHARMACY #701603","address1": "301 E WALLACE KNEELAND BLVD","address2": "","city": "SHELTON","state": "WA","zip": "98584","zip+4": "0000","phone": "3604325373"}
{"name": "SAFEWAY #1551","address1": "1410 E JOHN ST","address2": "","city": "SEATTLE","state": "WA","zip": "98112","zip+4": "0000","phone": "2063234935"}
{"name": "BIOSCRIP PHARMACY #4025","address1": "1001 BROADWAY","address2": "STE 102","city": "SEATTLE","state": "WA","zip": "98122","zip+4": "0000","phone": "2063242335"}
{"name": "WALGREEN DRUG STORE #07846","address1": "2702 N ARGONNE RD","address2": "","city": "MILLWOOD","state": "WA","zip": "99206","zip+4": "0000","phone": "5098921637"}
{"name": "MEDICINE MART 4TH AVE","address1": "306 E YAKIMA AVE","address2": "","city": "YAKIMA","state": "WA","zip": "98901","zip+4": "0000","phone": "5094572412"}
{"name": "WAL-MART PHARMACY #102550","address1": "221 NE 104TH AVE","address2": "","city": "VANCOUVER","state": "WA","zip": "98664","zip+4": "0000","phone": "0360885026"}
{"name": "QFC PHARMACY #705126","address1": "4775 WHITMAN LANE SE","address2": "","city": "LACEY","state": "WA","zip": "98509","zip+4": "0000","phone": "3604386314"}
{"name": "FRANKLIN PARK URGENT CARE CENT","address1": "5904 N DIVISION","address2": "","city": "SPOKANE","state": "WA","zip": "99207","zip+4": "0000","phone": "5094891150"}
{"name": "TOP #67","address1": "17641 GARDEN WAY NE","address2": "","city": "WOODINVILLE","state": "WA","zip": "98072","zip+4": "0000","phone": "4253986710"}
{"name": "BARTELL DRUGS #45","address1": "4700 NE 4TH STREET","address2": "","city": "RENTON","state": "WA","zip": "98059","zip+4": "4800","phone": "4257931015"}
{"name": "WSU HEALTH AND WELLNESS SERVIC","address1": "1125 SE WASHINGTON ST","address2": "","city": "PULLMAN","state": "WA","zip": "99164","zip+4": "2302","phone": "5093355742"}
{"name": "FRED MEYER PHARMACY #701460","address1": "800 NE TENNEY ROAD","address2": "","city": "VANCOUVER","state": "WA","zip": "98685","zip+4": "0000","phone": "3605712573"}
{"name": "SAFEWAY #1484","address1": "4128 RUCKER AVE","address2": "","city": "EVERETT","state": "WA","zip": "98201","zip+4": "0000","phone": "4252521911"}
{"name": "SAFEWAY #1611","address1": "6711 NE 63RD STREET","address2": "","city": "VANCOUVER","state": "WA","zip": "98661","zip+4": "0000","phone": "3609925686"}
{"name": "BARTELL DRUGS #6","address1": "8862 161ST AVENUE NE","address2": "SUITE 102","city": "REDMOND","state": "WA","zip": "98052","zip+4": "7553","phone": "4258839532"}
{"name": "FRED MEYER PHARMACY #701458","address1": "12906 BOTHELLEVERETT HIGHWAY","address2": "","city": "EVERETT","state": "WA","zip": "98208","zip+4": "0000","phone": "4253572033"}
{"name": "RITE AID PHARMACY # #06347","address1": "250 BASIN STREET SOUTHWEST","address2": "","city": "EPHRATA","state": "WA","zip": "98823","zip+4": "1825","phone": "5097543513"}
{"name": "WAL-MART PHARMACY #102319","address1": "1250 SW ERIE STREET","address2": "","city": "OAK HARBOR","state": "WA","zip": "98277","zip+4": "0000","phone": "3602790671"}
{"name": "WALGREEN DRUG STORE #4760","address1": "12105 PACIFIC AVE S","address2": "","city": "TACOMA","state": "WA","zip": "98444","zip+4": "0000","phone": "2535350335"}
{"name": "PHARMACY PLUS INC","address1": "1299 156TH AVENUE NE","address2": "STE 140","city": "BELLEVUE","state": "WA","zip": "98007","zip+4": "0000","phone": "4256448887"}
{"name": "WALGREEN DRUG STORE #4759","address1": "17518 15TH AVE","address2": "","city": "SHORELINE","state": "WA","zip": "98155","zip+4": "0000","phone": "2063610080"}
{"name": "RITE AID PHARMACY # #06325","address1": "18022 68TH AVENUENORTHEAST","address2": "","city": "KENMORE","state": "WA","zip": "98028","zip+4": "2702","phone": "4254242320"}
{"name": "WALGREEN DRUG STORE #4898","address1": "6330 35TH AVE SW","address2": "","city": "SEATTLE","state": "WA","zip": "98126","zip+4": "0000","phone": "2069382443"}
{"name": "WAL-MART PHARMACY #102571","address1": "1900 SOUTH 314TH STREET","address2": "","city": "FEDERAL WAY","state": "WA","zip": "98003","zip+4": "0000","phone": "2539413555"}
{"name": "WALGREEN DRUG STORE #4157","address1": "859 NE NORTHGATE WAY","address2": "","city": "SEATTLE","state": "WA","zip": "98125","zip+4": "0000","phone": "2064170404"}
{"name": "THE FALLS PHARMACY","address1": "8112 RAILROAD AVE SE","address2": "","city": "SNOQUALMIE","state": "WA","zip": "98065","zip+4": "0000","phone": "4258886858"}
{"name": "SAVON PHARMACY #402","address1": "1450 SW ERIE ST","address2": "","city": "OAK HARBOR","state": "WA","zip": "98277","zip+4": "0000","phone": "3602798829"}
{"name": "RITE AID PHARMACY # #06232","address1": "12811 MERIDIAN ST EAST","address2": "","city": "PUYALLUP","state": "WA","zip": "98373","zip+4": "5646","phone": "2537704700"}
{"name": "SAVON PHARMACY #492","address1": "2222 NW BUCKLIN HILL RD","address2": "","city": "SILVERDALE","state": "WA","zip": "98383","zip+4": "0000","phone": "3606928596"}
{"name": "TARGET PHARMACY #0338","address1": "18305 ALDERWOOD MALL PKWY","address2": "","city": "LYNNWOOD","state": "WA","zip": "98037","zip+4": "0000","phone": "4256731395"}
{"name": "HAGGEN #73","address1": "4545 CORDATA PARKWAY","address2": "","city": "BELLINGHAM","state": "WA","zip": "98226","zip+4": "0000","phone": "3606767373"}
{"name": "SAFEWAY #1619","address1": "1109 YELM AVENUE EAST","address2": "","city": "YELM","state": "WA","zip": "98597","zip+4": "0000","phone": "3604588835"}
{"name": "SAMS PHARMACY #106688","address1": "1101 SUPERMALL WAY SW 1275","address2": "","city": "AUBURN","state": "WA","zip": "98002","zip+4": "0000","phone": "2533338191"}
{"name": "RITE AID PHARMACY # #06234","address1": "20330 BALLINGER WAY NORTHEAST","address2": "","city": "SHORELINE","state": "WA","zip": "98155","zip+4": "1146","phone": "2063680034"}
{"name": "KUSLERS PHARMACY","address1": "700 AVENUE D","address2": "","city": "SNONOMISH","state": "WA","zip": "98290","zip+4": "0000","phone": "3605687787"}
{"name": "SAFEWAY #1563","address1": "200 SOUTH 3RD STREET","address2": "","city": "RENTON","state": "WA","zip": "98055","zip+4": "0000","phone": "4252260325"}
{"name": "ALLENMORE MULTICARE PHARMACY","address1": "1901 S UNION","address2": "","city": "TACOMA","state": "WA","zip": "98411","zip+4": "0000","phone": "2534596733"}
{"name": "SAFEWAY #1630","address1": "400 NORTH RUBY STREET","address2": "","city": "ELLENSBURG","state": "WA","zip": "98926","zip+4": "0000","phone": "5099625096"}
{"name": "WAL-MART PHARMACY #102594","address1": "1400 164TH ST SW","address2": "","city": "LYNNWOOD","state": "WA","zip": "98037","zip+4": "0000","phone": "4257413646"}
{"name": "SAVON PHARMACY #592","address1": "2108 W MAIN ST","address2": "","city": "BATTLE GROUND","state": "WA","zip": "98604","zip+4": "0000","phone": "3606874092"}
{"name": "WALGREEN DRUG STORE #4627","address1": "275 RAINIER AVE S","address2": "","city": "RENTON","state": "WA","zip": "98055","zip+4": "0000","phone": "4252770234"}
{"name": "KMART PHARMACY #3443","address1": "13200 AURORA AVENUE N","address2": "","city": "SEATTLE","state": "WA","zip": "98133","zip+4": "0000","phone": "2064180147"}
{"name": "BARTELL DRUGS #51","address1": "6602 64TH STREET","address2": "","city": "MARYSVILLE","state": "WA","zip": "98270","zip+4": "4834","phone": "3606585218"}
{"name": "QFC PHARMACY #705863","address1": "1009 MONROE STREET","address2": "","city": "ENUMCLAW","state": "WA","zip": "98022","zip+4": "0000","phone": "3608259360"}
{"name": "FRED MEYER PHARMACY #701608","address1": "915 NW 45TH ST","address2": "","city": "SEATTLE","state": "WA","zip": "98107","zip+4": "0000","phone": "2062974333"}
{"name": "TEKOA PHARMACY","address1": "124 N CROSBY","address2": "","city": "TEKOA","state": "WA","zip": "99033","zip+4": "0000","phone": "5092844205"}
{"name": "SAFEWAY #1571","address1": "23961 NE STATE ROUTE 3","address2": "","city": "BELFAIR","state": "WA","zip": "98528","zip+4": "0000","phone": "3602750953"}
{"name": "WALGREEN DRUG STORE #4730","address1": "13110 BOTHELL EVERETT HWY","address2": "","city": "EVERETT","state": "WA","zip": "98208","zip+4": "0000","phone": "4253797721"}
{"name": "FRED MEYER PHARMACY #701654","address1": "11 GRANT ROAD","address2": "","city": "WENATCHEE","state": "WA","zip": "98802","zip+4": "0000","phone": "5098812833"}
{"name": "HAGGEN #71","address1": "8915 MARKET PLACE 100","address2": "","city": "EVERETT","state": "WA","zip": "98205","zip+4": "0000","phone": "4253777110"}
{"name": "SAFEWAY #1660","address1": "905 EAST MEAD","address2": "","city": "YAKIMA","state": "WA","zip": "98902","zip+4": "0000","phone": "5092488782"}
{"name": "HAGGEN #69","address1": "2601 E DIVISION","address2": "","city": "MT VERNON","state": "WA","zip": "98273","zip+4": "0000","phone": "3608486930"}
{"name": "SAFEWAY #1082","address1": "3355 BETHEL ROAD SE","address2": "","city": "PORT ORCHARD","state": "WA","zip": "98366","zip+4": "0000","phone": "3608766064"}
{"name": "SAVON PHARMACY #258","address1": "13606 E 32ND AVE","address2": "","city": "SPOKANE","state": "WA","zip": "99206","zip+4": "0000","phone": "5098923659"}
{"name": "SAVON PHARMACY #419","address1": "5520 SIDNEY RD","address2": "","city": "PORT ORCHARD","state": "WA","zip": "98367","zip+4": "0000","phone": "3608762698"}
{"name": "SAFEWAY #1687","address1": "3307 SE EVERGREEN BLDG 5","address2": "","city": "WASHOUGAL","state": "WA","zip": "98671","zip+4": "0000","phone": "3603352006"}
{"name": "FRED MEYER PHARMACY #701655","address1": "1900 SE SEDGWICK ROAD","address2": "","city": "PORT ORCHARD","state": "WA","zip": "98366","zip+4": "0000","phone": "3608747173"}
{"name": "SAFEWAY #0422","address1": "611 S MERIDIAN","address2": "","city": "PUYALLUP","state": "WA","zip": "98371","zip+4": "0000","phone": "2538411534"}
{"name": "SAVON PHARMACY #450","address1": "2755 77TH AVE S","address2": "","city": "MERCER ISLAND","state": "WA","zip": "98040","zip+4": "0000","phone": "2062322222"}
{"name": "SAVON PHARMACY #493","address1": "104 MILLITARY RD S","address2": "","city": "TACOMA","state": "WA","zip": "98444","zip+4": "0000","phone": "2535382611"}
{"name": "FRED MEYER PHARMACY #701614","address1": "401 NW 12TH AVENUE","address2": "","city": "BATTLEGROUND","state": "WA","zip": "98604","zip+4": "0000","phone": "3606665133"}
{"name": "FRED MEYER PHARMACY #701457","address1": "21045 BOTHELLEVERETT HIGHWAY","address2": "","city": "BOTHELL","state": "WA","zip": "98021","zip+4": "0000","phone": "4253987033"}
{"name": "FRED MEYER PHARMACY #701615","address1": "6305 BRIDGEPORT WAY WEST","address2": "","city": "UNIVERSITY PLACE","state": "WA","zip": "98467","zip+4": "0000","phone": "2534604033"}
{"name": "WALGREEN DRUG STORE #5598","address1": "6807 EVERGREEN WAY","address2": "","city": "EVERETT","state": "WA","zip": "98203","zip+4": "0000","phone": "4254389330"}
{"name": "SAFEWAY #1589","address1": "116 RIVERBEND DRIVE","address2": "","city": "LEAVENWORTH","state": "WA","zip": "98826","zip+4": "0000","phone": "5095485811"}
{"name": "LUMMI TRIBAL HEALTH CENTER PHC","address1": "2592 KWINA RD","address2": "","city": "BELLINGHAM","state": "WA","zip": "98226","zip+4": "9278","phone": "3603840464"}
{"name": "HAGGEN #77","address1": "3711 88TH ST NE","address2": "","city": "MARYSVILLE","state": "WA","zip": "98270","zip+4": "0000","phone": "3605307761"}
{"name": "WAL-MART PHARMACY #102865","address1": "2301 WEST WELLESLEY AVE","address2": "","city": "SPOKANE","state": "WA","zip": "99205","zip+4": "0000","phone": "5093272015"}
{"name": "SAVON PHARMACY #268","address1": "3010 E 57TH AVE","address2": "","city": "SPOKANE","state": "WA","zip": "99223","zip+4": "0000","phone": "5094436502"}
{"name": "SAVON PHARMACY #242","address1": "N 12312 STATE ROUTE 395","address2": "","city": "SPOKANE","state": "WA","zip": "99218","zip+4": "0000","phone": "5094660357"}
{"name": "YOKES PHARMACY #10","address1": "14202 N MARKET ST","address2": "","city": "MEAD","state": "WA","zip": "99021","zip+4": "9524","phone": "5092420201"}
{"name": "SAFEWAY #3252","address1": "601 S PIONEER WAY","address2": "","city": "MOSES LAKE","state": "WA","zip": "98837","zip+4": "0000","phone": "5097644721"}
{"name": "WALGREEN DRUG STORE #5150","address1": "3737 PACIFIC AVE","address2": "","city": "TACOMA","state": "WA","zip": "98408","zip+4": "0000","phone": "2534731970"}
{"name": "WALGREEN DRUG STORE #5571","address1": "1510 COOPER POINT RD SW","address2": "","city": "OLYMPIA","state": "WA","zip": "98502","zip+4": "0000","phone": "3605708970"}
{"name": "SAVON PHARMACY #471","address1": "301 MARYSVILLE MALL","address2": "SUITE 60","city": "MARYSVILLE","state": "WA","zip": "98270","zip+4": "0000","phone": "3606598952"}
{"name": "SAFEWAY #1572","address1": "14020 MAIN ST NE","address2": "","city": "DUVALL","state": "WA","zip": "98019","zip+4": "0000","phone": "4258441199"}
{"name": "EVERGREEN PHARMACEUTICAL - SPO","address1": "350 E 3RD AVE","address2": "","city": "SPOKANE","state": "WA","zip": "99202","zip+4": "0000","phone": "5098384826"}
{"name": "PUGET PHARMACY SERVICES","address1": "1751 CIRCLE LN SE","address2": "","city": "LACEY","state": "WA","zip": "98503","zip+4": "0000","phone": "3604565389"}
{"name": "CONSULTING AND PHARMACY SERVIC","address1": "1221 S 40TH AVE","address2": "","city": "YAKIMA","state": "WA","zip": "98902","zip+4": "0000","phone": "5095750272"}
{"name": "SAFEWAY #1704","address1": "6700 NE 162ND AVE SUITE 500","address2": "","city": "VANCOUVER","state": "WA","zip": "98682","zip+4": "0000","phone": "3609442686"}
{"name": "QFC PHARMACY #705823","address1": "8532 15TH AVENUE NW","address2": "","city": "SEATTLE","state": "WA","zip": "98117","zip+4": "0000","phone": "2062978688"}
{"name": "QFC PHARMACY #705822","address1": "3550 128TH SE","address2": "","city": "BELLEVUE","state": "WA","zip": "98006","zip+4": "0000","phone": "4253780202"}
{"name": "BARTELL DRUGS #48","address1": "1825 BROADWAY","address2": "","city": "EVERETT","state": "WA","zip": "98201","zip+4": "2348","phone": "4253032584"}
{"name": "TARGET PHARMACY #0337","address1": "405 SE EVERETT MALL WAY","address2": "","city": "EVERETT","state": "WA","zip": "98208","zip+4": "0000","phone": "4253537967"}
{"name": "THE EVERETT CLINIC PHCY AT MAR","address1": "4420 76TH ST NE","address2": "","city": "MARYSVILLE","state": "WA","zip": "98270","zip+4": "0000","phone": "3606517410"}
{"name": "COSTCO PHARMACY #662","address1": "1725 S BURLINGTON BLVD","address2": "","city": "BURLINGTON","state": "WA","zip": "98233","zip+4": "0000","phone": "3607575702"}
{"name": "WALGREEN DRUG STORE #5914","address1": "15510 E SPRAGUE AVE","address2": "","city": "SPOKANE VALLEY","state": "WA","zip": "99037","zip+4": "0000","phone": "5098910256"}
{"name": "SAFEWAY #1740","address1": "2710 1ST STREET","address2": "","city": "CHENEY","state": "WA","zip": "99004","zip+4": "0000","phone": "5092356030"}
{"name": "SAFEWAY #1741","address1": "1233 N LIBERTY LAKE RD","address2": "","city": "LIBERTY LAKE","state": "WA","zip": "99019","zip+4": "0000","phone": "5098931202"}
{"name": "WALGREEN DRUG STORE #5698","address1": "3099 BETHEL RD SE","address2": "","city": "PORT ORCHARD","state": "WA","zip": "98366","zip+4": "0000","phone": "3608763924"}
{"name": "WALGREEN DRUG STORE #5911","address1": "4090 GUIDE MERIDIAN RD","address2": "","city": "BELLINGHAM","state": "WA","zip": "98226","zip+4": "0000","phone": "3607340009"}
{"name": "BARTELL DRUGS #52","address1": "7370 170TH AVENUE NE","address2": "","city": "REDMOND","state": "WA","zip": "98052","zip+4": "4457","phone": "4258958133"}
{"name": "RAINIER LTC PHARMACY #2","address1": "810 METCALF","address2": "SUITE B","city": "SEDRO WOOLLEY","state": "WA","zip": "98284","zip+4": "0000","phone": "3608552800"}
{"name": "LIDGERWOOD OWL PHARMACY","address1": "5901 N LIDGERWOOD ST","address2": "STE 100","city": "SPOKANE","state": "WA","zip": "99207","zip+4": "1189","phone": "5094833566"}
{"name": "SAFEWAY #1477","address1": "1423 NW MARKET","address2": "","city": "SEATTLE","state": "WA","zip": "98107","zip+4": "0000","phone": "2067828688"}
{"name": "TARGET PHARMACY #1284","address1": "302 NE NORTHGATE WAY","address2": "","city": "SEATTLE","state": "WA","zip": "98125","zip+4": "0000","phone": "2064940898"}
{"name": "OVERLAKE MEDICAL TOWER PHARMAC","address1": "1135 116TH AVE NE","address2": "STE 105","city": "BELLEVUE","state": "WA","zip": "98004","zip+4": "0000","phone": "4256885958"}
{"name": "SAFEWAY #1923","address1": "9620 28TH SW","address2": "","city": "SEATTLE","state": "WA","zip": "98126","zip+4": "0000","phone": "2069239110"}
{"name": "WALGREEN DRUG STORE #3788","address1": "14510 AURORA AVE N","address2": "","city": "SHORELINE","state": "WA","zip": "98133","zip+4": "0000","phone": "2063615058"}
{"name": "SAFEWAY #1653","address1": "2615 NE 112TH AVE","address2": "","city": "VANCOUVER","state": "WA","zip": "98684","zip+4": "0000","phone": "3604495205"}
{"name": "NORTH STAR LODGE PHARMACY","address1": "808 N 39TH AVE","address2": "","city": "YAKIMA","state": "WA","zip": "98902","zip+4": "0000","phone": "5095743404"}
{"name": "COSTCO PHARMACY #660","address1": "1201 39TH SW","address2": "","city": "PUYALLUP","state": "WA","zip": "98373","zip+4": "3803","phone": "2534457542"}
{"name": "SAFEWAY #1762","address1": "1725 PACIFIC AVE","address2": "","city": "WOODLAND","state": "WA","zip": "98674","zip+4": "0000","phone": "3602254375"}
{"name": "SAFEWAY #0333","address1": "1803 GEORGE WASHINGTON WAY","address2": "","city": "RICHLAND","state": "WA","zip": "99354","zip+4": "0000","phone": "5099461157"}
{"name": "SAVON PHARMACY #474","address1": "20600 108TH AVE SE","address2": "","city": "KENT","state": "WA","zip": "98031","zip+4": "0000","phone": "2538500351"}
{"name": "WALGREEN DRUG STORE #6307","address1": "10200 MUKILTEO SPEEDWAY","address2": "","city": "MUKILTEO","state": "WA","zip": "98275","zip+4": "0000","phone": "4253159113"}
{"name": "CHAS PHARMACY #1","address1": "9227 E MAIN AVE","address2": "","city": "SPOKANE","state": "WA","zip": "99212","zip+4": "0000","phone": "5093431116"}
{"name": "WAL-MART PHARMACY #102476","address1": "1700 SE MEADOWBROOK BLVD","address2": "","city": "COLLEGE PLACE","state": "WA","zip": "99324","zip+4": "0000","phone": "5095253626"}
{"name": "SAVON PHARMACY #495","address1": "20025 SR 410","address2": "","city": "BONNEY LAKE","state": "WA","zip": "98390","zip+4": "0000","phone": "2538265757"}
{"name": "WALGREEN DRUG STORE #6304","address1": "27112 132ND AVE SE","address2": "","city": "KENT","state": "WA","zip": "98042","zip+4": "0000","phone": "2536383281"}
{"name": "WALGREEN DRUG STORE #5697","address1": "15225 PACIFIC AVE","address2": "","city": "TACOMA","state": "WA","zip": "98444","zip+4": "0000","phone": "2535386775"}
{"name": "COSTLESS SENIOR SERVICES","address1": "14218 92ND AVE NW","address2": "D","city": "GIG HARBOR","state": "WA","zip": "98329","zip+4": "0000","phone": "2538577677"}
{"name": "SAFEWAY #1246","address1": "6201 6TH AVE","address2": "","city": "TACOMA","state": "WA","zip": "98406","zip+4": "0000","phone": "2535669217"}
{"name": "MEDICINE MAN LIBERTY LAKE","address1": "23801 E APPLEWAY","address2": "STE 260","city": "LIBERTY LAKE","state": "WA","zip": "99019","zip+4": "0000","phone": "5097553333"}
{"name": "WALGREEN DRUG STORE #6083","address1": "4540 LACEY BLVD SE","address2": "","city": "LACEY","state": "WA","zip": "98503","zip+4": "0000","phone": "3604382020"}
{"name": "SAFEWAY #0490","address1": "1645 140TH AVE NE","address2": "","city": "BELLEVUE","state": "WA","zip": "98005","zip+4": "0000","phone": "4256431778"}
{"name": "BARTELL DRUGS #54","address1": "3601 6TH AVENUE SOUTH","address2": "","city": "TACOMA","state": "WA","zip": "98406","zip+4": "5405","phone": "2537611248"}
{"name": "SAFEWAY #1844","address1": "215 WHITESELL ST NW","address2": "","city": "ORTING","state": "WA","zip": "98360","zip+4": "0000","phone": "3608930843"}
{"name": "TARGET PHARMACY #0341","address1": "3320 SOUTH 23RD STREET","address2": "","city": "TACOMA","state": "WA","zip": "98405","zip+4": "0000","phone": "2534140303"}
{"name": "WAL-MART PHARMACY #102947","address1": "9000 NE HWY 99","address2": "","city": "VANCOUVER","state": "WA","zip": "98665","zip+4": "0000","phone": "3605712207"}
{"name": "SAFEWAY #1842","address1": "13023 NE HIGHWAY 99","address2": "","city": "VANCOUVER","state": "WA","zip": "98686","zip+4": "0000","phone": "3605667986"}
{"name": "BIMART PHARMACY #661","address1": "3003 ADDY ST","address2": "","city": "WASHOUGAL","state": "WA","zip": "98671","zip+4": "0000","phone": "3608350681"}
{"name": "SAFEWAY #1299","address1": "10100 NORTH NEWPORT HIGHWAY","address2": "","city": "SPOKANE","state": "WA","zip": "99218","zip+4": "0000","phone": "5094653676"}
{"name": "FRED MEYER PHARMACY #701658","address1": "6100 E LAKE SAMMAMISH PKWY SE","address2": "","city": "ISSAQUAH","state": "WA","zip": "98029","zip+4": "0000","phone": "4254161133"}
{"name": "WALGREEN DRUG STORE #5912","address1": "3333 WHEATON WAY","address2": "","city": "BREMERTON","state": "WA","zip": "98310","zip+4": "0000","phone": "3607820901"}
{"name": "WALGREEN DRUG STORE #5950","address1": "4412 RAINIER AVE SOUTH","address2": "","city": "SEATTLE","state": "WA","zip": "98118","zip+4": "0000","phone": "2067606134"}
{"name": "WAL-MART PHARMACY #102595","address1": "8924 QUILCEDA BLVD","address2": "","city": "TULALIP","state": "WA","zip": "98271","zip+4": "0000","phone": "3606571223"}
{"name": "WAL-MART PHARMACY #103217","address1": "1860 EAST MAIN ST","address2": "","city": "OTHELLO","state": "WA","zip": "99344","zip+4": "0000","phone": "5094889324"}
{"name": "WALGREEN DRUG STORE #6423","address1": "6432 STATE HIGHWAY 303 NE","address2": "","city": "BREMERTON","state": "WA","zip": "98311","zip+4": "0000","phone": "3603078738"}
{"name": "TARGET PHARMACY #0636","address1": "9770 NORTH NEWPORT HWY","address2": "","city": "SPOKANE","state": "WA","zip": "99218","zip+4": "0000","phone": "5094667226"}
{"name": "TOP #13","address1": "15751 NE 15TH ST","address2": "","city": "BELLEVUE","state": "WA","zip": "98008","zip+4": "0000","phone": "4257481361"}
{"name": "TARGET PHARMACY #1331","address1": "9601 MARKET PLACE","address2": "","city": "LAKE STEVENS","state": "WA","zip": "98258","zip+4": "0000","phone": "4253978944"}
{"name": "TARGET PHARMACY #1355","address1": "665 SLEATER KINNEY RD SE","address2": "","city": "LACEY","state": "WA","zip": "98503","zip+4": "0000","phone": "3604868927"}
{"name": "FRED MEYER PHARMACY #701652","address1": "201 S WATER STREET","address2": "","city": "ELLENSBURG","state": "WA","zip": "98926","zip+4": "0000","phone": "5099620533"}
{"name": "SAFEWAY #1977","address1": "6200 PACIFIC AVE SE","address2": "","city": "LACEY","state": "WA","zip": "98503","zip+4": "0000","phone": "3604863401"}
{"name": "WALGREEN DRUG STORE #6102","address1": "11718 MERIDIAN E","address2": "","city": "PUYALLUP","state": "WA","zip": "98373","zip+4": "0000","phone": "2537700725"}
{"name": "WALGREEN DRUG STORE #6103","address1": "1905 SE 164TH AVE","address2": "","city": "VANCOUVER","state": "WA","zip": "98683","zip+4": "0000","phone": "3608852908"}
{"name": "SAFEWAY #1506","address1": "19715 HIGHWAY 99","address2": "","city": "LYNNWOOD","state": "WA","zip": "98036","zip+4": "0000","phone": "4257784862"}
{"name": "WALGREEN DRUG STORE #5816","address1": "9812 NE HIGHWAY 99","address2": "","city": "VANCOUVER","state": "WA","zip": "98665","zip+4": "0000","phone": "3605767753"}
{"name": "FRED MEYER PHARMACY #701657","address1": "400 SOUTH THOR ST","address2": "","city": "SPOKANE","state": "WA","zip": "99202","zip+4": "0000","phone": "5095324033"}
{"name": "WAL-MART PHARMACY #103260","address1": "1399 SE BLVD","address2": "","city": "EPHRATA","state": "WA","zip": "98823","zip+4": "0000","phone": "5097548847"}
{"name": "QFC PHARMACY #705829","address1": "460 E NORTH BEND WAY","address2": "","city": "NORTH BEND","state": "WA","zip": "98045","zip+4": "0000","phone": "4258882357"}
{"name": "QFC PHARMACY #705809","address1": "325 PARK PLACE CENTER","address2": "","city": "KIRKLAND","state": "WA","zip": "98033","zip+4": "0000","phone": "4258224123"}
{"name": "WALGREEN DRUG STORE #6302","address1": "16423 LARCH WAY","address2": "","city": "LYNNWOOD","state": "WA","zip": "98037","zip+4": "0000","phone": "4257418263"}
{"name": "TARGET PHARMACY #1205","address1": "1140051 ST AVENUE","address2": "","city": "GIG HARBOR","state": "WA","zip": "98335","zip+4": "0000","phone": "2538587799"}
{"name": "BROADWAY COMMUNITY HEALTH CENT","address1": "1430 BRAODWAY","address2": "","city": "EVERETT","state": "WA","zip": "98201","zip+4": "0000","phone": "4257892050"}
{"name": "FRED MEYER PHARMACY #701659","address1": "555 TROSPER RD SW","address2": "","city": "TUMWATER","state": "WA","zip": "98512","zip+4": "7375","phone": "3604537933"}
{"name": "WAL-MART PHARMACY #103261","address1": "2801 DUPORTAIL STREET","address2": "","city": "RICHLAND","state": "WA","zip": "99352","zip+4": "0000","phone": "5096281370"}
{"name": "SAVON PHARMACY #406","address1": "11330 NW 51ST AVE","address2": "","city": "GIG HARBOR","state": "WA","zip": "98332","zip+4": "0000","phone": "2538534755"}
{"name": "SAFEWAY #1494","address1": "2507 W WELLESLEY AVE","address2": "","city": "SPOKANE","state": "WA","zip": "99205","zip+4": "0000","phone": "5093254396"}
{"name": "BIMART PHARMACY #621","address1": "608 E MOUNTAIN VIEW AVE","address2": "","city": "ELLENSBURG","state": "WA","zip": "98926","zip+4": "3819","phone": "5099256996"}
{"name": "SAFEWAY #1922","address1": "2709 E HIGHWAY 101","address2": "","city": "PORT ANGELES","state": "WA","zip": "98362","zip+4": "0000","phone": "3604577865"}
{"name": "QFC PHARMACY #705874","address1": "1510 145TH PL SE","address2": "","city": "BELLEVUE","state": "WA","zip": "98007","zip+4": "0000","phone": "4256532431"}
{"name": "QFC PHARMACY #705859","address1": "2636 116TH AVE NE","address2": "","city": "BELLEVUE","state": "WA","zip": "98004","zip+4": "0000","phone": "4544543358"}
{"name": "WAL-MART PHARMACY #103218","address1": "20307 MOUNTAIN HWY EAST","address2": "","city": "SPANAWAY","state": "WA","zip": "98387","zip+4": "0000","phone": "2538466260"}
{"name": "HAGGEN #15","address1": "757 HAGGEN DR","address2": "","city": "BURLINGTON","state": "WA","zip": "98233","zip+4": "0000","phone": "3608141561"}
{"name": "SAFEWAY #1798","address1": "11501 CANYON ROAD E","address2": "","city": "PUYALLUP","state": "WA","zip": "98373","zip+4": "0000","phone": "2535365296"}
{"name": "SAFEWAY #0534","address1": "3532 172ND ST NE","address2": "","city": "ARLINGTON","state": "WA","zip": "98223","zip+4": "0000","phone": "3606516194"}
{"name": "WALGREEN DRUG STORE #5951","address1": "11509 CANYON ROAD EAST","address2": "","city": "PUYALLUP","state": "WA","zip": "98373","zip+4": "0000","phone": "2535395238"}
{"name": "ROSAUERS PHARMACY #39","address1": "410 S 72ND AVE","address2": "","city": "YAKIMA","state": "WA","zip": "98908","zip+4": "0000","phone": "5099720284"}
{"name": "WAL-MART PHARMACY #102549","address1": "9212 NORTH COLTON STREET","address2": "","city": "SPOKANE","state": "WA","zip": "99218","zip+4": "0000","phone": "5094642736"}
{"name": "SAFEWAY #1966","address1": "13101 SE KENT KANGLEY HWY","address2": "","city": "KENT","state": "WA","zip": "98031","zip+4": "0000","phone": "2536380831"}
{"name": "SAVON PHARMACY #496","address1": "31009 PACIFIC HWY S","address2": "","city": "FEDERAL WAY","state": "WA","zip": "98003","zip+4": "0000","phone": "2539464033"}
{"name": "CHS PHARMACY","address1": "6600 NE 112TH COURT","address2": "STE 103","city": "VANCOVER","state": "WA","zip": "98662","zip+4": "0000","phone": "3606947377"}
{"name": "SAFEWAY #2637","address1": "411 THREE RIVERS DRIVE","address2": "","city": "KELSO","state": "WA","zip": "98626","zip+4": "0000","phone": "3606365430"}
{"name": "SPOKANE FALLS FAMILY CLIN PHCY","address1": "120 W MISSION AVE","address2": "","city": "SPOKANE","state": "WA","zip": "99201","zip+4": "0000","phone": "5093238757"}
{"name": "CHERRY STREET PHARMACY","address1": "1120 CHERRY ST","address2": "","city": "SEATTLE","state": "WA","zip": "98104","zip+4": "0000","phone": "2066241391"}
{"name": "SAFEWAY #1930","address1": "8071 GUIDE MERIDAN ROAD","address2": "","city": "LYNDEN","state": "WA","zip": "98264","zip+4": "0000","phone": "3603180698"}
{"name": "WALGREEN DRUG STORE #6357","address1": "6300 E LAKE SAMMAMISH PKWY SE","address2": "","city": "ISSAQUAH","state": "WA","zip": "98029","zip+4": "0000","phone": "4253696621"}
{"name": "WENATCHEE FOOD PAVILION #775","address1": "149 EASY ST","address2": "","city": "WENATCHEE","state": "WA","zip": "98801","zip+4": "0000","phone": "5096650269"}
{"name": "COMMUNITY HEALTH CARE","address1": "11225 PACIFIC AVE","address2": "","city": "TACOMA","state": "WA","zip": "98444","zip+4": "0000","phone": "2535366257"}
{"name": "YOKES PHARMACY #11","address1": "9329 E MONTGOMERY","address2": "","city": "SPOKANE VALLEY","state": "WA","zip": "99206","zip+4": "4295","phone": "5093433379"}
{"name": "MEDICAL MALL PHARMACY","address1": "521 N YOUNG ST","address2": "","city": "KENNEWICK","state": "WA","zip": "99336","zip+4": "0000","phone": "5095855250"}
{"name": "SAFEWAY #1978","address1": "2637 N PEARL STREET","address2": "","city": "TACOMA","state": "WA","zip": "98407","zip+4": "0000","phone": "2537599271"}
{"name": "WALGREEN DRUG STORE #6389","address1": "8500 15TH AVE NW","address2": "","city": "SEATTLE","state": "WA","zip": "98117","zip+4": "0000","phone": "2067064849"}
{"name": "WALGREEN DRUG STORE #6422","address1": "9709 SILVERDALE WAY","address2": "","city": "SILVERDALE","state": "WA","zip": "98383","zip+4": "0000","phone": "3606927240"}
{"name": "HOAGLAND PHARMACY","address1": "1414 MEADOR AVENUE","address2": "STE 101","city": "BELLINGHAM","state": "WA","zip": "98229","zip+4": "0000","phone": "3607345413"}
{"name": "TARGET PHARMACY #1444","address1": "16200 SE MILL PLAN BLVD","address2": "","city": "VANCOUVER","state": "WA","zip": "98684","zip+4": "0000","phone": "3604496425"}
{"name": "QFC PHARMACY #705819","address1": "18921 BOTHELL WAY NE","address2": "","city": "BOTHELL","state": "WA","zip": "98011","zip+4": "0000","phone": "4254873031"}
{"name": "RIVER VILLAGE PHARMACY","address1": "2609 RIVER RD","address2": "","city": "YAKIMA","state": "WA","zip": "98902","zip+4": "0000","phone": "5094693198"}
{"name": "WALGREEN DRUG STORE #6720","address1": "16824 HIGHWAY 99","address2": "","city": "LYNNWOOD","state": "WA","zip": "98037","zip+4": "0000","phone": "4257410110"}
{"name": "SAVON PHARMACY #225","address1": "450 N WILBUR AVE","address2": "","city": "WALLA WALLA","state": "WA","zip": "99362","zip+4": "0000","phone": "5095293706"}
{"name": "FAMILY HEALTH CENTERS PHARMACY","address1": "525 W JAY","address2": "","city": "BREWSTER","state": "WA","zip": "98812","zip+4": "0000","phone": "5096894406"}
{"name": "WALGREEN DRUG STORE #6259","address1": "9456 16TH AVE SW","address2": "","city": "SEATTLE","state": "WA","zip": "98106","zip+4": "0000","phone": "2067672294"}
{"name": "BARTELL DRUGS #57","address1": "2700 BRIDGEPORT WAY WEST","address2": "SUITE D","city": "UNIVERSITY PLACE","state": "WA","zip": "98466","zip+4": "4600","phone": "2534601879"}
{"name": "WALGREEN DRUG STORE #6260","address1": "729 MERIDIAN AVE EAST","address2": "","city": "EDGEWOOD","state": "WA","zip": "98371","zip+4": "0000","phone": "2539272521"}
{"name": "QFC PHARMACY #705101","address1": "NE 201 STATE RT 300","address2": "","city": "BELFAIR","state": "WA","zip": "98528","zip+4": "0000","phone": "3602759671"}
{"name": "SAVON PHARMACY #476","address1": "19881 STATE RD 2","address2": "","city": "MONROE","state": "WA","zip": "98272","zip+4": "0000","phone": "3607945870"}
{"name": "WALGREEN DRUG STORE #7131","address1": "909 17TH ST","address2": "","city": "ANACORTES","state": "WA","zip": "98221","zip+4": "0000","phone": "3602998525"}
{"name": "SAFEWAY #1952","address1": "4280 MARTIN WAY E","address2": "","city": "OLYMPIA","state": "WA","zip": "98516","zip+4": "0000","phone": "3604560709"}
{"name": "SAVON PHARMACY #206","address1": "9001 N INDIAN TRAIL RD","address2": "","city": "SPOKANE","state": "WA","zip": "99208","zip+4": "0000","phone": "5094658590"}
{"name": "WALGREEN DRUG STORE #6258","address1": "11607 98TH AVE NE","address2": "","city": "KIRKLAND","state": "WA","zip": "98034","zip+4": "0000","phone": "4258258700"}
{"name": "RIVERPOINT PHARMACY","address1": "528 E SPOKANE FALLS BLVD","address2": "STE 110","city": "SPOKANE","state": "WA","zip": "99202","zip+4": "0000","phone": "5093436252"}
{"name": "WAL-MART PHARMACY #103531","address1": "1401 GALAXY DRIVE NE","address2": "","city": "LACEY","state": "WA","zip": "98516","zip+4": "0000","phone": "3604567862"}
{"name": "WAL-MART PHARMACY #105041","address1": "19205 SR 410 EAST","address2": "","city": "BONNEY LAKE","state": "WA","zip": "98391","zip+4": "0000","phone": "2538269151"}
{"name": "TOP #17","address1": "1406 LAKE TAPPS PARKWAY E","address2": "","city": "AUBURN","state": "WA","zip": "98092","zip+4": "0000","phone": "2538761761"}
{"name": "BARTELL DRUGS #56","address1": "2345 42ND AVENUE SW","address2": "","city": "SEATTLE","state": "WA","zip": "98116","zip+4": "2513","phone": "2069327437"}
{"name": "QFC PHARMACY #705212","address1": "3505 SE 192ND","address2": "","city": "VANCOUVER","state": "WA","zip": "98683","zip+4": "0000","phone": "3602533043"}
{"name": "FRED MEYER PHARMACY #701664","address1": "17667 NE 76TH STREET","address2": "","city": "REDMOND","state": "WA","zip": "98052","zip+4": "0000","phone": "4255568033"}
{"name": "COMMUNITY HEALTH CARE PHARMACY","address1": "1102 SOUTH I ST","address2": "","city": "TACOMA","state": "WA","zip": "98405","zip+4": "0000","phone": "2532842324"}
{"name": "CHESTERFIELD PHARMACY","address1": "720 7TH AVE","address2": "SUITE 100","city": "SEATTLE","state": "WA","zip": "98104","zip+4": "0000","phone": "2068386070"}
{"name": "DEACONESS OUTPATIENT PHARMACY","address1": "800 W 5TH AVE","address2": "","city": "SPOKANE","state": "WA","zip": "99204","zip+4": "0000","phone": "5094733784"}
{"name": "WALGREEN DRUG STORE #6890","address1": "500 15TH AVENUE E","address2": "","city": "SEATTLE","state": "WA","zip": "98112","zip+4": "0000","phone": "2067094288"}
{"name": "WALGREEN DRUG STORE #7356","address1": "3540 PEARL ST","address2": "","city": "TACOMA","state": "WA","zip": "98407","zip+4": "0000","phone": "2537594597"}
{"name": "SAVON PHARMACY #443","address1": "2900 WHEATON WAY","address2": "","city": "BREMERTON","state": "WA","zip": "98310","zip+4": "0000","phone": "3603770933"}
{"name": "WALGREEN DRUG STORE #7132","address1": "11216 4TH AVENUE WEST","address2": "","city": "EVERETT","state": "WA","zip": "98204","zip+4": "0000","phone": "4253558059"}
{"name": "WALGREEN DRUG STORE #6917","address1": "8333 MARTIN WAY EAST","address2": "","city": "LACEY","state": "WA","zip": "98516","zip+4": "0000","phone": "3604557374"}
{"name": "SAFEWAY #1965","address1": "9262 RAINIER AVE S","address2": "","city": "SEATTLE","state": "WA","zip": "98118","zip+4": "0000","phone": "2064941130"}
{"name": "WALGREEN DRUG STORE #6614","address1": "20812 BOTHELL EVERETT HWY","address2": "","city": "BOTHELL","state": "WA","zip": "98021","zip+4": "0000","phone": "4253982733"}
{"name": "TARGET PHARMACY #0348","address1": "30 BELLIS FAIR PKWY","address2": "","city": "BELLINGHAM","state": "WA","zip": "98226","zip+4": "0000","phone": "3607565720"}
{"name": "TARGET PHARMACY #0627","address1": "301 STRANDER BLVD","address2": "","city": "TUKWILA","state": "WA","zip": "98188","zip+4": "0000","phone": "2063942100"}
{"name": "TARGET PHARMACY #0830","address1": "1160 N COLUMBIA CENTER BLVD","address2": "","city": "KENNEWICK","state": "WA","zip": "99336","zip+4": "0000","phone": "5097371700"}
{"name": "WALGREEN DRUG STORE #6194","address1": "222 PIKE ST","address2": "","city": "SEATTLE","state": "WA","zip": "98101","zip+4": "0000","phone": "2069038354"}
{"name": "PACIFIC MEDICAL CENTERS PHARMA","address1": "10416 5TH AVE NE","address2": "","city": "SEATTLE","state": "WA","zip": "98125","zip+4": "0000","phone": "2065176635"}
{"name": "COMMUNITY HEALTH CARE PHARMACY","address1": "10510 GRAVELLY LAKE DR SW","address2": "","city": "LAKEWOOD","state": "WA","zip": "98499","zip+4": "0000","phone": "2535897190"}
{"name": "THE VANCOUVER CLINIC PHARMACY","address1": "700 NE 87TH AVE","address2": "","city": "VANCOUVER","state": "WA","zip": "98664","zip+4": "0000","phone": "3603973314"}
{"name": "SAVON PHARMACY #511","address1": "8300 NE 137TH AVE","address2": "SUITE A","city": "VANCOUVER","state": "WA","zip": "98682","zip+4": "0000","phone": "3608831865"}
{"name": "SOUTHSIDE FOOD PAVILION #456","address1": "3125 OLD FAIRHAVEN PKWY","address2": "","city": "BELLINGHAM","state": "WA","zip": "98225","zip+4": "0000","phone": "3607150642"}
{"name": "FRED MEYER PHARMACY #701667","address1": "1225 WEST BAKERVIEW","address2": "","city": "BELLINGHAM","state": "WA","zip": "98226","zip+4": "0000","phone": "3607882933"}
{"name": "YOKES PHARMACY #12","address1": "4905 ROAD 68","address2": "","city": "PASCO","state": "WA","zip": "99301","zip+4": "8934","phone": "5095454884"}
{"name": "BARTELL DRUGS #58","address1": "23028 100TH AVENUE WEST","address2": "","city": "EDMONDS","state": "WA","zip": "98020","zip+4": "5080","phone": "4256702860"}
{"name": "SAVON PHARMACY #265","address1": "6520 N NEVADA","address2": "","city": "SPOKANE","state": "WA","zip": "99208","zip+4": "0000","phone": "5094895287"}
{"name": "HALLS LONG TERM CARE PHARMACY","address1": "1807 COOKS HILL RD","address2": "","city": "CENTRALIA","state": "WA","zip": "98531","zip+4": "0000","phone": "3607363301"}
{"name": "WALGREEN DRUG STORE #7390","address1": "1070 E SUNSET DR","address2": "","city": "BELLINGHAM","state": "WA","zip": "98226","zip+4": "0000","phone": "3606472164"}
{"name": "TARGET PHARMACY #0342","address1": "3310 SOUTH MERIDIAN","address2": "","city": "PUYALLUP","state": "WA","zip": "98373","zip+4": "0000","phone": "2538644617"}
{"name": "TARGET PHARMACY #0349","address1": "5618 LAKEWOOD TOWN CENTER BLVD","address2": "","city": "LAKEWOOD","state": "WA","zip": "98499","zip+4": "0000","phone": "2534141232"}
{"name": "TARGET PHARMACY #0606","address1": "3201 NW RANDALL WAY","address2": "","city": "SILVERDALE","state": "WA","zip": "98383","zip+4": "0000","phone": "3605366010"}
{"name": "WALGREEN DRUG STORE #7355","address1": "3011 NE SUNSET BLVD","address2": "","city": "RENTON","state": "WA","zip": "98056","zip+4": "0000","phone": "4252070050"}
{"name": "WALGREEN DRUG STORE #7570","address1": "2205 BROADWAY","address2": "","city": "EVERETT","state": "WA","zip": "98201","zip+4": "0000","phone": "4252525213"}
{"name": "WALGREEN DRUG STORE #7136","address1": "1350 GARRETT ST","address2": "","city": "ENUMCLAW","state": "WA","zip": "98022","zip+4": "0000","phone": "3608255697"}
{"name": "SAFEWAY #1885","address1": "516 FIRST AVE WEST","address2": "","city": "SEATTLE","state": "WA","zip": "98119","zip+4": "0000","phone": "2064941700"}
{"name": "QFC PHARMACY #705811","address1": "1600 W DRAVUS","address2": "","city": "SEATTLE","state": "WA","zip": "98119","zip+4": "0000","phone": "2062830366"}
{"name": "GENOA HEALTHCARE #03","address1": "4508 AUBURN WAY N","address2": "","city": "AUBURN","state": "WA","zip": "98002","zip+4": "0000","phone": "2533739944"}
{"name": "FRED MEYER PHARMACY #701604","address1": "22303 MOUNTAIN VIEW HIGHWAY EA","address2": "","city": "SPANAWAY","state": "WA","zip": "98387","zip+4": "0000","phone": "2538754033"}
{"name": "WALGREEN DRUG STORE #7137","address1": "2650 BRIDGEPORT WAY W","address2": "","city": "UNIVERSITY PLACE","state": "WA","zip": "98466","zip+4": "0000","phone": "2535640273"}
{"name": "WALGREEN DRUG STORE #7226","address1": "9714 NE MILL PLAIN BLVD","address2": "","city": "VANCOUVER","state": "WA","zip": "98664","zip+4": "0000","phone": "3602535136"}
{"name": "SAFEWAY #2639","address1": "430 SE BISHOP BLVD","address2": "","city": "PULLMAN","state": "WA","zip": "99163","zip+4": "0000","phone": "5093340819"}
{"name": "PACIFIC MEDICAL CENTERS PHARMA","address1": "1101 MADISON SUITE 306","address2": "","city": "SEATTLE","state": "WA","zip": "98104","zip+4": "0000","phone": "2065051397"}
{"name": "PACIFIC MEDICAL CENTERS PHARMA","address1": "1200 12TH AVE S","address2": "","city": "SEATTLE","state": "WA","zip": "98144","zip+4": "0000","phone": "2066214109"}
{"name": "YOKES PHARMACY #13","address1": "1410 W 27TH","address2": "","city": "KENNEWICK","state": "WA","zip": "99337","zip+4": "3701","phone": "5095850846"}
{"name": "TARGET PHARMACY #0607","address1": "2925 HARRISON AVE NW","address2": "","city": "OLYMPIA","state": "WA","zip": "98502","zip+4": "0000","phone": "3605704617"}
{"name": "TARGET PHARMACY #0628","address1": "205 THREE RIVERS DR","address2": "","city": "KELSO","state": "WA","zip": "98626","zip+4": "0000","phone": "3605787387"}
{"name": "TOP #21","address1": "1201 N 175TH ST","address2": "","city": "SHORELINE","state": "WA","zip": "98133","zip+4": "0000","phone": "2065332861"}
{"name": "WALGREEN DRUG STORE #7594","address1": "1416 HARVEY RD","address2": "","city": "AUBURN","state": "WA","zip": "98002","zip+4": "0000","phone": "2533940111"}
{"name": "PACIFIC MEDICAL CENTERS PHARMA","address1": "601 S CARR RD SUITE 100","address2": "","city": "RENTON","state": "WA","zip": "98055","zip+4": "0000","phone": "4252273122"}
{"name": "PACIFIC MEDICAL CENTERS PHARMA","address1": "12910 TOTEM LAKE BLVD NE 101","address2": "","city": "KIRKLAND","state": "WA","zip": "98034","zip+4": "0000","phone": "4258145003"}
{"name": "QFC PHARMACY #705879","address1": "27008 92ND AVE NW","address2": "","city": "STANWOOD","state": "WA","zip": "98292","zip+4": "0000","phone": "3606290662"}
{"name": "GENOA HEALTHCARE #04","address1": "325 E PIONEER AVE","address2": "","city": "PUYALLUP","state": "WA","zip": "98372","zip+4": "0000","phone": "5092485153"}
{"name": "SAMS PHARMACY #104835","address1": "901 SOUTH GRADY WAY","address2": "","city": "RENTON","state": "WA","zip": "98057","zip+4": "0000","phone": "4257937937"}
{"name": "RXTRA CARE PHARMACY VIEW RIDGE","address1": "7317 35TH AVE NE","address2": "","city": "SEATTLE","state": "WA","zip": "98115","zip+4": "0000","phone": "2064178066"}
{"name": "BETHEL PHARMACY","address1": "17424HWY 99","address2": "STE 206","city": "LYNNWOOD","state": "WA","zip": "98037","zip+4": "0000","phone": "4257410075"}
{"name": "FRED MEYER PHARMACY #701665","address1": "1201 VALLEY AVE","address2": "","city": "SUMNER","state": "WA","zip": "98390","zip+4": "0000","phone": "2538268433"}
{"name": "GENOA HEALTHCARE #05","address1": "3322 BROADWAY","address2": "","city": "EVERETT","state": "WA","zip": "98201","zip+4": "0000","phone": "4257893050"}
{"name": "WALGREEN DRUG STORE #2205","address1": "12315 HIGHWAY 395","address2": "","city": "SPOKANE","state": "WA","zip": "99218","zip+4": "0000","phone": "5094663547"}
{"name": "HAGGEN #23","address1": "20115 74TH AVE NE","address2": "","city": "ARLINGTON","state": "WA","zip": "98223","zip+4": "0000","phone": "3604033861"}
{"name": "PAYLESS LTC PHARMACY","address1": "111 SOUTHEAST EVERETT MALL WAY","address2": "STE A100","city": "EVERETT","state": "WA","zip": "98208","zip+4": "0000","phone": "4252579645"}
{"name": "WALGREEN DRUG STORE #7677","address1": "1502 LAKE TAPPS PKWY","address2": "","city": "AUBURN","state": "WA","zip": "98092","zip+4": "0000","phone": "2533940031"}
{"name": "WALGREEN DRUG STORE #9380","address1": "6105 NE 114TH AVE","address2": "","city": "VANCOUVER","state": "WA","zip": "98662","zip+4": "0000","phone": "3602543844"}
{"name": "WALGREEN DRUG STORE #2670","address1": "1050 N MILLER ST","address2": "","city": "WENATCHEE","state": "WA","zip": "98801","zip+4": "0000","phone": "5096658555"}
{"name": "WALGREEN DRUG STORE #7352","address1": "1205 NE 50TH ST","address2": "","city": "SEATTLE","state": "WA","zip": "98105","zip+4": "0000","phone": "2062040170"}
{"name": "ARLINGTON PHARMACY PRIME CARE","address1": "16410 SMOKEY POINT BLVD","address2": "STE 107","city": "ARLINGTON","state": "WA","zip": "98223","zip+4": "0000","phone": "3606595919"}
{"name": "RITE AID PHARMACY # #06452","address1": "5655 3RD AVENUE","address2": "","city": "FERNDALE","state": "WA","zip": "98248","zip+4": "0098","phone": "3603841551"}
{"name": "WALGREEN DRUG STORE #1085","address1": "3328 NE 3RD AVE","address2": "","city": "CAMAS","state": "WA","zip": "98607","zip+4": "0000","phone": "3608357577"}
{"name": "TARGET PHARMACY #0681","address1": "26301 104TH AVE SE","address2": "","city": "KENT","state": "WA","zip": "98031","zip+4": "0000","phone": "2535181190"}
{"name": "TARGET PHARMACY #1883","address1": "8801 NE HAZEL DELL AVE","address2": "","city": "VANCOUVER","state": "WA","zip": "98665","zip+4": "0000","phone": "3607130005"}
{"name": "WALGREEN DRUG STORE #6901","address1": "28817 MILITARY RD S","address2": "","city": "FEDERAL WAY","state": "WA","zip": "98003","zip+4": "0000","phone": "2538390417"}
{"name": "WALGREEN DRUG STORE #7908","address1": "27130 172ND AVE SE","address2": "","city": "COVINGTON","state": "WA","zip": "98042","zip+4": "0000","phone": "2536303929"}
{"name": "WALGREEN DRUG STORE #7480","address1": "1701 AUBURN WAY SOUTH","address2": "","city": "AUBURN","state": "WA","zip": "98002","zip+4": "0000","phone": "2533940026"}
{"name": "WALGREEN DRUG STORE #1086","address1": "13009 NE HWY 99","address2": "","city": "VANCOUVER","state": "WA","zip": "98686","zip+4": "0000","phone": "3605740916"}
{"name": "WALGREEN DRUG STORE #1089","address1": "13503 SE MILL PLAIN BLVD","address2": "","city": "VANCOUVER","state": "WA","zip": "98684","zip+4": "0000","phone": "3602569874"}
{"name": "WALGREEN DRUG STORE #10141","address1": "2903 NE ANDERSON RD","address2": "","city": "VANCOUVER","state": "WA","zip": "98661","zip+4": "7329","phone": "3602561503"}
{"name": "SAMS PHARMACY #106687","address1": "13550 AURORA AVENUE NORTH","address2": "","city": "SEATTLE","state": "WA","zip": "98133","zip+4": "0000","phone": "2063611594"}
{"name": "WALGREEN DRUG STORE #6814","address1": "10302 SUNRISE BLVD E","address2": "","city": "PUYALLUP","state": "WA","zip": "98374","zip+4": "0000","phone": "2536041008"}
{"name": "BARTELL DRUGS #61","address1": "910 4TH AVENUE","address2": "","city": "SEATTLE","state": "WA","zip": "98164","zip+4": "1000","phone": "2066248394"}
{"name": "WALGREEN DRUG STORE #1090","address1": "1900C NE 162ND AVE","address2": "","city": "VANCOUVER","state": "WA","zip": "98684","zip+4": "0000","phone": "3608911827"}
{"name": "WALGREEN DRUG STORE #7700","address1": "34008 HOYT RD SW","address2": "","city": "FEDERAL WAY","state": "WA","zip": "98023","zip+4": "0000","phone": "2538381290"}
{"name": "WALGREEN DRUG STORE #7782","address1": "1901 MAIN ST","address2": "","city": "FERNDALE","state": "WA","zip": "98248","zip+4": "0000","phone": "3603847656"}
{"name": "WALGREEN DRUG STORE #1084","address1": "808 W MAIN ST","address2": "","city": "BATTLE GROUND","state": "WA","zip": "98604","zip+4": "0000","phone": "3606875133"}
{"name": "WALGREEN DRUG STORE #1097","address1": "3200 NE 52ND ST","address2": "","city": "VANCOUVER","state": "WA","zip": "98663","zip+4": "0000","phone": "3606960741"}
{"name": "WALGREEN DRUG STORE #1078","address1": "2005 W COURT ST","address2": "","city": "PASCO","state": "WA","zip": "99301","zip+4": "0000","phone": "5095454350"}
{"name": "COSTCO PHARMACY #772","address1": "6720 NE 84TH ST","address2": "","city": "VANCOUVER","state": "WA","zip": "98665","zip+4": "0000","phone": "3608282289"}
{"name": "ASSURED PHARMACY #3","address1": "12071 124TH AVE NE","address2": "","city": "KIRKLAND","state": "WA","zip": "98034","zip+4": "0000","phone": "4258201030"}
{"name": "BARTELL DRUGS #59","address1": "653 156TH AVENUE NE","address2": "","city": "BELLEVUE","state": "WA","zip": "98007","zip+4": "4823","phone": "4256419127"}
{"name": "WALGREEN DRUG STORE #1093","address1": "2521 MAIN ST","address2": "","city": "VANCOUVER","state": "WA","zip": "98660","zip+4": "0000","phone": "3606932521"}
{"name": "YAKIMA NEIGHBORHOOD HEALTH SER","address1": "12 S 8TH ST","address2": "","city": "YAKIMA","state": "WA","zip": "98901","zip+4": "0000","phone": "5098532354"}
{"name": "THE VANCOUVER CLINIC PHARMACY","address1": "501 SE 172ND AVE STE 120B","address2": "","city": "VANCOUVER","state": "WA","zip": "98684","zip+4": "0000","phone": "3603973602"}
{"name": "WAL-MART PHARMACY #105273","address1": "1284 WEST WASHINGTON STREET","address2": "","city": "SEQUIM","state": "WA","zip": "98382","zip+4": "0000","phone": "3606839453"}
{"name": "QFC PHARMACY #705887","address1": "417 BROADWAY E BOX 2","address2": "","city": "SEATTLE","state": "WA","zip": "98102","zip+4": "0000","phone": "2063286960"}
{"name": "TARGET PHARMACY #0996","address1": "755 NW GILMAN BLVD","address2": "","city": "ISSAQUAH","state": "WA","zip": "98027","zip+4": "0000","phone": "4255071020"}
{"name": "TARGET PHARMACY #1947","address1": "2201 S COMMONS","address2": "","city": "FEDERAL WAY","state": "WA","zip": "98003","zip+4": "0000","phone": "2537337521"}
{"name": "TARGET PHARMACY #1957","address1": "9400 192ND AVE E","address2": "","city": "BONNEY LAKE","state": "WA","zip": "98390","zip+4": "0000","phone": "2538626401"}
{"name": "KIRKS PHARMACY AT SUNRISE","address1": "11212 SUNRISE BLVD E STE 204","address2": "","city": "PUYALLUP","state": "WA","zip": "98374","zip+4": "8847","phone": "2537703408"}
{"name": "SEVAN PHARMACY","address1": "620 SE EVERETT MALL WAY","address2": "STE210 A","city": "EVERETT","state": "WA","zip": "98208","zip+4": "0000","phone": "4253485353"}
{"name": "LAKEWOOD PHARMACY","address1": "9601 SO TACOMA WAY","address2": "STE 105-106","city": "LAKEWOOD","state": "WA","zip": "98499","zip+4": "0000","phone": "2535813426"}
{"name": "FRANCISCAN HOSPICE PHARMACY","address1": "2901 BRIDGEPORT WAY","address2": "STE 128","city": "UNIVERSITY PLACE","state": "WA","zip": "98466","zip+4": "0000","phone": "2535347033"}
{"name": "METMEDS","address1": "5707 LACEY BLVD SE","address2": "SUITE 103","city": "LACEY","state": "WA","zip": "98503","zip+4": "2496","phone": "3604595401"}
{"name": "WAL-MART PHARMACY #105073","address1": "17432 SOUTHEAST 270TH PLACE","address2": "","city": "COVINGTON","state": "WA","zip": "98042","zip+4": "0000","phone": "2536308682"}
{"name": "PENINSULA COMMUNITY HEALTH SER","address1": "616 6TH ST","address2": "","city": "BREMERTON","state": "WA","zip": "98337","zip+4": "0000","phone": "3604753731"}
{"name": "CHAS PHARMACY","address1": "3919 N MAPLE ST","address2": "","city": "SPOKANE","state": "WA","zip": "99205","zip+4": "1349","phone": "5093431116"}
{"name": "QFC PHARMACY #705816","address1": "600 NW RICHMOND BEACH RD","address2": "","city": "SHORELINE","state": "WA","zip": "98177","zip+4": "0000","phone": "2605425469"}
{"name": "JONES HOME SERVICES","address1": "1005 W 9TH AVE","address2": "","city": "SPOKANE","state": "WA","zip": "99204","zip+4": "0000","phone": "5094629006"}
{"name": "REMEDIES PHARMACY","address1": "3005 ALDERWOOD MALL PKWY","address2": "STE 100","city": "LYNNWOOD","state": "WA","zip": "98036","zip+4": "0000","phone": "4257718090"}
{"name": "PAYLESS LONG TERM CARE PHARMAC","address1": "1224 E WESTVIEW CT","address2": "","city": "SPOKANE","state": "WA","zip": "99218","zip+4": "0000","phone": "5094273250"}
{"name": "WALGREEN DRUG STORE #9113","address1": "4000 W 27TH AVE","address2": "","city": "KENNEWICK","state": "WA","zip": "99337","zip+4": "0000","phone": "5095827773"}
{"name": "GENOA HEALTHCARE #08","address1": "5455 ALMIRA DRIVE NE","address2": "","city": "BREMERTON","state": "WA","zip": "98311","zip+4": "0000","phone": "3604156700"}
{"name": "A AND H PHARMACEUTICAL SERVICE","address1": "23826 104TH AVE SE","address2": "STE B","city": "KENT","state": "WA","zip": "98031","zip+4": "0000","phone": "2538521123"}
{"name": "SHIRAZ SPECIALTY PHARMACY","address1": "205 E CASINO RD","address2": "STE B16","city": "EVERETT","state": "WA","zip": "98208","zip+4": "0000","phone": "4253563094"}
{"name": "BATES PHARMACEUTICAL SERVICES","address1": "3704 N NEVADA","address2": "STE B","city": "SPOKANE","state": "WA","zip": "99207","zip+4": "0000","phone": "5094894500"}
{"name": "BRIDGEPORT PHARMACY #03405","address1": "20700 BOND ROAD NE","address2": "STE 10","city": "POULSBO","state": "WA","zip": "98370","zip+4": "0000","phone": "3607791121"}
{"name": "HART AND DILATUSH PHARMACY","address1": "601 W RIVERSIDE","address2": "STE 140","city": "SPOKANE","state": "WA","zip": "99201","zip+4": "0000","phone": "5096242111"}
{"name": "WALGREEN DRUG STORE #9590","address1": "5602 PACIFIC AVE","address2": "","city": "TACOMA","state": "WA","zip": "98408","zip+4": "0000","phone": "2532030026"}
{"name": "QFC PHARMACY #705828","address1": "11224 N E 124TH STREET","address2": "","city": "KIRKLAND","state": "WA","zip": "98034","zip+4": "0000","phone": "4258200440"}
{"name": "MEDICINE MAN LIBERTY LAKE LTC","address1": "23801 E APPLEWAY","address2": "STE 260B","city": "LIBERTY LAKE","state": "WA","zip": "99019","zip+4": "0000","phone": "5097553333"}
{"name": "BARTELL DRUGS #62","address1": "18420 AURORA AVENUE NORTH","address2": "","city": "SHORELINE","state": "WA","zip": "98133","zip+4": "4416","phone": "2065422948"}
{"name": "QFC PHARMACY #705878","address1": "23475 NE NOVELTY HILL RD","address2": "","city": "REDMOND","state": "WA","zip": "98053","zip+4": "0000","phone": "4256360440"}
{"name": "COSTCO PHARMACY #747","address1": "24008 SNOHOMISH WOODINVILLE RD","address2": "","city": "WOODINVILLE","state": "WA","zip": "98072","zip+4": "0000","phone": "4258067728"}
{"name": "1ST AVE PHARMACY","address1": "6 E 1ST AVE","address2": "","city": "SPOKANE","state": "WA","zip": "99202","zip+4": "0000","phone": "5096243017"}
{"name": "READY MEDS PHARMACY #1","address1": "1412 SW 43RD ST STE 120","address2": "","city": "KENTON","state": "WA","zip": "98055","zip+4": "0000","phone": "4252516335"}
{"name": "CENTRAL WASHINGTON FAMILY MEDI","address1": "1806 W LINCOLN AVE","address2": "","city": "YAKIMA","state": "WA","zip": "98902","zip+4": "0000","phone": "5094946719"}
{"name": "WALGREEN DRUG STORE #9379","address1": "8511 NE 162ND AVE","address2": "","city": "VANCOUVER","state": "WA","zip": "98682","zip+4": "0000","phone": "3605970120"}
{"name": "BARTELL DRUGS #64","address1": "7205 267TH STREET NW","address2": "","city": "STANWOOD","state": "WA","zip": "98292","zip+4": "6237","phone": "3609390572"}
{"name": "CHAS N COUNTY CLINIC","address1": "401 S MAIN ST","address2": "","city": "DEER PARK","state": "WA","zip": "99006","zip+4": "0000","phone": "5093431116"}
{"name": "WAL-MART PHARMACY #103380","address1": "4820 NORTH ROAD 68","address2": "","city": "PASCO","state": "WA","zip": "99301","zip+4": "0000","phone": "5095437947"}
{"name": "WAL-MART PHARMACY #105272","address1": "21200 OLHAVA WAY NW","address2": "","city": "POULSBO","state": "WA","zip": "98370","zip+4": "0000","phone": "3606972091"}
{"name": "WAL-MART PHARMACY #105462","address1": "430 SE 192ND AVE","address2": "","city": "VANCOUVER","state": "WA","zip": "98683","zip+4": "0000","phone": "3602566361"}
{"name": "GENOA HEALTHCARE #19","address1": "9330 59TH AVE SW","address2": "","city": "LAKEWOOD","state": "WA","zip": "98499","zip+4": "0000","phone": "2536205132"}
{"name": "WALGREEN DRUG STORE #9423","address1": "23003 PACIFIC HWY S","address2": "","city": "DES MOINES","state": "WA","zip": "98198","zip+4": "0000","phone": "2068704267"}
{"name": "LINCOLN PHARMACY LTC","address1": "821B S 38TH ST","address2": "","city": "TACOMA","state": "WA","zip": "98418","zip+4": "0000","phone": "2534731155"}
{"name": "TERRACE VILLAGE PHARMACY","address1": "4040 TERRACE HEIGHTS DR","address2": "STE 120","city": "YAKIMA","state": "WA","zip": "98901","zip+4": "0000","phone": "5092483311"}
{"name": "SNOQUALMIE VILLAGE PHARMACY","address1": "7730 CENTER BLVD SE","address2": "","city": "SNOQUALMIE","state": "WA","zip": "98065","zip+4": "0000","phone": "4259968484"}
{"name": "SHIRAZ SPECIALTY PHARMACY","address1": "205 E CASINO RD","address2": "STE B16","city": "EVERETT","state": "WA","zip": "98208","zip+4": "0000","phone": "4253563276"}
{"name": "WALGREEN DRUG STORE #10195","address1": "2800 W CLEARWATER AVE","address2": "","city": "KENNEWICK","state": "WA","zip": "99336","zip+4": "0000","phone": "5097352409"}
{"name": "PLAZA PHARMACY #1","address1": "11800 NE 128TH ST","address2": "STE 150","city": "KIRKLAND","state": "WA","zip": "98034","zip+4": "0000","phone": "4258992808"}
{"name": "HEALTHPOINT AUBURN PHARMACY","address1": "126 AUBURN AVE","address2": "STE 104","city": "AUBURN","state": "WA","zip": "98002","zip+4": "0000","phone": "2538043591"}
{"name": "SAFEWAY #0502","address1": "5702 SUMMITVIEW AVENUE","address2": "","city": "YAKIMA","state": "WA","zip": "98908","zip+4": "0000","phone": "5099653870"}
{"name": "SAFEWAY #1173","address1": "1243 MARVIN ROAD NE","address2": "","city": "LACEY","state": "WA","zip": "98516","zip+4": "0000","phone": "3602522235"}
{"name": "WALGREEN DRUG STORE #09596","address1": "585 GAGE BLVD","address2": "","city": "RICHLAND","state": "WA","zip": "99352","zip+4": "7761","phone": "5096283629"}
{"name": "VANCOUVER CLINIC PHCY SALMON C","address1": "2525 NE 139TH ST","address2": "","city": "VANCOUVER","state": "WA","zip": "98686","zip+4": "0000","phone": "3603973880"}
{"name": "WAL-MART PHARMACY #105195","address1": "11400 HWY 99","address2": "","city": "EVERETT","state": "WA","zip": "98204","zip+4": "0000","phone": "4259231751"}
{"name": "NORTHWEST HEALTH SYSTEMS INC","address1": "107 S DIVISION","address2": "","city": "SPOKANE","state": "WA","zip": "99202","zip+4": "0000","phone": "5097423492"}
{"name": "GENOA HEALTHCARE #22","address1": "1600 E OLIVE ST","address2": "","city": "SEATTLE","state": "WA","zip": "98122","zip+4": "0000","phone": "4258357110"}
{"name": "YOKES PHARMACY #14","address1": "1401 BOMBING RANGE RD","address2": "","city": "WEST RICHLAND","state": "WA","zip": "99353","zip+4": "8001","phone": "5099678008"}
{"name": "WALGREEN DRUG STORE #09373","address1": "17524 AURORA AVE N","address2": "","city": "SHORELINE","state": "WA","zip": "98133","zip+4": "4813","phone": "2065424964"}
{"name": "BARTELL DRUGS #65","address1": "5006A 132ND STREET SE","address2": "","city": "EVERETT","state": "WA","zip": "98208","zip+4": "9518","phone": "4253576162"}
{"name": "COSTCO PHARMACY #581","address1": "802 134TH STREET SW SUITE 140","address2": "","city": "EVERETT","state": "WA","zip": "98204","zip+4": "0000","phone": "8006076861"}
{"name": "COSTCO PHARMACY #740","address1": "1470 MARVIN RD NE","address2": "","city": "LACEY","state": "WA","zip": "98516","zip+4": "0000","phone": "3604123488"}
{"name": "FOURTEENTH AVE NEIGHBORHOOD PH","address1": "1200 N 14TH AVE","address2": "STE 100","city": "PASCO","state": "WA","zip": "99301","zip+4": "0000","phone": "5095478360"}
{"name": "RITE AID PHARMACY # #06455","address1": "17615 140TH AVENUE SOUTHEAST","address2": "","city": "RENTON","state": "WA","zip": "98058","zip+4": "6828","phone": "4252041585"}
{"name": "WALGREEN DRUG STORE #10107","address1": "633 W TIETAN ST","address2": "","city": "WALLA WALLA","state": "WA","zip": "99362","zip+4": "4329","phone": "5095291570"}
{"name": "PENINSULA COMM HLTH SVCS PT OR","address1": "320 S KITSAP BLVD","address2": "","city": "PORT ORCHARD","state": "WA","zip": "98366","zip+4": "0000","phone": "3608767215"}
{"name": "COSTCO PHARMACY #642","address1": "16616 TWIN LAKES AVE","address2": "","city": "MARYSVILLE","state": "WA","zip": "98271","zip+4": "4724","phone": "3606524539"}
{"name": "TARGET PHARMACY #0995","address1": "17700 NE 76TH ST","address2": "","city": "REDMOND","state": "WA","zip": "98052","zip+4": "0000","phone": "4252021000"}
{"name": "TARGET PHARMACY #2192","address1": "16818 TWIN LAKES AVE","address2": "","city": "MARYSVILLE","state": "WA","zip": "98271","zip+4": "0000","phone": "3603864021"}
{"name": "NORTHWEST MEDICATION MANAGEMEN","address1": "1536 N 115TH","address2": "SUITE 100A","city": "SEATTLE","state": "WA","zip": "98133","zip+4": "0000","phone": "2063681293"}
{"name": "WALGREEN DRUG STORE #09812","address1": "2939 OCEAN BEACH HWY","address2": "","city": "LONGVIEW","state": "WA","zip": "98632","zip+4": "3513","phone": "3602321021"}
{"name": "WALGREEN DRUG STORE #09911","address1": "4001 SUMMITVIEW AVE","address2": "SUITE 1","city": "YAKIMA","state": "WA","zip": "98908","zip+4": "2945","phone": "5099722986"}
{"name": "CONSONUS PHCY SVCS WA LLC","address1": "14729 NE 87TH ST","address2": "","city": "REDMOND","state": "WA","zip": "98052","zip+4": "0000","phone": "8773111499"}
{"name": "SKAGIT VALLEY MEDICAL CENTER P","address1": "1990 HOSPITAL DR","address2": "","city": "SEDRO WOOLLEY","state": "WA","zip": "98284","zip+4": "0000","phone": "3608542760"}
{"name": "RITE AID PHARMACY # #06498","address1": "2800 NORTHEAST 162 ND AVENUE","address2": "","city": "VANCOUVER","state": "WA","zip": "98682","zip+4": "8504","phone": "3602535613"}
{"name": "GENOA HEALTHCARE #49","address1": "402 S 4TH AVE","address2": "","city": "YAKIMA","state": "WA","zip": "98902","zip+4": "0000","phone": "5092485153"}
{"name": "TLC INTEGRATIVE PHARMACY","address1": "15600 NE 8TH ST","address2": "STE K8","city": "BELLEVUE","state": "WA","zip": "98008","zip+4": "0000","phone": "4256532323"}
{"name": "KELLY ROSS PHARMACY AT 2200 #4","address1": "910 LENORA ST","address2": "STE 152","city": "SEATTLE","state": "WA","zip": "98121","zip+4": "0000","phone": "2064053565"}
{"name": "PROPAC PHARMACY","address1": "1201 SE TECH CENTER DR","address2": "STE 170","city": "VANCOUVER","state": "WA","zip": "98683","zip+4": "0000","phone": "3602607156"}
{"name": "WAL-MART PHARMACY #103794","address1": "34520 16TH AVENUE SOUTH","address2": "","city": "FEDERAL WAY","state": "WA","zip": "98003","zip+4": "0000","phone": "2538354976"}
{"name": "WAL-MART PHARMACY #103754","address1": "108 APPLE BLOSSOM DRIVE","address2": "","city": "CHELAN","state": "WA","zip": "98816","zip+4": "0000","phone": "5096824634"}
{"name": "WAL-MART PHARMACY #103537","address1": "7001 BRIDGEPORT WAY WEST","address2": "","city": "LAKEWOOD","state": "WA","zip": "98499","zip+4": "0000","phone": "0253512060"}
{"name": "WAL-MART PHARMACY #103525","address1": "16502 MERIDAN AVE. EAST","address2": "","city": "PUYALLUP","state": "WA","zip": "98375","zip+4": "0000","phone": "2534461754"}
{"name": "GENOA HEALTHCARE #44","address1": "1010 S 146TH","address2": "","city": "SEATTLE","state": "WA","zip": "98168","zip+4": "0000","phone": "2062424446"}
{"name": "COMMUNITY HEALTH ASSOC OF SPOK","address1": "W 1001 2ND AVE","address2": "","city": "SPOKANE","state": "WA","zip": "99201","zip+4": "0000","phone": "5093431116"}
{"name": "WALGREEN DRUG STORE #10478","address1": "1601 GEORGE WASHINGTON WY","address2": "","city": "RICHLAND","state": "WA","zip": "99354","zip+4": "2626","phone": "5099432605"}
{"name": "WALGREEN DRUG STORE #06590","address1": "1531 BROADWAY BLVD","address2": "","city": "SEATTLE","state": "WA","zip": "98122","zip+4": "3810","phone": "2062040599"}
{"name": "WALGREEN DRUG STORE #10395","address1": "1610 NW LOUISANA AVE","address2": "","city": "CHECHALIS","state": "WA","zip": "98532","zip+4": "1711","phone": "3607401876"}
{"name": "HEALTHPOINT KENT PHARMACY","address1": "403 E MEEKER ST","address2": "STE 300","city": "KENT","state": "WA","zip": "98030","zip+4": "0000","phone": "2533723661"}
{"name": "PREMIER PHARMACY","address1": "5405 RAINIER AVE SOUTH","address2": "","city": "SEATTLE","state": "WA","zip": "98118","zip+4": "0000","phone": "2067228882"}
{"name": "QFC PHARMACY #705881","address1": "500 MERCER","address2": "","city": "SEATTLE","state": "WA","zip": "98109","zip+4": "0000","phone": "2063524030"}
{"name": "QFC PHARMACY #705842","address1": "17411 SE 272ND ST","address2": "","city": "COVINGTON","state": "WA","zip": "98042","zip+4": "0000","phone": "2536311200"}
{"name": "COMMUNITY HEALTH CARE PHARMACY","address1": "1708 E 44TH ST","address2": "","city": "TACOMA","state": "WA","zip": "98404","zip+4": "0000","phone": "2532842226"}
{"name": "RITE AID PHARMACY # #04063","address1": "12 N 9TH AVENUE","address2": "","city": "YAKIMA","state": "WA","zip": "98902","zip+4": "0000","phone": "5094522600"}
{"name": "RITE AID PHARMACY # #04065","address1": "8441 SE 68TH STREET","address2": "","city": "MERCER ISLAND","state": "WA","zip": "98040","zip+4": "0000","phone": "2062323000"}
{"name": "RITE AID PHARMACY # #04067","address1": "3307 EVERGREEN WAY","address2": "SUITE 4","city": "WASHOUGAL","state": "WA","zip": "98671","zip+4": "0000","phone": "3603359255"}
{"name": "WAL-MART PHARMACY #103705","address1": "17100 STATE ROUTE 507 SE","address2": "","city": "YELM","state": "WA","zip": "98597","zip+4": "0000","phone": "3604008062"}
{"name": "WALGREENS DRUG STORE #10304","address1": "14308 MERIDIAN AVE E","address2": "","city": "PUYALLUP","state": "WA","zip": "98375","zip+4": "0000","phone": "2536041051"}
{"name": "PHARMCA INTERGRATIVE PHARMACY","address1": "1815 N. 45TH STREET","address2": "","city": "SEATTLE","state": "WA","zip": "98103","zip+4": "0000","phone": "2065471208"}
{"name": "BARTELL DRUGS #63","address1": "2345 RAINIER AVE SO","address2": "","city": "SEATTLE","state": "WA","zip": "98144","zip+4": "5348","phone": "2063255725"}
{"name": "RITE AID PHARMACY # #06493","address1": "9502 176TH STREET EAST","address2": "","city": "PUYALLUP","state": "WA","zip": "98375","zip+4": "0000","phone": "2538465386"}
{"name": "EHS FIRST CARE MILLWOOD","address1": "2713 N ARGONNE","address2": "","city": "SPOKANE VALLEY","state": "WA","zip": "99212","zip+4": "0000","phone": "5099229254"}
{"name": "EHS FIRST CARE LIBERTY LAKE","address1": "2207 N MOLTER RD","address2": "","city": "LIBERTY LAKE","state": "WA","zip": "99019","zip+4": "0000","phone": "5094735850"}
{"name": "EHS FIRST CARE SOUTH HILL","address1": "3016 E 57TH","address2": "STE 24","city": "SPOKANE","state": "WA","zip": "99208","zip+4": "0000","phone": "5094486699"}
{"name": "EHS FIRST CARE NORTH","address1": "6208 N COLTON","address2": "","city": "SPOKANE","state": "WA","zip": "99208","zip+4": "0000","phone": "5094892373"}
{"name": "MILL CREEK PHARMACY","address1": "12800 BOTHELL EVERETT HWY","address2": "STE 140","city": "EVERETT","state": "WA","zip": "98208","zip+4": "0000","phone": "4253165454"}
{"name": "HADFIELDS HOMECARE PHARMACY","address1": "7320 216TH ST SW","address2": "STE 100B","city": "EDMONDS","state": "WA","zip": "98026","zip+4": "0000","phone": "4256733720"}
{"name": "KELLEY ROSS LONG TERM CARE","address1": "2324 EASTLAKE AVE E","address2": "STE 400","city": "SEATTLE","state": "WA","zip": "98102","zip+4": "0000","phone": "2068384590"}
{"name": "COSTCO PHARMACY #624","address1": "10990 HARBOR HILL DR","address2": "","city": "GIG HARBOR","state": "WA","zip": "98335","zip+4": "0000","phone": "2538538609"}
{"name": "PHARMACY BY THE BAY","address1": "2373 TOKELAND RD","address2": "BLGD E STE 145","city": "TOKELAND","state": "WA","zip": "98590","zip+4": "0000","phone": "3602678217"}
{"name": "TARGET PHARMACY #2314","address1": "2941 QUEENSGATE DR","address2": "","city": "RICHLAND","state": "WA","zip": "99352","zip+4": "0000","phone": "5096277501"}
{"name": "TARGET PHARMACY #2290","address1": "1215 LANDING WAY","address2": "","city": "RENTON","state": "WA","zip": "98055","zip+4": "0000","phone": "4252070078"}
{"name": "WALGREENS DRUG STORE #09765","address1": "5506 RD 68","address2": "","city": "PASCO","state": "WA","zip": "99301","zip+4": "0000","phone": "5095471789"}
{"name": "RITE AID PHARMACY # #06553","address1": "9007 N INDIAN TRAIL ROAD","address2": "","city": "SPOKANE","state": "WA","zip": "99208","zip+4": "9116","phone": "5094642791"}
{"name": "RELIANT RX LLC","address1": "125 S COWLEY","address2": "","city": "SPOKANE","state": "WA","zip": "99202","zip+4": "0000","phone": "5093433400"}
{"name": "SEATTLE MEDS","address1": "801 BROADWAY","address2": "STE 100","city": "SEATTLE","state": "WA","zip": "98122","zip+4": "0000","phone": "2063822087"}
{"name": "SEA MAR COMMUNITY HEALTH CENTE","address1": "3030 LIMITED LANE NW","address2": "","city": "OLYMPIA","state": "WA","zip": "98502","zip+4": "0000","phone": "3607047575"}
{"name": "WALGREEN DRUG STORE #10994","address1": "320 HARRISON ST","address2": "","city": "SEDRO WOOLLEY","state": "WA","zip": "98284","zip+4": "1035","phone": "3608550735"}
{"name": "WALGREEN DRUG STORE #11215","address1": "932 E FRONT ST","address2": "","city": "PORT ANGELES","state": "WA","zip": "98362","zip+4": "4015","phone": "3604574456"}
{"name": "SKAGIT VALLEY HOSPITAL OUTPATI","address1": "1415 E KINCAID","address2": "","city": "MOUNT VERNON","state": "WA","zip": "98274","zip+4": "0000","phone": "6304288528"}
{"name": "WAL-MART PHARMACY #104394","address1": "1221 SOUTH HAYFORD ROAD","address2": "","city": "SPOKANE","state": "WA","zip": "99224","zip+4": "0000","phone": "5094590614"}
{"name": "SAFEWAY #2645","address1": "5802 134TH PLACE SOUTH EAST","address2": "","city": "EVERETT","state": "WA","zip": "98208","zip+4": "0000","phone": "4253326179"}
{"name": "BIMART PHARMACY #674","address1": "2221 1ST STREET","address2": "","city": "CHENEY","state": "WA","zip": "99004","zip+4": "2049","phone": "5092354705"}
{"name": "MULTICARE GIG HARBOR PHARMACY","address1": "4545 POINT FOSDICK DR NW","address2": "","city": "GIG HARBOR","state": "WA","zip": "98335","zip+4": "0000","phone": "2535308030"}
{"name": "WALGREEN DRUG STORE #11214","address1": "31460 STATE ROUTE 20","address2": "","city": "OAK HARBOR","state": "WA","zip": "98277","zip+4": "0000","phone": "3606753497"}
{"name": "CAPITAL ONCOLOGY PLLC","address1": "3920 CAPITAL MALL DR SW","address2": "STE 100","city": "OLYMPIA","state": "WA","zip": "98502","zip+4": "0000","phone": "3607534700"}
{"name": "RITE AID PHARMACY # #06462","address1": "27000 MILLER BAY ROAD NORTHEAS","address2": "","city": "KINGSTON","state": "WA","zip": "98346","zip+4": "9404","phone": "3602975200"}
{"name": "WALGREEN DRUG STORE #07173","address1": "22320 MERIDIAN ST","address2": "","city": "GRAHAM","state": "WA","zip": "98338","zip+4": "0000","phone": "2538751824"}
{"name": "BARTELL DRUGS #67","address1": "1929 QUEEN ANNE AVE N","address2": "","city": "SEATTLE","state": "WA","zip": "98109","zip+4": "0000","phone": "2062851737"}
{"name": "FRED MEYER PHARMACY #701681","address1": "2801 BICKFORD AVE","address2": "","city": "SNOHOMISH","state": "WA","zip": "98290","zip+4": "0000","phone": "3605633733"}
{"name": "RITE AID PHARMACY #06488","address1": "105 WASHINGTON AVENUE NORTH","address2": "","city": "KENT","state": "WA","zip": "98032","zip+4": "4438","phone": "2533730156"}
{"name": "SAFEWAY PHARMACY #1624","address1": "735 NW GILMAN BLVD","address2": "","city": "ISSAQUAH","state": "WA","zip": "98027","zip+4": "0000","phone": "4255071042"}
{"name": "SAFEWAY PHARMACY #1600","address1": "300 BELLEVUE WAY","address2": "","city": "BELLEVUE","state": "WA","zip": "98004","zip+4": "0000","phone": "4257493889"}
{"name": "WALGREEN DRUG STORE #10788","address1": "1502 N LIBERTY LAKE RD","address2": "","city": "LIBERTY LAKE","state": "WA","zip": "99019","zip+4": "8631","phone": "5095700485"}
{"name": "WALGREEN DRUG STORE #10926","address1": "490 W WASHINGTON ST","address2": "","city": "SEQUIM","state": "WA","zip": "98382","zip+4": "0000","phone": "3606812018"}
{"name": "SWEDISH ORTHOPEDIC INSTITUTE P","address1": "601 BROADWAY","address2": "","city": "SEATTLE","state": "WA","zip": "98122","zip+4": "0000","phone": "2062159110"}
{"name": "SAFEWAY PHARMACY #4313","address1": "904 WEST MAIN STREET","address2": "","city": "BATTLEGROUND","state": "WA","zip": "98604","zip+4": "0000","phone": "3607239046"}
{"name": "HIGHLAND PHARMACY","address1": "31260 PACIFIC HWY S","address2": "STE 10","city": "FEDERAL WAY","state": "WA","zip": "98003","zip+4": "0000","phone": "2538391399"}
{"name": "BI MART PHARMACY #679","address1": "511 3RD STREET","address2": "","city": "CLARKSTON","state": "WA","zip": "99403","zip+4": "1969","phone": "5097588230"}
{"name": "QOL MEDS #150","address1": "2704 I STREET NE","address2": "","city": "AUBURN","state": "WA","zip": "98002","zip+4": "0000","phone": "2532882111"}
{"name": "TARGET PHARMACY #2136","address1": "10302 156TH ST E","address2": "","city": "PUYALLUP","state": "WA","zip": "98374","zip+4": "9321","phone": "2536041067"}
{"name": "BI-MART PHARMACY #678","address1": "412 S MAIN AVENUE","address2": "","city": "DEER PARK","state": "WA","zip": "99006","zip+4": "0000","phone": "5092769016"}
{"name": "WALGREENS #10995","address1": "3716 S 144TH ST","address2": "","city": "TUKWILA","state": "WA","zip": "98168","zip+4": "4045","phone": "2062041284"}
{"name": "RITE AID PHARMACY #06539","address1": "608 WEST STANLEY STREET","address2": "","city": "GRANITE FALLS","state": "WA","zip": "98252","zip+4": "8476","phone": "3606914659"}
{"name": "COSTCO PHARMACY #1029","address1": "27520 COVINGTON WAY SE","address2": "","city": "COVINGTON","state": "WA","zip": "98042","zip+4": "0000","phone": "2536303740"}
{"name": "MOMS PHARMACY","address1": "1017 EAST UNION STREET","address2": "","city": "SEATTLE","state": "WA","zip": "98122","zip+4": "0000","phone": "2065682486"}
{"name": "PHARMACY CARE","address1": "3301 184TH ST SW","address2": "","city": "LYNNWOOD","state": "WA","zip": "98037","zip+4": "0000","phone": "4256723344"}
{"name": "RITE AID PHARMACY # #06474","address1": "101 F STREET SOUTHEAST","address2": "","city": "QUINCY","state": "WA","zip": "98848","zip+4": "0000","phone": "7179755937"}
{"name": "GOOD PHARMACY","address1": "8741 SOUTH TACOMA WAY","address2": "","city": "LAKEWOOD","state": "WA","zip": "98499","zip+4": "0000","phone": "2535849164"}
{"name": "WALGREENS #13128 / PRESCRIPTIO","address1": "800 SWIFT BLVD","address2": "STE 160","city": "RICHLAND","state": "WA","zip": "99352","zip+4": "3549","phone": "5099439121"}
{"name": "RITE AID PHARMACY #06544","address1": "23940 NE STATE ROUTE 3","address2": "","city": "BELFAIR","state": "WA","zip": "98528","zip+4": "9697","phone": "3602758964"}
{"name": "COMMUNITY HEALTH OF CENTRAL WA","address1": "521 E. MOUNTAIN VIEW AVE","address2": "","city": "ELLENSBURG","state": "WA","zip": "98926","zip+4": "0000","phone": "5099621470"}
{"name": "WALGREENS #12275","address1": "610 W YAKIMA AVE","address2": "","city": "YAKIMA","state": "WA","zip": "98902","zip+4": "3365","phone": "5094690246"}
{"name": "KIRKS AT BHR","address1": "4422 6TH AVE SE","address2": "","city": "LACEY","state": "WA","zip": "98503","zip+4": "0000","phone": "3604562030"}
{"name": "RITE AID PHARMACY #06521","address1": "22201 MERIDIAN AVENUE EAST","address2": "","city": "GRAHAM","state": "WA","zip": "98338","zip+4": "8987","phone": "2538469455"}
{"name": "INTERNATIONAL PHARMACY #001","address1": "11228 BRIDGEPORT WAY SW","address2": "","city": "LAKEWOOD","state": "WA","zip": "98027","zip+4": "0000","phone": "2533024553"}
{"name": "READY MEDS PHARMACY #001","address1": "1412 SW 43RD ST","address2": "STE 120B","city": "RENTON","state": "WA","zip": "98057","zip+4": "0000","phone": "4252516335"}
{"name": "INTERNATIONAL PHARMACY LTC #00","address1": "11228 BRIDGEPORT WAY SW","address2": "SUITE B","city": "LAKEWOOD","state": "WA","zip": "98499","zip+4": "0000","phone": "2533024559"}
{"name": "WALGREENS #02647","address1": "200 E BROADWAY AVE","address2": "","city": "MOSES LAKE","state": "WA","zip": "98837","zip+4": "0000","phone": "5097651217"}
{"name": "MEDICINE SHOPPE #0106","address1": "207 PROFESSIONAL WAY","address2": "","city": "SHELTON","state": "WA","zip": "98584","zip+4": "0000","phone": "3604264272"}
{"name": "MEDICINE SHOPPE #0112","address1": "1327 W. NORTHWEST BLVD","address2": "","city": "SPOKANE","state": "WA","zip": "99205","zip+4": "0000","phone": "5093271504"}
{"name": "MEDICINE SHOPPE #1788","address1": "11 E H STREET","address2": "SUITE A","city": "DEER PARK","state": "WA","zip": "99006","zip+4": "0000","phone": "5092765081"}
{"name": "MEDICINE SHOPPE #0261","address1": "1210 E MAIN","address2": "","city": "PUYALLUP","state": "WA","zip": "98372","zip+4": "0000","phone": "2538481597"}
{"name": "MEDICAL ONCOLOGY ASSOCIATES PS","address1": "6001 NORTH MAYFAIR","address2": "","city": "SPOKANE","state": "WA","zip": "99208","zip+4": "0000","phone": "5094622273"}
{"name": "VISTA ONCOLOGY INC PS","address1": "141LILLY ROAD NE","address2": "","city": "OLYMPIA","state": "WA","zip": "98506","zip+4": "0000","phone": "3604138880"}
{"name": "RITE AID PHARMACY #06503","address1": "3733 116TH STREET NORTHEAST","address2": "","city": "MARYSVILLE","state": "WA","zip": "98271","zip+4": "8423","phone": "3606535178"}
{"name": "WALGREENS #12497","address1": "4105 NE 4TH ST","address2": "","city": "RENTON","state": "WA","zip": "98059","zip+4": "5012","phone": "4252071278"}
{"name": "WALGREENS #13768","address1": "1200 N 14TH AVE","address2": "#100","city": "PASCO","state": "WA","zip": "99301","zip+4": "4182","phone": "5095471220"}
{"name": "WALGREENS #13769","address1": "400 E 5TH AVE#102","address2": "","city": "SPOKANE","state": "WA","zip": "99202","zip+4": "1334","phone": "5098380175"}
{"name": "WALGREENS #12910","address1": "4840 BORGEN BLVD NW","address2": "","city": "GIG HARBOR","state": "WA","zip": "98332","zip+4": "6826","phone": "2538539340"}
{"name": "PLANNED PARENTHOOD OF THE GREA","address1": "2001 E MADISON","address2": "","city": "SEATTLE","state": "WA","zip": "98122","zip+4": "0000","phone": "2537793934"}
{"name": "KIRKS PHARMACY AT HARTLAND","address1": "3909 10TH ST SE STE 2","address2": "","city": "PUYALLUP","state": "WA","zip": "98374","zip+4": "2189","phone": "2538482011"}
{"name": "WALGREENS #12168","address1": "3929 KITSAP WAY","address2": "","city": "BREMERTON","state": "WA","zip": "98312","zip+4": "2451","phone": "3609171041"}
{"name": "BARTELL DRUGS #69","address1": "18001 BOTHELL EVERETT HIGHWAY","address2": "SUITE 101","city": "BOTHELL","state": "WA","zip": "98012","zip+4": "0000","phone": "4254026485"}
{"name": "WALGREENS #12053","address1": "6400 W NOB HILL BLVD","address2": "","city": "YAKIMA","state": "WA","zip": "98908","zip+4": "0000","phone": "5099650541"}
{"name": "WALGREENS #11856","address1": "566 DENNY WAY","address2": "","city": "SEATTLE","state": "WA","zip": "98109","zip+4": "5012","phone": "2062041982"}
{"name": "WALGREENS #12933","address1": "718 91ST AVE NE","address2": "","city": "LAKE STEVENS","state": "WA","zip": "98258","zip+4": "2420","phone": "4253341523"}
{"name": "BARTELL DRUGS # #7","address1": "5700 E LAKE SAMMAMISH PKWY SE","address2": "","city": "ISSAQUAH","state": "WA","zip": "98029","zip+4": "8914","phone": "4253916408"}
{"name": "FRED MEYER PHARMACY #688","address1": "2902 164TH ST SW","address2": "","city": "LYNNWOOD","state": "WA","zip": "98037","zip+4": "0000","phone": "4257874933"}
{"name": "QFC WEST SEATTLE # #883","address1": "4550 42ND AVE SW","address2": "","city": "SEATTLE","state": "WA","zip": "98116","zip+4": "4225","phone": "2069236391"}
{"name": "EDMONDS PHARMACY","address1": "7631 212TH ST SW STE D-100","address2": "","city": "EDMONDS","state": "WA","zip": "98026","zip+4": "7565","phone": "4259774880"}
{"name": "NAVOS","address1": "2600 SW HOLDEN ST","address2": "","city": "SEATTLE","state": "WA","zip": "98126","zip+4": "3505","phone": "2069337219"}
{"name": "SOUTHWEST PHARMACY AT MEMO","address1": "100 E 33RD STREET  STE 101","address2": "","city": "VANCOUVER","state": "WA","zip": "98663","zip+4": "2776","phone": "3605141290"}
{"name": "BARTELL DRUG CO","address1": "4727 DENVER AVE S","address2": "","city": "SEATTLE","state": "WA","zip": "98134","zip+4": "2316","phone": "2067671352"}
{"name": "YAKIMA VLY FARM WKRS CLN P","address1": "518 WEST FIRST AVENUE","address2": "","city": "TOPPENISH","state": "WA","zip": "98944","zip+4": "0000","phone": "5098823977"}
{"name": "HAGGEN FOOD & PHARMACY","address1": "PO BOX 9704","address2": "","city": "BELLINGHAM","state": "WA","zip": "98227","zip+4": "9704","phone": "3607338720"}
{"name": "YOKE'S PHARMACIES","address1": "3426 SOUTH UNIVERSITY ROAD","address2": "SUITE 200","city": "SPOKANE","state": "WA","zip": "99206","zip+4": "0000","phone": "5099212292"}