{"name": "SNITEMAN PHARMACY","address1": "528 HEWETT ST","address2": "","city": "NEILLSVILLE","state": "WI","zip": "54456","zip+4": "1975","phone": "7157433500"}
{"name": "AURORA PHARMACY 040 MANITOWOC","address1": "601 REED AVE","address2": "","city": "MANITOWOC","state": "WI","zip": "54221","zip+4": "0000","phone": "9206865237"}
{"name": "WALGREEN DRUG STORE #2921","address1": "1901 SOUTH ONEIDA ST","address2": "","city": "APPLETON","state": "WI","zip": "54915","zip+4": "0000","phone": "9207397323"}
{"name": "WALGREEN DRUG STORE #6096","address1": "1901 PRAIRIE AVE","address2": "","city": "BELOIT","state": "WI","zip": "53511","zip+4": "0000","phone": "6083652286"}
{"name": "WALGREEN DRUG STORE #7797","address1": "15738 CAPITOL DRIVE","address2": "","city": "BROOKFIELD","state": "WI","zip": "53005","zip+4": "0000","phone": "2627816920"}
{"name": "WALGREEN DRUG STORE #9839","address1": "6241 S PACKARD AVE","address2": "","city": "CUDAHY","state": "WI","zip": "53110","zip+4": "0000","phone": "4147629714"}
{"name": "WALGREEN DRUG STORE #6058","address1": "4296 S 76TH ST","address2": "","city": "GREENFIELD","state": "WI","zip": "53220","zip+4": "0000","phone": "4143217600"}
{"name": "WALGREEN DRUG STORE #518","address1": "5711 SIXTH","address2": "","city": "KENOSHA","state": "WI","zip": "53140","zip+4": "0000","phone": "2626548674"}
{"name": "WALGREEN DRUG STORE #4720","address1": "2222 W CAPITOL","address2": "","city": "MILWAUKEE","state": "WI","zip": "53206","zip+4": "0000","phone": "4148711940"}
{"name": "WALGREEN DRUG STORE #1460","address1": "1101 W MITCHELL","address2": "","city": "MILWAUKEE","state": "WI","zip": "53204","zip+4": "0000","phone": "4143836790"}
{"name": "WALGREEN DRUG STORE #3813","address1": "3522 WEST WISCONSIN","address2": "","city": "MILWAUKEE","state": "WI","zip": "53208","zip+4": "0000","phone": "4143420151"}
{"name": "WALGREEN DRUG STORE #07809","address1": "2625 W NATIONAL AVE","address2": "","city": "MILWAUKEE","state": "WI","zip": "53204","zip+4": "1068","phone": "4143834021"}
{"name": "WALGREEN DRUG STORE #649","address1": "3701 S HOWELL AVE","address2": "","city": "MILWAUKEE","state": "WI","zip": "53207","zip+4": "0000","phone": "4144821230"}
{"name": "WALGREEN DRUG STORE #4350","address1": "3333 S 27TH","address2": "","city": "MILWAUKEE","state": "WI","zip": "53215","zip+4": "0000","phone": "4146715061"}
{"name": "WALGREEN DRUG STORE #7370","address1": "6442 N 76TH ST","address2": "","city": "MILWAUKEE","state": "WI","zip": "53223","zip+4": "0000","phone": "4143534740"}
{"name": "WALGREEN DRUG STORE #665","address1": "1600 W WISCONSIN","address2": "","city": "MILWAUKEE","state": "WI","zip": "53233","zip+4": "0000","phone": "4143441834"}
{"name": "WALGREEN DRUG STORE #3022","address1": "819 N MEMORIAL","address2": "","city": "RACINE","state": "WI","zip": "53404","zip+4": "0000","phone": "2626373900"}
{"name": "WALGREEN DRUG STORE #3732","address1": "2901 SOUTH CHICAGO AVE","address2": "","city": "SOUTH MILWAUKEE","state": "WI","zip": "53172","zip+4": "0000","phone": "4147629650"}
{"name": "WALGREEN DRUG STORE #3578","address1": "2275 N MAYFAIR RD","address2": "","city": "WAUWATOSA","state": "WI","zip": "53226","zip+4": "0000","phone": "4147744823"}
{"name": "WALGREEN DRUG STORE #7009","address1": "105 CENTRAL BRIDGE ST","address2": "","city": "WAUSAU","state": "WI","zip": "54401","zip+4": "0000","phone": "7158458278"}
{"name": "WALGREEN DRUG STORE #7437","address1": "3825 DURAND AVE","address2": "","city": "RACINE","state": "WI","zip": "53405","zip+4": "0000","phone": "2625548687"}
{"name": "WALGREEN DRUG STORE #1200","address1": "275 W WISCONSIN AVE","address2": "","city": "MILWAUKEE","state": "WI","zip": "53203","zip+4": "0000","phone": "4142735420"}
{"name": "WALGREEN DRUG STORE #6570","address1": "1029 N 14TH ST","address2": "","city": "SHEBOYGAN","state": "WI","zip": "53081","zip+4": "0000","phone": "9204588780"}
{"name": "LAKESHORE PHARMACY","address1": "3310 CALUMET AVE","address2": "","city": "MANITOWOC","state": "WI","zip": "54220","zip+4": "4639","phone": "9203204400"}
{"name": "WALGREEN DRUG STORE #9549","address1": "5400 N PORT WASHINGTON","address2": "","city": "GLENDALE","state": "WI","zip": "53217","zip+4": "0000","phone": "4149670387"}
{"name": "AURORA PHARMACY 030 OSHKOSH #0","address1": "2101 BOWEN STREET","address2": "","city": "OSHKOSH","state": "WI","zip": "54901","zip+4": "0000","phone": "9203035006"}
{"name": "SCHULTZ PHARMACY","address1": "220 N MAIN ST","address2": "","city": "OSHKOSH","state": "WI","zip": "54901","zip+4": "4855","phone": "9202332151"}
{"name": "MORTON PHARMACY","address1": "601 W COLLEGE AVE","address2": "","city": "APPLETON","state": "WI","zip": "54911","zip+4": "0000","phone": "9207385820"}
{"name": "MORTON PHARMACY","address1": "916 E MAIN STREET","address2": "","city": "WINNECONNE","state": "WI","zip": "54986","zip+4": "0130","phone": "9205824414"}
{"name": "RIPON DRUG","address1": "328 WATSON ST","address2": "","city": "RIPON","state": "WI","zip": "54971","zip+4": "1517","phone": "9207485174"}
{"name": "CONSUMER PRESCRIPTION CTR","address1": "2310 COLLEGE AVE","address2": "","city": "APPLETON","state": "WI","zip": "54914","zip+4": "0000","phone": "9207399232"}
{"name": "HOMECARES BELOIT CLINIC PHCY","address1": "1905 HUEBBE PKY","address2": "","city": "BELOIT","state": "WI","zip": "53511","zip+4": "1842","phone": "6083627000"}
{"name": "MERCY MALL PHARMACY","address1": "1010 N WASHINGTON ST","address2": "","city": "JANESVILLE","state": "WI","zip": "53548","zip+4": "1561","phone": "6087540286"}
{"name": "PINNOW PHARMACY INC","address1": "1028 FIRST CENTER AVE","address2": "","city": "BRODHEAD","state": "WI","zip": "53520","zip+4": "1420","phone": "6088972595"}
{"name": "MERCY EAST PHARMACY","address1": "3524 E MILWAUKEE ST","address2": "","city": "JANESVILLE","state": "WI","zip": "53546","zip+4": "1626","phone": "6087545194"}
{"name": "KEALEY PHARMACY AND HOMECARE I","address1": "21 S JACKSON ST","address2": "","city": "JANESVILLE","state": "WI","zip": "53548","zip+4": "0000","phone": "6087527869"}
{"name": "OMRO PHARMACY","address1": "109 E MAIN ST","address2": "","city": "OMRO","state": "WI","zip": "54963","zip+4": "1415","phone": "9206855041"}
{"name": "LAABS INC","address1": "911 NORTH 27TH ST","address2": "","city": "MILWAUKEE","state": "WI","zip": "53208","zip+4": "0000","phone": "4143420145"}
{"name": "WEST SALEM PHARMACY","address1": "126 S LEONARD ST","address2": "","city": "WEST SALEM","state": "WI","zip": "54669","zip+4": "1621","phone": "6087860210"}
{"name": "TUTTLES PHARMACY INC","address1": "102 S MAIN ST","address2": "","city": "FT ATKINSON","state": "WI","zip": "53538","zip+4": "0092","phone": "9205632458"}
{"name": "DALY DRUG INC","address1": "3215 8TH ST S","address2": "","city": "WISCONSIN RAPIDS","state": "WI","zip": "54494","zip+4": "6535","phone": "7154233400"}
{"name": "STREUS PHARMACY INC","address1": "635 MAIN ST","address2": "","city": "GREEN BAY","state": "WI","zip": "54301","zip+4": "4893","phone": "9204370206"}
{"name": "LARSEN MAYER PHARMACY","address1": "3535 30TH AVE","address2": "STE 103","city": "KENOSHA","state": "WI","zip": "53144","zip+4": "0000","phone": "2626588124"}
{"name": "TOBINS PHARMACY","address1": "1260 A BROWN STREET","address2": "","city": "OCONOMOWOC","state": "WI","zip": "53066","zip+4": "3099","phone": "2625676651"}
{"name": "FIELD PHARMACY LLC","address1": "135 W HURON ST","address2": "","city": "BERLIN","state": "WI","zip": "54923","zip+4": "1545","phone": "9203611565"}
{"name": "VALUCARE PHARMACY","address1": "501 S GRAND AVE","address2": "","city": "WAUKESHA","state": "WI","zip": "53186","zip+4": "0000","phone": "2625446622"}
{"name": "BURLEIGH SERV-U PHCY","address1": "5300 W BURLEIGH ST","address2": "","city": "MILWAUKEE","state": "WI","zip": "53210","zip+4": "1622","phone": "4144459664"}
{"name": "EDGERTON HEALTHMART PHARMACY","address1": "711 N MAIN ST","address2": "","city": "EDGERTON","state": "WI","zip": "53534","zip+4": "0000","phone": "6088843308"}
{"name": "MIDELFORT PHARMACY AND HOME ME","address1": "325 E MADISON ST","address2": "","city": "EAU CLAIRE","state": "WI","zip": "54703","zip+4": "3589","phone": "7158381800"}
{"name": "MCGLYNN PHARMACY INC","address1": "100 E MAIN ST","address2": "","city": "STOUGHTON","state": "WI","zip": "53589","zip+4": "0000","phone": "6088733244"}
{"name": "CARTER DRUG STORE INC","address1": "2400 W BURLEIGH ST","address2": "","city": "MILWAUKEE","state": "WI","zip": "53206","zip+4": "1299","phone": "4144428760"}
{"name": "KRIDER PHARMACY","address1": "1119 W MASON ST","address2": "","city": "GREEN BAY","state": "WI","zip": "54303","zip+4": "1895","phone": "9204996225"}
{"name": "SPRING VALLEY DRUG","address1": "104 S MCKAY AVE","address2": "PO BOX 100","city": "SPRING VALLEY","state": "WI","zip": "54767","zip+4": "0000","phone": "7157785684"}
{"name": "SWAN SERV U PHARMACY","address1": "9130 W NORTH AVE","address2": "","city": "WAUWATOSA","state": "WI","zip": "53226","zip+4": "2696","phone": "4142589550"}
{"name": "KONSELLA HEALTH MART PHARMACY","address1": "224 N BRIDGE ST","address2": "","city": "CHIPPEWA FALLS","state": "WI","zip": "54729","zip+4": "2481","phone": "7157239177"}
{"name": "HEIKE PHARMACY INC #1","address1": "213 W MAIN ST","address2": "","city": "DURAND","state": "WI","zip": "54736","zip+4": "1194","phone": "7156725202"}
{"name": "SHOPKO PHARMACY #1","address1": "216 S MILITARY AVE","address2": "","city": "GREEN BAY","state": "WI","zip": "54303","zip+4": "2498","phone": "9204990895"}
{"name": "FREEMAN DRUG","address1": "104 S MAIN ST","address2": "","city": "RIVER FALLS","state": "WI","zip": "54022","zip+4": "2496","phone": "7154252255"}
{"name": "JEROME DRUGS MUSKEGO","address1": "S 75 W 17301 JANESVILLE ROAD","address2": "PO BOX 26","city": "MUSKEGO","state": "WI","zip": "53150","zip+4": "0000","phone": "2626791800"}
{"name": "MONDOVI HEALTH MART PHARMACY","address1": "122 S EAU CLAIRE ST","address2": "","city": "MONDOVI","state": "WI","zip": "54755","zip+4": "1504","phone": "7159264938"}
{"name": "THE CLINIC PHARMACY","address1": "515 22ND AVE","address2": "","city": "MONROE","state": "WI","zip": "53566","zip+4": "0000","phone": "6083253111"}
{"name": "MEDICINE MART","address1": "718 8TH ST","address2": "","city": "MONROE","state": "WI","zip": "53566","zip+4": "0000","phone": "6083288263"}
{"name": "MILLER PHARMACY","address1": "318 N MAIN ST","address2": "","city": "CADOTT","state": "WI","zip": "54727","zip+4": "0000","phone": "7152893243"}
{"name": "DEGEN BERGLUND PHARMACY","address1": "2442 STATE RD","address2": "","city": "LA CROSSE","state": "WI","zip": "54601","zip+4": "0000","phone": "6087758585"}
{"name": "SCHULTZ PHARMACY","address1": "1008 17TH AVE","address2": "","city": "MONROE","state": "WI","zip": "53566","zip+4": "0000","phone": "6083252151"}
{"name": "SHOPKO PHARMACY #4","address1": "2430 E MASON ST","address2": "","city": "GREEN BAY","state": "WI","zip": "54302","zip+4": "3759","phone": "9204686044"}
{"name": "WHEATON FRANCISCAN PHARMACY #4","address1": "3811 SPRING ST","address2": "","city": "RACINE","state": "WI","zip": "53405","zip+4": "0000","phone": "2626871600"}
{"name": "THOMPSONS SERV U PHARMACY","address1": "1421 E CAPITOL DR","address2": "","city": "SHOREWOOD","state": "WI","zip": "53211","zip+4": "1990","phone": "4149629665"}
{"name": "VALUCARE CENTER HEALTHMART PHA","address1": "1435 MAIN ST","address2": "","city": "MARINETTE","state": "WI","zip": "54143","zip+4": "2492","phone": "7157320717"}
{"name": "QUILLINS MAJOR DRUG","address1": "3954 MORMON COULEE RD","address2": "","city": "LA CROSSE","state": "WI","zip": "54601","zip+4": "0000","phone": "6087846200"}
{"name": "MORTON PHARMACY","address1": "N162 EISENHOWER DRIVE","address2": "SUITE 100","city": "APPLETON","state": "WI","zip": "54915","zip+4": "0000","phone": "9207314830"}
{"name": "THE PRESCRIPTION CENTER","address1": "1907 W AVE S","address2": "","city": "LA CROSSE","state": "WI","zip": "54601","zip+4": "6288","phone": "6087884500"}
{"name": "KASSEL CITY DRUG","address1": "100 N MAIN ST","address2": "","city": "ALMA","state": "WI","zip": "54610","zip+4": "9657","phone": "6086853261"}
{"name": "CHET JOHNSON DRUGS INC","address1": "204 KELLER AVE N","address2": "","city": "AMERY","state": "WI","zip": "54001","zip+4": "0000","phone": "7152688121"}
{"name": "LAKESIDE PHARMACY","address1": "536 5TH AVE","address2": "","city": "ANTIGO","state": "WI","zip": "54409","zip+4": "0000","phone": "7156232631"}
{"name": "WALLY SHONG HEALTH MART PHARMA","address1": "120 W LINCOLN ST","address2": "","city": "AUGUSTA","state": "WI","zip": "54722","zip+4": "0000","phone": "7152862515"}
{"name": "VILLAGE PHARMACY","address1": "840 MAIN ST","address2": "","city": "BALDWIN","state": "WI","zip": "54002","zip+4": "0005","phone": "7156842684"}
{"name": "CORNER DRUG","address1": "522 OAK ST","address2": "","city": "BARABOO","state": "WI","zip": "53913","zip+4": "0000","phone": "6083568701"}
{"name": "JAMES PHARMACY","address1": "337 E LASALLE AVE","address2": "","city": "BARRON","state": "WI","zip": "54812","zip+4": "1502","phone": "7155375005"}
{"name": "SHOPKO PHARMACY #14","address1": "822 PARK AVE","address2": "","city": "BEAVER DAM","state": "WI","zip": "53916","zip+4": "2266","phone": "9208877461"}
{"name": "BLACK RIVER FALLS CLINIC PHARM","address1": "610 W ADAMS ST","address2": "","city": "BLACK RIVER FALLS","state": "WI","zip": "54615","zip+4": "9110","phone": "7152844089"}
{"name": "ED'S HEALTH MART PHARMACY","address1": "1511 MAIN ST","address2": "","city": "BLOOMER","state": "WI","zip": "54724","zip+4": "1683","phone": "7155682190"}
{"name": "BOHLMAN DRUGSTORE","address1": "1028 WISCONSIN AVE","address2": "","city": "BOSCOBEL","state": "WI","zip": "53805","zip+4": "1598","phone": "6083754466"}
{"name": "HEALTH MART O CONNOR PHARMACY","address1": "109 S MAIN STREET","address2": "","city": "BRILLION","state": "WI","zip": "54110","zip+4": "0000","phone": "9207562841"}
{"name": "SHARROW DRUGS INC","address1": "100 S LUDINGTON ST","address2": "","city": "COLUMBUS","state": "WI","zip": "53925","zip+4": "1516","phone": "9206232700"}
{"name": "CRANDON PHARMACY","address1": "101 N LAKE AVE","address2": "","city": "CRANDON","state": "WI","zip": "54520","zip+4": "1386","phone": "7154783313"}
{"name": "CROSS PLAINS PHARMACY","address1": "1910 MAIN ST","address2": "","city": "CROSS PLAINS","state": "WI","zip": "53528","zip+4": "0000","phone": "6087983031"}
{"name": "THE APOTHECARY","address1": "1470 WEBB ST","address2": "","city": "CUMBERLAND","state": "WI","zip": "54829","zip+4": "9187","phone": "7158222424"}
{"name": "SCHNEIDER DRUG","address1": "1296 2ND AVE","address2": "","city": "CUMBERLAND","state": "WI","zip": "54829","zip+4": "9563","phone": "7158222434"}
{"name": "WHITFORD PHARMACY INC","address1": "327 MAIN ST","address2": "PO BOX 185","city": "DARLINGTON","state": "WI","zip": "53530","zip+4": "0000","phone": "6087764481"}
{"name": "CORNER DRUG HOMETOWN PHARMACY","address1": "206 N IOWA ST","address2": "","city": "DODGEVILLE","state": "WI","zip": "53533","zip+4": "1548","phone": "6089353661"}
{"name": "KREMER PHARMACY","address1": "9 N MAIN ST","address2": "","city": "FOND DU LAC","state": "WI","zip": "54935","zip+4": "3426","phone": "9209212550"}
{"name": "GALESVILLE PHARMACY","address1": "16812 S MAIN ST","address2": "","city": "GALESVILLE","state": "WI","zip": "54630","zip+4": "7175","phone": "6085822446"}
{"name": "WOOD RIVER PHARMACY","address1": "122 W MADISON AVE","address2": "PO BOX 39","city": "GRANTSBURG","state": "WI","zip": "54840","zip+4": "0039","phone": "7154632525"}
{"name": "MICKLESEN DRUG INC","address1": "530 2ND ST","address2": "","city": "HUDSON","state": "WI","zip": "54016","zip+4": "1512","phone": "7153863344"}
{"name": "WHITE CROSS PHARMACY","address1": "314 SILVER ST","address2": "","city": "HURLEY","state": "WI","zip": "54534","zip+4": "1254","phone": "7155615666"}
{"name": "THE DRUG STORE AND MUELLER DRU","address1": "132 S MAIN ST","address2": "","city": "JEFFERSON","state": "WI","zip": "53549","zip+4": "0000","phone": "9206745733"}
{"name": "SHOPKO PHARMACY #20","address1": "2400 ROSE ST","address2": "","city": "LA CROSSE","state": "WI","zip": "54603","zip+4": "1612","phone": "6087813300"}
{"name": "FSH CLINIC PHARMACY","address1": "800 WEST AVE S","address2": "","city": "LA CROSSE","state": "WI","zip": "54601","zip+4": "4700","phone": "6087919855"}
{"name": "FSH MED CENTER PHARMACY","address1": "700 WEST AVE SOUTH","address2": "","city": "LA CROSSE","state": "WI","zip": "54601","zip+4": "4796","phone": "6087919724"}
{"name": "HARTIG DRUG CO INC #18","address1": "139 W MAPLE ST","address2": "","city": "LANCASTER","state": "WI","zip": "53813","zip+4": "0000","phone": "6087234737"}
{"name": "LAND O LAKES HEALTH CARE PHCY","address1": "4348A HWY B","address2": "","city": "LAND O LAKES","state": "WI","zip": "54540","zip+4": "1079","phone": "7155473788"}
{"name": "HARRIS HEALTH MART PHARMACY","address1": "801 N MAIN ST","address2": "","city": "LODI","state": "WI","zip": "53555","zip+4": "1218","phone": "6085923256"}
{"name": "MALLATT PHARMACY INC #1","address1": "3506 MONROE STREET","address2": "","city": "MADISON","state": "WI","zip": "53711","zip+4": "0000","phone": "6082383106"}
{"name": "SHAFER PHARMACY INC","address1": "1255 WILLIAMSON ST","address2": "","city": "MADISON","state": "WI","zip": "53703","zip+4": "3794","phone": "6082559116"}
{"name": "NEUHAUSER PHARMACY","address1": "1875 MONROE ST","address2": "","city": "MADISON","state": "WI","zip": "53711","zip+4": "2024","phone": "6082568712"}
{"name": "HEALTH MART MANITOWOC PHARMACI","address1": "919 S 8TH ST","address2": "","city": "MANITOWOC","state": "WI","zip": "54220","zip+4": "4595","phone": "9206846789"}
{"name": "MARSHFIELD CLINIC PHARMACY #1","address1": "1000 N OAK AVE","address2": "","city": "MARSHFIELD","state": "WI","zip": "54449","zip+4": "5777","phone": "7153879100"}
{"name": "SHOPKO PHARMACY #9","address1": "1306 N CENTRAL AVE","address2": "","city": "MARSHFIELD","state": "WI","zip": "54449","zip+4": "1507","phone": "7153873705"}
{"name": "ST JOSEPHS HOSPITAL OP PHCY","address1": "611 ST JOSEPH AVE","address2": "","city": "MARSHFIELD","state": "WI","zip": "54449","zip+4": "1898","phone": "7153879907"}
{"name": "PHILLIPS DRUG STORE INC","address1": "123 E STATE ST","address2": "","city": "MAUSTON","state": "WI","zip": "53948","zip+4": "0136","phone": "6088475949"}
{"name": "MEDICAL CENTER PHARMACY","address1": "139 S GIBSON","address2": "","city": "MEDFORD","state": "WI","zip": "54451","zip+4": "0000","phone": "7157485800"}
{"name": "MEDFORD VALU-RITE DRUGS #01","address1": "210 S MAIN ST","address2": "","city": "MEDFORD","state": "WI","zip": "54451","zip+4": "1843","phone": "7157484477"}
{"name": "MORTON PHARMACY","address1": "312 RACINE STREET","address2": "","city": "MENASHA","state": "WI","zip": "54952","zip+4": "0000","phone": "9207273846"}
{"name": "HEALTH CENTER PHARMACY","address1": "W180N7950 TOWN HALL RD","address2": "","city": "MENOMONEE FALLS","state": "WI","zip": "53051","zip+4": "4049","phone": "2622505250"}
{"name": "MEDICINE SHOPPE PHARMACY #1685","address1": "149 MAIN STREET E","address2": "","city": "MENOMONIE","state": "WI","zip": "54751","zip+4": "0070","phone": "7152352121"}
{"name": "WISCONSIN HEALTH FUND PHARMACY","address1": "6118 W BLUEMOUND AVE","address2": "","city": "MILWAUKEE","state": "WI","zip": "53213","zip+4": "0000","phone": "4147715606"}
{"name": "THE PRESCRIPTION CENTER INC #1","address1": "330 E MASON ST","address2": "","city": "MILWAUKEE","state": "WI","zip": "53202","zip+4": "3654","phone": "4142722815"}
{"name": "IVEYS PHARMACY INC","address1": "128 HIGH ST","address2": "","city": "MINERAL POINT","state": "WI","zip": "53565","zip+4": "1299","phone": "6089872336"}
{"name": "BENTLEY DRUG STORE","address1": "25 W MONTELLO ST","address2": "","city": "MONTELLO","state": "WI","zip": "53949","zip+4": "0366","phone": "6082972474"}
{"name": "MT HOREB PHARMACY LLC","address1": "203 W MAIN ST","address2": "","city": "MOUNT HOREB","state": "WI","zip": "53572","zip+4": "1914","phone": "6084373001"}
{"name": "MORTON PHARMACY","address1": "1554 S COMMERCIAL STREET","address2": "","city": "NEENAH","state": "WI","zip": "54956","zip+4": "0000","phone": "9207273840"}
{"name": "NEW GLARUS PHARMACY","address1": "1101 HWY 69 STE 7","address2": "","city": "NEW GLARUS","state": "WI","zip": "53574","zip+4": "0000","phone": "6085272517"}
{"name": "OCONTO FALLS PHARMACY","address1": "323 E HIGHLAND DR","address2": "","city": "OCONTO FALLS","state": "WI","zip": "54154","zip+4": "0129","phone": "9208483721"}
{"name": "PESHTIGO PHARMACY","address1": "220 FRENCH ST","address2": "","city": "PESHTIGO","state": "WI","zip": "54157","zip+4": "0000","phone": "7155824237"}
{"name": "LAKEVIEW PHARMACY","address1": "114 N LAKE AVE","address2": "","city": "PHILLIPS","state": "WI","zip": "54555","zip+4": "1297","phone": "7153392424"}
{"name": "DOCTORS PARK PHARMACY","address1": "1450 E SIDE ROAD","address2": "","city": "PLATTEVILLE","state": "WI","zip": "53818","zip+4": "0000","phone": "6083489221"}
{"name": "SERVICE DRUGS","address1": "130 W COOK ST","address2": "","city": "PORTAGE","state": "WI","zip": "53901","zip+4": "2104","phone": "6087422808"}
{"name": "PRAIRIE PHARMACY INC","address1": "610 E TAYLOR ST","address2": "","city": "PRAIRIE DU CHIEN","state": "WI","zip": "53821","zip+4": "2197","phone": "6083268911"}
{"name": "EANNELLI PHARMACY","address1": "405 WATER ST","address2": "","city": "PRAIRIE DU SAC","state": "WI","zip": "53578","zip+4": "0000","phone": "6086433396"}
{"name": "BENTLEY DRUG #2","address1": "528 WATER ST","address2": "","city": "PRINCETON","state": "WI","zip": "54968","zip+4": "0000","phone": "9202956271"}
{"name": "HEALTH MART PULASKI PHARMACY","address1": "121 N ST AUGUSTINE ST","address2": "","city": "PULASKI","state": "WI","zip": "54162","zip+4": "0000","phone": "9208223011"}
{"name": "RANDOLPH PHARMACY","address1": "107 N HIGH ST","address2": "","city": "RANDOLPH","state": "WI","zip": "53956","zip+4": "1267","phone": "9203265242"}
{"name": "VILLAGE PHARMACY","address1": "202 S MAIN ST","address2": "","city": "REESEVILLE","state": "WI","zip": "53579","zip+4": "0000","phone": "9209273305"}
{"name": "STOXEN PROFESSIONAL PHARMACY","address1": "2251 N SHORE DR","address2": "","city": "RHINELANDER","state": "WI","zip": "54501","zip+4": "3999","phone": "7153614770"}
{"name": "OSTERBAUER DRUGS LTD","address1": "218 NORTH MAIN","address2": "","city": "RICE LAKE","state": "WI","zip": "54868","zip+4": "0000","phone": "7152343969"}
{"name": "SEYMOUR PHARMACY","address1": "124 S MAIN ST","address2": "","city": "SEYMOUR","state": "WI","zip": "54165","zip+4": "1451","phone": "9208332141"}
{"name": "DREIER PHARMACY","address1": "117 S MAIN ST","address2": "","city": "SHAWANO","state": "WI","zip": "54166","zip+4": "2357","phone": "7155262011"}
{"name": "AURORA PHARMACY 225 SHEBOYGAN","address1": "509 SUPERIOR AVE","address2": "","city": "SHEBOYGAN","state": "WI","zip": "53081","zip+4": "0000","phone": "9204592637"}
{"name": "AURORA PHARMACY 223 SHEBOYGAN","address1": "2414 KOHLER MEMORIAL DR","address2": "","city": "SHEBOYGAN","state": "WI","zip": "53081","zip+4": "0000","phone": "9204592630"}
{"name": "RED CROSS PHARMACY","address1": "146 WALNUT ST","address2": "","city": "SPOONER","state": "WI","zip": "54801","zip+4": "1319","phone": "7156352117"}
{"name": "SPRING GREEN HEALTH MART PHARM","address1": "208 E JEFFERSON STREET","address2": "","city": "SPRING GREEN","state": "WI","zip": "53588","zip+4": "0000","phone": "6085882541"}
{"name": "TANGEN DRUG INC","address1": "124 N WASHINGTON ST","address2": "","city": "ST CROIX FALLS","state": "WI","zip": "54024","zip+4": "0000","phone": "7154833271"}
{"name": "PEOPLES DRUG STORE","address1": "1124 BELKNAP","address2": "","city": "SUPERIOR","state": "WI","zip": "54880","zip+4": "0000","phone": "7153947765"}
{"name": "PHILLIPS TOMAH PHARMACY","address1": "1004 SUPERIOR AVE","address2": "","city": "TOMAH","state": "WI","zip": "54660","zip+4": "0000","phone": "6083724115"}
{"name": "JAMES PHARMACY LTD","address1": "215 MAPLE ST","address2": "","city": "TURTLE LAKE","state": "WI","zip": "54889","zip+4": "0000","phone": "7159862225"}
{"name": "WOLFE SNYDER DRUG STORE","address1": "1010 22ND ST","address2": "","city": "TWO RIVERS","state": "WI","zip": "54241","zip+4": "2700","phone": "4147932226"}
{"name": "MCCULLOUGHS PRESCRIPTION AND G","address1": "547 KENOSHA ST","address2": "","city": "WALWORTH","state": "WI","zip": "53184","zip+4": "0000","phone": "2622752137"}
{"name": "ZIMBRIC PHARMACIES INC","address1": "104 E MADISON ST","address2": "","city": "WATERLOO","state": "WI","zip": "53594","zip+4": "1273","phone": "9204782685"}
{"name": "MORELAND PLAZA PHARMACY","address1": "827 W MORELAND BLVD","address2": "","city": "WAUKESHA","state": "WI","zip": "53188","zip+4": "2998","phone": "2625424488"}
{"name": "HARRIS HEALTH MART PHARMACY","address1": "233 S CENTURY","address2": "","city": "WAUNAKEE","state": "WI","zip": "53597","zip+4": "0000","phone": "6088497888"}
{"name": "STRATTON DRUG STORE","address1": "107 N MAIN ST","address2": "","city": "WAUPACA","state": "WI","zip": "54981","zip+4": "1599","phone": "7152587057"}
{"name": "MARSHFIELD CLINIC PHARMACY #6","address1": "2727 PLAZA DRIVE","address2": "","city": "WAUSAU","state": "WI","zip": "54401","zip+4": "4192","phone": "7158473302"}
{"name": "NORTH CENTRAL HEALTH CARE","address1": "1100 LAKE VIEW DR","address2": "","city": "WAUSAU","state": "WI","zip": "54403","zip+4": "0000","phone": "7158484597"}
{"name": "COUNTY MARKET PHARMACY","address1": "220 S 18TH AVE","address2": "","city": "WAUSAU","state": "WI","zip": "54401","zip+4": "0000","phone": "7158423541"}
{"name": "WEST BEND PHARMACY","address1": "1709 S 18TH ST","address2": "","city": "WEST BEND","state": "WI","zip": "53095","zip+4": "0000","phone": "2623386444"}
{"name": "TRAVELMART PHARMACY","address1": "802 BROADWAY","address2": "","city": "WISCONSIN DELLS","state": "WI","zip": "53965","zip+4": "0000","phone": "6082534231"}
{"name": "SHOPKO PHARMACY #12","address1": "1100 E RIVERVIEW EXPY","address2": "","city": "WISCONSIN RAPIDS","state": "WI","zip": "54494","zip+4": "5483","phone": "7154211750"}
{"name": "OWEN WITHEE PHARMACY","address1": "514 DIVISION ST","address2": "","city": "WITHEE","state": "WI","zip": "54498","zip+4": "9752","phone": "7152292020"}
{"name": "GWIDT PHARMACY INC","address1": "203 E WESTGOVE AVENUE","address2": "","city": "WITTENBERG","state": "WI","zip": "54499","zip+4": "0253","phone": "7152532164"}
{"name": "YELLOW RIVER PHARMACY INC","address1": "7438 MAIN ST WEST","address2": "","city": "WEBSTER","state": "WI","zip": "54893","zip+4": "0000","phone": "7158668644"}
{"name": "TRI COUNTY MEMORIAL HOSP PHCY","address1": "18601 LINCOLN ST","address2": "","city": "WHITEHALL","state": "WI","zip": "54773","zip+4": "9508","phone": "7155384361"}
{"name": "THE APOTHECARY SHOP","address1": "102 S SIDE SHOPPING CTR","address2": "","city": "CHILTON","state": "WI","zip": "53014","zip+4": "1615","phone": "9208499313"}
{"name": "THE PHARMACY SHOPPE INC","address1": "3201 S 16TH ST STE 1030","address2": "","city": "MILWAUKEE","state": "WI","zip": "53215","zip+4": "4532","phone": "4143841660"}
{"name": "HAYEKS SHOREWOOD PHARMACY","address1": "4001 N DOWNER AVE","address2": "","city": "MILWAUKEE","state": "WI","zip": "53211","zip+4": "0000","phone": "4143328870"}
{"name": "MILLER PHARMACY INC #630","address1": "801 N ROCHESTER ST","address2": "","city": "MUKWONAGO","state": "WI","zip": "53149","zip+4": "1194","phone": "2623634001"}
{"name": "CARDINS PHARMACY","address1": "117 W WESTER ST","address2": "","city": "CUBA CITY","state": "WI","zip": "53807","zip+4": "1538","phone": "6087442195"}
{"name": "COMMUNITY PHARMACY INC","address1": "341 STATE ST","address2": "SUITE G","city": "MADISON","state": "WI","zip": "53703","zip+4": "2057","phone": "6082514454"}
{"name": "SHOPKO PHARMACY #19","address1": "701 S CHURCH ST","address2": "","city": "WATERTOWN","state": "WI","zip": "53094","zip+4": "6213","phone": "9202611920"}
{"name": "SHOPKO PHARMACY #15","address1": "1000 W NORTHLAND AVE","address2": "","city": "APPLETON","state": "WI","zip": "54914","zip+4": "1419","phone": "9207396871"}
{"name": "COMMUNITY MEMORIAL HOSP","address1": "855 S MAIN ST","address2": "","city": "OCONTO FALLS","state": "WI","zip": "54154","zip+4": "1296","phone": "9208463444"}
{"name": "ECONOFOODS PHARMACY #325","address1": "622 LASALLE AVENUE","address2": "","city": "BARRON","state": "WI","zip": "54812","zip+4": "0000","phone": "7155375345"}
{"name": "MCCULLOUGHS PRESCRIPTION AND G","address1": "269 BROAD ST","address2": "","city": "LAKE GENEVA","state": "WI","zip": "53147","zip+4": "1888","phone": "2622486226"}
{"name": "WISCONSIN VETERANS HOME PHCY","address1": "N 2665 COUNTY RD QQ","address2": "","city": "KING","state": "WI","zip": "54946","zip+4": "0620","phone": "7152581674"}
{"name": "RUSK COUNTY CLINIC PHARMACY","address1": "906 COLLEGE AVE W","address2": "","city": "LADYSMITH","state": "WI","zip": "54848","zip+4": "2198","phone": "7155323339"}
{"name": "WAUKESHA PHARMACY","address1": "725 AMERICAN AVE","address2": "","city": "WAUKESHA","state": "WI","zip": "53188","zip+4": "5099","phone": "2629282297"}
{"name": "MEDICAL ARTS PHARMACY","address1": "1900 N DEWEY AVE","address2": "","city": "REEDSBURG","state": "WI","zip": "53959","zip+4": "1047","phone": "6085246177"}
{"name": "KMART PHARMACY #4219","address1": "1109 LOMBARDI AVE","address2": "","city": "GREEN BAY","state": "WI","zip": "54304","zip+4": "0000","phone": "9204996004"}
{"name": "SHOPKO PHARMACY #3","address1": "3415 CALUMET AVE","address2": "","city": "MANITOWOC","state": "WI","zip": "54220","zip+4": "5427","phone": "9206840251"}
{"name": "SHOPKO PHARMACY #8","address1": "1105 E GRAND AVE","address2": "","city": "ROTHSCHILD","state": "WI","zip": "54474","zip+4": "1024","phone": "7153594251"}
{"name": "STOXEN PHARMACY","address1": "12 W WISCONSIN AVE","address2": "STE 313","city": "TOMAHAWK","state": "WI","zip": "54487","zip+4": "1333","phone": "7154533110"}
{"name": "YE OLDE PHARMACY","address1": "5320 N PORT WASHINGTON RD","address2": "","city": "GLENDALE","state": "WI","zip": "53217","zip+4": "4913","phone": "4149630812"}
{"name": "ECONOFOODS PHARMACY #321","address1": "110 WEST 4TH STREET","address2": "","city": "NEW RICHMOND","state": "WI","zip": "54017","zip+4": "0000","phone": "7152462186"}
{"name": "MCFARLAND HOMETOWN PHARMACY","address1": "4880 LARSON BEACH RD","address2": "","city": "MCFARLAND","state": "WI","zip": "53558","zip+4": "0000","phone": "6088387455"}
{"name": "KMART PHARMACY #4385","address1": "4601 S 27TH STREET","address2": "","city": "GREENFIELD","state": "WI","zip": "53220","zip+4": "0000","phone": "4142821083"}
{"name": "WALGREEN DRUG STORE #4253","address1": "2656 WAUWATOSA AVENUE","address2": "","city": "WAUWATOSA","state": "WI","zip": "53213","zip+4": "0000","phone": "4144539610"}
{"name": "FOX PHARMACY #1","address1": "130 MAIN STREET","address2": "","city": "ELROY","state": "WI","zip": "53929","zip+4": "0000","phone": "6084628261"}
{"name": "SHOPKO PHARMACY #7","address1": "4344 MORMAN COULEE RD","address2": "","city": "LA CROSSE","state": "WI","zip": "54601","zip+4": "7908","phone": "6087888860"}
{"name": "ASPIRUS PHARMACY","address1": "2383 STATE RD 17","address2": "","city": "PHELPS","state": "WI","zip": "54554","zip+4": "9473","phone": "7155452346"}
{"name": "PRESCRIPTION PHARMACY","address1": "109 MAIN ST","address2": "","city": "BLACK RIVER FALLS","state": "WI","zip": "54615","zip+4": "1794","phone": "7152844354"}
{"name": "KMART PHARMACY #7206","address1": "3015 TOWER AVENUE","address2": "","city": "SUPERIOR","state": "WI","zip": "54880","zip+4": "0000","phone": "7153945551"}
{"name": "SHOPKO PHARMACY #26","address1": "2761 PRAIRIE AVE","address2": "","city": "BELOIT","state": "WI","zip": "53511","zip+4": "2246","phone": "6083654418"}
{"name": "LANGFORD PHARMACY","address1": "114 W BAYFIELD ST","address2": "","city": "WASHBURN","state": "WI","zip": "54891","zip+4": "0000","phone": "7153735588"}
{"name": "SHOPKO PHARMACY #24","address1": "955 W CLAIREMONT AVE","address2": "","city": "EAU CLAIRE","state": "WI","zip": "54701","zip+4": "6103","phone": "7158328336"}
{"name": "PRESCRIPTION CENTER PHARMACY","address1": "888 THACKERAY TRL","address2": "STE 101","city": "OCONOMOWOC","state": "WI","zip": "53066","zip+4": "4342","phone": "2625677267"}
{"name": "WALGREEN DRUG STORE #3617","address1": "3805 80TH STREET","address2": "","city": "KENOSHA","state": "WI","zip": "53142","zip+4": "0000","phone": "2626940730"}
{"name": "YOUNGS DRUG STORE","address1": "310 E BRIDGE ST","address2": "","city": "WAUSAU","state": "WI","zip": "54403","zip+4": "0000","phone": "7158455203"}
{"name": "BERGMANN PHARMACY","address1": "2510 ALLEN BLVD","address2": "","city": "MIDDLETON","state": "WI","zip": "53562","zip+4": "2212","phone": "6088311321"}
{"name": "THE VILLAGE APOTHECARY","address1": "110 W MAIN ST","address2": "","city": "CAMPBELLSPORT","state": "WI","zip": "53010","zip+4": "9119","phone": "9205334012"}
{"name": "LUCK PHARMACY INC","address1": "132 S MAIN ST","address2": "","city": "LUCK","state": "WI","zip": "54853","zip+4": "0000","phone": "7154722122"}
{"name": "KMART PHARMACY #4255","address1": "2233 OLD HUMES RD","address2": "","city": "JANESVILLE","state": "WI","zip": "53545","zip+4": "0000","phone": "6087541299"}
{"name": "KMART PHARMACY #9543","address1": "1309 N HIGH ST","address2": "","city": "FORT ATKINSON","state": "WI","zip": "53538","zip+4": "0000","phone": "9205636658"}
{"name": "OCONTO PHARMACY","address1": "1008 MAIN ST","address2": "","city": "OCONTO","state": "WI","zip": "54153","zip+4": "0073","phone": "9208344455"}
{"name": "VALUCARE PHARMACY","address1": "N85 W15882 APPLETON AVE","address2": "","city": "MENOMONEE FALLS","state": "WI","zip": "53051","zip+4": "0000","phone": "2622556660"}
{"name": "KMART PHARMACY #7530","address1": "18200 W BLUEMOUND ROAD","address2": "","city": "BROOKFIELD","state": "WI","zip": "53045","zip+4": "0000","phone": "2627921986"}
{"name": "KMART PHARMACY #3182","address1": "5600 S 108TH ST","address2": "","city": "HALES CORNERS","state": "WI","zip": "53130","zip+4": "0000","phone": "4145290076"}
{"name": "KMART PHARMACY #4380","address1": "3201 N MAYFAIR ROAD","address2": "","city": "WAUWATOSA","state": "WI","zip": "53222","zip+4": "3203","phone": "4144751610"}
{"name": "KMART PHARMACY #4395","address1": "6077 S PACKARD AVENUE","address2": "","city": "CUDAHY","state": "WI","zip": "53110","zip+4": "0000","phone": "4147690510"}
{"name": "KMART PHARMACY #3774","address1": "2211 S GREEN BAY ROAD","address2": "","city": "RACINE","state": "WI","zip": "53406","zip+4": "0000","phone": "2626380868"}
{"name": "KMART PHARMACY #4376","address1": "120 E SUNSET DRIVE","address2": "","city": "WAUKESHA","state": "WI","zip": "53186","zip+4": "0000","phone": "2625478331"}
{"name": "KMART PHARMACY #3088","address1": "4100 52ND ST","address2": "","city": "KENOSHA","state": "WI","zip": "53142","zip+4": "0000","phone": "2626580902"}
{"name": "BACKES APOTHECARY PHARMACY","address1": "114 N BROWN ST","address2": "","city": "RHINELANDER","state": "WI","zip": "54501","zip+4": "3162","phone": "7153655020"}
{"name": "WALGREEN DRUG STORE #9066","address1": "3201 E LAYTON AVE","address2": "","city": "CUDAHAY","state": "WI","zip": "53110","zip+4": "0000","phone": "4144818200"}
{"name": "WALGREEN DRUG STORE #7568","address1": "5860 S 108TH ST","address2": "","city": "HALES CORNERS","state": "WI","zip": "53130","zip+4": "0000","phone": "4145293220"}
{"name": "WALGREEN DRUG STORE #3616","address1": "8488 W BROWN DEER RD","address2": "","city": "MILWAUKEE","state": "WI","zip": "53224","zip+4": "0000","phone": "4143559400"}
{"name": "WALGREEN DRUG STORE #4537","address1": "7600 W CAPITOL","address2": "","city": "MILWAUKEE","state": "WI","zip": "53222","zip+4": "0000","phone": "4144644600"}
{"name": "WALGREEN DRUG STORE #7259","address1": "3855 S MOORLAND RD","address2": "","city": "NEW BERLIN","state": "WI","zip": "53151","zip+4": "0000","phone": "2627844990"}
{"name": "WALGREEN DRUG STORE #5636","address1": "230 MADISON ST","address2": "","city": "WAUKESHA","state": "WI","zip": "53188","zip+4": "5148","phone": "2625429933"}
{"name": "WALGREEN DRUG STORE #10496","address1": "192 N MAIN ST","address2": "","city": "FOND DU LAC","state": "WI","zip": "54935","zip+4": "3462","phone": "9209215264"}
{"name": "WALGREEN DRUG STORE #4055","address1": "1717 MILTON AVE","address2": "","city": "JANESVILLE","state": "WI","zip": "53545","zip+4": "0000","phone": "6087542277"}
{"name": "WALGREEN DRUG STORE #5002","address1": "N83 W15701 APPLETON AV","address2": "","city": "MENOMONEE FALLS","state": "WI","zip": "53051","zip+4": "0000","phone": "2622519400"}
{"name": "WALGREEN DRUG STORE #16","address1": "4081 OAKLAND","address2": "","city": "MILWAUKEE","state": "WI","zip": "53211","zip+4": "0000","phone": "4149612000"}
{"name": "WALGREEN DRUG STORE #3392","address1": "500 S COMMERCIAL","address2": "","city": "NEENAH","state": "WI","zip": "54956","zip+4": "0000","phone": "9207291313"}
{"name": "WALGREEN DRUG STORE #3567","address1": "1021 SUMMIT AVENUE","address2": "","city": "OCONOMOWOC","state": "WI","zip": "53066","zip+4": "0000","phone": "2625679171"}
{"name": "WALGREEN DRUG STORE #4884","address1": "278 N MAIN ST","address2": "","city": "THIENSVILLE","state": "WI","zip": "53092","zip+4": "0000","phone": "2622423450"}
{"name": "WALGREEN DRUG STORE #3422","address1": "806 SOUTH MAIN ST","address2": "","city": "WEST BEND","state": "WI","zip": "53095","zip+4": "0000","phone": "2623381155"}
{"name": "KMART PHARMACY #4089","address1": "2415 STATE ROAD","address2": "","city": "LA CROSSE","state": "WI","zip": "54601","zip+4": "0000","phone": "6087880803"}
{"name": "AGNESIAN PHARMACY WAUPUN","address1": "910 W MAIN ST","address2": "","city": "WAUPUN","state": "WI","zip": "53963","zip+4": "1201","phone": "9203243010"}
{"name": "GOOD VALUE PHARMACY","address1": "3401 80TH ST STE 100","address2": "","city": "KENOSHA","state": "WI","zip": "53142","zip+4": "0000","phone": "2626975744"}
{"name": "MAPLEWOOD OF SAUK PRAIRIE","address1": "245 SYCAMORE ST","address2": "","city": "SAUK CITY","state": "WI","zip": "53583","zip+4": "1095","phone": "6086433383"}
{"name": "WALGREEN DRUG STORE #3883","address1": "221 EAST SUNSET DRIVE","address2": "","city": "WAUKESHA","state": "WI","zip": "53186","zip+4": "0000","phone": "2625423030"}
{"name": "SHOPKO PHARMACY #2","address1": "301 BAY PARK SQ","address2": "","city": "GREEN BAY","state": "WI","zip": "54304","zip+4": "5104","phone": "9204995889"}
{"name": "SHOPKO PHARMACY #28","address1": "800 E MAES AVE","address2": "","city": "KIMBERLY","state": "WI","zip": "54136","zip+4": "1527","phone": "9207889154"}
{"name": "SHOPKO PHARMACY #27","address1": "4801 WASHINGTON AVE","address2": "","city": "RACINE","state": "WI","zip": "53406","zip+4": "4219","phone": "2626378444"}
{"name": "WALGREEN DRUG STORE #6130","address1": "3700 UNIVERSITY AVE","address2": "","city": "MADISON","state": "WI","zip": "53705","zip+4": "0000","phone": "6082389133"}
{"name": "WALGREEN DRUG STORE #2967","address1": "1725 NORTHPORT","address2": "","city": "MADISON","state": "WI","zip": "53704","zip+4": "0000","phone": "6082415001"}
{"name": "WALGREEN DRUG STORE #3329","address1": "4641 VERONA ROAD","address2": "","city": "MADISON","state": "WI","zip": "53711","zip+4": "0000","phone": "6082713638"}
{"name": "WALGREEN DRUG STORE #3343","address1": "7810 MINERAL POINT RD","address2": "","city": "MADISON","state": "WI","zip": "53717","zip+4": "0000","phone": "6088337700"}
{"name": "WALGREEN DRUG STORE #10555","address1": "2010 BRANCH ST","address2": "","city": "MIDDLETON","state": "WI","zip": "53562","zip+4": "3026","phone": "6088316548"}
{"name": "WALGREEN DRUG STORE #2879","address1": "2121 S PARK ST","address2": "","city": "MADISON","state": "WI","zip": "53713","zip+4": "0000","phone": "6082570452"}
{"name": "WALGREEN DRUG STORE #2848","address1": "606 S WHITNEY WAY","address2": "","city": "MADISON","state": "WI","zip": "53711","zip+4": "0000","phone": "6082745241"}
{"name": "WALGREEN DRUG STORE #4155","address1": "15 E MAIN ST","address2": "","city": "MADISON","state": "WI","zip": "53703","zip+4": "0000","phone": "6082578718"}
{"name": "WALGREEN DRUG STORE #3393","address1": "108 COTTAGE GROVE ROAD","address2": "","city": "MADISON","state": "WI","zip": "53716","zip+4": "0000","phone": "6082222599"}
{"name": "WALGREEN DRUG STORE #3291","address1": "275 DAVISON DRIVE","address2": "","city": "SUN PRAIRIE","state": "WI","zip": "53590","zip+4": "0000","phone": "6088376990"}
{"name": "WALGREEN DRUG STORE #5136","address1": "301 W MAIN ST","address2": "","city": "WATERTOWN","state": "WI","zip": "53094","zip+4": "0000","phone": "9202069585"}
{"name": "ECONOFOODS PHARMACY #323","address1": "520 WEST MAIN ST","address2": "","city": "DURAND","state": "WI","zip": "54736","zip+4": "0000","phone": "7156725900"}
{"name": "KMART PHARMACY #7010","address1": "111 DIVISION ST NORTH","address2": "","city": "STEVENS POINT","state": "WI","zip": "54481","zip+4": "0000","phone": "7153415613"}
{"name": "THREE LAKES COMMUNITY PHARMACY","address1": "1790 SUPERIOR ST","address2": "","city": "THREE LAKES","state": "WI","zip": "54562","zip+4": "0000","phone": "7155463266"}
{"name": "WALGREEN DRUG STORE #3498","address1": "900 WEST AVENUE SOUTH","address2": "","city": "LA CROSSE","state": "WI","zip": "54601","zip+4": "0000","phone": "6087962055"}
{"name": "WHEATON FRANCISCAN PHARMACY #4","address1": "1244 WISCONSIN AVE","address2": "","city": "RACINE","state": "WI","zip": "53403","zip+4": "0000","phone": "2626872150"}
{"name": "WALL STREET HEALTHCARE PHCY","address1": "123 E WALL ST","address2": "","city": "EAGLE RIVER","state": "WI","zip": "54521","zip+4": "0000","phone": "7154793306"}
{"name": "BERGMANN PHARMACY","address1": "2960 CAHILL MAIN","address2": "STE 2","city": "FITCHBURG","state": "WI","zip": "53711","zip+4": "0000","phone": "6082734490"}
{"name": "ST GERMAIN HEALTH CARE PHARMAC","address1": "252 HWY 70","address2": "","city": "ST GERMAIN","state": "WI","zip": "54558","zip+4": "0280","phone": "7154797608"}
{"name": "KMART PHARMACY #7100","address1": "2633 BUSINESS DRIVE","address2": "","city": "SHEBOYGAN","state": "WI","zip": "53081","zip+4": "0000","phone": "9204571313"}
{"name": "FALL CREEK PHARMACY","address1": "119 EAST LINCOLN AVE","address2": "","city": "FALL CREEK","state": "WI","zip": "54742","zip+4": "0000","phone": "7158772994"}
{"name": "SHOPKO PHARMACY #29","address1": "7401 MINERAL POINT RD","address2": "","city": "MADISON","state": "WI","zip": "53717","zip+4": "1703","phone": "6088336622"}
{"name": "SHOPKO PHARMACY #30","address1": "2500 E US HIGHWAY 14","address2": "","city": "JANESVILLE","state": "WI","zip": "53545","zip+4": "0309","phone": "6087547450"}
{"name": "SHOPKO PHARMACY #31","address1": "5300 52ND ST","address2": "","city": "KENOSHA","state": "WI","zip": "53144","zip+4": "2310","phone": "2626588137"}
{"name": "RAABES PHARMACY","address1": "112 S ADAMS ST","address2": "","city": "NEW LISBON","state": "WI","zip": "53950","zip+4": "1206","phone": "6085623302"}
{"name": "RESOURCE PHARMACY SERVICES","address1": "9301 N 76TH ST","address2": "","city": "MILWAUKEE","state": "WI","zip": "53223","zip+4": "0000","phone": "4143575104"}
{"name": "WALGREEN DRUG STORE #295","address1": "4808 HOPKINS","address2": "","city": "MILWAUKEE","state": "WI","zip": "53209","zip+4": "0000","phone": "4144624601"}
{"name": "THEDA CARE PHARMACY","address1": "100 COUNTY RD B","address2": "","city": "SHAWANO","state": "WI","zip": "54166","zip+4": "7072","phone": "7155263456"}
{"name": "SAUK CITY PHARMACY","address1": "830 WATER ST","address2": "","city": "SAUK CITY","state": "WI","zip": "53583","zip+4": "0000","phone": "6086436858"}
{"name": "SHOPKO PHARMACY #32","address1": "2101 W BROADWAY","address2": "","city": "MONONA","state": "WI","zip": "53713","zip+4": "1638","phone": "6082222066"}
{"name": "SHOPKO PHARMACY #33","address1": "1578 APPLETON RD","address2": "","city": "MENASHA","state": "WI","zip": "54952","zip+4": "1104","phone": "9207221895"}
{"name": "MCCULLOUGHS PRESCRIPTION AND G","address1": "1173 W MAIN ST","address2": "","city": "WHITEWATER","state": "WI","zip": "53190","zip+4": "1698","phone": "2624735065"}
{"name": "BURNETT MEDICAL CENTER","address1": "257 W ST GEORGE AVE","address2": "STE 99","city": "GRANTSBURG","state": "WI","zip": "54840","zip+4": "7827","phone": "7154637261"}
{"name": "MOST PHARMACY","address1": "201 N BROAD ST","address2": "","city": "PRESCOTT","state": "WI","zip": "54021","zip+4": "1703","phone": "7152623294"}
{"name": "THE PHARMACY STATION","address1": "300 S PINE STREET","address2": "","city": "BURLINGTON","state": "WI","zip": "53105","zip+4": "1459","phone": "2627638877"}
{"name": "MORTON PHARMACY","address1": "251 N SAWYER STREET","address2": "","city": "OSHKOSH","state": "WI","zip": "54902","zip+4": "4252","phone": "9202366801"}
{"name": "HARTIG DRUG CO #15","address1": "200 MCGREGOR PLZ","address2": "","city": "PLATTEVILLE","state": "WI","zip": "53818","zip+4": "3545","phone": "6083489771"}
{"name": "WALGREEN DRUG STORE #3109","address1": "7171 N TEUTONIA AVE","address2": "","city": "MILWAUKEE","state": "WI","zip": "53209","zip+4": "0000","phone": "4143512530"}
{"name": "OLSEN AND SON DRUG","address1": "24106 STATE RD 35","address2": "","city": "SIREN","state": "WI","zip": "54872","zip+4": "0000","phone": "7153492221"}
{"name": "TRIGS PHARMACY","address1": "925 E WALL ST","address2": "","city": "EAGLE RIVER","state": "WI","zip": "54521","zip+4": "0000","phone": "7154796413"}
{"name": "ECONOFOODS PHARMACY #322","address1": "303 SOUTH MAIN ST","address2": "","city": "RIVER FALLS","state": "WI","zip": "54022","zip+4": "0000","phone": "7154251325"}
{"name": "BAY PHARMACY HEALTH MART","address1": "1300 EGG HARBOR RD","address2": "","city": "STURGEON BAY","state": "WI","zip": "54235","zip+4": "1248","phone": "9207462977"}
{"name": "SHOPKO PHARMACY #34","address1": "2602 SHOPKO DR","address2": "","city": "MADISON","state": "WI","zip": "53704","zip+4": "4074","phone": "6082496919"}
{"name": "NORTHBAY PHARMACY INC","address1": "686 N 4TH ST","address2": "STE 236","city": "TOMAHAWK","state": "WI","zip": "54487","zip+4": "2123","phone": "7154535996"}
{"name": "BALSAM LAKE PHARMACY","address1": "315 MAIN ST","address2": "","city": "BALSAM LAKE","state": "WI","zip": "54810","zip+4": "0000","phone": "7154853374"}
{"name": "SHOPKO PHARMACY #37","address1": "2677 S PRAIRIE VIEW RD","address2": "","city": "CHIPPEWA FALLS","state": "WI","zip": "54729","zip+4": "7506","phone": "7157261631"}
{"name": "KMART PHARMACY #9645","address1": "230 N 18TH AVE","address2": "","city": "WEST BEND","state": "WI","zip": "53095","zip+4": "0000","phone": "2623383552"}
{"name": "MORTON PHARMACY","address1": "200E CITY CENTER","address2": "","city": "OSHKOSH","state": "WI","zip": "54901","zip+4": "0000","phone": "9202363277"}
{"name": "WAUPACA WOODS PHARMACY","address1": "101 N WESTERN AVE","address2": "","city": "WAUPACA","state": "WI","zip": "54981","zip+4": "0000","phone": "7152587621"}
{"name": "MADISON PHARMACY ASSOCIATION","address1": "1289 DEMING WAY","address2": "","city": "MADISON","state": "WI","zip": "53717","zip+4": "0000","phone": "8005587046"}
{"name": "SOLAR TOWN PHARMACY VMH","address1": "100 PASSIVE SUN DR","address2": "","city": "SOLDIERS GROVE","state": "WI","zip": "54655","zip+4": "0000","phone": "6086243344"}
{"name": "WALGREEN DRUG STORE #6020","address1": "6030 W OKLAHOMA ST","address2": "","city": "MILWAUKEE","state": "WI","zip": "53219","zip+4": "0000","phone": "4143270550"}
{"name": "WALGREEN DRUG STORE #10196","address1": "6600 W STATE ST","address2": "","city": "WAUWATOSA","state": "WI","zip": "53213","zip+4": "0000","phone": "4144765156"}
{"name": "MEDICINE SHOPPE #0527","address1": "1232 BROADWAY ST N","address2": "","city": "MENOMONIE","state": "WI","zip": "54751","zip+4": "0000","phone": "7152354235"}
{"name": "OREGON HOMETOWN PHARMACY","address1": "815 NORTH MAIN ST","address2": "","city": "OREGON","state": "WI","zip": "53575","zip+4": "0000","phone": "6088353191"}
{"name": "PRESCRIPTIONS PLUS","address1": "10233 W GREENFIELD AVE","address2": "","city": "WEST ALLIS","state": "WI","zip": "53214","zip+4": "0000","phone": "4147275750"}
{"name": "PARK PHARMACY","address1": "138 N 2ND AVE","address2": "","city": "PARK FALLS","state": "WI","zip": "54552","zip+4": "1299","phone": "7157623248"}
{"name": "VALUE CENTER HEALTH MART PHARM","address1": "2157 EASTRIDGE CENTER","address2": "","city": "EAU CLAIRE","state": "WI","zip": "54701","zip+4": "0000","phone": "7158336760"}
{"name": "WALGREEN DRUG STORE #3882","address1": "2677 S 108TH STREET","address2": "","city": "WEST ALLIS","state": "WI","zip": "53227","zip+4": "0000","phone": "4145459030"}
{"name": "SHELL LAKE PHARMACY","address1": "108 4TH AVE W","address2": "","city": "SHELL LAKE","state": "WI","zip": "54871","zip+4": "0000","phone": "7154687800"}
{"name": "MARSHLAND PHARMACY","address1": "620 WASHINGTON STREET","address2": "","city": "HORICON","state": "WI","zip": "53032","zip+4": "9791","phone": "9204853400"}
{"name": "FSH ST FRANCIS PHARMACY","address1": "700 WEST AVE SOUTH","address2": "","city": "LA CROSSE","state": "WI","zip": "54601","zip+4": "0000","phone": "6087851999"}
{"name": "COLBY HEALTH MART PHARMACY","address1": "36363 MAIN ST","address2": "","city": "WHITEHALL","state": "WI","zip": "54773","zip+4": "9439","phone": "7155384947"}
{"name": "LAONA PHARMACY","address1": "4876 MILL ST","address2": "PO BOX 8","city": "LAONA","state": "WI","zip": "54541","zip+4": "0008","phone": "7156742635"}
{"name": "ERICKSONS FAMILY PHARMACY #341","address1": "1508 NINTH STREET","address2": "","city": "MENOMONIE","state": "WI","zip": "54751","zip+4": "0000","phone": "7152359611"}
{"name": "MEDICATIONS PLUS PHARMACY","address1": "8 EAST KOEPP STREET","address2": "","city": "RICE LAKE","state": "WI","zip": "54868","zip+4": "2221","phone": "7152349021"}
{"name": "WALGREEN DRUG STORE #1336","address1": "4520 WEST NORTH","address2": "","city": "MILWAUKEE","state": "WI","zip": "53208","zip+4": "0000","phone": "4144476630"}
{"name": "SHOPKO PHARMACY #42","address1": "1300 S KOELLER ST","address2": "","city": "OSHKOSH","state": "WI","zip": "54902","zip+4": "6169","phone": "9204265770"}
{"name": "WALGREEN DRUG STORE #1291","address1": "2303 N MLKING DR","address2": "","city": "MILWAUKEE","state": "WI","zip": "53212","zip+4": "0000","phone": "4142631067"}
{"name": "SHOPKO PHARMACY #51","address1": "1425 JANESVILLE AVE","address2": "","city": "FORT ATKINSON","state": "WI","zip": "53538","zip+4": "2705","phone": "9205639351"}
{"name": "MEDICINE SHOPPE #0605","address1": "4205 MONONA RD","address2": "","city": "MONONA","state": "WI","zip": "53716","zip+4": "0000","phone": "6082218151"}
{"name": "CORNELL PHARMACY","address1": "300 MAIN ST","address2": "","city": "CORNELL","state": "WI","zip": "54732","zip+4": "0000","phone": "7152396453"}
{"name": "OSCEOLA PHARMACY","address1": "120 CASCADE ST N","address2": "","city": "OSCEOLA","state": "WI","zip": "54020","zip+4": "0000","phone": "7152942110"}
{"name": "CRIVITZ PHARMACY","address1": "710 MAIN AVE","address2": "","city": "CRIVITZ","state": "WI","zip": "54114","zip+4": "0000","phone": "7158547425"}
{"name": "SHOPKO PHARMACY #50","address1": "616 W JOHNSON ST","address2": "","city": "FOND DU LAC","state": "WI","zip": "54935","zip+4": "3134","phone": "9209215490"}
{"name": "NEWPORT PHARMACY #00","address1": "2015 E NEWPORT AVE","address2": "STE M121","city": "MILWAUKEE","state": "WI","zip": "53211","zip+4": "2949","phone": "4149613464"}
{"name": "WALGREEN DRUG STORE #10873","address1": "2830 N OAKLAND AVE","address2": "","city": "MILWAUKEE","state": "WI","zip": "53211","zip+4": "3228","phone": "4143321901"}
{"name": "BENTLEY PHARMACY","address1": "206 S MAIN ST","address2": "","city": "WESTFIELD","state": "WI","zip": "53964","zip+4": "9702","phone": "6082962877"}
{"name": "SHOPKO PHARMACY #55","address1": "1200 MAIN ST","address2": "","city": "STEVENS POINT","state": "WI","zip": "54481","zip+4": "2863","phone": "7153441230"}
{"name": "WILZ DRUG AND HOME HEALTH CARE","address1": "140 E COOK ST","address2": "","city": "PORTAGE","state": "WI","zip": "53901","zip+4": "2104","phone": "6087423545"}
{"name": "TRIGS PHARMACY","address1": "70 WEST CENTER","address2": "","city": "MINOCQUA","state": "WI","zip": "54548","zip+4": "0000","phone": "7153569449"}
{"name": "WAL-MART PHARMACY #100847","address1": "601 LEFFLER STREET","address2": "","city": "DODGEVILLE","state": "WI","zip": "53533","zip+4": "0000","phone": "6089352365"}
{"name": "WAL-MART PHARMACY #100802","address1": "424 WEST 8TH STREET","address2": "","city": "MONROE","state": "WI","zip": "53566","zip+4": "0000","phone": "6083257805"}
{"name": "SHOPKO PHARMACY #5","address1": "230 N WISCONSIN ST","address2": "","city": "DE PERE","state": "WI","zip": "54115","zip+4": "2735","phone": "9203362323"}
{"name": "WALGREEN DRUG STORE #7730","address1": "2700 GRANDVIEW BLVD","address2": "","city": "WAUKESHA","state": "WI","zip": "53188","zip+4": "0000","phone": "2625421778"}
{"name": "WAL-MART PHARMACY #100882","address1": "38020 US HIGHWAY 18","address2": "","city": "PRAIRIE DU CHIEN","state": "WI","zip": "53821","zip+4": "0000","phone": "6083265103"}
{"name": "WAL-MART PHARMACY #100910","address1": "201 SOUTH EDWARDS BOULEVARD","address2": "","city": "LAKE GENEVA","state": "WI","zip": "53147","zip+4": "0000","phone": "2622483391"}
{"name": "PHARMACY STATION","address1": "3 E GENEVA ST","address2": "","city": "ELKHORN","state": "WI","zip": "53121","zip+4": "1718","phone": "2627236466"}
{"name": "EAU CLAIRE HEALTH MART PHARMAC","address1": "2741 N CLAIREMONT AVE STE E","address2": "STE E","city": "EAU CLAIRE","state": "WI","zip": "54703","zip+4": "0000","phone": "7158336767"}
{"name": "OKLAHOMA PHARMACY INC","address1": "7500 W OKLAHOMA AVE","address2": "","city": "WEST ALLIS","state": "WI","zip": "53219","zip+4": "2895","phone": "4143271150"}
{"name": "EVANSVILLE HOMETOWN PHARMACY","address1": "21 W MAIN ST","address2": "","city": "EVANSVILLE","state": "WI","zip": "53536","zip+4": "0000","phone": "6088824550"}
{"name": "WALGREEN DRUG STORE #1685","address1": "1400 E BRADY","address2": "","city": "MILWAUKEE","state": "WI","zip": "53202","zip+4": "0000","phone": "4142727770"}
{"name": "WAL-MART PHARMACY #100965","address1": "222 WEST MCCOY BLVD","address2": "","city": "TOMAH","state": "WI","zip": "54660","zip+4": "0000","phone": "6083727557"}
{"name": "WALGREEN DRUG STORE #1652","address1": "3109 KINNICKINNIC","address2": "","city": "MILWAUKEE","state": "WI","zip": "53207","zip+4": "0000","phone": "4144823135"}
{"name": "WALGREEN DRUG STORE #6132","address1": "2909 E WASHINGTON AVE","address2": "","city": "MADISON","state": "WI","zip": "53704","zip+4": "0000","phone": "6082446041"}
{"name": "WAL-MART PHARMACY #100958","address1": "1800 PROGRESSIVE PKWY","address2": "","city": "PLATTEVILLE","state": "WI","zip": "53818","zip+4": "0000","phone": "6083484733"}
{"name": "WAL-MART PHARMACY #100971","address1": "1133 NORTH MAIN ST","address2": "","city": "VIROQUA","state": "WI","zip": "54665","zip+4": "0000","phone": "6086378514"}
{"name": "WAL-MART PHARMACY #100979","address1": "1600 WEST WISCONSIN ST","address2": "","city": "SPARTA","state": "WI","zip": "54656","zip+4": "0000","phone": "6082697843"}
{"name": "REYNOLDS PHARMACY INC","address1": "1170 W MAIN STREET","address2": "STE 1","city": "WHITEWATER","state": "WI","zip": "53190","zip+4": "2021","phone": "2624736116"}
{"name": "AURORA PHARMACY 222 CEDAR GROV","address1": "313 S MAIN ST","address2": "","city": "CEDAR GROVE","state": "WI","zip": "53013","zip+4": "0000","phone": "9206686286"}
{"name": "HOMECARE PHARMACY","address1": "1006 WOODWARD AVE","address2": "","city": "BELOIT","state": "WI","zip": "53511","zip+4": "5400","phone": "6083621234"}
{"name": "DEAN PHARMACY #1","address1": "1313 FISH HATCHERY RD","address2": "STE 300","city": "MADISON","state": "WI","zip": "53715","zip+4": "1991","phone": "6082528044"}
{"name": "WAL-MART PHARMACY #101007","address1": "2401 HWY 14 EAST","address2": "","city": "RICHLAND CENTER","state": "WI","zip": "53581","zip+4": "0000","phone": "6086478941"}
{"name": "HEALTH CENTER PHARMACY-WEST","address1": "N14 W23900 STONERIDGE DR","address2": "","city": "WAUKESHA","state": "WI","zip": "53188","zip+4": "1135","phone": "2625747869"}
{"name": "SETON PHARMACY #02","address1": "2323 N LAKE DR","address2": "","city": "MILWAUKEE","state": "WI","zip": "53211","zip+4": "4516","phone": "4142911303"}
{"name": "OCONNELL PHARMACY LTD","address1": "302 S GRAND AVE","address2": "","city": "SUN PRAIRIE","state": "WI","zip": "53590","zip+4": "1996","phone": "6088375949"}
{"name": "DEAN PHARMACY #5","address1": "10 TOWER DRIVE","address2": "STE 300","city": "SUN PRAIRIE","state": "WI","zip": "53590","zip+4": "1239","phone": "6088253690"}
{"name": "DEAN PHARMACY #4","address1": "753 N MAIN STREET","address2": "STE 300","city": "OREGON","state": "WI","zip": "53575","zip+4": "1003","phone": "6088357175"}
{"name": "WALGREEN DRUG STORE #1942","address1": "7144 S 76TH STREET","address2": "","city": "FRANKLIN","state": "WI","zip": "53132","zip+4": "0000","phone": "4144255470"}
{"name": "LAKEVIEW PHCY OF RACINE INC","address1": "516 MONUMENT SQ","address2": "","city": "RACINE","state": "WI","zip": "53403","zip+4": "1033","phone": "2626320520"}
{"name": "WALGREEN DRUG STORE #1979","address1": "6024 W SILVER SPRING DR","address2": "","city": "MILWAUKEE","state": "WI","zip": "53218","zip+4": "0000","phone": "4144615957"}
{"name": "RIVER VALLEY PHARMACY","address1": "208 S ADAMS ST","address2": "","city": "ST CROIX FALLS","state": "WI","zip": "54024","zip+4": "9449","phone": "7154830426"}
{"name": "SHOPKO PHARMACY #18","address1": "1710 S MAIN ST","address2": "","city": "WEST BEND","state": "WI","zip": "53095","zip+4": "4938","phone": "2623380222"}
{"name": "AGNESIAN PHARMACY MARKESAN","address1": "49 S BRIDGE ST","address2": "","city": "MARKESAN","state": "WI","zip": "53946","zip+4": "0000","phone": "9203983261"}
{"name": "KMART PHARMACY #3618","address1": "6900 WEST GREENFIELD AVE","address2": "","city": "WEST ALLIS","state": "WI","zip": "53214","zip+4": "0000","phone": "4144760785"}
{"name": "CLINIC PHARMACY","address1": "2600 65TH AVE","address2": "","city": "OSCEOLA","state": "WI","zip": "54020","zip+4": "0000","phone": "7152944050"}
{"name": "DULUTH CLINIC SUPERIOR PHCY","address1": "3500 TOWER AVENUE","address2": "","city": "SUPERIOR","state": "WI","zip": "54880","zip+4": "5335","phone": "7153953882"}
{"name": "MEDICAP #8072","address1": "1301 MILL STREET","address2": "","city": "NEW LONDON","state": "WI","zip": "54961","zip+4": "0000","phone": "9209827670"}
{"name": "WAL-MART PHARMACY #101138","address1": "7202 WATTS ROAD","address2": "","city": "MADISON","state": "WI","zip": "53719","zip+4": "0000","phone": "6082769399"}
{"name": "OAKWOOD VILLAGE PHARMACY","address1": "6201 W MINERAL POINT RD","address2": "","city": "MADISON","state": "WI","zip": "53705","zip+4": "4540","phone": "6082313456"}
{"name": "VILLAGE PHARMACY AND GIFTS","address1": "109 W MAIN ST","address2": "","city": "CAMBRIDGE","state": "WI","zip": "53523","zip+4": "0000","phone": "6084233231"}
{"name": "WAL-MART PHARMACY #101176","address1": "1800 HWY 51 WEST","address2": "","city": "STOUGHTON","state": "WI","zip": "53589","zip+4": "0000","phone": "6088739262"}
{"name": "WALGREEN DRUG STORE #2042","address1": "W61N294 WASHINGTON AVE","address2": "","city": "CEDARBURG","state": "WI","zip": "53012","zip+4": "0000","phone": "2623753991"}
{"name": "BELLEVILLE PHARMACY","address1": "1019 RIVER ST","address2": "STE 1","city": "BELLEVILLE","state": "WI","zip": "53508","zip+4": "0000","phone": "6084243364"}
{"name": "MEDICINE SHOPPE #0666","address1": "510 ELLIS AVE","address2": "","city": "ASHLAND","state": "WI","zip": "54806","zip+4": "0000","phone": "7156822701"}
{"name": "SHOPKO PHARMACY #80","address1": "2201 ZEIER RD","address2": "","city": "MADISON","state": "WI","zip": "53704","zip+4": "7415","phone": "6082464233"}
{"name": "WAL-MART PHARMACY #101202","address1": "4331 8TH ST SOUTH","address2": "","city": "WISCONSIN RAPIDS","state": "WI","zip": "54494","zip+4": "0000","phone": "7154238500"}
{"name": "WAL-MART PHARMACY #101167","address1": "4404 52ND STREET","address2": "","city": "KENOSHA","state": "WI","zip": "53144","zip+4": "0000","phone": "2626521458"}
{"name": "WALGREEN DRUG STORE #2182","address1": "370 E CAPITOL DR","address2": "","city": "MILWAUKEE","state": "WI","zip": "53212","zip+4": "0000","phone": "4149649831"}
{"name": "SHOPKO PHARMACY #79","address1": "200 S 18TH AVE","address2": "","city": "WAUSAU","state": "WI","zip": "54401","zip+4": "4252","phone": "7158427737"}
{"name": "KMART PHARMACY #7650","address1": "625 HIGHWAY 136","address2": "","city": "WEST BARABOO","state": "WI","zip": "53913","zip+4": "0000","phone": "6083567808"}
{"name": "KMART PHARMACY #3692","address1": "1450 SUMMIT AVENUE","address2": "","city": "OCONOMOWOC","state": "WI","zip": "53066","zip+4": "0000","phone": "2625679254"}
{"name": "THRIFTY WHITE PHARMACY","address1": "190 RICHLAND SQ","address2": "","city": "RICHLAND CENTER","state": "WI","zip": "53581","zip+4": "2995","phone": "6086478918"}
{"name": "GLANDER PRESCRIPTION PLUS","address1": "3529 SUPERIOR AVE","address2": "","city": "SHEBOYGAN","state": "WI","zip": "53081","zip+4": "0000","phone": "9204592755"}
{"name": "WAL-MART PHARMACY #101267","address1": "1905 MC COY ROAD","address2": "","city": "SUN PRAIRIE","state": "WI","zip": "53590","zip+4": "0000","phone": "6088374995"}
{"name": "WAL-MART PHARMACY #101277","address1": "611 HWY 54 EAST","address2": "","city": "BLACK RIVER FALLS","state": "WI","zip": "54615","zip+4": "0000","phone": "7152849115"}
{"name": "WILKES VILLAGE PHARMACY #01","address1": "9000 W BURLEIGH ST","address2": "","city": "MILWAUKEE","state": "WI","zip": "53222","zip+4": "3632","phone": "4144424400"}
{"name": "WAL-MART PHARMACY #101274","address1": "1362 WEST MAIN STREET","address2": "","city": "WHITEWATER","state": "WI","zip": "53190","zip+4": "0000","phone": "2624737740"}
{"name": "WAL-MART PHARMACY #101316","address1": "1536 EGG HARBOR ROAD","address2": "","city": "STURGEON BAY","state": "WI","zip": "54235","zip+4": "0000","phone": "9207460412"}
{"name": "WAL-MART PHARMACY #101305","address1": "3800 DEERFIELD DRIVE","address2": "","city": "JANESVILLE","state": "WI","zip": "53546","zip+4": "0000","phone": "6087543030"}
{"name": "KMART PHARMACY #3768","address1": "2935 NEW PINERY ROAD","address2": "","city": "PORTAGE","state": "WI","zip": "53901","zip+4": "0000","phone": "6087423886"}
{"name": "TRIGS PHARMACY","address1": "232 S COURTNEY ST","address2": "","city": "RHINELANDER","state": "WI","zip": "54501","zip+4": "3319","phone": "7153694849"}
{"name": "KMART PHARMACY #7656","address1": "190 MEDFORD PLAZA","address2": "","city": "MEDFORD","state": "WI","zip": "54451","zip+4": "0000","phone": "7157482122"}
{"name": "DEFOREST HOMETOWN PHARMACY","address1": "645 S MAIN ST","address2": "","city": "DEFOREST","state": "WI","zip": "53532","zip+4": "0000","phone": "6088464736"}
{"name": "WAL-MART PHARMACY #101276","address1": "3711 SO TAYLOR DRIVE","address2": "","city": "SHEBOYGAN","state": "WI","zip": "53081","zip+4": "0000","phone": "9204598601"}
{"name": "WAL-MART PHARMACY #101366","address1": "3500 EAST MAIN STREET","address2": "","city": "MERRILL","state": "WI","zip": "54452","zip+4": "0000","phone": "7155365530"}
{"name": "SHOPKO PHARMACY #90","address1": "1771 WISCONSIN AVE","address2": "","city": "GRAFTON","state": "WI","zip": "53024","zip+4": "2437","phone": "2623750016"}
{"name": "WALGREEN DRUG STORE #1164","address1": "1203 W FOND DU LAC ST","address2": "","city": "RIPON","state": "WI","zip": "54971","zip+4": "0000","phone": "9207486000"}
{"name": "WALGREEN DRUG STORE #6153","address1": "2204 NEVA ROAD","address2": "","city": "ANTIGO","state": "WI","zip": "54409","zip+4": "0000","phone": "7156277230"}
{"name": "WALGREEN DRUG STORE #9210","address1": "445 S WRIGHT ST","address2": "","city": "DELAVAN","state": "WI","zip": "53115","zip+4": "0000","phone": "2627282599"}
{"name": "WALGREEN DRUG STORE #7882","address1": "603 W PINE ST","address2": "","city": "BARABOO","state": "WI","zip": "53913","zip+4": "0000","phone": "6083561161"}
{"name": "WALGREEN DRUG STORE #9008","address1": "403 STATE RD 82 EAST","address2": "","city": "MAUSTON","state": "WI","zip": "53948","zip+4": "0000","phone": "6088477190"}
{"name": "WALGREEN DRUG STORE #12020","address1": "2702 CALUMET DR","address2": "","city": "SHEBOYGAN","state": "WI","zip": "53083","zip+4": "0000","phone": "9204575659"}
{"name": "WALGREEN DRUG STORE #5600","address1": "351 N EDWARDS BLVD","address2": "","city": "LAKE GENEVA","state": "WI","zip": "53147","zip+4": "0000","phone": "2622488296"}
{"name": "WALGREEN DRUG STORE #5231","address1": "10725 W GREENFIELD AVE","address2": "","city": "WEST ALLIS","state": "WI","zip": "53214","zip+4": "0000","phone": "4142588154"}
{"name": "SHOPKO PHARMACY #99","address1": "9366 STATE ROAD 16","address2": "","city": "ONALASKA","state": "WI","zip": "54650","zip+4": "8526","phone": "6087815404"}
{"name": "ROESCHENS OMNICARE PHARMACY #0","address1": "5185 S NINTH ST","address2": "","city": "MILWAUKEE","state": "WI","zip": "53221","zip+4": "0000","phone": "4144863100"}
{"name": "WAL-MART PHARMACY #101365","address1": "2222 CREST VIEW DRIVE","address2": "","city": "HUDSON","state": "WI","zip": "54016","zip+4": "0000","phone": "7153861345"}
{"name": "PHILLIPS CLINICAL PHARMACY","address1": "1040 DIVISION ST","address2": "","city": "MAUSTON","state": "WI","zip": "53948","zip+4": "0000","phone": "6088476155"}
{"name": "KMART PHARMACY #3769","address1": "1211 E GREEN BAY STREET","address2": "","city": "SHAWANO","state": "WI","zip": "54166","zip+4": "0000","phone": "7155266551"}
{"name": "WALGREEN DRUG STORE #9699","address1": "925 W FULTON ST","address2": "","city": "WAUPACA","state": "WI","zip": "54981","zip+4": "0000","phone": "7152587714"}
{"name": "WALGREEN DRUG STORE #4887","address1": "9449 S HOWELL AVE","address2": "","city": "OAK CREEK","state": "WI","zip": "53154","zip+4": "0000","phone": "4147649293"}
{"name": "KMART PHARMACY #3750","address1": "830 WEST FULTON STREET","address2": "","city": "WAUPACA","state": "WI","zip": "54981","zip+4": "0000","phone": "7152584285"}
{"name": "WAL-MART PHARMACY #101394","address1": "4500 SOUTH 108TH STREET","address2": "","city": "GREENFIELD","state": "WI","zip": "53228","zip+4": "0000","phone": "4145294699"}
{"name": "WAL-MART PHARMACY #101396","address1": "920 HWY 12","address2": "","city": "BARABOO","state": "WI","zip": "53913","zip+4": "0000","phone": "6083561779"}
{"name": "WAL-MART PHARMACY #101430","address1": "351 SOUTH WASHBURN ST.","address2": "","city": "OSHKOSH","state": "WI","zip": "54904","zip+4": "0000","phone": "9202312219"}
{"name": "KMART PHARMACY #3541","address1": "103 OAK AVENUE","address2": "","city": "MENOMONIE","state": "WI","zip": "54751","zip+4": "0000","phone": "7152356770"}
{"name": "KMART PHARMACY #3735","address1": "409 PRAIRIE VIEW ROAD","address2": "","city": "CHIPPEWA FALLS","state": "WI","zip": "54729","zip+4": "0000","phone": "7157261831"}
{"name": "WHEATON FRANCISCAN PHARMACY","address1": "9632 W APPLETON AVE","address2": "","city": "MILWAUKEE","state": "WI","zip": "53225","zip+4": "3305","phone": "4145356800"}
{"name": "PAMIDA PHARMACY #314","address1": "400 W 9TH ST","address2": "","city": "LADYSMITH","state": "WI","zip": "54848","zip+4": "1249","phone": "7155326440"}
{"name": "WAL-MART PHARMACY #101453","address1": "2440 WEST MASON STREET","address2": "","city": "GREEN BAY","state": "WI","zip": "54303","zip+4": "0000","phone": "9204992330"}
{"name": "CASS STREET PHARMACY","address1": "528 CASS ST","address2": "","city": "LA CROSSE","state": "WI","zip": "54601","zip+4": "0000","phone": "6087849922"}
{"name": "WALGREEN DRUG STORE #7732","address1": "2700 NEW PINERY RD","address2": "","city": "PORTAGE","state": "WI","zip": "53901","zip+4": "0000","phone": "6087423363"}
{"name": "MORTON PHARMACY","address1": "411 LINCOLN STREET","address2": "","city": "NEENAH","state": "WI","zip": "54956","zip+4": "0000","phone": "9207274260"}
{"name": "LINDEN GROVE PHARMACY","address1": "13700 W NATIONAL AVE","address2": "","city": "NEW BERLIN","state": "WI","zip": "53151","zip+4": "4523","phone": "2627974610"}
{"name": "UNION SERV U PHARMACY","address1": "709 W OKLAHOMA AVE","address2": "","city": "MILWAUKEE","state": "WI","zip": "53215","zip+4": "4719","phone": "4144818170"}
{"name": "RICHLAND FAMILY PRESCRIPTION C","address1": "301 E SECOND ST","address2": "","city": "RICHLAND CENTER","state": "WI","zip": "53581","zip+4": "0000","phone": "6086478806"}
{"name": "COLFAX HEALTH MART PHARMACY","address1": "525 MAIN ST","address2": "","city": "COLFAX","state": "WI","zip": "54730","zip+4": "0000","phone": "7159623784"}
{"name": "KMART PHARMACY #3831","address1": "2615 EASTERN AVE","address2": "","city": "PLYMOUTH","state": "WI","zip": "53073","zip+4": "0000","phone": "9208924182"}
{"name": "HEALTH PHARMACIES INC","address1": "2809 FISH HATCHERY RD","address2": "SUITE 103","city": "MADISON","state": "WI","zip": "53713","zip+4": "0000","phone": "6082770407"}
{"name": "PAMIDA PHARMACY #319","address1": "1333 4TH AVE S","address2": "","city": "PARK FALLS","state": "WI","zip": "54552","zip+4": "1926","phone": "7157624764"}
{"name": "SHOPKO PHARMACY #100","address1": "699 GREEN BAY RD","address2": "","city": "NEENAH","state": "WI","zip": "54956","zip+4": "3153","phone": "9207510270"}
{"name": "SHOPKO PHARMACY #102","address1": "2741 ROOSEVELT RD","address2": "","city": "MARINETTE","state": "WI","zip": "54143","zip+4": "3833","phone": "7157350325"}
{"name": "WAL-MART PHARMACY #101446","address1": "2501 WEST AVENUE","address2": "","city": "RICE LAKE","state": "WI","zip": "54868","zip+4": "0000","phone": "7152342997"}
{"name": "WAL-MART PHARMACY #101449","address1": "4115 CALUMET AVENUE","address2": "","city": "MANITOWOC","state": "WI","zip": "54220","zip+4": "0000","phone": "9206845016"}
{"name": "WAL-MART PHARMACY #101471","address1": "1717 NORTH SHAWANO STREET","address2": "","city": "NEW LONDON","state": "WI","zip": "54961","zip+4": "0000","phone": "9209827906"}
{"name": "WALGREEN DRUG STORE #6097","address1": "3320 S BUSINESS DRIVE","address2": "","city": "SHEBOYGAN","state": "WI","zip": "53081","zip+4": "0000","phone": "9204523440"}
{"name": "WOLF RIVER PHARMACY","address1": "600 E PIONEER PLAZA","address2": "","city": "CRANDON","state": "WI","zip": "54520","zip+4": "0000","phone": "7154783369"}
{"name": "WAL-MART PHARMACY #101515","address1": "W190 N9855 APPLETON AVENUE","address2": "","city": "GERMANTOWN","state": "WI","zip": "53022","zip+4": "0000","phone": "2622555351"}
{"name": "KMART PHARMACY #9713","address1": "1058 MILWAUKEE AVE","address2": "","city": "BURLINGTON","state": "WI","zip": "53105","zip+4": "0000","phone": "2627639627"}
{"name": "WAL-MART PHARMACY #101571","address1": "250 EAST WOLF RUN","address2": "","city": "MUKWONAGO","state": "WI","zip": "53149","zip+4": "0000","phone": "2623638366"}
{"name": "MILTON PHARMACY","address1": "725 S JANESVILLE ST","address2": "","city": "MILTON","state": "WI","zip": "53563","zip+4": "1748","phone": "6088686777"}
{"name": "WALGREEN DRUG STORE #3497","address1": "1819 S HASTINGS WAY","address2": "","city": "EAU CLAIRE","state": "WI","zip": "54701","zip+4": "0000","phone": "7158346642"}
{"name": "WAL-MART PHARMACY #101650","address1": "825 EAST GREEN BAY AVENUE","address2": "","city": "SAUKVILLE","state": "WI","zip": "53080","zip+4": "0000","phone": "2622849881"}
{"name": "WAL-MART PHARMACY #101551","address1": "6701 SOUTH 27TH STREET","address2": "","city": "FRANKLIN","state": "WI","zip": "53132","zip+4": "0000","phone": "4147619571"}
{"name": "GROUP HEALTH CHIPPEWA PHARMACY","address1": "2449 COUNTY TRUNK I","address2": "","city": "CHIPPEWA FALLS","state": "WI","zip": "54729","zip+4": "0000","phone": "7157232824"}
{"name": "PETERSON PHARMACY","address1": "727 WATER AVE","address2": "","city": "HILLSBORO","state": "WI","zip": "54634","zip+4": "0000","phone": "6084893141"}
{"name": "PHOENIX PHARMACY INC","address1": "1845 N FARWELL AVE STE 200","address2": "","city": "MILWAUKEE","state": "WI","zip": "53202","zip+4": "0000","phone": "4142254478"}
{"name": "PAMIDA PHARMACY #324","address1": "1008 E DIVISION ST","address2": "","city": "NEILLSVILLE","state": "WI","zip": "54456","zip+4": "2121","phone": "7157436632"}
{"name": "MARSHFIELD CLINIC PHARMACY #5","address1": "906 COLLEGE AVENUE WEST","address2": "","city": "LADYSMITH","state": "WI","zip": "54848","zip+4": "2116","phone": "7155322323"}
{"name": "KMART PHARMACY #3851","address1": "5141 DOUGLAS AVE","address2": "","city": "RACINE","state": "WI","zip": "53402","zip+4": "0000","phone": "2626398947"}
{"name": "KMART PHARMACY #4051","address1": "2424 EAST CLAIRMONT AVE","address2": "","city": "EAU CLAIRE","state": "WI","zip": "54701","zip+4": "0000","phone": "7158347380"}
{"name": "WAL-MART PHARMACY #101635","address1": "W226 SOUTH 1500 HWY 164","address2": "","city": "WAUKESHA","state": "WI","zip": "53186","zip+4": "0000","phone": "2625219204"}
{"name": "WAL-MART PHARMACY #101669","address1": "3915 GATEWAY DRIVE","address2": "","city": "EAU CLAIRE","state": "WI","zip": "54701","zip+4": "0000","phone": "7158345966"}
{"name": "WAL-MART PHARMACY #101672","address1": "2500 EAST LAKE SHORE DRIVE","address2": "","city": "ASHLAND","state": "WI","zip": "54806","zip+4": "0000","phone": "7156823660"}
{"name": "HUHN RX DRUG INC","address1": "522 W MAIN ST","address2": "","city": "ASHLAND","state": "WI","zip": "54806","zip+4": "1512","phone": "7156823123"}
{"name": "FROEDTERT WEST PHARMACY #1","address1": "9200 W WISCONSIN AVE","address2": "SUITE 200 W","city": "MILWAUKEE","state": "WI","zip": "53226","zip+4": "3596","phone": "4148055117"}
{"name": "SCHMITZS ECONOMART PHARMACY","address1": "700 S RIVER ST","address2": "ATTN: PHARMACY","city": "SPOONER","state": "WI","zip": "54801","zip+4": "0000","phone": "7156358785"}
{"name": "WALGREEN DRUG STORE #6243","address1": "5005 DOUGLAS AVE","address2": "","city": "RACINE","state": "WI","zip": "53402","zip+4": "0000","phone": "2626399240"}
{"name": "WAL-MART PHARMACY #101678","address1": "2863 HERITAGE DRIVE","address2": "","city": "DELAFIELD","state": "WI","zip": "53018","zip+4": "0000","phone": "2626463535"}
{"name": "WAL-MART PHARMACY #101643","address1": "377 NORTH ROLLING MEADOWS DRIV","address2": "","city": "FOND DU LAC","state": "WI","zip": "54935","zip+4": "0000","phone": "9209219591"}
{"name": "WAL-MART PHARMACY #101679","address1": "3107 MARKET PLACE","address2": "","city": "ONALASKA","state": "WI","zip": "54650","zip+4": "0000","phone": "6087818355"}
{"name": "DAN FITZGERALD PHARMACY INC","address1": "424 E SILVER SPRING DR","address2": "","city": "WHITEFISH BAY","state": "WI","zip": "53217","zip+4": "5200","phone": "4143328380"}
{"name": "WAL-MART PHARMACY #101447","address1": "3705 TOWER AVENUE","address2": "","city": "SUPERIOR","state": "WI","zip": "54880","zip+4": "0000","phone": "7153929520"}
{"name": "MARSHFIELD CLINIC PHARMACY #4","address1": "9601 TOWNLINE ROAD","address2": "","city": "MINOCQUA","state": "WI","zip": "54548","zip+4": "1390","phone": "7153581216"}
{"name": "PAMIDA PHARMACY #325","address1": "10680 STATE ROAD 77","address2": "","city": "HAYWARD","state": "WI","zip": "54843","zip+4": "6440","phone": "7156348530"}
{"name": "WAL-MART PHARMACY #101727","address1": "822 BROADWAY","address2": "","city": "BERLIN","state": "WI","zip": "54923","zip+4": "0000","phone": "9203613433"}
{"name": "WALGREEN DRUG STORE #5427","address1": "W156 N11261 PILGRIM RD","address2": "","city": "GERMANTOWN","state": "WI","zip": "53022","zip+4": "0000","phone": "2622539710"}
{"name": "KMART PHARMACY #3534","address1": "1275 BELL AVE","address2": "","city": "HARTFORD","state": "WI","zip": "53027","zip+4": "0000","phone": "2626737339"}
{"name": "KMART PHARMACY #9704","address1": "2601 SOUTH MAIN STREET","address2": "","city": "RICE LAKE","state": "WI","zip": "54868","zip+4": "0000","phone": "7152343292"}
{"name": "MEDICINE SHOPPE #0270","address1": "603 NORTH BRIDGE STREET","address2": "","city": "CHIPPEWA FALLS","state": "WI","zip": "54729","zip+4": "2424","phone": "7157239192"}
{"name": "MARSHLAND PHARMACY","address1": "1028 HORICON ST","address2": "","city": "MAYVILLE","state": "WI","zip": "53050","zip+4": "1429","phone": "9203877800"}
{"name": "WALGREEN DRUG STORE #2752","address1": "15350 W BLUEMOUND","address2": "","city": "ELM GROVE","state": "WI","zip": "53122","zip+4": "0000","phone": "2627896816"}
{"name": "WCS CLINIC PHCY #431","address1": "3734 W WISCONSIN AVE","address2": "","city": "MILWAUKEE","state": "WI","zip": "53208","zip+4": "3153","phone": "4143446111"}
{"name": "MIDELFORT LONG TERM CARE PHCY","address1": "1707 WESTGATE RD","address2": "","city": "EAU CLAIRE","state": "WI","zip": "54703","zip+4": "4964","phone": "7158385856"}
{"name": "WALGREEN DRUG STORE #09605","address1": "1810 30TH AVE","address2": "","city": "KENOSHA","state": "WI","zip": "53144","zip+4": "0000","phone": "2625518812"}
{"name": "WAL-MART PHARMACY #101776","address1": "1901 MARKET WAY","address2": "","city": "WATERTOWN","state": "WI","zip": "53094","zip+4": "0000","phone": "9202618601"}
{"name": "WAL-MART PHARMACY #101799","address1": "2950 NEW PINERY ROAD","address2": "","city": "PORTAGE","state": "WI","zip": "53901","zip+4": "0000","phone": "6087421670"}
{"name": "WAL-MART PHARMACY #101819","address1": "180 CEDAR FALLS ROAD","address2": "","city": "MENOMONIE","state": "WI","zip": "54751","zip+4": "0000","phone": "7152357885"}
{"name": "WAL-MART PHARMACY #101828","address1": "250 CROSSROADS DR","address2": "","city": "PLOVER","state": "WI","zip": "54467","zip+4": "0000","phone": "7153457870"}
{"name": "WALGREEN DRUG STORE #7603","address1": "S79 W 18885 JANESVILLE RD","address2": "","city": "MUSKEGO","state": "WI","zip": "53150","zip+4": "0000","phone": "2626795843"}
{"name": "PHILLIPS ROCHE A CRI PHARMACY","address1": "402 WEST LAKE ST","address2": "","city": "FRIENDSHIP","state": "WI","zip": "53934","zip+4": "0000","phone": "6083399080"}
{"name": "AURORA PHARMACY 110 MILWAUKEE","address1": "1575 N RIVERCENTER DR","address2": "","city": "MILWAUKEE","state": "WI","zip": "53212","zip+4": "0000","phone": "4142241555"}
{"name": "MIDELFORT PHARMACY AND HME CLA","address1": "733 W CLAIREMONT AVE","address2": "","city": "EAU CLAIRE","state": "WI","zip": "54701","zip+4": "6101","phone": "7158385000"}
{"name": "KMART PHARMACY #7649","address1": "1200 WEST FOND DU LAC ST","address2": "","city": "RIPON","state": "WI","zip": "54971","zip+4": "0000","phone": "9207481203"}
{"name": "WAL-MART PHARMACY #101908","address1": "2292 MAIN STREET","address2": "","city": "GREEN BAY","state": "WI","zip": "54311","zip+4": "0000","phone": "9204657737"}
{"name": "WAL-MART PHARMACY #101931","address1": "2121 LINCOLN ST","address2": "","city": "RHINELANDER","state": "WI","zip": "54501","zip+4": "0000","phone": "7153628580"}
{"name": "NORTH CENTRAL IV","address1": "138 1/2 N 2ND AVE","address2": "","city": "PARK FALLS","state": "WI","zip": "54552","zip+4": "0000","phone": "7157623283"}
{"name": "AURORA PHARMACY 120 FRANKLIN #","address1": "9200 W LOOMIS RD","address2": "","city": "FRANKLIN","state": "WI","zip": "53132","zip+4": "0000","phone": "4145299275"}
{"name": "CLINIC PHARMACY OF WEST SALEM","address1": "210 N LEONARD ST STE 102","address2": "","city": "WEST SALEM","state": "WI","zip": "54669","zip+4": "1623","phone": "6087862828"}
{"name": "WALGREEN DRUG STORE #12693","address1": "729 W NORTHLAND AVE","address2": "","city": "APPLETON","state": "WI","zip": "54911","zip+4": "0000","phone": "9209548080"}
{"name": "MIDELFORT PHCY LUTHER CAMPUS","address1": "1400 BELLINGER ST","address2": "","city": "EAU CLAIRE","state": "WI","zip": "54703","zip+4": "0000","phone": "7158386000"}
{"name": "MARSHFIELD CLINIC PHARMACY #3","address1": "1700 W STOUT ST","address2": "","city": "RICE LAKE","state": "WI","zip": "54868","zip+4": "1202","phone": "7152368103"}
{"name": "MARSHFIELD CLINIC PHARMACY #2","address1": "1000 N OAK AVE","address2": "","city": "MARSHFIELD","state": "WI","zip": "54449","zip+4": "5777","phone": "7153893891"}
{"name": "BAD RIVER CLINIC PHARMACY","address1": "101 MAPLE RD","address2": "","city": "ODANAH","state": "WI","zip": "54861","zip+4": "0000","phone": "7156828518"}
{"name": "WAL-MART PHARMACY #101982","address1": "955 NORTH MUTUAL WAY","address2": "","city": "APPLETON","state": "WI","zip": "54913","zip+4": "0000","phone": "9209546400"}
{"name": "LAKEVIEW LTC PHARMACY","address1": "517 WISCONSIN AVE","address2": "","city": "RACINE","state": "WI","zip": "53403","zip+4": "1050","phone": "2626328215"}
{"name": "WALGREEN DRUG STORE #2911","address1": "6292 SOUTH 27TH ST","address2": "","city": "MILWAUKEE","state": "WI","zip": "53221","zip+4": "0000","phone": "4147610909"}
{"name": "WALGREEN DRUG STORE #2925","address1": "5115 W CAPITOL DR","address2": "","city": "MILWAUKEE","state": "WI","zip": "53216","zip+4": "0000","phone": "4144442010"}
{"name": "WALGREEN DRUG STORE #2927","address1": "4810 WASHINGTON AVE","address2": "","city": "RACINE","state": "WI","zip": "53406","zip+4": "0000","phone": "2626350180"}
{"name": "MIDELFORT PHARMACY OSSEO","address1": "13025 8TH ST","address2": "","city": "OSSEO","state": "WI","zip": "54758","zip+4": "0070","phone": "7155973166"}
{"name": "SHOPKO PHARMACY #116","address1": "518 S TAYLOR DR","address2": "","city": "SHEBOYGAN","state": "WI","zip": "53081","zip+4": "4253","phone": "9204580040"}
{"name": "KMART PHARMACY #3970","address1": "1425 E HIGHWAY 151","address2": "","city": "PLATTEVILLE","state": "WI","zip": "53818","zip+4": "0000","phone": "6083486577"}
{"name": "WALGREEN DRUG STORE #3125","address1": "8615 N PORT WASHINGTON RD","address2": "","city": "FOX POINT","state": "WI","zip": "53217","zip+4": "0000","phone": "4143520500"}
{"name": "AURORA PHARMACY 130 NEW BERLIN","address1": "14555 W NATIONAL AVE","address2": "SUITE 100","city": "NEW BERLIN","state": "WI","zip": "53151","zip+4": "0000","phone": "2628279062"}
{"name": "WALGREEN DRUG STORE #3088","address1": "1401 EAST MASON","address2": "","city": "GREEN BAY","state": "WI","zip": "54301","zip+4": "0000","phone": "9204357141"}
{"name": "WALGREEN DRUG STORE #3104","address1": "2702 CALUMET","address2": "","city": "MANITOWOC","state": "WI","zip": "54220","zip+4": "0000","phone": "9206838881"}
{"name": "WALGREEN DRUG STORE #3064","address1": "2015 TOWER AVENUE","address2": "","city": "SUPERIOR","state": "WI","zip": "54880","zip+4": "0000","phone": "7153928980"}
{"name": "THE BLAIR PHARMACY","address1": "125 W BROADWAY ST","address2": "","city": "BLAIR","state": "WI","zip": "54616","zip+4": "0000","phone": "6089892919"}
{"name": "WALGREEN DRUG STORE #13066","address1": "204 N CENTRAL","address2": "","city": "MARSHFIELD","state": "WI","zip": "54449","zip+4": "0000","phone": "7153849703"}
{"name": "TARGET PHARMACY #0889","address1": "3535 TOWER AVE","address2": "","city": "SUPERIOR","state": "WI","zip": "54880","zip+4": "0000","phone": "7153929876"}
{"name": "CO-OP PHARMACY","address1": "15870 W FIRST STREET","address2": "","city": "HAYWARD","state": "WI","zip": "54843","zip+4": "0000","phone": "7156348238"}
{"name": "SHOPKO PHARMACY #120","address1": "405 W 8TH ST","address2": "","city": "MONROE","state": "WI","zip": "53566","zip+4": "1063","phone": "6083283310"}
{"name": "MORTON PHARMACY","address1": "1855 S KOELLER STREET","address2": "","city": "OSHKOSH","state": "WI","zip": "54902","zip+4": "0000","phone": "9202237390"}
{"name": "PAMIDA PHARMACY #340","address1": "N2585 PLAZA RD","address2": "","city": "WAUTOMA","state": "WI","zip": "54982","zip+4": "7706","phone": "9207872090"}
{"name": "WALGREEN DRUG STORE #3133","address1": "2301 S ONEIDA","address2": "","city": "GREEN BAY","state": "WI","zip": "54304","zip+4": "0000","phone": "9204900420"}
{"name": "WALGREEN DRUG STORE #3253","address1": "2204 UNIVERSITY AVE","address2": "","city": "GREEN BAY","state": "WI","zip": "54302","zip+4": "0000","phone": "9204695508"}
{"name": "WALGREEN DRUG STORE #2296","address1": "2727 W NORTH AVENUE","address2": "","city": "MILWAUKEE","state": "WI","zip": "53208","zip+4": "0000","phone": "4149339119"}
{"name": "WALGREEN DRUG STORE #3153","address1": "3820 52ND STREET","address2": "","city": "KENOSHA","state": "WI","zip": "53144","zip+4": "0000","phone": "2626529662"}
{"name": "OHDE HEALTH MART PHARMACY","address1": "628 2ND ST","address2": "","city": "CHETEK","state": "WI","zip": "54728","zip+4": "0000","phone": "7159243592"}
{"name": "WAL-MART PHARMACY #102127","address1": "4300 RIB MOUNTAIN DRIVE","address2": "","city": "WAUSAU","state": "WI","zip": "54401","zip+4": "0000","phone": "7153596877"}
{"name": "AURORA PHARMACY 150 KENOSHA #1","address1": "10400 75TH ST","address2": "","city": "KENOSHA","state": "WI","zip": "53142","zip+4": "0000","phone": "2629487040"}
{"name": "AURORA PHARMACY 140 BURLINGTON","address1": "250 MCHENRY ST","address2": "","city": "BURLINGTON","state": "WI","zip": "53105","zip+4": "0000","phone": "2627676004"}
{"name": "ASPIRUS WAUSAU HOSPITAL OUTPAT","address1": "333 PINE RIDGE BLVD","address2": "","city": "WAUSAU","state": "WI","zip": "54401","zip+4": "0000","phone": "7158472871"}
{"name": "SHOPKO PHARMACY #130","address1": "1777 PAULSON RD","address2": "","city": "RIVER FALLS","state": "WI","zip": "54022","zip+4": "8299","phone": "7154256272"}
{"name": "WAL-MART PHARMACY #102271","address1": "1244 EAST GREEN BAY","address2": "","city": "SHAWANO","state": "WI","zip": "54166","zip+4": "0000","phone": "7155245983"}
{"name": "AURORA PHARMACY 160 WAUKESHA #","address1": "W231 N1440 CORPORATE CT","address2": "","city": "WAUKESHA","state": "WI","zip": "53186","zip+4": "0000","phone": "2628966040"}
{"name": "WALGREEN DRUG STORE #3394","address1": "9100 WEST BELOIT","address2": "","city": "MILWAUKEE","state": "WI","zip": "53227","zip+4": "0000","phone": "4143281171"}
{"name": "WAUSHARA FAMILY PHYSICIANS","address1": "701 GROVE AVE","address2": "","city": "WILD ROSE","state": "WI","zip": "54984","zip+4": "0314","phone": "9206225560"}
{"name": "SHOPKO PHARMACY #132","address1": "320 S ACCESS RD","address2": "","city": "RICE LAKE","state": "WI","zip": "54868","zip+4": "8572","phone": "7152367414"}
{"name": "SHOPKO PHARMACY #127","address1": "1450 E GENEVA ST","address2": "","city": "DELAVAN","state": "WI","zip": "53115","zip+4": "2025","phone": "2627280062"}
{"name": "29 SUPER PHARMACY","address1": "2806 SCHOFIELD AVE","address2": "","city": "SCHOFIELD","state": "WI","zip": "54476","zip+4": "2431","phone": "7153593194"}
{"name": "WALGREEN DRUG STORE #3509","address1": "620 W OKLAHOMA AVE","address2": "","city": "MILWAUKEE","state": "WI","zip": "53215","zip+4": "0000","phone": "4147441151"}
{"name": "SOUTHSIDE PHARMACY","address1": "2106 GRAND AVE","address2": "","city": "WAUSAU","state": "WI","zip": "54403","zip+4": "0000","phone": "7158453713"}
{"name": "WALGREEN DRUG STORE #3458","address1": "601 W MILWAUKEE ST","address2": "","city": "JANESVILLE","state": "WI","zip": "53545","zip+4": "0000","phone": "6087559808"}
{"name": "DEAN PHARMACY #7","address1": "580 N WASHINGTON ST","address2": "STE 300","city": "JANESVILLE","state": "WI","zip": "53548","zip+4": "2908","phone": "6087553599"}
{"name": "WAL-MART PHARMACY #102421","address1": "2212 GLACIER DRIVE","address2": "","city": "ST CROIX FALLS","state": "WI","zip": "54024","zip+4": "0000","phone": "7154831499"}
{"name": "CORAM SPECIALTY INFUSION SERVI","address1": "5345 S MOORLAND RD STE 101","address2": "","city": "NEW BERLIN","state": "WI","zip": "53151","zip+4": "4137","phone": "2622071590"}
{"name": "WALGREEN DRUG STORE #3666","address1": "4405 W LAYTON AVENUE","address2": "","city": "GREENFIELD","state": "WI","zip": "53220","zip+4": "0000","phone": "4142815467"}
{"name": "AURORA PHARMACY 192 OAK CREEK","address1": "6462 S 27TH ST","address2": "","city": "OAK CREEK","state": "WI","zip": "53154","zip+4": "0000","phone": "4147611550"}
{"name": "AURORA PHARMACY INC #191","address1": "250 W HOLT AVE","address2": "","city": "MILWAUKEE","state": "WI","zip": "53207","zip+4": "0000","phone": "4147698990"}
{"name": "AURORA PHARMACY 190 BROOKFIELD","address1": "12735 W CAPITAL DR","address2": "","city": "BROOKFIELD","state": "WI","zip": "53005","zip+4": "0000","phone": "2627837302"}
{"name": "THE PHARMACY STATION","address1": "601 N MILWAUKEE ST","address2": "","city": "WATERFORD","state": "WI","zip": "53185","zip+4": "0000","phone": "2625349222"}
{"name": "HEALTH MART KIEL PHARMACY","address1": "630 FREMONT ST","address2": "","city": "KIEL","state": "WI","zip": "53042","zip+4": "1321","phone": "9208943141"}
{"name": "DOOR CREEK PHARMACY","address1": "431 W COTTAGE GROVE ROAD","address2": "","city": "COTTAGE GROVE","state": "WI","zip": "53527","zip+4": "0000","phone": "6088393784"}
{"name": "WALGREEN DRUG STORE #3738","address1": "7535 N GREEN BAY RD","address2": "","city": "KENOSHA","state": "WI","zip": "53142","zip+4": "0000","phone": "2626978683"}
{"name": "WALGREEN DRUG STORE #3615","address1": "21325 E MORELAND BLVD","address2": "","city": "WAUKESHA","state": "WI","zip": "53186","zip+4": "0000","phone": "2627980140"}
{"name": "PHARMACARE SATELLITE","address1": "4505 S TAYLOR DR","address2": "","city": "SHEBOYGAN","state": "WI","zip": "53081","zip+4": "0000","phone": "9208039922"}
{"name": "AURORA PHARMACY 050 ST FRANCIS","address1": "2000 E LAYTON AVE","address2": "","city": "ST FRANCIS","state": "WI","zip": "53235","zip+4": "0000","phone": "4144833800"}
{"name": "WALGREEN DRUG STORE #3115","address1": "1165 W MASON STREET","address2": "","city": "GREEN BAY","state": "WI","zip": "54303","zip+4": "0000","phone": "9204988789"}
{"name": "AURORA PHARMACY 060 WEST ALLIS","address1": "2424 S 90TH ST","address2": "","city": "WEST ALLIS","state": "WI","zip": "53227","zip+4": "0000","phone": "4145469722"}
{"name": "WALGREEN DRUG STORE #3851","address1": "305 RACINE ST","address2": "","city": "MENASHA","state": "WI","zip": "54952","zip+4": "0000","phone": "9207224748"}
{"name": "AURORA PHARMACY 070 RACINE #07","address1": "8348 WASHINGTON AVE","address2": "","city": "RACINE","state": "WI","zip": "53406","zip+4": "0000","phone": "2628844030"}
{"name": "AURORA PHARMACY #194","address1": "3355 W FOREST HOME AVE","address2": "","city": "MILWAUKEE","state": "WI","zip": "53215","zip+4": "0000","phone": "4143850244"}
{"name": "WAL-MART PHARMACY #102509","address1": "810 SOUTH IRISH ROAD","address2": "","city": "CHILTON","state": "WI","zip": "53014","zip+4": "0000","phone": "9208497330"}
{"name": "WAL-MART PHARMACY #102510","address1": "8760 N RIDGEWAY","address2": "","city": "MINOCQUA","state": "WI","zip": "54548","zip+4": "0000","phone": "7153563782"}
{"name": "AURORA PHARMACY 195 NEW BERLIN","address1": "15445 W NATIONAL AVE","address2": "","city": "NEW BERLIN","state": "WI","zip": "53151","zip+4": "0000","phone": "2629380133"}
{"name": "NICOLET PHARMACY INC","address1": "15481 COMMERCIAL RD","address2": "STE A","city": "LAKEWOOD","state": "WI","zip": "54138","zip+4": "0000","phone": "7152763646"}
{"name": "AURORA PHARMACY 196 RACINE #19","address1": "2210 RAPIDS DR","address2": "","city": "RACINE","state": "WI","zip": "53404","zip+4": "0000","phone": "2626330543"}
{"name": "AURORA PHARMACY 090 MILWAUKEE","address1": "2900 W OKLAHOMA AVE","address2": "","city": "MILWAUKEE","state": "WI","zip": "53215","zip+4": "0000","phone": "4146496930"}
{"name": "WAL-MART PHARMACY #102335","address1": "4198 NAKOOSA TRAIL","address2": "","city": "MADISON","state": "WI","zip": "53714","zip+4": "0000","phone": "6082412151"}
{"name": "FALKS LIGNELL PHARMACY","address1": "69 N 28TH ST","address2": "STE 36","city": "SUPERIOR","state": "WI","zip": "54880","zip+4": "0000","phone": "7153924722"}
{"name": "AURORA PHARMACY 197 MILWAUKEE","address1": "1818 W NATIONAL AVE","address2": "","city": "MILWAUKEE","state": "WI","zip": "53204","zip+4": "0000","phone": "4146728815"}
{"name": "HEMOPHILIA OUTREACH CENTER","address1": "2060 BELLEVUE ST","address2": "","city": "GREEN BAY","state": "WI","zip": "54311","zip+4": "0000","phone": "9209650606"}
{"name": "AURORA PHARMACY 198 OAK CREEK","address1": "8770 S HOWELL AVE","address2": "","city": "OAK CREEK","state": "WI","zip": "53154","zip+4": "0000","phone": "4147626770"}
{"name": "AURORA PHARMACY 145 ELKHORN #1","address1": "W3985 COUNTY RD NN","address2": "","city": "ELKHORN","state": "WI","zip": "53121","zip+4": "0000","phone": "2627412311"}
{"name": "ASMC PHARMACY #1091","address1": "1020 N 12TH ST","address2": "","city": "MILWAUKEE","state": "WI","zip": "53233","zip+4": "0000","phone": "4142197963"}
{"name": "AURORA PHARMACY 135 OCONOMOWOC","address1": "913 SUMMIT AVE","address2": "","city": "OCONOMOWOC","state": "WI","zip": "53066","zip+4": "0000","phone": "2625698204"}
{"name": "AURORA PHARMACY 200 OSHKOSH #2","address1": "1940 S KOELLER DR","address2": "","city": "OSHKOSH","state": "WI","zip": "54902","zip+4": "0000","phone": "9202369494"}
{"name": "WAL-MART PHARMACY #102532","address1": "2785 MILWAUKEE ROAD","address2": "","city": "BELOIT","state": "WI","zip": "53511","zip+4": "0000","phone": "6083627774"}
{"name": "AURORA PHARMACY 155 DEPERE #15","address1": "1881 CHICAGO ST","address2": "","city": "DEPERE","state": "WI","zip": "54115","zip+4": "0000","phone": "9204038050"}
{"name": "WALGREEN DRUG STORE #4254","address1": "5201 N 91ST ST","address2": "","city": "MILWAUKEE","state": "WI","zip": "53225","zip+4": "0000","phone": "4145272013"}
{"name": "AURORA PHARMACY 055 WEST BEND","address1": "205 VALLEY AVE","address2": "","city": "WEST BEND","state": "WI","zip": "53095","zip+4": "0000","phone": "2623382311"}
{"name": "AURORA PHARMACY 012 CUDAHY #01","address1": "5900 S LAKE DR","address2": "","city": "CUDAHY","state": "WI","zip": "53110","zip+4": "0000","phone": "4144894600"}
{"name": "AURORA PHARMACY 203 WALES #203","address1": "W320 S 1807B STATE RD 83","address2": "","city": "WALES","state": "WI","zip": "53183","zip+4": "0000","phone": "2629689570"}
{"name": "WALGREEN DRUG STORE #4095","address1": "10800 W CAPITOL","address2": "","city": "WAUWATOSA","state": "WI","zip": "53222","zip+4": "0000","phone": "4144661215"}
{"name": "MERCY WEST PHARMACY","address1": "1000 MINERAL POINT","address2": "","city": "JANESVILLE","state": "WI","zip": "53548","zip+4": "2940","phone": "6087416980"}
{"name": "DEAN PHARMACY #8","address1": "700 S PARK ST","address2": "STE 300","city": "MADISON","state": "WI","zip": "53715","zip+4": "1849","phone": "6082566465"}
{"name": "AURORA PHARMACY 227 PLYMOUTH #","address1": "2635 EASTERN AVE","address2": "","city": "PLYMOUTH","state": "WI","zip": "53073","zip+4": "0000","phone": "9208931442"}
{"name": "AURORA PHARMACY 014 SOUTH MILW","address1": "2414 10TH AVE","address2": "","city": "SOUTH MILWAUKEE","state": "WI","zip": "53172","zip+4": "0000","phone": "4147622610"}
{"name": "COUNTY MARKET PHARMACY","address1": "2310 CRESTVIEW DR","address2": "","city": "HUDSON","state": "WI","zip": "54016","zip+4": "0000","phone": "7153815923"}
{"name": "WAL-MART PHARMACY #102545","address1": "2700 ROOSEVELT ROAD","address2": "","city": "MARINETTE","state": "WI","zip": "54143","zip+4": "0000","phone": "7157355593"}
{"name": "AURORA PHARMACY 204 MILWAUKEE","address1": "3701 S 27TH ST","address2": "","city": "MILWAUKEE","state": "WI","zip": "53221","zip+4": "0000","phone": "4142813622"}
{"name": "AURORA PHARMACY 094 MILWAUKEE","address1": "2801 W KK RIVER PARKWAY","address2": "","city": "MILWAUKEE","state": "WI","zip": "53215","zip+4": "0000","phone": "4146496738"}
{"name": "MEDICINE SHOPPE PHARMACY #1529","address1": "5700 U S HIGHWAY 51","address2": "","city": "MC FARLAND","state": "WI","zip": "53558","zip+4": "0000","phone": "6088385700"}
{"name": "WALGREEN DRUG STORE #3448","address1": "11270 N PORT WASHINGTON RD","address2": "","city": "MEQUON","state": "WI","zip": "53092","zip+4": "0000","phone": "2622415147"}
{"name": "WHEATON FRANCISCAN PHARMACY #4","address1": "3807 SPRING ST","address2": "","city": "RACINE","state": "WI","zip": "53403","zip+4": "0000","phone": "2626318430"}
{"name": "AURORA PHARMACY 032 FOND DU LA","address1": "210 WISCONSIN AMERICAN DR","address2": "","city": "FOND DU LAC","state": "WI","zip": "54935","zip+4": "0000","phone": "9209077260"}
{"name": "AURORA PHARMACY 168 GREEN BAY","address1": "2845 GREEN BRIER RD","address2": "","city": "GREEN BAY","state": "WI","zip": "54311","zip+4": "0000","phone": "9202883140"}
{"name": "RED CEDAR MEDICAL CENTER PHARM","address1": "2321 STOUT RD","address2": "","city": "MENOMONIE","state": "WI","zip": "54751","zip+4": "0000","phone": "7152337500"}
{"name": "AURORA PHARMACY 056 WEST BEND","address1": "2384 W WASHINGTON ST","address2": "","city": "WEST BEND","state": "WI","zip": "53095","zip+4": "0000","phone": "2623344033"}
{"name": "AURORA PHARMACY 065 HARTLAND #","address1": "109 E CAPITAL DR","address2": "","city": "HARTLAND","state": "WI","zip": "53029","zip+4": "0000","phone": "2623673141"}
{"name": "CHN PHARMACY # #1","address1": "N2934 HWY 22 N","address2": "","city": "WAUTOMA","state": "WI","zip": "54982","zip+4": "5267","phone": "9207875757"}
{"name": "AURORA PHARMACY 058 KEWASKUM #","address1": "927 FOND DU LAC AVE","address2": "","city": "KEWASKUM","state": "WI","zip": "53040","zip+4": "0000","phone": "2626264222"}
{"name": "WALGREEN DRUG STORE #4556","address1": "6210 W LOOMIS","address2": "","city": "GREENDALE","state": "WI","zip": "53129","zip+4": "0000","phone": "4144230986"}
{"name": "AURORA PHARMACY 026 MILWAUKEE","address1": "1218 W KILBOURN AVE","address2": "","city": "MILWAUKEE","state": "WI","zip": "53233","zip+4": "0000","phone": "4142197343"}
{"name": "RIVERSIDE CLINIC PHARMACY","address1": "800 RIVERSIDE DR","address2": "","city": "WAUPACA","state": "WI","zip": "54981","zip+4": "0000","phone": "7152561115"}
{"name": "FROEDTERT EAST PHARMACY","address1": "9200 W WISCONSIN AVE","address2": "SUITE 100E","city": "MILWAUKEE","state": "WI","zip": "53226","zip+4": "0000","phone": "4148056501"}
{"name": "MORTON PHARMACY","address1": "2700 W NINTH STREET","address2": "","city": "OSHKOSH","state": "WI","zip": "54904","zip+4": "0000","phone": "9202361430"}
{"name": "AURORA PHARMACY 143 BURLINGTON","address1": "210 S PINE ST","address2": "","city": "BURLINGTON","state": "WI","zip": "53105","zip+4": "0000","phone": "2627637177"}
{"name": "AURORA PHARMACY 098 BROOKFIELD","address1": "13935 W CAPITAL DR","address2": "","city": "BROOKFIELD","state": "WI","zip": "53005","zip+4": "0000","phone": "2627817410"}
{"name": "AURORA PHARMACY 097 MEQUON #09","address1": "10928 N PORT WASHINGTON RD","address2": "SUITE 100","city": "MEQUON","state": "WI","zip": "53092","zip+4": "0000","phone": "2622415320"}
{"name": "WALGREEN DRUG STORE #4533","address1": "315 W MURDOCK","address2": "","city": "OSHKOSH","state": "WI","zip": "54901","zip+4": "0000","phone": "9202318173"}
{"name": "APRIA HEALTHCARE #131","address1": "5345 S MOORLAND RD","address2": "","city": "NEW BERLIN","state": "WI","zip": "53151","zip+4": "0000","phone": "2622071590"}
{"name": "AURORA PHARMACY 208 WEST ALLIS","address1": "6760 W NATIONAL AVE","address2": "","city": "WEST ALLIS","state": "WI","zip": "53214","zip+4": "0000","phone": "4144765111"}
{"name": "MEDICINE SHOPPE PHARMACY #1564","address1": "1500 WASHINGTON STREET","address2": "","city": "TWO RIVERS","state": "WI","zip": "54241","zip+4": "0000","phone": "9207941225"}
{"name": "AURORA PHARMACY 011 FRANKLIN #","address1": "6572 S LOVERS LANE RD","address2": "","city": "FRANKLIN","state": "WI","zip": "53132","zip+4": "0000","phone": "4144252000"}
{"name": "TRIGS COUNTY MARKET PHARMACY","address1": "1600 ACADEMY AVE","address2": "","city": "STEVENS POINT","state": "WI","zip": "54481","zip+4": "0000","phone": "7153416102"}
{"name": "AURORA PHARMACY 228 KIEL #228","address1": "1001 SERVICE RD","address2": "SUITE 101","city": "KIEL","state": "WI","zip": "53042","zip+4": "0000","phone": "9208944370"}
{"name": "WALGREEN DRUG STORE #4827","address1": "4688 S 108TH ST","address2": "","city": "GREENFIELD","state": "WI","zip": "53228","zip+4": "0000","phone": "4144271195"}
{"name": "AURORA PHARMACY 153 KEWAUNEE #","address1": "931 MARQUETTE DR","address2": "","city": "KEWAUNEE","state": "WI","zip": "54216","zip+4": "0000","phone": "9203882227"}
{"name": "WALGREEN DRUG STORE #4805","address1": "4518 COTTAGE GROVE RD AT ACEWO","address2": "","city": "MADISON","state": "WI","zip": "53716","zip+4": "0000","phone": "6082221106"}
{"name": "AURORA PHARMACY 067 HARTLAND #","address1": "600 WALNUT RIDGE DR","address2": "","city": "HARTLAND","state": "WI","zip": "53029","zip+4": "0000","phone": "2623697080"}
{"name": "BELLIN HEALTH PHARMACY","address1": "595 COUNTY TRUNK R","address2": "PO BOX 730","city": "DENMARK","state": "WI","zip": "54208","zip+4": "0000","phone": "9208635800"}
{"name": "DULUTH CLINIC-HAYWARD PHARMACY","address1": "11134 N HWY 77","address2": "","city": "HAYWARD","state": "WI","zip": "54843","zip+4": "5325","phone": "7156346774"}
{"name": "ALLIANCE PHARMACY SERVICES LLC","address1": "407 PILOT CT","address2": "STE 200","city": "WAUKESHA","state": "WI","zip": "53188","zip+4": "0000","phone": "2625133333"}
{"name": "TARGET PHARMACY #0024","address1": "4777 SOUTH 27TH STREET","address2": "","city": "GREENFIELD","state": "WI","zip": "53221","zip+4": "0000","phone": "4142820634"}
{"name": "WAL-MART PHARMACY #102658","address1": "1515 WEST PARADISE DR.","address2": "","city": "WEST BEND","state": "WI","zip": "53095","zip+4": "0000","phone": "2623349860"}
{"name": "WAL-MART PHARMACY #102668","address1": "3049 SOUTH OAKES ROAD","address2": "","city": "STURTEVANT","state": "WI","zip": "53177","zip+4": "0000","phone": "2625988528"}
{"name": "PAMIDA PHARMACY #373","address1": "220 W LINCOLN ST","address2": "","city": "ADAMS","state": "WI","zip": "53910","zip+4": "9459","phone": "6083393630"}
{"name": "AURORA PHARMACY 062 WEST ALLIS","address1": "7220 W NATIONAL AVE","address2": "","city": "WEST ALLIS","state": "WI","zip": "53214","zip+4": "0000","phone": "4147711350"}
{"name": "WALGREEN DRUG STORE #4830","address1": "5300 MONONA DRIVE","address2": "","city": "MONONA","state": "WI","zip": "53716","zip+4": "0000","phone": "6082269916"}
{"name": "YE OLDE PHARMACY AND WELLNESS","address1": "N54 W6135 MILL ST","address2": "STE 300","city": "CEDARBURG","state": "WI","zip": "53012","zip+4": "0000","phone": "2623750010"}
{"name": "WALGREEN DRUG STORE #5087","address1": "2931 S FISH HATCHERY RD","address2": "","city": "FITCHBURG","state": "WI","zip": "53711","zip+4": "0000","phone": "6082770119"}
{"name": "BELLIN HEALTH PHARMACY","address1": "744 S WEBSTER AVE","address2": "","city": "GREEN BAY","state": "WI","zip": "54305","zip+4": "0000","phone": "9204315696"}
{"name": "WALGREEN DRUG STORE #4888","address1": "15650 W GREENFIELD AVE","address2": "","city": "BROOKFIELD","state": "WI","zip": "53005","zip+4": "0000","phone": "2627863606"}
{"name": "WALGREEN DRUG STORE #4984","address1": "6707 W HAMPTON AVE","address2": "","city": "MILWAUKEE","state": "WI","zip": "53218","zip+4": "0000","phone": "4145361053"}
{"name": "ASMC PHARMACY #1085","address1": "945 N 12TH ST","address2": "","city": "MILWAUKEE","state": "WI","zip": "53233","zip+4": "0000","phone": "4142193100"}
{"name": "PESHTIGO HEALTH CARE PHARMACY","address1": "121 FRENCH ST","address2": "","city": "PESHTIGO","state": "WI","zip": "54157","zip+4": "0000","phone": "7155824140"}
{"name": "MINISTRY HOME CARE PLUS","address1": "1927 NORTH CENTRAL AVE","address2": "STE B","city": "MARSHFIELD","state": "WI","zip": "54449","zip+4": "0000","phone": "7153879815"}
{"name": "AURORA PHARMACY 061 WEST ALLIS","address1": "2625 S 108TH ST","address2": "","city": "WEST ALLIS","state": "WI","zip": "53227","zip+4": "0000","phone": "4143284051"}
{"name": "OMNICARE OF APPLETON #00714","address1": "3101 E ENTERPRISE AVE","address2": "","city": "APPLETON","state": "WI","zip": "54913","zip+4": "0000","phone": "9209548401"}
{"name": "WALGREEN DRUG STORE #5309","address1": "1441 CAPITOL DR","address2": "","city": "PEWAUKEE","state": "WI","zip": "53072","zip+4": "0000","phone": "2626953079"}
{"name": "AURORA PHARMACY 031 SHEBOYGAN","address1": "2927 N 15TH ST","address2": "SUITE 100","city": "SHEBOYGAN","state": "WI","zip": "53083","zip+4": "0000","phone": "9204584348"}
{"name": "WALGREEN DRUG STORE #4774","address1": "8333 W GREENFIELD AVE","address2": "","city": "WEST ALLIS","state": "WI","zip": "53214","zip+4": "4441","phone": "4144430380"}
{"name": "PAMIDA PHARMACY #390","address1": "1800 LAKE SHORE DR E","address2": "","city": "ASHLAND","state": "WI","zip": "54806","zip+4": "2268","phone": "7156828306"}
{"name": "WALGREEN DRUG STORE #5233","address1": "6601 MCKEE RD","address2": "","city": "MADISON","state": "WI","zip": "53719","zip+4": "0000","phone": "6088488282"}
{"name": "PAMIDA PHARMACY #387","address1": "1625 US 61","address2": "","city": "LANCASTER","state": "WI","zip": "53813","zip+4": "0000","phone": "6087237679"}
{"name": "MARSHFIELD CLINIC PHARMACY #7","address1": "2116 CRAIG ROAD","address2": "","city": "EAU CLAIRE","state": "WI","zip": "54701","zip+4": "6149","phone": "7158584811"}
{"name": "WALGREEN DRUG STORE #5280","address1": "950 KOELLER RD","address2": "","city": "OSHKOSH","state": "WI","zip": "54902","zip+4": "0000","phone": "9203031495"}
{"name": "AURORA PHARMACY 205 WATERTOWN","address1": "204 E MAIN ST","address2": "","city": "WATERTOWN","state": "WI","zip": "53094","zip+4": "0000","phone": "9202611776"}
{"name": "AURORA PHARMACY 157 STURGEON B","address1": "1910 ALABAMA ST","address2": "","city": "STURGEON BAY","state": "WI","zip": "54235","zip+4": "0000","phone": "9207467340"}
{"name": "WALGREEN DRUG STORE #4240","address1": "3710 EAST WASHINGTON AV","address2": "","city": "MADISON","state": "WI","zip": "53704","zip+4": "0000","phone": "6082429362"}
{"name": "WALGREEN DRUG STORE #5459","address1": "9909 W LOOMIS RD","address2": "","city": "FRANKLIN","state": "WI","zip": "53132","zip+4": "0000","phone": "4144277182"}
{"name": "WALGREEN DRUG STORE #5417","address1": "6125 DURAND AVE","address2": "","city": "RACINE","state": "WI","zip": "53406","zip+4": "0000","phone": "2625541283"}
{"name": "TARGET PHARMACY #1235","address1": "2401 COULEE ROAD","address2": "","city": "HUDSON","state": "WI","zip": "54016","zip+4": "0000","phone": "7153813603"}
{"name": "TARGET PHARMACY #1212","address1": "1250 PORT WASHINTON ROAD","address2": "","city": "GRAFTON","state": "WI","zip": "53024","zip+4": "0000","phone": "2623756738"}
{"name": "TARGET PHARMACY #0057","address1": "8501 WEST BROWN DEER RD","address2": "","city": "MILWAUKEE","state": "WI","zip": "53224","zip+4": "0000","phone": "4143553401"}
{"name": "SHOPKO PHARMACY #170","address1": "2200 LINCOLN ST","address2": "","city": "RHINELANDER","state": "WI","zip": "54501","zip+4": "3631","phone": "7153623999"}
{"name": "THRIFTY WHITE DRUG #48","address1": "609 NORTH SPRING STREET","address2": "","city": "BEAVER DAM","state": "WI","zip": "53916","zip+4": "2041","phone": "9208853277"}
{"name": "AURORA PHARMACY 159 WAUKESHA #","address1": "304 DELAFIELD ST","address2": "SUITE 100","city": "WAUKESHA","state": "WI","zip": "53188","zip+4": "0000","phone": "2625428006"}
{"name": "AURORA PHARMACY 174 WALWORTH #","address1": "525 KENOSHA ST","address2": "STE C","city": "WALWORTH","state": "WI","zip": "53184","zip+4": "0000","phone": "2622750936"}
{"name": "MARSHFIELD CLINIC PHARMACY #8","address1": "630 S CENTRAL AVE STE 106","address2": "","city": "MARSHFIELD","state": "WI","zip": "54449","zip+4": "5777","phone": "7153895900"}
{"name": "AURORA PHARMACY 053 SLINGER #0","address1": "1054 E COMMERCE BLVD","address2": "","city": "SLINGER","state": "WI","zip": "53086","zip+4": "0000","phone": "2626445246"}
{"name": "AURORA PHARMACY 152 ROTHSCILD","address1": "10101 MARKET ST","address2": "SUITE D102","city": "ROTHSCHILD","state": "WI","zip": "54474","zip+4": "0000","phone": "7152410245"}
{"name": "AURORA PHARMACY 206 MILWAUKEE","address1": "7830 W GOOD HOPE RD","address2": "","city": "MILWAUKEE","state": "WI","zip": "53223","zip+4": "0000","phone": "4147603273"}
{"name": "WEST BEND ASSISTED LIVING PHAR","address1": "W209 N17321 INDUSTRIAL DR","address2": "","city": "JACKSON","state": "WI","zip": "53037","zip+4": "0000","phone": "2626771401"}
{"name": "AURORA PHARMACY 017 WAUWATOSA","address1": "1220 DEWEY AVE","address2": "","city": "WAUWATOSA","state": "WI","zip": "53213","zip+4": "0000","phone": "4144546796"}
{"name": "DEAN PHARMACY #9","address1": "752 N HIGH POINT RD","address2": "STE 300","city": "MADISON","state": "WI","zip": "53717","zip+4": "2236","phone": "6088244500"}
{"name": "WALGREEN DRUG STORE #5601","address1": "4730 S 27TH ST","address2": "","city": "MILWAUKEE","state": "WI","zip": "53221","zip+4": "1828","phone": "4148178686"}
{"name": "WALGREEN DRUG STORE #5669","address1": "401 W MAIN ST","address2": "","city": "WAUNAKEE","state": "WI","zip": "53597","zip+4": "0000","phone": "6088506200"}
{"name": "TARGET PHARMACY #1248","address1": "1800 SOUTH KENSINGTON DRIVE","address2": "","city": "APPLETON","state": "WI","zip": "54915","zip+4": "0000","phone": "9207499775"}
{"name": "TARGET PHARMACY #0082","address1": "2401 KOSSOW ROAD","address2": "","city": "WAUKESHA","state": "WI","zip": "53186","zip+4": "0000","phone": "2627848417"}
{"name": "SAMS PHARMACY #106303","address1": "1540 SOUTH 108TH STREET","address2": "","city": "WEST ALLIS","state": "WI","zip": "53214","zip+4": "0000","phone": "4144535039"}
{"name": "AURORA PHARMACY 034 OSHKOSH #0","address1": "855 N WESTHAVEN DR","address2": "","city": "OSHKOSH","state": "WI","zip": "54904","zip+4": "0000","phone": "9203038830"}
{"name": "WALGREEN DRUG STORE #5281","address1": "2901 GOLF RD","address2": "","city": "DELAFIELD","state": "WI","zip": "53018","zip+4": "0000","phone": "2626469092"}
{"name": "JOHNSON DRUG AT ARMC","address1": "265 E GRIFFIN ST","address2": "","city": "AMERY","state": "WI","zip": "54001","zip+4": "0000","phone": "7152688000"}
{"name": "WAL-MART PHARMACY #102813","address1": "2001 NORTH CENTRAL AVE","address2": "","city": "MARSHFIELD","state": "WI","zip": "54449","zip+4": "0000","phone": "7154869439"}
{"name": "SHOPKO PHARMACY #171","address1": "1800 PLOVER RD","address2": "","city": "PLOVER","state": "WI","zip": "54467","zip+4": "3978","phone": "7153429368"}
{"name": "DEAN PHARMACY #10","address1": "1700 TUTTLE STREET","address2": "STE 300","city": "BARABOO","state": "WI","zip": "53913","zip+4": "3319","phone": "6083566966"}
{"name": "AURORA PHARMACY 178 LAKE GENEV","address1": "146 E GENEVA SQ","address2": "","city": "LAKE GENEVA","state": "WI","zip": "53147","zip+4": "0000","phone": "2622494630"}
{"name": "AURORA PHARMACY 099 RACINE #09","address1": "3900 ERIE ST SUITE","address2": "SUITE 100","city": "RACINE","state": "WI","zip": "53402","zip+4": "0000","phone": "2626391611"}
{"name": "AURORA PHARMACY 018 MILWAUKEE","address1": "8428 W SILVER SPRINGS DR","address2": "","city": "MILWAUKEE","state": "WI","zip": "53225","zip+4": "0000","phone": "4144635600"}
{"name": "WALGREEN DRUG STORE #5102","address1": "700 W COLLEGE AVE","address2": "","city": "APPLETON","state": "WI","zip": "54914","zip+4": "0000","phone": "9207336466"}
{"name": "FAMILY HEALTH CENTER PHARMACY","address1": "200 EAST UPHAM STREET","address2": "","city": "MARSHFIELD","state": "WI","zip": "54449","zip+4": "5777","phone": "7153897474"}
{"name": "AURORA PHARMACY 059 MILWAUKEE","address1": "5928 W VLIET ST","address2": "SUITE 100","city": "MILWAUKEE","state": "WI","zip": "53208","zip+4": "0000","phone": "4142583144"}
{"name": "TARGET PHARMACY #0223","address1": "2950 SOUTH CHASE AVE","address2": "","city": "MILWAUKEE","state": "WI","zip": "53207","zip+4": "0000","phone": "4144831190"}
{"name": "WALGREEN DRUG STORE #5746","address1": "1995 MAIN STREET","address2": "","city": "GREEN BAY","state": "WI","zip": "54302","zip+4": "0000","phone": "9204653820"}
{"name": "WALGREEN DRUG STORE #5884","address1": "9527 S 27TH ST","address2": "","city": "FRANKLIN","state": "WI","zip": "53132","zip+4": "0000","phone": "4143040599"}
{"name": "SCENIC BLUFFS COMM HEALTH CTR","address1": "238 FRONT ST","address2": "","city": "CASHTON","state": "WI","zip": "54619","zip+4": "0039","phone": "6086545100"}
{"name": "WALGREEN DRUG STORE #4471","address1": "9040 W GOOD HOPE RD","address2": "","city": "MILWAUKEE","state": "WI","zip": "53224","zip+4": "0000","phone": "4143581496"}
{"name": "PINNACLE PHARMACY","address1": "2818 PROGRESS RD","address2": "","city": "MADISON","state": "WI","zip": "53716","zip+4": "3338","phone": "6082160140"}
{"name": "WALGREEN DRUG STORE #4672","address1": "2205 N CALHOUN","address2": "","city": "BROOKFIELD","state": "WI","zip": "53005","zip+4": "0000","phone": "2627823132"}
{"name": "PAMIDA PHARMACY #834","address1": "1625 E BLASCHKO AVE","address2": "","city": "ARCADIA","state": "WI","zip": "54612","zip+4": "1835","phone": "6083238134"}
{"name": "TARGET PHARMACY #1774","address1": "3649 SOUTH HASTINGS WAY","address2": "","city": "EAU CLAIRE","state": "WI","zip": "54701","zip+4": "0000","phone": "7158380447"}
{"name": "TARGET PHARMACY #1311","address1": "4798 SOUTH MOORLAND ROAD","address2": "","city": "NEW BERLIN","state": "WI","zip": "53151","zip+4": "0000","phone": "2622070021"}
{"name": "SAMS PHARMACY #108164","address1": "600 NORTH SPRINGDALE ROAD","address2": "","city": "WAUKESHA","state": "WI","zip": "53186","zip+4": "0000","phone": "2627981580"}
{"name": "SAMS PHARMACY #106324","address1": "7701 WEST CALUMET ROAD","address2": "","city": "MILWAUKEE","state": "WI","zip": "53223","zip+4": "0000","phone": "4143711580"}
{"name": "WALGREEN DRUG STORE #5466","address1": "601 MEADOWBROOK RD","address2": "","city": "WAUKESHA","state": "WI","zip": "53188","zip+4": "0000","phone": "2625491848"}
{"name": "PAMIDA PHARMACY #833","address1": "126 CHARLES ST","address2": "","city": "OCONTO","state": "WI","zip": "54153","zip+4": "9446","phone": "9208349800"}
{"name": "AURORA PHARMACY 005 MILWAUKEE","address1": "180 W GRANGE AVE","address2": "","city": "MILWAUKEE","state": "WI","zip": "53207","zip+4": "0000","phone": "4147444302"}
{"name": "AURORA PHARMACY 007 MILWAUKEE","address1": "2906 S 20TH ST","address2": "","city": "MILWAUKEE","state": "WI","zip": "53215","zip+4": "0000","phone": "4143857850"}
{"name": "AURORA PHARMACY 002 MILWAUKEE","address1": "6901 W EDGERTON AVE","address2": "","city": "MILWAUKEE","state": "WI","zip": "53220","zip+4": "0000","phone": "4144218401"}
{"name": "MARSHFIELD CLINIC PHARMACY #10","address1": "1205 O DAY STREET","address2": "","city": "MERRILL","state": "WI","zip": "54452","zip+4": "3499","phone": "7155390118"}
{"name": "ECONOFOODS PHARMACY #344","address1": "2351 COULEE ROAD","address2": "","city": "HUDSON","state": "WI","zip": "54016","zip+4": "0000","phone": "7153819661"}
{"name": "WAL-MART PHARMACY #102828","address1": "3355 SOUTH 27TH ST","address2": "","city": "MILWAUKEE","state": "WI","zip": "53215","zip+4": "0000","phone": "4143831522"}
{"name": "UPLAND HILLS HEALTH PHARMACY","address1": "800 COMPASSION WAY","address2": "","city": "DODGEVILLE","state": "WI","zip": "53533","zip+4": "0000","phone": "6089307200"}
{"name": "WAL-MART PHARMACY #102452","address1": "401 EAST CAPITAL DRIVE","address2": "","city": "MILWAUKEE","state": "WI","zip": "53212","zip+4": "0000","phone": "4149679360"}
{"name": "WAL-MART PHARMACY #102958","address1": "3701 EAST CALUMET ST.","address2": "","city": "APPLETON","state": "WI","zip": "54915","zip+4": "0000","phone": "9209960746"}
{"name": "WALGREEN DRUG STORE #5935","address1": "25401 75TH ST","address2": "","city": "SALEM","state": "WI","zip": "53168","zip+4": "0000","phone": "2628438500"}
{"name": "BAY AREA OUTPATIENT PHARMACY","address1": "3100 SHORE DR","address2": "","city": "MARINETTE","state": "WI","zip": "54143","zip+4": "0000","phone": "7157358072"}
{"name": "TARGET PHARMACY #1060","address1": "201 JUNCTION ROAD","address2": "","city": "MADISON","state": "WI","zip": "53717","zip+4": "0000","phone": "6088279483"}
{"name": "TARGET PHARMACY #1247","address1": "1001 CORMIER ROAD","address2": "","city": "ASHWAUBENON","state": "WI","zip": "54304","zip+4": "0000","phone": "9204992608"}
{"name": "WAL-MART PHARMACY #103268","address1": "200 HWY 64 EAST","address2": "","city": "ANTIGO","state": "WI","zip": "54409","zip+4": "0000","phone": "7156271636"}
{"name": "SAMS PHARMACY #108149","address1": "2470 WEST MASON","address2": "","city": "GREEN BAY","state": "WI","zip": "54303","zip+4": "0000","phone": "9204940536"}
{"name": "BIOSCRIP PHARMACY #4041","address1": "826 N PLANKINTON AVE","address2": "STE 100","city": "MILWAUKEE","state": "WI","zip": "53203","zip+4": "0000","phone": "4142787828"}
{"name": "THRIFTY WHITE DRUG #54","address1": "101 WEST MAIN STREET","address2": "","city": "STOUGHTON","state": "WI","zip": "53589","zip+4": "0000","phone": "6088733203"}
{"name": "AURORA PHARMACY 052 SUSSEX #05","address1": "N65 W24838 MAIN STREET","address2": "SUITE 400","city": "SUSSEX","state": "WI","zip": "53089","zip+4": "0000","phone": "2622466822"}
{"name": "ASPIRUS CLINIC PHARMACY","address1": "2720 PLAZA DR STE 1125","address2": "","city": "WAUSAU","state": "WI","zip": "54401","zip+4": "0000","phone": "7158472547"}
{"name": "TARGET PHARMACY #0620","address1": "9400 STATE ROAD 16","address2": "","city": "ONALASKA","state": "WI","zip": "54650","zip+4": "0000","phone": "6087795780"}
{"name": "AURORA PHARMACY 301 PLOVER #30","address1": "1850 PLOVER RD","address2": "","city": "PLOVER","state": "WI","zip": "54467","zip+4": "0000","phone": "7153440066"}
{"name": "AURORA PHARMACY 303 STEVENS PO","address1": "3256 CHURCH ST","address2": "","city": "STEVENS POINT","state": "WI","zip": "54481","zip+4": "0000","phone": "7153446910"}
{"name": "AURORA PHARMACY 307 ASHWAUBENO","address1": "1291 LOMBARDI ACCESS RD","address2": "","city": "ASHWAUBENON","state": "WI","zip": "54304","zip+4": "0000","phone": "9204989783"}
{"name": "AURORA PHARMACY 308 APPLETON #","address1": "1919 E CALUMET","address2": "","city": "APPLETON","state": "WI","zip": "54915","zip+4": "0000","phone": "9207343882"}
{"name": "AURORA PHARMACY 310 GREEN BAY","address1": "1900 MAIN STREET","address2": "","city": "GREEN BAY","state": "WI","zip": "54302","zip+4": "0000","phone": "9204680805"}
{"name": "AURORA PHARMACY 316 STEVENS PO","address1": "5657 E HIGHWAY 10","address2": "","city": "STEVENS POINT","state": "WI","zip": "54481","zip+4": "0000","phone": "7153457175"}
{"name": "AURORA PHARMACY 318 APPLETON #","address1": "2400 W WISCONSIN AVE","address2": "","city": "APPLETON","state": "WI","zip": "54914","zip+4": "0000","phone": "9208310400"}
{"name": "AURORA PHARMACY 321 WISCONSIN","address1": "900 E RIVERVIEW EXPY","address2": "","city": "WISCONSIN RAPIDS","state": "WI","zip": "54494","zip+4": "0000","phone": "7154232585"}
{"name": "AURORA PHARMACY 327 PHILLIPS #","address1": "256 S LAKE AVE","address2": "","city": "PHILLIPS","state": "WI","zip": "54555","zip+4": "0000","phone": "7153393116"}
{"name": "AFFINITY HOME CARE PLUS","address1": "2074 AMERICAN DR","address2": "STE A","city": "NEENAH","state": "WI","zip": "54956","zip+4": "0000","phone": "9207358100"}
{"name": "MERCY WALWORTH PHARMACY","address1": "N 2950 STATE RD 67","address2": "","city": "LAKE GENEVA","state": "WI","zip": "53147","zip+4": "0000","phone": "2622452319"}
{"name": "VILLAGE HEALTHMART PHARMACY","address1": "633 BUS NWY 141","address2": "","city": "COLEMAN","state": "WI","zip": "54112","zip+4": "0000","phone": "9208975333"}
{"name": "AURORA PHARMACY 024 WAUWATOSA","address1": "10400 W NORTH AVENUE","address2": "","city": "WAUWATOSA","state": "WI","zip": "53226","zip+4": "0000","phone": "4144792500"}
{"name": "WAL-MART PHARMACY #102936","address1": "8700 NORTH SERVITE DRIVE","address2": "","city": "MILWAUKEE","state": "WI","zip": "53223","zip+4": "0000","phone": "4143551838"}
{"name": "AGNESIAN PHARMACY PLUS","address1": "420 E DIVISION ST","address2": "","city": "FOND DU LAC","state": "WI","zip": "54935","zip+4": "0000","phone": "9209268585"}
{"name": "AGNESIAN PHARMACY MAIN STREET","address1": "145 N MAIN ST","address2": "","city": "FOND DU LAC","state": "WI","zip": "54935","zip+4": "0000","phone": "9209214660"}
{"name": "AURORA PHARMACY 179 KENOSHA #1","address1": "7540 22ND AVENUE","address2": "","city": "KENOSHA","state": "WI","zip": "53143","zip+4": "0000","phone": "2626053674"}
{"name": "WAL-MART PHARMACY #103245","address1": "15594 STATE HIGHWAY 77","address2": "","city": "HAYWARD","state": "WI","zip": "54843","zip+4": "0000","phone": "7156348309"}
{"name": "MALLATT PHARMACY #2","address1": "3250 KINGSLEY WAY","address2": "","city": "MADISON","state": "WI","zip": "53713","zip+4": "0000","phone": "6083109922"}
{"name": "MARSHFIELD CLINIC PHARMACY #11","address1": "2655 COUNTY HWY I","address2": "","city": "CHIPPEWA FALLS","state": "WI","zip": "54729","zip+4": "1423","phone": "7157264177"}
{"name": "WAL-MART PHARMACY #103505","address1": "130 COMMERCE STREET","address2": "","city": "WISCONSIN DELLS","state": "WI","zip": "53965","zip+4": "0000","phone": "6082535662"}
{"name": "WALGREEN DRUG STORE #6935","address1": "10 PARK RIDGE DRIVE","address2": "","city": "STEVENS POINT","state": "WI","zip": "54481","zip+4": "0000","phone": "7153447345"}
{"name": "SCHNUCKS PHARMACY #758","address1": "1501 CRESTON PARK DR","address2": "","city": "JANESVILLE","state": "WI","zip": "53545","zip+4": "0000","phone": "6087527431"}
{"name": "WALGREEN DRUG STORE #6885","address1": "300 HIGHWAY 13","address2": "","city": "WISCONSIN DELLS","state": "WI","zip": "53965","zip+4": "0000","phone": "6082545840"}
{"name": "WALGREEN DRUG STORE #6569","address1": "464 CARDINAL LN","address2": "","city": "GREEN BAY","state": "WI","zip": "54313","zip+4": "0000","phone": "9206619301"}
{"name": "AURORA INSTITUTIONAL PHARMACY","address1": "3935 W MITCHELL ST","address2": "","city": "MILWAUKEE","state": "WI","zip": "53215","zip+4": "0000","phone": "4143827252"}
{"name": "AURORA PHARMACY 101 MILWAUKEE","address1": "2700 S 60TH ST","address2": "","city": "MILWAUKEE","state": "WI","zip": "53219","zip+4": "0000","phone": "4145412400"}
{"name": "AURORA PHARMACY 104 BROOKFIELD","address1": "17280 W NORTH AVE","address2": "SUITE 103","city": "BROOKFIELD","state": "WI","zip": "53045","zip+4": "0000","phone": "2627868080"}
{"name": "AURORA PHARMACY 105 BROOKFIELD","address1": "13175 W BLUEMOUND RD NUMBER 1","address2": "","city": "BROOKFIELD","state": "WI","zip": "53005","zip+4": "0000","phone": "2627828125"}
{"name": "COMMUNITY PHARMACY AT HUDSON H","address1": "405 STAGELINE RD","address2": "","city": "HUDSON","state": "WI","zip": "54016","zip+4": "0000","phone": "7155316450"}
{"name": "WAL-MART PHARMACY #103496","address1": "5825 WEST HOPE AVENUE","address2": "","city": "MILWAUKEE","state": "WI","zip": "53216","zip+4": "0000","phone": "4144453959"}
{"name": "WAL-MART PHARMACY #103497","address1": "428 WALTON DRIVE","address2": "","city": "PLYMOUTH","state": "WI","zip": "53073","zip+4": "0000","phone": "9208922656"}
{"name": "SAMS PHARMACY #106321","address1": "1000 NO WESTHILL BLVD","address2": "","city": "APPLETON","state": "WI","zip": "54914","zip+4": "0000","phone": "9207337410"}
{"name": "AURORA PHARMACY 142 BELOIT #14","address1": "551 W GRAND AVE","address2": "","city": "BELOIT","state": "WI","zip": "53511","zip+4": "0000","phone": "6083643600"}
{"name": "PAMIDA PHARMACY #46","address1": "802 N MAIN ST","address2": "","city": "KEWAUNEE","state": "WI","zip": "54216","zip+4": "0274","phone": "9203882231"}
{"name": "DEGEN BERGLUND PHARMACY","address1": "111 SAND LAKE RD","address2": "","city": "ONALASKA","state": "WI","zip": "54650","zip+4": "0000","phone": "6087758595"}
{"name": "LAKEVIEW REHABILITAION CTR","address1": "1701 SHARP RD","address2": "","city": "WATERFORD","state": "WI","zip": "53185","zip+4": "0000","phone": "2625348597"}
{"name": "TARGET PHARMACY #1483","address1": "2050 LIME KILN ROAD","address2": "","city": "BELLEVUE","state": "WI","zip": "54311","zip+4": "0000","phone": "9204069049"}
{"name": "WALGREEN DRUG STORE #7143","address1": "N56 W15501 SILVER SPRING DR","address2": "","city": "MENOMONEE FALLS","state": "WI","zip": "53051","zip+4": "0000","phone": "2627034439"}
{"name": "AURORA PHARMACY 242 MARINETTE","address1": "4061 OLD PESHTIGO RD","address2": "","city": "MARINETTE","state": "WI","zip": "54143","zip+4": "0000","phone": "7157328040"}
{"name": "AURORA PHARMACY 141 GREEN BAY","address1": "2253 WEST MASON ST","address2": "","city": "GREEN BAY","state": "WI","zip": "54303","zip+4": "0000","phone": "9203277220"}
{"name": "CUB PHARMACY #1620","address1": "7455 MINERAL POINT RD","address2": "","city": "MADISON","state": "WI","zip": "53717","zip+4": "0000","phone": "6088335588"}
{"name": "CUB PHARMACY #1622","address1": "4141 NAKOOSA TRAIL","address2": "","city": "MADISON","state": "WI","zip": "53714","zip+4": "0000","phone": "6082420261"}
{"name": "SKYWALK PHARMACY","address1": "9000 W WISCONSIN AVE STE 211","address2": "","city": "WAUWATOSA","state": "WI","zip": "53226","zip+4": "0000","phone": "4142661893"}
{"name": "WAL-MART PHARMACY #103247","address1": "1819 EAST GENEVA STREET","address2": "","city": "DELAVAN","state": "WI","zip": "53115","zip+4": "0000","phone": "2627402549"}
{"name": "WALGREEN DRUG STORE #7519","address1": "1705 US HWY 51","address2": "","city": "STOUGHTON","state": "WI","zip": "53589","zip+4": "0000","phone": "6088737527"}
{"name": "WALGREEN DRUG STORE #6960","address1": "1400 E SUMNER ST","address2": "","city": "HARTFORD","state": "WI","zip": "53027","zip+4": "0000","phone": "2626701063"}
{"name": "WALGREEN DRUG STORE #7323","address1": "3330 E CALUMET ST","address2": "","city": "APPLETON","state": "WI","zip": "54915","zip+4": "0000","phone": "9207332907"}
{"name": "THEDACARE PHYSICIAN PEDIATRICS","address1": "2701 E ENTERPRISE AVE","address2": "","city": "APPELTON","state": "WI","zip": "54913","zip+4": "0000","phone": "9209542551"}
{"name": "HARTIG DRUG CO #16","address1": "1120 LINCOLN AVE","address2": "","city": "FENNMORE","state": "WI","zip": "53809","zip+4": "0000","phone": "6088223601"}
{"name": "PAMIDA PHARMACY #220","address1": "291 S MAIN ST","address2": "","city": "CLINTONVILLE","state": "WI","zip": "54929","zip+4": "1604","phone": "7158232350"}
{"name": "WALGREEN DRUG STORE #7615","address1": "401 E GREEN BAY ST","address2": "","city": "SHAWANO","state": "WI","zip": "54166","zip+4": "0000","phone": "7155245000"}
{"name": "WALGREEN DRUG STORE #7635","address1": "808 S DULUTH AVE","address2": "","city": "STURGEON BAY","state": "WI","zip": "54235","zip+4": "0000","phone": "9207464596"}
{"name": "WHEATON FRANCISCAN PHARMACY #6","address1": "2500 W LAYTON AVE","address2": "","city": "MILWAUKEE","state": "WI","zip": "53221","zip+4": "5400","phone": "4142817500"}
{"name": "WALGREEN DRUG STORE #7039","address1": "212 N ROCHESTER ST","address2": "","city": "MUKWONAGO","state": "WI","zip": "53149","zip+4": "0000","phone": "2623633562"}
{"name": "TARGET PHARMACY #0364","address1": "2707 SCHOFIELD AVE","address2": "","city": "SCHOFIELD","state": "WI","zip": "54476","zip+4": "0000","phone": "7153551359"}
{"name": "PINNACLE PHARMACY","address1": "3235 AIRPORT RD","address2": "","city": "LA CROSSE","state": "WI","zip": "54603","zip+4": "0000","phone": "6087817900"}
{"name": "PAMIDA PHARMACY #175","address1": "1515 E MAIN ST","address2": "","city": "REEDSBURG","state": "WI","zip": "53959","zip+4": "1406","phone": "6085248374"}
{"name": "WAL-MART PHARMACY #105090","address1": "1415 LAWRENCE DRIVE","address2": "","city": "DE PERE","state": "WI","zip": "54115","zip+4": "0000","phone": "9203367168"}
{"name": "WALGREEN DRUG STORE #7536","address1": "8302 OLD SAUK RD","address2": "","city": "MADISON","state": "WI","zip": "53717","zip+4": "0000","phone": "6088332370"}
{"name": "WALGREEN DRUG STORE #7661","address1": "2410 W FOREST HOME AVE","address2": "","city": "MILWAUKEE","state": "WI","zip": "53215","zip+4": "0000","phone": "4143832738"}
{"name": "NEWCASTLE PLACE INC PHARMACY","address1": "12600 N PORT WASHINGTON RD","address2": "","city": "MEQUON","state": "WI","zip": "53092","zip+4": "0000","phone": "2623878888"}
{"name": "WALGREEN DRUG STORE #7835","address1": "1100 EMMERS LANE","address2": "","city": "OSHKOSH","state": "WI","zip": "54904","zip+4": "0000","phone": "9202374700"}
{"name": "PAMIDA PHARMACY #108","address1": "1011 E SPRUCE ST","address2": "","city": "ABBOTSFORD","state": "WI","zip": "54405","zip+4": "9647","phone": "7152232480"}
{"name": "WHEATON FRANCISCAN PHARMACY #6","address1": "201 N MAYFAIR RD","address2": "","city": "MILWAUKEE","state": "WI","zip": "53226","zip+4": "4216","phone": "4142597440"}
{"name": "TLS COMMUNITY PHARMACY","address1": "1040 S 70TH ST","address2": "","city": "MILWAUKEE","state": "WI","zip": "53214","zip+4": "0000","phone": "4144768602"}
{"name": "BELOIT MEMORIAL HOSPITAL ER","address1": "1969 W HART RD","address2": "","city": "BELOIT","state": "WI","zip": "53511","zip+4": "0000","phone": "6083645011"}
{"name": "WAL-MART PHARMACY #105127","address1": "4622 MORMON COULEE ROAD","address2": "","city": "LA CROSSE","state": "WI","zip": "54601","zip+4": "0000","phone": "6087889146"}
{"name": "OLV PHARMACY","address1": "1120 PINE ST","address2": "","city": "STANLEY","state": "WI","zip": "54768","zip+4": "0000","phone": "7156446110"}
{"name": "AGNESIAN PHARMAC NORTH FOND DU","address1": "723 PARK RIDGE LN","address2": "","city": "NORTH FOND DU LAC","state": "WI","zip": "54937","zip+4": "0000","phone": "9209268660"}
{"name": "WHEATON FRANCISCAN PHARMACY #6","address1": "5000 W CHAMBERS ST","address2": "RM 1801","city": "MILWAUKEE","state": "WI","zip": "53210","zip+4": "1650","phone": "4144472585"}
{"name": "AURORA PHARMACY 230 HOWARDS GR","address1": "620 S WISCONSIN DR","address2": "","city": "HOWARDS GROVE","state": "WI","zip": "53083","zip+4": "0000","phone": "9205655425"}
{"name": "DEAN PHARMACY #6","address1": "1821 S STOUGHTON RD","address2": "STE 300","city": "MADISON","state": "WI","zip": "53716","zip+4": "2257","phone": "6082606500"}
{"name": "WAL-MART PHARMACY #103488","address1": "1901 MILWAUKEE AVENUE","address2": "","city": "BURLINGTON","state": "WI","zip": "53105","zip+4": "0000","phone": "2627671902"}
{"name": "WALGREEN DRUG STORE #7880","address1": "421 S EISENHOWER PKWY","address2": "","city": "RHINELANDER","state": "WI","zip": "54501","zip+4": "0000","phone": "7153691066"}
{"name": "WALGREEN DRUG STORE #7966","address1": "849 WOODWARD AVE","address2": "","city": "CHIPPEWA FALLS","state": "WI","zip": "54729","zip+4": "0000","phone": "7157200241"}
{"name": "AURORA PHARMACY 322 NEKOOSA #3","address1": "232 MARKET ST","address2": "","city": "NEKOOSA","state": "WI","zip": "54457","zip+4": "0000","phone": "7158863170"}
{"name": "AURORA PHARMACY 312 KAUKAUNA #","address1": "2700 CROOKS AVENUE","address2": "","city": "KAUKAUNA","state": "WI","zip": "54130","zip+4": "0000","phone": "9207593050"}
{"name": "TARGET PHARMACY #1880","address1": "4085 STATE HIGHWAY 28","address2": "","city": "SHEBOYGAN FALLS","state": "WI","zip": "53085","zip+4": "0000","phone": "9204518448"}
{"name": "WAL-MART PHARMACY #102986","address1": "1155 WINNECONNE AVENUE","address2": "","city": "NEENAH","state": "WI","zip": "54956","zip+4": "0000","phone": "9207221185"}
{"name": "BELLIN HEALTH PHARMACY","address1": "555 QUALITY CT","address2": "","city": "WRIGHTSTOWN","state": "WI","zip": "54180","zip+4": "0000","phone": "9205320700"}
{"name": "AURORA PHARMACY 036 ALGOMA #03","address1": "801 JEFFERSON ST","address2": "","city": "ALGOMA","state": "WI","zip": "54201","zip+4": "0000","phone": "9204872887"}
{"name": "WALGREEN DRUG STORE #2110","address1": "829 E GREEN BAY AVE","address2": "","city": "SAUKVILLE","state": "WI","zip": "53080","zip+4": "0000","phone": "2622689034"}
{"name": "SAMS PHARMACY #108167","address1": "6705 SOUTH 27TH ST","address2": "","city": "FRANKLIN","state": "WI","zip": "53132","zip+4": "0000","phone": "4143041255"}
{"name": "ASSISTED LIVING PHARMACY SERVI","address1": "1441 N MAYFAIR RD","address2": "STE 202","city": "WAUWATOSA","state": "WI","zip": "53226","zip+4": "0000","phone": "4144331700"}
{"name": "PAMIDA PHARMACY #249","address1": "1134 W MAIN ST","address2": "","city": "WAUPUN","state": "WI","zip": "53963","zip+4": "1202","phone": "9203243591"}
{"name": "TARGET PHARMACY #0863","address1": "N95 WEST17707 SHADY LN","address2": "","city": "MENOMONEE FALLS","state": "WI","zip": "53051","zip+4": "0000","phone": "2624150005"}
{"name": "DOOR CREEK PHARMACY #2","address1": "50 N MAIN ST","address2": "","city": "DEERFIELD","state": "WI","zip": "53531","zip+4": "0000","phone": "6087648111"}
{"name": "TRIGS PHARMACY","address1": "110 S 17TH AVE","address2": "","city": "WAUSAU","state": "WI","zip": "54401","zip+4": "0000","phone": "7158489066"}
{"name": "WALGREEN DRUG STORE #7634","address1": "2301 HALL AVE","address2": "","city": "MARINETTE","state": "WI","zip": "54143","zip+4": "0000","phone": "7157324101"}
{"name": "WALGREEN DRUG STORE #1937","address1": "1106 W CLAIREMONT AV","address2": "","city": "EAU CLAIRE","state": "WI","zip": "54701","zip+4": "0000","phone": "7158520023"}
{"name": "WAL-MART PHARMACY #105438","address1": "15333 WEST NATIONAL AVENUE","address2": "","city": "NEW BERLIN","state": "WI","zip": "53151","zip+4": "0000","phone": "2627962734"}
{"name": "BEHAVIORAL HEALTH PHARMACY","address1": "9455 W WATERTOWN PLANK RD","address2": "","city": "WAUWATOSA","state": "WI","zip": "53226","zip+4": "4805","phone": "4142577179"}
{"name": "TARGET PHARMACY #1895","address1": "1501 MILLER PARK WAY","address2": "","city": "WEST MILWAUKEE","state": "WI","zip": "53214","zip+4": "0000","phone": "4142030107"}
{"name": "WAL-MART PHARMACY #101012","address1": "120 FRANCES LANE","address2": "","city": "BEAVER DAM","state": "WI","zip": "53916","zip+4": "0000","phone": "9208855808"}
{"name": "AURORA PHARMACY 121 LAKE MILLS","address1": "203 N MAIN ST","address2": "","city": "LAKE MILLS","state": "WI","zip": "53551","zip+4": "0000","phone": "9206483455"}
{"name": "WALGREEN DRUG STORE #9009","address1": "3200 8TH ST S","address2": "","city": "WISCONSIN RAPIDS","state": "WI","zip": "54494","zip+4": "0000","phone": "7154244080"}
{"name": "WALGREEN DRUG STORE #1159","address1": "104 N MAIN ST","address2": "","city": "VERONA","state": "WI","zip": "53593","zip+4": "0000","phone": "6088487143"}
{"name": "WALGREEN DRUG STORE #1497","address1": "2455 EASTERN AVE","address2": "","city": "PLYMOUTH","state": "WI","zip": "53073","zip+4": "0000","phone": "9208935892"}
{"name": "WALGREEN DRUG STORE #9166","address1": "2206 WASHINGTON ST","address2": "","city": "TWO RIVERS","state": "WI","zip": "54241","zip+4": "0000","phone": "9207938351"}
{"name": "PICK N SAVE PHARMACY #6371","address1": "1123 N VAN BUREN ST","address2": "","city": "MILWAUKEE","state": "WI","zip": "53202","zip+4": "0000","phone": "4143479219"}
{"name": "SHOPKO EXPRESS #503","address1": "1011 N WISCONSIN ST","address2": "","city": "PORT WASHINGTON","state": "WI","zip": "53074","zip+4": "1207","phone": "2622843436"}
{"name": "VERONA HOMETOWN PHARMACY","address1": "202 S MAIN ST","address2": "","city": "VERONA","state": "WI","zip": "53593","zip+4": "0000","phone": "6088488020"}
{"name": "HUDSON HOSPITAL","address1": "405 STAGELINE RD","address2": "","city": "HUDSON","state": "WI","zip": "54016","zip+4": "0000","phone": "7155316000"}
{"name": "WALGREEN DRUG STORE #9214","address1": "2626 ROSE ST","address2": "","city": "LA CROSSE","state": "WI","zip": "54603","zip+4": "0000","phone": "6087810638"}
{"name": "WALGREEN DRUG STORE #7965","address1": "7520 118TH AVE","address2": "","city": "PLEASANT PRAIRIE","state": "WI","zip": "53158","zip+4": "0000","phone": "2628579195"}
{"name": "AGNESIAN PHARMACY MERCURY","address1": "912 S HICKORY ROAD","address2": "","city": "FOND DU LAC","state": "WI","zip": "54935","zip+4": "0000","phone": "9209297480"}
{"name": "WAL-MART PHARMACY #105373","address1": "2786 COMMERCIAL BLVD","address2": "","city": "CHIPPEWA FALLS","state": "WI","zip": "54729","zip+4": "0000","phone": "7157382418"}
{"name": "PICK N SAVE PHARMACY #6874","address1": "5710 75TH STREET","address2": "","city": "KENOSHA","state": "WI","zip": "53142","zip+4": "0000","phone": "2626975424"}
{"name": "YOUNGS DRUG STORE LONG TERM CA","address1": "3107 WESTHILL DRIVE","address2": "","city": "WAUSAU","state": "WI","zip": "54401","zip+4": "0000","phone": "7158420791"}
{"name": "WALGREEN DRUG STORE #9363","address1": "1920 DOUGLAS AVE","address2": "","city": "RACINE","state": "WI","zip": "53404","zip+4": "0000","phone": "2626334857"}
{"name": "SHOPKO EXPRESS #502","address1": "2585 LINEVILLE RD","address2": "","city": "GREEN BAY","state": "WI","zip": "54313","zip+4": "7122","phone": "9206629450"}
{"name": "SHOPKO EXPRESS #501","address1": "3705 MONROE RD","address2": "","city": "DE PERE","state": "WI","zip": "54115","zip+4": "4020","phone": "9203366096"}
{"name": "PICK N SAVE PHARMACY #6389","address1": "760 W JOHNSON ST","address2": "","city": "FOND DU LAC","state": "WI","zip": "54935","zip+4": "0000","phone": "9209297422"}
{"name": "WALGREEN DRUG STORE #9168","address1": "710 W WISCONSIN ST","address2": "","city": "SPARTA","state": "WI","zip": "54656","zip+4": "0000","phone": "6082693990"}
{"name": "RIO PHARMACY","address1": "208 LINCOLN AVE","address2": "","city": "RIO","state": "WI","zip": "53960","zip+4": "0000","phone": "9209923335"}
{"name": "AURORA PHARMACY 300 WAUTOMA #3","address1": "900 E DIVISION DR","address2": "","city": "WAUTOMA","state": "WI","zip": "54982","zip+4": "0000","phone": "9207876940"}
{"name": "GOOD VALUE PHARMACY","address1": "9916 75TH ST","address2": "STE 103","city": "KENOSHA","state": "WI","zip": "53142","zip+4": "0000","phone": "2629250201"}
{"name": "FORT MEMORIAL HOSPITAL","address1": "611 SHERMAN AVE E","address2": "","city": "FORT ATKINSON","state": "WI","zip": "53538","zip+4": "1998","phone": "9205685000"}
{"name": "WHEATON FRANCISCAN PHARMACY #6","address1": "19333 W NORTH AVENUE","address2": "SUITE 390","city": "BROOKFIELD","state": "WI","zip": "53045","zip+4": "4132","phone": "2627804430"}
{"name": "PICK N SAVE PHARMACY #6875","address1": "8120 W BROWN DEER RD","address2": "","city": "MILWAUKEE","state": "WI","zip": "53225","zip+4": "0000","phone": "4143576704"}
{"name": "WALGREEN DRUG STORE #7731","address1": "N65 W 25055 MAIN ST","address2": "","city": "SUSSEX","state": "WI","zip": "53089","zip+4": "0000","phone": "2628200591"}
{"name": "AURORA PHARMACY 093 GLENDALE #","address1": "6969 N PORT WASHINGTON RD","address2": "SUITE B120","city": "GLENDALE","state": "WI","zip": "53217","zip+4": "0000","phone": "4145401194"}
{"name": "TARGET PHARMACY #1925","address1": "8989 S HOWELL AVE","address2": "","city": "OAK CREEK","state": "WI","zip": "53154","zip+4": "0000","phone": "4142160002"}
{"name": "OSSEO AREA HEALTH","address1": "13025 8TH ST","address2": "","city": "OSSEO","state": "WI","zip": "54758","zip+4": "0000","phone": "7155973121"}
{"name": "WATERTOWN MEMORIAL HOSPITAL","address1": "125 HOSPITAL DR","address2": "","city": "WATERTOWN","state": "WI","zip": "53098","zip+4": "0000","phone": "9202614210"}
{"name": "RUSK COUNTY MEMORIAL HOSPITAL","address1": "900 COLLEGE AVE WEST","address2": "","city": "LADYSMITH","state": "WI","zip": "54848","zip+4": "0000","phone": "7155325561"}
{"name": "AURORA PHARMACY 177 EAST TROY","address1": "3284 W MAIN ST","address2": "","city": "EAST TROY","state": "WI","zip": "53120","zip+4": "0000","phone": "2626425800"}
{"name": "WALGREEN DRUG STORE #9514","address1": "121 PINE AVE W","address2": "","city": "MENOMONIE","state": "WI","zip": "54751","zip+4": "0000","phone": "7152359263"}
{"name": "BLOOMER MEDICAL CENTER","address1": "1501 THOMPSON ST","address2": "","city": "BLOOMER","state": "WI","zip": "54724","zip+4": "0000","phone": "7155682000"}
{"name": "NUTRITIONAL DESIGNS AND PHARMA","address1": "2333 NORTHWESTERN AVE STE 101","address2": "","city": "RACINE","state": "WI","zip": "53404","zip+4": "0000","phone": "2626326500"}
{"name": "WAL-MART PHARMACY #103322","address1": "411 PEWAUKEE ROAD","address2": "","city": "PEWAUKEE","state": "WI","zip": "53072","zip+4": "0000","phone": "2626952878"}
{"name": "DEGEN BERGLUND PHARMACY","address1": "600 N HOLMEN DR","address2": "STE 1","city": "HOLMEN","state": "WI","zip": "54636","zip+4": "0000","phone": "6087758875"}
{"name": "BERLIN MEMORIAL HOSPITAL","address1": "225 MEMORIAL DR","address2": "","city": "BERLIN","state": "WI","zip": "54923","zip+4": "0000","phone": "9203615570"}
{"name": "TARGET PHARMACY #0807","address1": "1900 S KOELLER ST","address2": "","city": "OSHKOSH","state": "WI","zip": "54902","zip+4": "0000","phone": "9202334287"}
{"name": "TARGET PHARMACY #0864","address1": "2553 SUN VALLEY DR","address2": "","city": "DELAFIELD","state": "WI","zip": "53018","zip+4": "0000","phone": "2626463637"}
{"name": "WALGREEN DRUG STORE #9606","address1": "4901 SPRING ST","address2": "","city": "RACINE","state": "WI","zip": "53406","zip+4": "0000","phone": "2628869635"}
{"name": "PICK N SAVE PHARMACY #6357","address1": "N112 W16200 MEQUON RD","address2": "","city": "GERMANTOWN","state": "WI","zip": "53022","zip+4": "0000","phone": "2622530052"}
{"name": "TARGET PHARMACY #0809","address1": "2017 HUMES RD","address2": "","city": "JANESVILLE","state": "WI","zip": "53545","zip+4": "0000","phone": "6087570834"}
{"name": "BALLWEG FAMILY PHARMACY","address1": "1200 PRAIRIE ST","address2": "","city": "PRAIRIE DU SAC","state": "WI","zip": "53578","zip+4": "0000","phone": "6086436500"}
{"name": "WALGREEN DRUG STORE #9740","address1": "807 S MAIN ST","address2": "","city": "DE FOREST","state": "WI","zip": "53532","zip+4": "0000","phone": "6088463601"}
{"name": "OUR LADY OF VICTORY HOSPITAL","address1": "1120 PINE ST","address2": "","city": "STANLEY","state": "WI","zip": "54768","zip+4": "0000","phone": "7156445571"}
{"name": "LANGLADE MEMORIAL HOSPITAL","address1": "112 E 5TH AVE","address2": "","city": "ANTIGO","state": "WI","zip": "54409","zip+4": "0000","phone": "7156239436"}
{"name": "PICK N SAVE PHARMACY #6388","address1": "1300 PABST FARMS CIRCLE","address2": "","city": "OCONOMOWOC","state": "WI","zip": "53066","zip+4": "0000","phone": "2622007000"}
{"name": "WALGREEN DRUG STORE #1976","address1": "300 N MAIN ST","address2": "","city": "FORT ATKINSON","state": "WI","zip": "53538","zip+4": "0000","phone": "9205689154"}
{"name": "WAL-MART PHARMACY #105432","address1": "250 WEST RICHMOND WAY","address2": "","city": "NEW RICHMOND","state": "WI","zip": "54017","zip+4": "0000","phone": "7152469097"}
{"name": "STRUM PHARMACY INC","address1": "111 5TH AVE N","address2": "","city": "STRUM","state": "WI","zip": "54770","zip+4": "0000","phone": "7156952907"}
{"name": "WALGREEN DRUG STORE #9365","address1": "423 MERTON AVE","address2": "","city": "HARTLAND","state": "WI","zip": "53029","zip+4": "0000","phone": "2623674625"}
{"name": "STREUS PHARMACY LTC","address1": "528 N MONROE AVE","address2": "","city": "GREEN BAY","state": "WI","zip": "54301","zip+4": "0000","phone": "9204370206"}
{"name": "PICK N SAVE PHARMACY #6387","address1": "2320 W RYAN ROAD","address2": "","city": "OAK CREEK","state": "WI","zip": "53154","zip+4": "0000","phone": "4147611692"}
{"name": "HOWARD YOUNG MEDICAL CENTER","address1": "240 MAPLE ST","address2": "","city": "WOODRUFF","state": "WI","zip": "54568","zip+4": "0000","phone": "7153568112"}
{"name": "WALGREEN DRUG STORE #9682","address1": "219 W MAIN ST","address2": "","city": "LITTLE CHUTE","state": "WI","zip": "54140","zip+4": "0000","phone": "9206876190"}
{"name": "AURORA PHARMACY 041 TWO RIVERS","address1": "5300 MEMORIAL DRIVE","address2": "SUITE 103","city": "TWO RIVERS","state": "WI","zip": "54241","zip+4": "0000","phone": "9207937380"}
{"name": "BARRON MEMORIAL MEDICAL CTR","address1": "1222 WOODLAND AVE","address2": "","city": "BARRON","state": "WI","zip": "54812","zip+4": "0000","phone": "7155373186"}
{"name": "MERCY WALWORTH HOSPITAL AND ME","address1": "N2950 STATE RD 67","address2": "","city": "GENEVA","state": "WI","zip": "53147","zip+4": "0000","phone": "2622452319"}
{"name": "MERCY HEALTH SYSTEM CORP","address1": "1000 MINERAL POINT AVE","address2": "","city": "JAMESVILLE","state": "WI","zip": "53545","zip+4": "0000","phone": "6087416980"}
{"name": "WALGREEN DRUG STORE #9741","address1": "704 N MAIN ST","address2": "","city": "OREGON","state": "WI","zip": "53575","zip+4": "0000","phone": "6088356411"}
{"name": "WALGREEN DRUG STORE #10237","address1": "1100 MAIN ST","address2": "","city": "REEDSBURG","state": "WI","zip": "53959","zip+4": "0000","phone": "6085241980"}
{"name": "COPPS FOOD CENTER PHARMACY #81","address1": "2592 SHOPKO DR","address2": "","city": "MADISON","state": "WI","zip": "53704","zip+4": "0000","phone": "6082437788"}
{"name": "PICK N SAVE PHARMACY #6854","address1": "607 S CHURCH ST","address2": "","city": "WATERTOWN","state": "WI","zip": "53094","zip+4": "0000","phone": "9202617140"}
{"name": "PICK N SAVE PHARMACY #6308","address1": "220 EAST SUNSET DR","address2": "","city": "WAUKESHA","state": "WI","zip": "53201","zip+4": "0000","phone": "2625740405"}
{"name": "PICK N SAVE PHARMACY #5377","address1": "1719 S MAIN ST","address2": "","city": "WEST BEND","state": "WI","zip": "53095","zip+4": "0000","phone": "2623352292"}
{"name": "TARGET PHARMACY #0808","address1": "485 N ROLLING MEADOWS DR","address2": "","city": "FOND DU LAC","state": "WI","zip": "54937","zip+4": "0000","phone": "9209216759"}
{"name": "WALGREEN DRUG STORE #10236","address1": "1191 WESTOWNE DR","address2": "","city": "NEENAH","state": "WI","zip": "54956","zip+4": "0000","phone": "9207253107"}
{"name": "AURORA PHARMACY 072 TWIN LAKES","address1": "700 N LAKE AVE","address2": "","city": "TWIN LAKES","state": "WI","zip": "53181","zip+4": "0000","phone": "2628772234"}
{"name": "ST MARYS HOSPITAL CLINIC","address1": "2323 N LAKE DR","address2": "","city": "MILWAUKEE","state": "WI","zip": "53201","zip+4": "0000","phone": "4142911000"}
{"name": "WALGREEN DRUG STORE #10234","address1": "1305 N CASALOMA DR","address2": "","city": "GRAND CHUTE","state": "WI","zip": "54913","zip+4": "0000","phone": "9207305673"}
{"name": "AURORA PHARMACY 081 PADDOCK LA","address1": "25320 75TH ST","address2": "","city": "PADDOCK LAKE","state": "WI","zip": "53168","zip+4": "0000","phone": "2628432373"}
{"name": "PICK N SAVE PHARMACY #6397","address1": "15170 W GREENFIELD AVE","address2": "","city": "BROOKFIELD","state": "WI","zip": "53005","zip+4": "0000","phone": "2627822787"}
{"name": "WALGREEN DRUG STORE #1158","address1": "900 1ST AVE","address2": "","city": "WOODRUFF","state": "WI","zip": "54568","zip+4": "0000","phone": "7153587043"}
{"name": "DURGS R US INC","address1": "3512 OAKLAND AVE","address2": "","city": "SHOREWOOD","state": "WI","zip": "53211","zip+4": "0000","phone": "4143329300"}
{"name": "MARSHLAND PHARMACY","address1": "705 S UNIVERSITY AVE","address2": "","city": "BEAVER DAM","state": "WI","zip": "53916","zip+4": "0000","phone": "9203560040"}
{"name": "WALGREEN DRUG STORE #01988","address1": "1915 WISCONSIN AVE","address2": "","city": "GRAFTON","state": "WI","zip": "53024","zip+4": "2605","phone": "2623770352"}
{"name": "WALGREEN DRUG STORE #09609","address1": "5305 US HWY BUSINESS 51 S","address2": "","city": "WESTON","state": "WI","zip": "54476","zip+4": "0000","phone": "7153559640"}
{"name": "CVS PHARMACY #08545","address1": "701 E REED AVE","address2": "","city": "MANITOWOC","state": "WI","zip": "54220","zip+4": "0000","phone": "9206823726"}
{"name": "CVS PHARMACY #08534","address1": "1063 4TH STREET","address2": "","city": "BELOIT","state": "WI","zip": "53511","zip+4": "0000","phone": "6083624566"}
{"name": "CVS PHARMACY #08762","address1": "1316 W FOREST HOME AVE","address2": "","city": "MILWAUKEE","state": "WI","zip": "53204","zip+4": "0000","phone": "4146724554"}
{"name": "CVS PHARMACY #08768","address1": "240 E HAMPTON","address2": "","city": "WHITEFISH BAY","state": "WI","zip": "53217","zip+4": "0000","phone": "4149627071"}
{"name": "CVS PHARMACY #08765","address1": "9220 W GREENFIELD","address2": "","city": "WEST ALLIS","state": "WI","zip": "53214","zip+4": "0000","phone": "4144569119"}
{"name": "CVS PHARMACY #08763","address1": "1650 FARWELL","address2": "","city": "MILWAUKEE","state": "WI","zip": "53202","zip+4": "0000","phone": "4142775054"}
{"name": "CVS PHARMACY #08541","address1": "1561 W MASON ST","address2": "","city": "GREEN BAY","state": "WI","zip": "54303","zip+4": "0000","phone": "9204975959"}
{"name": "CVS PHARMACY #08770","address1": "8661 N PORT WASHINGTON","address2": "","city": "FOX POINT","state": "WI","zip": "53217","zip+4": "0000","phone": "4145406836"}
{"name": "CVS PHARMACY #08766","address1": "6330 NORTH 75TH ST","address2": "","city": "MILWAUKEE","state": "WI","zip": "53218","zip+4": "0000","phone": "4147600347"}
{"name": "CVS PHARMACY #08535","address1": "2222 S WEBSTER AVE","address2": "","city": "GREEN BAY","state": "WI","zip": "54301","zip+4": "0000","phone": "9204308089"}
{"name": "CVS PHARMACY #08777","address1": "3726 NORTH 22ND","address2": "","city": "KENOSHA","state": "WI","zip": "53140","zip+4": "0000","phone": "2626546545"}
{"name": "CVS PHARMACY #08771","address1": "7520 W BLUE MOUND RD","address2": "","city": "WAUWATOSA","state": "WI","zip": "53213","zip+4": "0000","phone": "4147719146"}
{"name": "CVS PHARMACY #08769","address1": "5929 WEST LISBON AVE","address2": "","city": "MILWAUKEE","state": "WI","zip": "53210","zip+4": "0000","phone": "4144429233"}
{"name": "CVS PHARMACY #08551","address1": "1832 W COURT ST","address2": "","city": "JANESVILLE","state": "WI","zip": "53548","zip+4": "3418","phone": "6087529286"}
{"name": "CVS PHARMACY #08525","address1": "1800 W COLLEGE AVE","address2": "","city": "APPLETON","state": "WI","zip": "54914","zip+4": "0000","phone": "9209911190"}
{"name": "CVS PHARMACY #08775","address1": "W63 N152 WASHINGTON AVE","address2": "","city": "CEDARBURG","state": "WI","zip": "53012","zip+4": "0000","phone": "2623776090"}
{"name": "CVS PHARMACY #08772","address1": "5740 S PACKARD AVE","address2": "","city": "CUDAHY","state": "WI","zip": "53110","zip+4": "0000","phone": "4144835667"}
{"name": "CVS PHARMACY #08764","address1": "2135 SILVERNAIL RD","address2": "","city": "PEWAUKEE","state": "WI","zip": "53072","zip+4": "0000","phone": "2625139221"}
{"name": "CVS PHARMACY #08776","address1": "1122 WEST BLVD","address2": "","city": "RACINE","state": "WI","zip": "53405","zip+4": "0000","phone": "2626375603"}
{"name": "CVS PHARMACY #08773","address1": "3030 W VILLARD AVE","address2": "","city": "MILWAUKEE","state": "WI","zip": "53209","zip+4": "0000","phone": "4145363378"}
{"name": "CVS PHARMACY #08774","address1": "2207 80TH STREET","address2": "","city": "KENOSHA","state": "WI","zip": "53143","zip+4": "0000","phone": "2626583731"}
{"name": "CVS PHARMACY #08767","address1": "2607 N DOWNER AVE","address2": "","city": "MILWAUKEE","state": "WI","zip": "53211","zip+4": "0000","phone": "4149060942"}
{"name": "CVS PHARMACY #08542","address1": "2400 VELP AVENUE","address2": "","city": "GREEN BAY","state": "WI","zip": "54303","zip+4": "0000","phone": "9204343954"}
{"name": "ASPIRUS WAUSAU HOSPITAL","address1": "333 PINE RIDGE BLVD","address2": "","city": "WAUSAU","state": "WI","zip": "54401","zip+4": "0000","phone": "7158472871"}
{"name": "AURORA PHARMACY 068 WATERFORD","address1": "818 FORREST LANE","address2": "SUITE 101","city": "WATERFORD","state": "WI","zip": "53185","zip+4": "0000","phone": "2625148050"}
{"name": "AURORA PHARMACY 102 HARTFORD #","address1": "1640 E SUMNER ST","address2": "SUITE 100","city": "HARTFORD","state": "WI","zip": "53027","zip+4": "0000","phone": "2626704210"}
{"name": "SAINT CLARES HOSPITAL OF WESTO","address1": "3400 MINISTRY PKWY","address2": "","city": "WESTON","state": "WI","zip": "54476","zip+4": "0000","phone": "7153933000"}
{"name": "UVANTA PHARMACY-FOX VALLEY","address1": "3701 E EVERGREEN DR","address2": "STE 1000","city": "APPLETON","state": "WI","zip": "54913","zip+4": "0000","phone": "9207397855"}
{"name": "WALGREEN DRUG STORE #10235","address1": "901 MAIN AVE","address2": "","city": "DE PERE","state": "WI","zip": "54115","zip+4": "1305","phone": "9209836153"}
{"name": "WALGREEN DRUG STORE #10301","address1": "517 N MAIN ST","address2": "","city": "VIROQUA","state": "WI","zip": "54665","zip+4": "1453","phone": "6086378405"}
{"name": "VERNON MEMORIAL PHARMACY","address1": "407 S MAIN ST","address2": "","city": "VIROQUA","state": "WI","zip": "54665","zip+4": "0000","phone": "6086374716"}
{"name": "CALUMET MEDICAL CENTER","address1": "614 MEMORIAL DR","address2": "","city": "CHILTON","state": "WI","zip": "53014","zip+4": "0000","phone": "9208492386"}
{"name": "HOMETOWN LTC PHARMACY","address1": "643 S MAIN ST","address2": "","city": "DEFOREST","state": "WI","zip": "53532","zip+4": "0000","phone": "6088462750"}
{"name": "POYNETTE HOMETOWN PHARMACY","address1": "317 N HWY 51","address2": "","city": "POYNETTE","state": "WI","zip": "53955","zip+4": "0000","phone": "6086359456"}
{"name": "HARTIG DRUG CO #19","address1": "101 S MARQUETTE RD","address2": "","city": "PRAIRIE DU CHIEN","state": "WI","zip": "53821","zip+4": "0000","phone": "6083262581"}
{"name": "FSH ONALASKA CLINIC PHCY","address1": "191 THEATER RD","address2": "","city": "ONALASKA","state": "WI","zip": "54650","zip+4": "0000","phone": "6083925030"}
{"name": "CARETEX","address1": "904 BOYCE DR","address2": "","city": "RHINELANDER","state": "WI","zip": "54501","zip+4": "0000","phone": "7153656837"}
{"name": "HOLY FAMILY HOSPITAL","address1": "535 HOSPITAL RD","address2": "","city": "NEW RICHMOND","state": "WI","zip": "54017","zip+4": "0000","phone": "7152462101"}
{"name": "MORTON PHARMACY","address1": "712 MIDWAY RD","address2": "","city": "MENASHA","state": "WI","zip": "54952","zip+4": "0000","phone": "9207222519"}
{"name": "MORTON PHARMACY","address1": "N1788 LILY OF THE VALLEY DR","address2": "SUITE A","city": "GREENVILLE","state": "WI","zip": "54542","zip+4": "0000","phone": "9207573096"}
{"name": "AURORA PHARMACY 299 JANESVILLE","address1": "2819 N LEXINGTON DR","address2": "","city": "JANESVILLE","state": "WI","zip": "53545","zip+4": "0000","phone": "6087560949"}
{"name": "TARGET PHARMACY #2199","address1": "2600 SOUTH 108TH STREET","address2": "","city": "WEST ALLIS","state": "WI","zip": "53227","zip+4": "0000","phone": "4145450385"}
{"name": "WALGREEN DRUG STORE #10574","address1": "101 CENTER AVE","address2": "","city": "MERRILL","state": "WI","zip": "54452","zip+4": "1263","phone": "7155390218"}
{"name": "STOUGHTON HOSPITAL","address1": "900 RIDGE ST","address2": "","city": "STOUGHTON","state": "WI","zip": "53589","zip+4": "0000","phone": "6088736611"}
{"name": "WALGREEN DRUG CO #10682","address1": "109 N MARQUETTE RD","address2": "","city": "PRAIRIE DU CHIEN","state": "WI","zip": "53821","zip+4": "0000","phone": "6083260581"}
{"name": "AURORA PHARMACY108 LOMIRA #108","address1": "375 EAST AVE","address2": "","city": "LOMIRA","state": "WI","zip": "53048","zip+4": "0000","phone": "9202692080"}
{"name": "SAMS PHARMACY #106535","address1": "4000 RIB MOUNTAIN DR","address2": "","city": "WAUSAU","state": "WI","zip": "54401","zip+4": "0000","phone": "7153550161"}
{"name": "SAMS PHARMACY #104840","address1": "3900 DEERFIELD DRIVE","address2": "","city": "JANESVILLE","state": "WI","zip": "53546","zip+4": "0000","phone": "6087412391"}
{"name": "WALGREEN DRUG STORE #10396","address1": "1500 W JAMES ST","address2": "","city": "COLUMBUS","state": "WI","zip": "53925","zip+4": "1001","phone": "9206235459"}
{"name": "PICK N SAVE PHARMACY #6885","address1": "6950 W STATE STREET","address2": "","city": "WAUWATOSA","state": "WI","zip": "53213","zip+4": "0000","phone": "4144751932"}
{"name": "GENOA HEALTHCARE #41","address1": "625 WEST WASHINGTON AVE","address2": "","city": "MADISON","state": "WI","zip": "53703","zip+4": "0000","phone": "6082511838"}
{"name": "ONCOLOGY ALLIANCE","address1": "1055 N MAYFAIR RD","address2": "","city": "WAUWATOSA","state": "WI","zip": "53226","zip+4": "0000","phone": "4147784306"}
{"name": "WHEATON FRANCISCAN PHARMACY #6","address1": "3237 S 16TH ST","address2": "ROOM 121","city": "MILWAUKEE","state": "WI","zip": "53215","zip+4": "4526","phone": "4146475300"}
{"name": "AURORA PHARMACY 122 HUBERTUS #","address1": "1303 HWY 175","address2": "","city": "HUBERTUS","state": "WI","zip": "53033","zip+4": "9677","phone": "2626283550"}
{"name": "MERCER CENTER #14","address1": "5189 NORTH CLINIC STREET","address2": "","city": "MERCER","state": "WI","zip": "54547","zip+4": "0566","phone": "7154762345"}
{"name": "MARSHFIELD CLINIC PHARMACY #12","address1": "3501 GOLF ROAD","address2": "","city": "EAU CLAIRE","state": "WI","zip": "54701","zip+4": "8028","phone": "7158584224"}
{"name": "MARSHFIELD CLINIC PHARMACY #13","address1": "1000 STARR AVENUE","address2": "","city": "EAU CLAIRE","state": "WI","zip": "54703","zip+4": "1821","phone": "7158584366"}
{"name": "PICK N SAVE #6879","address1": "2355 N 35TH ST","address2": "","city": "MILWAUKEE","state": "WI","zip": "53210","zip+4": "0000","phone": "4144478117"}
{"name": "PICK N SAVE #6883","address1": "11111 W GREENFIELD","address2": "","city": "WEST ALLIS","state": "WI","zip": "53214","zip+4": "0000","phone": "4147780262"}
{"name": "PICK N SAVE #6880","address1": "1735 W SILVERSPRINGS DR","address2": "","city": "GLENDALE","state": "WI","zip": "53209","zip+4": "0000","phone": "4142478581"}
{"name": "PICK N SAVE #6881","address1": "13995 W NATIONAL AVE","address2": "","city": "NEW BERLIN","state": "WI","zip": "53151","zip+4": "0000","phone": "2628270201"}
{"name": "PICK N SAVE #6882","address1": "1100 E GARFIELD","address2": "","city": "MILWAUKEE","state": "WI","zip": "53212","zip+4": "0000","phone": "4143748769"}
{"name": "PICK N SAVE PHARMACY #6312","address1": "N95 W18273 COUNTY LINE RD","address2": "","city": "MENOMONEE FALLS","state": "WI","zip": "53051","zip+4": "0000","phone": "2622534705"}
{"name": "PICK N SAVE #6366","address1": "5826 S 108TH ST","address2": "","city": "HALES CORNERS","state": "WI","zip": "53130","zip+4": "0000","phone": "4145250763"}
{"name": "AURORA PHARMACY INC #115","address1": "4310 67TH DR","address2": "","city": "UNION GROVE","state": "WI","zip": "53182","zip+4": "0000","phone": "2628781171"}
{"name": "HEALTH ONE PHARMACY MILWAUKEE","address1": "9077 N DEERBROOK TRAIL","address2": "","city": "BROWN DEER","state": "WI","zip": "53223","zip+4": "0000","phone": "4145860845"}
{"name": "WALGREEN DRUG STORE #10585","address1": "1047 N MAIN ST","address2": "","city": "RIVER FALLS","state": "WI","zip": "54022","zip+4": "1596","phone": "7154264089"}
{"name": "SPARTA PHARMACY LLC","address1": "201 S WATER ST","address2": "","city": "SPARTA","state": "WI","zip": "54656","zip+4": "0000","phone": "6082692949"}
{"name": "COPPS FOOD CENTER PHARMACY #81","address1": "2538 IRONWOOD DR","address2": "","city": "SUN PRAIRIE","state": "WI","zip": "53590","zip+4": "0000","phone": "6088372867"}
{"name": "AURORA PHARMACY 306 MILWAUKEE","address1": "7300 W DEAN RD","address2": "","city": "MILWAUKEE","state": "WI","zip": "53223","zip+4": "0000","phone": "4143717380"}
{"name": "AURORA PHARMACY 305 WEST ALLIS","address1": "8615 W BELOIT RD","address2": "","city": "WEST ALLIS","state": "WI","zip": "53227","zip+4": "3798","phone": "4146074185"}
{"name": "ST CLARE HOSPITAL ER","address1": "707 14TH ST","address2": "","city": "BARABOO","state": "WI","zip": "53913","zip+4": "0000","phone": "6083561400"}
{"name": "WALGREENS DRUG STORE #10962","address1": "1133 N JOHNS ST","address2": "","city": "DODGEVILLE","state": "WI","zip": "53533","zip+4": "0000","phone": "6089352041"}
{"name": "WALGREENS DRUG STORE #10584","address1": "680 MILWAUKEE AVE","address2": "","city": "BURLINGTON","state": "WI","zip": "53105","zip+4": "1346","phone": "2627670697"}
{"name": "WALGREENS DRUG STORE #10759","address1": "2412 CROOKS AVE","address2": "","city": "KAUKAUNA","state": "WI","zip": "54130","zip+4": "3914","phone": "9207599165"}
{"name": "TARGET PHARMACY #1069","address1": "4301 LIEN RD","address2": "","city": "MADISON","state": "WI","zip": "53704","zip+4": "0000","phone": "6088191911"}
{"name": "TARGET PHARMACY #2106","address1": "6321 MCKEE RD","address2": "","city": "FITCHBURG","state": "WI","zip": "53719","zip+4": "0000","phone": "6088191523"}
{"name": "MARSHFIELD CLINIC PHARMACY #15","address1": "3501 CRANBERRY BOULEVARD","address2": "","city": "WESTON","state": "WI","zip": "54476","zip+4": "5213","phone": "7153931040"}
{"name": "WALGREENS DRUG STORE #10554","address1": "4611 LARSON BEACH RD","address2": "","city": "MCFARLAND","state": "WI","zip": "53558","zip+4": "9484","phone": "6088386829"}
{"name": "COPPS FOOD CENTER PHARMACY #81","address1": "3650 UNVERSITY AVENUE","address2": "","city": "MADISON","state": "WI","zip": "53705","zip+4": "0000","phone": "6082312533"}
{"name": "UVANTA PHARMACY OF LACROSSE","address1": "2840 SOUTH 21ST PLACE","address2": "","city": "LACROSSE","state": "WI","zip": "54601","zip+4": "0000","phone": "6087846500"}
{"name": "COSTCO PHARMACY #628","address1": "950 PORT WASHINGTON RD","address2": "","city": "GRAFTON","state": "WI","zip": "53024","zip+4": "0000","phone": "2622041059"}
{"name": "WALGREENS DRUG STORE #10925","address1": "546 N GRAND AVE","address2": "","city": "SUN PRAIRIE","state": "WI","zip": "53590","zip+4": "0000","phone": "6088252678"}
{"name": "WALGREENS DRUG STORE #10927","address1": "20 W PIONEER RD","address2": "","city": "FOND DU LAC","state": "WI","zip": "54935","zip+4": "6152","phone": "9209070556"}
{"name": "WALGREENS DRUG STORE #11235","address1": "1740 CENTER AVE","address2": "","city": "JANESVILLE","state": "WI","zip": "53546","zip+4": "0000","phone": "6087571261"}
{"name": "WALGREENS DRUG STORE #11278","address1": "3301 CHURCH ST","address2": "","city": "STEVENS POINT","state": "WI","zip": "54481","zip+4": "5314","phone": "7153452843"}
{"name": "WALGREENS DRUG STORE #11253","address1": "607 PARK AVE","address2": "","city": "BEAVER DAM","state": "WI","zip": "53916","zip+4": "0000","phone": "9203560148"}
{"name": "ROUNDYS SUPERMARKETS INC #5372","address1": "55 W POINEER RD","address2": "","city": "FOND DU LAC","state": "WI","zip": "54935","zip+4": "0000","phone": "9209237780"}
{"name": "ORTHOPEDIC AND SPORTS SURGERY","address1": "2105 E ENTERPRISE AVE","address2": "STE 101","city": "APPLETON","state": "WI","zip": "54913","zip+4": "0000","phone": "9205601100"}
{"name": "TARGET PHARMACY #2348","address1": "660 N EDWARDS BLVD","address2": "","city": "LAKE GENEVA","state": "WI","zip": "53147","zip+4": "0000","phone": "2622485610"}
{"name": "WAL-MART PHARMACY #103857","address1": "2151 ROYAL AVE","address2": "","city": "MONONA","state": "WI","zip": "53713","zip+4": "0000","phone": "6082268671"}
{"name": "WAL-MART PHARMACY #104281","address1": "800 WEST 10TH STREET SOUTH","address2": "","city": "LADYSMITH","state": "WI","zip": "54848","zip+4": "0000","phone": "7155322721"}
{"name": "PROHEALTH CARE PHARMACY","address1": "791 SUMMIT AVE","address2": "","city": "OCONOMOWOC","state": "WI","zip": "53066","zip+4": "0000","phone": "2625690284"}
{"name": "WALGREENS DRUG STORE #10573","address1": "5702 RAYMOND RD","address2": "","city": "MADISON","state": "WI","zip": "53711","zip+4": "4232","phone": "6082788037"}
{"name": "WALGREEN DRUG STORE #11301","address1": "981 N SHAWANO ST","address2": "","city": "NEW LONDON","state": "WI","zip": "54961","zip+4": "9380","phone": "9209825189"}
{"name": "WALGREEN DRUG STORE #10714","address1": "839 N WISCONSIN ST","address2": "","city": "ELKHORN","state": "WI","zip": "53121","zip+4": "1138","phone": "2627235055"}
{"name": "ALLIANCE AT CHIPPEWA VALLEY","address1": "2815 COUNTY HIGHWAY I STE B","address2": "STE B","city": "CHIPPEWA FALLS","state": "WI","zip": "54729","zip+4": "0000","phone": "7157260834"}
{"name": "PAMIDA PHARMACY #653","address1": "845 S BAY SHORE DR","address2": "","city": "SISTER BAY","state": "WI","zip": "54234","zip+4": "0000","phone": "9208549182"}
{"name": "WALGREEN DRUG STORE #11237","address1": "1433 W BURNHAM ST","address2": "","city": "MILWAUKEE","state": "WI","zip": "53204","zip+4": "3251","phone": "4146723017"}
{"name": "COLUMBIA ST MARYS PHARMACY #01","address1": "13133 N PORT WASHINGTON","address2": "STE G 101","city": "MEQUON","state": "WI","zip": "53097","zip+4": "0000","phone": "2622436700"}
{"name": "ST MARYS HOSPITAL MEDICAL CENT","address1": "707 SOUTH MILLS ST","address2": "","city": "MADISON","state": "WI","zip": "53715","zip+4": "0000","phone": "6087586800"}
{"name": "VISITING NURSE ASSOCIATION OF","address1": "931 DISCOVERY AVE","address2": "","city": "GREEN BAY","state": "WI","zip": "54311","zip+4": "0000","phone": "9202885141"}
{"name": "VISITING NURSE ASSOCIATION OF","address1": "11333 WEST NATIONAL AVE","address2": "","city": "MILWAUKEE","state": "WI","zip": "53227","zip+4": "0000","phone": "4143284503"}
{"name": "WALGREEN DRUG STORE #11576","address1": "1979 LIME KILN RD","address2": "","city": "BELLEVUE","state": "WI","zip": "54311","zip+4": "6219","phone": "9202880638"}
{"name": "WALGREEN DRUG STORE #11176","address1": "812 N MAIN ST","address2": "","city": "LAKE MILLS","state": "WI","zip": "53551","zip+4": "0000","phone": "9206485187"}
{"name": "CVS PHARMACY #01267","address1": "7550 W PERKINS PLACE","address2": "","city": "MILWAUKEE","state": "WI","zip": "53216","zip+4": "0000","phone": "4144664875"}
{"name": "ST MARYS HOSPITAL OZAUKEE","address1": "13111 N PORT WASHINGTON RD","address2": "","city": "MEQUON","state": "WI","zip": "53097","zip+4": "0000","phone": "2622437300"}
{"name": "WALGREEN DRUG STORE #11636","address1": "S 70 W 15775 JANESVILLE RD","address2": "","city": "MUSKEGO","state": "WI","zip": "53150","zip+4": "0000","phone": "4144221359"}
{"name": "AGNESIAN PHARMACY BROWNSVILLE","address1": "900 MAIN STREET","address2": "","city": "BROWNSVILLE","state": "WI","zip": "53006","zip+4": "0000","phone": "9205831310"}
{"name": "WALGREEN DRUG STORE #11339","address1": "116 N MILITARY AVE","address2": "","city": "GREEN BAY","state": "WI","zip": "54303","zip+4": "3202","phone": "9204983247"}
{"name": "ST JOSEPHS HOSPITAL CHIPPEWA F","address1": "2661 COUNTY TRUNK I","address2": "","city": "CHIPPEWA FALLS","state": "WI","zip": "54729","zip+4": "0000","phone": "7157231811"}
{"name": "MARSHFIELD CLINIC PHARMACY #17","address1": "390 ORBITING DRIVE","address2": "","city": "MOSINEE","state": "WI","zip": "54455","zip+4": "1763","phone": "7156939181"}
{"name": "WALGREEN DRUG STORE #11648","address1": "1401 HWY 18 151","address2": "","city": "MOUNT HOREB","state": "WI","zip": "53572","zip+4": "0000","phone": "6084379160"}
{"name": "SOMERSET DRUG","address1": "830 RIVARD ST","address2": "STE 100","city": "SOMERSETS","state": "WI","zip": "54025","zip+4": "0000","phone": "7152473535"}
{"name": "SHOPKO PHARMACY #177","address1": "2320 LINEVILLE RD","address2": "","city": "GREEN BAY","state": "WI","zip": "54313","zip+4": "8836","phone": "9204345846"}
{"name": "WALGREEN DRUG STORE #11676","address1": "N 168 W 21330 MAIN ST","address2": "","city": "JACKSON","state": "WI","zip": "53037","zip+4": "0000","phone": "2626771702"}
{"name": "WAL-MART PHARMACY #3643","address1": "1010 N 8TH ST","address2": "","city": "MEDFORD","state": "WI","zip": "54451","zip+4": "0000","phone": "7157489000"}
{"name": "WAL-MART PHARMACY #5463","address1": "1220 THIEL STREET","address2": "","city": "HATFORD","state": "WI","zip": "53027","zip+4": "0000","phone": "2626705803"}
{"name": "PICK N SAVE PHARMACY #6369","address1": "1535 E MORELAND BLVD","address2": "","city": "WAUKESHA","state": "WI","zip": "53186","zip+4": "0000","phone": "2628966767"}
{"name": "WALGREEN DRUG STORE #11277","address1": "333 PHILLIPS BLVD","address2": "","city": "SAULK CITY","state": "WI","zip": "53583","zip+4": "1526","phone": "6086435182"}
{"name": "WAL-MART PHARMACY #103324","address1": "4433 VANGUARD DRIVE","address2": "","city": "SHEBOYGAN","state": "WI","zip": "53081","zip+4": "0000","phone": "9204599405"}
{"name": "PICK N SAVE PHARMACY #6315","address1": "2160 SILVERNAIL RD","address2": "","city": "PEWAUKEE","state": "WI","zip": "53072","zip+4": "0000","phone": "2625476343"}
{"name": "UVANTA PHARMACY - MADISON","address1": "2217 INDUSTRIAL DR","address2": "","city": "MONONA","state": "WI","zip": "53713","zip+4": "0000","phone": "6082230054"}
{"name": "MIDELFORT PHARMACY AND HM SOUT","address1": "2839 MALL DR","address2": "STE 4","city": "EAU CLAIRE","state": "WI","zip": "54701","zip+4": "0000","phone": "7158381458"}
{"name": "COPPS FOOD CENTER PHARMACY #81","address1": "3415 CUSTER STREET","address2": "","city": "MANITOWOC","state": "WI","zip": "54220","zip+4": "0000","phone": "9206823051"}
{"name": "PARDEEVILLE HOMETOWN PHARMACY","address1": "135 NORTH MAIN STREET","address2": "","city": "PARDEEVILLE","state": "WI","zip": "53954","zip+4": "9454","phone": "6088462325"}
{"name": "PICK N SAVE PHARMACY #6867","address1": "9200 N GREENBAY ROAD","address2": "","city": "BROWN DEER","state": "WI","zip": "53206","zip+4": "0000","phone": "4143547213"}
{"name": "AURORA PHARMACY 1262 MILWAUKEE","address1": "3003 W GOOD HOPE RD","address2": "STE 1129","city": "MILWAUKEE","state": "WI","zip": "53209","zip+4": "0000","phone": "4145409236"}
{"name": "LAKEVIEW MEDICAL CENTER","address1": "1100 N MAIN ST","address2": "","city": "RICE LAKE","state": "WI","zip": "54868","zip+4": "0000","phone": "7152341515"}
{"name": "PAMIDA PHARMACY #654","address1": "598 LUCAS LANE","address2": "","city": "ELLSWORTH","state": "WI","zip": "54011","zip+4": "0000","phone": "7152734466"}
{"name": "AURORA BAYCARE CLINIC","address1": "2845 GREENBRIER RD","address2": "STE 340","city": "GREEN BAY","state": "WI","zip": "54308","zip+4": "0000","phone": "9202888000"}
{"name": "WHEATON FRANCISCAN PHARMACY #6","address1": "10101 S 27TH ST","address2": "ROOM 1005","city": "FRANKLIN","state": "WI","zip": "53132","zip+4": "0000","phone": "4143254740"}
{"name": "FROEDTERT HOSPITAL CANCER CENT","address1": "9200 W WISCONSIN AVE","address2": "STE 200C","city": "MILWAUKEE","state": "WI","zip": "53226","zip+4": "0000","phone": "4148050977"}
{"name": "COPPS FOOD CENTER PHARMACY #81","address1": "2064 LIME KILN ROAD","address2": "","city": "BELLEVUE","state": "WI","zip": "54311","zip+4": "0000","phone": "9204693693"}
{"name": "WALGREEN DRUG STORE #11528","address1": "1531 MADISON RD","address2": "","city": "BELOIT","state": "WI","zip": "53511","zip+4": "3267","phone": "6083651904"}
{"name": "AURORA PHARMACY 1263 MENOMONEE","address1": "N84 W16 889 MENOMONEE AVE","address2": "STE 1408","city": "MENOMONEE FALLS","state": "WI","zip": "53051","zip+4": "0000","phone": "2622518500"}
{"name": "WAL-MART PHARMACY #103499","address1": "1520 STATE HWY 26","address2": "","city": "JEFFERSON","state": "WI","zip": "53549","zip+4": "0000","phone": "9206742873"}
{"name": "WALGREEN DRUG STORE #11236","address1": "2519 KETTERING ST","address2": "","city": "JANESVILLE","state": "WI","zip": "53546","zip+4": "0000","phone": "6087540007"}
{"name": "COPPS FOOD CENTER PHARMACY #81","address1": "3300 CALUMET AVE","address2": "","city": "MANITOWOC","state": "WI","zip": "54220","zip+4": "0000","phone": "9206823051"}
{"name": "SHOPKO EXPRESS #505","address1": "2101 E EVERGREEN DR","address2": "","city": "APPLETON","state": "WI","zip": "54913","zip+4": "9001","phone": "9207332305"}
{"name": "SHOPKO EXPRESS #504","address1": "W3208 VAN ROY RD","address2": "","city": "APPLETON","state": "WI","zip": "54915","zip+4": "4086","phone": "9207333846"}
{"name": "CVS PHARMACY #03394","address1": "3860 S 27TH STREET","address2": "","city": "MILWAUKEE","state": "WI","zip": "53221","zip+4": "0000","phone": "4142827557"}
{"name": "VERNON MEMORIAL PHARMACY WESTB","address1": "115 WEST STATE STREET","address2": "","city": "WESTBY","state": "WI","zip": "54667","zip+4": "0000","phone": "6086342222"}
{"name": "TARGET PHARMACY #2388","address1": "7800 S LOVERS LANE RD","address2": "","city": "FRANKLIN","state": "WI","zip": "53132","zip+4": "2290","phone": "4144484001"}
{"name": "WALGREENS #11647","address1": "717 8TH AVE","address2": "","city": "MONROE","state": "WI","zip": "53566","zip+4": "4000","phone": "6083257020"}
{"name": "WALGREENS #11858","address1": "311 E CAMPUS MALL","address2": "","city": "MADISON","state": "WI","zip": "53715","zip+4": "0000","phone": "6082510042"}
{"name": "WALGREEN DRUG STORE #11649","address1": "999 E MAIN ST","address2": "","city": "WAUPUN","state": "WI","zip": "53963","zip+4": "0000","phone": "9203244696"}
{"name": "PICK N SAVE PHARMACY #6384","address1": "1010 N ROCHESTER STREET","address2": "","city": "MUKWONAGO","state": "WI","zip": "53149","zip+4": "0000","phone": "2626361680"}
{"name": "COSTCO PHARMACY #1020","address1": "2150 DEMING WAY","address2": "","city": "MIDDLETON","state": "WI","zip": "53562","zip+4": "0000","phone": "6088243959"}
{"name": "PICK N SAVE PHARMACY #6390","address1": "1750 HWY 51 W","address2": "","city": "STOUGHTON","state": "WI","zip": "53589","zip+4": "0000","phone": "6088733069"}
{"name": "WALGREENS #12498","address1": "675 S WATER ST","address2": "","city": "PLATTEVILLE","state": "WI","zip": "53818","zip+4": "0000","phone": "6083487611"}
{"name": "WALGREENS #12136","address1": "910 BROAD ST","address2": "","city": "BELOIT","state": "WI","zip": "53511","zip+4": "0000","phone": "6083626047"}
{"name": "BELLIN HEALTH PHARMACY","address1": "1630 COMMANCHE AVE","address2": "STE 102","city": "GREEN BAY","state": "WI","zip": "54313","zip+4": "0000","phone": "9204304555"}
{"name": "COPPS FOOD CENTER PHARMACY #81","address1": "1819 MAIN STREET","address2": "","city": "GREENBAY","state": "WI","zip": "54302","zip+4": "0000","phone": "9204693436"}
{"name": "PICK N SAVE PHARMACY #6360","address1": "7201 S 76TH STREET","address2": "","city": "FRANKLIN","state": "WI","zip": "53132","zip+4": "0000","phone": "4144278692"}
{"name": "WALGREENS #11857","address1": "10489 SR 27","address2": "","city": "HAYWARD","state": "WI","zip": "54843","zip+4": "0000","phone": "7156341919"}
{"name": "CVS PHARMACY #05186","address1": "1485 ONEIDA ST","address2": "","city": "APPLETON","state": "WI","zip": "54915","zip+4": "0000","phone": "9207331194"}
{"name": "WALGREENS #12524","address1": "6020 W BROWN DEER RD","address2": "","city": "BROWN DEER","state": "WI","zip": "53223","zip+4": "0000","phone": "4143653608"}
{"name": "MCCULLOUGH'S LTC PHARMACY","address1": "1173 W MAIN ST","address2": "STE F","city": "WHITEWATER","state": "WI","zip": "53190","zip+4": "0000","phone": "2624735087"}
{"name": "TARGET PHARMACY #2251","address1": "9777 76TH ST","address2": "","city": "PLEASANT PRAIRIE","state": "WI","zip": "53158","zip+4": "1990","phone": "2628421171"}
{"name": "ADVANCED PAIN MANAGEMENT","address1": "4448 W LOOMIS RD","address2": "","city": "GREENFIELD","state": "WI","zip": "53220","zip+4": "0000","phone": "4143257246"}
{"name": "ADVANCED PAIN MANAGEMENT","address1": "4131 W LOOMIS RD","address2": "","city": "GREENFIELD","state": "WI","zip": "53221","zip+4": "0000","phone": "4143257246"}
{"name": "PICK N SAVE PHARMACY #6377","address1": "N 78 W 14501 APPLETON AVENUE","address2": "","city": "MENOMORRE FALLS","state": "WI","zip": "53051","zip+4": "0000","phone": "2622557598"}
{"name": "SHOPKO PHARMACY #2178","address1": "N66W25201 CTH V V","address2": "","city": "SUSSEX","state": "WI","zip": "53089","zip+4": "2531","phone": "2628202611"}
{"name": "WALGREENS #10963","address1": "60TH AND GREENFIELD","address2": "","city": "WEST ALLIS","state": "WI","zip": "53214","zip+4": "0000","phone": "4142581652"}
{"name": "MORTON PHARMACY LTC","address1": "200 E CITY CENTER","address2": "SUITE 100","city": "OSHKOSH","state": "WI","zip": "54901","zip+4": "0000","phone": "9203036564"}
{"name": "ADVANCED PAIN MANAGEMENT","address1": "2124 KOHLER MEMORIAL DRIVE","address2": "STE 100","city": "SHEBOYGAN","state": "WI","zip": "53081","zip+4": "0000","phone": "4143257246"}
{"name": "ADVANCED PAIN MANAGEMENT","address1": "4216 OLD GREEN BAY ROAD","address2": "","city": "RACINE","state": "WI","zip": "53403","zip+4": "0000","phone": "4143257246"}
{"name": "PICK N SAVE PHARMACY #6857","address1": "4698 S WHITNALL AVE","address2": "","city": "ST FRANCIS","state": "WI","zip": "53235","zip+4": "0000","phone": "4147690660"}
{"name": "PICK N SAVE PHARMACY #6413","address1": "36903 E WISCONSIN AVENUE","address2": "","city": "OCONOMOWOC LAKE","state": "WI","zip": "53066","zip+4": "0000","phone": "2625677938"}
{"name": "PICK N SAVE PHARMACY #6412","address1": "828 FOX POINT PLAZA","address2": "","city": "NEENAH","state": "WI","zip": "54956","zip+4": "0000","phone": "9207221348"}
{"name": "WALGREENS #11860","address1": "502 S MAIN ST","address2": "","city": "RICE LAKE","state": "WI","zip": "54868","zip+4": "2576","phone": "7157360120"}
{"name": "WALGREENS #12603","address1": "2575 MAIN ST","address2": "","city": "CROSS PLAINS","state": "WI","zip": "53528","zip+4": "9691","phone": "6087984003"}
{"name": "WALGREENS #12638","address1": "1041 W MAIN ST","address2": "","city": "WHITEWATER","state": "WI","zip": "53190","zip+4": "0000","phone": "2624720238"}
{"name": "BEAVER DAM HOSPITAL","address1": "707 SOUTH UNIVERSITY AVENUE","address2": "","city": "BEAVER DAM","state": "WI","zip": "53916","zip+4": "0000","phone": "9208877181"}
{"name": "CVS PHARMACY #05584","address1": "6210 CENTURY AVE","address2": "","city": "MIDDLETON","state": "WI","zip": "53562","zip+4": "0000","phone": "6088366630"}
{"name": "MEDPOINT PHARMACY","address1": "2501 W. SILVER SPRINGS RD","address2": "SUITE 5","city": "GLENDALE","state": "WI","zip": "53209","zip+4": "0000","phone": "4144616005"}
{"name": "ADVANCED PAIN MANAGEMENT","address1": "34SCHROEDER COURT","address2": "SUITE 100","city": "MADISON","state": "WI","zip": "53711","zip+4": "0000","phone": "4143257246"}
{"name": "PICK N SAVE PHARMACY #6368","address1": "17295 W CAPITOL DRIVE","address2": "","city": "BROOKFIELD","state": "WI","zip": "53045","zip+4": "0000","phone": "2623731080"}
{"name": "WOMENS SPECIALTY CARE","address1": "2641 DEVELOPMENT DRIVE","address2": "","city": "GREEN BAY","state": "WI","zip": "54311","zip+4": "0000","phone": "9203386868"}
{"name": "CAREPLUS CVS/ PHARMACY #08964","address1": "W165 N5800 RIDGEWOOD DR","address2": "","city": "MENOMONEE FALLS","state": "WI","zip": "53051","zip+4": "0000","phone": "2627033386"}
{"name": "WILLOW PHARMACY","address1": "2702 INTERNATIONAL LANE","address2": "STE 102","city": "MADISON","state": "WI","zip": "53704","zip+4": "0000","phone": "6082402280"}
{"name": "PICK N SAVE PHARMACY #6873","address1": "5851 S PACKARD AV","address2": "","city": "CUDAHY","state": "WI","zip": "53110","zip+4": "0000","phone": "4147446058"}
{"name": "PICK N SAVE PHARMACY #6850","address1": "1901 63RD STREET","address2": "","city": "KENOSHA","state": "WI","zip": "53143","zip+4": "0000","phone": "2626531202"}
{"name": "CVS PHARMACY #05600","address1": "2149 PRAIRIE AVE","address2": "","city": "BELOIT","state": "WI","zip": "53511","zip+4": "0000","phone": "6083621767"}
{"name": "TOMAH MEMORIAL HOSPITAL","address1": "321 BUTTS AVE","address2": "","city": "TOMAH","state": "WI","zip": "54660","zip+4": "0000","phone": "9526532568"}
{"name": "ROCKMED LONG TERM CARE PHARMAC","address1": "6 W FULTON ST","address2": "","city": "EDGERTON","state": "WI","zip": "53534","zip+4": "0000","phone": "6088733244"}
{"name": "BELLIN HEALTH PHARMACY","address1": "3263 EATON RD.","address2": "","city": "GREEN BAY","state": "WI","zip": "54311","zip+4": "0000","phone": "9204304555"}
{"name": "TARGET PHARMACY #2491","address1": "660 S GRAND AVE","address2": "","city": "SUN PRAIRIE","state": "WI","zip": "53590","zip+4": "0000","phone": "6088345601"}
{"name": "MEDICINE SHOPPE #1855","address1": "110 OAK STREET","address2": "","city": "FREDERIC","state": "WI","zip": "54837","zip+4": "0000","phone": "7153274208"}
{"name": "NEW BERLIN PHARMACY INC.","address1": "14105 W GREENFIELD AVE","address2": "","city": "NEW BERLIN","state": "WI","zip": "53151","zip+4": "0000","phone": "2627820460"}
{"name": "MEDICINE SHOPPE #1798","address1": "300 SUPERIOR AVENUE","address2": "","city": "TOMAH","state": "WI","zip": "54660","zip+4": "0000","phone": "6083722101"}
{"name": "PICK N SAVE PHARMACY #6364","address1": "10202 W SILVER SPRING DR","address2": "","city": "MILWAUKEE","state": "WI","zip": "53225","zip+4": "0000","phone": "4144611428"}
{"name": "PICK N SAVE PHARMACY #6845","address1": "3701 S 27TH STREET","address2": "","city": "MILWAUKEE","state": "WI","zip": "53221","zip+4": "0000","phone": "4142813622"}
{"name": "PICK N SAVE PHARMACY #6863","address1": "2210 RAPIDS DR","address2": "","city": "RACINE","state": "WI","zip": "53403","zip+4": "0000","phone": "2626330543"}
{"name": "PICK N SAVE PHARMACY #6418","address1": "7401 W GOOD HOPE RD","address2": "","city": "MILWAUKEE","state": "WI","zip": "53223","zip+4": "0000","phone": "4147603273"}
{"name": "ACCESS COMMUNITY HEALTH CENTER","address1": "3434 E WASHINGTON AVE","address2": "","city": "MADISON","state": "WI","zip": "53704","zip+4": "4155","phone": "6082042680"}
{"name": "LAKE HALLIE CENTER #18","address1": "12961 27TH AVENUE","address2": "","city": "CHIPPEWA FALLS","state": "WI","zip": "54729","zip+4": "0000","phone": "7157383710"}
{"name": "COPPS FOOD CENTER PHARMACY #81","address1": "2700 N BALLARD RD","address2": "","city": "APPLETON","state": "WI","zip": "54911","zip+4": "0000","phone": "9209960121"}
{"name": "UPLAND HILLS HEALTH","address1": "800 COMPASSION WAY","address2": "","city": "DODGEVILLE","state": "WI","zip": "53533","zip+4": "0000","phone": "6089308000"}
{"name": "PICK N SAVE PHARMACY #6886","address1": "301 FALLS ROAD","address2": "","city": "GRAFTON","state": "WI","zip": "53024","zip+4": "0000","phone": "2623751628"}
{"name": "MOUNDVIEW MEMORIAL HOSPITAL","address1": "402 W LAKE ST","address2": "","city": "FRIENDSHIP","state": "WI","zip": "53934","zip+4": "0000","phone": "6083393331"}
{"name": "WALGREENS #10758","address1": "110 LAKE SHORE DR W","address2": "","city": "ASHLAND","state": "WI","zip": "54806","zip+4": "1645","phone": "7156850202"}
{"name": "TARGET PHARMACY #2546","address1": "1250 W SUNSET DR","address2": "","city": "WAUKESHA","state": "WI","zip": "53189","zip+4": "8423","phone": "2628321273"}
{"name": "PICK N SAVE PHARMACY #6415","address1": "1220 W SUNSET DR","address2": "","city": "WAUKESHA","state": "WI","zip": "53189","zip+4": "8423","phone": "2624466924"}
{"name": "PICK N SAVE PHARMACY #6414","address1": "1008 MILWAUKEE AVE","address2": "","city": "BURLINGTON","state": "WI","zip": "53105","zip+4": "1362","phone": "2627671446"}
{"name": "WALGREENS #13074","address1": "900 ILLINOIS AVE","address2": "","city": "STEVENS POINT","state": "WI","zip": "54481","zip+4": "3114","phone": "7153446834"}
{"name": "WALGREENS #12545","address1": "108 W WALL ST","address2": "","city": "EAGLE RIVER","state": "WI","zip": "54521","zip+4": "0000","phone": "7154791069"}
{"name": "CVS PHARMACY #05390","address1": "5220 WEST RAWSON AVE","address2": "","city": "FRANKLIN","state": "WI","zip": "53132","zip+4": "0000","phone": "4144235257"}
{"name": "WALGREENS #12019","address1": "2803 N MEADE ST","address2": "","city": "APPLETON","state": "WI","zip": "54911","zip+4": "1507","phone": "9208306985"}
{"name": "COPPS FOOD CENTER #8130","address1": "640 E MAIN ST","address2": "","city": "SUN PRAIRIE","state": "WI","zip": "53590","zip+4": "9696","phone": "6088373821"}
{"name": "DEGEN BERGLUND PHARMACY","address1": "1260 CROSSING MEADOWS","address2": "","city": "ONALASKA","state": "WI","zip": "54650","zip+4": "0000","phone": "6087758865"}
{"name": "TARGET PHARMACY #2586","address1": "3900 N 124TH ST","address2": "","city": "WAUWATOSA","state": "WI","zip": "53222","zip+4": "2105","phone": "4148471101"}
{"name": "HY-VEE PHARMACY #1391","address1": "3801 E WASHINGTON AVE","address2": "","city": "MADISON","state": "WI","zip": "53704","zip+4": "3648","phone": "6082444991"}
{"name": "PICK N SAVE PHARMACY #6416","address1": "1717 N MAYFAIR RD","address2": "","city": "WAUWATOSA","state": "WI","zip": "53226","zip+4": "3019","phone": "4147781884"}
{"name": "CVS PHARMACY #08947","address1": "1130 W. SUNSET DR","address2": "","city": "WAUKESHA","state": "WI","zip": "53189","zip+4": "0000","phone": "2624465169"}
{"name": "MEMORIAL HEALTH CENTER","address1": "135 S GIBSON ST","address2": "","city": "MEDFORD","state": "WI","zip": "54451","zip+4": "1622","phone": "7157488100"}
{"name": "DIVINE SAVIOR HEALTHCARE","address1": "2817 NEW PINERY RD","address2": "","city": "PORTAGE","state": "WI","zip": "53901","zip+4": "9240","phone": "6087424131"}
{"name": "MORTON PHARMACY","address1": "2500 E CAPITOL DR STE 1500","address2": "","city": "APPLETON","state": "WI","zip": "54911","zip+4": "8735","phone": "9208826333"}
{"name": "AGNESIAN PHARMACY - MAYVIL","address1": "360 S MOUNTIN DR","address2": "","city": "MAYVILLE","state": "WI","zip": "53050","zip+4": "1498","phone": "9203877570"}
{"name": "CHIPPEWA CLINIC PHARMACY","address1": "2449 COUNTY TRUNK I","address2": "","city": "CHIPPEWA FALL","state": "WI","zip": "54729","zip+4": "0000","phone": "7157232824"}
{"name": "REEDSBURG AREA MEDICAL CENTER","address1": "2000 N DEWEY AVE","address2": "","city": "REEDSBURG","state": "WI","zip": "53959","zip+4": "1049","phone": "9526532568"}
{"name": "MERCY HEALTH SYSTEM RETAIL","address1": "1010 N. WASHINGTON","address2": "","city": "JANESVILLE","state": "WI","zip": "53545","zip+4": "0000","phone": "6087557989"}
{"name": "AURORA-COPPS PHARMACY","address1": "3305 W FOREST HOME AVE","address2": "","city": "MILWAUKEE","state": "WI","zip": "53215","zip+4": "0000","phone": "9204592634"}
{"name": "MORTON DRUG COMPANYINC.","address1": "111-E NORTH WATER","address2": "","city": "NEENAH","state": "WI","zip": "54956","zip+4": "0000","phone": "9207273853"}
{"name": "MARSHFIELD CLINIC","address1": "1000 N OAK AVE","address2": "","city": "MARSHFIELD","state": "WI","zip": "54449","zip+4": "5777","phone": "7153875678"}
{"name": "PAMIDA","address1": "700 PILGRAM WAY","address2": "","city": "GREEN BAY","state": "WI","zip": "54307","zip+4": "0000","phone": "9204292211"}
{"name": "SHOPKO STORES INC","address1": "700 PILGRIM WAY","address2": "PO BOX 19060","city": "GREEN BAY","state": "WI","zip": "54307","zip+4": "9060","phone": "9204294243"}
{"name": "NORTHWEST HEALTH VENTURESINC","address1": "202 N BARSTOW ST","address2": "","city": "EAU CLAIRE","state": "WI","zip": "54703","zip+4": "0000","phone": "7158336800"}
{"name": "AURORA PHARMACY INC","address1": "3305 W FOREST HOME AVE","address2": "","city": "MILWAUKEE","state": "WI","zip": "53215","zip+4": "0000","phone": "4146473329"}