{"name": "WALGREEN DRUG STORE #3373","address1": "2000 GERSTNER MEMORIAL BLV","address2": "","city": "LAKE CHARLES","state": "LA","zip": "70601","zip+4": "0000","phone": "3374338552"}
{"name": "WALGREEN DRUG STORE #3024","address1": "4200 CHEF MENTEUR HWY","address2": "","city": "NEW ORLEANS","state": "LA","zip": "70126","zip+4": "0000","phone": "5049455027"}
{"name": "WALGREEN DRUG STORE #4451","address1": "4400 S CLAIBORNE","address2": "","city": "NEW ORLEANS","state": "LA","zip": "70125","zip+4": "0000","phone": "5048910359"}
{"name": "WALGREEN DRUG STORE #6219","address1": "2636 RYAN ST","address2": "","city": "LAKE CHARLES","state": "LA","zip": "70601","zip+4": "0000","phone": "3374330686"}
{"name": "WALGREEN DRUG STORE #6637","address1": "1544 MANHATTAN BLVD","address2": "","city": "HARVEY","state": "LA","zip": "70058","zip+4": "0000","phone": "5043620888"}
{"name": "SAVON PHARMACY #4218","address1": "105 E SOUTHFIELD RD","address2": "","city": "SHREVEPORT","state": "LA","zip": "71105","zip+4": "0000","phone": "3188612431"}
{"name": "WALGREEN DRUG STORE #3889","address1": "4110 GENERAL DEGAULLE DR","address2": "","city": "NEW ORLEANS","state": "LA","zip": "70131","zip+4": "0000","phone": "5044339956"}
{"name": "ROSSERS PRESCRIPTION SHOP","address1": "600 JOHNSTON ST","address2": "","city": "LAFAYETTE","state": "LA","zip": "70501","zip+4": "0000","phone": "3372353523"}
{"name": "RITE AID PHARMACY #07277","address1": "4350 GENERAL DEGAULLE DRIVE","address2": "","city": "NEW ORLEANS","state": "LA","zip": "70131","zip+4": "8643","phone": "5043917755"}
{"name": "RITE AID PHARMACY #07255","address1": "3401 ST CHARLES AVENUE","address2": "","city": "NEW ORLEANS","state": "LA","zip": "70115","zip+4": "4535","phone": "5048964575"}
{"name": "RITE AID PHARMACY #07258","address1": "1133 SOUTH CARROLLTON AVENUE","address2": "","city": "NEW ORLEANS","state": "LA","zip": "70118","zip+4": "2023","phone": "5048651111"}
{"name": "RITE AID PHARMACY #07296","address1": "4710 JOHNSTON STREET","address2": "","city": "LAFAYETTE","state": "LA","zip": "70503","zip+4": "5218","phone": "3379887284"}
{"name": "RITE AID PHARMACY #07237","address1": "725 VETERANS MEMORIAL BOULEVAR","address2": "","city": "METAIRIE","state": "LA","zip": "70005","zip+4": "2803","phone": "5048307490"}
{"name": "RITE AID PHARMACY #07266","address1": "3100 GENTILLY BOULEVARD","address2": "","city": "NEW ORLEANS","state": "LA","zip": "70122","zip+4": "3854","phone": "5049401480"}
{"name": "RITE AID PHARMACY #07238","address1": "800 METAIRIE ROAD","address2": "SUITE D","city": "METAIRIE","state": "LA","zip": "70005","zip+4": "4043","phone": "5048336764"}
{"name": "RITE AID PHARMACY #07264","address1": "4115 JEFFERSON HIGHWAY","address2": "","city": "JEFFERSON","state": "LA","zip": "70121","zip+4": "1533","phone": "5048343232"}
{"name": "RITE AID PHARMACY #07251","address1": "4535 WESTBANK EXPRESSWAY","address2": "","city": "MARRERO","state": "LA","zip": "70072","zip+4": "3120","phone": "5043492717"}
{"name": "RITE AID PHARMACY #07271","address1": "760 HARRISON AVENUE","address2": "","city": "NEW ORLEANS","state": "LA","zip": "70124","zip+4": "3156","phone": "5044832383"}
{"name": "RITE AID PHARMACY #07290","address1": "114 GAUSE BOULEVARD WEST","address2": "","city": "SLIDELL","state": "LA","zip": "70460","zip+4": "2625","phone": "9856436262"}
{"name": "RITE AID PHARMACY #07268","address1": "8225 JEFFERSON HIGHWAY","address2": "","city": "HARAHAN","state": "LA","zip": "70123","zip+4": "4515","phone": "5047342424"}
{"name": "RITE AID PHARMACY #07282","address1": "5953 WEST PARK AVE NUE","address2": "","city": "HOUMA","state": "LA","zip": "70364","zip+4": "1043","phone": "9858733611"}
{"name": "RITE AID PHARMACY #07316","address1": "7570 JEFFERSON HIGHWAY","address2": "","city": "BATON ROUGE","state": "LA","zip": "70806","zip+4": "8308","phone": "2259274411"}
{"name": "RITE AID PHARMACY #07314","address1": "5840 PLANK ROAD","address2": "5840 PLANK ROAD","city": "BATON ROUGE","state": "LA","zip": "70805","zip+4": "1320","phone": "2253553496"}
{"name": "RITE AID PHARMACY #07311","address1": "1601 E NAPOLEON STREET","address2": "","city": "SULPHUR","state": "LA","zip": "70663","zip+4": "3654","phone": "3376269209"}
{"name": "RITE AID PHARMACY #07342","address1": "219 MCARTHUR DRIVE","address2": "","city": "ALEXANDRIA","state": "LA","zip": "71303","zip+4": "3104","phone": "3184732895"}
{"name": "RITE AID PHARMACY #07315","address1": "3433 GOVERNMENT STREET","address2": "","city": "BATON ROUGE","state": "LA","zip": "70806","zip+4": "5717","phone": "2253870808"}
{"name": "RITE AID PHARMACY #07337","address1": "1801 LOUISVILLE AVENUE","address2": "","city": "MONROE","state": "LA","zip": "71201","zip+4": "6116","phone": "3183615880"}
{"name": "RITE AID PHARMACY #07321","address1": "11080 GREENWELL SPRINGS ROAD","address2": "","city": "BATON ROUGE","state": "LA","zip": "70814","zip+4": "2912","phone": "2252736525"}
{"name": "RITE AID PHARMACY #07341","address1": "3437 MASONIC DRIVE","address2": "","city": "ALEXANDRIA","state": "LA","zip": "71301","zip+4": "3686","phone": "3184454557"}
{"name": "RITE AID PHARMACY #07339","address1": "105 WEST CALIFORNIA AVENUE","address2": "","city": "RUSTON","state": "LA","zip": "71270","zip+4": "5013","phone": "3185131260"}
{"name": "RITE AID PHARMACY #07340","address1": "102 THOMAS ROAD","address2": "SUITE 200","city": "WEST MONROE","state": "LA","zip": "71291","zip+4": "7365","phone": "3183615888"}
{"name": "RITE AID PHARMACY #07234","address1": "6425 AIRLINE HIGHWAY","address2": "","city": "METAIRIE","state": "LA","zip": "70003","zip+4": "4334","phone": "5047331854"}
{"name": "RITE AID PHARMACY #07248","address1": "3300 WILLIAMS BOULEVARD","address2": "","city": "KENNER","state": "LA","zip": "70065","zip+4": "3802","phone": "5044437481"}
{"name": "RITE AID PHARMACY #07318","address1": "2159 STARING LANE","address2": "","city": "BATON ROUGE","state": "LA","zip": "70810","zip+4": "1038","phone": "2257666210"}
{"name": "MOREAUS DRUG STORE","address1": "1312 HORRIDGE ST","address2": "","city": "VINTON","state": "LA","zip": "70668","zip+4": "4532","phone": "3375897431"}
{"name": "ELLIOT PHARMACY #3","address1": "169 E MAIN ST","address2": "","city": "NEW ROADS","state": "LA","zip": "70760","zip+4": "0000","phone": "2256387186"}
{"name": "CAMPOS MEDICAL PHARMACY","address1": "660 DISTRIBUTORS ROW STE A AND","address2": "","city": "JEFFERSON","state": "LA","zip": "70123","zip+4": "0000","phone": "5047313401"}
{"name": "MEDIC PHARMACY #866","address1": "1849 LINE AVE","address2": "","city": "SHREVEPORT","state": "LA","zip": "71101","zip+4": "4611","phone": "3182210691"}
{"name": "CVS PHARMACY #05275","address1": "2108 CHARITY ST","address2": "","city": "ABBEVILLE","state": "LA","zip": "70510","zip+4": "0000","phone": "3378930592"}
{"name": "CVS PHARMACY #05276","address1": "721 BOLTON AVE","address2": "","city": "ALEXANDRIA","state": "LA","zip": "71301","zip+4": "0000","phone": "3184438405"}
{"name": "CVS PHARMACY #05277","address1": "329 SUPERIOR AVE","address2": "","city": "BOGALUSA","state": "LA","zip": "70427","zip+4": "0000","phone": "9857356536"}
{"name": "CVS PHARMACY #05278","address1": "3459 HWY 1 S","address2": "","city": "DONALDSONVILLE","state": "LA","zip": "70346","zip+4": "0000","phone": "2254738132"}
{"name": "CVS PHARMACY #05280","address1": "2300 WEST THOMAS ST","address2": "","city": "HAMMOND","state": "LA","zip": "70401","zip+4": "0000","phone": "9853453448"}
{"name": "CVS PHARMACY #05282","address1": "100 S CUSHING AVENUE","address2": "","city": "KAPLAN","state": "LA","zip": "70548","zip+4": "0000","phone": "3376438611"}
{"name": "CVS PHARMACY #05283","address1": "4406 JOHNSTON ST","address2": "","city": "LAFAYETTE","state": "LA","zip": "70503","zip+4": "0000","phone": "3379845220"}
{"name": "CVS PHARMACY #05284","address1": "1910 CAMERON ST","address2": "","city": "LAFAYETTE","state": "LA","zip": "70506","zip+4": "0000","phone": "3372327380"}
{"name": "CVS PHARMACY #05285","address1": "1315 MOSS ST EXT","address2": "","city": "LAFAYETTE","state": "LA","zip": "70501","zip+4": "0000","phone": "3372321564"}
{"name": "CVS PHARMACY #05288","address1": "1500 W AIRLINE HWY","address2": "","city": "LA PLACE","state": "LA","zip": "70068","zip+4": "0000","phone": "9856526677"}
{"name": "CVS PHARMACY #05289","address1": "6502 HWY 182 E.","address2": "","city": "MORGAN CITY","state": "LA","zip": "70380","zip+4": "0000","phone": "9853842126"}
{"name": "CVS PHARMACY #05290","address1": "820G E ADMIRAL DOYLE DR","address2": "","city": "NEW IBERIA","state": "LA","zip": "70560","zip+4": "0000","phone": "3373652436"}
{"name": "CVS PHARMACY #05291","address1": "827 CRESWELL LN","address2": "","city": "OPELOUSAS","state": "LA","zip": "70570","zip+4": "0000","phone": "3379424981"}
{"name": "CVS PHARMACY #05292","address1": "1151 N MAIN ST","address2": "","city": "OPELOUSAS","state": "LA","zip": "70570","zip+4": "0000","phone": "3379425738"}
{"name": "CVS PHARMACY #05293","address1": "24600 CHURCH ST","address2": "","city": "PLAQUEMINE","state": "LA","zip": "70764","zip+4": "0000","phone": "2256876816"}
{"name": "CVS PHARMACY #05294","address1": "285 WEST PINE","address2": "","city": "PONCHATOULA","state": "LA","zip": "70454","zip+4": "0000","phone": "9853866212"}
{"name": "CVS PHARMACY #05295","address1": "1409 THE BOULEVARD","address2": "","city": "RAYNE","state": "LA","zip": "70578","zip+4": "0000","phone": "3373345197"}
{"name": "CVS PHARMACY #05296","address1": "1730 S MAIN ST","address2": "","city": "ST MARTINVILLE","state": "LA","zip": "70582","zip+4": "0000","phone": "3373946214"}
{"name": "CVS PHARMACY #05297","address1": "201 NORTH CANAL BLVD","address2": "","city": "THIBODAUX","state": "LA","zip": "70301","zip+4": "0000","phone": "9854465646"}
{"name": "CVS PHARMACY #05299","address1": "185 N LEWIS STREET","address2": "","city": "NEW IBERIA","state": "LA","zip": "70563","zip+4": "0000","phone": "3373652323"}
{"name": "CVS PHARMACY #05304","address1": "4572 HWY 1","address2": "","city": "RACELAND","state": "LA","zip": "70394","zip+4": "0000","phone": "9855373296"}
{"name": "CVS PHARMACY #05306","address1": "120 TUNICA DR EAST","address2": "","city": "MARKSVILLE","state": "LA","zip": "71351","zip+4": "0000","phone": "3182536519"}
{"name": "CVS PHARMACY #05312","address1": "3651 PERKINS RD","address2": "","city": "BATON ROUGE","state": "LA","zip": "70808","zip+4": "0000","phone": "2253449459"}
{"name": "CVS PHARMACY #05317","address1": "11430 FLORIDA BLVD","address2": "","city": "BATON ROUGE","state": "LA","zip": "70815","zip+4": "0000","phone": "2252753076"}
{"name": "CVS PHARMACY #05318","address1": "9006 GREENWELL SPRINGS RD","address2": "","city": "BATON ROUGE","state": "LA","zip": "70814","zip+4": "0000","phone": "2259275088"}
{"name": "CVS PHARMACY #05319","address1": "5889 AIRLINE HWY","address2": "","city": "BATON ROUGE","state": "LA","zip": "70805","zip+4": "0000","phone": "2253571407"}
{"name": "CVS PHARMACY #05321","address1": "252 MAIN ST","address2": "","city": "BAKER","state": "LA","zip": "70714","zip+4": "0000","phone": "2257781843"}
{"name": "CVS PHARMACY #05322","address1": "9608 JEFFERSON HWY","address2": "","city": "BATON ROUGE","state": "LA","zip": "70809","zip+4": "0000","phone": "2252921871"}
{"name": "CVS PHARMACY #05323","address1": "3001 E TEXAS ST","address2": "","city": "BOSSIER CITY","state": "LA","zip": "71111","zip+4": "0000","phone": "3187426600"}
{"name": "CVS PHARMACY #05324","address1": "3384 GOVERNMENT ST","address2": "","city": "BATON ROUGE","state": "LA","zip": "70806","zip+4": "0000","phone": "2253875600"}
{"name": "CVS PHARMACY #05325","address1": "1540 N MARKET ST","address2": "","city": "SHREVEPORT","state": "LA","zip": "71107","zip+4": "0000","phone": "3184241429"}
{"name": "CVS PHARMACY #05326","address1": "2755 HOLLYWOOD AVE","address2": "","city": "SHREVEPORT","state": "LA","zip": "71108","zip+4": "0000","phone": "3186317483"}
{"name": "CVS PHARMACY #05329","address1": "3300 YOUREE DR","address2": "","city": "SHREVEPORT","state": "LA","zip": "71104","zip+4": "0000","phone": "3188693453"}
{"name": "CVS PHARMACY #05330","address1": "1305 GAUSE BOULEVARD","address2": "","city": "SLIDELL","state": "LA","zip": "70460","zip+4": "0000","phone": "9856412550"}
{"name": "KROGER PHARMACY #34995","address1": "600 12TH STREET","address2": "","city": "LAKE CHARLES","state": "LA","zip": "70601","zip+4": "0000","phone": "3374362508"}
{"name": "CVS PHARMACY #05327","address1": "9194 MANSFIELD RD","address2": "","city": "SHREVEPORT","state": "LA","zip": "71118","zip+4": "0000","phone": "3186877272"}
{"name": "CVS PHARMACY #05333","address1": "2530 WILLIAMS BLVD","address2": "","city": "KENNER","state": "LA","zip": "70062","zip+4": "0000","phone": "5044661478"}
{"name": "SOUTHLAND DRUGS INC #2","address1": "1117 AUDUBON AVE","address2": "","city": "THIBODAUX","state": "LA","zip": "70301","zip+4": "0000","phone": "9854475852"}
{"name": "MEDICAL CENTER PHARMACY","address1": "395 S CAPITOL ST","address2": "","city": "MANY","state": "LA","zip": "71449","zip+4": "0000","phone": "3182565658"}
{"name": "LOYES PHARMACY INC","address1": "814 HOMER RD","address2": "","city": "MINDEN","state": "LA","zip": "71055","zip+4": "3094","phone": "3183773559"}
{"name": "VAUGHANS CITY DRUG","address1": "109 N WALLACE BLVD","address2": "","city": "FERRIDAY","state": "LA","zip": "71334","zip+4": "0647","phone": "3187574811"}
{"name": "GREMILLIONS DRUG STORE","address1": "401 N PARKERSON","address2": "","city": "CROWLEY","state": "LA","zip": "70526","zip+4": "5099","phone": "3377835755"}
{"name": "TECHE DRUGS AND GIFTS","address1": "505 JEFFERSON ST","address2": "","city": "LAFAYETTE","state": "LA","zip": "70501","zip+4": "0000","phone": "3372354578"}
{"name": "JEFFERSON DRUG STORE","address1": "620 JEFFERSON BLVD","address2": "","city": "LAFAYETTE","state": "LA","zip": "70501","zip+4": "7297","phone": "3372341428"}
{"name": "SAV INS DRUGS","address1": "101 E LASTIE ST","address2": "","city": "ERATH","state": "LA","zip": "70533","zip+4": "3701","phone": "3379375861"}
{"name": "REEVES DRUG STORE","address1": "307 CARTER ST","address2": "","city": "VIDALIA","state": "LA","zip": "71373","zip+4": "3396","phone": "3183365112"}
{"name": "BROOKS DRUGS","address1": "104 MOUND ST","address2": "","city": "JONESVILLE","state": "LA","zip": "71343","zip+4": "0298","phone": "3183397913"}
{"name": "SCOTT PHARMACY INC","address1": "1000 ST MARY ST","address2": "PO BOC 188","city": "SCOTT","state": "LA","zip": "70583","zip+4": "0000","phone": "3372355216"}
{"name": "RITE AID PHARMACY #07313","address1": "1710 NORTH AIRLINE HIGHWAY","address2": "","city": "GONZALES","state": "LA","zip": "70737","zip+4": "2127","phone": "2256446547"}
{"name": "NORTHSIDE PHARMACY LLC","address1": "2930 MOSS ST","address2": "STE A","city": "LAFAYETTE","state": "LA","zip": "70501","zip+4": "0000","phone": "3372322666"}
{"name": "PORETS THRIFTY WAY PHARMACY","address1": "186 COTTONPORT AVE","address2": "","city": "COTTONPORT","state": "LA","zip": "71327","zip+4": "0000","phone": "3188762104"}
{"name": "GUILBEAU'S PHARMACY","address1": "208 EAST ST PETER ST","address2": "","city": "CARENCRO","state": "LA","zip": "70520","zip+4": "0000","phone": "3378963241"}
{"name": "MABILES CORNER PHARMACY","address1": "100 GULF ST","address2": "","city": "COUSHATTA","state": "LA","zip": "71019","zip+4": "0000","phone": "3189325727"}
{"name": "CARAWAY PHARMACY","address1": "820 MCKINLEY ST","address2": "","city": "WESTLAKE","state": "LA","zip": "70669","zip+4": "5393","phone": "3374334692"}
{"name": "MATTE'S PHARMACY INC","address1": "314 MAIN ST","address2": "","city": "MARION","state": "LA","zip": "71260","zip+4": "0000","phone": "3182924570"}
{"name": "IDEAL DRUG STORE","address1": "610 N PINE ST","address2": "","city": "DERIDDER","state": "LA","zip": "70634","zip+4": "3546","phone": "3374637210"}
{"name": "ACADIANA PRESCRIPTION SHOP #1","address1": "454 HEYMANN BLVD","address2": "","city": "LAFAYETTE","state": "LA","zip": "70503","zip+4": "2680","phone": "3372334017"}
{"name": "BEGNEAUDS PHARMACY","address1": "1164 COOLIDGE BLVD","address2": "","city": "LAFAYETTE","state": "LA","zip": "70503","zip+4": "2665","phone": "3372349488"}
{"name": "BRINKHAUS THRIFTY WAY PHARMACY","address1": "988 NAPOLEON AVE","address2": "","city": "SUNSET","state": "LA","zip": "70584","zip+4": "0000","phone": "3376625236"}
{"name": "SAVON PHARMACY #2720","address1": "2678 JOHNSTON ST","address2": "","city": "LAFAYETTE","state": "LA","zip": "70501","zip+4": "0000","phone": "3372332265"}
{"name": "MAPLE AVENUE PHARMACY INC","address1": "1200 W MAPLE AVE","address2": "","city": "EUNICE","state": "LA","zip": "70535","zip+4": "0000","phone": "3374575216"}
{"name": "PICOUS DRUG STORE INC","address1": "260 N 2ND ST","address2": "","city": "EUNICE","state": "LA","zip": "70535","zip+4": "0000","phone": "3374572218"}
{"name": "THE PRESCRIPTION SHOPPE","address1": "308 N CUSHING AVE","address2": "","city": "KAPLAN","state": "LA","zip": "70548","zip+4": "4122","phone": "3376436493"}
{"name": "MILLER DRUGS INC","address1": "209 N MARKET ST","address2": "","city": "OPELOUSAS","state": "LA","zip": "70570","zip+4": "0000","phone": "3379422631"}
{"name": "BORDELONS SUPER SAVE INC","address1": "6920 PLANK RD","address2": "","city": "BATON ROUGE","state": "LA","zip": "70811","zip+4": "6097","phone": "2253560654"}
{"name": "BELLARDS FAMILY PHARMACY INC","address1": "621 W MAPLE AVE","address2": "","city": "EUNICE","state": "LA","zip": "70535","zip+4": "5349","phone": "3375466386"}
{"name": "RITE AID PHARMACY #07281","address1": "1214 GRAND CAILLOU ROAD","address2": "","city": "HOUMA","state": "LA","zip": "70363","zip+4": "5555","phone": "9858733612"}
{"name": "THRIFTY WAY PHARMACY","address1": "209 SO MAIN ST","address2": "","city": "CHURCH POINT","state": "LA","zip": "70525","zip+4": "0000","phone": "3376845401"}
{"name": "BROUSSARDS PHARMACY","address1": "600 W ST PETER ST","address2": "","city": "NEW IBERIA","state": "LA","zip": "70560","zip+4": "3695","phone": "3373642381"}
{"name": "DRIVE IN DRUG STORE","address1": "228 SOUTH FIRST ST","address2": "","city": "AMITE","state": "LA","zip": "70422","zip+4": "2794","phone": "9857488307"}
{"name": "THRIFT-TOWN HEALTH MART PHARMA","address1": "512 N 2ND ST","address2": "","city": "AMITE","state": "LA","zip": "70422","zip+4": "0000","phone": "9857488191"}
{"name": "C AND C DRUGS VITAL CARE","address1": "1705 HWY 59","address2": "","city": "MANDEVILLE","state": "LA","zip": "70448","zip+4": "0000","phone": "9856260234"}
{"name": "HARDYS DRUG STORE INC","address1": "123 FUSELIER ST","address2": "","city": "ARNAUDVILLE","state": "LA","zip": "70512","zip+4": "0000","phone": "3377545231"}
{"name": "THRIFTY WAY PHARMACY INC","address1": "412 OLIVE ST","address2": "","city": "ARNAUDVILLE","state": "LA","zip": "70512","zip+4": "0199","phone": "3377547481"}
{"name": "BALDWIN DRUGS","address1": "702 MAIN","address2": "","city": "BALDWIN","state": "LA","zip": "70514","zip+4": "0507","phone": "3379234682"}
{"name": "LEES CITY DRUG","address1": "123 W MADISON","address2": "","city": "BASTROP","state": "LA","zip": "71220","zip+4": "3702","phone": "3182811344"}
{"name": "BERNICE PHARMACY INC","address1": "419 MAIN ST","address2": "","city": "BERNICE","state": "LA","zip": "71222","zip+4": "0636","phone": "3182859521"}
{"name": "NIELSENS CITY DRUG","address1": "330 AUSTIN ST","address2": "","city": "BOGALUSA","state": "LA","zip": "70427","zip+4": "3818","phone": "9857322561"}
{"name": "SIMONS PHARMACY","address1": "117 N MAIN ST","address2": "","city": "BREAUX BRIDGE","state": "LA","zip": "70517","zip+4": "5097","phone": "3373322345"}
{"name": "BUNKIE PHARMACY INC","address1": "206 SW MAIN ST","address2": "","city": "BUNKIE","state": "LA","zip": "71322","zip+4": "1781","phone": "3183466343"}
{"name": "CITY DRUG INC","address1": "1010 SHIRLEY RD","address2": "","city": "BUNKIE","state": "LA","zip": "71322","zip+4": "0207","phone": "3183466307"}
{"name": "NEW PARRINO DRUG STORE","address1": "208 SW MAIN ST","address2": "","city": "BUNKIE","state": "LA","zip": "71322","zip+4": "1781","phone": "3183467204"}
{"name": "MELANCON PHARMACY","address1": "730 VETERANS DR","address2": "","city": "CARENCRO","state": "LA","zip": "70520","zip+4": "0000","phone": "3378968434"}
{"name": "MUMFREYS PHARMACY","address1": "1021 W JUDGE PEREZ DR","address2": "","city": "CHALMETTE","state": "LA","zip": "70043","zip+4": "4703","phone": "5042796312"}
{"name": "CHURCH POINT PHARMACY","address1": "300 N MAIN ST","address2": "","city": "CHURCH POINT","state": "LA","zip": "70525","zip+4": "0000","phone": "3376845475"}
{"name": "DIXIE PHARMACY","address1": "615 8TH ST","address2": "","city": "COLFAX","state": "LA","zip": "71417","zip+4": "0000","phone": "3186275428"}
{"name": "HENDERSON PHARMACY","address1": "1169 N MAIN","address2": "","city": "ZWOLLE","state": "LA","zip": "71486","zip+4": "0000","phone": "3186454640"}
{"name": "BIERS PHARMACY INC","address1": "410 N PARKERSON AVE","address2": "","city": "CROWLEY","state": "LA","zip": "70526","zip+4": "0000","phone": "3377833023"}
{"name": "CARMICHAELS CASHWAY PHARMACY I","address1": "1002 N PARKERSON AVE","address2": "","city": "CROWLEY","state": "LA","zip": "70526","zip+4": "3698","phone": "3377837200"}
{"name": "NICHOLS PHARMACY","address1": "915 E 4TH ST","address2": "","city": "DE QUINCY","state": "LA","zip": "70633","zip+4": "3709","phone": "3377864004"}
{"name": "E W THOMSON DRUG CO INC","address1": "213 DEPOT ST","address2": "","city": "DELHI","state": "LA","zip": "71232","zip+4": "2899","phone": "3188782261"}
{"name": "JAMES DRUG STORE","address1": "257 FLORIDA BLVD SE","address2": "SUITE A","city": "DENHAM SPRINGS","state": "LA","zip": "70726","zip+4": "0000","phone": "2256655186"}
{"name": "CASHWAY PHARMACY OF FRANKLIN I","address1": "1419 HOSPITAL AVE","address2": "","city": "FRANKLIN","state": "LA","zip": "70538","zip+4": "3796","phone": "3378280950"}
{"name": "FOURNETS PHARMACY","address1": "1524 HOSPITAL AVE","address2": "","city": "FRANKLIN","state": "LA","zip": "70538","zip+4": "0000","phone": "3378283392"}
{"name": "WALTER BIRDSALL PHARMACY INC","address1": "118 W 111TH ST","address2": "","city": "CUTOFF","state": "LA","zip": "70345","zip+4": "0000","phone": "9856325003"}
{"name": "BERTRANDS PHARMACY","address1": "2001 S BURNSIDE AVE","address2": "","city": "GONZALES","state": "LA","zip": "70737","zip+4": "4638","phone": "2256445641"}
{"name": "LANDRYS PHARMACY","address1": "416 N BURNSIDE","address2": "","city": "GONZALES","state": "LA","zip": "70737","zip+4": "0000","phone": "2256473583"}
{"name": "CURRY PHARMACY INC","address1": "6216 HWY 10","address2": "","city": "GREENSBURG","state": "LA","zip": "70441","zip+4": "0000","phone": "2252226125"}
{"name": "BELLE MEADE DISCOUNT DRUGS INC","address1": "119 BELLEMEADE BLVD","address2": "","city": "GRETNA","state": "LA","zip": "70056","zip+4": "7108","phone": "5043922722"}
{"name": "THIBODEAUXS PHARMACY #9894","address1": "104 MAIN ST","address2": "","city": "GUEYDAN","state": "LA","zip": "70542","zip+4": "3528","phone": "3375366115"}
{"name": "CENTRAL REXALL DRUGS INC","address1": "125 E THOMAS ST","address2": "","city": "HAMMOND","state": "LA","zip": "70401","zip+4": "0000","phone": "9853455120"}
{"name": "MEDI THRIFT DRUGS INC","address1": "302 BUSHLEY ST","address2": "","city": "HARRISONBURG","state": "LA","zip": "71340","zip+4": "0000","phone": "3187445351"}
{"name": "BROADMOOR DRUG CENTER","address1": "6096 W PARK AVE","address2": "","city": "HOUMA","state": "LA","zip": "70364","zip+4": "1797","phone": "9858762584"}
{"name": "HAYDELS DRUG STORE #1","address1": "300 CHURCH ST","address2": "","city": "HOUMA","state": "LA","zip": "70360","zip+4": "4510","phone": "9858725201"}
{"name": "PEOPLES DRUG STORE INC","address1": "7869 MAIN ST","address2": "","city": "HOUMA","state": "LA","zip": "70360","zip+4": "0000","phone": "9858738526"}
{"name": "PETES PHARMACY","address1": "539 WEST RAILROAD AVE","address2": "","city": "INDEPENDENCE","state": "LA","zip": "70443","zip+4": "0000","phone": "9858786321"}
{"name": "MILLERS FAMILY PHARMACY","address1": "114 POINTE AUX LOUPE","address2": "","city": "IOTA","state": "LA","zip": "70543","zip+4": "0000","phone": "3377792214"}
{"name": "GUIDRYS PHARMACY #9917","address1": "204 S THOMPSON AVE","address2": "","city": "IOWA","state": "LA","zip": "70647","zip+4": "0000","phone": "3375823131"}
{"name": "MCDONALD PHARMACY #9869","address1": "1701 CHARTER ST","address2": "","city": "JACKSON","state": "LA","zip": "70748","zip+4": "0299","phone": "2256342470"}
{"name": "CASHWAY PHARMACY","address1": "1801 W MAIN ST","address2": "","city": "JEANERETTE","state": "LA","zip": "70544","zip+4": "3423","phone": "3372764101"}
{"name": "CITY PHARMACY AND HOME MEDICAL","address1": "1411 W MAIN ST","address2": "","city": "JEANERETTE","state": "LA","zip": "70563","zip+4": "0000","phone": "3372764249"}
{"name": "LARROQUE PHARMACY","address1": "1305 MAIN ST","address2": "","city": "JEANERETTE","state": "LA","zip": "70544","zip+4": "3640","phone": "3372765001"}
{"name": "CASH DRUGS","address1": "1825 E OAK ST","address2": "STE A","city": "JENA","state": "LA","zip": "71342","zip+4": "0940","phone": "3189925088"}
{"name": "HONEYCUTT DRUG STORE","address1": "2835 E OAK ST","address2": "","city": "JENA","state": "LA","zip": "71342","zip+4": "1350","phone": "3189924574"}
{"name": "JENA PHARMACY","address1": "2951 E OAK ST","address2": "","city": "JENA","state": "LA","zip": "71342","zip+4": "0030","phone": "3189925565"}
{"name": "STEWARTS DRUG STORE","address1": "403 W PLAQUEMINE ST","address2": "","city": "JENNINGS","state": "LA","zip": "70546","zip+4": "0000","phone": "3378242311"}
{"name": "CASSIDYS PHARMACY INC","address1": "710 N MAIN ST","address2": "","city": "JENNINGS","state": "LA","zip": "70546","zip+4": "5312","phone": "3378241648"}
{"name": "BROWN MORRIS PHARMACY","address1": "717 AVE G","address2": "","city": "KENTWOOD","state": "LA","zip": "70444","zip+4": "2632","phone": "9852296210"}
{"name": "SCHILLING PHARMACY","address1": "210 AVENUE G","address2": "","city": "KENTWOOD","state": "LA","zip": "70444","zip+4": "2804","phone": "9852292501"}
{"name": "CAPPEL DRUGSTORE","address1": "904 4TH AVE","address2": "","city": "KINDER","state": "LA","zip": "70648","zip+4": "0430","phone": "3377382531"}
{"name": "GORDONS DRUG STORE","address1": "2716 LAKE ST","address2": "","city": "LAKE CHARLES","state": "LA","zip": "70601","zip+4": "0000","phone": "3374776773"}
{"name": "LAKESHORE MEDIC PHARMACY","address1": "2001 ENTERPRISE BLVD","address2": "","city": "LAKE CHARLES","state": "LA","zip": "70601","zip+4": "0000","phone": "3374364388"}
{"name": "THRIFTY WAY OF LAKE CHARLES IN","address1": "1001 3RD AVE","address2": "","city": "LAKE CHARLES","state": "LA","zip": "70601","zip+4": "0000","phone": "3374331429"}
{"name": "CHAPMAN DRUG COMPANY","address1": "407 LAKE ST","address2": "","city": "LAKE PROVIDENCE","state": "LA","zip": "71254","zip+4": "2689","phone": "3185592245"}
{"name": "MINSKYS DRUG STORE","address1": "405 LAKE ST","address2": "","city": "LAKE PROVIDENCE","state": "LA","zip": "71254","zip+4": "2631","phone": "3185592400"}
{"name": "PITRES PHARMACY #1","address1": "13087 W MAIN ST","address2": "","city": "LAROSE","state": "LA","zip": "70373","zip+4": "0067","phone": "9856937496"}
{"name": "PHOENIX PHARMACY #1","address1": "101 N 3RD ST","address2": "","city": "LEESVILLE","state": "LA","zip": "71446","zip+4": "0000","phone": "3372393421"}
{"name": "THRIFT TOWN DRUGS","address1": "29680 FROST ROAD","address2": "","city": "LIVINGSTON","state": "LA","zip": "70754","zip+4": "0000","phone": "2256867241"}
{"name": "HEADRICKS DRUG STORE","address1": "204 MAIN ST","address2": "","city": "LOGANSPORT","state": "LA","zip": "71049","zip+4": "0000","phone": "3186974381"}
{"name": "THRIFT VILLAGE DRUGS","address1": "737 PAUL MAILLARD RD","address2": "STE C","city": "LULING","state": "LA","zip": "70070","zip+4": "0000","phone": "9857856213"}
{"name": "TOMPKINS PHARMACY","address1": "2064 W MAIN ST","address2": "","city": "LUTCHER","state": "LA","zip": "70071","zip+4": "0000","phone": "2258693535"}
{"name": "LYDIA PHARMACY","address1": "3917 DARNALL RD","address2": "","city": "LYDIA","state": "LA","zip": "70569","zip+4": "0435","phone": "3373696156"}
{"name": "SAVOY PHARMACY INC","address1": "1415 7TH ST STE C","address2": "","city": "MAMOU","state": "LA","zip": "70554","zip+4": "2214","phone": "3374683666"}
{"name": "MANSFIELD DRUG COMPANY INC","address1": "132 JEFFERSON ST","address2": "","city": "MANSFIELD","state": "LA","zip": "71052","zip+4": "0000","phone": "3188721933"}
{"name": "ELLIOTT PHARMACY #1","address1": "77395 LANDRY ST","address2": "","city": "MARINGOUIN","state": "LA","zip": "70757","zip+4": "0000","phone": "2256252353"}
{"name": "FOLSE PHARMACY","address1": "4000 4TH ST","address2": "","city": "MARRERO","state": "LA","zip": "70072","zip+4": "2203","phone": "5043412711"}
{"name": "BRODIE PHARMACY INC","address1": "204 DAVENPORT AVE","address2": "","city": "MER ROUGE","state": "LA","zip": "71261","zip+4": "0000","phone": "3186475754"}
{"name": "BROOKSHIRE BROTHERS PHARMACY #","address1": "1103 WEST 1ST","address2": "","city": "DERIDDER","state": "LA","zip": "70634","zip+4": "0000","phone": "3374632258"}
{"name": "CHATEAU DRUGS INC","address1": "3544 W ESPLANADE AVE","address2": "","city": "METAIRIE","state": "LA","zip": "70002","zip+4": "3297","phone": "5048892300"}
{"name": "MAJORIA DRUGS #3","address1": "1805 METAIRIE RD","address2": "","city": "METAIRIE","state": "LA","zip": "70005","zip+4": "3965","phone": "5048356467"}
{"name": "ARONS PHARMACY","address1": "1209 N 18TH STREET","address2": "","city": "MONROE","state": "LA","zip": "71201","zip+4": "0000","phone": "3183232242"}
{"name": "SPATS REXALL DRUGS INC","address1": "1700 LOUISVILLE AVE","address2": "","city": "MONROE","state": "LA","zip": "71201","zip+4": "6058","phone": "3183230371"}
{"name": "CLINIC PHARMACY #9938","address1": "1234 DAVID DR","address2": "","city": "MORGAN CITY","state": "LA","zip": "70380","zip+4": "0000","phone": "9853847940"}
{"name": "STANDARD DRUG","address1": "1120 8TH ST","address2": "","city": "MORGAN CITY","state": "LA","zip": "70380","zip+4": "1717","phone": "9853841467"}
{"name": "RUSSOS PHARMACY #1","address1": "1124 7TH ST","address2": "","city": "MORGAN CITY","state": "LA","zip": "70380","zip+4": "0000","phone": "9853841234"}
{"name": "GARDINERS PHARMACY","address1": "1053 PARKWAY DR","address2": "","city": "NATCHITOCHES","state": "LA","zip": "71457","zip+4": "2264","phone": "3183524582"}
{"name": "ACKALS IBERIA PHARMACY","address1": "1620 HOPKINS ST","address2": "","city": "NEW IBERIA","state": "LA","zip": "70560","zip+4": "0000","phone": "3373647271"}
{"name": "DELAUNES PHARMACY AND HOME MED","address1": "308 N LEWIS ST","address2": "","city": "NEW IBERIA","state": "LA","zip": "70563","zip+4": "0000","phone": "3373647671"}
{"name": "DEBLANC PHARMACY","address1": "3111 GRAND RTE ST JOHN ST","address2": "","city": "NEW ORLEANS","state": "LA","zip": "70119","zip+4": "3123","phone": "5049498346"}
{"name": "UPTOWN DELIVERY PHARMACY","address1": "741 NASHVILLE AVE","address2": "","city": "NEW ORLEANS","state": "LA","zip": "70115","zip+4": "3226","phone": "5048970141"}
{"name": "ESPLANADE PHARMACY","address1": "1400 ESPLANADE AVE","address2": "","city": "NEW ORLEANS","state": "LA","zip": "70116","zip+4": "0000","phone": "5045234103"}
{"name": "OCHSNER PHARMACY","address1": "1514 JEFFERSON HWY","address2": "","city": "NEW ORLEANS","state": "LA","zip": "70121","zip+4": "2483","phone": "5048423205"}
{"name": "FRANKLIN AVENUE PHARMACY","address1": "7521 FLORIDA BLVD","address2": "","city": "BATON ROUGE","state": "LA","zip": "70806","zip+4": "0000","phone": "2252018382"}
{"name": "BRITTS PHARMACY","address1": "102 MAIN ST","address2": "","city": "NEWELLTON","state": "LA","zip": "71357","zip+4": "0398","phone": "3184675225"}
{"name": "GORDON SMITH PHARMACY","address1": "212 MAIN ST","address2": "","city": "OAK GROVE","state": "LA","zip": "71263","zip+4": "1515","phone": "3184283212"}
{"name": "OAKDALE DRUG COMPANY INC","address1": "149 HOSPITAL DR","address2": "","city": "OAKDALE","state": "LA","zip": "71463","zip+4": "0000","phone": "3183351360"}
{"name": "THRIFT CITY PHARMACY","address1": "201 HWY 165 S","address2": "","city": "OAKDALE","state": "LA","zip": "71463","zip+4": "1106","phone": "3183351234"}
{"name": "SHUTES DRUG CENTER","address1": "205 N MAIN ST","address2": "","city": "OPELOUSAS","state": "LA","zip": "70570","zip+4": "6256","phone": "3379422611"}
{"name": "KENS THRIFTY WAY PHCY AND HOME","address1": "517 E PRUDHOMME ST","address2": "","city": "OPELOUSAS","state": "LA","zip": "70570","zip+4": "0000","phone": "3379427551"}
{"name": "RICHARDS PHARMACY","address1": "3610 HWY 70","address2": "","city": "PIERRE PART","state": "LA","zip": "70339","zip+4": "0268","phone": "9852526661"}
{"name": "KELLY PHARMACY INC","address1": "302 E PALMETTO","address2": "","city": "PLAIN DEALING","state": "LA","zip": "71064","zip+4": "0000","phone": "3183264229"}
{"name": "BARKERS PHARMACY","address1": "23460 EDEN ST","address2": "","city": "PLAQUEMINE","state": "LA","zip": "70764","zip+4": "0000","phone": "2256873546"}
{"name": "SCALLANS PHARMACY","address1": "115 HWY 1181","address2": "","city": "PLAUCHEVILLE","state": "LA","zip": "71362","zip+4": "1362","phone": "3189223134"}
{"name": "MEDITHRIFT PHARMACY","address1": "240 W PINE ST","address2": "","city": "PONCHATOULA","state": "LA","zip": "70454","zip+4": "3394","phone": "9853868543"}
{"name": "BOURGS DRUG STORE","address1": "484 LOUISIANA AVE","address2": "","city": "PORT ALLEN","state": "LA","zip": "70767","zip+4": "0000","phone": "2253441077"}
{"name": "RAYNE PHARMACY INC","address1": "713 CURTIS DR","address2": "","city": "RAYNE","state": "LA","zip": "70578","zip+4": "0000","phone": "3373345105"}
{"name": "YANCEYS HEALTHMART PHARMACY","address1": "103 CHRISTIAN DR","address2": "PO BOX 120","city": "RAYVILLE","state": "LA","zip": "71269","zip+4": "0120","phone": "3187284195"}
{"name": "THE CORNER DRUG STORE","address1": "120 S TRENTON ST","address2": "","city": "RUSTON","state": "LA","zip": "71270","zip+4": "4468","phone": "3182553318"}
{"name": "WALTZ AND BRAZZEL PHARMACY","address1": "200 N TRENTON ST","address2": "","city": "RUSTON","state": "LA","zip": "71270","zip+4": "4397","phone": "3182550458"}
{"name": "HIGHLAND CLINIC PHARMACY LLC","address1": "1455 E BERT KOUNS INDUSTRIAL","address2": "","city": "SHREVEPORT","state": "LA","zip": "71105","zip+4": "6000","phone": "3187984612"}
{"name": "MEDICINE SHOPPE PHARMACY #0025","address1": "999 ROBERT ROAD","address2": "","city": "SLIDELL","state": "LA","zip": "70458","zip+4": "0000","phone": "9856495903"}
{"name": "SPRINGFIELD DRUG STORE","address1": "31696 LA HWY 22","address2": "","city": "SPRINGFIELD","state": "LA","zip": "70462","zip+4": "0010","phone": "2252945045"}
{"name": "RICHE GEBBIA INC","address1": "8115 E ST BERNARD HWY","address2": "","city": "ST BERNARD","state": "LA","zip": "70085","zip+4": "0000","phone": "5046825237"}
{"name": "HOSPITAL DRUG STORE","address1": "410 N MAIN ST","address2": "","city": "ST MARTINVILLE","state": "LA","zip": "70582","zip+4": "4199","phone": "3373945049"}
{"name": "PARAGON DRUG STORE","address1": "210 W NAPOLEON ST","address2": "STE G","city": "SULPHUR","state": "LA","zip": "70663","zip+4": "3346","phone": "3375276622"}
{"name": "CITY PHARMACY OF TALLULAH  INC","address1": "1009 JOHNSON STREET","address2": "","city": "TALLULAH","state": "LA","zip": "71282","zip+4": "0000","phone": "3185741655"}
{"name": "D AND M PHARMACY","address1": "1772 CANAL BLVD","address2": "","city": "THIBODAUX","state": "LA","zip": "70301","zip+4": "0000","phone": "9854473736"}
{"name": "EVANGELINE DRUG STORE","address1": "10 W MAIN","address2": "","city": "VILLE PLATTE","state": "LA","zip": "70586","zip+4": "4566","phone": "3373633456"}
{"name": "LANES PHARMACY","address1": "1301 HORRIDGE ST","address2": "","city": "VINTON","state": "LA","zip": "70668","zip+4": "0000","phone": "3375893011"}
{"name": "NORTH CADDO DRUG CO INC","address1": "144 W LOUISIANA AVE","address2": "","city": "VIVIAN","state": "LA","zip": "71082","zip+4": "2836","phone": "3183752573"}
{"name": "WASHINGTON THRIFTY WAY PHARMAC","address1": "310 N MAIN ST","address2": "","city": "WASHINGTON","state": "LA","zip": "70589","zip+4": "0446","phone": "3378263677"}
{"name": "DRENNANS MEDICINE CHEST","address1": "2713 N 7TH ST","address2": "","city": "WEST MONROE","state": "LA","zip": "71291","zip+4": "0000","phone": "3183966180"}
{"name": "VIALLON DRUG COMPANY INC","address1": "32555 BOWIE ST","address2": "","city": "WHITE CASTLE","state": "LA","zip": "70788","zip+4": "0000","phone": "2255452402"}
{"name": "FLURRY'S PHARMACY","address1": "101 E MAIN ST","address2": "","city": "WINNFIELD","state": "LA","zip": "71483","zip+4": "4306","phone": "3186285800"}
{"name": "K AND S DRUGS INC","address1": "802 ADAMS ST","address2": "","city": "WINNSBORO","state": "LA","zip": "71295","zip+4": "2696","phone": "3184357858"}
{"name": "WINNSBORO DRUG STORE","address1": "1213 COMMON ST","address2": "","city": "WINNSBORO","state": "LA","zip": "71295","zip+4": "0000","phone": "3184354311"}
{"name": "FARMERS DRUGS AND GIFTS","address1": "202 CHURCH ST","address2": "","city": "YOUNGSVILLE","state": "LA","zip": "70592","zip+4": "0228","phone": "3378565761"}
{"name": "MEDICAL PHARMACY","address1": "6400 MAIN ST","address2": "","city": "ZACHARY","state": "LA","zip": "70791","zip+4": "0000","phone": "2256546883"}
{"name": "C AND R DRUGS","address1": "10663 HWY 1","address2": "","city": "MOREAUVILLE","state": "LA","zip": "71355","zip+4": "0000","phone": "3189852104"}
{"name": "REEDS FAMILY PHARMACY","address1": "1009 6TH ST","address2": "","city": "MAMOU","state": "LA","zip": "70554","zip+4": "3123","phone": "3374685207"}
{"name": "L AND M PHARMACY INC","address1": "1033 ANDRE ST","address2": "","city": "NEW IBERIA","state": "LA","zip": "70563","zip+4": "0000","phone": "3373651411"}
{"name": "WOLFES PHARMACY INC","address1": "5458 HWY 56","address2": "","city": "CHAUVIN","state": "LA","zip": "70344","zip+4": "0000","phone": "9855945821"}
{"name": "GOUDEAUS HEALTH MART PHARMACY","address1": "57930 LABAUVE AVE","address2": "","city": "PLAQUEMINE","state": "LA","zip": "70764","zip+4": "3338","phone": "2256874349"}
{"name": "CVS PHARMACY #05331","address1": "7004 YOUREE DR","address2": "","city": "SHREVEPORT","state": "LA","zip": "71105","zip+4": "0000","phone": "3187973665"}
{"name": "FOLSOM PHARMACY","address1": "82205 HWY 25","address2": "","city": "FOLSOM","state": "LA","zip": "70437","zip+4": "0388","phone": "9857963062"}
{"name": "AL'S THRIFTY WAY PHARMACY","address1": "1406 W LANDRY ST","address2": "","city": "OPELOUSAS","state": "LA","zip": "70570","zip+4": "0000","phone": "3379422653"}
{"name": "MEDICINE SHOPPE #1136","address1": "411 E MAIN ST","address2": "PO DRAWER 1003","city": "OAK GROVE","state": "LA","zip": "71263","zip+4": "1003","phone": "3184284205"}
{"name": "CASHWAY PHARMACY OF SCOTT INC","address1": "5900 CAMERON ST","address2": "STE 100","city": "SCOTT","state": "LA","zip": "70583","zip+4": "0726","phone": "3372333382"}
{"name": "BLAKES FAMILY PHCY","address1": "512 MCARTHUR DR","address2": "","city": "VILLE PLATTE","state": "LA","zip": "70586","zip+4": "0000","phone": "3373636252"}
{"name": "RITE AID PHARMACY #07283","address1": "1223 NORTH VICTOR II BOULEVARD","address2": "","city": "MORGAN CITY","state": "LA","zip": "70380","zip+4": "1327","phone": "9853852794"}
{"name": "MANHATTAN PHARMACY","address1": "1708 MANHATTAN BLVD","address2": "","city": "HARVEY","state": "LA","zip": "70058","zip+4": "0000","phone": "5043622600"}
{"name": "CVS PHARMACY #05334","address1": "730 S RANGE AVE","address2": "","city": "DENHAM SPRINGS","state": "LA","zip": "70726","zip+4": "0000","phone": "2256649452"}
{"name": "JAGNEAUXS THRIFTY WAY","address1": "17695 HWY 190","address2": "","city": "PORT BARRE","state": "LA","zip": "70577","zip+4": "0550","phone": "3375852382"}
{"name": "TEWELDES LAFITTE DRUGS","address1": "2695 JEAN LAFITTE BLVD","address2": "","city": "LAFITTE","state": "LA","zip": "70067","zip+4": "0010","phone": "5046894122"}
{"name": "THRIFTY  WAY PHARMACY OF ST MA","address1": "1620 S MAIN ST","address2": "","city": "ST MARTINVILLE","state": "LA","zip": "70582","zip+4": "0000","phone": "3373949772"}
{"name": "MEDICINE SHOPPE #1050","address1": "222 HOSPITAL ROAD","address2": "","city": "NEW ROADS","state": "LA","zip": "70760","zip+4": "2619","phone": "2256386321"}
{"name": "HESSMER PHARMACY INC","address1": "3658 MAIN ST","address2": "","city": "HESSMER","state": "LA","zip": "71341","zip+4": "0000","phone": "3185634523"}
{"name": "LELEUXS PHARMACY","address1": "100 N MAIN","address2": "","city": "LOREAUVILLE","state": "LA","zip": "70552","zip+4": "0421","phone": "3372294968"}
{"name": "M AND S SUPER DRUGS","address1": "303 N HOOD","address2": "","city": "LAKE PROVIDENCE","state": "LA","zip": "71254","zip+4": "0000","phone": "3185592433"}
{"name": "CURRY PHARMACY","address1": "10463 HWY 67","address2": "","city": "CLINTON","state": "LA","zip": "70722","zip+4": "0000","phone": "2256838188"}
{"name": "SOILEAUS PHARMACY #0085","address1": "401 1/2 E ST PETER","address2": "","city": "NEW IBERIA","state": "LA","zip": "70560","zip+4": "0000","phone": "3373656721"}
{"name": "RITE AID PHARMACY #07328","address1": "5711 YOUREE DRIVE","address2": "SOUTHFIELD SHOPPING CENTER","city": "SHREVEPORT","state": "LA","zip": "71105","zip+4": "4216","phone": "3188683621"}
{"name": "CVS PHARMACY #05340","address1": "9643B JEFFERSON HWY","address2": "","city": "RIVER RIDGE","state": "LA","zip": "70123","zip+4": "0000","phone": "5047376242"}
{"name": "PAINCOURTVILLE PHARMACY INC","address1": "112 HWY 403","address2": "","city": "PAINCOURTVILLE","state": "LA","zip": "70391","zip+4": "0000","phone": "9853693578"}
{"name": "EASTIN PHARMACY INC","address1": "1535 W MAIN ST","address2": "","city": "VILLE PLATTE","state": "LA","zip": "70586","zip+4": "0000","phone": "3373635070"}
{"name": "WEST ST JAMES PHARMACY","address1": "21430 LA HWY 20","address2": "","city": "VACHERIE","state": "LA","zip": "70090","zip+4": "0000","phone": "2252652191"}
{"name": "CVS PHARMACY #05337","address1": "1107 VETERANS MEMORIAL BLVD","address2": "","city": "METAIRIE","state": "LA","zip": "70005","zip+4": "0000","phone": "5048372516"}
{"name": "CLINIC DRUG STORE OF GOLDEN ME","address1": "110 S BAYOU DR","address2": "","city": "GOLDEN MEADOW","state": "LA","zip": "70357","zip+4": "2728","phone": "9854757777"}
{"name": "KMART PHARMACY #4128","address1": "4070 RYAN ST","address2": "","city": "LAKE CHARLES","state": "LA","zip": "70605","zip+4": "0000","phone": "3374785591"}
{"name": "THRIFTY WAY PHARMACY NORTHSIDE","address1": "1419 MOSS ST","address2": "","city": "LAFAYETTE","state": "LA","zip": "70501","zip+4": "3654","phone": "3372345228"}
{"name": "C AND G PHARMACY","address1": "9311 JEFFERSON HWY","address2": "","city": "RIVER RIDGE","state": "LA","zip": "70123","zip+4": "2114","phone": "5047382277"}
{"name": "NORTHSIDE FAMILY PHARMACY","address1": "850 COCKERHAM ROAD","address2": "","city": "DENHAM SPRINGS","state": "LA","zip": "70726","zip+4": "0000","phone": "2256649520"}
{"name": "S AND S PHARMACY","address1": "809 WINNSBORO RD","address2": "","city": "MONROE","state": "LA","zip": "71202","zip+4": "3496","phone": "3183258239"}
{"name": "ADAMS CLINIC PHARMACY","address1": "1513 8TH ST","address2": "","city": "WINNSBORO","state": "LA","zip": "71295","zip+4": "3950","phone": "3184359489"}
{"name": "RITE AID PHARMACY #07245","address1": "497 TERRY PARKWAY","address2": "","city": "TERRYTOWN","state": "LA","zip": "70056","zip+4": "2780","phone": "5043645722"}
{"name": "NORTHSIDE PHARMACY","address1": "201 E FRANKLIN","address2": "","city": "FARMERVILLE","state": "LA","zip": "71241","zip+4": "0000","phone": "3183688340"}
{"name": "MEDICINE SHOPPE #1010","address1": "419 WEST COURT STREET","address2": "","city": "WINNFIELD","state": "LA","zip": "71483","zip+4": "0000","phone": "3186282136"}
{"name": "GLENNS FAMILY PHARMACY","address1": "1615 N MAIN ST","address2": "","city": "OPELOUSAS","state": "LA","zip": "70570","zip+4": "6618","phone": "3379489827"}
{"name": "MANY PROFESSIONAL PHARMACY","address1": "220 HIGHLAND DR","address2": "STE E","city": "MANY","state": "LA","zip": "71449","zip+4": "3718","phone": "3182563426"}
{"name": "MASONS PHARMACY","address1": "2403 ARKANSAS RD","address2": "","city": "WEST MONROE","state": "LA","zip": "71291","zip+4": "0000","phone": "3183961812"}
{"name": "DELHI HEALTH MART","address1": "414 BROADWAY ST","address2": "","city": "DELHI","state": "LA","zip": "71232","zip+4": "2940","phone": "3188785104"}
{"name": "THRIFTY WAY PHARMACY OF ABBEVI","address1": "2640 NORTH DRIVE","address2": "","city": "ABBEVILLE","state": "LA","zip": "70510","zip+4": "0000","phone": "3378936304"}
{"name": "CVS PHARMACY #05338","address1": "7015 W PARK AVE","address2": "","city": "HOUMA","state": "LA","zip": "70364","zip+4": "0000","phone": "9858792407"}
{"name": "MEDICINE SHOPPE #0262","address1": "2039 JOHNSTON STREET","address2": "","city": "LAFAYETTE","state": "LA","zip": "70503","zip+4": "2784","phone": "3372334782"}
{"name": "C AND F PHARMACY INC","address1": "424 AUSTIN ST","address2": "","city": "BOGALUSA","state": "LA","zip": "70427","zip+4": "3820","phone": "9857252501"}
{"name": "RITE AID PHARMACY #07332","address1": "3810 JEWELLA ROAD","address2": "","city": "SHREVEPORT","state": "LA","zip": "71109","zip+4": "4706","phone": "3186319010"}
{"name": "KMART PHARMACY #3423","address1": "1400 S CLEARVIEW PARKWAY","address2": "","city": "NEW ORLEANS","state": "LA","zip": "70123","zip+4": "0000","phone": "5047335330"}
{"name": "KMART PHARMACY #7061","address1": "900 E ADMIRAL DOYLE DR","address2": "","city": "NEW IBERIA","state": "LA","zip": "70560","zip+4": "0000","phone": "3373672291"}
{"name": "KMART PHARMACY #7223","address1": "7000 VETERANS MEMORIAL","address2": "","city": "METAIRIE","state": "LA","zip": "70003","zip+4": "0000","phone": "5048851353"}
{"name": "BILL SCOTTS PHARMACY INC","address1": "2826 BIENVILLE RD","address2": "","city": "RINGGOLD","state": "LA","zip": "71068","zip+4": "0000","phone": "3188949100"}
{"name": "CVS PHARMACY #05342","address1": "3535 SEVERN AVE","address2": "","city": "METAIRIE","state": "LA","zip": "70002","zip+4": "0000","phone": "5048859955"}
{"name": "CVS PHARMACY #05343","address1": "15255 GEORGE ONEAL RD A","address2": "","city": "BATON ROUGE","state": "LA","zip": "70817","zip+4": "0000","phone": "2257523710"}
{"name": "CVS PHARMACY #05349","address1": "820 W ESPLANADE AVENUE","address2": "","city": "KENNER","state": "LA","zip": "70065","zip+4": "0000","phone": "5044678313"}
{"name": "KILLGORES PHARMACY","address1": "1909 MAIN ST","address2": "","city": "HAYNESVILLE","state": "LA","zip": "71038","zip+4": "3706","phone": "3186241122"}
{"name": "THRIFTY WAY PHCY OF NEW IBERIA","address1": "805 CENTER ST","address2": "STE 2","city": "NEW IBERIA","state": "LA","zip": "70560","zip+4": "5505","phone": "3373640464"}
{"name": "DANIEL PHARMACY","address1": "710 E MAIN ST","address2": "","city": "BRUELY","state": "LA","zip": "70719","zip+4": "0000","phone": "2257492020"}
{"name": "THRIFTY WAY PHARMACY #2","address1": "601 S PINE ST","address2": "","city": "DERIDDER","state": "LA","zip": "70634","zip+4": "4939","phone": "8004303784"}
{"name": "RITE AID PHARMACY #07240","address1": "4300 WEST ESPLANADE AVENUE","address2": "","city": "METAIRIE","state": "LA","zip": "70006","zip+4": "2918","phone": "5044559393"}
{"name": "GEM DRUGS","address1": "139 CENTRAL AVE","address2": "","city": "RESERVE","state": "LA","zip": "70084","zip+4": "0000","phone": "9855363957"}
{"name": "PLAZA PHARMACY","address1": "1200 HOSPITAL DR","address2": "SUITE 1","city": "OPELOUSAS","state": "LA","zip": "70570","zip+4": "6552","phone": "3379486507"}
{"name": "THRIFTY WAY PHCY OF VILLE PLAT","address1": "1011 W LINCOLN","address2": "","city": "VILLE PLATTE","state": "LA","zip": "70586","zip+4": "0000","phone": "3373636685"}
{"name": "RITE AID PHARMACY #07300","address1": "2250 VETERANS MEMORIAL DRIVE","address2": "","city": "ABBEVILLE","state": "LA","zip": "70510","zip+4": "3199","phone": "3378939686"}
{"name": "RITE AID PHARMACY #07324","address1": "2152 S SHERWOOD FOREST BOULEVA","address2": "","city": "BATON ROUGE","state": "LA","zip": "70816","zip+4": "8327","phone": "2252725370"}
{"name": "THRIFTY WAY PHARMACY #26","address1": "100 N CUSHING AVE","address2": "","city": "KAPLAN","state": "LA","zip": "70548","zip+4": "4908","phone": "3376436440"}
{"name": "RITE AID PHARMACY #07305","address1": "1108 EAST MAIN STREET","address2": "","city": "NEW IBERIA","state": "LA","zip": "70560","zip+4": "3920","phone": "3373654514"}
{"name": "PAULS PHARMACY","address1": "345 W RAILROAD AVE","address2": "","city": "INDEPENDENCE","state": "LA","zip": "70443","zip+4": "0000","phone": "9858784401"}
{"name": "MAYEAUXS FAMILY PHARMACY","address1": "911 MAIN ST","address2": "","city": "ELTON","state": "LA","zip": "70532","zip+4": "0177","phone": "3375842256"}
{"name": "CVS PHARMACY #05344","address1": "2901 STERLINGTON RD","address2": "","city": "MONROE","state": "LA","zip": "71203","zip+4": "0000","phone": "3183230321"}
{"name": "WALGREEN DRUG STORE #3199","address1": "1891 BARATARIA BLVD","address2": "","city": "MARRERO","state": "LA","zip": "70072","zip+4": "0000","phone": "5043402297"}
{"name": "CVS PHARMACY #05345","address1": "606 HOMER RD","address2": "","city": "MINDEN","state": "LA","zip": "71055","zip+4": "0000","phone": "3183770131"}
{"name": "RITE AID PHARMACY #07284","address1": "1301 HIGHWAY 90 EAST","address2": "","city": "MORGAN CITY","state": "LA","zip": "70380","zip+4": "5158","phone": "9853956181"}
{"name": "RITE AID PHARMACY #07320","address1": "12308 PLANK ROAD","address2": "","city": "BATON ROUGE","state": "LA","zip": "70811","zip+4": "1037","phone": "2257748563"}
{"name": "CVS PHARMACY #05354","address1": "1624 N BURNSIDE","address2": "","city": "GONZALES","state": "LA","zip": "70737","zip+4": "0000","phone": "2256447528"}
{"name": "CAUSEYS PHARMACY INC","address1": "407 BIENVILLE ST","address2": "","city": "NATCHITOCHES","state": "LA","zip": "71457","zip+4": "5706","phone": "3183523141"}
{"name": "CVS PHARMACY #05383","address1": "5004 W ESPLANADE AVE","address2": "","city": "METAIRIE","state": "LA","zip": "70006","zip+4": "0000","phone": "5048889000"}
{"name": "CVS PHARMACY #05387","address1": "3621 GENERAL DEGAULLE DR","address2": "","city": "NEW ORLEANS","state": "LA","zip": "70114","zip+4": "0000","phone": "5043620700"}
{"name": "BOYERS THRIFT PHARMACY","address1": "1423 HENDERSON HWY","address2": "","city": "HENDERSON","state": "LA","zip": "70517","zip+4": "0568","phone": "3372282064"}
{"name": "KMART PHARMACY #3347","address1": "2701 BELLE CHASSE HWY","address2": "","city": "GRETNA","state": "LA","zip": "70053","zip+4": "0000","phone": "5043928845"}
{"name": "FAMILY PHARMACY FAMILY VITAL C","address1": "500 ALEXANDER ST","address2": "","city": "JONESBORO","state": "LA","zip": "71251","zip+4": "2002","phone": "3182597334"}
{"name": "MEDICINE SHOPPE #1030","address1": "932 CARROLLWOOD AVENUE","address2": "","city": "LA PLACE","state": "LA","zip": "70068","zip+4": "3304","phone": "9856521245"}
{"name": "URANIA DRUG STORE #9920","address1": "2164 E HARDNTER DR","address2": "","city": "URANIA","state": "LA","zip": "71480","zip+4": "0000","phone": "3184955407"}
{"name": "RITE AID PHARMACY #07301","address1": "2016 NORTH PARKERSON AVENUE","address2": "","city": "CROWLEY","state": "LA","zip": "70526","zip+4": "2336","phone": "3377851524"}
{"name": "CHANNELL DRUGS","address1": "1812 W THOMAS ST","address2": "","city": "HAMMOND","state": "LA","zip": "70401","zip+4": "0000","phone": "9853454767"}
{"name": "CHRIS COLES PHARMACY","address1": "1887 1ST ST","address2": "","city": "ARCADIA","state": "LA","zip": "71001","zip+4": "0744","phone": "3182632916"}
{"name": "ST AMANT PHARMACY","address1": "12502 HIGHWAY 431","address2": "","city": "SAINT AMANT","state": "LA","zip": "70774","zip+4": "3418","phone": "2256447288"}
{"name": "RITE AID PHARMACY #07312","address1": "2308 SOUTH RANGE AVENUE","address2": "","city": "DENHAM SPRINGS","state": "LA","zip": "70726","zip+4": "5216","phone": "2256645099"}
{"name": "RITE AID PHARMACY #07278","address1": "1625 ST MARY STREET","address2": "","city": "THIBODAUX","state": "LA","zip": "70301","zip+4": "6497","phone": "9854469934"}
{"name": "WALGREEN DRUG STORE #143","address1": "7101 VETERANS BLVD","address2": "","city": "METAIRIE","state": "LA","zip": "70003","zip+4": "0000","phone": "5044551839"}
{"name": "RITE AID PHARMACY #07279","address1": "13998 WEST MAIN STREET","address2": "","city": "CUT OFF","state": "LA","zip": "70345","zip+4": "9758","phone": "9856938662"}
{"name": "RITE AID PHARMACY #07336","address1": "2323 FORSYTHE AVENUE","address2": "","city": "MONROE","state": "LA","zip": "71201","zip+4": "2936","phone": "3183615898"}
{"name": "S AND S PHARMACY","address1": "2951 RENWICK ST","address2": "","city": "MONROE","state": "LA","zip": "71201","zip+4": "8146","phone": "3183879608"}
{"name": "BLAKES SOUTH SIDE PHARMACY","address1": "808 S CHATAIGNIER RD","address2": "","city": "VILLE PLATTE","state": "LA","zip": "70586","zip+4": "0000","phone": "3373637497"}
{"name": "GEM DRUGS GRAMERCY INC","address1": "1635 HIGHWAY 3125","address2": "","city": "GRAMERCY","state": "LA","zip": "70052","zip+4": "3554","phone": "2258693651"}
{"name": "MAJORIA DRUGS #5","address1": "2564 BARATARIA BLVD","address2": "","city": "MARRERO","state": "LA","zip": "70072","zip+4": "5362","phone": "5043403592"}
{"name": "THRIFTY WAY PHARMACY #3","address1": "1019 FERTITTA BLVD","address2": "","city": "LEESVILLE","state": "LA","zip": "71446","zip+4": "0000","phone": "3372393474"}
{"name": "JOHN BULL PHARMACY","address1": "2124 38TH ST","address2": "","city": "KENNER","state": "LA","zip": "70065","zip+4": "3598","phone": "5044431294"}
{"name": "KMART PHARMACY #7384","address1": "3555 HIGHWAY 190","address2": "","city": "MANDEVILLE","state": "LA","zip": "70471","zip+4": "0000","phone": "9856265693"}
{"name": "WAL-MART PHARMACY #100278","address1": "1645 BERT KOUNS IND LOOP","address2": "","city": "SHREVEPORT","state": "LA","zip": "71105","zip+4": "0000","phone": "3187979165"}
{"name": "ASSUMPTION PHARMACY LLC","address1": "120 WASHINGTON ST","address2": "","city": "NAPOLEONVILLE","state": "LA","zip": "70390","zip+4": "0000","phone": "9853696375"}
{"name": "VILLAGE PHARMACY INC","address1": "308 DAVENPORT","address2": "","city": "MER ROUGE","state": "LA","zip": "71261","zip+4": "0165","phone": "3186475786"}
{"name": "SAVON PHARMACY #2711","address1": "7515 PERKINS RD","address2": "","city": "BATON ROUGE","state": "LA","zip": "70808","zip+4": "0000","phone": "2257696084"}
{"name": "PRO PHARMACY W MONROE","address1": "101 PROFESSIONAL DR","address2": "","city": "WEST MONROE","state": "LA","zip": "71291","zip+4": "5331","phone": "3183878933"}
{"name": "RITE AID PHARMACY #07310","address1": "115 WEST MCNEESE STREET","address2": "","city": "LAKE CHARLES","state": "LA","zip": "70605","zip+4": "5635","phone": "3374744131"}
{"name": "MILLS CASHWAY PHARMACY","address1": "1027 MARTIN ST","address2": "","city": "PARKS","state": "LA","zip": "70582","zip+4": "0000","phone": "3378455199"}
{"name": "CVS PHARMACY #05396","address1": "4890 BARKSDALE BLVD","address2": "","city": "BOSSIER CITY","state": "LA","zip": "71112","zip+4": "0000","phone": "3187474330"}
{"name": "SCOTTS PHARMACY","address1": "42242 VETERANS AVE","address2": "","city": "HAMMOND","state": "LA","zip": "70403","zip+4": "0000","phone": "9855427230"}
{"name": "BRASWELL DRUGS","address1": "1107 S TYLER ST","address2": "","city": "COVINGTON","state": "LA","zip": "70433","zip+4": "0000","phone": "9858920818"}
{"name": "GILBERT DRUGS","address1": "7584 GILBERT ST","address2": "","city": "GILBERT","state": "LA","zip": "71336","zip+4": "0000","phone": "3184355702"}
{"name": "WAL-MART PHARMACY #100087","address1": "1379 HOMER ROAD","address2": "","city": "MINDEN","state": "LA","zip": "71055","zip+4": "0000","phone": "3183778211"}
{"name": "RITE AID PHARMACY #07280","address1": "1238 ST.CHARLES STREET","address2": "CONCORD SHOPPING CENTER","city": "HOUMA","state": "LA","zip": "70360","zip+4": "2745","phone": "9858733613"}
{"name": "CVS PHARMACY #05374","address1": "14455 GREENWELL SPRINGS RD","address2": "","city": "GREENWELL SPRINGS","state": "LA","zip": "70739","zip+4": "0000","phone": "2252616541"}
{"name": "POINCIANA CLINIC PHARMACY","address1": "1508 CAJUN DR","address2": "STE A","city": "MAMOU","state": "LA","zip": "70554","zip+4": "0000","phone": "3374685001"}
{"name": "SENTRY DRUGS","address1": "1002 3RD ST","address2": "","city": "ALEXANDRIA","state": "LA","zip": "71301","zip+4": "8343","phone": "3184424475"}
{"name": "WALGREEN DRUG STORE #4007","address1": "1260 FRONT STREET","address2": "","city": "SLIDELL","state": "LA","zip": "70458","zip+4": "0000","phone": "9856415555"}
{"name": "WALGREEN DRUG STORE #6027","address1": "1910 W THOMAS ST","address2": "","city": "HAMMOND","state": "LA","zip": "70403","zip+4": "0000","phone": "9853451602"}
{"name": "THRIFTY WAY PHARMACY OF WELSH","address1": "514 E RUSSELL","address2": "PO BOX 606","city": "WELSH","state": "LA","zip": "70591","zip+4": "0000","phone": "3377344488"}
{"name": "CVS PHARMACY #05451","address1": "1116 WASHINGTON ST","address2": "","city": "FRANKLINTON","state": "LA","zip": "70438","zip+4": "0000","phone": "9858396382"}
{"name": "ST. MARTIN PHARMACY","address1": "1117 NORTH MAIN","address2": "STE A","city": "ST MARTINVILLE","state": "LA","zip": "70582","zip+4": "0000","phone": "3373947100"}
{"name": "WAL-MART PHARMACY #100448","address1": "6235 WESTPORT AVE","address2": "","city": "SHREVEPORT","state": "LA","zip": "71129","zip+4": "0000","phone": "3186887705"}
{"name": "KROGER PHARMACY #34381","address1": "1422 MACARTHUR","address2": "","city": "ALEXANDRIA","state": "LA","zip": "71303","zip+4": "0000","phone": "3184420514"}
{"name": "CVS PHARMACY #05435","address1": "2915 HWY 190","address2": "","city": "MANDEVILLE","state": "LA","zip": "70471","zip+4": "0000","phone": "9856268106"}
{"name": "CVS PHARMACY #05441","address1": "3345 METAIRIE RD","address2": "","city": "METAIRIE","state": "LA","zip": "70001","zip+4": "0000","phone": "5048321765"}
{"name": "RAYS INVESTMENTS INC #1673 1R","address1": "5822 E MONROE HWY","address2": "","city": "BALL","state": "LA","zip": "71405","zip+4": "0000","phone": "3186401174"}
{"name": "DELTA DRUGS","address1": "26852 HYW 23","address2": "","city": "PORT SULPHUR","state": "LA","zip": "70083","zip+4": "0096","phone": "9855643141"}
{"name": "EDDIES PHARMACY","address1": "206 CHOUPIQUE LN","address2": "","city": "COTTONPORT","state": "LA","zip": "71327","zip+4": "0000","phone": "3188763665"}
{"name": "SUNSET PHARMACY","address1": "907 NAPOLEON AVE","address2": "","city": "SUNSET","state": "LA","zip": "70584","zip+4": "0000","phone": "3376625298"}
{"name": "WAL-MART PHARMACY #100450","address1": "9550 MANSFIELD RD","address2": "","city": "SHREVEPORT","state": "LA","zip": "71118","zip+4": "0000","phone": "3186884085"}
{"name": "KMART PHARMACY #3320","address1": "133 MONARCH DRIVE","address2": "","city": "HOUMA","state": "LA","zip": "70364","zip+4": "0000","phone": "9858681865"}
{"name": "WALGREEN DRUG STORE #3440","address1": "2880 HIGHWAY 190","address2": "","city": "MANDEVILLE","state": "LA","zip": "70448","zip+4": "0000","phone": "9856243912"}
{"name": "CVS PHARMACY #05360","address1": "6935 PINES RD","address2": "","city": "SHREVEPORT","state": "LA","zip": "71129","zip+4": "0000","phone": "3186887912"}
{"name": "SAVOIES PHARMACY","address1": "4912 HWY 1","address2": "","city": "RACELAND","state": "LA","zip": "70394","zip+4": "0000","phone": "9855325943"}
{"name": "MANGHAM RX","address1": "104 LOUISANA ST","address2": "","city": "MANGHAM","state": "LA","zip": "71259","zip+4": "0000","phone": "3182482345"}
{"name": "R AND K DRUGS","address1": "2832 FRONT ST","address2": "","city": "OLLA","state": "LA","zip": "71465","zip+4": "0000","phone": "3184955155"}
{"name": "CVS PHARMACY #05432","address1": "16804 W MAIN ST","address2": "","city": "CUT OFF","state": "LA","zip": "70345","zip+4": "0000","phone": "9856326774"}
{"name": "CVS PHARMACY #05455","address1": "366 SAM HOUSTON JONES PKWY","address2": "","city": "LAKE CHARLES","state": "LA","zip": "70611","zip+4": "0000","phone": "3378551341"}
{"name": "ST BERNARD DRUGS #3","address1": "10200 CHEF MENTEUR HWY","address2": "","city": "NEW ORLEANS","state": "LA","zip": "70127","zip+4": "4212","phone": "5042421100"}
{"name": "CVS PHARMACY #05443","address1": "1920 KALISTE SALOOM","address2": "","city": "LAFAYETTE","state": "LA","zip": "70508","zip+4": "0000","phone": "3379841092"}
{"name": "FUSELIERS PHARMACY","address1": "10600 VETERANS HWY","address2": "","city": "PINE PRAIRIE","state": "LA","zip": "70576","zip+4": "0000","phone": "3375992147"}
{"name": "THRIFTY WAY PHARMACY OF MAMOU,","address1": "704 POINCIANA AVE","address2": "","city": "MAMOU","state": "LA","zip": "70554","zip+4": "2208","phone": "3374687111"}
{"name": "RITE AID PHARMACY #07319","address1": "9031 SIEGEN LANE","address2": "","city": "BATON ROUGE","state": "LA","zip": "70810","zip+4": "1951","phone": "2257671997"}
{"name": "WESTBANK PHARMACY","address1": "3709 WESTBANK EXPSWAY","address2": "STE 1C","city": "HARVEY","state": "LA","zip": "70058","zip+4": "2600","phone": "5043400777"}
{"name": "FAMILY PRACTICE PHCY","address1": "113 W CHARLES ST","address2": "","city": "HAMMOND","state": "LA","zip": "70401","zip+4": "0000","phone": "9855428466"}
{"name": "KROGER PHARMACY #35427","address1": "9155 MANSFIELD ROAD","address2": "","city": "SHREVEPORT","state": "LA","zip": "71118","zip+4": "0000","phone": "3186882582"}
{"name": "WAL-MART PHARMACY #100307","address1": "1025 GLENWOOD DRIVE","address2": "","city": "WEST MONROE","state": "LA","zip": "71291","zip+4": "0000","phone": "3183258346"}
{"name": "RITE AID PHARMACY #07325","address1": "1029 MILLERVILLE ROAD","address2": "1029 MILLERVILLE ROAD","city": "BATON ROUGE","state": "LA","zip": "70816","zip+4": "1229","phone": "2252756461"}
{"name": "RED RIVER DRUGS","address1": "1603 RINGGOLD AVE","address2": "","city": "COUSHATTA","state": "LA","zip": "71019","zip+4": "0000","phone": "3189325771"}
{"name": "RITE AID PHARMACY #07327","address1": "214 HOMER ROAD","address2": "","city": "MINDEN","state": "LA","zip": "71055","zip+4": "2843","phone": "3183719837"}
{"name": "RITE AID PHARMACY #07344","address1": "601 KEYSER AVENUE","address2": "","city": "NATCHITOCHES","state": "LA","zip": "71457","zip+4": "6020","phone": "3183522546"}
{"name": "THRIFTY WAY PHARMACY","address1": "1505 W MCNEESE ST","address2": "","city": "LAKE CHARLES","state": "LA","zip": "70605","zip+4": "0000","phone": "3374777733"}
{"name": "CVS PHARMACY #05513","address1": "1815 N 18TH ST","address2": "","city": "MONROE","state": "LA","zip": "71201","zip+4": "0000","phone": "3183223141"}
{"name": "CVS PHARMACY #05521","address1": "3423 CYPRESS ST","address2": "","city": "WEST MONROE","state": "LA","zip": "71291","zip+4": "0000","phone": "3183222994"}
{"name": "COLVINS PHARMACY","address1": "114 SERIO BLVD","address2": "","city": "FERRIDAY","state": "LA","zip": "71334","zip+4": "0000","phone": "3187574114"}
{"name": "WAL-MART PHARMACY #100539","address1": "2050 NORTH MALL BLVD","address2": "","city": "ALEXANDRIA","state": "LA","zip": "71301","zip+4": "0000","phone": "3184454308"}
{"name": "RITE AID PHARMACY #07331","address1": "2758 WEST 70TH STREET","address2": "SOUTH GATE SHOPPING CENTER","city": "SHREVEPORT","state": "LA","zip": "71108","zip+4": "4502","phone": "3186319891"}
{"name": "WAL-MART PHARMACY #100309","address1": "3005 CHARITY ST","address2": "","city": "ABBEVILLE","state": "LA","zip": "70510","zip+4": "0000","phone": "3378934077"}
{"name": "WAL-MART PHARMACY #100310","address1": "729 ODDFELLOWS RD","address2": "","city": "CROWLEY","state": "LA","zip": "70526","zip+4": "0000","phone": "3377832150"}
{"name": "RITE AID PHARMACY #07292","address1": "2090 GAUSE BOULEVARD EAST","address2": "","city": "SLIDELL","state": "LA","zip": "70461","zip+4": "5431","phone": "9856413847"}
{"name": "RITE AID PHARMACY #07330","address1": "1850 NORTH MARKET STREET","address2": "","city": "SHREVEPORT","state": "LA","zip": "71107","zip+4": "5212","phone": "3184256280"}
{"name": "MEDICINE SHOPPE #1329","address1": "5241 HIGHLAND ROAD","address2": "","city": "BATON ROUGE","state": "LA","zip": "70808","zip+4": "0079","phone": "2257692585"}
{"name": "CVS PHARMACY #05543","address1": "2800 HWY 90","address2": "","city": "AVONDALE","state": "LA","zip": "70094","zip+4": "0000","phone": "5044367555"}
{"name": "WAL-MART PHARMACY #100505","address1": "1125 NORTH PINE","address2": "","city": "DERIDDER","state": "LA","zip": "70634","zip+4": "0000","phone": "3374625794"}
{"name": "WAL-MART PHARMACY #100534","address1": "1229 NE EVANGELINE THRUWAY","address2": "","city": "LAFAYETTE","state": "LA","zip": "70501","zip+4": "0000","phone": "3372321031"}
{"name": "CVS PHARMACY #05469","address1": "2101 COLLINS BLVD","address2": "","city": "COVINGTON","state": "LA","zip": "70433","zip+4": "0000","phone": "9858933294"}
{"name": "MANSURA DRUG STORE","address1": "2043 LEGLISE ST","address2": "","city": "MANSURA","state": "LA","zip": "71350","zip+4": "0000","phone": "3189642104"}
{"name": "CVS PHARMACY #05510","address1": "11705 COURSEY BLVD","address2": "","city": "BATON ROUGE","state": "LA","zip": "70816","zip+4": "0000","phone": "2252910596"}
{"name": "ACADIA PARK DRUG","address1": "108 ACADIA DR","address2": "","city": "RACELAND","state": "LA","zip": "70394","zip+4": "0000","phone": "9855375255"}
{"name": "WAL-MART PHARMACY #100533","address1": "1205 E ADMIRAL DOYLE","address2": "","city": "NEW IBERIA","state": "LA","zip": "70560","zip+4": "0000","phone": "3373643841"}
{"name": "WAL-MART PHARMACY #100075","address1": "3636 MONROE HIGHWAY","address2": "","city": "PINEVILLE","state": "LA","zip": "71360","zip+4": "0000","phone": "3186408282"}
{"name": "RAYS APOTHECARY PHARMACY","address1": "3311 PRESCOTT RD","address2": "STE 110","city": "ALEXANDRIA","state": "LA","zip": "71301","zip+4": "0000","phone": "3184486541"}
{"name": "CVS PHARMACY #05528","address1": "1313 PAUL MAILLARD RD","address2": "","city": "LULING","state": "LA","zip": "70070","zip+4": "0000","phone": "9857851753"}
{"name": "D AND L FAMILY PHARMACY INC","address1": "108 REPUBLIC AVE","address2": "SUITE B","city": "LAFAYETTE","state": "LA","zip": "70508","zip+4": "0000","phone": "3379818844"}
{"name": "MALL PHARMACY","address1": "531 SOUTH MAIN","address2": "","city": "SPRINGHILL","state": "LA","zip": "71075","zip+4": "4092","phone": "3185393622"}
{"name": "PRESCRIPTION PAD PHARMACY","address1": "120 MEADOWCREST DR","address2": "STE 150","city": "GRETNA","state": "LA","zip": "70056","zip+4": "5255","phone": "5043937733"}
{"name": "IDEAL DRUG STORE OF FRANKLINTO","address1": "808 RIVERSIDE DR","address2": "","city": "FRANKLINTON","state": "LA","zip": "70438","zip+4": "9770","phone": "9858394668"}
{"name": "WHITS PHARMACY","address1": "107 E MADISON","address2": "","city": "BASTROP","state": "LA","zip": "71220","zip+4": "0000","phone": "3182812305"}
{"name": "WAL-MART PHARMACY #100023","address1": "1201 N SERVICE ROAD EAST","address2": "","city": "RUSTON","state": "LA","zip": "71270","zip+4": "0000","phone": "3182510392"}
{"name": "WAL-MART PHARMACY #100773","address1": "1538 US HIGHWAY 190","address2": "","city": "EUNICE","state": "LA","zip": "70535","zip+4": "0000","phone": "3374571540"}
{"name": "SAVON PHARMACY #2712","address1": "9650 AIRLINE HWY","address2": "","city": "BATON ROUGE","state": "LA","zip": "70815","zip+4": "0000","phone": "2259269604"}
{"name": "RITE AID PHARMACY #07338","address1": "727 NORTH WASHINGTON STREET","address2": "","city": "BASTROP","state": "LA","zip": "71220","zip+4": "3003","phone": "3182835102"}
{"name": "CARR DRUGS #1","address1": "3500 HOLIDAY DR","address2": "","city": "NEW ORLEANS","state": "LA","zip": "70114","zip+4": "0000","phone": "5043675724"}
{"name": "WAL-MART PHARMACY #100839","address1": "9350 CORTANA PLACE","address2": "","city": "BATON ROUGE","state": "LA","zip": "70815","zip+4": "0000","phone": "2259270114"}
{"name": "CVS PHARMACY #05554","address1": "111 WESTGATE RD","address2": "","city": "LAFAYETTE","state": "LA","zip": "70506","zip+4": "0000","phone": "3372325506"}
{"name": "CVS PHARMACY #05560","address1": "3604 PINHOOK RD","address2": "","city": "BROUSSARD","state": "LA","zip": "70518","zip+4": "0000","phone": "3378372600"}
{"name": "TIENS PHARMACY","address1": "4623 ALCEE FORTIER","address2": "STE B","city": "NEW ORLEANS","state": "LA","zip": "70129","zip+4": "0000","phone": "5042549034"}
{"name": "CVS PHARMACY #05544","address1": "100 EDGEWOOD DR","address2": "","city": "PINEVILLE","state": "LA","zip": "71360","zip+4": "0000","phone": "3184734524"}
{"name": "PEARCE PHARMACY","address1": "604 S WASHINGTON ST","address2": "","city": "BASTROP","state": "LA","zip": "71220","zip+4": "1538","phone": "3182811537"}
{"name": "ROSEPINE FAMILY PHARMACY","address1": "18507 CENTRAL AVE","address2": "","city": "ROSEPINE","state": "LA","zip": "70659","zip+4": "0000","phone": "3374620177"}
{"name": "WAL-MART PHARMACY #100405","address1": "2204 SOUTH FIFTH ST","address2": "","city": "LEESVILLE","state": "LA","zip": "71446","zip+4": "0000","phone": "3372389305"}
{"name": "CHILDRENS PHARMACY","address1": "2903 FIRST AVE","address2": "","city": "LAKE CHARLES","state": "LA","zip": "70601","zip+4": "8897","phone": "3374745492"}
{"name": "WAL-MART PHARMACY #100541","address1": "880 N HWY 190","address2": "","city": "COVINGTON","state": "LA","zip": "70433","zip+4": "0000","phone": "9858939918"}
{"name": "WAL-MART PHARMACY #100170","address1": "925 KEYSER AVE","address2": "","city": "NATCHITOCHES","state": "LA","zip": "71457","zip+4": "0000","phone": "3183521903"}
{"name": "MEDICINE CHEST PHARMACY INC","address1": "409 E LINCOLN RD","address2": "","city": "VILLE PLATTE","state": "LA","zip": "70586","zip+4": "0000","phone": "3373638065"}
{"name": "WALGREEN DRUG STORE #5040","address1": "1801 ST CHARLES AVE","address2": "","city": "NEW ORLEANS","state": "LA","zip": "70130","zip+4": "0000","phone": "5045618331"}
{"name": "WAL-MART PHARMACY #100876","address1": "155 SAN ANTONIO AVE","address2": "","city": "MANY","state": "LA","zip": "71449","zip+4": "0000","phone": "3182566378"}
{"name": "SAVON PHARMACY #2714","address1": "1711 W THOMAS","address2": "","city": "HAMMOND","state": "LA","zip": "70401","zip+4": "0000","phone": "9853454901"}
{"name": "KMART PHARMACY #3016","address1": "3045 E TEXAS ST","address2": "","city": "BOSSIER CITY","state": "LA","zip": "71111","zip+4": "0000","phone": "3187411776"}
{"name": "WAL-MART PHARMACY #100911","address1": "4810 LAPALCO BLVD","address2": "","city": "MARRERO","state": "LA","zip": "70072","zip+4": "0000","phone": "5043411363"}
{"name": "CVS PHARMACY #05473","address1": "3040 GAUSE BLVD E","address2": "","city": "SLIDELL","state": "LA","zip": "70461","zip+4": "0000","phone": "9856435743"}
{"name": "KROGER PHARMACY #35253","address1": "801 BENTON RD","address2": "","city": "BOSSIER CITY","state": "LA","zip": "71111","zip+4": "3743","phone": "3187423509"}
{"name": "DESTREHAN DISCOUNT PHARMACY","address1": "3001 ORMOND BLVD","address2": "STE A","city": "DESTREHAN","state": "LA","zip": "70047","zip+4": "9324","phone": "9857641181"}
{"name": "CARLS THRIFTY WAY PHARMACY #99","address1": "2961 SOUTH UNION ST","address2": "","city": "OPELOUSAS","state": "LA","zip": "70570","zip+4": "8920","phone": "3379487900"}
{"name": "WAL-MART PHARMACY #100935","address1": "904 SOUTH RANGE AVENUE","address2": "","city": "DENHAM SPRINGS","state": "LA","zip": "70726","zip+4": "0000","phone": "2256653237"}
{"name": "WAL-MART PHARMACY #100989","address1": "8843 VETERANS MEMORIAL BLVD","address2": "","city": "METAIRIE","state": "LA","zip": "70003","zip+4": "0000","phone": "5044650171"}
{"name": "WAL-MART PHARMACY #100976","address1": "3360 FRONT STREET","address2": "","city": "WINNSBORO","state": "LA","zip": "71295","zip+4": "0000","phone": "3184359011"}
{"name": "WAL-MART PHARMACY #100489","address1": "2799 WEST THOMAS STREET","address2": "","city": "HAMMOND","state": "LA","zip": "70401","zip+4": "0000","phone": "9855425582"}
{"name": "WAL-MART PHARMACY #100386","address1": "303 INTERSTATE DR","address2": "","city": "JENNINGS","state": "LA","zip": "70546","zip+4": "0000","phone": "3378249010"}
{"name": "WAL-MART PHARMACY #100532","address1": "308 N AIRLINE HWY","address2": "","city": "GONZALES","state": "LA","zip": "70737","zip+4": "0000","phone": "2256470515"}
{"name": "RITE AID PHARMACY #07262","address1": "2669 CANAL STREET","address2": "","city": "NEW ORLEANS","state": "LA","zip": "70119","zip+4": "6409","phone": "5048271400"}
{"name": "CVS PHARMACY #05599","address1": "1600 LAPALCO BLVD","address2": "","city": "HARVEY","state": "LA","zip": "70058","zip+4": "0000","phone": "5042279830"}
{"name": "LIVONIA THRIFT T WAY PHARMACY","address1": "3066 HWY 78","address2": "","city": "LIVONIA","state": "LA","zip": "70755","zip+4": "0000","phone": "2256372356"}
{"name": "WALGREEN DRUG STORE #1790","address1": "5300 TCHOUPITOULAS","address2": "","city": "NEW ORLEANS","state": "LA","zip": "70115","zip+4": "0000","phone": "5048990022"}
{"name": "LIVE OAK PHARMACY","address1": "34730 LA HWY 16","address2": "","city": "WATSON","state": "LA","zip": "70786","zip+4": "0000","phone": "2256647125"}
{"name": "WINN DIXIE #1430","address1": "5400 TCHOUPITOULAS ST","address2": "","city": "NEW ORLEANS","state": "LA","zip": "70115","zip+4": "0000","phone": "5048993992"}
{"name": "THRIFTY WAY PHARMACY OF BASILE","address1": "3131 E STAGG AVE","address2": "","city": "BASILE","state": "LA","zip": "70515","zip+4": "0000","phone": "3374326642"}
{"name": "WINN DIXIE #1432","address1": "3300 PARIS RD","address2": "","city": "CHALMETTE","state": "LA","zip": "70043","zip+4": "0000","phone": "5042714665"}
{"name": "WAL-MART PHARMACY #100961","address1": "1616 W AIRLINE HWY","address2": "","city": "LA PLACE","state": "LA","zip": "70068","zip+4": "0000","phone": "9856528781"}
{"name": "CVS PHARMACY #05511","address1": "3754 MOSS ST","address2": "","city": "LAFAYETTE","state": "LA","zip": "70507","zip+4": "0000","phone": "3372699300"}
{"name": "RUSSOS PHARMACY","address1": "7902 HWY 23","address2": "","city": "BELLE CHASSE","state": "LA","zip": "70037","zip+4": "0000","phone": "5043944444"}
{"name": "RAYMONDS FAMILY PHARMACY","address1": "303 E MAIN ST","address2": "","city": "NEW ROADS","state": "LA","zip": "70760","zip+4": "3635","phone": "2256387550"}
{"name": "DRUG EMPORIUM #210","address1": "5819 E KINGS HWY","address2": "","city": "SHREVEPORT","state": "LA","zip": "71105","zip+4": "4399","phone": "3188617898"}
{"name": "MELS PHARMACY","address1": "1734 S 9TH ST","address2": "","city": "MONROE","state": "LA","zip": "71202","zip+4": "3526","phone": "3183876725"}
{"name": "WAL-MART PHARMACY #101016","address1": "410 N CANAL BLVD","address2": "","city": "THIBODAUX","state": "LA","zip": "70301","zip+4": "0000","phone": "9854463637"}
{"name": "WAL-MART PHARMACY #101106","address1": "4283 CARTER STREET","address2": "","city": "VIDALIA","state": "LA","zip": "71373","zip+4": "0000","phone": "3183368801"}
{"name": "WAL-MART PHARMACY #101107","address1": "1900 HWY 165 SOUTH","address2": "","city": "OAKDALE","state": "LA","zip": "71463","zip+4": "0000","phone": "3183353131"}
{"name": "WAL-MART PHARMACY #101108","address1": "705 SO CONSTITUTION AVENUE","address2": "","city": "OAK GROVE","state": "LA","zip": "71263","zip+4": "0000","phone": "3184289641"}
{"name": "WAL-MART PHARMACY #101109","address1": "1806 S JULIA ST","address2": "","city": "RAYVILLE","state": "LA","zip": "71269","zip+4": "0000","phone": "3187285917"}
{"name": "WAL-MART PHARMACY #100311","address1": "200 NORTHWEST BLVD","address2": "","city": "FRANKLIN","state": "LA","zip": "70538","zip+4": "0000","phone": "3378284493"}
{"name": "DRUG EMPORIUM #220","address1": "505 BERTRAND","address2": "","city": "LAFAYETTE","state": "LA","zip": "70506","zip+4": "0000","phone": "3372610337"}
{"name": "WALGREEN DRUG STORE #1749","address1": "10009 JEFFERSON HWY","address2": "","city": "RIVER RIDGE","state": "LA","zip": "70123","zip+4": "0000","phone": "5047371644"}
{"name": "WAL-MART PHARMACY #100761","address1": "4858 HIGHWAY 1","address2": "","city": "MATHEWS","state": "LA","zip": "70375","zip+4": "0000","phone": "9855325527"}
{"name": "MEDICAL PLAZA PHARMACY","address1": "7777 HENNESSY BLVD","address2": "STE 114","city": "BATON ROUGE","state": "LA","zip": "70808","zip+4": "9171","phone": "2257658951"}
{"name": "WAL-MART PHARMACY #100428","address1": "5801 MAIN STREET","address2": "","city": "ZACHARY","state": "LA","zip": "70791","zip+4": "0000","phone": "2256543087"}
{"name": "CLINIC PHARMACY","address1": "604 BELUE LANE","address2": "SUITE A","city": "RUSTON","state": "LA","zip": "71270","zip+4": "0000","phone": "3182516385"}
{"name": "WALGREEN DRUG STORE #1799","address1": "1503 METAIRIE ROAD","address2": "","city": "METAIRIE","state": "LA","zip": "70005","zip+4": "0000","phone": "5048319756"}
{"name": "CIOLINO PHARMACY INC","address1": "1401 VETERANS BLVD","address2": "","city": "METAIRIE","state": "LA","zip": "70005","zip+4": "2734","phone": "5048341570"}
{"name": "DONS PHARMASAVE INC","address1": "134 RUE MEDICINE","address2": "","city": "MARKSVILLE","state": "LA","zip": "71351","zip+4": "0000","phone": "3182538747"}
{"name": "WAL-MART PHARMACY #101102","address1": "14507 PLANK ROAD","address2": "","city": "BAKER","state": "LA","zip": "70714","zip+4": "0000","phone": "2257742047"}
{"name": "WINN DIXIE #1406","address1": "4041 WILLIAMS BLVD","address2": "","city": "KENNER","state": "LA","zip": "70065","zip+4": "0000","phone": "5044433889"}
{"name": "WALGREEN DRUG STORE #3156","address1": "1556 LAPALCO","address2": "","city": "HARVEY","state": "LA","zip": "70058","zip+4": "0000","phone": "5043679445"}
{"name": "LABORDES FREEDOM PHARMACY","address1": "119 TUNICA DRIVE WEST","address2": "","city": "MARKSVILLE","state": "LA","zip": "71351","zip+4": "2601","phone": "3182539419"}
{"name": "WAL-MART PHARMACY #101128","address1": "7162 HWY 1","address2": "","city": "MANSURA","state": "LA","zip": "71350","zip+4": "0000","phone": "3182534073"}
{"name": "WAL-MART PHARMACY #101163","address1": "4001 BEHRMAN","address2": "","city": "NEW ORLEANS","state": "LA","zip": "70114","zip+4": "0000","phone": "5043641488"}
{"name": "WAL-MART PHARMACY #101169","address1": "1920 SOUTH ARKANSAS ST","address2": "","city": "SPRINGHILL","state": "LA","zip": "71075","zip+4": "0000","phone": "3185393500"}
{"name": "WAL-MART PHARMACY #101206","address1": "3132 COLLEGE DR","address2": "","city": "BATON ROUGE","state": "LA","zip": "70808","zip+4": "0000","phone": "2259520776"}
{"name": "WINN DIXIE #1446","address1": "619 N CAUSEWAY BLVD","address2": "","city": "MANDEVILLE","state": "LA","zip": "70448","zip+4": "0000","phone": "9856265660"}
{"name": "ACADIANA PHARMACY #2222","address1": "507 N MARKET ST","address2": "","city": "OPELOUSAS","state": "LA","zip": "70570","zip+4": "5241","phone": "3379421400"}
{"name": "WAL-MART PHARMACY #101136","address1": "3255 LA HWY 1 S","address2": "","city": "PORT ALLEN","state": "LA","zip": "70767","zip+4": "0000","phone": "2257497454"}
{"name": "NEW ARCADIA HEALTH MART","address1": "1982 N RAILROAD AVE","address2": "","city": "ARCADIA","state": "LA","zip": "71001","zip+4": "0000","phone": "3182632919"}
{"name": "TRIANGLE PHARMACY","address1": "3148 WEST OAK STREET","address2": "","city": "JENA","state": "LA","zip": "71342","zip+4": "0000","phone": "3189924447"}
{"name": "KROGER PHARMACY #34391","address1": "3009 STATE HWY 14","address2": "","city": "LAKE CHARLES","state": "LA","zip": "70601","zip+4": "0000","phone": "3374749983"}
{"name": "KIRBYS FAMILY PHARMACY INC","address1": "1305 WINDSOR PL","address2": "","city": "ALEXANDRIA","state": "LA","zip": "71303","zip+4": "2751","phone": "3184452575"}
{"name": "WAL-MART PHARMACY #101266","address1": "2171 ONEAL LN","address2": "","city": "BATON ROUGE","state": "LA","zip": "70816","zip+4": "0000","phone": "2257516364"}
{"name": "WAL-MART PHARMACY #101193","address1": "2701 LOUISVILLE AVENUE","address2": "","city": "MONROE","state": "LA","zip": "71201","zip+4": "0000","phone": "3183610690"}
{"name": "RITE AID PHARMACY #07304","address1": "1150 WEST ST PETER STREET","address2": "","city": "NEW IBERIA","state": "LA","zip": "70560","zip+4": "3558","phone": "3373679347"}
{"name": "SAVON PHARMACY #4220","address1": "3121 E TEXAS ST","address2": "","city": "BOSSIER CITY","state": "LA","zip": "71111","zip+4": "0000","phone": "3187471466"}
{"name": "KMART PHARMACY #7623","address1": "115 SOUTH AIRLINE HIGHWAY","address2": "","city": "GONZALES","state": "LA","zip": "70737","zip+4": "0000","phone": "2256477980"}
{"name": "HEBERTS PHARMACY","address1": "1101 GRAND POINT AVE","address2": "","city": "BREAUX BRIDGE","state": "LA","zip": "70517","zip+4": "0000","phone": "3373325186"}
{"name": "WAL-MART PHARMACY #101196","address1": "2050 FALSE RIVER DRIVE","address2": "","city": "NEW ROADS","state": "LA","zip": "70760","zip+4": "0000","phone": "2256388616"}
{"name": "PHILIPS FAMILY PHARMACY INC","address1": "203 DEPOT ST","address2": "","city": "DELHI","state": "LA","zip": "71232","zip+4": "2501","phone": "3188783671"}
{"name": "THRIFTY WAY PHCY","address1": "202 ARTHUR AVE","address2": "","city": "LAKE ARTHUR","state": "LA","zip": "70549","zip+4": "0000","phone": "3377742246"}
{"name": "CASTELLON PHARMACY","address1": "8232 OAK ST","address2": "","city": "NEW ORLEANS","state": "LA","zip": "70118","zip+4": "0000","phone": "5048663784"}
{"name": "SAV MOR DRUGS INC","address1": "13413 HWY 90","address2": "","city": "BOUTTE","state": "LA","zip": "70039","zip+4": "0000","phone": "9887852145"}
{"name": "WAL-MART PHARMACY #100098","address1": "6091 HWY 165","address2": "","city": "BASTROP","state": "LA","zip": "71220","zip+4": "0000","phone": "3182813564"}
{"name": "WAL-MART PHARMACY #101342","address1": "300 WEST ESPLANADE","address2": "","city": "KENNER","state": "LA","zip": "70065","zip+4": "0000","phone": "5044671597"}
{"name": "WAL-MART PHARMACY #100149","address1": "184 OLD WINFIELD RD","address2": "","city": "JONESBORO","state": "LA","zip": "71251","zip+4": "0000","phone": "3182596694"}
{"name": "CVS PHARMACY #05442","address1": "12589 AIRLINE HWY","address2": "","city": "DESTREHAN","state": "LA","zip": "70047","zip+4": "0000","phone": "9857641158"}
{"name": "WAL-MART PHARMACY #101353","address1": "5110 JEFFERSON HWY","address2": "","city": "HARAHAN","state": "LA","zip": "70123","zip+4": "0000","phone": "5047333373"}
{"name": "STERLING HEALTHCARE SERVICES","address1": "2535 BERT KOUNS STE 211","address2": "","city": "SHREVEPORT","state": "LA","zip": "71118","zip+4": "0000","phone": "3186874546"}
{"name": "CVS PHARMACY #05503","address1": "4901 PRYTANIA ST","address2": "","city": "NEW ORLEANS","state": "LA","zip": "70115","zip+4": "0000","phone": "5048916307"}
{"name": "TOMS EXPRESS PHARMACY DRUG","address1": "403 SPENCER ST","address2": "","city": "RAYVILLE","state": "LA","zip": "71269","zip+4": "0000","phone": "3187283353"}
{"name": "KMART PHARMACY #3728","address1": "2985 COTTINHAM EXPRESSWAY","address2": "","city": "PINEVILLE","state": "LA","zip": "71360","zip+4": "0000","phone": "3186406650"}
{"name": "CVS PHARMACY #05607","address1": "4443 JACKSON ST","address2": "","city": "ALEXANDRIA","state": "LA","zip": "71303","zip+4": "0000","phone": "3184481683"}
{"name": "FASULLO DRUGS","address1": "905 WESTBANK EXPY","address2": "","city": "WESTWEGO","state": "LA","zip": "70094","zip+4": "4652","phone": "5043475458"}
{"name": "WALGREEN DRUG STORE #2262","address1": "1100 ELYSIAN FIELDS","address2": "","city": "NEW ORLEANS","state": "LA","zip": "70117","zip+4": "0000","phone": "5049439785"}
{"name": "OSBORNS CRESCENT DRUG STORE","address1": "110 W SOUTH ST","address2": "","city": "WELSH","state": "LA","zip": "70591","zip+4": "0000","phone": "3377343374"}
{"name": "WALGREEN DRUG STORE #5472","address1": "821 W ESPLANADE AVE","address2": "","city": "KENNER","state": "LA","zip": "70065","zip+4": "0000","phone": "5044685477"}
{"name": "WAL-MART PHARMACY #100116","address1": "929 SOUTH PINE STREET","address2": "","city": "VIVIAN","state": "LA","zip": "71082","zip+4": "0000","phone": "3183754510"}
{"name": "DON CHAUCERS PHARMACY INC","address1": "15794 MEDICAL ARTS PLAZA","address2": "","city": "HAMMOND","state": "LA","zip": "70403","zip+4": "0000","phone": "9853457979"}
{"name": "MEDICINE SHOPPE #1054","address1": "1817 S BURNSIDE","address2": "","city": "GONZALES","state": "LA","zip": "70737","zip+4": "0000","phone": "2256443030"}
{"name": "SAVON PHARMACY #2715","address1": "2265 S MCARTHUR DR","address2": "","city": "ALEXANDRIA","state": "LA","zip": "71301","zip+4": "0000","phone": "3184425364"}
{"name": "THRIFT CLINIC PHARMACY","address1": "825 N UNION STREET","address2": "","city": "OPELOUSAS","state": "LA","zip": "70570","zip+4": "0000","phone": "3379428901"}
{"name": "CVS PHARMACY #05611","address1": "9407 E PARK AVE","address2": "","city": "HOUMA","state": "LA","zip": "70363","zip+4": "0000","phone": "9858763117"}
{"name": "CVS PHARMACY #05612","address1": "1508 S BEGLIS PKWY","address2": "","city": "SULPHUR","state": "LA","zip": "70663","zip+4": "0000","phone": "3376252660"}
{"name": "WAL-MART PHARMACY #100542","address1": "1633 MARTIN LUTHER KING BLVD","address2": "","city": "HOUMA","state": "LA","zip": "70360","zip+4": "0000","phone": "9858513284"}
{"name": "DONS DRUGS #1","address1": "100 E FERTITTA BLVD","address2": "","city": "LEESVILLE","state": "LA","zip": "71446","zip+4": "0000","phone": "3372394249"}
{"name": "PRESCRIPTION CENTER OF MORGAN","address1": "832 MARGUERITE ST","address2": "","city": "MORGAN CITY","state": "LA","zip": "70380","zip+4": "1837","phone": "9853851864"}
{"name": "SAVON PHARMACY #2713","address1": "15232 GEORGE ONEAL RD","address2": "","city": "BATON ROUGE","state": "LA","zip": "70817","zip+4": "0000","phone": "2257530805"}
{"name": "WAL-MART PHARMACY #100502","address1": "16759 HWY 3235","address2": "","city": "GALLIANO","state": "LA","zip": "70354","zip+4": "0000","phone": "9856324727"}
{"name": "MEDICINE SHOPPE #1113","address1": "802 N LAKE ARTHUR","address2": "","city": "JENNINGS","state": "LA","zip": "70546","zip+4": "4632","phone": "3378240413"}
{"name": "WAL-MART PHARMACY #100553","address1": "39142 NATCHEZ DRIVE","address2": "","city": "SLIDELL","state": "LA","zip": "70461","zip+4": "0000","phone": "9856492687"}
{"name": "CARR DRUGS #2","address1": "17A WESTSIDE SHOPPING CENTER N","address2": "","city": "GRETNA","state": "LA","zip": "70053","zip+4": "0000","phone": "5043661200"}
{"name": "PHILS PHARMACY","address1": "128 W 6TH AVE","address2": "","city": "OBERLIN","state": "LA","zip": "70655","zip+4": "0189","phone": "3376394367"}
{"name": "RITE AID PHARMACY #07307","address1": "2825 RYAN STREET","address2": "","city": "LAKE CHARLES","state": "LA","zip": "70601","zip+4": "7329","phone": "3374941590"}
{"name": "WAL-MART PHARMACY #100543","address1": "1629 EAST CRESSWELL LANE","address2": "","city": "OPELOUSAS","state": "LA","zip": "70570","zip+4": "0000","phone": "3379429720"}
{"name": "OUACHITA PHARMACY","address1": "1215 ORANGE ST","address2": "","city": "MONROE","state": "LA","zip": "71202","zip+4": "0000","phone": "3183882669"}
{"name": "MOUTON PHARMACY INC","address1": "301 S ADAMS","address2": "","city": "RAYNE","state": "LA","zip": "70578","zip+4": "0000","phone": "3373342117"}
{"name": "WALGREEN DRUG STORE #2640","address1": "3227 MAGAZINE ST","address2": "","city": "NEW ORLEANS","state": "LA","zip": "70115","zip+4": "0000","phone": "5048992524"}
{"name": "WAL-MART PHARMACY #100415","address1": "2310 N MAIN","address2": "","city": "ST. MARTINVILLE","state": "LA","zip": "70582","zip+4": "0000","phone": "3373945295"}
{"name": "WAL-MART PHARMACY #100485","address1": "37000 HWY 3089","address2": "","city": "DONALDSONVILLE","state": "LA","zip": "70346","zip+4": "0000","phone": "2254731774"}
{"name": "WALGREEN DRUG STORE #2715","address1": "9999 LAKE FOREST","address2": "","city": "NEW ORLEANS","state": "LA","zip": "70127","zip+4": "0000","phone": "5042420566"}
{"name": "MAJORIA DRUGS #6","address1": "888 TERRY PKWY","address2": "","city": "TERRYTOWN","state": "LA","zip": "70056","zip+4": "5289","phone": "5043921551"}
{"name": "SAVON PHARMACY #2719","address1": "4400 AMBASSADOR CAFFERY","address2": "","city": "LAFAYETTE","state": "LA","zip": "70508","zip+4": "0000","phone": "3379845133"}
{"name": "PHARMACY SERVICES OF WINNFIELD","address1": "100 MAIN ST","address2": "","city": "WINNFIELD","state": "LA","zip": "71483","zip+4": "0000","phone": "3186283575"}
{"name": "MEDICINE SHOPPE #1167","address1": "1510 SOUTH 2ND STREET","address2": "","city": "MONROE","state": "LA","zip": "71202","zip+4": "0000","phone": "3183232883"}
{"name": "DAVES PHARMACY INC","address1": "1220 BARATARIA BLVD","address2": "","city": "MARRERO","state": "LA","zip": "70072","zip+4": "0000","phone": "5043407516"}
{"name": "MILLERS HEALTH MART PHARMACY","address1": "214 S THOMPSON","address2": "","city": "IOWA","state": "LA","zip": "70647","zip+4": "1437","phone": "3375823585"}
{"name": "MEDICAL PLAZA PHARMACY","address1": "1717 OAK PARK BLVD","address2": "STE 110","city": "LAKE CHARLES","state": "LA","zip": "70601","zip+4": "0000","phone": "3374942990"}
{"name": "SAVON PHARMACY #2709","address1": "2950 COLLEGE DR","address2": "","city": "BATON ROUGE","state": "LA","zip": "70808","zip+4": "0000","phone": "2259246094"}
{"name": "SAVON PHARMACY #2717","address1": "4060 RYAN ST","address2": "","city": "LAKE CHARLES","state": "LA","zip": "70605","zip+4": "0000","phone": "3374789197"}
{"name": "WAL-MART PHARMACY #100401","address1": "59690 BELLEVIEW DR","address2": "","city": "PLAQUEMINE","state": "LA","zip": "70764","zip+4": "0000","phone": "2256877878"}
{"name": "MORGANS PHARMACY INC","address1": "1806 FOURTH ST","address2": "","city": "JONESVILLE","state": "LA","zip": "71343","zip+4": "2113","phone": "3183398532"}
{"name": "MEDICINE SHOPPE #1194","address1": "1275 BELLEVIEW STREET","address2": "","city": "MORGAN CITY","state": "LA","zip": "70380","zip+4": "5930","phone": "9853952694"}
{"name": "MEDICINE SHOPPE #1193","address1": "926 SEVENTH","address2": "","city": "MORGAN CITY","state": "LA","zip": "70380","zip+4": "1904","phone": "9853843071"}
{"name": "CASHWAY PHARMACY OF ERATH","address1": "112 E EDWARDS","address2": "","city": "ERATH","state": "LA","zip": "70533","zip+4": "0000","phone": "3379378333"}
{"name": "THE ORIGINAL PATIO DRUGS","address1": "5208 VETERANS MEM BLVD STE A","address2": "","city": "METAIRIE","state": "LA","zip": "70006","zip+4": "5185","phone": "5048897070"}
{"name": "MEDICINE SHOPPE #1198","address1": "1717 S UNION","address2": "SUITE 2","city": "OPELOUSAS","state": "LA","zip": "70570","zip+4": "2000","phone": "3379487703"}
{"name": "BOLTON HEALTH MART PHARMACY","address1": "2958 PERKINS RD","address2": "","city": "BATON ROUGE","state": "LA","zip": "70808","zip+4": "0000","phone": "2253434869"}
{"name": "VALENTINE PHARMACY #2720","address1": "116 JEFFERSON ST","address2": "","city": "MANSFIELD","state": "LA","zip": "71052","zip+4": "0000","phone": "3188725300"}
{"name": "WAL-MART PHARMACY #100531","address1": "3142 AMBASSADOR CAFFERY PKWY","address2": "","city": "LAFAYETTE","state": "LA","zip": "70506","zip+4": "0000","phone": "3379894095"}
{"name": "RITE AID PHARMACY #07329","address1": "761 PIERRMONT ROAD","address2": "","city": "SHREVEPORT","state": "LA","zip": "71106","zip+4": "2234","phone": "3188613666"}
{"name": "WALGREEN DRUG STORE #2920","address1": "1021 BEGLIS PARKWAY","address2": "","city": "SULPHUR","state": "LA","zip": "70663","zip+4": "0000","phone": "3375279990"}
{"name": "KENS PHARMACY","address1": "4626 ALCEE FORTIER BLVD","address2": "STE C","city": "NEW ORLEANS","state": "LA","zip": "70129","zip+4": "2139","phone": "5042548989"}
{"name": "PHARMACEUTICALS INC","address1": "32553 BOWIE ST","address2": "","city": "WHITE CASTLE","state": "LA","zip": "70788","zip+4": "0000","phone": "2255452277"}
{"name": "MITCHELLS PHARMACY INC","address1": "116 JIMMY DAVIS BLVD","address2": "","city": "JONESBORO","state": "LA","zip": "71251","zip+4": "3355","phone": "3182597466"}
{"name": "WALGREEN DRUG STORE #2919","address1": "1106 N ML KING BLVD","address2": "","city": "LAKE CHARLES","state": "LA","zip": "70601","zip+4": "0000","phone": "3374367944"}
{"name": "PERKINS PHARMACY","address1": "129 N PINE ST","address2": "","city": "DE QUINCY","state": "LA","zip": "70633","zip+4": "0338","phone": "3377866111"}
{"name": "DEKLE DRUGS","address1": "4621 WICHERS DR","address2": "","city": "MARRERO","state": "LA","zip": "70072","zip+4": "3020","phone": "5043405221"}
{"name": "SUPER 1 PHARMACY #0000000609","address1": "2951 COTTINGHAM EXPRESSWAY","address2": "ATTENTION PHARMACY DEPT","city": "PINEVILLE","state": "LA","zip": "71360","zip+4": "0000","phone": "3186400145"}
{"name": "SUPER 1 PHARMACY #0000000607","address1": "2810 LOUISVILLE AVE","address2": "ATTENTION PHARMACY DEPT","city": "MONROE","state": "LA","zip": "71201","zip+4": "0000","phone": "3183238698"}
{"name": "SUPER 1 PHARMACY #0000000602","address1": "2907 CYPRESS STREET","address2": "ATTENTION PHARMACY DEPT","city": "WEST MONROE","state": "LA","zip": "71291","zip+4": "0000","phone": "3183253142"}
{"name": "SUPER 1 PHARMACY #0000000601","address1": "604 MACARTHUR DRIVE","address2": "ATTENTION PHARMACY DEPT","city": "ALEXANDRIA","state": "LA","zip": "71301","zip+4": "0000","phone": "3184425710"}
{"name": "WALGREEN DRUG STORE #2980","address1": "4747 SHERWOOD FOREST BLVD","address2": "","city": "BATON ROUGE","state": "LA","zip": "70816","zip+4": "0000","phone": "2252928979"}
{"name": "WALGREEN DRUG STORE #2995","address1": "3550 GOVERNMENT","address2": "","city": "BATON ROUGE","state": "LA","zip": "70806","zip+4": "0000","phone": "2253438840"}
{"name": "WALGREEN DRUG STORE #2964","address1": "678 TERRY PARKWAY","address2": "","city": "TERRYTOWN","state": "LA","zip": "70056","zip+4": "0000","phone": "5043662245"}
{"name": "WINN DIXIE #1404","address1": "8601 JEFFERSON HWY","address2": "","city": "RIVER RIDGE","state": "LA","zip": "70123","zip+4": "0000","phone": "5047385785"}
{"name": "PPSI OF VILLE PLATTE","address1": "409 A E LINCOLN RD","address2": "","city": "VILLE PLATTE","state": "LA","zip": "70586","zip+4": "3431","phone": "3373632183"}
{"name": "RITE AID PHARMACY #07286","address1": "2000 SW RAILROAD AVENUE","address2": "","city": "HAMMOND","state": "LA","zip": "70403","zip+4": "6100","phone": "9855428878"}
{"name": "PONTCHARTRAIN PHARMACY","address1": "2045 HWY 59","address2": "","city": "MANDEVILLE","state": "LA","zip": "70448","zip+4": "1909","phone": "9856269726"}
{"name": "KMART PHARMACY #4810","address1": "2940 VETERANS MEMORIAL BLVD","address2": "","city": "METAIRIE","state": "LA","zip": "70002","zip+4": "0000","phone": "5048345198"}
{"name": "FREDS PHARMACY #2891","address1": "801 SOUTH ARKANSAS BLDG 2","address2": "","city": "SPRINGHILL","state": "LA","zip": "71075","zip+4": "0000","phone": "3185393451"}
{"name": "VILLE PLATTE CLINIC PHCY INC","address1": "505 JACK MILLER RD","address2": "","city": "VILLE PLATTE","state": "LA","zip": "70586","zip+4": "0000","phone": "3373630941"}
{"name": "WALGREEN DRUG STORE #2982","address1": "5450 PLANK ROAD","address2": "","city": "BATON ROUGE","state": "LA","zip": "70805","zip+4": "0000","phone": "2253559828"}
{"name": "WALGREEN DRUG STORE #2996","address1": "11297 FLORIDA BLVD","address2": "","city": "BATON ROUGE","state": "LA","zip": "70815","zip+4": "0000","phone": "2252729592"}
{"name": "LANDRYS PHCY","address1": "106 MILTON RD","address2": "","city": "MAURICE","state": "LA","zip": "70555","zip+4": "0000","phone": "3378981015"}
{"name": "FREDS PHARMACY #3256","address1": "2615 N 7TH ST WESTGATE S/C","address2": "","city": "WEST MONROE","state": "LA","zip": "71291","zip+4": "0000","phone": "3183966421"}
{"name": "SUPER 1 PHARMACY #0000000608","address1": "2640 WAGGONER","address2": "ATTENTION PHARMACY DEPT","city": "SHREVEPORT","state": "LA","zip": "71108","zip+4": "0000","phone": "3186312065"}
{"name": "WALGREEN DRUG STORE #2972","address1": "4421 AIRLINE HWY","address2": "","city": "METAIRIE","state": "LA","zip": "70001","zip+4": "0000","phone": "5048362059"}
{"name": "FREDS PHARMACY #2241","address1": "200 ELIZABETH ST WRIGHT S/C","address2": "","city": "MANY","state": "LA","zip": "71449","zip+4": "0000","phone": "3182562990"}
{"name": "SUPER 1 PHARMACY #0000000617","address1": "1500 NORTH TRENTON","address2": "ATTENTION PHARMACY DEPT","city": "RUSTON","state": "LA","zip": "71270","zip+4": "0000","phone": "3182548256"}
{"name": "EVANS DRUG MART","address1": "64288 HWY 41","address2": "","city": "PEARL RIVER","state": "LA","zip": "70452","zip+4": "0000","phone": "9858633100"}
{"name": "WINN DIXIE PHARMACY #1439","address1": "9701 CHEF MENTEUR HWY","address2": "","city": "NEW ORLEANS","state": "LA","zip": "70127","zip+4": "0000","phone": "5042450064"}
{"name": "WALGREEN DRUG STORE #3085","address1": "14444 COURSEY BLVD","address2": "","city": "BATON ROUGE","state": "LA","zip": "70817","zip+4": "0000","phone": "2257539788"}
{"name": "WALGREEN DRUG STORE #3180","address1": "101 FLORIDA AVE SE","address2": "","city": "DENHAM SPRINGS","state": "LA","zip": "70726","zip+4": "0000","phone": "2256670290"}
{"name": "BROOKSHIRE BROTHERS PHARMACY #","address1": "1612 S RUTH","address2": "","city": "SULPHUR","state": "LA","zip": "70663","zip+4": "0000","phone": "3375270033"}
{"name": "WINN DIXIE #1467","address1": "13555 OLD HAMMOND HWY","address2": "","city": "BATON ROUGE","state": "LA","zip": "70816","zip+4": "0000","phone": "2252728566"}
{"name": "FREDS PHARMACY #1761","address1": "1863 MAIN STREET","address2": "","city": "HAYNESVILLE","state": "LA","zip": "71038","zip+4": "0000","phone": "3186240882"}
{"name": "WEST CARROLL HOSP OUTPATIENT","address1": "706 ROSS ST","address2": "","city": "OAK GROVE","state": "LA","zip": "71263","zip+4": "0748","phone": "3184286155"}
{"name": "MELVILLE PHARMACY","address1": "320 CHURCH ST","address2": "","city": "MELVILLE","state": "LA","zip": "71353","zip+4": "0645","phone": "3376239992"}
{"name": "LACOUR'S PHARMACY","address1": "16237 HIGHWAY 1","address2": "","city": "SIMMESPORT","state": "LA","zip": "71369","zip+4": "0000","phone": "3189412423"}
{"name": "WINN DIXIE #1449","address1": "804 WEST OAK ST","address2": "","city": "AMITE","state": "LA","zip": "70422","zip+4": "0000","phone": "9857486847"}
{"name": "RITE AID PHARMACY #07276","address1": "5661 BULLARD AVENUE","address2": "","city": "NEW ORLEANS","state": "LA","zip": "70128","zip+4": "3447","phone": "5042433282"}
{"name": "WALGREEN DRUG STORE #2997","address1": "4460 LAKE STREET","address2": "","city": "LAKE CHARLES","state": "LA","zip": "70605","zip+4": "0000","phone": "3374789825"}
{"name": "RITE AID PHARMACY #07335","address1": "6940 PINES ROAD","address2": "","city": "SHREVEPORT","state": "LA","zip": "71129","zip+4": "2516","phone": "3186828188"}
{"name": "RITE AID PHARMACY #07239","address1": "4936 VETERANS MEMORIAL BOULEVA","address2": "","city": "METAIRIE","state": "LA","zip": "70006","zip+4": "5222","phone": "5048835616"}
{"name": "WINN DIXIE #1588","address1": "12519 AIRLINE HWY SUITE A","address2": "","city": "DESTREHAN","state": "LA","zip": "70047","zip+4": "0000","phone": "9857641318"}
{"name": "WAL-MART PHARMACY #100323","address1": "7292 HWY 509","address2": "","city": "MANSFIELD","state": "LA","zip": "71052","zip+4": "0000","phone": "3188725700"}
{"name": "WINN DIXIE #1570","address1": "1800 W LAUREL ST","address2": "","city": "EUNICE","state": "LA","zip": "70535","zip+4": "0000","phone": "3374574827"}
{"name": "J AND K DRUG","address1": "7190 HWY 165 S","address2": "","city": "COLUMBIA","state": "LA","zip": "71418","zip+4": "0000","phone": "3186490825"}
{"name": "IV PLUS ALEXANDRIA","address1": "3108 JACKSON ST","address2": "","city": "ALEXANDRIA","state": "LA","zip": "71301","zip+4": "4746","phone": "3184421122"}
{"name": "WINN DIXIE #1558","address1": "2210 VETERANS MEMORIAL DR","address2": "","city": "ABBEVILLE","state": "LA","zip": "70510","zip+4": "0000","phone": "3378981929"}
{"name": "WAL-MART PHARMACY #102132","address1": "10606 NORTH MALL DRIVE","address2": "","city": "BATON ROUGE","state": "LA","zip": "70809","zip+4": "0000","phone": "2252914299"}
{"name": "WALGREEN DRUG STORE #3139","address1": "1826 N BROAD ST","address2": "","city": "NEW ORLEANS","state": "LA","zip": "70119","zip+4": "0000","phone": "5049446359"}
{"name": "WINN DIXIE #1549","address1": "924 REES ST","address2": "","city": "BREAUX BRIDGE","state": "LA","zip": "70517","zip+4": "0000","phone": "3373326339"}
{"name": "GALVEZ TOWN PHARMACY INC","address1": "40017 HWY 42","address2": "SUITE D","city": "PRAIRIEVILLE","state": "LA","zip": "70769","zip+4": "0000","phone": "2256224817"}
{"name": "WINN DIXIE #1572","address1": "420 HOSPITAL RD","address2": "","city": "NEW RDS","state": "LA","zip": "70760","zip+4": "0000","phone": "2256385151"}
{"name": "FREDS PHARMACY #2356","address1": "1701 NORTH 18TH STREET","address2": "","city": "MONROE","state": "LA","zip": "71203","zip+4": "0000","phone": "3183232227"}
{"name": "CVS PHARMACY #05614","address1": "627 W 21ST AVE","address2": "","city": "COVINGTON","state": "LA","zip": "70433","zip+4": "0000","phone": "9858930700"}
{"name": "BOONES PHARMACY AND DOLLAR STO","address1": "511 USLTER ST","address2": "","city": "BOYCE","state": "LA","zip": "71409","zip+4": "0791","phone": "3187932400"}
{"name": "FREDS PHARMACY #2336","address1": "522 LINCOLN ROAD","address2": "","city": "EAST MONROE","state": "LA","zip": "71203","zip+4": "0000","phone": "3183433443"}
{"name": "WALGREEN DRUG STORE #3399","address1": "7620 JEFFERSON HWY","address2": "","city": "BATON ROUGE","state": "LA","zip": "70809","zip+4": "0000","phone": "2259261430"}
{"name": "WINN DIXIE #1461","address1": "8601 SIEGEN LANE","address2": "","city": "BATON ROUGE","state": "LA","zip": "70810","zip+4": "0000","phone": "2257668803"}
{"name": "COMMUNITY HEALTH PHARMACY","address1": "920 OLIVER RD","address2": "STE 100","city": "MONROE","state": "LA","zip": "71201","zip+4": "5740","phone": "3183276290"}
{"name": "MR DISCOUNT DRUGS INC","address1": "115 SMITH ST","address2": "","city": "WEST MONROE","state": "LA","zip": "71292","zip+4": "0000","phone": "3183879677"}
{"name": "SAVON PHARMACY #2718","address1": "1818 EVANGELINE THRUWAY","address2": "","city": "LAFAYETTE","state": "LA","zip": "70501","zip+4": "0000","phone": "3372379880"}
{"name": "BROOKSHIRES PHARMACY #00000000","address1": "3426 CYPRESS SUITE 16","address2": "ATTENTION PHARMACY DEPT","city": "WEST MONROE","state": "LA","zip": "71291","zip+4": "0000","phone": "3183960069"}
{"name": "BROOKSHIRES PHARMACY #00000000","address1": "7920 DESIARD","address2": "ATTENTION PHARMACY DEPT","city": "MONROE","state": "LA","zip": "71203","zip+4": "0000","phone": "3183431284"}
{"name": "WINN DIXIE #1418","address1": "3001 HWY 90","address2": "","city": "AVONDALE","state": "LA","zip": "70094","zip+4": "0000","phone": "5044370650"}
{"name": "PORT ALLEN SUPERMARKET INC","address1": "220 N ALEXANDER ST","address2": "","city": "PORT ALLEN","state": "LA","zip": "70767","zip+4": "2514","phone": "2253437855"}
{"name": "WALGREEN DRUG STORE #3047","address1": "5112 ESSEN LANE","address2": "","city": "BATON ROUGE","state": "LA","zip": "70809","zip+4": "0000","phone": "2257697221"}
{"name": "WINN DIXIE #1501","address1": "731 WASHINGTON ST","address2": "","city": "FRANKLINTON","state": "LA","zip": "70438","zip+4": "0000","phone": "9858395450"}
{"name": "CAREMARK LOUISIANA SPECIALTY P","address1": "125 MALLARD ST","address2": "STE C","city": "ST ROSE","state": "LA","zip": "70087","zip+4": "4020","phone": "5044632500"}
{"name": "WAL-MART PHARMACY #100244","address1": "5940 HWY 167 NORTH","address2": "","city": "WINNFIELD","state": "LA","zip": "71483","zip+4": "0000","phone": "3186284690"}
{"name": "IV SERVICES","address1": "1581 CAROL SUE AVE","address2": "","city": "GRETNA","state": "LA","zip": "70056","zip+4": "5100","phone": "5043949037"}
{"name": "MAGNOLIA PHARMACY","address1": "1783 JACKSON STREET","address2": "","city": "ALEXANDRIA","state": "LA","zip": "71301","zip+4": "0000","phone": "3184435810"}
{"name": "WAL-MART PHARMACY #100498","address1": "3670 WEST OAK STREET","address2": "","city": "JENA","state": "LA","zip": "71342","zip+4": "0000","phone": "3189921357"}
{"name": "WAL-MART PHARMACY #100540","address1": "973 HWY 90 EAST","address2": "","city": "BAYOU VISTA","state": "LA","zip": "70380","zip+4": "0000","phone": "9853959625"}
{"name": "CORAM SPECIALTY INFUSION SERVI","address1": "115 JAMES DR W","address2": "WESTSIDE ONE STE 100","city": "ST ROSE","state": "LA","zip": "70087","zip+4": "9449","phone": "5044665932"}
{"name": "WALGREEN DRUG STORE #3558","address1": "6201 ELYSIAN FIELDS AVE","address2": "","city": "NEW ORLEANS","state": "LA","zip": "70122","zip+4": "0000","phone": "5042830816"}
{"name": "BROOKSHIRES PHARMACY #00000000","address1": "5828 LINE AVENUE","address2": "ATTENTION PHARMACY DEPT","city": "SHREVEPORT","state": "LA","zip": "71106","zip+4": "0000","phone": "3188690669"}
{"name": "BROOKSHIRES PHARMACY #00000000","address1": "3000 N MARKET STREET","address2": "ATTENTION PHARMACY DEPT","city": "SHREVEPORT","state": "LA","zip": "71107","zip+4": "0000","phone": "3184243251"}
{"name": "BROOKSHIRES PHARMACY #00000000","address1": "388 BERT KOUNS","address2": "ATTENTION PHARMACY DEPT","city": "SHREVEPORT","state": "LA","zip": "71106","zip+4": "0000","phone": "3186877558"}
{"name": "BROOKSHIRES PHARMACY #00000000","address1": "9250 MANSFIELD ROAD","address2": "ATTENTION PHARMACY DEPT","city": "SHREVEPORT","state": "LA","zip": "71118","zip+4": "0000","phone": "3186866311"}
{"name": "BROOKSHIRES PHARMACY #00000000","address1": "1075 HWY 80 EAST","address2": "ATTENTION PHARMACY DEPT","city": "HAUGHTON","state": "LA","zip": "71037","zip+4": "0000","phone": "3189498476"}
{"name": "BROOKSHIRES PHARMACY #00000000","address1": "3620 PINES ROAD","address2": "ATTENTION PHARMACY DEPT","city": "SHREVEPORT","state": "LA","zip": "71119","zip+4": "0000","phone": "3186319804"}
{"name": "BROOKSHIRES PHARMACY #00000000","address1": "510 KINGS HWY","address2": "ATTENTION PHARMACY DEPT","city": "SHREVEPORT","state": "LA","zip": "71104","zip+4": "0000","phone": "3184240896"}
{"name": "SUPER 1 PHARMACY #0000000616","address1": "1870 AIRLINE DRIVE","address2": "ATTENTION PHARMACY DEPT","city": "BOSSIER CITY","state": "LA","zip": "71112","zip+4": "0000","phone": "3187468401"}
{"name": "SUPER 1 PHARMACY #0000000621","address1": "939 SOUTH LEWIS","address2": "ATTENTION PHARMACY DEPT","city": "NEW IBERIA","state": "LA","zip": "70560","zip+4": "0000","phone": "3183641368"}
{"name": "WINN DIXIE PHARMACY #1463","address1": "1803 LOUISIANA HWY 3125","address2": "","city": "GRAMERCY","state": "LA","zip": "70052","zip+4": "0000","phone": "2258698695"}
{"name": "WALGREEN DRUG STORE #3432","address1": "1511 EAST TUNNEL BLVD","address2": "","city": "HOUMA","state": "LA","zip": "70360","zip+4": "0000","phone": "9858735913"}
{"name": "SPECIALTY PHARMACY SERVICES IN","address1": "1821 N WASHINGTON","address2": "","city": "BASTROP","state": "LA","zip": "71220","zip+4": "0000","phone": "3182816660"}
{"name": "WAL-MART PHARMACY #100312","address1": "891 E LA SALLE ST","address2": "","city": "VILLE PLATTE","state": "LA","zip": "70586","zip+4": "0000","phone": "3373634934"}
{"name": "WINN DIXIE #1412","address1": "2104 WILLIAMS BLVD","address2": "","city": "KENNER","state": "LA","zip": "70062","zip+4": "0000","phone": "5044690973"}
{"name": "WINN DIXIE #1416","address1": "5969 LAPALCO BLVD","address2": "","city": "MARRERO","state": "LA","zip": "70072","zip+4": "0000","phone": "5043407984"}
{"name": "WINN DIXIE #1425","address1": "3645 LAPALCO BLVD","address2": "","city": "HARVEY","state": "LA","zip": "70058","zip+4": "0000","phone": "5043481149"}
{"name": "WAL-MART PHARMACY #100376","address1": "2536 AIRLINE DR","address2": "","city": "BOSSIER CITY","state": "LA","zip": "71111","zip+4": "0000","phone": "3187477513"}
{"name": "HEALTH MART PHARMACY OF GUEYDA","address1": "200 MAIN STREET","address2": "","city": "GUEYDAN","state": "LA","zip": "70542","zip+4": "0000","phone": "3375360200"}
{"name": "WINN DIXIE #1502","address1": "2985 GAUSE BLVD","address2": "","city": "SLIDELL","state": "LA","zip": "70461","zip+4": "0000","phone": "9856391560"}
{"name": "WINN DIXIE #1504","address1": "3030 PONTCHARTRAIN DR","address2": "","city": "SLIDELL","state": "LA","zip": "70461","zip+4": "0000","phone": "9856450624"}
{"name": "WINN DIXIE #1561","address1": "2240 AMBASSADOR CAFFERY PKWY","address2": "","city": "LAFAYETTE","state": "LA","zip": "70506","zip+4": "0000","phone": "3379810924"}
{"name": "SUPER 1 PHARMACY #0000000623","address1": "3747 AMBASSADOR CAFFERY","address2": "ATTENTION PHARMACY DEPT","city": "LAFAYETTE","state": "LA","zip": "70503","zip+4": "0000","phone": "3379881940"}
{"name": "RITE AID PHARMACY #07293","address1": "2252 AMBASSADOR CAFFERY PARKWA","address2": "MARKETPLACE SHOPPING CENTER","city": "LAFAYETTE","state": "LA","zip": "70501","zip+4": "3705","phone": "3379887280"}
{"name": "RITE AID PHARMACY #07298","address1": "4510 AMBASSADOR CAFFERY PARKWA","address2": "","city": "LAFAYETTE","state": "LA","zip": "70508","zip+4": "6931","phone": "3379887290"}
{"name": "WINN DIXIE #1456","address1": "1104 EAST MAIN ST","address2": "","city": "NEW IBERIA","state": "LA","zip": "70560","zip+4": "0000","phone": "3373658048"}
{"name": "SOUTH SHREVEPORT PHARMACY","address1": "2520 BERT KOUNS","address2": "STE 103","city": "SHREVEPORT","state": "LA","zip": "71118","zip+4": "0000","phone": "3186295101"}
{"name": "ROUSES DISCOUNT PHARMACY #13","address1": "514 JUSTIN ST","address2": "","city": "LOCKPORT","state": "LA","zip": "70374","zip+4": "0000","phone": "9855322545"}
{"name": "WINN DIXIE #1405","address1": "2112 BELLE CHASSE HWY","address2": "","city": "GRETNA","state": "LA","zip": "70056","zip+4": "0000","phone": "5044333684"}
{"name": "BROOKSHIRES PHARMACY #00000000","address1": "1018 STERLINGTON HWY","address2": "ATTENTION PHARMACY DEPT","city": "FARMERVILLE","state": "LA","zip": "71241","zip+4": "0000","phone": "3183682218"}
{"name": "HEALTH WISE PHARMACY","address1": "916 A SAMPSON ST","address2": "","city": "WESTLAKE","state": "LA","zip": "70669","zip+4": "0000","phone": "3374397067"}
{"name": "WAL-MART PHARMACY #101110","address1": "833 STERLINGTON HWY","address2": "","city": "FARMERVILLE","state": "LA","zip": "71241","zip+4": "0000","phone": "3183683280"}
{"name": "ELLIOTT PHARMACY #2","address1": "6150 HWY 74","address2": "","city": "ST GABRIEL","state": "LA","zip": "70776","zip+4": "0000","phone": "2256429000"}
{"name": "WINN DIXIE #1454","address1": "5555 BURBANK DR","address2": "","city": "BATON ROUGE","state": "LA","zip": "70820","zip+4": "0000","phone": "2257579910"}
{"name": "WALGREEN DRUG STORE #4140","address1": "195 N CANAL BLVD","address2": "","city": "THIBODAUX","state": "LA","zip": "70301","zip+4": "0000","phone": "9854478121"}
{"name": "SUPER 1 PHARMACY #0000000603","address1": "2211 EAST MADISON","address2": "ATTENTION PHARMACY DEPT","city": "BASTROP","state": "LA","zip": "71220","zip+4": "0000","phone": "3182813284"}
{"name": "WINN DIXIE #1411","address1": "5901 AIRLINE HWY","address2": "","city": "METAIRIE","state": "LA","zip": "70003","zip+4": "0000","phone": "5047341954"}
{"name": "FREDS PHARMACY #1036","address1": "1311 NORTH HAZEL","address2": "","city": "ARCADIA","state": "LA","zip": "71001","zip+4": "0000","phone": "3182633948"}
{"name": "NORTHSHORE DISCOUNT PHARMACY I","address1": "680 ROBERT BLVD","address2": "","city": "SLIDELL","state": "LA","zip": "70458","zip+4": "0000","phone": "9856415585"}
{"name": "WINN DIXIE #1559","address1": "204 NORTHWEST BLVD","address2": "","city": "FRANKLIN","state": "LA","zip": "70538","zip+4": "0000","phone": "3378280161"}
{"name": "WINN DIXIE #1490","address1": "2004 NORTH PARKERSON AVE","address2": "","city": "CROWLEY","state": "LA","zip": "70526","zip+4": "0000","phone": "3377852421"}
{"name": "WAL-MART PHARMACY #100521","address1": "2500 N MARTIN LUTHER KING HWY","address2": "","city": "LAKE CHARLES","state": "LA","zip": "70601","zip+4": "0000","phone": "3374300249"}
{"name": "WALGREEN DRUG STORE #3610","address1": "12881 PERKINS ROAD","address2": "","city": "BATON ROUGE","state": "LA","zip": "70810","zip+4": "0000","phone": "2257635998"}
{"name": "WAL-MART PHARMACY #100331","address1": "525 NORTH CITY SERVICE HWY","address2": "","city": "SULPHUR","state": "LA","zip": "70663","zip+4": "0000","phone": "3376257057"}
{"name": "WAL-MART PHARMACY #101204","address1": "3451 NELSON ROAD","address2": "","city": "LAKE CHARLES","state": "LA","zip": "70605","zip+4": "0000","phone": "3374779831"}
{"name": "WAL-MART PHARMACY #100469","address1": "3415 US 14","address2": "","city": "LAKE CHARLES","state": "LA","zip": "70607","zip+4": "0000","phone": "3374743503"}
{"name": "KROGER PHARMACY #35539","address1": "6652 YOUREE DRIVE","address2": "","city": "SHREVEPORT","state": "LA","zip": "71105","zip+4": "0000","phone": "3187959966"}
{"name": "WALGREEN DRUG STORE #4290","address1": "100 N MILITARY ROAD","address2": "","city": "SLIDELL","state": "LA","zip": "70461","zip+4": "0000","phone": "9856450511"}
{"name": "NIELSENS PHARMACY","address1": "1616 SOUTH COLUMBIA","address2": "","city": "BOGALUSA","state": "LA","zip": "70427","zip+4": "0000","phone": "9857325752"}
{"name": "WALGREEN DRUG STORE #4305","address1": "900 CANAL","address2": "","city": "NEW ORLEANS","state": "LA","zip": "70112","zip+4": "0000","phone": "5045689544"}
{"name": "WALGREEN DRUG STORE #4192","address1": "1017 E ADMIRAL DOYLE","address2": "","city": "NEW IBERIA","state": "LA","zip": "70560","zip+4": "0000","phone": "3373679668"}
{"name": "WALGREEN DRUG STORE #3990","address1": "1203 BUSINESS HIGHWAY 190","address2": "","city": "COVINGTON","state": "LA","zip": "70433","zip+4": "0000","phone": "9858938084"}
{"name": "CVS PHARMACY #05617","address1": "29881 WALKER SOUTH RD","address2": "","city": "WALKER","state": "LA","zip": "70785","zip+4": "0000","phone": "2256654580"}
{"name": "CVS PHARMACY #05615","address1": "2520 PLANK RD","address2": "","city": "BATON ROUGE","state": "LA","zip": "70805","zip+4": "0000","phone": "2253571484"}
{"name": "FREDS PHARMACY #1111","address1": "2017 EAST MADISON","address2": "","city": "BASTROP","state": "LA","zip": "71220","zip+4": "0000","phone": "3182816646"}
{"name": "BROOKSHIRES PHARMACY #00000001","address1": "4918 BARKSDALE BLVD","address2": "ATTENTION PHARMACY DEPT","city": "BOSSIER CITY","state": "LA","zip": "71112","zip+4": "0000","phone": "3185492107"}
{"name": "SAVON PHARMACY #2750","address1": "4857 GOVERNMENT ST","address2": "","city": "BATON ROUGE","state": "LA","zip": "70806","zip+4": "0000","phone": "2252162309"}
{"name": "BROOKSHIRE BROTHERS PHARMACY #","address1": "300 WEST 4TH STREET","address2": "","city": "DEQUINCY","state": "LA","zip": "70633","zip+4": "0000","phone": "3377865863"}
{"name": "CARMICHAELS PHARMACY IHP","address1": "1725 WEST SALE RD","address2": "","city": "LAKE CHARLES","state": "LA","zip": "70605","zip+4": "0000","phone": "3374747000"}
{"name": "CENTRAL DRUG STORE","address1": "13565 HOOPER RD","address2": "","city": "BATON ROUGE","state": "LA","zip": "70818","zip+4": "0000","phone": "2252626200"}
{"name": "WINN DIXIE #1583","address1": "1830 WEST AIRLINE HWY","address2": "","city": "LAPLACE","state": "LA","zip": "70068","zip+4": "0000","phone": "9856539974"}
{"name": "WINN DIXIE #1576","address1": "10974 JOOR RD","address2": "","city": "BATON ROUGE","state": "LA","zip": "70818","zip+4": "0000","phone": "2252614530"}
{"name": "WALGREEN DRUG STORE #4566","address1": "2700 JOHNSTON ST","address2": "","city": "LAFAYETTE","state": "LA","zip": "70503","zip+4": "0000","phone": "3372323664"}
{"name": "BROOKSHIRES PHARMACY #00000000","address1": "1117 POLK STREET","address2": "ATTENTION PHARMACY DEPT","city": "MANSFIELD","state": "LA","zip": "71052","zip+4": "0000","phone": "3188712976"}
{"name": "WINN DIXIE #1438","address1": "4700 E JUDGE PEREZ","address2": "","city": "MERAUX","state": "LA","zip": "70075","zip+4": "0000","phone": "5042719586"}
{"name": "FREDS PHARMACY #3006","address1": "5155 SHREVEPORT HWY SUITE 3","address2": "","city": "PINEVILLE","state": "LA","zip": "71477","zip+4": "0000","phone": "3186401682"}
{"name": "FREDS PHARMACY #1296","address1": "8155 US HWY 165","address2": "","city": "COLUMBIA","state": "LA","zip": "71418","zip+4": "0000","phone": "3186492642"}
{"name": "FREDS PHARMACY #1826","address1": "1075 HIGHWAY 80 EAST","address2": "","city": "HAUGHTON","state": "LA","zip": "71037","zip+4": "0000","phone": "3183909400"}
{"name": "WINN DIXIE #1500","address1": "4100 HWY 59","address2": "","city": "MANDEVILLE","state": "LA","zip": "70471","zip+4": "0000","phone": "9858930187"}
{"name": "WALGREEN DRUG STORE #4450","address1": "718 S CARROLLTON AVE","address2": "","city": "NEW ORLEANS","state": "LA","zip": "70118","zip+4": "0000","phone": "5048612787"}
{"name": "CS DISCOUNT PHARMACY #2","address1": "4650 W ESPLANADE AVE","address2": "","city": "METAIRIE","state": "LA","zip": "70006","zip+4": "0000","phone": "5044556780"}
{"name": "FREDS PHARMACY #2991","address1": "7130 US HWY 61","address2": "","city": "ST FRANCISVILLE","state": "LA","zip": "70775","zip+4": "0000","phone": "2256353885"}
{"name": "WINN DIXIE #1590","address1": "17682 AIRLINE HWY","address2": "","city": "PRAIRIEVILLE","state": "LA","zip": "70769","zip+4": "0000","phone": "2256779501"}
{"name": "SUPER 1 PHARMACY #0000000627","address1": "215 WEST WILLOW STREET","address2": "ATTENTION PHARMACY DEPT","city": "LAFAYETTE","state": "LA","zip": "70501","zip+4": "0000","phone": "3185729053"}
{"name": "FREDS PHARMACY #1711","address1": "228 WEST HWY 30","address2": "","city": "GONZALES","state": "LA","zip": "70737","zip+4": "0000","phone": "2256448661"}
{"name": "WEST CAL PHARMACY","address1": "701 CYPRESS ST","address2": "STE 4000","city": "SULPHUR","state": "LA","zip": "70663","zip+4": "0000","phone": "3375274174"}
{"name": "WINN DIXIE #1581","address1": "5005 CHURCH ST","address2": "","city": "ZACHARY","state": "LA","zip": "70791","zip+4": "0000","phone": "2256546388"}
{"name": "ROBICHAUXS PHARMACY INC","address1": "201 E BRIDGE ST","address2": "","city": "ST MARTINVILLE","state": "LA","zip": "70582","zip+4": "0000","phone": "3373948087"}
{"name": "WALGREEN DRUG STORE #4304","address1": "145 ELKS PLACE","address2": "","city": "NEW ORLEANS","state": "LA","zip": "70112","zip+4": "0000","phone": "5045255322"}
{"name": "SAVON PHARMACY #2756","address1": "1210 ALBERTSON PKWY","address2": "","city": "BROUSSARD","state": "LA","zip": "70518","zip+4": "0000","phone": "3378390530"}
{"name": "WALGREEN DRUG STORE #4998","address1": "9209 MANSFIELD ROAD","address2": "","city": "SHREVEPORT","state": "LA","zip": "71118","zip+4": "0000","phone": "3186719266"}
{"name": "RITE AID PHARMACY #07384","address1": "4848 ONEAL LANE","address2": "","city": "BATON ROUGE","state": "LA","zip": "70817","zip+4": "1639","phone": "2257539662"}
{"name": "FREDS PHARMACY #2171","address1": "2021 WEST AIRLINE HWY","address2": "","city": "LA PLACE","state": "LA","zip": "70069","zip+4": "0000","phone": "5046520174"}
{"name": "DAVIS DRUGS","address1": "116 JJJ LANE","address2": "","city": "SIMMESPORT","state": "LA","zip": "71369","zip+4": "0000","phone": "3189412296"}
{"name": "WINN DIXIE #1444","address1": "12125 HWY 90","address2": "","city": "LULING","state": "LA","zip": "70070","zip+4": "0000","phone": "9857859054"}
{"name": "WINN DIXIE #1453","address1": "6800 GREENWELL SPRINGS RD","address2": "","city": "BATON ROUGE","state": "LA","zip": "70805","zip+4": "0000","phone": "2252169442"}
{"name": "MEDICAP PHARMACY #8239","address1": "822 N BURNSIDE","address2": "","city": "GONZALES","state": "LA","zip": "70737","zip+4": "0000","phone": "2256441661"}
{"name": "WALGREEN DRUG STORE #4982","address1": "7401 READ BLVD","address2": "","city": "NEW ORLEANS","state": "LA","zip": "70127","zip+4": "0000","phone": "5042426035"}
{"name": "CREELS FAMILY PHARMACY LLC","address1": "26496 HWY 62","address2": "","city": "FRANKLINTON","state": "LA","zip": "70438","zip+4": "0000","phone": "9858485555"}
{"name": "CADES PHARMACY LLC","address1": "415 BIENVILLE ST","address2": "STE 7","city": "NATCHITOCHES","state": "LA","zip": "71457","zip+4": "0000","phone": "3183540501"}
{"name": "RITE AID PHARMACY #07397","address1": "7836 DESIARD STREET","address2": "","city": "MONROE","state": "LA","zip": "71203","zip+4": "4935","phone": "3183430942"}
{"name": "HAYDELS DRUG STORE #2","address1": "1042 GRAND CAILLOU RD","address2": "","city": "HOUMA","state": "LA","zip": "70363","zip+4": "0000","phone": "9858531242"}
{"name": "WINN DIXIE #1426","address1": "3008 HOLIDAY DR","address2": "","city": "NEW ORLEANS","state": "LA","zip": "70131","zip+4": "0000","phone": "5043981545"}
{"name": "WALGREEN DRUG STORE #5181","address1": "3555 GREENWOOD RD","address2": "","city": "SHREVEPORT","state": "LA","zip": "71109","zip+4": "5234","phone": "3185250140"}
{"name": "WALGREEN DRUG STORE #5163","address1": "300 SOUTHFIELD RD","address2": "","city": "SHREVEPORT","state": "LA","zip": "71105","zip+4": "4112","phone": "3182192230"}
{"name": "HEALTHCARE PHARMACY LLC","address1": "8720 QUIMPER PLACE","address2": "SUITE 300","city": "SHREVEPORT","state": "LA","zip": "71105","zip+4": "0000","phone": "3186719603"}
{"name": "WINN DIXIE #1555","address1": "3803 F MOSS ST","address2": "","city": "LAFAYETTE","state": "LA","zip": "70507","zip+4": "0000","phone": "3372648016"}
{"name": "WAL-MART PHARMACY #102665","address1": "167 NORTHSHORE BLVD","address2": "","city": "SLIDELL","state": "LA","zip": "70460","zip+4": "0000","phone": "9856900128"}
{"name": "BROOKSHIRES PHARMACY #00000000","address1": "817 WEST MAIN","address2": "ATTENTION PHARMACY DEPT","city": "HOMER","state": "LA","zip": "71040","zip+4": "0000","phone": "3189273537"}
{"name": "WALGREEN DRUG STORE #05358","address1": "11297 LAKE FOREST BLVD","address2": "","city": "NEW ORLEANS","state": "LA","zip": "70128","zip+4": "2822","phone": "5042482898"}
{"name": "ALPHA PHARMACEUTICAL COMPANY","address1": "3813 JEFFERSON HWY","address2": "","city": "JEFFERSON","state": "LA","zip": "70121","zip+4": "0000","phone": "5048320614"}
{"name": "ROBICHAUX'S PHARMACY","address1": "616 CRESCENT AVENUE","address2": "","city": "LOCKPORT","state": "LA","zip": "70374","zip+4": "0000","phone": "9855329140"}
{"name": "WINN DIXIE #1591","address1": "28145 WALKER SOUTH RD","address2": "","city": "WALKER","state": "LA","zip": "70785","zip+4": "0000","phone": "2257915640"}
{"name": "THE BLESSED PLACE PHARMACY","address1": "1501 A NEWTON ST","address2": "","city": "NEW ORLEANS","state": "LA","zip": "70114","zip+4": "0000","phone": "5043640900"}
{"name": "WALGREEN DRUG STORE #5230","address1": "818 WESTBANK EXPY","address2": "","city": "WESTWEGO","state": "LA","zip": "70094","zip+4": "0000","phone": "5043480574"}
{"name": "BROOKSHIRES PHARMACY #00000000","address1": "6280 HWY 3","address2": "ATTENTION PHARMACY DEPT","city": "BENTON","state": "LA","zip": "71006","zip+4": "0000","phone": "3189653669"}
{"name": "SAMS PHARMACY #106220","address1": "181 NORTHSHORE BLVD","address2": "","city": "SLIDELL","state": "LA","zip": "70460","zip+4": "0000","phone": "9856411525"}
{"name": "WAL-MART PHARMACY #102706","address1": "1501 MANHATTAN BLVD","address2": "","city": "HARVEY","state": "LA","zip": "70058","zip+4": "0000","phone": "5043663318"}
{"name": "WALGREEN DRUG STORE #5382","address1": "4330 HWY 22","address2": "","city": "MANDEVILLE","state": "LA","zip": "70471","zip+4": "0000","phone": "9856741622"}
{"name": "BEENES HEALTH MART DRUG STORE","address1": "402 E DARROW ST","address2": "","city": "TALLULAH","state": "LA","zip": "71282","zip+4": "0000","phone": "3185741351"}
{"name": "WALGREEN DRUG STORE #4626","address1": "2517 KALISTE SALOOM RD","address2": "","city": "LAFAYETTE","state": "LA","zip": "70508","zip+4": "0000","phone": "3379886383"}
{"name": "WINN DIXIE #1577","address1": "13002 COURSEY BLVD","address2": "","city": "BATON ROUGE","state": "LA","zip": "70816","zip+4": "0000","phone": "2257567110"}
{"name": "BROOKSHIRES PHARMACY #00000000","address1": "4070 STERLINGTON ROAD","address2": "ATTENTION PHARMACY DEPT","city": "MONROE","state": "LA","zip": "71203","zip+4": "0000","phone": "3183433390"}
{"name": "WALGREEN DRUG STORE #5633","address1": "2570 BARATARIA BLVD","address2": "","city": "MARRERO","state": "LA","zip": "70072","zip+4": "0000","phone": "5043487100"}
{"name": "WALGREEN DRUG STORE #5747","address1": "3747 MOSS ST","address2": "","city": "LAFAYETTE","state": "LA","zip": "70507","zip+4": "0000","phone": "3372919055"}
{"name": "WAL-MART PHARMACY #102822","address1": "28270 WALKER SOUTH","address2": "","city": "WALKER","state": "LA","zip": "70785","zip+4": "0000","phone": "2256676398"}
{"name": "ST FRANCIS MEDICAL CENTER","address1": "309 JACKSON ST","address2": "","city": "MONROE","state": "LA","zip": "71210","zip+4": "0000","phone": "3183277242"}
{"name": "WALGREEN DRUG STORE #5551","address1": "619 DECATUR ST","address2": "","city": "NEW ORLEANS","state": "LA","zip": "70130","zip+4": "0000","phone": "5045257260"}
{"name": "WALGREEN DRUG STORE #5516","address1": "4600 WESTBANK EXPWY","address2": "","city": "MARRERO","state": "LA","zip": "70072","zip+4": "0000","phone": "5043402778"}
{"name": "HEALTH MART PHARMACY","address1": "818 N CUSHING AVE","address2": "","city": "KAPLAN","state": "LA","zip": "70548","zip+4": "0000","phone": "3376438883"}
{"name": "SAMS PHARMACY #106527","address1": "10444 NORTH MALL DRIVE","address2": "","city": "BATON ROUGE","state": "LA","zip": "70809","zip+4": "0000","phone": "2252950914"}
{"name": "VIDRINE CLINIC PHCY","address1": "4940 VIDRINE RD","address2": "SUITE B","city": "VILLE PLATTE","state": "LA","zip": "70586","zip+4": "0000","phone": "3375063520"}
{"name": "OUR LADY OF LOURDES APOTHECARY","address1": "601 W SAINT MARY BLVD","address2": "","city": "LAFAYETTE","state": "LA","zip": "70506","zip+4": "0000","phone": "3372894040"}
{"name": "PATIO DRUGS HOMECARE PHARMACY","address1": "5208 VETERANS BLVD STE B","address2": "","city": "METAIRIE","state": "LA","zip": "70006","zip+4": "0000","phone": "5044567808"}
{"name": "WALGREEN DRUG STORE #6028","address1": "9820 OLD HAMMOND HWY","address2": "","city": "BATON ROUGE","state": "LA","zip": "70816","zip+4": "0000","phone": "2252481101"}
{"name": "WALGREEN DRUG STORE #5992","address1": "3124 LINE AVENUE","address2": "","city": "SHREVEPORT","state": "LA","zip": "71104","zip+4": "0000","phone": "3182225696"}
{"name": "WAL-MART PHARMACY #102938","address1": "2428 WEST PINHOOK ROAD","address2": "","city": "LAFAYETTE","state": "LA","zip": "70508","zip+4": "0000","phone": "3372311953"}
{"name": "PRESCRIPTION SPECIALTIES LLC","address1": "2708 SECOND AVE","address2": "STE B","city": "LAKE CHARLES","state": "LA","zip": "70601","zip+4": "0000","phone": "3375627979"}
{"name": "LLOYD'S REMEDIES APOTHECARY","address1": "3696 W MAIN ST","address2": "","city": "GRAY","state": "LA","zip": "70359","zip+4": "0000","phone": "9858724547"}
{"name": "SAMS PHARMACY #108260","address1": "6921 BUNDY ROAD","address2": "","city": "NEW ORLEANS","state": "LA","zip": "70127","zip+4": "0000","phone": "5042431290"}
{"name": "CARMICHAELS PHARMACY","address1": "1472 SOUTH COLLEGE RD","address2": "STE 102B","city": "LAFAYETTE","state": "LA","zip": "70503","zip+4": "0000","phone": "3372344656"}
{"name": "SAVON PHARMACY #2775","address1": "2863 AMBASSADOR CAFFERY","address2": "","city": "LAFAYETTE","state": "LA","zip": "70506","zip+4": "0000","phone": "3374068806"}
{"name": "SAMS PHARMACY #108204","address1": "7685 AIRLINE HIGHWAY","address2": "","city": "BATON ROUGE","state": "LA","zip": "70814","zip+4": "0000","phone": "2252149620"}
{"name": "SAMS PHARMACY #108221","address1": "1527 MANHATTAN BLVD","address2": "","city": "HARVEY","state": "LA","zip": "70058","zip+4": "0000","phone": "5042638919"}
{"name": "HARDINS COMPOUNDING PHARMACY","address1": "100 WESTLAND PL","address2": "STE C","city": "WEST MONROE","state": "LA","zip": "71291","zip+4": "0000","phone": "3183885592"}
{"name": "WINN DIXIE #1408","address1": "4600 CHEF MENTUER HWY","address2": "","city": "NEW ORLEANS","state": "LA","zip": "70126","zip+4": "0000","phone": "5049472101"}
{"name": "STEVENS PHARMACY INC","address1": "1000 COURT ST","address2": "STE A","city": "PORT ALLEN","state": "LA","zip": "70767","zip+4": "0000","phone": "2253364456"}
{"name": "WAL-MART PHARMACY #102913","address1": "13001 HWY 90","address2": "","city": "BOUTTE","state": "LA","zip": "70039","zip+4": "0000","phone": "9857858586"}
{"name": "SAVON PHARMACY #2747","address1": "15128 AIRLINE HWY","address2": "","city": "BATON ROUGE","state": "LA","zip": "70817","zip+4": "0000","phone": "2257514415"}
{"name": "FREDS PHARMACY #3231","address1": "2001 WEST COURT STREET","address2": "","city": "WINNFIELD","state": "LA","zip": "71483","zip+4": "0000","phone": "3186486410"}
{"name": "WINN DIXIE #1448","address1": "1001 HWY 190 SUITE 132","address2": "","city": "COVINGTON","state": "LA","zip": "70433","zip+4": "0000","phone": "9858937112"}
{"name": "FREDS PHARMACY #1526","address1": "2200 WEST LAUREL AVE","address2": "","city": "EUNICE","state": "LA","zip": "70535","zip+4": "0000","phone": "3374575699"}
{"name": "SAVON PHARMACY #2792","address1": "9960 BLUEBONNET BLVD","address2": "","city": "BATON ROUGE","state": "LA","zip": "70810","zip+4": "0000","phone": "2257687950"}
{"name": "NATIONAL PHARMACY SERVICES","address1": "8860 QUIMPER PLACE","address2": "SUITE 100","city": "SHREVEPORT","state": "LA","zip": "71105","zip+4": "0000","phone": "3187979517"}
{"name": "SAMS PHARMACY #108261","address1": "455 31ST STREET","address2": "","city": "KENNER","state": "LA","zip": "70065","zip+4": "0000","phone": "5044670914"}
{"name": "WALGREEN DRUG STORE #5801","address1": "1815 W AIRLINE HWY","address2": "","city": "LA PLACE","state": "LA","zip": "70068","zip+4": "0000","phone": "9856512516"}
{"name": "WALGREEN DRUG STORE #6274","address1": "3304 CYPRESS ST","address2": "","city": "WEST MONROE","state": "LA","zip": "71291","zip+4": "0000","phone": "3186518883"}
{"name": "TARGET PHARMACY #1347","address1": "7110 YOUREE DRIVE","address2": "","city": "SHREVEPORT","state": "LA","zip": "71105","zip+4": "0000","phone": "3187987860"}
{"name": "QVL PHARMACY #222","address1": "5555 ESSEN LANE","address2": "STE B","city": "BATON ROUGE","state": "LA","zip": "70809","zip+4": "0000","phone": "2257676329"}
{"name": "N AND T PHARMACY","address1": "1124 MARQUE ANN DR","address2": "STE B","city": "BATON ROUGE","state": "LA","zip": "70815","zip+4": "0000","phone": "2252720007"}
{"name": "CARR DRUGS #4","address1": "1111 MEDICAL CENTER BLVD","address2": "SUITE 116N","city": "MARRERO","state": "LA","zip": "70072","zip+4": "0000","phone": "5043496185"}
{"name": "WALGREEN DRUG STORE #6506","address1": "89 WESTBANK EXPRESSWAY","address2": "","city": "GRETNA","state": "LA","zip": "70053","zip+4": "0000","phone": "5043762322"}
{"name": "MADISONVILLE DRUGS INC","address1": "211 COVINGTON ST","address2": "","city": "MADISONVILLE","state": "LA","zip": "70447","zip+4": "0000","phone": "9857921711"}
{"name": "WALGREEN DRUG STORE #6190","address1": "1801 SW RAILROAD AVE","address2": "","city": "HAMMOND","state": "LA","zip": "70403","zip+4": "0000","phone": "9859029535"}
{"name": "WALGREEN DRUG STORE #6577","address1": "2755 COUNTRY CLUB RD","address2": "","city": "LAKE CHARLES","state": "LA","zip": "70605","zip+4": "0000","phone": "3374777751"}
{"name": "TARGET PHARMACY #1369","address1": "6885 SIEGEN LANE","address2": "","city": "BATON ROUGE","state": "LA","zip": "70809","zip+4": "0000","phone": "2252930652"}
{"name": "WELL CARE PHARMACY AND HOME IN","address1": "3911 SOUTHERN AVE","address2": "","city": "SHREVEPORT","state": "LA","zip": "71106","zip+4": "0000","phone": "3182129990"}
{"name": "WALGREEN DRUG STORE #5629","address1": "2822 AMBASSADOR CAFFERY PKWY","address2": "","city": "LAFAYETTE","state": "LA","zip": "70506","zip+4": "0000","phone": "3372169122"}
{"name": "MD PHARMACY INC","address1": "712 WESTBANK EXPRESSWAY","address2": "","city": "WESTWEGO","state": "LA","zip": "70094","zip+4": "0000","phone": "5043401110"}
{"name": "MCGEES PHARMACY","address1": "7731 PERKINS RD","address2": "STE 135","city": "BATON ROUGE","state": "LA","zip": "70810","zip+4": "0000","phone": "2257662121"}
{"name": "AL DAVIS PHARMACY INC","address1": "4708 HWY 1","address2": "","city": "RACELAND","state": "LA","zip": "70394","zip+4": "0000","phone": "9855377050"}
{"name": "BROOKSHIRES PHARMACY #00000000","address1": "5696 HIGHWAY 1 BYPASS","address2": "ATTENTION PHARMACY DEPT","city": "NATCHITOCHES","state": "LA","zip": "71457","zip+4": "0000","phone": "3182140048"}
{"name": "SAVON PHARMACY #2798","address1": "2750 COUNTRY CLUB RD","address2": "","city": "LAKE CHARLES","state": "LA","zip": "70605","zip+4": "0000","phone": "3374804132"}
{"name": "TARGET PHARMACY #1399","address1": "1720 PRIEN LAKE ROAD WEST","address2": "","city": "LAKE CHARLES","state": "LA","zip": "70601","zip+4": "0000","phone": "3375627802"}
{"name": "WALGREEN DRUG STORE #6849","address1": "2050 FLORIDA ST","address2": "","city": "MANDEVILLE","state": "LA","zip": "70448","zip+4": "0000","phone": "9859517153"}
{"name": "WAL-MART PHARMACY #103288","address1": "10200 SULLIVAN ROAD","address2": "","city": "BATON ROUGE","state": "LA","zip": "70818","zip+4": "0000","phone": "2252621413"}
{"name": "SAMS PHARMACY #108114","address1": "3222 AMBASSADOR CAFFERY PKWY","address2": "","city": "LAFAYETTE","state": "LA","zip": "70506","zip+4": "0000","phone": "3372160159"}
{"name": "WINN DIXIE #1329","address1": "211 VETERANS BLVD","address2": "","city": "METAIRIE","state": "LA","zip": "70005","zip+4": "0000","phone": "5048318298"}
{"name": "ABITA PHARMACY #1","address1": "22107 HIGHWAY 36","address2": "SUITE B","city": "ABITA SPRINGS","state": "LA","zip": "70420","zip+4": "0000","phone": "9858759906"}
{"name": "KROGER PHARMACY #34747","address1": "1421 S BEGLIS PARKWAY","address2": "","city": "SULPHUR","state": "LA","zip": "70663","zip+4": "0000","phone": "3375289918"}
{"name": "INFINITY HEALTH CARE INC","address1": "8894 AIRLINE HWY","address2": "SUITE A","city": "BATON ROUGE","state": "LA","zip": "70815","zip+4": "0000","phone": "2259227979"}
{"name": "WINN DIXIE #1428","address1": "3623 JEFFERSON HWY","address2": "","city": "JEFFERSON","state": "LA","zip": "70121","zip+4": "0000","phone": "5048317464"}
{"name": "WALGREEN DRUG STORE #7004","address1": "2107 AIRLINE DR","address2": "","city": "BOSSIER CITY","state": "LA","zip": "71111","zip+4": "0000","phone": "3187421737"}
{"name": "SUPER 1 PHARMACY #0000000633","address1": "745 SHREVEPORT BARKSDALE","address2": "ATTENTION PHARMACY DEPT","city": "SHREVEPORT","state": "LA","zip": "71105","zip+4": "0000","phone": "3188613985"}
{"name": "SAMS PHARMACY #104775","address1": "3900 AIRLINE HIGHWAY","address2": "","city": "METAIRIE","state": "LA","zip": "70001","zip+4": "0000","phone": "5048318484"}
{"name": "TOWNE PHARMACY","address1": "103 E MAIN ST","address2": "","city": "BROUSSARD","state": "LA","zip": "70518","zip+4": "0000","phone": "3378398880"}
{"name": "FREDS XPRESS #3616","address1": "1820 NE E WALLACE BLVD","address2": "","city": "FERRIDAY","state": "LA","zip": "71334","zip+4": "0000","phone": "3187578172"}
{"name": "TARGET PHARMACY #1449","address1": "4500 VETERANS BLVD","address2": "","city": "METAIRIE","state": "LA","zip": "70006","zip+4": "0000","phone": "5048887536"}
{"name": "TARGET PHARMACY #1450","address1": "1727 MARTIN LUTHER KING BLVD","address2": "","city": "HOUMA","state": "LA","zip": "70360","zip+4": "0000","phone": "9858578620"}
{"name": "TARGET PHARMACY #1469","address1": "4103 PECANLAND MALL ROAD","address2": "","city": "MONROE","state": "LA","zip": "71203","zip+4": "0000","phone": "3183883474"}
{"name": "TARGET PHARMACY #1451","address1": "1731 MANHATTAN BOULEVARD","address2": "","city": "HARVEY","state": "LA","zip": "70058","zip+4": "0000","phone": "5043641659"}
{"name": "WAL-MART PHARMACY #103483","address1": "933 GRAND CAILLOU ROAD","address2": "","city": "HOUMA","state": "LA","zip": "70363","zip+4": "0000","phone": "9859170121"}
{"name": "HEALTH MART PHARMACY OF LAKE A","address1": "500 HWY 26","address2": "","city": "LAKE ARTHUR","state": "LA","zip": "70549","zip+4": "0000","phone": "3377746622"}
{"name": "TARGET PHARMACY #1473","address1": "4313 AMBASSADOR CAFFERY PKWY","address2": "","city": "LAFAYETTE","state": "LA","zip": "70508","zip+4": "0000","phone": "3379819673"}
{"name": "WALGREEN DRUG STORE #7197","address1": "120 N HWY 171","address2": "","city": "MOSS BLUFF","state": "LA","zip": "70611","zip+4": "0000","phone": "3378552379"}
{"name": "HOLLIERS FAMILY PHARMACY","address1": "1456 E BRIDGE ST","address2": "","city": "BREAUX BRIDGE","state": "LA","zip": "70517","zip+4": "0000","phone": "3373325010"}
{"name": "S & B DRUGS","address1": "501 N CHESTNUT","address2": "","city": "TALLULAH","state": "LA","zip": "71282","zip+4": "0000","phone": "3185746363"}
{"name": "FREDS PHARMACY #3271","address1": "207 WASHINGTON STREET","address2": "","city": "WEST MONROE","state": "LA","zip": "71202","zip+4": "0000","phone": "3183617390"}
{"name": "FREDS XPRESS #3861","address1": "705 PLANK ROAD HWY 128","address2": "","city": "ST JOSEPH","state": "LA","zip": "71366","zip+4": "0000","phone": "3187664563"}
{"name": "WALGREEN DRUG STORE #7166","address1": "1102 PARKVIEW DR","address2": "","city": "NEW IBERIA","state": "LA","zip": "70563","zip+4": "0000","phone": "3375601554"}
{"name": "WALGREEN DRUG STORE #7095","address1": "1435 W TUNNEL BLVD","address2": "","city": "HOUMA","state": "LA","zip": "70360","zip+4": "0000","phone": "9852230940"}
{"name": "FREDS PHARMACY #1666","address1": "708 WASHINGTON STREET","address2": "","city": "FRANKLINTON","state": "LA","zip": "70438","zip+4": "0000","phone": "9858393748"}
{"name": "SAMS PHARMACY #108273","address1": "7400 YOUREE DRIVE","address2": "","city": "SHREVEPORT","state": "LA","zip": "71105","zip+4": "0000","phone": "3187980566"}
{"name": "WALGREEN DRUG STORE #7393","address1": "2201 VETERANS MEMORIAL DR","address2": "","city": "ABBEVILLE","state": "LA","zip": "70510","zip+4": "0000","phone": "3378980629"}
{"name": "TARGET PHARMACY #1498","address1": "61121 AIRPORT ROAD","address2": "","city": "SLIDELL","state": "LA","zip": "70460","zip+4": "0000","phone": "9857269627"}
{"name": "CASHWAY PHARMACY OF ABBEVILL","address1": "2509 CHARITY ST","address2": "","city": "ABBEVILLE","state": "LA","zip": "70510","zip+4": "4093","phone": "3378932131"}
{"name": "WALGREEN DRUG STORE #7426","address1": "410 CRESSWELL LANE","address2": "","city": "OPELOUSAS","state": "LA","zip": "70570","zip+4": "0000","phone": "3379422459"}
{"name": "PINE PRAIRIE PHARMACY LLC","address1": "10711 VETERANS MEMORIAL HWY","address2": "","city": "PINE PRAIRIE","state": "LA","zip": "70576","zip+4": "0000","phone": "3375992050"}
{"name": "WALGREEN DRUG STORE #7440","address1": "2001 ONEAL LANE","address2": "","city": "BATON ROUGE","state": "LA","zip": "70816","zip+4": "0000","phone": "2257568509"}
{"name": "WALGREEN DRUG STORE #7595","address1": "6101 W 70TH ST","address2": "","city": "SHREVEPORT","state": "LA","zip": "71129","zip+4": "0000","phone": "3186881393"}
{"name": "WALGREEN DRUG STORE #7696","address1": "1401 REES ST","address2": "","city": "BREAUX BRIDGE","state": "LA","zip": "70517","zip+4": "0000","phone": "3375073810"}
{"name": "WALGREEN DRUG STORE #7415","address1": "100 W JUDGE PEREZ DR","address2": "","city": "CHALMETTE","state": "LA","zip": "70043","zip+4": "0000","phone": "5042762719"}
{"name": "H S REMEDIES PHARMACY","address1": "3600 GEN MEYER AVE","address2": "STE C","city": "NEW ORLEANS","state": "LA","zip": "70114","zip+4": "0000","phone": "5043246270"}
{"name": "WALGREEN DRUG STORE #6448","address1": "4485 PERKINS RD","address2": "","city": "BATON ROUGE","state": "LA","zip": "70808","zip+4": "0000","phone": "2259260337"}
{"name": "QVL PHARMACY #201","address1": "1303 LINE AVE","address2": "STE 300","city": "SHREVEPORT","state": "LA","zip": "71101","zip+4": "0000","phone": "3182222405"}
{"name": "WALGREEN DRUG STORE #4285","address1": "4142 PONTCHARTRAIN DR","address2": "","city": "SLIDELL","state": "LA","zip": "70458","zip+4": "0000","phone": "9856493017"}
{"name": "LTC DISPENSARY LLC","address1": "257 FLORIDA BLVD SE","address2": "STE B","city": "DENHAM SPRINGS","state": "LA","zip": "70726","zip+4": "0000","phone": "2256658606"}
{"name": "PRESCRIPTIONS PLUS AND GIFTS","address1": "8080 BLUEBONNET BLVD","address2": "STE 2000","city": "BATON ROUGE","state": "LA","zip": "70810","zip+4": "0000","phone": "2254086650"}
{"name": "MONTGOMERY PHARMACY","address1": "1101 CADDO ST","address2": "","city": "MONTGOMERY","state": "LA","zip": "71454","zip+4": "0000","phone": "3186466877"}
{"name": "WALGREEN DRUG STORE #7795","address1": "6515 SULLIVAN RD","address2": "","city": "GREENWELL SPRINGS","state": "LA","zip": "70818","zip+4": "0000","phone": "2252613049"}
{"name": "AVITA DRUGS LLC","address1": "6226 JEFFERSON HIGHWAY","address2": "STE G","city": "HARAHAN","state": "LA","zip": "70123","zip+4": "0000","phone": "5047374007"}
{"name": "LEE ROAD DRUGS","address1": "19705 HWY 40","address2": "STE 100","city": "COVINGTON","state": "LA","zip": "70435","zip+4": "0000","phone": "9858924800"}
{"name": "WAL-MART PHARMACY #105328","address1": "14241 COURSEY BLVD","address2": "","city": "BATON ROUGE","state": "LA","zip": "70817","zip+4": "0000","phone": "2257527949"}
{"name": "WALGREEN DRUG STORE #7836","address1": "3671 JOOR RD","address2": "","city": "BATON ROUGE","state": "LA","zip": "70814","zip+4": "0000","phone": "2259241167"}
{"name": "F AND M SPECIALTY PHARMACY","address1": "118 VILLAGE ST","address2": "STE D","city": "SLIDELL","state": "LA","zip": "70458","zip+4": "0000","phone": "9857816798"}
{"name": "PMO PHARMACY MANAGEMENT SHREVE","address1": "2255 WOODWARD AVE","address2": "","city": "SHREVEPORT","state": "LA","zip": "71103","zip+4": "0000","phone": "3184290161"}
{"name": "BERNARDS FAMILY PHARMACY LLC","address1": "34876 LA HWY 1019","address2": "","city": "DENHAM SPRINGS","state": "LA","zip": "70706","zip+4": "0000","phone": "2256674286"}
{"name": "TARGET PHARMACY #1876","address1": "69320 HIGHWAY 21","address2": "","city": "COVINGTON","state": "LA","zip": "70443","zip+4": "0000","phone": "9858757916"}
{"name": "FAMILY DRUG STORE","address1": "1710 JOHNSON ST","address2": "","city": "JENNINGS","state": "LA","zip": "70546","zip+4": "0000","phone": "3378242800"}
{"name": "COURSEY URGENT CARE","address1": "13702 COURSEY BLVD","address2": "BLDG 10 STE B","city": "BATON ROUGE","state": "LA","zip": "70817","zip+4": "0000","phone": "2257551400"}
{"name": "DIABETES MANAGEMENTAND SUPPLES","address1": "10 COMMERCE CT","address2": "STE B","city": "NEW ORLEANS","state": "LA","zip": "70123","zip+4": "0000","phone": "5047347165"}
{"name": "LG PHARMACY LLC","address1": "9936 FLORIDA BLVD","address2": "STE A","city": "BATON ROUGE","state": "LA","zip": "70815","zip+4": "0000","phone": "2259279972"}
{"name": "CLINIC PHARMACY OF MANGHAM LLC","address1": "252 HWY 132","address2": "","city": "MANGHAM","state": "LA","zip": "71259","zip+4": "0000","phone": "3182483338"}
{"name": "MESSINAS PHARMACYINC","address1": "15046 MARKET ST","address2": "","city": "BATON ROUGE","state": "LA","zip": "70817","zip+4": "0000","phone": "2257532700"}
{"name": "WALGREEN DRUG STORE #2469","address1": "200 W ESPLANADE AVE","address2": "","city": "KENNER","state": "LA","zip": "70065","zip+4": "0000","phone": "5044710642"}
{"name": "WAL-MART PHARMACY #105022","address1": "1901 TCHOUPITOULAS STREET","address2": "","city": "NEW ORLEANS","state": "LA","zip": "70130","zip+4": "0000","phone": "5045226959"}
{"name": "HOUMA URGENT CARE PHARMACY","address1": "131 CORPORATE DR","address2": "","city": "HOUMA","state": "LA","zip": "70360","zip+4": "0000","phone": "9855809996"}
{"name": "WALGREEN DRUG STORE #7083","address1": "9983 BLUEBONNET BLVD","address2": "","city": "BATON ROUGE","state": "LA","zip": "70810","zip+4": "0000","phone": "2257690369"}
{"name": "WALGREEN DRUG STORE #2004","address1": "1850 W PINHOOK RD","address2": "","city": "LAFAYETTE","state": "LA","zip": "70508","zip+4": "0000","phone": "3372674486"}
{"name": "FORSHAGS DRUGSTORE","address1": "1919 MAIN ST","address2": "","city": "FRANKLINTON","state": "LA","zip": "70438","zip+4": "0000","phone": "9858394486"}
{"name": "SHENANDOAH MEDICAL ASSOC","address1": "13828 COURSEY BLVD","address2": "","city": "BATON ROUGE","state": "LA","zip": "70817","zip+4": "0000","phone": "2257524530"}
{"name": "WALGREEN DRUG STORE #9182","address1": "3400 MILITARY HWY","address2": "","city": "PINEVILLE","state": "LA","zip": "71360","zip+4": "0000","phone": "3186403049"}
{"name": "FREDS XPRESS #3691","address1": "832 FOURTH AVENUE","address2": "","city": "KINDER","state": "LA","zip": "70648","zip+4": "0000","phone": "3377382614"}
{"name": "WALGREEN DRUG STORE #7261","address1": "457 LAPALCO BLVD","address2": "","city": "GRETNA","state": "LA","zip": "70056","zip+4": "0000","phone": "5043930128"}
{"name": "HOUMA HEALTH CLINIC","address1": "827 BAYOU GARDENS BLVD","address2": "","city": "HOUMA","state": "LA","zip": "70360","zip+4": "0000","phone": "9858532343"}
{"name": "ASPEN PHARMACY","address1": "5745 PLAUCHE CT","address2": "","city": "HARAHAN","state": "LA","zip": "70123","zip+4": "0000","phone": "5047340333"}
{"name": "WALGREEN DRUG STORE #2012","address1": "4444 JACKSON ST","address2": "","city": "ALEXANDRIA","state": "LA","zip": "71303","zip+4": "0000","phone": "3184481620"}
{"name": "THE DRUG STORE","address1": "857 SAM HOUSTON JONES PKWY","address2": "","city": "LAKE CHARLES","state": "LA","zip": "70611","zip+4": "0000","phone": "3378551990"}
{"name": "COMMUNITY PHARMACY","address1": "731 S MAIN ST","address2": "SUITE B","city": "CHURCH POINT","state": "LA","zip": "70525","zip+4": "0000","phone": "3376841911"}
{"name": "WALGREEN DRUG STORE #1657","address1": "3333 MASONIC DR","address2": "","city": "ALEXANDRIA","state": "LA","zip": "70003","zip+4": "5134","phone": "3184455198"}
{"name": "WALGREEN DRUG STORE #6672","address1": "909 DAVID DR","address2": "","city": "METAIRIE","state": "LA","zip": "70003","zip+4": "5134","phone": "5048181056"}
{"name": "WELLNECESSITIES PHARMACY LLC","address1": "8835 LINE AVE","address2": "STE 500","city": "SHREVEPORT","state": "LA","zip": "71106","zip+4": "0000","phone": "3182220885"}
{"name": "FREDS PHARMACY #2284","address1": "1208 HOMER RD","address2": "","city": "MINDEN","state": "LA","zip": "71055","zip+4": "0000","phone": "3183711292"}
{"name": "WALGREEN DRUG STORE #2468","address1": "4545 W ESPLANADE AVE","address2": "","city": "METAIRIE","state": "LA","zip": "70006","zip+4": "0000","phone": "5048880125"}
{"name": "CVS PHARMACY #08309","address1": "5360 HIGHLAND ROAD","address2": "","city": "BATON ROUGE","state": "LA","zip": "70808","zip+4": "0000","phone": "2257571023"}
{"name": "MEDICAL PHARMACY WEST","address1": "2250 CHURCH ST","address2": "","city": "ZACHARY","state": "LA","zip": "70791","zip+4": "0000","phone": "2256588101"}
{"name": "NATIONAL PHARMACY","address1": "10105 PARK ROWE CIR","address2": "STE A","city": "BATON ROUGE","state": "LA","zip": "70810","zip+4": "0000","phone": "2257672044"}
{"name": "WALGREEN DRUG STORE #9492","address1": "3100 N MARKET ST","address2": "","city": "SHREVEPORT","state": "LA","zip": "71107","zip+4": "0000","phone": "3186810923"}
{"name": "DIABETIC PHARMACY CENTRE","address1": "7970 JEFFERSON HWY","address2": "STE A","city": "BATON ROUGE","state": "LA","zip": "70809","zip+4": "0000","phone": "2252480081"}
{"name": "FREDS PHARMACY #1324","address1": "109 CHEVY LANE SUITE B","address2": "","city": "BUNKIE","state": "LA","zip": "71322","zip+4": "0000","phone": "3183461112"}
{"name": "FREDS PHARMACY #2334","address1": "899 HWY 171 NORTH","address2": "","city": "LAKE CHARLES","state": "LA","zip": "70611","zip+4": "0000","phone": "3378554031"}
{"name": "LAKEFRONT PHARMACY","address1": "6510 SPANISH FORT BLVD","address2": "","city": "NEW ORLEANS","state": "LA","zip": "70124","zip+4": "0000","phone": "5042832926"}
{"name": "WALGREEN DRUG STORE #9526","address1": "3100 HIGHWAY 28 EAST","address2": "","city": "PINEVILLE","state": "LA","zip": "71360","zip+4": "0000","phone": "3185612057"}
{"name": "THE PHARMACISTS CORNER","address1": "17733 JEFFERSON HWY","address2": "","city": "PRAIRIEVILLE","state": "LA","zip": "70769","zip+4": "0000","phone": "2256779088"}
{"name": "QVL PHARMACY #224","address1": "3501 SEVERN AVE STE","address2": "STE 3A","city": "METAIRIE","state": "LA","zip": "70002","zip+4": "0000","phone": "5048898483"}
{"name": "BRYAN J BIENVENU MD","address1": "LOUISIANA HEMATOLOGY ONCOLOGY","address2": "4950 ESSEN LANE","city": "BATON ROUGE","state": "LA","zip": "70809","zip+4": "0000","phone": "2257671311"}
{"name": "THE PRESCRIPTION SHOPPE","address1": "104 W LINE AVE","address2": "","city": "RUSTON","state": "LA","zip": "71270","zip+4": "0000","phone": "3182557363"}
{"name": "FREDS PHARMACY #2799","address1": "2019 FARMERVILLE HWY","address2": "","city": "RUSTON","state": "LA","zip": "71270","zip+4": "0000","phone": "3182553044"}
{"name": "CROSSROADS PHARMACY","address1": "3592 HWY 28 EAST","address2": "","city": "PINEVILLE","state": "LA","zip": "71360","zip+4": "0000","phone": "3184433100"}
{"name": "WALGREEN DRUG STORE #9086","address1": "2801 LOUISVILLE AVE","address2": "","city": "MONROE","state": "LA","zip": "71201","zip+4": "6655","phone": "3183872954"}
{"name": "THE COMPOUNDING PHARMACY OF SC","address1": "5900 CAMERON ST","address2": "STE 100A","city": "SCOTT","state": "LA","zip": "70583","zip+4": "0000","phone": "3372332003"}
{"name": "WAL-MART PHARMACY #105056","address1": "17585 AIRLINE HIGHWAY","address2": "","city": "PRAIRIEVILLE","state": "LA","zip": "70769","zip+4": "0000","phone": "2256777390"}
{"name": "WALGREEN DRUG STORE #9485","address1": "300 KEYSER AVE","address2": "","city": "NATCHITOCHES","state": "LA","zip": "71457","zip+4": "0000","phone": "3183570421"}
{"name": "WALGREEN DRUG STORE #9645","address1": "73626 HIGHWAY 25","address2": "","city": "COVINGTON","state": "LA","zip": "70435","zip+4": "0000","phone": "9858099838"}
{"name": "OUR LADY OF GUADALUPE PHARMACY","address1": "904 HIGHWAY 363","address2": "","city": "WASHINGTON","state": "LA","zip": "70589","zip+4": "0000","phone": "3378269810"}
{"name": "WALGREEN DRUG STORE #9753","address1": "38000 HWY 3089","address2": "","city": "DONALDSONVILLE","state": "LA","zip": "70346","zip+4": "0000","phone": "2254731678"}
{"name": "CARMICHAEALS LTC OF CROWLEY","address1": "1004 N PARKERSON AVE","address2": "","city": "CROWLEY","state": "LA","zip": "70526","zip+4": "0000","phone": "3377837200"}
{"name": "SUPER 1 PHARMACY #0000000636","address1": "2418 SOUTH UNION","address2": "ATTENTION PHARMACY DEPT","city": "OPELOUSAS","state": "LA","zip": "70570","zip+4": "0000","phone": "3379423674"}
{"name": "VAN MOL FAMILY PHARMACY","address1": "9374 HWY 165 SOUTH","address2": "","city": "WOODWORTH","state": "LA","zip": "71485","zip+4": "0000","phone": "3184437073"}
{"name": "WAL-MART PHARMACY #103703","address1": "3520 WILLIAMS BLVD","address2": "","city": "KENNER","state": "LA","zip": "70065","zip+4": "0000","phone": "5044666848"}
{"name": "SAMS PHARMACY #108265","address1": "2025 SAMS WAY","address2": "","city": "LAKE CHARLES","state": "LA","zip": "70605","zip+4": "0000","phone": "3374772775"}
{"name": "TARGET PHARMACY #2089","address1": "2001 MILLERVILLE RD","address2": "","city": "BATON ROUGE","state": "LA","zip": "70816","zip+4": "0000","phone": "2252752109"}
{"name": "LEGENDS PHARMACY","address1": "222 BELL LN STE 5A","address2": "","city": "WEST MONROE","state": "LA","zip": "71291","zip+4": "0000","phone": "3189983018"}
{"name": "WALGREEN DRUG STORE #9861","address1": "13500 HIGHWAY 90","address2": "","city": "BOUTTE","state": "LA","zip": "70039","zip+4": "0000","phone": "9853310318"}
{"name": "DAVID RAINES COMM HEALTHCENTER","address1": "1625 DAVID RAINES RD","address2": "","city": "SHREVEPORT","state": "LA","zip": "71107","zip+4": "0000","phone": "3182273355"}
{"name": "ONCOLOGY RX","address1": "1111 MEDICAL CENTER BLVD","address2": "STE 670","city": "MARRERO","state": "LA","zip": "70072","zip+4": "0000","phone": "5043496025"}
{"name": "ONCOLOGY RX","address1": "3440 DIVISION ST","address2": "STE I","city": "METAIRE","state": "LA","zip": "70002","zip+4": "0000","phone": "5048885873"}
{"name": "ONCOLOGY RX","address1": "39 STARBRUSH CIR","address2": "","city": "COVINGTON","state": "LA","zip": "70433","zip+4": "0000","phone": "9858926957"}
{"name": "SAMS PHARMACY #106521","address1": "2174 MARTIN LUTHER KING BLVD","address2": "","city": "HOUMA","state": "LA","zip": "70360","zip+4": "0000","phone": "9858512142"}
{"name": "WALGREEN DRUG STORE #9862","address1": "1204 THE BLVD","address2": "","city": "RAYNE","state": "LA","zip": "70578","zip+4": "0000","phone": "3373346608"}
{"name": "MONROE CLINIC DRUGS INC","address1": "1470 GARRETT RD STE A","address2": "","city": "MONROE","state": "LA","zip": "71202","zip+4": "0000","phone": "3183309393"}
{"name": "WALGREEN DRUG STORE #9860","address1": "5955 AIRLINE HWY","address2": "","city": "BATON ROUGE","state": "LA","zip": "70805","zip+4": "0000","phone": "2253556845"}
{"name": "KENS THRIFTY WAY PHCY HOME MED","address1": "333 HEYMANN BLVD","address2": "","city": "LAFAYETTE","state": "LA","zip": "70570","zip+4": "0000","phone": "3372664621"}
{"name": "C AND C DRUGS","address1": "8101 W JUDGE PEREZ DR","address2": "","city": "CHALMETTE","state": "LA","zip": "70043","zip+4": "0000","phone": "5042790446"}
{"name": "PEARSON SPECIALTY PHARMACY","address1": "2804 N BOLTON AVE","address2": "","city": "ALEXANDRIA","state": "LA","zip": "71303","zip+4": "0000","phone": "3184487366"}
{"name": "WALGREEN DRUG STORE #9998","address1": "3400 AIRLINE DR","address2": "","city": "BOSSIER CITY","state": "LA","zip": "71111","zip+4": "0000","phone": "3187411942"}
{"name": "HEALTH MART PHARMACY OF JENNIN","address1": "1322 ELTON ROAD","address2": "SUITE A","city": "JENNINGS","state": "LA","zip": "70546","zip+4": "0000","phone": "3376169500"}
{"name": "WALGREEN DRUG STORE #09990","address1": "71041 HWY 21","address2": "","city": "COVINGTON","state": "LA","zip": "70433","zip+4": "7120","phone": "9858750715"}
{"name": "RALPHS PHARMACY","address1": "15013 HWY 44","address2": "STE B","city": "GONZALES","state": "LA","zip": "70737","zip+4": "0000","phone": "2256220445"}
{"name": "LOUISIANA DERMATOLOGY ASSOC LL","address1": "10154 JEFFERSON HWY","address2": "","city": "BATON ROUGE","state": "LA","zip": "70809","zip+4": "0000","phone": "2259275663"}
{"name": "DUTCHTOWN PHARMACY LLC","address1": "13011 HWY 73","address2": "","city": "GEISMAR","state": "LA","zip": "70734","zip+4": "0000","phone": "2256775070"}
{"name": "WALGREEN DRUG STORE #10399","address1": "806 ODD FELLOWS RD","address2": "","city": "CROWLEY","state": "LA","zip": "70526","zip+4": "2214","phone": "3377838316"}
{"name": "WAL-MART PHARMACY #103616","address1": "1200 WEST OAK STREET","address2": "","city": "AMITE","state": "LA","zip": "70422","zip+4": "0000","phone": "9857487076"}
{"name": "FAMILY DRUG MART #1","address1": "140 GAUSE BLVD","address2": "","city": "SLIDELL","state": "LA","zip": "70458","zip+4": "0000","phone": "9856417557"}
{"name": "WALGREEN DRUG STORE #10510","address1": "5349 CYPRESS ST","address2": "","city": "WEST MONROE","state": "LA","zip": "71291","zip+4": "7505","phone": "3183978152"}
{"name": "FREDS STORES OF TN INC #1534","address1": "5604 HWY 3","address2": "","city": "BENTON","state": "LA","zip": "71006","zip+4": "0000","phone": "3187460151"}
{"name": "WESTBANK URGENT CARE","address1": "148 WALL BLVD","address2": "","city": "GRETNA","state": "LA","zip": "70056","zip+4": "0000","phone": "5043932273"}
{"name": "WALGREEN DRUG STORE #09690","address1": "1100 W PINE ST","address2": "","city": "PONCHATOULA","state": "LA","zip": "70454","zip+4": "3700","phone": "9853862421"}
{"name": "CVS PHARMACY #00266","address1": "2000 RYAN ST","address2": "","city": "LAKE CHARLES","state": "LA","zip": "70601","zip+4": "0000","phone": "3374394241"}
{"name": "SWLA CENTER FOR HEALTH SERVICE","address1": "2000 OPELOUSAS ST","address2": "","city": "LAKE CHARLES","state": "LA","zip": "70601","zip+4": "0000","phone": "3374935144"}
{"name": "WALGREEN DRUG STORE #10536","address1": "1931 MADISON AVE","address2": "","city": "BASTROP","state": "LA","zip": "71220","zip+4": "4069","phone": "3182817410"}
{"name": "GREEN CLINIC PHCY","address1": "1200 S FARMERVILLE ST","address2": "","city": "RUSTON","state": "LA","zip": "71270","zip+4": "0000","phone": "3182516332"}
{"name": "WALGREEN DRUG STORE #10400","address1": "34865 LA HIGHWAY 16","address2": "","city": "DENHAM SPRINGS","state": "LA","zip": "70706","zip+4": "0669","phone": "2256652428"}
{"name": "CVS PHARMACY #01099","address1": "4828 NELSON RD","address2": "","city": "LAKE CHARLES","state": "LA","zip": "70605","zip+4": "0000","phone": "3374479068"}
{"name": "LA PHARMACIE","address1": "209 S AIRLINE HWY","address2": "","city": "GONZALES","state": "LA","zip": "70737","zip+4": "0000","phone": "2256447424"}
{"name": "WALGREEN DRUG STORE #10509","address1": "105 S CITIES SERVICE HWY","address2": "","city": "SULPHER","state": "LA","zip": "70663","zip+4": "0000","phone": "3375331137"}
{"name": "CARMICHAELS PHARMACY LTC","address1": "1472 S COLLEGE RD","address2": "STE 102A","city": "LAFAYETTE","state": "LA","zip": "70503","zip+4": "0000","phone": "3372344656"}
{"name": "CANNONS DISCOUNT PHARMACY LLC","address1": "13351 E ALESSI RD","address2": "","city": "INDEPENDENCE","state": "LA","zip": "70443","zip+4": "0000","phone": "9858785555"}
{"name": "WALGREEN DRUG STORE #10267","address1": "5831 W PARK AVE","address2": "","city": "HOUMA","state": "LA","zip": "70364","zip+4": "1424","phone": "9858689118"}
{"name": "WALGREEN DRUG STORE #10508","address1": "4097 RYAN ST","address2": "","city": "LAKE CHARLES","state": "LA","zip": "70605","zip+4": "0000","phone": "3374740434"}
{"name": "CVS PHARMACY #01579","address1": "6800 JOHNSTON ST","address2": "","city": "LAFAYETTE","state": "LA","zip": "70503","zip+4": "0000","phone": "3379939883"}
{"name": "CVS PHARMACY #01116","address1": "7777 BLUEBONNET BLVD","address2": "STE 100","city": "BATON ROUGE","state": "LA","zip": "70810","zip+4": "0000","phone": "2257669091"}
{"name": "TRINITY SPECIALITY PHARMACY #1","address1": "2800 E GAUSE BLVD","address2": "STE F","city": "SLIDELL","state": "LA","zip": "70461","zip+4": "0000","phone": "9856414252"}
{"name": "CVS PHARMACY #04068","address1": "998 HWY 80","address2": "","city": "HAUGHTON","state": "LA","zip": "71037","zip+4": "0000","phone": "3183907780"}
{"name": "WALGREEN DRUG STORE #10538","address1": "2008 S 5TH ST","address2": "","city": "LEESVILLE","state": "LA","zip": "71446","zip+4": "5314","phone": "3372392285"}
{"name": "COUNTRY DRUG","address1": "202 SOUTH AVE","address2": "STE A","city": "VIVIAN","state": "LA","zip": "71082","zip+4": "0000","phone": "3183753784"}
{"name": "WALGREENS DRUG STORE #10577","address1": "1804 ELTON RD","address2": "","city": "JENNINGS","state": "LA","zip": "70546","zip+4": "3002","phone": "3378240945"}
{"name": "WAL-MART PHARMACY #105327","address1": "9830 OLD HAMMOND HIGHWAY","address2": "","city": "BATON ROUGE","state": "LA","zip": "70816","zip+4": "0000","phone": "2252481771"}
{"name": "ST CLAUDE PHARMACY","address1": "3916 ST CLAUDE ST","address2": "","city": "NEW ORLEANS","state": "LA","zip": "70117","zip+4": "0000","phone": "5049425792"}
{"name": "TARGET PHARMACY #2273","address1": "2735 BEENE BLVD","address2": "","city": "BOSSIER CITY","state": "LA","zip": "71111","zip+4": "0000","phone": "3186786801"}
{"name": "WALGREENS DRUG STORE #10537","address1": "916 N PINE ST","address2": "","city": "DERIDDER","state": "LA","zip": "70634","zip+4": "2814","phone": "3374622019"}
{"name": "HOUMA FAMILY DRUGS","address1": "606 LIBERTY ST","address2": "STE A","city": "HOUMA","state": "LA","zip": "70360","zip+4": "0000","phone": "9858722552"}
{"name": "THE PILL BOX","address1": "4740 JACKSON ST","address2": "","city": "ALEXANDRIA","state": "LA","zip": "71303","zip+4": "2000","phone": "3184482445"}
{"name": "BROAD AVENUE PHARMACY","address1": "1400 NORTH BROAD AVE","address2": "","city": "NEW ORLEANS","state": "LA","zip": "70119","zip+4": "0000","phone": "5043094388"}
{"name": "WAL-MART PHARMACY #103868","address1": "1125 SHREVEPORT BARKSDALE HWY","address2": "","city": "SHREVEPORT","state": "LA","zip": "71105","zip+4": "0000","phone": "3188619212"}
{"name": "WAL-MART PHARMACY #100402","address1": "1932 REES STREET","address2": "","city": "BREAUX BRIDGE","state": "LA","zip": "70517","zip+4": "0000","phone": "3373321100"}
{"name": "WALGREENS DRUG STORE #09997","address1": "217 SUPERIOR AVE","address2": "","city": "BOGALUSA","state": "LA","zip": "70427","zip+4": "2622","phone": "9857356434"}
{"name": "PHARMACY CITY LLC","address1": "3805 JEFFERSON HWY","address2": "","city": "JEFFERSON","state": "LA","zip": "70121","zip+4": "0000","phone": "5048342525"}
{"name": "PHARMACY CITY LLC","address1": "1201 ROBERT BLVD","address2": "","city": "SLIDELL","state": "LA","zip": "70458","zip+4": "0000","phone": "9856430087"}
{"name": "WAL-MART PHARMACY #104659","address1": "5255 HIGHLAND ROAD","address2": "","city": "BATON ROUGE","state": "LA","zip": "70808","zip+4": "0000","phone": "2257667778"}
{"name": "WALGREENS DRUG STORE #05866","address1": "2418 S CARROLLTON AVE","address2": "","city": "NEW ORLEANS","state": "LA","zip": "70118","zip+4": "3012","phone": "5048615033"}
{"name": "WALGREENS DRUG STORE #11196","address1": "12506 HIGHWAY 73","address2": "","city": "GEISMAR","state": "LA","zip": "70734","zip+4": "3209","phone": "2256777607"}
{"name": "WALGREENS DRUG STORE #11139","address1": "108 W CALIFORNIA AVE","address2": "","city": "RUSTON","state": "LA","zip": "71270","zip+4": "5014","phone": "3182551811"}
{"name": "WALGREEN DRUG STORE #09518","address1": "15929 AIRLINE HWY","address2": "","city": "BATON ROUGE","state": "LA","zip": "70805","zip+4": "0000","phone": "2257527159"}
{"name": "WALGREEN DRUG STORE #11413","address1": "105 W HIGHWAY 30","address2": "","city": "GONZALES","state": "LA","zip": "70737","zip+4": "4802","phone": "2256440434"}
{"name": "WALGREEN DRUG STORE #03557","address1": "5501 CROWDER BLVD","address2": "","city": "NEW ORLEANS","state": "LA","zip": "70127","zip+4": "2903","phone": "5042411456"}
{"name": "HAYDELS DRUGS STORE #3","address1": "4752 HWY 311","address2": "STE 100","city": "HOUMA","state": "LA","zip": "70360","zip+4": "0000","phone": "9858792400"}
{"name": "CVS PHARMACY #01661","address1": "17122 AIRLINE WHY","address2": "","city": "PRAIRIEVILLE","state": "LA","zip": "70769","zip+4": "0000","phone": "2256739971"}
{"name": "WALGREEN DRUG STORE #11138","address1": "1415 SAINT CHARLES ST","address2": "","city": "HOUMA","state": "LA","zip": "70360","zip+4": "3964","phone": "9858684033"}
{"name": "FAMILY DRUG MART #2","address1": "61461 HWY 1090","address2": "","city": "PEARL RIVER","state": "LA","zip": "70452","zip+4": "0000","phone": "9858633737"}
{"name": "WALGREEN DRUG STORE #11281","address1": "1607 N AIRLINE HWY","address2": "","city": "GONZALES","state": "LA","zip": "70737","zip+4": "2101","phone": "2256443184"}
{"name": "TARGET PHARMACY #2377","address1": "3225 LOUISIANA AVE","address2": "","city": "LAFAYETTE","state": "LA","zip": "70501","zip+4": "0000","phone": "3377697516"}
{"name": "PAULS PHARMACY LORANGER","address1": "54033 HWY 1062","address2": "","city": "LORANGER","state": "LA","zip": "70446","zip+4": "0000","phone": "9858786622"}
{"name": "DERMATOLOGY CLINIC","address1": "5326 ODONOVAN DR","address2": "","city": "BATON ROUGE","state": "LA","zip": "70808","zip+4": "0000","phone": "2257697546"}
{"name": "BROOKSHIRE BROTHERS PHARMACY #","address1": "223 SOUTH ELIZABETH STREET","address2": "","city": "MANY","state": "LA","zip": "71449","zip+4": "0000","phone": "3182561148"}
{"name": "ACKALS COMMUNITY PHARMACY","address1": "814 FORTUNE RD","address2": "STE 109","city": "YOUNGSVILLE","state": "LA","zip": "70592","zip+4": "0000","phone": "3378575082"}
{"name": "INTRATHECAL COMPOUNDING SPECIA","address1": "206 A JACOBS RUN","address2": "","city": "SCOTT","state": "LA","zip": "70583","zip+4": "0000","phone": "3372376077"}
{"name": "WALGREEN DRUG STORE #10126","address1": "105 SAINT NAZAIRE RD","address2": "","city": "BROUSSARD","state": "LA","zip": "70518","zip+4": "0000","phone": "3378371640"}
{"name": "TLC RX","address1": "2731 MANHATTAN BLVD","address2": "STE B17","city": "HARVEY","state": "LA","zip": "70058","zip+4": "0000","phone": "5043554191"}
{"name": "JOHNS PHARMACY","address1": "29644 SOUTH MONTPELIER AVE","address2": "STE A","city": "ALBANY","state": "LA","zip": "70711","zip+4": "0000","phone": "2255671921"}
{"name": "WAL-MART PHARMACY #5722","address1": "3265 MANHATTAN BLVD","address2": "","city": "NEW ORLEANS","state": "LA","zip": "70058","zip+4": "0000","phone": "5043661404"}
{"name": "PAULS PHARMACY HAMMOND","address1": "18150 HWY 190","address2": "","city": "HAMMOND","state": "LA","zip": "70401","zip+4": "0000","phone": "9853457122"}
{"name": "DOC YOUR DOSE PHARMACY","address1": "17275 HWY 77","address2": "","city": "GROSSE TETE","state": "LA","zip": "70740","zip+4": "0000","phone": "2256482329"}
{"name": "WALGREEN DRUG STORE #11997","address1": "5416 CAMERON ST","address2": "","city": "SCOTT","state": "LA","zip": "70506","zip+4": "0000","phone": "3372665884"}
{"name": "WALGREEN DRUG STORE #10975","address1": "815 BRASHEAR AVE","address2": "","city": "MORGAN CITY","state": "LA","zip": "70380","zip+4": "0000","phone": "9853843302"}
{"name": "PONCHATOULA FAMILY PHARMACY","address1": "19008 HWY 22 EAST","address2": "","city": "PONCHATOULA","state": "LA","zip": "70454","zip+4": "0000","phone": "9853866556"}
{"name": "MOM AND POPS FAMILY PHARMACY","address1": "233 S MAIN ST","address2": "","city": "SPRINGHILL","state": "LA","zip": "71075","zip+4": "0000","phone": "3185396337"}
{"name": "WAL-MART PHARMACY #104295","address1": "6225 COLISEUM BLVD","address2": "","city": "ALEXANDRIA","state": "LA","zip": "71303","zip+4": "0000","phone": "3184488881"}
{"name": "IBERIA COMPREHENSIVE CHC PHARM","address1": "806 JEFFERSON TERRACE BLVD","address2": "","city": "NEW IBERIA","state": "LA","zip": "70560","zip+4": "0000","phone": "3373766868"}
{"name": "MED PRO PHARMACY","address1": "3601 ST CLAUDE AVE","address2": "","city": "NEW ORLEANS","state": "LA","zip": "70117","zip+4": "0000","phone": "5043222200"}
{"name": "FREDS PHARMACY #2363","address1": "2279 LOUISVILLE AVE","address2": "","city": "MONROE","state": "LA","zip": "71201","zip+4": "6124","phone": "3183256921"}
{"name": "WALGREENS #11497","address1": "1000 S ARKANSAS ST","address2": "","city": "SPRINGHILL","state": "LA","zip": "71075","zip+4": "3822","phone": "3185394450"}
{"name": "WALGREEN DRUG STORE #12803","address1": "5061 MAIN ST","address2": "","city": "ZACHARY","state": "LA","zip": "70791","zip+4": "0000","phone": "2256541335"}
{"name": "ROELINGS PHARMACY","address1": "2647 N CAUSEWAY BLVD","address2": "STE 100","city": "MANDEVILLE","state": "LA","zip": "70471","zip+4": "0000","phone": "9856292240"}
{"name": "APC PHARMACEUTICALS","address1": "1103 KALISTE SALOOM ROAD","address2": "STE 304","city": "LAFAYETTE","state": "LA","zip": "70508","zip+4": "0000","phone": "3379884824"}
{"name": "PRICE RIGHT APOTHECARY PLUS","address1": "3059 HIGHWAY 80 WEST","address2": "","city": "CALHOUN","state": "LA","zip": "71225","zip+4": "0000","phone": "3186440041"}
{"name": "CVS PHARMACY #07003","address1": "70550 HWY 21","address2": "","city": "COVINGTON","state": "LA","zip": "70433","zip+4": "0000","phone": "9858937681"}
{"name": "WALGREEN DRUG STORE #11762","address1": "10200 FLORIDA BLVD","address2": "","city": "WALKER","state": "LA","zip": "70785","zip+4": "0000","phone": "2256645181"}
{"name": "DELCAMBRE PHARMACY INC","address1": "510 HWY 14 WEST","address2": "","city": "DELCAMBRE","state": "LA","zip": "70528","zip+4": "0000","phone": "3376856851"}
{"name": "CVS PHARMACY #01017","address1": "5300 VETERANS BLVD","address2": "","city": "METARIE","state": "LA","zip": "70003","zip+4": "0000","phone": "5044564851"}
{"name": "WALGREENS #11414","address1": "3216 GENTILLY BLVD","address2": "","city": "NEW ORLEANS","state": "LA","zip": "70122","zip+4": "4924","phone": "5049451182"}
{"name": "RX REMEDIES","address1": "1723 MAIN ST","address2": "","city": "FRANKLINTON","state": "LA","zip": "70438","zip+4": "0000","phone": "9858394384"}
{"name": "FREDS PHARMACY #1684","address1": "821 SOUTH MAIN STREET","address2": "","city": "CHURCH POINT","state": "LA","zip": "70525","zip+4": "0000","phone": "3376841444"}
{"name": "CASHWAY PHARMACY OF YOUNGSVILL","address1": "810 S ST BLAISE LN","address2": "STE A","city": "YOUNGSVILLE","state": "LA","zip": "70592","zip+4": "0000","phone": "3378568377"}
{"name": "BOCAGE PHARMACY CENTRE","address1": "7150 JEFFERSON HWY","address2": "STE 680","city": "BATON ROUGE","state": "LA","zip": "70806","zip+4": "0000","phone": "2253642847"}
{"name": "CHRIS PHARMACY AND GIFTS LLC","address1": "18780 HWY 22","address2": "STE A","city": "MAUREPAS","state": "LA","zip": "70449","zip+4": "0000","phone": "2256986000"}
{"name": "WALGREENS #11742","address1": "70997 HWY 59","address2": "","city": "ABITA SPRINGS","state": "LA","zip": "70420","zip+4": "0000","phone": "9858921550"}
{"name": "WALGREENS #11496","address1": "101 ROBERT E LEE BLVD","address2": "","city": "NEW ORLEANS","state": "LA","zip": "70124","zip+4": "2560","phone": "5042822203"}
{"name": "RHODES PEDIATRIC CLINIC","address1": "37 CALVERT DRIVE","address2": "","city": "ALEXANDRIA","state": "LA","zip": "71303","zip+4": "0000","phone": "3184439634"}
{"name": "SUMRALLS PHARMACY LLC","address1": "30304 HIGHWAY 21","address2": "","city": "ANGIE","state": "LA","zip": "70426","zip+4": "0000","phone": "9859864433"}
{"name": "HAIYEN PHARMACY","address1": "4601 ALCEE FORTIER BLVD","address2": "","city": "NEW ORLEANS","state": "LA","zip": "70129","zip+4": "0000","phone": "5043246310"}
{"name": "FOURNET'S PHARMACY #2","address1": "516 CHURCH ST","address2": "","city": "PATTERSON","state": "LA","zip": "70392","zip+4": "0000","phone": "9853953346"}
{"name": "WALGREENS # #11830","address1": "236 S MAIN ST","address2": "","city": "MARKSVILLE","state": "LA","zip": "71351","zip+4": "3052","phone": "3182407149"}
{"name": "DRYS PHARMACY #1","address1": "4344 CHURCH ST.","address2": "","city": "ZACHARY","state": "LA","zip": "70791","zip+4": "0000","phone": "2256541175"}
{"name": "RELIANT HEALTHCARE","address1": "300 NORTH STANLEY AVENUE","address2": "","city": "MONROE","state": "LA","zip": "71201","zip+4": "0000","phone": "3183228326"}
{"name": "TECHE ACTION CLINIC PHARMACY O","address1": "809 WEST TUNNEL BLVD","address2": "","city": "HOUMA","state": "LA","zip": "70360","zip+4": "0000","phone": "9858511717"}
{"name": "HEALTH MART PHARMACY LTC","address1": "818 N CUSHING AVE","address2": "STE A","city": "KAPLAN","state": "LA","zip": "70548","zip+4": "0000","phone": "3376438881"}
{"name": "EXPRESS PHARMACY","address1": "3328 N FOSTER DR","address2": "","city": "BATON ROUGE","state": "LA","zip": "70805","zip+4": "0000","phone": "2253025762"}
{"name": "CVS PHARMACY #00763","address1": "800 B CANAL ST","address2": "","city": "NEW ORLEANS","state": "LA","zip": "70112","zip+4": "0000","phone": "5045287099"}
{"name": "AVITA DRUGS","address1": "2601TULANE AVE","address2": "SUITE 445","city": "NEW ORLEANS","state": "LA","zip": "70119","zip+4": "0000","phone": "5048228013"}
{"name": "ELLIOTT PHARMACY #4","address1": "7189 US HWY 61","address2": "","city": "ST FRANCISVILLE","state": "LA","zip": "70775","zip+4": "0000","phone": "2256353878"}
{"name": "WALGREENS # #12306","address1": "280 SAN ANTONIO AVE","address2": "","city": "MANY","state": "LA","zip": "71449","zip+4": "0000","phone": "3185909821"}
{"name": "MEDIC SHOP PHARMACY","address1": "1000 BUSINESS 190","address2": "","city": "COVINGTON","state": "LA","zip": "70433","zip+4": "0000","phone": "9858757515"}
{"name": "RALPHS PHARMACY #12","address1": "6576 JONES CREEK RD","address2": "","city": "BATON ROUGE","state": "LA","zip": "70817","zip+4": "0000","phone": "2252140133"}
{"name": "GRANT FAMILY PHARMACY","address1": "19479 HIGHWAY 167","address2": "","city": "BENTLEY","state": "LA","zip": "71407","zip+4": "0000","phone": "3188995066"}
{"name": "AVITA DRUGS","address1": "411 COLONIAL DR","address2": "","city": "BATON ROUGE","state": "LA","zip": "70806","zip+4": "0000","phone": "2259241930"}
{"name": "WESTBANK PHARMACY","address1": "3709 WESTBANK EXPRESSWAY STE 1","address2": "","city": "HARVEY","state": "LA","zip": "70058","zip+4": "0000","phone": "5043400777"}
{"name": "CLAIBORNE DISCOUNT PHARMACYL","address1": "1537 N. CLAIBORNE AVE.","address2": "","city": "NEW ORLEANS","state": "LA","zip": "70116","zip+4": "0000","phone": "5049428700"}
{"name": "NOAH'S PHARMACY #1","address1": "400 W ST. FRANCIS ST","address2": "A-4","city": "BRUSLY","state": "LA","zip": "70719","zip+4": "0000","phone": "2257498202"}
{"name": "WALGREENS #12557","address1": "4550 GENERAL MEYER AVE","address2": "","city": "NEW ORLEANS","state": "LA","zip": "70131","zip+4": "0000","phone": "5043610281"}
{"name": "A-1 DISCOUNT PHARMACY","address1": "1322 W THOMAS ST","address2": "","city": "HAMMOND","state": "LA","zip": "70401","zip+4": "3046","phone": "9853455044"}
{"name": "HEALTH FIRST PHARMACY","address1": "7521 WESTBANK EXPRESSWAY","address2": "SUITE I","city": "MARRERO","state": "LA","zip": "70072","zip+4": "0000","phone": "5042524571"}
{"name": "TARGET PHARMACY #2531","address1": "2030 HAMMOND SQUARE DR","address2": "","city": "HAMMOND","state": "LA","zip": "70403","zip+4": "6156","phone": "9852773204"}
{"name": "ROCKY'S MED SHOPPE","address1": "133 CUMBERLAND ST","address2": "","city": "BOGALUSA","state": "LA","zip": "70427","zip+4": "3101","phone": "9857325874"}
{"name": "CVS PHARMACY # #08921","address1": "2831 BELLE CHASSE HWY","address2": "","city": "TERRYTOWN","state": "LA","zip": "70056","zip+4": "7132","phone": "4017651500"}
{"name": "CVS PHARMACY # #07224","address1": "4540 HIGHWAY 22","address2": "","city": "MANDEVILLE","state": "LA","zip": "70471","zip+4": "3300","phone": "4017651500"}
{"name": "FRED'S PHARMACY #3824","address1": "2826 BIENVILLE RD","address2": "","city": "RINGGOLD","state": "LA","zip": "71068","zip+4": "2588","phone": "3188949100"}
{"name": "ALBERTSONS PHARMACY #2814","address1": "3450 HIGHWAY 190","address2": "","city": "MANDEVILLE","state": "LA","zip": "70471","zip+4": "3196","phone": "9856260481"}
{"name": "MEDICINE SHOPPE #1121","address1": "704 N PARKERSON AVE","address2": "","city": "CROWLEY","state": "LA","zip": "70526","zip+4": "4355","phone": "3377839084"}
{"name": "WALGREENS #12626","address1": "1000 S ACADIA RD","address2": "","city": "THIBODAUX","state": "LA","zip": "70301","zip+4": "0000","phone": "9854492626"}
{"name": "STERLINGTON VILLAGE PHARMACY","address1": "10374 HIGHWAY 165 N STE C","address2": "","city": "STERLINGTON","state": "LA","zip": "71280","zip+4": "3320","phone": "3188122305"}
{"name": "FALCON PHARMACYLLC","address1": "1103 KALISTE SALOOM RD STE 103","address2": "","city": "LAFAYETTE","state": "LA","zip": "70508","zip+4": "0000","phone": "3372101248"}
{"name": "WALGREENS #13134","address1": "6130 JOHNSTON ST","address2": "","city": "LAFAYETTE","state": "LA","zip": "70503","zip+4": "5619","phone": "3379841057"}
{"name": "NORTHLAKE PHARMACY #1","address1": "7047 HIGHWAY 190 EAST SERVICE","address2": "EAST SERVICE ROAD","city": "COVINGTON","state": "LA","zip": "70433","zip+4": "4955","phone": "9853270594"}
{"name": "SLIDELL PHARMACY","address1": "1201 ROBERT BLVD","address2": "","city": "SLIDELL","state": "LA","zip": "70458","zip+4": "2015","phone": "9856412660"}
{"name": "WALGREENS #13586","address1": "4141 E JUDGE PEREZ DR","address2": "","city": "MERAUX","state": "LA","zip": "70075","zip+4": "2670","phone": "5046826738"}
{"name": "COUSHATTA FAMILY PHARMACY #137","address1": "287 PANTHER TRAIL","address2": "","city": "KINDER","state": "LA","zip": "70648","zip+4": "0000","phone": "3377383095"}
{"name": "WALGREENS #12924","address1": "4100 WILLIAMS BLVD","address2": "","city": "KENNER","state": "LA","zip": "70065","zip+4": "2203","phone": "5044633170"}
{"name": "PLAQUEMINES PHARMACY","address1": "8443 HIGHWAY 23","address2": "","city": "BELLE CHASSE","state": "LA","zip": "70037","zip+4": "0000","phone": "5043931648"}
{"name": "FRED'S PHARMACY #3668","address1": "511 W MAIN ST","address2": "","city": "HOMER","state": "LA","zip": "71040","zip+4": "3929","phone": "3189272560"}
{"name": "WINN DIXIE #1443","address1": "70431 HWY 21","address2": "","city": "COVINGTON","state": "LA","zip": "70433","zip+4": "0000","phone": "9858981195"}