{"name": "THE PRESCRIPTION SHOP INC","address1": "1210 SHEYENNE ST","address2": "","city": "WEST FARGO","state": "ND","zip": "58078","zip+4": "2698","phone": "7012824665"}
{"name": "WHITE DRUG #9","address1": "2475 32ND AVE S","address2": "STE 1","city": "GRAND FORKS","state": "ND","zip": "58201","zip+4": "3606","phone": "7017754209"}
{"name": "WHITE DRUG #30","address1": "1380 SOUTH COLUMBIA ROAD","address2": "SUITE 1","city": "GRAND FORKS","state": "ND","zip": "58201","zip+4": "4012","phone": "7017464455"}
{"name": "MEDCENTER ONE PHARMACY","address1": "300 N 7TH ST","address2": "","city": "BISMARCK","state": "ND","zip": "58501","zip+4": "4439","phone": "7013236099"}
{"name": "DAKOTA PHARMACY OF BISMARCK IN","address1": "705 E MAIN AVE","address2": "","city": "BISMARCK","state": "ND","zip": "58501","zip+4": "0000","phone": "7012551881"}
{"name": "MAYO PHARMACY","address1": "303 N 4TH ST","address2": "","city": "BISMARCK","state": "ND","zip": "58501","zip+4": "4093","phone": "7012232425"}
{"name": "CASSELTON HEALTH MART DRUG","address1": "622 FRONT STREET","address2": "","city": "CASSELTON","state": "ND","zip": "58012","zip+4": "0000","phone": "7013474281"}
{"name": "RAMSEY DRUG COMPANY","address1": "401 COLLEGE DR S","address2": "","city": "DEVILS LAKE","state": "ND","zip": "58301","zip+4": "0797","phone": "7016623117"}
{"name": "GREENE DRUG AND GIFT COMPANY","address1": "16 W VILLARD ST","address2": "","city": "DICKINSON","state": "ND","zip": "58601","zip+4": "0000","phone": "7012255171"}
{"name": "THE PRESCRIPTION SHOP","address1": "509MAIN ST","address2": "","city": "EDGELEY","state": "ND","zip": "58433","zip+4": "0000","phone": "7014932810"}
{"name": "DAKOTA CLINIC PHARMACY","address1": "1702 S UNIVERSITY DR","address2": "","city": "FARGO","state": "ND","zip": "58103","zip+4": "0000","phone": "7013643367"}
{"name": "MERITCARE HOSP S UNIVERSITY PH","address1": "1720 S UNIVERSITY DR","address2": "","city": "FARGO","state": "ND","zip": "58103","zip+4": "0000","phone": "7012804469"}
{"name": "MERITCARE BROADWAY PHARMACY","address1": "737 BROADWAY","address2": "","city": "FARGO","state": "ND","zip": "58122","zip+4": "0000","phone": "7012342416"}
{"name": "NDSU STUDENT HEALTH SERVICE PH","address1": "1707 CENTENNIAL BLVD","address2": "","city": "FARGO","state": "ND","zip": "58102","zip+4": "0000","phone": "7012317332"}
{"name": "MERITCARE HOSPITAL","address1": "720 N 4TH ST","address2": "","city": "FARGO","state": "ND","zip": "58122","zip+4": "0000","phone": "7012343330"}
{"name": "FORMAN DRUG INC","address1": "330 MAIN ST S","address2": "","city": "FORMAN","state": "ND","zip": "58032","zip+4": "0035","phone": "7017246222"}
{"name": "GRAND FORKS CLINIC PHARMACY","address1": "1000 S COLUMBIA RD","address2": "","city": "GRAND FORKS","state": "ND","zip": "58201","zip+4": "4031","phone": "7017724875"}
{"name": "HANKINSON DRUG","address1": "309 S MAIN AVE","address2": "","city": "HANKINSON","state": "ND","zip": "58041","zip+4": "0160","phone": "7012427414"}
{"name": "SERVICE DRUG AND GIFT INC","address1": "815 LINCOLN AVE","address2": "","city": "HARVEY","state": "ND","zip": "58341","zip+4": "0325","phone": "7013242227"}
{"name": "WHITE DRUG #15","address1": "410 10TH STREET SE","address2": "","city": "JAMESTOWN","state": "ND","zip": "58401","zip+4": "5562","phone": "7012525980"}
{"name": "LA MOURE DRUG STORE","address1": "100 1ST AVE SW","address2": "","city": "LAMOURE","state": "ND","zip": "58458","zip+4": "0175","phone": "7018835339"}
{"name": "LINTON DRUG COMPANY #9978","address1": "121 BROADWAY","address2": "","city": "LINTON","state": "ND","zip": "58552","zip+4": "0000","phone": "7012545432"}
{"name": "MOTT DRUG STORE","address1": "216 BROWN AVE","address2": "","city": "MOTT","state": "ND","zip": "58646","zip+4": "7100","phone": "7018248297"}
{"name": "OAKES DRUG","address1": "422 MAIN AVE","address2": "","city": "OAKES","state": "ND","zip": "58474","zip+4": "1637","phone": "7017422118"}
{"name": "DAKOTA DRUG CO STANLEY","address1": "107 S MAIN ST","address2": "","city": "STANLEY","state": "ND","zip": "58784","zip+4": "0000","phone": "7016282255"}
{"name": "TIOGA DRUG INC","address1": "106 N MAIN ST","address2": "","city": "TIOGA","state": "ND","zip": "58852","zip+4": "0000","phone": "7016642116"}
{"name": "TURTLE LAKE REXALL DRUG","address1": "218 MAIN","address2": "","city": "TURTLE LAKE","state": "ND","zip": "58575","zip+4": "0000","phone": "7014482542"}
{"name": "FOSS DRUG COMPANY","address1": "234 CENTRAL AVE N","address2": "","city": "VALLEY CITY","state": "ND","zip": "58072","zip+4": "2955","phone": "7018452652"}
{"name": "CORNER DRUG STORE","address1": "522 DAKOTA AVE","address2": "","city": "WAHPETON","state": "ND","zip": "58075","zip+4": "4499","phone": "7016426223"}
{"name": "LARSEN SERVICE DRUG INC","address1": "244 N MAIN ST","address2": "","city": "WATFORD CITY","state": "ND","zip": "58854","zip+4": "0000","phone": "7014442410"}
{"name": "SERVICE DRUG PHARMACY","address1": "317 MAIN","address2": "","city": "WILLISTON","state": "ND","zip": "58801","zip+4": "0000","phone": "7015726721"}
{"name": "NORTHBROOK DRUG","address1": "1929 N WASHINGTON ST","address2": "STE 8","city": "BISMARCK","state": "ND","zip": "58501","zip+4": "0000","phone": "7012581412"}
{"name": "ALTRU RETAIL PHARMACY #0","address1": "1200 S COLUMBIA RD","address2": "","city": "GRAND FORKS","state": "ND","zip": "58201","zip+4": "0000","phone": "7017803444"}
{"name": "ST ALEXIUS COMMUNITY PHARMACY","address1": "900 E BROADWAY AVE","address2": "","city": "BISMARCK","state": "ND","zip": "58506","zip+4": "5510","phone": "7015306906"}
{"name": "STEINER PHARMACY #45","address1": "358 1ST ST E","address2": "","city": "DICKINSON","state": "ND","zip": "58601","zip+4": "0000","phone": "7012270191"}
{"name": "YE OLDE MEDICINE CENTER","address1": "503 PARK ST WEST","address2": "","city": "PARK RIVER","state": "ND","zip": "58270","zip+4": "9802","phone": "7012847676"}
{"name": "WHITE DRUG #17","address1": "1015 SOUTH BROADWAY","address2": "SUITE 3","city": "MINOT","state": "ND","zip": "58701","zip+4": "0000","phone": "7018524181"}
{"name": "CLINIC PHARMACY INC","address1": "938 2ND AVE W","address2": "","city": "DICKINSON","state": "ND","zip": "58601","zip+4": "3999","phone": "7014834401"}
{"name": "WALLS MEDICINE CENTER","address1": "708 S WASHINGTON ST","address2": "","city": "GRAND FORKS","state": "ND","zip": "58201","zip+4": "4328","phone": "7017460497"}
{"name": "FAMILY HEALTHCARE PHCY NDSU","address1": "306 4TH ST N","address2": "","city": "FARGO","state": "ND","zip": "58102","zip+4": "0000","phone": "7012716390"}
{"name": "THRIFTY DRUG LTD","address1": "1521 S UNIVERSITY DR","address2": "","city": "FARGO","state": "ND","zip": "58103","zip+4": "0000","phone": "7012328690"}
{"name": "WHITE DRUG #39","address1": "1401 33RD STREET SW","address2": "","city": "FARGO","state": "ND","zip": "58103","zip+4": "3429","phone": "7012355511"}
{"name": "WHITE DRUG #5","address1": "117 NORTH FIFTH STREET","address2": "","city": "BISMARCK","state": "ND","zip": "58501","zip+4": "0000","phone": "7012230936"}
{"name": "WHITE DRUG #40","address1": "1600 SECOND AVENUE SW","address2": "","city": "MINOT","state": "ND","zip": "58701","zip+4": "3459","phone": "7018520388"}
{"name": "NORTHPORT DRUG","address1": "2522 N BROADWAY","address2": "","city": "FARGO","state": "ND","zip": "58102","zip+4": "0000","phone": "7012355543"}
{"name": "THE MEDICINE SHOPPE #0476","address1": "1304 EAST BOULEVARD AVE","address2": "","city": "BISMARCK","state": "ND","zip": "58501","zip+4": "0000","phone": "7012240175"}
{"name": "SHEYENNE VALLEY DRUG","address1": "407 MAIN ST","address2": "","city": "LISBON","state": "ND","zip": "58054","zip+4": "0601","phone": "7016835282"}
{"name": "N D PHARMACY INC","address1": "20 E 26TH ST","address2": "","city": "WILLISTON","state": "ND","zip": "58801","zip+4": "3093","phone": "7015724181"}
{"name": "MEDICINE SHOPPE #0523","address1": "209 11TH AVE SW","address2": "","city": "MINOT","state": "ND","zip": "58701","zip+4": "0000","phone": "7018521524"}
{"name": "N D PHARMACY INC","address1": "446 18TH STREET WEST","address2": "STE 2","city": "DICKINSON","state": "ND","zip": "58601","zip+4": "3017","phone": "7012254434"}
{"name": "MEDICINE SHOPPE PHARMACY #0541","address1": "431 WEST VILLARD STREET","address2": "","city": "DICKINSON","state": "ND","zip": "58601","zip+4": "0000","phone": "7012278265"}
{"name": "MEDICINE SHOPPE PHARMACY #0545","address1": "703 1ST AVENUE S","address2": "","city": "JAMESTOWN","state": "ND","zip": "58401","zip+4": "5549","phone": "7012523002"}
{"name": "LISBON SHEYENNE PHARMACY","address1": "404 MAIN ST","address2": "","city": "LISBON","state": "ND","zip": "58054","zip+4": "0113","phone": "7016834691"}
{"name": "HOLIDAY PROFESSIONAL PHARMACY","address1": "1140 E. BISMARCK EXPRESSWAY","address2": "","city": "BISMARCK","state": "ND","zip": "58504","zip+4": "0000","phone": "7012557220"}
{"name": "WEST ACRES PHARMACY","address1": "3902 13TH AVENUE S","address2": "STE 3706","city": "FARGO","state": "ND","zip": "58103","zip+4": "0000","phone": "7012820285"}
{"name": "WHITE DRUG #34","address1": "1681 THIRD AVENUE WEST","address2": "","city": "DICKINSON","state": "ND","zip": "58601","zip+4": "3073","phone": "7012254421"}
{"name": "THOMPSON DRUG","address1": "505 MAIN ST","address2": "","city": "BOTTINEAU","state": "ND","zip": "58318","zip+4": "1202","phone": "7012282291"}
{"name": "GATEWAY HEALTHMART PHARMACY NO","address1": "3101 N 11TH ST","address2": "SUITE 2","city": "BISMARCK","state": "ND","zip": "58503","zip+4": "0594","phone": "7012249521"}
{"name": "MEDICINE SHOPPE #0977","address1": "116 2ND AVE NW","address2": "","city": "MANDAN","state": "ND","zip": "58554","zip+4": "0000","phone": "7016631151"}
{"name": "CHURCHILL PHARMACY INC","address1": "1190 W TURNPIKE AVE","address2": "","city": "BISMARCK","state": "ND","zip": "58501","zip+4": "1300","phone": "7012240339"}
{"name": "CENTRAL AVENUE PHARMACY","address1": "323 CENTRAL AVE N","address2": "SUITE 101","city": "VALLEY CITY","state": "ND","zip": "58072","zip+4": "2954","phone": "7018455280"}
{"name": "CLINIC PHARMACY","address1": "1101 7TH ST NE","address2": "PO BOX 1100","city": "DEVILS LAKE","state": "ND","zip": "58301","zip+4": "0000","phone": "7016624427"}
{"name": "MEDICINE SHOPPE #0080","address1": "1605 SOUTH UNIVERSITY DRIVE","address2": "","city": "FARGO","state": "ND","zip": "58103","zip+4": "4154","phone": "7012933060"}
{"name": "THRIFTY WHITE DRUG #43","address1": "511 FIRST STREET NW","address2": "","city": "MANDAN","state": "ND","zip": "58554","zip+4": "0000","phone": "7016635188"}
{"name": "SOUTHPOINTE PHARMACY","address1": "2400 32ND AVE S","address2": "","city": "FARGO","state": "ND","zip": "58103","zip+4": "5804","phone": "7012349912"}
{"name": "NEW SALEM PHARMACY","address1": "1200 N 8TH ST","address2": "","city": "NEW SALEM","state": "ND","zip": "58563","zip+4": "0426","phone": "7018437563"}
{"name": "SKIPS BUDGET DRUG","address1": "2015 LIBRARY CIRCLE","address2": "STE 102","city": "GRAND FORKS","state": "ND","zip": "58201","zip+4": "0000","phone": "7017724805"}
{"name": "WAHPETON DRUG COMPANY INC","address1": "508 DAKOTA AVE","address2": "","city": "WAHPETON","state": "ND","zip": "58075","zip+4": "4498","phone": "7016429211"}
{"name": "MEDICINE SHOPPE #1169","address1": "2800 N BROADWAY","address2": "","city": "FARGO","state": "ND","zip": "58102","zip+4": "1420","phone": "7012930221"}
{"name": "NILLES DRUG INC #153","address1": "58 S MAIN ST","address2": "","city": "FESSENDEN","state": "ND","zip": "58438","zip+4": "7100","phone": "7015473201"}
{"name": "BARRETT PHARMACY","address1": "145 N MAIN ST","address2": "","city": "WATFORD CITY","state": "ND","zip": "58854","zip+4": "0000","phone": "7018423311"}
{"name": "WALZ PHARMACY","address1": "213 1ST AVE N","address2": "","city": "JAMESTOWN","state": "ND","zip": "58401","zip+4": "0000","phone": "7012523181"}
{"name": "SOUTHTOWN ECONO DRUGS #1","address1": "387 11TH ST S","address2": "","city": "WAHPETON","state": "ND","zip": "58075","zip+4": "4653","phone": "7016422336"}
{"name": "LINSON PHARMACY","address1": "3175 25TH ST S","address2": "","city": "FARGO","state": "ND","zip": "58103","zip+4": "0000","phone": "7012936022"}
{"name": "PROFESSIONAL PHARMACY","address1": "3124 COLORADO LANE","address2": "#400","city": "BISMARCK","state": "ND","zip": "58503","zip+4": "0000","phone": "7012236854"}
{"name": "THRIFTY DRUG SOUTHGATE","address1": "1532 32ND AVE S","address2": "","city": "FARGO","state": "ND","zip": "58103","zip+4": "0000","phone": "7012801929"}
{"name": "GATEWAY HEALTHMART PHARMACY SO","address1": "835 S WASHINGTON ST","address2": "SUITE 2","city": "BISMARCK","state": "ND","zip": "58504","zip+4": "0000","phone": "7012231656"}
{"name": "MEDICAP PHARMACY #8158","address1": "1395 SOUTH COLUMBIA ROAD","address2": "SUITE C","city": "GRAND FORKS","state": "ND","zip": "58201","zip+4": "0000","phone": "7017461800"}
{"name": "HEALTH CENTER PHARMACY","address1": "1401 13TH AVE W","address2": "","city": "WEST FARGO","state": "ND","zip": "58078","zip+4": "0000","phone": "7013645800"}
{"name": "YE OLDE MEDICINE SHOPPE INC","address1": "102 DIVISION AVE S","address2": "","city": "CAVALIER","state": "ND","zip": "58220","zip+4": "0000","phone": "7012653332"}
{"name": "WHITE DRUG #45","address1": "310 FIRST AVENUE SOUTH","address2": "","city": "JAMESTOWN","state": "ND","zip": "58401","zip+4": "0000","phone": "7012511432"}
{"name": "GATEWAY HEALTH MART PHARMACY M","address1": "500 BURLINGTON ST SE","address2": "","city": "MANDAN","state": "ND","zip": "58554","zip+4": "4281","phone": "7016671843"}
{"name": "WHITE DRUG #47 DBA BELL DRUG #","address1": "323 FIFTH STREET","address2": "","city": "DEVILS LAKE","state": "ND","zip": "58301","zip+4": "0000","phone": "7016623022"}
{"name": "WHITE DRUG #46","address1": "1100 13TH AVENUE EAST","address2": "","city": "WEST FARGO","state": "ND","zip": "58078","zip+4": "0000","phone": "7012815695"}
{"name": "WHITE DRUG #50","address1": "107 SECOND STREET SE","address2": "","city": "RUGBY","state": "ND","zip": "58368","zip+4": "0000","phone": "7017765741"}
{"name": "THRIFTY WHITE DRUG #52","address1": "712 38TH STREET NW","address2": "SUITE A","city": "FARGO","state": "ND","zip": "58102","zip+4": "0000","phone": "7018939217"}
{"name": "WHITE DRUG #53","address1": "201 EAST 3RD AVENUE SOUTH","address2": "","city": "CAVALIER","state": "ND","zip": "58220","zip+4": "0000","phone": "7012654744"}
{"name": "WHITE DRUG #55","address1": "112 SOUTH MAIN STREET","address2": "","city": "HETTINGER","state": "ND","zip": "58639","zip+4": "0000","phone": "7015672533"}
{"name": "WHITE DRUG #57","address1": "108 CENTRAL AVENUE","address2": "","city": "MADDOCK","state": "ND","zip": "58348","zip+4": "0000","phone": "7014382567"}
{"name": "WHITE DRUG #58","address1": "208 MAIN STREET","address2": "","city": "ROLETTE","state": "ND","zip": "58366","zip+4": "0000","phone": "7012463600"}
{"name": "WHITE DRUG DBA VALLEY DRUG #59","address1": "239 2ND AVENUE NW","address2": "","city": "VALLEY CITY","state": "ND","zip": "58072","zip+4": "0000","phone": "7018451763"}
{"name": "LARSEN SERVICE DRUG INC #2","address1": "334 MAIN STREET","address2": "","city": "NEW TOWN","state": "ND","zip": "58763","zip+4": "0000","phone": "7016272410"}
{"name": "WHITE DRUG #62","address1": "115 MAIN STREET WEST","address2": "","city": "MOHALL","state": "ND","zip": "58761","zip+4": "0000","phone": "7017566000"}
{"name": "WHITE DRUG #63","address1": "425 COLLEGE DRIVE SOUTH","address2": "SUITE 10","city": "DEVILS LAKE","state": "ND","zip": "58301","zip+4": "3537","phone": "7016626270"}
{"name": "WHITE DRUG #60","address1": "148 SOUTH CENTRAL AVENUE","address2": "","city": "VALLEY CITY","state": "ND","zip": "58072","zip+4": "0000","phone": "7018451421"}
{"name": "WHITE DRUG #61","address1": "706 38TH STREET NW UNITS D-E-F","address2": "","city": "FARGO","state": "ND","zip": "58102","zip+4": "0000","phone": "7018939050"}
{"name": "ENDERLIN PHARMACY","address1": "308 RAILWAY ST","address2": "","city": "ENDERLIN","state": "ND","zip": "58027","zip+4": "0000","phone": "7014372464"}
{"name": "WHITE DRUG #65","address1": "544 HILL AVENUE","address2": "","city": "GRAFTON","state": "ND","zip": "58237","zip+4": "0000","phone": "7013521760"}
{"name": "PRAIRIE PHARMACY FA1","address1": "4731 13TH AVE SW","address2": "","city": "FARGO","state": "ND","zip": "58103","zip+4": "0000","phone": "7013730325"}
{"name": "PEACE GARDEN PHARMACY","address1": "8 MAIN ST","address2": "","city": "DUNSEITH","state": "ND","zip": "58329","zip+4": "0729","phone": "7012445711"}
{"name": "ARTHUR DRUG #553","address1": "340 MAIN ST","address2": "","city": "ARTHUR","state": "ND","zip": "58006","zip+4": "0000","phone": "7019678900"}
{"name": "CVS PHARMACY #08611","address1": "1520 20TH AVE SW","address2": "","city": "MINOT","state": "ND","zip": "58701","zip+4": "0000","phone": "7018524068"}
{"name": "CVS PHARMACY #08620","address1": "1950 32ND AVE S","address2": "","city": "GRAND FORKS","state": "ND","zip": "58201","zip+4": "0000","phone": "7017468643"}
{"name": "CVS PHARMACY #08628","address1": "601 KIRKWOOD MA;;","address2": "","city": "BISMARCK","state": "ND","zip": "58504","zip+4": "0000","phone": "7012551335"}
{"name": "CVS PHARMACY #08612","address1": "2401 13TH AVE SOUTH","address2": "","city": "FARGO","state": "ND","zip": "58103","zip+4": "0000","phone": "7012324872"}
{"name": "CVS PHARMACY #08614","address1": "1225 E CALGARY AVENUE","address2": "","city": "BISMARCK","state": "ND","zip": "58503","zip+4": "0000","phone": "7012239323"}
{"name": "CVS PHARMACY #08613","address1": "1321 19TH AVE NORTH","address2": "","city": "FARGO","state": "ND","zip": "58102","zip+4": "0000","phone": "7012322720"}
{"name": "MEDICAL PHARMACY SOUTH","address1": "4151 45TH ST SO","address2": "","city": "FARGO","state": "ND","zip": "58104","zip+4": "0000","phone": "7012828075"}
{"name": "GRAFTON DRUG","address1": "501 HILL AVE","address2": "","city": "GRAFTON","state": "ND","zip": "58237","zip+4": "0000","phone": "7013520831"}
{"name": "WALLS HEALTH MART PHARMACY","address1": "1451 44TH AVE SOUTH","address2": "STE 101D","city": "GRAND FORKS","state": "ND","zip": "58201","zip+4": "0000","phone": "7017322900"}
{"name": "WHITE DRUG #67","address1": "300 11TH STREET W","address2": "","city": "WILLISTON","state": "ND","zip": "58801","zip+4": "5159","phone": "7017743923"}
{"name": "7-DAY CLINIC","address1": "4622 40TH AVE S","address2": "","city": "FARGO","state": "ND","zip": "58104","zip+4": "0000","phone": "7012326211"}
{"name": "WHITE DRUG #66","address1": "109 W MAIN ST","address2": "","city": "ASHLEY","state": "ND","zip": "58413","zip+4": "0000","phone": "7012883355"}
{"name": "THE RX CO","address1": "550 13TH AVE EAST","address2": "","city": "WEST FARGO","state": "ND","zip": "58078","zip+4": "0000","phone": "7012778492"}
{"name": "WHITE DRUG #68","address1": "201 SOUTH UNIVERSITY DR","address2": "","city": "FARGO","state": "ND","zip": "58103","zip+4": "8299","phone": "7012393543"}
{"name": "FRONTIER PHARMACY","address1": "3306 SHEYENNE ST","address2": "STE 218","city": "WEST FARGO","state": "ND","zip": "58078","zip+4": "0000","phone": "7013567455"}
{"name": "INNOVIS HEALTH","address1": "3000 32ND AVE SW","address2": "","city": "FARGO","state": "ND","zip": "58104","zip+4": "0000","phone": "7013648000"}
{"name": "TARAS THRIFTY WHITE LLC","address1": "610 MAIN AVE","address2": "","city": "OAKES","state": "ND","zip": "58474","zip+4": "0000","phone": "7017423824"}
{"name": "BELCOURT DRUG INC","address1": "9838 43T AVE NE","address2": "4","city": "BELCOURT","state": "ND","zip": "58316","zip+4": "0000","phone": "7014770202"}
{"name": "MEDICINE SHOPPE #1677","address1": "722 LINCOLN AVENUE","address2": "","city": "HARVEY","state": "ND","zip": "58341","zip+4": "0000","phone": "7013242295"}
{"name": "HERITAGE PHARMACY GATEWAY MALL","address1": "2700 STATE ST","address2": "STE F13","city": "BISMARCK","state": "ND","zip": "58503","zip+4": "0000","phone": "7015306050"}
{"name": "UNIT PAK","address1": "4153 12TH AVE. N.","address2": "","city": "FARGO","state": "ND","zip": "58102","zip+4": "0000","phone": "7013738500"}
{"name": "ALTRU CLINIC PHARMACY INC","address1": "1000 S COLUMBIA RD","address2": "","city": "GRAND FORKS","state": "ND","zip": "58201","zip+4": "4032","phone": "7017724875"}