{"name": "MORGAN DRUG","address1": "109 N COMMERCIAL","address2": "","city": "MORGAN","state": "UT","zip": "84050","zip+4": "0000","phone": "8018293262"}
{"name": "HARMONS PHARMACY #01","address1": "3955 W 3500 S","address2": "","city": "W VALLEY CITY","state": "UT","zip": "84120","zip+4": "0000","phone": "8019661497"}
{"name": "WANGSGARD PHARMACY","address1": "120 WASHINGTON BLVD","address2": "","city": "OGDEN","state": "UT","zip": "84404","zip+4": "3956","phone": "8013994400"}
{"name": "KWIK STOP DRUG","address1": "325 36TH ST","address2": "","city": "OGDEN","state": "UT","zip": "84405","zip+4": "0000","phone": "8013995866"}
{"name": "HARMONS PHARMACY #02","address1": "7755 S 700 E","address2": "","city": "MIDVALE","state": "UT","zip": "84047","zip+4": "2853","phone": "8015611491"}
{"name": "MEDICINE SHOPPE PHARMACY #0279","address1": "2562 MONROE BOULEVARD","address2": "","city": "OGDEN","state": "UT","zip": "84401","zip+4": "0000","phone": "8013991151"}
{"name": "ROY WINEGARS PHARMACY","address1": "3444 W 4800 S","address2": "","city": "ROY","state": "UT","zip": "84067","zip+4": "0000","phone": "8017320202"}
{"name": "SALMON PHARMACY","address1": "450 WEST 800 N","address2": "","city": "OREM","state": "UT","zip": "84057","zip+4": "0000","phone": "8012252150"}
{"name": "KANAB PHARMACY","address1": "57 W CENTER ST","address2": "","city": "KANAB","state": "UT","zip": "84741","zip+4": "3446","phone": "8016442418"}
{"name": "BASIN FAMILY PHARMACY","address1": "245 WEST HWY 40","address2": "","city": "ROOSEVELT","state": "UT","zip": "84066","zip+4": "0000","phone": "4357222454"}
{"name": "SMITH DRUG CO","address1": "10 S MAIN ST","address2": "","city": "PLEASANT GROVE","state": "UT","zip": "84062","zip+4": "2630","phone": "8017853221"}
{"name": "ALLENS PHARMACY #4","address1": "340 S MAIN ST","address2": "","city": "SPRINGVILLE","state": "UT","zip": "84663","zip+4": "0000","phone": "8014897327"}
{"name": "DANS DRUGS # #3","address1": "3981 S WASATCH BLVD","address2": "","city": "SALT LAKE CITY","state": "UT","zip": "84124","zip+4": "0000","phone": "8012729494"}
{"name": "DANS DRUG # #5","address1": "2029 E 7000 S","address2": "","city": "SALT LAKE CITY","state": "UT","zip": "84121","zip+4": "0000","phone": "8019430951"}
{"name": "SMITHS PHARMACY #444 #706444","address1": "555 SOUTH 200 WEST","address2": "","city": "BOUNTIFUL","state": "UT","zip": "84010","zip+4": "0000","phone": "8013977833"}
{"name": "SMITHS PHARMACY #475 #706475","address1": "3215 SOUTH VALLEY STREET","address2": "","city": "SALT LAKE CITY","state": "UT","zip": "84109","zip+4": "0000","phone": "8014868477"}
{"name": "SMITHS PHARMACY #477 #706477","address1": "750 NORTH MAIN STREET","address2": "","city": "LOGAN","state": "UT","zip": "84321","zip+4": "0000","phone": "4357531643"}
{"name": "SMITHS PHARMACY #94 #706094","address1": "455 SOUTH 500 EAST","address2": "","city": "SALT LAKE CITY","state": "UT","zip": "84102","zip+4": "0000","phone": "8013286033"}
{"name": "UNIVERSITY PHARMACY","address1": "1320 E 200 SOUTH","address2": "","city": "SALT LAKE CITY","state": "UT","zip": "84102","zip+4": "0000","phone": "8015827624"}
{"name": "STONE DRUG COMPANY","address1": "159 N MAIN ST","address2": "","city": "SPANISH FORK","state": "UT","zip": "84660","zip+4": "1724","phone": "8017988611"}
{"name": "REEDS PHARMACY","address1": "790 E MAIN","address2": "","city": "HYRUM","state": "UT","zip": "84319","zip+4": "0000","phone": "4352456422"}
{"name": "MOUNTAIN VIEW PHARMACY","address1": "425 S MEDICAL DR","address2": "STE 100","city": "BOUNTIFUL","state": "UT","zip": "84010","zip+4": "4945","phone": "8012953439"}
{"name": "BEAVER DRUG AND GIFT","address1": "98 N MAIN","address2": "","city": "BEAVER","state": "UT","zip": "84713","zip+4": "1438","phone": "4354382588"}
{"name": "SAN JUAN PHARMACY","address1": "65 S MAIN ST","address2": "","city": "BLANDING","state": "UT","zip": "84511","zip+4": "3742","phone": "4356782781"}
{"name": "BULLOCHS DRUG STORE","address1": "91 N MAIN ST","address2": "","city": "CEDAR CITY","state": "UT","zip": "84720","zip+4": "2697","phone": "4355869651"}
{"name": "SERVICE DRUG COMPANY INC","address1": "215 W MAIN","address2": "","city": "DELTA","state": "UT","zip": "84624","zip+4": "0000","phone": "8018642545"}
{"name": "ANDERSON DRUG","address1": "1 N MAIN ST","address2": "","city": "EPHRAIM","state": "UT","zip": "84627","zip+4": "1103","phone": "4352834444"}
{"name": "BAKER DRUG COMPANY","address1": "40 N MAIN","address2": "","city": "FILLMORE","state": "UT","zip": "84631","zip+4": "0000","phone": "4357436540"}
{"name": "JENSEN DRUG AND FLORAL INC","address1": "77 S MAIN","address2": "","city": "GUNNISON","state": "UT","zip": "84634","zip+4": "0807","phone": "4355283455"}
{"name": "HI MOUNTAIN DRUG","address1": "40 N MAIN","address2": "","city": "KAMAS","state": "UT","zip": "84036","zip+4": "0000","phone": "4357834466"}
{"name": "M AND M PRESCRIPTION SERVICE I","address1": "3441 S 8400 W","address2": "","city": "MAGNA","state": "UT","zip": "84044","zip+4": "1836","phone": "8012529790"}
{"name": "WALKER DRUG","address1": "290 S MAIN ST","address2": "","city": "MOAB","state": "UT","zip": "84532","zip+4": "2596","phone": "4352595959"}
{"name": "SAN JUAN PHARMACY MONTICELLO","address1": "140 S MAIN ST","address2": "","city": "MONTICELLO","state": "UT","zip": "84535","zip+4": "0000","phone": "4355872302"}
{"name": "ORCHARD DRUG","address1": "51 S 130 E","address2": "","city": "NORTH SALT LAKE","state": "UT","zip": "84054","zip+4": "1899","phone": "8019365583"}
{"name": "SMITHS PHARMACY #30 #706030","address1": "4275 HARRISON BLVD","address2": "","city": "OGDEN","state": "UT","zip": "84403","zip+4": "0000","phone": "8014790700"}
{"name": "STOP AND SHOP PHARMACY","address1": "1130 WASHINGTON BLVD","address2": "","city": "OGDEN","state": "UT","zip": "84404","zip+4": "4990","phone": "8013994054"}
{"name": "PANGUITCH DRUG CO #2103","address1": "95 E CENTER","address2": "","city": "PANGUITCH","state": "UT","zip": "84759","zip+4": "0068","phone": "4356762212"}
{"name": "BRIGHAM YOUNG UNIVERSITY PHARM","address1": "1750 N WYMOUNT TERRACE DR","address2": "","city": "PROVO","state": "UT","zip": "84602","zip+4": "0000","phone": "8014225171"}
{"name": "BROADWAY PHARMACY","address1": "242 E BROADWAY","address2": "","city": "SALT LAKE CITY","state": "UT","zip": "84111","zip+4": "2419","phone": "8013633939"}
{"name": "JOLLEYS CORNER PHARMACY","address1": "1676 E 1300 SOUTH","address2": "","city": "SALT LAKE CITY","state": "UT","zip": "84105","zip+4": "0000","phone": "8015821999"}
{"name": "LDS HOSPITAL OUTPATIENT PHARMA","address1": "8TH AVE AND C ST","address2": "","city": "SALT LAKE CITY","state": "UT","zip": "84143","zip+4": "0000","phone": "8014081019"}
{"name": "MILLCREEK PHARMACY","address1": "1260 E VINE ST","address2": "","city": "SALT LAKE CITY","state": "UT","zip": "84121","zip+4": "0000","phone": "8012627455"}
{"name": "SOUTHEAST PHARMACY PC","address1": "2670 S 2000 E","address2": "","city": "SALT LAKE CITY","state": "UT","zip": "84109","zip+4": "1774","phone": "8014662181"}
{"name": "THE APOTHECARY SHOPPE","address1": "82 SOUTH 1100 EAST","address2": "SUITE 104","city": "SALT LAKE CITY","state": "UT","zip": "84102","zip+4": "1525","phone": "8015216353"}
{"name": "HOSPITAL OUTPATIENT PHARMACY #","address1": "50 N MEDICAL DR","address2": "","city": "SALT LAKE CITY","state": "UT","zip": "84132","zip+4": "0002","phone": "8015812276"}
{"name": "JOLLEYS CORNER PHARMACY #3","address1": "1702 S 1100 E","address2": "","city": "SALT LAKE CITY","state": "UT","zip": "84105","zip+4": "3424","phone": "8014844393"}
{"name": "SOS DRUG COMPANY","address1": "214 S MAIN ST","address2": "","city": "SPRINGVILLE","state": "UT","zip": "84663","zip+4": "1851","phone": "8014896041"}
{"name": "STAPLEY PHARMACY","address1": "102 E CITY CENTER","address2": "","city": "ST GEORGE","state": "UT","zip": "84770","zip+4": "3460","phone": "4356733575"}
{"name": "PRIMARY CHILDRENS MEDICAL CENT","address1": "100 N. MARIO CAPECCHI DR","address2": "","city": "SALT LAKE CITY","state": "UT","zip": "84113","zip+4": "1103","phone": "8016621682"}
{"name": "WEBER HUMAN SERVICES","address1": "237 26TH ST","address2": "","city": "OGDEN","state": "UT","zip": "84401","zip+4": "0000","phone": "8016253662"}
{"name": "TAYLOR DRUG","address1": "76 N 1100 E","address2": "","city": "AMERICAN FORK","state": "UT","zip": "84003","zip+4": "2096","phone": "8017564021"}
{"name": "SOUTHWOOD APOTHECARY SHOP","address1": "880 E 9400 S","address2": "STE 118","city": "SANDY","state": "UT","zip": "84094","zip+4": "0000","phone": "8015710340"}
{"name": "VALU DRUG","address1": "1080 W 300 NORTH","address2": "","city": "CLEARFIELD","state": "UT","zip": "84015","zip+4": "0000","phone": "8017737330"}
{"name": "SMITHS PHARMACY #28 #706028","address1": "922 E 2100 S","address2": "","city": "SALT LAKE CITY","state": "UT","zip": "84106","zip+4": "0000","phone": "8014864331"}
{"name": "SMITHS PHARMACY #495 #706495","address1": "1820 WEST 9000 SOUTH","address2": "","city": "WEST JORDAN","state": "UT","zip": "84088","zip+4": "0000","phone": "8015624993"}
{"name": "CARBON MED SERV PHARMACY","address1": "305 CENTER ST","address2": "","city": "EAST CARBON","state": "UT","zip": "84520","zip+4": "0930","phone": "4358880422"}
{"name": "PROFESSIONAL PLAZA PHCY INC","address1": "2065 N ROBBINS DR","address2": "","city": "LAYTON","state": "UT","zip": "84041","zip+4": "1133","phone": "8017733863"}
{"name": "HARMONS PHARMACY #05","address1": "37 N HARRISVILLE RD","address2": "","city": "OGDEN","state": "UT","zip": "84404","zip+4": "3995","phone": "8016212532"}
{"name": "SMITHS PHARMACY #47 #706047","address1": "2039 EAST 9400 SOUTH","address2": "","city": "SANDY","state": "UT","zip": "84092","zip+4": "0000","phone": "8019422227"}
{"name": "SMITHS PHARMACY #48 #706048","address1": "1075 EAST MAIN ST","address2": "","city": "PRICE","state": "UT","zip": "84501","zip+4": "0000","phone": "4356370840"}
{"name": "HARMONS PHARMACY #21","address1": "3270 S 1300 E","address2": "","city": "SALT LAKE CITY","state": "UT","zip": "84106","zip+4": "0000","phone": "8014875461"}
{"name": "KMART PHARMACY #4162","address1": "1770 W 4100 S","address2": "","city": "SALT LAKE CITY","state": "UT","zip": "84119","zip+4": "0000","phone": "8019734201"}
{"name": "EDGEMONT PHARMACY","address1": "3661 N CANYON RD","address2": "","city": "PROVO","state": "UT","zip": "84604","zip+4": "0000","phone": "8012267994"}
{"name": "ALLENS SUPER SAVE PHARMACY #1","address1": "655 E 300 S","address2": "","city": "PROVO","state": "UT","zip": "84606","zip+4": "4962","phone": "8013755005"}
{"name": "SMITHS PHARMACY #75 #706075","address1": "632 SOUTH 100 WEST","address2": "","city": "PAYSON","state": "UT","zip": "84651","zip+4": "0000","phone": "8014652591"}
{"name": "MOUNTAIN VIEW HOSPITAL PHARMAC","address1": "1000 E HWY 91","address2": "","city": "PAYSON","state": "UT","zip": "84651","zip+4": "1690","phone": "8014659201"}
{"name": "KMART PHARMACY #3085","address1": "680 WEST 2600 SOUTH","address2": "","city": "WOODS CROSS","state": "UT","zip": "84087","zip+4": "0000","phone": "8012923911"}
{"name": "KMART PHARMACY #3096","address1": "475 N STATE ST","address2": "","city": "OREM","state": "UT","zip": "84057","zip+4": "0000","phone": "8012262559"}
{"name": "KMART PHARMACY #7618","address1": "1442 W 90TH SOUTH","address2": "","city": "WEST JORDAN","state": "UT","zip": "84088","zip+4": "0000","phone": "8015628978"}
{"name": "KMART PHARMACY #4159","address1": "4670 S 900 EAST","address2": "","city": "SALT LAKE CITY","state": "UT","zip": "84117","zip+4": "0000","phone": "8012632484"}
{"name": "SMITHS PHARMACY #44 #706044","address1": "876 EAST 800 SOUTH","address2": "","city": "SALT LAKE CITY","state": "UT","zip": "84102","zip+4": "0000","phone": "8013555257"}
{"name": "KMART PHARMACY #7425","address1": "900 E EXPRESSWAY LANE","address2": "","city": "SPANISH FORK","state": "UT","zip": "84660","zip+4": "0000","phone": "8017989806"}
{"name": "SPENCES NORTH PHARMACY","address1": "550 E 1400 N","address2": "","city": "LOGAN","state": "UT","zip": "84341","zip+4": "0000","phone": "4357538500"}
{"name": "SMITHS PHARMACY #82 #706082","address1": "1080 WEST HIGHWAY 40","address2": "","city": "VERNAL","state": "UT","zip": "84078","zip+4": "0000","phone": "4357897235"}
{"name": "SMITHS PHARMACY #80 #706080","address1": "828 SOUTH 900 WEST","address2": "","city": "SALT LAKE CITY","state": "UT","zip": "84104","zip+4": "0000","phone": "8013642564"}
{"name": "KMART PHARMACY #7426","address1": "2010 N MAIN","address2": "","city": "LAYTON","state": "UT","zip": "84041","zip+4": "0000","phone": "8017764173"}
{"name": "KMART PHARMACY #7423","address1": "1750 N MAIN","address2": "","city": "LOGAN","state": "UT","zip": "84341","zip+4": "0000","phone": "4357529641"}
{"name": "KMART PHARMACY #7512","address1": "3835 WEST 5400 SOUTH ST","address2": "","city": "KEARNS","state": "UT","zip": "84118","zip+4": "0000","phone": "8019661488"}
{"name": "SMITHS PHARMACY #178 #706178","address1": "156 SOUTH MAIN","address2": "","city": "BRIGHAM CITY","state": "UT","zip": "84302","zip+4": "0000","phone": "4357342027"}
{"name": "SMITHS PHARMACY #77 #706077","address1": "402 6TH AVE","address2": "","city": "SALT LAKE CITY","state": "UT","zip": "84103","zip+4": "0000","phone": "8013554617"}
{"name": "ALTA VIEW HOSPITAL OUTPATIENT","address1": "9660 S 1300 E","address2": "","city": "SANDY","state": "UT","zip": "84094","zip+4": "3762","phone": "8015012741"}
{"name": "SAVON PHARMACY #354","address1": "25 W CENTER ST","address2": "","city": "OREM","state": "UT","zip": "84058","zip+4": "0000","phone": "8012243684"}
{"name": "HARMONS PHARMACY #73","address1": "5454 S REDWOOD RD","address2": "","city": "TAYLORSVILLE","state": "UT","zip": "84123","zip+4": "5319","phone": "8019679185"}
{"name": "COTTONWOOD APOTHECARY #531","address1": "5770 S 250 E","address2": "SUITE 145","city": "MURRAY","state": "UT","zip": "84107","zip+4": "8138","phone": "8013142325"}
{"name": "ALLENS SUPER SAVE #2","address1": "1950 N STATE ST","address2": "","city": "OREM","state": "UT","zip": "84057","zip+4": "0000","phone": "8012243131"}
{"name": "FAMILY PHARMACY","address1": "1172 E 100 N","address2": "STE 1","city": "PAYSON","state": "UT","zip": "84651","zip+4": "1634","phone": "8014654322"}
{"name": "ZION PHARMACY","address1": "14 E CENTER ST","address2": "","city": "KANAB","state": "UT","zip": "84741","zip+4": "3542","phone": "4356442702"}
{"name": "B AND H PHARMACY","address1": "286 W CENTER","address2": "","city": "PROVO","state": "UT","zip": "84601","zip+4": "4488","phone": "8013737288"}
{"name": "HARMONS PHARMACY #61","address1": "1189 E 700 S ST","address2": "","city": "ST GEORGE","state": "UT","zip": "84790","zip+4": "0000","phone": "4356282824"}
{"name": "HARMONS PHARMACY #91","address1": "5370 S 1900 W","address2": "","city": "ROY","state": "UT","zip": "84067","zip+4": "2907","phone": "8018252788"}
{"name": "REAMS PHARMACY","address1": "2783 S STATE","address2": "","city": "SALT LAKE CITY","state": "UT","zip": "84110","zip+4": "0000","phone": "8014850054"}
{"name": "LTDEE PHARMACY #132","address1": "4401 HARRISON BLVD","address2": "","city": "OGDEN","state": "UT","zip": "84409","zip+4": "0000","phone": "8013877500"}
{"name": "RITE AID PHARMACY #06138","address1": "5540 SOUTH 9TH EEAST","address2": "","city": "SALT LAKE CITY","state": "UT","zip": "84117","zip+4": "0000","phone": "8012622981"}
{"name": "RITE AID PHARMACY #06137","address1": "150 NORTH 900 WEST","address2": "","city": "SALT LAKE CITY","state": "UT","zip": "84116","zip+4": "3334","phone": "8015213560"}
{"name": "RITE AID PHARMACY #06148","address1": "1324 NORTH STATE STREET","address2": "RIVERXSIDE PLAZA","city": "PROVO","state": "UT","zip": "84601","zip+4": "2419","phone": "8013742015"}
{"name": "RITE AID PHARMACY #06147","address1": "142 NORTH HARRISVILLE ROAD","address2": "","city": "OGDEN","state": "UT","zip": "84404","zip+4": "3928","phone": "8013936093"}
{"name": "RITE AID PHARMACY #06146","address1": "851 24TH STREET","address2": "","city": "OGDEN","state": "UT","zip": "84401","zip+4": "2601","phone": "8013936044"}
{"name": "RITE AID PHARMACY #06132","address1": "220 SOUTH 7TH EAST","address2": "","city": "SALT LAKE CITY","state": "UT","zip": "84102","zip+4": "2106","phone": "8015214188"}
{"name": "RITE AID PHARMACY #06143","address1": "2378 EAST 7000 SOUTH","address2": "HILLSIDE PLAZA SHOPPING CENTER","city": "SALT LAKE CITY","state": "UT","zip": "84121","zip+4": "3339","phone": "8019432446"}
{"name": "RITE AID PHARMACY #06133","address1": "635 EAST 3300 SOUTH","address2": "","city": "SALT LAKE CITY","state": "UT","zip": "84106","zip+4": "1233","phone": "8014670152"}
{"name": "RITE AID PHARMACY #06126","address1": "774 SOUTH STATE STREET","address2": "","city": "OREM","state": "UT","zip": "84058","zip+4": "6308","phone": "8014266650"}
{"name": "BOYDS FAMILY PHARMACY","address1": "25 W MAIN ST","address2": "","city": "CASTLEDALE","state": "UT","zip": "84513","zip+4": "0000","phone": "4353815464"}
{"name": "SMITHS PHARMACY #65 #706065","address1": "8055 WEST 3500 SOUTH","address2": "","city": "MAGNA","state": "UT","zip": "84044","zip+4": "0000","phone": "8012506900"}
{"name": "PIONEER VALLEY PHARMACY","address1": "4052 W PIONEER PARKWAY","address2": "SUITE 111","city": "WEST VALLEY CITY","state": "UT","zip": "84120","zip+4": "0000","phone": "8019643935"}
{"name": "KMART PHARMACY #7412","address1": "3330 S 5600 W ST","address2": "","city": "WEST VALLEY CITY","state": "UT","zip": "84120","zip+4": "0000","phone": "8019660282"}
{"name": "SMITHS PHARMACY #81 #706081","address1": "3470 EAST 7800 SOUTH","address2": "","city": "SALT LAKE CITY","state": "UT","zip": "84121","zip+4": "0000","phone": "8019430177"}
{"name": "SMITHS PHARMACY #66 #706066","address1": "4065 S REDWOOD RD","address2": "","city": "WEST VALLEY CITY","state": "UT","zip": "84123","zip+4": "0000","phone": "8019724945"}
{"name": "TIMPVIEW PARMAHCY #144","address1": "1055 N 300 W","address2": "STE 201","city": "PROVO","state": "UT","zip": "84604","zip+4": "3374","phone": "8013577333"}
{"name": "REDWOOD PHARMACY #81273","address1": "1525 W 2100 S","address2": "","city": "SALT LAKE CITY","state": "UT","zip": "84119","zip+4": "1407","phone": "8012139950"}
{"name": "SMITHS PHARMACY #83 #706083","address1": "665 WEST 5300 SOUTH","address2": "","city": "MURRAY","state": "UT","zip": "84107","zip+4": "0000","phone": "8012690066"}
{"name": "SMITHS PHARMACY #69 #706069","address1": "1174 WEST 600 NORTH","address2": "","city": "SALT LAKE CITY","state": "UT","zip": "84116","zip+4": "0000","phone": "8013631047"}
{"name": "SKYLINE PHARMACY","address1": "1 W MAIN ST","address2": "","city": "MOUNT PLEASANT","state": "UT","zip": "84647","zip+4": "1327","phone": "4354622434"}
{"name": "SMITHS PHARMACY #79 #706079","address1": "2560 NORTH 400 EAST","address2": "","city": "OGDEN","state": "UT","zip": "84404","zip+4": "0000","phone": "8017823303"}
{"name": "SMITHS PHARMACY #133 #706133","address1": "845 EAST 4500 SOUTH","address2": "","city": "SALT LAKE CITY","state": "UT","zip": "84107","zip+4": "0000","phone": "8012618787"}
{"name": "MEDICINE SHOPPE PHARMACY #0863","address1": "47 EAST 500 SOUTH","address2": "","city": "BOUNTIFUL","state": "UT","zip": "84010","zip+4": "0000","phone": "8012953463"}
{"name": "JOLLEYS SANDY PHARMACY","address1": "9829 S 1300 E","address2": "SUITE 100","city": "SANDY","state": "UT","zip": "84094","zip+4": "3761","phone": "8015710201"}
{"name": "SMITHS PHARMACY #137 #706137","address1": "4643 S 4000 WEST","address2": "","city": "WEST VALLEY CITY","state": "UT","zip": "84120","zip+4": "0000","phone": "8019681896"}
{"name": "APOTHECARY WEST","address1": "4188 W 5415 SOUTH","address2": "","city": "KEARNS","state": "UT","zip": "84118","zip+4": "4310","phone": "8019691986"}
{"name": "DANS DRUG # #2","address1": "2330 E 3300 S","address2": "","city": "SALT LAKE CITY","state": "UT","zip": "84109","zip+4": "0000","phone": "8014877585"}
{"name": "SMITHS PHARMACY #131 #706131","address1": "1485 HARRISON BLVD","address2": "","city": "OGDEN","state": "UT","zip": "84404","zip+4": "0000","phone": "8016210211"}
{"name": "SAVON PHARMACY #339","address1": "740 N MAIN ST","address2": "","city": "TOOELE","state": "UT","zip": "84074","zip+4": "0000","phone": "4358828990"}
{"name": "KENTS PHARMACY","address1": "300 E MAIN ST","address2": "","city": "TREMONTON","state": "UT","zip": "84337","zip+4": "2319","phone": "4352570445"}
{"name": "DAVIS FOOD & DRUG # #3","address1": "3765 S 2700 WEST","address2": "","city": "WEST VALLEY CITY","state": "UT","zip": "84119","zip+4": "3721","phone": "8019691493"}
{"name": "DAVIS FOOD AND DRUG PHARMACY #","address1": "750 E 200 N","address2": "","city": "ROOSEVELT","state": "UT","zip": "84066","zip+4": "3005","phone": "4357222255"}
{"name": "DAVIS FOOD AND DRUG #1","address1": "575 W MAIN ST","address2": "","city": "VERNAL","state": "UT","zip": "84078","zip+4": "2405","phone": "4357897011"}
{"name": "SMITHS PHARMACY #135 #706135","address1": "1316 NORTH HIGHWAY 89","address2": "","city": "FARMINGTON","state": "UT","zip": "84025","zip+4": "0000","phone": "8014512900"}
{"name": "SMITHS PHARMACY #136 #706136","address1": "350 NORTH FREEDOM BLVD","address2": "","city": "PROVO","state": "UT","zip": "84601","zip+4": "0000","phone": "8013779250"}
{"name": "RITE AID PHARMACY #06139","address1": "4714 HOLLADAY BOULEVARD","address2": "","city": "HOLLADAY","state": "UT","zip": "84117","zip+4": "5403","phone": "8012789767"}
{"name": "MEDICAL MALL PHARMACY #552","address1": "3865 W 4700 S","address2": "","city": "WEST VALLEY CITY","state": "UT","zip": "84118","zip+4": "3454","phone": "8018404350"}
{"name": "SHOPKO PHARMACY #82","address1": "5959 S STATE ST","address2": "","city": "MURRAY","state": "UT","zip": "84107","zip+4": "7222","phone": "8012613737"}
{"name": "SHOPKO PHARMACY #83","address1": "2165 E 9400 S","address2": "","city": "SANDY","state": "UT","zip": "84093","zip+4": "3201","phone": "8019428555"}
{"name": "SHOPKO PHARMACY #84","address1": "1553 W 9000 S","address2": "","city": "WEST JORDAN","state": "UT","zip": "84088","zip+4": "9219","phone": "8015625400"}
{"name": "SHOPKO PHARMACY #85","address1": "5800 S REDWOOD RD","address2": "","city": "SALT LAKE CITY","state": "UT","zip": "84123","zip+4": "5327","phone": "8019675100"}
{"name": "SHOPKO PHARMACY #86","address1": "2266 N UNIVERSITY PKWY","address2": "","city": "PROVO","state": "UT","zip": "84604","zip+4": "1510","phone": "8013752000"}
{"name": "SHOPKO PHARMACY #87","address1": "1018 WASHINGTON BLVD","address2": "","city": "OGDEN","state": "UT","zip": "84404","zip+4": "4949","phone": "8013925800"}
{"name": "SHOPKO PHARMACY #88","address1": "1150 N MAIN ST","address2": "","city": "LAYTON","state": "UT","zip": "84041","zip+4": "4853","phone": "8015460404"}
{"name": "NEPHI PROFESSIONAL PHARMACY","address1": "965 N MAIN ST","address2": "","city": "NEPHI","state": "UT","zip": "84648","zip+4": "1003","phone": "4356232183"}
{"name": "SMITHS PHARMACY #149 #706149","address1": "1170 EAST GENTILE","address2": "","city": "LAYTON","state": "UT","zip": "84041","zip+4": "4062","phone": "8015463497"}
{"name": "RITE AID PHARMACY #06135","address1": "2266 EAST 3300 SOUTH","address2": "","city": "SALT LAKE CITY","state": "UT","zip": "84109","zip+4": "2635","phone": "8014854852"}
{"name": "RITE AID PHARMACY #06149","address1": "615 EAST SAINT GEORGE BOULEVAR","address2": "","city": "ST GEORGE","state": "UT","zip": "84770","zip+4": "3033","phone": "4356734305"}
{"name": "SMITHS PHARMACY #189 #706189","address1": "20 NORTH BLUFF ST","address2": "","city": "ST GEORGE","state": "UT","zip": "84770","zip+4": "0000","phone": "4356738898"}
{"name": "SMITHS PHARMACY #139 #706139","address1": "7061 SOUTH REDWOOD RD","address2": "","city": "WEST JORDAN","state": "UT","zip": "84084","zip+4": "0000","phone": "8015666645"}
{"name": "MADSEN PHARMACY #91274","address1": "555 S FOOTHILL BLVD","address2": "SUITE 396","city": "SALT LAKE CITY","state": "UT","zip": "84112","zip+4": "1105","phone": "8015817652"}
{"name": "RITE AID PHARMACY #06129","address1": "8645 SOUTH HIGHLAND DRIVE","address2": "","city": "SANDY","state": "UT","zip": "84093","zip+4": "1695","phone": "8019420071"}
{"name": "WINEGARS PHARMACY","address1": "3341 S ORCHARD DR","address2": "","city": "BOUNTIFUL","state": "UT","zip": "84010","zip+4": "0000","phone": "8012925558"}
{"name": "SHOPKO PHARMACY #91","address1": "1341 N MAIN ST","address2": "","city": "LOGAN","state": "UT","zip": "84341","zip+4": "2221","phone": "4357532700"}
{"name": "DELTA DRUG AND GIFT LLC","address1": "111 E MAIN ST","address2": "","city": "DELTA","state": "UT","zip": "84624","zip+4": "0000","phone": "4358645122"}
{"name": "SHOPKO PHARMACY #97","address1": "4850 W 3500 S","address2": "","city": "WEST VALLEY CITY","state": "UT","zip": "84120","zip+4": "2927","phone": "8019666500"}
{"name": "SMITHS PHARMACY #87 #706087","address1": "175 EAST 442 NORTH","address2": "","city": "LOGAN","state": "UT","zip": "84321","zip+4": "0000","phone": "4357536570"}
{"name": "DANS DRUG # #8","address1": "1360 S FOOTHILL DR","address2": "","city": "SALT LAKE CITY","state": "UT","zip": "84108","zip+4": "0000","phone": "8015811700"}
{"name": "KMART PHARMACY #3765","address1": "1165 SOUTH UNIVERSITY AVE","address2": "","city": "PROVO","state": "UT","zip": "84601","zip+4": "0000","phone": "8013772092"}
{"name": "CITY MARKET PHARMACY #620410","address1": "425 S MAIN STREET","address2": "","city": "MOAB","state": "UT","zip": "84532","zip+4": "0000","phone": "4352598971"}
{"name": "ART CITY PHARMACY","address1": "405 S MAIN","address2": "","city": "SPRINGVILLE","state": "UT","zip": "84660","zip+4": "0000","phone": "8014895618"}
{"name": "SMITHS PHARMACY #140 #706140","address1": "2353 NORTH MAIN ST","address2": "","city": "SUNSET","state": "UT","zip": "84015","zip+4": "0000","phone": "8018252262"}
{"name": "SMITHS PHARMACY #151 #706151","address1": "2399 S MAIN ST","address2": "","city": "BOUNTIFUL","state": "UT","zip": "84010","zip+4": "0000","phone": "8012982124"}
{"name": "SMITHS PHARMACY #153 #706153","address1": "10305 SOUTH 1300 EAST","address2": "","city": "SANDY","state": "UT","zip": "84092","zip+4": "0000","phone": "8015721398"}
{"name": "WAL-MART PHARMACY #101439","address1": "625 W TELEGRAPH ST.","address2": "","city": "WASHINGTON","state": "UT","zip": "84780","zip+4": "0000","phone": "4356285424"}
{"name": "WAL-MART PHARMACY #101440","address1": "99 WEST 1280 NORTH","address2": "","city": "TOOELE","state": "UT","zip": "84074","zip+4": "0000","phone": "4358820150"}
{"name": "MACEYS PHARMACY #1","address1": "880 N STATE ST","address2": "","city": "OREM","state": "UT","zip": "84057","zip+4": "0000","phone": "8012254621"}
{"name": "SHOPKO PHARMACY #104","address1": "747 S MAIN ST","address2": "","city": "BRIGHAM CITY","state": "UT","zip": "84302","zip+4": "3359","phone": "4357231600"}
{"name": "WAL-MART PHARMACY #101438","address1": "1330 SO. PROVIDENCE CENTER DR.","address2": "","city": "CEDAR CITY","state": "UT","zip": "84720","zip+4": "0000","phone": "4355860155"}
{"name": "SMITHS PHARMACY #144 #706144","address1": "45 SOUTH STATE ST","address2": "","city": "OREM","state": "UT","zip": "84057","zip+4": "0000","phone": "8012243332"}
{"name": "KMART PHARMACY #9794","address1": "745 SOUTH BLUFF","address2": "","city": "SAINT GEORGE","state": "UT","zip": "84770","zip+4": "0000","phone": "4356281258"}
{"name": "SHOPKO PHARMACY #105","address1": "125 S STATE ST","address2": "","city": "OREM","state": "UT","zip": "84058","zip+4": "5419","phone": "8012249800"}
{"name": "WAL-MART PHARMACY #101572","address1": "1851 WEST HWY 40","address2": "","city": "VERNAL","state": "UT","zip": "84078","zip+4": "0000","phone": "4357899787"}
{"name": "WAL-MART PHARMACY #101573","address1": "255 SOUTH HIGHWAY 55","address2": "","city": "PRICE","state": "UT","zip": "84501","zip+4": "0000","phone": "4356376974"}
{"name": "SHOPKO PHARMACY #107","address1": "190 S 500 W","address2": "","city": "BOUNTIFUL","state": "UT","zip": "84010","zip+4": "8729","phone": "8012956900"}
{"name": "SHOPKO PHARMACY #108","address1": "955 N MAIN ST","address2": "","city": "SPANISH FORK","state": "UT","zip": "84660","zip+4": "1150","phone": "8017983529"}
{"name": "SHOPKO PHARMACY #109","address1": "4060 RIVERDALE RD","address2": "","city": "RIVERDALE","state": "UT","zip": "84405","zip+4": "1518","phone": "8013926800"}
{"name": "CECILS PHARMACY","address1": "300 E MAIN ST","address2": "","city": "LEHI","state": "UT","zip": "84043","zip+4": "2242","phone": "8017684244"}
{"name": "WAL-MART PHARMACY #101708","address1": "4848 SO. 900 WEST ST","address2": "","city": "RIVERDALE","state": "UT","zip": "84405","zip+4": "0000","phone": "8016270069"}
{"name": "FAMILY PLAZA PHARMACY","address1": "3570 W 9000 S","address2": "STE 150","city": "WEST JORDAN","state": "UT","zip": "84088","zip+4": "8811","phone": "8015690175"}
{"name": "TERRACE PHARMACY","address1": "425 E 5350 SOUTH","address2": "","city": "OGDEN","state": "UT","zip": "84405","zip+4": "0000","phone": "8014799645"}
{"name": "WAL-MART PHARMACY #101699","address1": "745 WEST HILL FIELD ROAD","address2": "","city": "LAYTON","state": "UT","zip": "84041","zip+4": "0000","phone": "8015461993"}
{"name": "WAL-MART PHARMACY #101686","address1": "5469 SOUTH REDWOOD ROAD","address2": "","city": "TAYLORSVILLE","state": "UT","zip": "84123","zip+4": "0000","phone": "8012649797"}
{"name": "SHOPKO PHARMACY #110","address1": "2290 S 1300 E","address2": "","city": "SALT LAKE CITY","state": "UT","zip": "84106","zip+4": "2831","phone": "8014678900"}
{"name": "PARKWAY PHARMACY #86273","address1": "145 W 1300 S","address2": "","city": "OREM","state": "UT","zip": "84058","zip+4": "7316","phone": "8012348510"}
{"name": "WESTRIDGE PHARMACY #83273","address1": "3730 W 4700 S","address2": "","city": "WEST VALLEY CITY","state": "UT","zip": "84118","zip+4": "0000","phone": "8012139250"}
{"name": "GREENWOOD PHARMACY #82273","address1": "7495 S STATE ST","address2": "","city": "MIDVALE","state": "UT","zip": "84047","zip+4": "0000","phone": "8012139540"}
{"name": "ROCK CANYON PHARMACY","address1": "3179 N CANYON RD","address2": "","city": "PROVO","state": "UT","zip": "84604","zip+4": "3916","phone": "8013772002"}
{"name": "RITE AID PHARMACY #06123","address1": "535 SOUTH MAIN STREET","address2": "","city": "BOUNTIFUL","state": "UT","zip": "84010","zip+4": "6322","phone": "8012983100"}
{"name": "WAL-MART PHARMACY #101768","address1": "1355 S SANDHILL RD","address2": "","city": "OREM","state": "UT","zip": "84058","zip+4": "0000","phone": "8012210700"}
{"name": "RITE AID PHARMACY #06140","address1": "1837 WEST 4700 SOUTH","address2": "","city": "TAYLORSVILLE","state": "UT","zip": "84118","zip+4": "1103","phone": "8019670682"}
{"name": "COMMUNITY PHARMACY INC","address1": "1220 E 3900 S","address2": "STE 1H","city": "SALT LAKE CITY","state": "UT","zip": "84124","zip+4": "0000","phone": "8012700600"}
{"name": "WAL-MART PHARMACY #101827","address1": "6545 NORTH LANDMARK DRIVE","address2": "","city": "PARK CITY","state": "UT","zip": "84098","zip+4": "0000","phone": "4356479040"}
{"name": "KMART PHARMACY #9241","address1": "1040 SOUTH US HIGHWAY 89","address2": "","city": "RICHFIELD","state": "UT","zip": "84701","zip+4": "0000","phone": "4358968489"}
{"name": "RITE AID PHARMACY #06128","address1": "5673 SOUTH 1900 WEST","address2": "","city": "ROY","state": "UT","zip": "84067","zip+4": "2301","phone": "8018258021"}
{"name": "WAL-MART PHARMACY #101888","address1": "1550 NORTH MAIN","address2": "","city": "NORTH LOGAN","state": "UT","zip": "84341","zip+4": "0000","phone": "4357530990"}
{"name": "SAVON PHARMACY #359","address1": "835 S BLUFF ST","address2": "","city": "ST GEORGE","state": "UT","zip": "84770","zip+4": "0000","phone": "4356280469"}
{"name": "MEDICAL PLAZA PHARMACY","address1": "508 E S TEMPLE","address2": "SUITE124","city": "SALT LAKE CITY","state": "UT","zip": "84102","zip+4": "1013","phone": "8015390231"}
{"name": "RITE AID PHARMACY #06125","address1": "860 NORTH FAIRFIELD ROAD","address2": "RAINBOW PLAZA","city": "LAYTON","state": "UT","zip": "84041","zip+4": "2725","phone": "8015466352"}
{"name": "RITE AID PHARMACY #06136","address1": "2332 EAST 21ST SOUTH","address2": "","city": "SALT LAKE CITY","state": "UT","zip": "84109","zip+4": "1214","phone": "8014669949"}
{"name": "RITE AID PHARMACY #06127","address1": "950 IRON HORSE DRIVE","address2": "","city": "PARK CITY","state": "UT","zip": "84060","zip+4": "1268","phone": "4356499621"}
{"name": "KMART PHARMACY #7542","address1": "610 WEST PRICE RIVER DRIVE","address2": "","city": "PRICE","state": "UT","zip": "84501","zip+4": "0000","phone": "4356370806"}
{"name": "SAVON PHARMACY #353","address1": "3871 W 5400 S","address2": "","city": "TAYLORSVILLE","state": "UT","zip": "84118","zip+4": "0000","phone": "8019668333"}
{"name": "SUPERIOR CARE PHARMACY SALT LA","address1": "2280 W ALEXANDER ST","address2": "","city": "SALT LAKE CITY","state": "UT","zip": "84119","zip+4": "0000","phone": "8012663999"}
{"name": "SMITHS PHARMACY #138 #706138","address1": "1634 W SOUTH JORDAN PARKWAY","address2": "","city": "SOUTH JORDAN","state": "UT","zip": "84095","zip+4": "0000","phone": "8012544660"}
{"name": "RITE AID PHARMACY #06124","address1": "1166 EAST DRAPER PARKWAY","address2": "","city": "DRAPER","state": "UT","zip": "84020","zip+4": "9637","phone": "8015713169"}
{"name": "KMART PHARMACY #7624","address1": "1055 W DRAPER PARKWAY","address2": "","city": "DRAPER","state": "UT","zip": "84020","zip+4": "0000","phone": "8015710112"}
{"name": "RITE AID PHARMACY #06131","address1": "72 SOUTH MAIN STREET","address2": "","city": "SALT LAKE CITY","state": "UT","zip": "84101","zip+4": "1506","phone": "8015310583"}
{"name": "THE MEDICINE CENTER","address1": "2036 E 6200 SOUTH","address2": "","city": "SALT LAKE CITY","state": "UT","zip": "84121","zip+4": "0000","phone": "8012782101"}
{"name": "MACEYS PHARMACY #2","address1": "7859 S 3200 W","address2": "","city": "WEST JORDAN","state": "UT","zip": "84088","zip+4": "0000","phone": "8012557557"}
{"name": "BRIGHAM PHARMACY","address1": "1017 S MEDICAL DRIVE","address2": "","city": "BRIGHAM CITY","state": "UT","zip": "84302","zip+4": "3049","phone": "4357235211"}
{"name": "LINS SUPERMARKET PHARMACY #3","address1": "1120 W STATE ST","address2": "","city": "HURRICANE","state": "UT","zip": "84737","zip+4": "2054","phone": "4356353840"}
{"name": "TREMONTON COMMUNITY PHCY INC","address1": "44 E MAIN ST","address2": "","city": "TREMONTON","state": "UT","zip": "84337","zip+4": "1624","phone": "4352575249"}
{"name": "KOHLERS FOOD STOERS PHARMACY","address1": "5353 W 11000 NORTH","address2": "","city": "HIGHLAND","state": "UT","zip": "84003","zip+4": "0000","phone": "8017568353"}
{"name": "KENTS PHARMACY","address1": "475 S MAIN ST","address2": "","city": "EPHRAIM","state": "UT","zip": "84627","zip+4": "1317","phone": "4352830340"}
{"name": "12TH STREET PHARMACY","address1": "698 E 12TH ST","address2": "","city": "OGDEN","state": "UT","zip": "84404","zip+4": "0000","phone": "8016212154"}
{"name": "LINS SUPERMARKET PHARMACY #2","address1": "1930 W SUNSET BLVD","address2": "","city": "ST GEORGE","state": "UT","zip": "84770","zip+4": "0000","phone": "4356739781"}
{"name": "COSTCO PHARMACY #764","address1": "5201 S INTERMOUNTAIN DR","address2": "","city": "MURRAY","state": "UT","zip": "84107","zip+4": "0000","phone": "8012904202"}
{"name": "IHC HEALTH CENTER PHARMACY LAY","address1": "2075 N 1200 W","address2": "","city": "LAYTON","state": "UT","zip": "84041","zip+4": "1616","phone": "8017796210"}
{"name": "WAL-MART PHARMACY #102207","address1": "7250 SO UNION PARK AVE","address2": "","city": "MIDVALE","state": "UT","zip": "84047","zip+4": "0000","phone": "8012550294"}
{"name": "WAL-MART PHARMACY #102307","address1": "11328 SO JORDAN GATEWAY ROAD","address2": "","city": "SOUTH JORDAN","state": "UT","zip": "84095","zip+4": "0000","phone": "8015532270"}
{"name": "NORTH VIEW PHARMACY","address1": "2121 N ROBBINS DR","address2": "","city": "LATON","state": "UT","zip": "84041","zip+4": "0000","phone": "8017735666"}
{"name": "HARMONS PHARMACY #33","address1": "4874 W 6200 S","address2": "","city": "KEARNS","state": "UT","zip": "84118","zip+4": "0000","phone": "8019637200"}
{"name": "CORAM HEALTHCARE CORP OF UTAH","address1": "1149 W 2240 S","address2": "STE A","city": "SALT LAKE CITY","state": "UT","zip": "84119","zip+4": "0000","phone": "8019739797"}
{"name": "SAVON PHARMACY #387","address1": "1585 N STATE ST","address2": "","city": "OREM","state": "UT","zip": "84057","zip+4": "0000","phone": "8012219467"}
{"name": "SUPERIOR CARE PHARMACY ST GEOR","address1": "595 S BLUFF ST STE 3","address2": "","city": "ST GEORGE","state": "UT","zip": "84770","zip+4": "0000","phone": "4356523999"}
{"name": "SMITHS PHARMACY #72 #706072","address1": "1725 WEST UINTA WAY","address2": "","city": "KIMBALL JUNCTION","state": "UT","zip": "84098","zip+4": "0000","phone": "4356497606"}
{"name": "COSTCO PHARMACY #113","address1": "1818 S 300 WEST STREET","address2": "","city": "SALT LAKE CITY","state": "UT","zip": "84115","zip+4": "0000","phone": "8014859885"}
{"name": "SUPER DRUG AND HERBAL STORE","address1": "520 S MAIN","address2": "PO BOX 716","city": "GUNNISON","state": "UT","zip": "84634","zip+4": "0000","phone": "4355287555"}
{"name": "LINS SUPERMARKET PHARMACY #3","address1": "150 N MAIN","address2": "","city": "CEDAR CITY","state": "UT","zip": "84720","zip+4": "0000","phone": "4358656665"}
{"name": "UNIV UT NEUROPHSYCHIATRIC INST","address1": "501 CHIPETA WAY","address2": "","city": "SALT LAKE CITY","state": "UT","zip": "84108","zip+4": "0000","phone": "8015873202"}
{"name": "SMITHS PHARMACY #42 #706042","address1": "633 S MAIN ST","address2": "","city": "CEDAR CITY","state": "UT","zip": "84720","zip+4": "0000","phone": "4355861043"}
{"name": "TARGET PHARMACY #1750","address1": "200 NORTH MARKET PLACE DR","address2": "","city": "CENTERVILLE","state": "UT","zip": "84014","zip+4": "0000","phone": "8012921546"}
{"name": "TARGET PHARMACY #1751","address1": "7025 SOUTH PARK CENTRE DR","address2": "","city": "SALT LAKE CITY","state": "UT","zip": "84121","zip+4": "0000","phone": "8012552566"}
{"name": "IHC HEALTH CENTER PHARMACY BOU","address1": "390 N MAIN","address2": "","city": "BOUNTIFUL","state": "UT","zip": "84010","zip+4": "6046","phone": "8012941004"}
{"name": "TARGET PHARMACY #1752","address1": "10130 SOUTH STATE STREET","address2": "","city": "SANDY","state": "UT","zip": "84070","zip+4": "0000","phone": "8012553101"}
{"name": "DICKS FAMILY PHARMACY","address1": "2280 S ORCHARD DR","address2": "","city": "BOUNTIFUL","state": "UT","zip": "84010","zip+4": "0000","phone": "8012962222"}
{"name": "WAL-MART PHARMACY #102511","address1": "949 WEST GRASSLAND DRIVE","address2": "","city": "AMERICAN FORK","state": "UT","zip": "84003","zip+4": "0000","phone": "8014921106"}
{"name": "PAYSON MARKET PHARMACY","address1": "586 N MAIN","address2": "","city": "PAYSON","state": "UT","zip": "84651","zip+4": "0000","phone": "8014652343"}
{"name": "TARGET PHARMACY #1754","address1": "175 WEST CENTER STREET","address2": "","city": "OREM","state": "UT","zip": "84057","zip+4": "0000","phone": "8012246510"}
{"name": "TARGET PHARMACY #1753","address1": "1135 WEST RIVERDALE RD","address2": "","city": "RIVERDALE","state": "UT","zip": "84405","zip+4": "0000","phone": "8013924772"}
{"name": "MEDICAL CENTER PHARMACY","address1": "1050 E SOUTH TEMPLE","address2": "","city": "SALT LAKE CITY","state": "UT","zip": "84102","zip+4": "0000","phone": "8013508140"}
{"name": "SAVON PHARMACY #301","address1": "915 W REDCLIFF DR","address2": "","city": "WASHINGTON","state": "UT","zip": "84780","zip+4": "0000","phone": "4356287430"}
{"name": "DAYS PHARMACY","address1": "890 S MAIN","address2": "","city": "HEBER CITY","state": "UT","zip": "84032","zip+4": "0000","phone": "4356540414"}
{"name": "SMITHS PHARMACY #63 #706063","address1": "550 N MAIN ST","address2": "","city": "HEBER CITY","state": "UT","zip": "84032","zip+4": "0000","phone": "4356541267"}
{"name": "UINTAH BASIN MED CNT PHCY OP","address1": "250 W 300 N","address2": "75 2","city": "ROOSEVELT","state": "UT","zip": "84066","zip+4": "0000","phone": "4357226123"}
{"name": "BOWMANS PHARMACY","address1": "326 N MAIN ST","address2": "","city": "KAYSVILLE","state": "UT","zip": "84037","zip+4": "0000","phone": "8015441462"}
{"name": "TARGET PHARMACY #1755","address1": "815 WEST 2000 NORTH","address2": "","city": "LAYTON","state": "UT","zip": "84041","zip+4": "0000","phone": "8017736478"}
{"name": "SMITHS PHARMACY # 142 #706142","address1": "951 WEST 1700 SOUTH","address2": "","city": "SYRACUSE","state": "UT","zip": "84075","zip+4": "0000","phone": "8017735373"}
{"name": "SMITHS PHARMACY #158 #706158","address1": "4080 WEST 9000 SOUTH","address2": "","city": "WEST JORDAN","state": "UT","zip": "84088","zip+4": "0000","phone": "8012805545"}
{"name": "SMITHS PHARMACY #73 #706073","address1": "210 EAST 700 SOUTH","address2": "","city": "PLEASANT GROVE","state": "UT","zip": "84062","zip+4": "0000","phone": "8017859445"}
{"name": "HEALTHCARE PHARMACEUTICALS INC","address1": "3950 S 700 E","address2": "STE 205","city": "SALT LAKE CITY","state": "UT","zip": "84107","zip+4": "0000","phone": "8012705656"}
{"name": "SMITHS PHARMACY #132 #706132","address1": "212 EAST 12300 SOUTH","address2": "","city": "DRAPER","state": "UT","zip": "84020","zip+4": "0000","phone": "8015712115"}
{"name": "IHC HEALTH CENTER PHARMACY CEN","address1": "505 W 400 N","address2": "","city": "OREM","state": "UT","zip": "84057","zip+4": "1950","phone": "8017143511"}
{"name": "IHC HEALTH CENTER PHARMACY SAL","address1": "333 S 900 E","address2": "","city": "SALT LAKE CITY","state": "UT","zip": "84102","zip+4": "2310","phone": "8013599381"}
{"name": "PROFESSIONAL PARK","address1": "736 S 900 E STE 102","address2": "","city": "ST GEORGE","state": "UT","zip": "84790","zip+4": "0000","phone": "4356521548"}
{"name": "IHC HEALTH CENTER PHARMACY ST","address1": "577 S RIVER ROAD","address2": "","city": "ST GEORGE","state": "UT","zip": "84790","zip+4": "2097","phone": "4356886500"}
{"name": "IHC HEALTH CENTER PHARMACY LOG","address1": "1350 N 500 E","address2": "","city": "LOGAN","state": "UT","zip": "84341","zip+4": "2400","phone": "4357921521"}
{"name": "HARMON PHARMACY #88","address1": "870 E 800 N","address2": "","city": "OREM","state": "UT","zip": "84057","zip+4": "0000","phone": "8017144150"}
{"name": "IHC HEALTH CENTER PHARMACY NOR","address1": "2400 N WASHINGTON BLVD","address2": "","city": "OGDEN","state": "UT","zip": "84414","zip+4": "0000","phone": "8017867600"}
{"name": "DICK'S PHARMACY #2 #6","address1": "88 S FAIRFIELD RD","address2": "","city": "LAYTON","state": "UT","zip": "84041","zip+4": "0000","phone": "8015434337"}
{"name": "RITE AID PHARMACY #06304","address1": "1550 NORTH STATE STREET","address2": "","city": "OREM","state": "UT","zip": "84057","zip+4": "2548","phone": "8017620396"}
{"name": "SAVON PHARMACY #385","address1": "6950 S REDWOOD RD","address2": "","city": "WEST JORDAN","state": "UT","zip": "84084","zip+4": "0000","phone": "8015681709"}
{"name": "LEES MARKETPLACE PHARMACY","address1": "2645 N WASHINGTON BLVD","address2": "","city": "NORTH OGDEN","state": "UT","zip": "84414","zip+4": "0000","phone": "8017826116"}
{"name": "RITE AID PHARMACY #06311","address1": "819 NORTH MAIN STREET","address2": "","city": "PAYSON","state": "UT","zip": "84651","zip+4": "3426","phone": "8014650363"}
{"name": "MACEYS PHARMACY #3","address1": "1402 N STATE ST","address2": "","city": "PROVO","state": "UT","zip": "84604","zip+4": "0000","phone": "8013770307"}
{"name": "SHARED PHCY SVCS","address1": "5235 GREENPINE DR","address2": "","city": "MURRAY","state": "UT","zip": "84123","zip+4": "0000","phone": "8012626980"}
{"name": "SMITHS PHARMACY #85 #706085","address1": "980 EAST FORT UNION BLVD","address2": "","city": "MIDVALE","state": "UT","zip": "84047","zip+4": "0000","phone": "8012560532"}
{"name": "TARGET PHARMACY #0768","address1": "6748 SOUTH REDWOOD ROAD","address2": "","city": "WEST JORDAN","state": "UT","zip": "84084","zip+4": "0000","phone": "8015650017"}
{"name": "RED BUTTE PHARMACY #91269","address1": "546 CHIPETA WAY","address2": "","city": "SALT LAKE CITY","state": "UT","zip": "84108","zip+4": "0000","phone": "8015850544"}
{"name": "STANSBURY PHARMACY #85273","address1": "220 MILLPOND RD","address2": "STE 100","city": "STANSBURY PARK","state": "UT","zip": "84074","zip+4": "9760","phone": "4358433052"}
{"name": "LINS SUPERMARKET PHARMACY #4","address1": "670 N MAIN","address2": "","city": "RICHFIELD","state": "UT","zip": "84701","zip+4": "0000","phone": "4358969253"}
{"name": "LEES MARKETPLACE PHARMACY #2","address1": "555 EAST 1400 NORTH","address2": "","city": "LOGAN","state": "UT","zip": "84341","zip+4": "0000","phone": "4357500258"}
{"name": "COSTCO PHARMACY #484","address1": "648 EAST 800 SOUTH","address2": "","city": "OREM","state": "UT","zip": "84097","zip+4": "0000","phone": "8018515002"}
{"name": "HUNTSMAN CANCER RETAIL PHARMAC","address1": "1950 CIRCLE OF HOPE","address2": "STE 2110","city": "SALT LAKE CITY","state": "UT","zip": "84112","zip+4": "0000","phone": "8015850172"}
{"name": "LARRYS SMITHFIELD PHARMACY INC","address1": "502 S MAIN STE B","address2": "","city": "SMITHFIELD","state": "UT","zip": "84335","zip+4": "0000","phone": "4355636262"}
{"name": "LEES MARKETPLACE PHARMACY","address1": "850 S MAIN","address2": "","city": "SMITHFIELD","state": "UT","zip": "84335","zip+4": "0000","phone": "4355636201"}
{"name": "COSTCO PHARMACY #487","address1": "11100 S AUTO MALL DRIVE","address2": "","city": "SANDY","state": "UT","zip": "84070","zip+4": "0000","phone": "8017900002"}
{"name": "INFUSION INNOVATIONS","address1": "2446 S PROGRESS DR","address2": "","city": "SALT LAKE CITY","state": "UT","zip": "84119","zip+4": "0000","phone": "8019086100"}
{"name": "WALGREEN DRUG STORE #5929","address1": "5630 W 4100 SOUTH","address2": "","city": "WEST VALLEY","state": "UT","zip": "84128","zip+4": "0000","phone": "8018401822"}
{"name": "MACEYS PHARMACY #4","address1": "7850 S 1300 E","address2": "","city": "SANDY","state": "UT","zip": "84094","zip+4": "0000","phone": "8015671423"}
{"name": "MACEYS PHARMACY #5","address1": "972 N MAIN ST","address2": "","city": "TOOELE","state": "UT","zip": "84074","zip+4": "0000","phone": "4358438821"}
{"name": "SMITHS PHARMACY #147 #706147","address1": "5620 W 4100 S","address2": "","city": "WEST VALLEY CITY","state": "UT","zip": "84128","zip+4": "0000","phone": "8019666546"}
{"name": "WAL-MART PHARMACY #102794","address1": "777 N MAIN","address2": "","city": "EPHRAIM","state": "UT","zip": "84627","zip+4": "0000","phone": "4352838194"}
{"name": "WALGREEN DRUG STORE #6183","address1": "515 S 500 W","address2": "","city": "BOUNTIFUL","state": "UT","zip": "84010","zip+4": "0000","phone": "8012940148"}
{"name": "SAMS PHARMACY #106682","address1": "1055 W HILLFIELD ROAD","address2": "","city": "LAYTON","state": "UT","zip": "84041","zip+4": "0000","phone": "8014446657"}
{"name": "WEE CARE PHARMACY","address1": "1580 W ANTELOPE DR","address2": "STE 130A","city": "LAYTON","state": "UT","zip": "84041","zip+4": "0000","phone": "8015255277"}
{"name": "SAMS PHARMACY #106683","address1": "6525 SOUTH STATE STREET","address2": "","city": "MURRAY","state": "UT","zip": "84107","zip+4": "0000","phone": "8017436474"}
{"name": "SOUTH JORDAN PHARMACY #89273","address1": "1091 W SOUTH JORDAN PKWY","address2": "STE 500","city": "SOUTH JORDAN","state": "UT","zip": "84095","zip+4": "9061","phone": "8012139850"}
{"name": "WAL-MART PHARMACY #103589","address1": "350 WEST HOPE AVENUE","address2": "","city": "SALT LAKE CITY","state": "UT","zip": "84115","zip+4": "0000","phone": "8014847362"}
{"name": "WAL-MART PHARMACY #105270","address1": "585 NORTH STATE STREET","address2": "","city": "LINDON","state": "UT","zip": "84042","zip+4": "0000","phone": "8017858344"}
{"name": "WALGREEN DRUG STORE #2519","address1": "1962 W 1800 N","address2": "","city": "CLINTON","state": "UT","zip": "84015","zip+4": "0000","phone": "8016141344"}
{"name": "MACEYS PHARMACY #7","address1": "187 E 1000 N","address2": "","city": "SPANISH FORK","state": "UT","zip": "84660","zip+4": "0000","phone": "8017988832"}
{"name": "SMITHS PHARMACY #108 #706108","address1": "5560 W 13400 S","address2": "","city": "HERRIMAN","state": "UT","zip": "84065","zip+4": "6919","phone": "8012548336"}
{"name": "COSTCO PHARMACY #770","address1": "3656 WALL AVE","address2": "","city": "SOUTH OGDEN","state": "UT","zip": "84405","zip+4": "0000","phone": "8013173952"}
{"name": "DAVIS PHARMACY INC","address1": "1492 W ANTELOPE DR","address2": "STE 150","city": "LAYTON","state": "UT","zip": "84041","zip+4": "1122","phone": "8017797820"}
{"name": "IHC WATSON DIXIE PHARMACY #287","address1": "1380 E 480 SOUTH","address2": "STE 1200","city": "ST GEORGE","state": "UT","zip": "84790","zip+4": "2120","phone": "4352512560"}
{"name": "MACEYS PHARMACY","address1": "580 S STATE ST","address2": "","city": "CLEARFIELD","state": "UT","zip": "84015","zip+4": "0000","phone": "8016140015"}
{"name": "WAL-MART PHARMACY #105167","address1": "1052 SOUTH TURF FARM ROAD","address2": "","city": "PAYSON","state": "UT","zip": "84651","zip+4": "0000","phone": "8014658726"}
{"name": "WAL-MART PHARMACY #105168","address1": "10 EAST 1300 SOUTH","address2": "","city": "RICHFIELD","state": "UT","zip": "84701","zip+4": "0000","phone": "4358938470"}
{"name": "WAL-MART PHARMACY #105234","address1": "1632 NORTH 2000 WEST","address2": "","city": "CLINTON","state": "UT","zip": "84015","zip+4": "0000","phone": "8017793326"}
{"name": "WALGREEN DRUG STORE #6988","address1": "3863 W 9000 S","address2": "","city": "WEST JORDAN","state": "UT","zip": "84088","zip+4": "0000","phone": "8012801245"}
{"name": "WAL-MART PHARMACY #105205","address1": "1356 EAST HIGHWAY 193","address2": "","city": "LAYTON","state": "UT","zip": "84040","zip+4": "0000","phone": "8017712994"}
{"name": "HEALTHWISE PHARMACY","address1": "403 B SOUTH MAIN","address2": "","city": "SPRINGVILLE","state": "UT","zip": "84663","zip+4": "0000","phone": "8014897300"}
{"name": "IHC HEALTH CENTER PHARMACY SAN","address1": "9500 S 1300 E","address2": "","city": "SANDY","state": "UT","zip": "84094","zip+4": "3763","phone": "8015012530"}
{"name": "IHC HEALTH CENTER PHARMACY SOU","address1": "975 E CHAMBERS AVE","address2": "","city": "ODGEN","state": "UT","zip": "84403","zip+4": "4591","phone": "8013876325"}
{"name": "WAL-MART PHARMACY #105233","address1": "5675 WEST 6200 SOUTH","address2": "","city": "WEST VALLEY CITY","state": "UT","zip": "84118","zip+4": "0000","phone": "8019652043"}
{"name": "WAL-MART PHARMACY #105350","address1": "4627 SOUTH 900 EAST","address2": "","city": "SALT LAKE CITY","state": "UT","zip": "84117","zip+4": "0000","phone": "8012613818"}
{"name": "WALGREEN DRUG STORE #1776","address1": "815 W STATE RD","address2": "","city": "PLEASANT GROVE","state": "UT","zip": "84062","zip+4": "0000","phone": "8019224253"}
{"name": "WALGREEN DRUG STORE #2523","address1": "1171 W 2000 N ANTELOPE DR","address2": "","city": "LAYTON","state": "UT","zip": "84041","zip+4": "0000","phone": "8016141323"}
{"name": "WALGREEN DRUG STORE #2529","address1": "1037 W 1700 S","address2": "","city": "SYRACUSE","state": "UT","zip": "84075","zip+4": "0000","phone": "8016141315"}
{"name": "WALGREEN DRUG STORE #9239","address1": "7212 S STATE ST","address2": "","city": "MIDVALE","state": "UT","zip": "84047","zip+4": "0000","phone": "8013070491"}
{"name": "WALGREEN DRUG STORE #9237","address1": "9426 S 700 E","address2": "","city": "SANDY","state": "UT","zip": "84070","zip+4": "0000","phone": "8013070033"}
{"name": "WALGREEN DRUG STORE #9238","address1": "531 E 400 S","address2": "","city": "SALT LAKE CITY","state": "UT","zip": "84102","zip+4": "0000","phone": "8014780700"}
{"name": "DICKS PHARMACY #1","address1": "350 E PAGES LN","address2": "","city": "CENTERVILLE","state": "UT","zip": "84014","zip+4": "2545","phone": "8016770171"}
{"name": "WALGREEN DRUG STORE #9111","address1": "3291 S HIGHLAND DR","address2": "","city": "SALT LAKE CITY","state": "UT","zip": "84106","zip+4": "0000","phone": "8014780114"}
{"name": "MOUNTAIN WEST APOTHECARY","address1": "1551 S RENAISSANCE TOWNE DR","address2": "SUITE 104","city": "BOUNTIFUL","state": "UT","zip": "84010","zip+4": "0000","phone": "8012956979"}
{"name": "JOLLEYS PHARMACY REDWOOD","address1": "8806 S REDWOOD RD","address2": "","city": "WEST JORDAN","state": "UT","zip": "84088","zip+4": "0000","phone": "8017477500"}
{"name": "WALGREEN DRUG STORE #9464","address1": "9400 S 2000 E","address2": "","city": "SANDY","state": "UT","zip": "84093","zip+4": "0000","phone": "8013081004"}
{"name": "4 CARE PHARMACY","address1": "109 W GENTILE ST","address2": "","city": "LAYTON","state": "UT","zip": "84041","zip+4": "0000","phone": "8013363690"}
{"name": "COSTCO PHARMACY #735","address1": "573 W 100 N","address2": "","city": "WEST BOUNTIFUL","state": "UT","zip": "84087","zip+4": "0000","phone": "8012993968"}
{"name": "PROFESSIONAL PHARMACY SERVICES","address1": "3793 S STATE ST","address2": "","city": "SALT LAKE CITY","state": "UT","zip": "84115","zip+4": "0000","phone": "8012635466"}
{"name": "RXAMERICA #001","address1": "221 N CHARLES LINDBERGH DR","address2": "","city": "SALT LAKE CITY","state": "UT","zip": "84116","zip+4": "0000","phone": "8019616006"}
{"name": "WALGREEN DRUG STORE #9974","address1": "420 S MAIN ST","address2": "","city": "SPRINGVILLE","state": "UT","zip": "84663","zip+4": "0000","phone": "8018531211"}
{"name": "TARGET PHARMACY #2123","address1": "11525 SOUTH PARKWAY PLAZA DR","address2": "","city": "SOUTH JORDAN","state": "UT","zip": "84095","zip+4": "0000","phone": "8013162512"}
{"name": "MORAN PHARMACY #31271","address1": "65 MARIO CAPECCHI DRIVE","address2": "SUITE 2430","city": "SALT LAKE CITY","state": "UT","zip": "84132","zip+4": "0005","phone": "8015856522"}
{"name": "KIRKPATRICK DRUG","address1": "270 E STATE RD 73","address2": "","city": "SARATOGA SPRINGS","state": "UT","zip": "84043","zip+4": "0000","phone": "8017664894"}
{"name": "WILLIAMS FAMILY DRUG LLC","address1": "124 W MAIN ST","address2": "","city": "GRANTSVILLE","state": "UT","zip": "84029","zip+4": "0000","phone": "4358843285"}
{"name": "WALGREEN DRUG STORE #09681","address1": "102 N 1200 E","address2": "","city": "LEHI","state": "UT","zip": "84043","zip+4": "0000","phone": "8016532090"}
{"name": "MIDTOWN COMM HEALTH CNTR PHCY","address1": "2240 ADAMS AVE","address2": "","city": "OGDEN","state": "UT","zip": "84401","zip+4": "1511","phone": "8013958200"}
{"name": "GRANGER PROFESSIONAL PHARMACY","address1": "3725 W 4100 S","address2": "","city": "WEST VALLEY CITY","state": "UT","zip": "84120","zip+4": "0000","phone": "8019653639"}
{"name": "PETERSON FOODTOWN INC","address1": "1777 W 12600 S","address2": "","city": "RIVERTON","state": "UT","zip": "84065","zip+4": "0000","phone": "8012540809"}
{"name": "CENTRAL VALLEY COMM PHCY","address1": "152 W 1500 N","address2": "","city": "NEPHI","state": "UT","zip": "84648","zip+4": "0000","phone": "4356233700"}
{"name": "ST GEORGE DISCOUNT PHARMACY","address1": "237 N BLUFF STREET","address2": "SUITES A AND B","city": "ST GEORGE","state": "UT","zip": "84770","zip+4": "0000","phone": "4356284554"}
{"name": "WALGREEN DRUG STORE #10415","address1": "188 N MAIN ST","address2": "","city": "TOOELE","state": "UT","zip": "84074","zip+4": "2140","phone": "4352281003"}
{"name": "MANTI PHARMACY #140","address1": "159 N MAIN ST","address2": "","city": "MANTI","state": "UT","zip": "84642","zip+4": "1257","phone": "4358354225"}
{"name": "COSTCO PHARMACY #733","address1": "198 NORTH 1200 EAST","address2": "","city": "LEHI","state": "UT","zip": "84043","zip+4": "0000","phone": "8016532709"}
{"name": "CENTERVILLE PHARMACY #79273","address1": "26 S MAIN ST","address2": "STE 100","city": "CENTERVILLE","state": "UT","zip": "84014","zip+4": "0000","phone": "8016937950"}
{"name": "BEAR LAKE COMM HLTH CTR PHCY","address1": "325 W LOGAN HWY","address2": "","city": "GARDEN CITY","state": "UT","zip": "84028","zip+4": "0000","phone": "4359463660"}
{"name": "KAMAS FOODTOWN PHARMACY","address1": "145 W 200 S","address2": "","city": "KAMAS","state": "UT","zip": "84036","zip+4": "0000","phone": "4357834369"}
{"name": "TARGET PHARMACY #2150","address1": "7779 S JORDAN LANDING BLVD","address2": "","city": "WEST JORDAN","state": "UT","zip": "84084","zip+4": "0000","phone": "8013160050"}
{"name": "LTC OF CACHE VALLEY","address1": "2380 N 400 E","address2": "E2","city": "NORTH LOGAN","state": "UT","zip": "84341","zip+4": "0000","phone": "4357871212"}
{"name": "SAMS PHARMACY #106686","address1": "300 WEST 1905 SO","address2": "","city": "SALT LAKE CITY","state": "UT","zip": "84115","zip+4": "0000","phone": "8014781695"}
{"name": "HARMONS PHARMACY #86","address1": "11453 S PARKWAY PLAZA DR","address2": "","city": "SOUTH JORDAN","state": "UT","zip": "84095","zip+4": "0000","phone": "8014955353"}
{"name": "CENTRAL UT PHARMACY","address1": "1055 N 500 W","address2": "","city": "PROVO","state": "UT","zip": "84604","zip+4": "2546","phone": "8014180800"}
{"name": "INTERMOUNTAIN NORTH SEVIER PHA","address1": "530 N 250 W","address2": "","city": "SALINA","state": "UT","zip": "84654","zip+4": "0000","phone": "4355295988"}
{"name": "WAL-MART PHARMACY #103848","address1": "2228 WEST 1700 SOUTH","address2": "","city": "SYRACUSE","state": "UT","zip": "84075","zip+4": "0000","phone": "8017759880"}
{"name": "PLEASANT CREEK FAMILY PHARMACY","address1": "1050 S MEDICAL DR","address2": "STE B","city": "MT PLEASANT","state": "UT","zip": "84647","zip+4": "0000","phone": "4354620116"}
{"name": "UTAH CANCER SPECIALISTS PC","address1": "3838 S 700 EAST","address2": "STE 100","city": "SALT LAKE CITY","state": "UT","zip": "84106","zip+4": "0000","phone": "8012690231"}
{"name": "MACEYS PHARMACY #8","address1": "50 NORTH HWY 165","address2": "","city": "PROVIDENCE","state": "UT","zip": "84332","zip+4": "0000","phone": "4357521111"}
{"name": "WAL-MART PHARMACY #105235","address1": "9151 SOUTH QUARRY BLVD","address2": "","city": "SANDY","state": "UT","zip": "84094","zip+4": "0000","phone": "8013524205"}
{"name": "MARKET PHARMACY","address1": "495 N STATE ST","address2": "","city": "LA VERKIN","state": "UT","zip": "84745","zip+4": "0000","phone": "4356358880"}
{"name": "MOUTAIN CARE PHARMACY LLC","address1": "4425 SOUTH 500 WEST","address2": "G","city": "MURRAY","state": "UT","zip": "84123","zip+4": "0000","phone": "8017477191"}
{"name": "COSTCO PHARMACY #622","address1": "3747 SOUTH 2700 WEST","address2": "","city": "WEST VALLEY CITY","state": "UT","zip": "84119","zip+4": "0000","phone": "8019969017"}
{"name": "MOUNTAIN VIEW HEALTH MART","address1": "1100 W 2700 N","address2": "","city": "PLEASANT VIEW","state": "UT","zip": "84414","zip+4": "0000","phone": "8014753695"}
{"name": "WAL-MART PHARMACY #103366","address1": "221 WEST PARRISH LANE","address2": "","city": "CENTERVILLE","state": "UT","zip": "84014","zip+4": "0000","phone": "8012946168"}
{"name": "IMC COMMUNITY PHARMACY #154","address1": "5121 COTTONWOOD ST","address2": "","city": "MURRAY","state": "UT","zip": "84107","zip+4": "0000","phone": "8015073030"}
{"name": "BIRCH FAMILY PHARMACY","address1": "758 N MAIN ST","address2": "","city": "TOOELE","state": "UT","zip": "84074","zip+4": "0000","phone": "4358827775"}
{"name": "WALGREEN DRUG STORE #11523","address1": "560 S MAIN ST","address2": "","city": "HEBER CITY","state": "UT","zip": "84032","zip+4": "2243","phone": "4356543863"}
{"name": "WALGREEN DRUG STORE #11150","address1": "850 S STATE ST","address2": "","city": "OREM","state": "UT","zip": "84097","zip+4": "7026","phone": "8016165237"}
{"name": "MORGAN JUBILEE PHARMACY","address1": "275 E 300 N","address2": "","city": "MORGAN","state": "UT","zip": "84050","zip+4": "0000","phone": "8018296271"}
{"name": "WALGREEN DRUG STORE #10820","address1": "2555 N 400 E","address2": "","city": "NORTH OGDEN","state": "UT","zip": "84414","zip+4": "0000","phone": "8016891525"}
{"name": "WALGREEN DRUG STORE #11337","address1": "1948 W CROSS HOLLOW DR","address2": "","city": "CEDAR CITY","state": "UT","zip": "84720","zip+4": "0000","phone": "4358684009"}
{"name": "INTERMOUNTAIN NORTH OREM PHARM","address1": "1975 NORTH STATE STREET","address2": "","city": "OREM","state": "UT","zip": "84058","zip+4": "0000","phone": "8017145500"}
{"name": "TERRELS PHARMACY","address1": "1050 SOUTH STATE","address2": "","city": "MOUNT PLEASANT","state": "UT","zip": "84647","zip+4": "0000","phone": "4354626300"}
{"name": "DRY CREEK PHARMACY","address1": "3300 N RUNNING CREEK WAY","address2": "BLDG G SUITE 100","city": "LEHI","state": "UT","zip": "84043","zip+4": "0000","phone": "8013316630"}
{"name": "HARMONS PHARMACY #16","address1": "125 E 13800 SO","address2": "","city": "DRAPER","state": "UT","zip": "84020","zip+4": "0000","phone": "8016170123"}
{"name": "CACHE VALLEY COMMUNITY HEALTH","address1": "550 EAST 1400 NORTH","address2": "STE K","city": "LOGAN","state": "UT","zip": "84341","zip+4": "0000","phone": "4357556061"}
{"name": "WALGREEN DRUG STORE #11524","address1": "5627 W 13400 S","address2": "","city": "HERRIMAN","state": "UT","zip": "84096","zip+4": "7204","phone": "8013071909"}
{"name": "WAL-MART PHARMACY #103620","address1": "13502 SOUTH HAMILTON VIEW RD","address2": "","city": "RIVERTON","state": "UT","zip": "84065","zip+4": "0000","phone": "8014462981"}
{"name": "WALGREEN DRUG STORE #12639","address1": "4690 HOLLADAY BLVD","address2": "","city": "SALT LAKE CITY","state": "UT","zip": "84117","zip+4": "5243","phone": "8012780411"}
{"name": "WALGREEN DRUG STORE #11734","address1": "1315 N STATE ST","address2": "","city": "PROVO","state": "UT","zip": "84604","zip+4": "2416","phone": "8016165223"}
{"name": "WALGREEN DRUG STORE #10104","address1": "1410 N REDWOOD RD","address2": "","city": "SARATOGA SPRINGS","state": "UT","zip": "84045","zip+4": "0000","phone": "8017661426"}
{"name": "SAMS PHARMACY #104718","address1": "11278 SOUTH JORDAN GTWY","address2": "","city": "SOUTH JORDAN","state": "UT","zip": "84095","zip+4": "0000","phone": "8015459801"}
{"name": "LOGAN CLINIC PHARMACY #269","address1": "412 N 200 E","address2": "","city": "LOGAN","state": "UT","zip": "84321","zip+4": "0000","phone": "4357132770"}
{"name": "CANYON VIEW HEALTH MART PHARMA","address1": "1159 E 12TH ST","address2": "","city": "OGDEN","state": "UT","zip": "84404","zip+4": "0000","phone": "8013343190"}
{"name": "OGDEN CLINIC HEALTH MART PHARM","address1": "4650 HARRISON BLVD","address2": "","city": "OGDEN","state": "UT","zip": "84403","zip+4": "0000","phone": "8014753295"}
{"name": "WALGREENS #10731","address1": "2330 FORT UNION BLVD","address2": "","city": "COTTONWOOD HEIGHTS","state": "UT","zip": "84121","zip+4": "0000","phone": "8013081013"}
{"name": "WALGREENS #11673","address1": "1235 W STATE ST","address2": "","city": "HURRICANE","state": "UT","zip": "84737","zip+4": "0000","phone": "4356351071"}
{"name": "SMITHS PHARMACY #119 #706119","address1": "1550 EAST 3500 NORTH","address2": "","city": "LEHI","state": "UT","zip": "84043","zip+4": "0000","phone": "8013416515"}
{"name": "WALGREENS #11674","address1": "1849 W SUNSET BLVD","address2": "","city": "ST GEORGE","state": "UT","zip": "84770","zip+4": "0000","phone": "4358795165"}
{"name": "WALGREENS #12480","address1": "1316 W HIGHWAY 40","address2": "","city": "VERNAL","state": "UT","zip": "84078","zip+4": "0000","phone": "4357897936"}
{"name": "WAL-MART PHARMACY #4678","address1": "180 N 3400 W","address2": "","city": "HURRICANE","state": "UT","zip": "84737","zip+4": "0000","phone": "4356352014"}
{"name": "WAL-MART PHARMACY #4689","address1": "NEC 4800 & CEDAR HILLS DR","address2": "","city": "CEDAR HILLS","state": "UT","zip": "84062","zip+4": "0000","phone": "8017565067"}
{"name": "SALEM HILLS PHARMACY","address1": "795 N SR 198","address2": "","city": "SALEM","state": "UT","zip": "84653","zip+4": "0000","phone": "8017230570"}
{"name": "HURRICANE FAMILY PHARMACY","address1": "25 NORTH 2000 WEST","address2": "","city": "HURRICANE","state": "UT","zip": "84737","zip+4": "0000","phone": "4356358200"}
{"name": "WAL-MART PHARMACY #104438","address1": "136 W SR 73","address2": "","city": "SARATOGA SPRINGS","state": "UT","zip": "84043","zip+4": "0000","phone": "8017660732"}
{"name": "DUCHESNE VALLEY MEDICAL CLINIC","address1": "50 EAST 200 SOUTH","address2": "","city": "DUCHESNE","state": "UT","zip": "84021","zip+4": "0000","phone": "4357385403"}
{"name": "WAL-MART PHARMACY 10-4272 #104","address1": "1150 S 100 W","address2": "","city": "LOGAN","state": "UT","zip": "84321","zip+4": "0000","phone": "4357874143"}
{"name": "EZ PASS RX","address1": "450 S 400 E","address2": "","city": "BOUNTIFUL","state": "UT","zip": "84010","zip+4": "4938","phone": "8013975900"}
{"name": "SANTAQUIN PHARMACY AND DIABETE","address1": "27 W MAIN ST","address2": "","city": "SANTAQUIN","state": "UT","zip": "84655","zip+4": "7083","phone": "8017541141"}
{"name": "ENTERPRISE VALLEY PHARMACY","address1": "660 E MAIN ST B700","address2": "","city": "ENTERPRISE","state": "UT","zip": "84725","zip+4": "0700","phone": "4358782760"}
{"name": "WALGREENS #13011","address1": "132 N MAIN ST","address2": "","city": "PAYSON","state": "UT","zip": "84651","zip+4": "1851","phone": "8014650125"}
{"name": "BLUE MOUNTAIN PHARMACY","address1": "802 SOUTH 200 WEST","address2": "","city": "BLANDING","state": "UT","zip": "84511","zip+4": "0000","phone": "4356783993"}
{"name": "WALGREENS #12294","address1": "176 E 13800 S","address2": "","city": "DRAPER","state": "UT","zip": "84020","zip+4": "0000","phone": "8013071003"}
{"name": "INTERMOUNTAIN SOUTHRIDGE PHARM","address1": "3723 W 12600 S STE 170","address2": "","city": "RIVERTON","state": "UT","zip": "84065","zip+4": "7215","phone": "8012854500"}
{"name": "APOTHECARY POINTE PHARMACY","address1": "3110 W. 300 N.","address2": "SUITE C","city": "WEST POINT","state": "UT","zip": "84015","zip+4": "0000","phone": "8018256400"}
{"name": "WALGREENS #10552","address1": "999 N MAIN ST","address2": "","city": "LOGAN","state": "UT","zip": "84321","zip+4": "5918","phone": "4352271100"}
{"name": "FRESH MARKET PHARMACY # #303","address1": "1784 W 12600 S","address2": "","city": "RIVERTON","state": "UT","zip": "84065","zip+4": "7025","phone": "8012540157"}
{"name": "FRESH MARKET PHARMACY # #304","address1": "760 E MAIN ST","address2": "","city": "LEHI","state": "UT","zip": "84043","zip+4": "2284","phone": "8017669455"}
{"name": "FRESH MARKET PHARMACY # #305","address1": "370 E SECOND SOUTH","address2": "","city": "SALT LAKE CITY","state": "UT","zip": "84111","zip+4": "2125","phone": "8013645594"}
{"name": "FRESH MARKET PHARMACY # #307","address1": "3151 KILBY RD","address2": "","city": "PARK CITY","state": "UT","zip": "84098","zip+4": "8309","phone": "4356457940"}
{"name": "FRESH MARKET PHARMACY # #309","address1": "4530 HIGHLAND DR","address2": "","city": "SALT LAKE CITY","state": "UT","zip": "84117","zip+4": "4202","phone": "8012785388"}
{"name": "FRESH MARKET PHARMACY # #375","address1": "84 W PARRISH LN","address2": "","city": "CENTERVILLE","state": "UT","zip": "84014","zip+4": "1822","phone": "8012988677"}
{"name": "FRESH MARKET PHARMACY  # #374","address1": "49 E 400 N","address2": "","city": "LOGAN","state": "UT","zip": "84321","zip+4": "4020","phone": "4357526392"}
{"name": "FRESH MARKET PHARMACY # #372","address1": "3865 S 2300 E","address2": "","city": "SALT LAKE CITY","state": "UT","zip": "84109","zip+4": "3422","phone": "8012729039"}
{"name": "FRESH MARKET PHARMACY # #371","address1": "2040 S 2300 E","address2": "","city": "SALT LAKE CITY","state": "UT","zip": "84108","zip+4": "3220","phone": "8014871784"}
{"name": "FRESH MARKET PHARMACY # #370","address1": "1638 S 9TH E.","address2": "","city": "SALT LAKE CITY","state": "UT","zip": "84105","zip+4": "2366","phone": "8012620177"}
{"name": "FRESH MARKET PHARMACY # #3","address1": "535 S 200 W","address2": "","city": "BOUNTIFUL","state": "UT","zip": "84010","zip+4": "7213","phone": "8012989664"}
{"name": "FRESH MARKET PHARMACY # #367","address1": "1825 W 4700 S","address2": "","city": "TAYLORSVILLE","state": "UT","zip": "84118","zip+4": "1103","phone": "8019642626"}
{"name": "FRESH MARKET PHARMACY # #366","address1": "905 S MAIN ST","address2": "","city": "CEDAR CITY","state": "UT","zip": "84720","zip+4": "3726","phone": "4355864433"}
{"name": "FRESH MARKET PHARMACY # #364","address1": "6989 S 1300 E","address2": "","city": "MIDVALE","state": "UT","zip": "84047","zip+4": "1817","phone": "8019619286"}
{"name": "FRESH MARKET PHARMACY # #363","address1": "898 E 3300 S","address2": "","city": "SALT LAKE CITY","state": "UT","zip": "84106","zip+4": "1562","phone": "8014857845"}
{"name": "FRESH MARKET PHARMACY # #358","address1": "2255 N UNIVERSITY PKWY","address2": "","city": "PROVO","state": "UT","zip": "84604","zip+4": "1588","phone": "8013748125"}
{"name": "FRESH MARKET PHARMACY # #356","address1": "3945 WASHINGTON BLVD","address2": "","city": "OGDEN","state": "UT","zip": "84403","zip+4": "1825","phone": "8013938663"}
{"name": "FRESH MARKET PHARMACY # #312","address1": "560 W CENTER ST","address2": "","city": "PROVO","state": "UT","zip": "84601","zip+4": "4276","phone": "8013748125"}
{"name": "FRESH MARKET PHARMACY # #353","address1": "3871 W 5400 S","address2": "","city": "TAYLORSVILLE","state": "UT","zip": "84118","zip+4": "3548","phone": "8019668298"}
{"name": "FRESH MARKET PHARMACY # #360","address1": "3420 S 5600 W","address2": "","city": "WEST VALLEY CITY","state": "UT","zip": "84120","zip+4": "1320","phone": "8019692824"}
{"name": "FRESH MARKET PHARMACY # #365","address1": "1760 PARK AVE","address2": "","city": "PARK CITY","state": "UT","zip": "84060","zip+4": "5125","phone": "4356496134"}
{"name": "FRESH MARKET PHARMACY # #327","address1": "250 S MAIN ST","address2": "","city": "RICHFIELD","state": "UT","zip": "84701","zip+4": "2559","phone": "4358968447"}
{"name": "FRESH MARKET PHARMACY # #3","address1": "5632 S 900 E","address2": "","city": "MURRAY","state": "UT","zip": "84121","zip+4": "0000","phone": "8012621025"}
{"name": "FRESH MARKET PHARMACY # #3","address1": "2062 W 1800 N","address2": "","city": "CLINTON","state": "UT","zip": "84015","zip+4": "0000","phone": "8017768161"}
{"name": "FRESH MARKET PHARMACY # #3","address1": "1860 E 9400 S","address2": "","city": "SANDY","state": "UT","zip": "84093","zip+4": "0000","phone": "8015019151"}
{"name": "FRESH MARKET PHARMACY # #3","address1": "170 W 200 N","address2": "","city": "KAYSVILLE","state": "UT","zip": "84037","zip+4": "0000","phone": "8015939471"}
{"name": "FRESH MARKET PHARMACY # #3","address1": "135 E MAIN","address2": "","city": "AMERICAN FORK","state": "UT","zip": "84003","zip+4": "0000","phone": "8017562411"}
{"name": "FRESH MARKET PHARMACY # #3","address1": "3555 W 3500 S","address2": "","city": "WEST VALLEY CITY","state": "UT","zip": "84119","zip+4": "0000","phone": "8019636874"}
{"name": "FRESH MARKET PHARMACY # #3","address1": "2044 HARRISON BLVD","address2": "","city": "OGDEN","state": "UT","zip": "84401","zip+4": "0000","phone": "8013935270"}
{"name": "FRESH MARKET PHARMACY # #3","address1": "652 N 800 E","address2": "","city": "SPANISH FORK","state": "UT","zip": "84660","zip+4": "0000","phone": "8017989788"}
{"name": "FRESH MARKET PHARMACY # #3","address1": "5691 HARRISON BLVD","address2": "","city": "SOUTH OGDEN","state": "UT","zip": "84403","zip+4": "0000","phone": "8014790827"}
{"name": "FRESH MARKET PHARMACY # #3","address1": "760 W PRICE RIVER DR","address2": "","city": "PRICE","state": "UT","zip": "84501","zip+4": "0000","phone": "4356377112"}
{"name": "FRESH MARKET PHARMACY # #3","address1": "910 N FAIRFIELD RD","address2": "","city": "LAYTON","state": "UT","zip": "84041","zip+4": "0000","phone": "8015448512"}
{"name": "SOUTH VALLEY COMPOUNDING PHARM","address1": "12447 S CROSSING DR STE 14","address2": "","city": "RIVERTON","state": "UT","zip": "84096","zip+4": "7020","phone": "8016767880"}
{"name": "WASATCH PHARMACY CARE","address1": "4387 HARRISON BLVD D-7","address2": "","city": "OGDEN","state": "UT","zip": "84403","zip+4": "0000","phone": "8014790331"}
{"name": "COSTCO PHARMACY #672","address1": "835 NORTH 3050 EAST","address2": "","city": "ST. GEORGE","state": "UT","zip": "84790","zip+4": "0000","phone": "4352560002"}
{"name": "SAVON PHARMACY #362","address1": "1653 W 9000 S","address2": "","city": "WEST JORDAN","state": "UT","zip": "84088","zip+4": "0000","phone": "8015617497"}
{"name": "HARMONS PHARMACY #87","address1": "10507 S REDWOOD RD","address2": "","city": "SOUTH JORDAN","state": "UT","zip": "84095","zip+4": "0000","phone": "8013029220"}
{"name": "WAL-MART PHARMACY #102921","address1": "534 HARRISVILLE ROAD","address2": "","city": "HARRISVILLE","state": "UT","zip": "84404","zip+4": "0000","phone": "8017370544"}
{"name": "WAYNE COMMUNITY HLTH CTR PHCY","address1": "128 SOUTH 300 WEST","address2": "","city": "BICKNELL","state": "UT","zip": "84715","zip+4": "0303","phone": "4354253912"}
{"name": "WALGREEN DRUG STORE #6282","address1": "4040 WEST 5415 SOUTH","address2": "","city": "TAYLORSVILLE","state": "UT","zip": "84118","zip+4": "0000","phone": "8019821873"}
{"name": "WALGREEN DRUG STORE #5875","address1": "7794 S REDWOOD RD","address2": "","city": "WEST JORDAN","state": "UT","zip": "84084","zip+4": "0000","phone": "8015682513"}
{"name": "WAL-MART PHARMACY #103208","address1": "660 SOUTH 1750 WEST","address2": "","city": "SPRINGVILLE","state": "UT","zip": "84663","zip+4": "0000","phone": "8014896334"}
{"name": "KENTS THRIFTWAY PHAMACY","address1": "260 N MAIN","address2": "","city": "BRIGHAM CITY","state": "UT","zip": "84302","zip+4": "0000","phone": "4357348841"}
{"name": "REDSTONE PHARMACY #84273","address1": "1743 W REDSTONE CENTER DR","address2": "STE 115","city": "PARK CITY","state": "UT","zip": "84098","zip+4": "7930","phone": "4356589280"}
{"name": "TARGET PHARMACY #1357","address1": "275 SOUTH RIVER ROAD","address2": "","city": "ST GEORGE","state": "UT","zip": "84770","zip+4": "0000","phone": "4356272037"}
{"name": "MEDIPHARM","address1": "1260 E VINE ST","address2": "STE 5","city": "SALT LAKE CITY","state": "UT","zip": "84121","zip+4": "0000","phone": "8017339902"}
{"name": "CARE FIRST PHARMACY","address1": "5492 S ADAMS AVE","address2": "","city": "WASHINGTON TERRACE","state": "UT","zip": "84405","zip+4": "0000","phone": "8014794485"}
{"name": "WALGREEN DRUG STORE #5737","address1": "909 EAST 2100 SOUTH","address2": "","city": "SALT LAKE CITY","state": "UT","zip": "84106","zip+4": "0000","phone": "8014631361"}
{"name": "WALGREEN DRUG STORE #6669","address1": "10429 S REDWOOD RD","address2": "","city": "SOUTH JORDAN","state": "UT","zip": "84095","zip+4": "0000","phone": "8014463593"}
{"name": "DIABETES SPECIALTY CENTER LLC","address1": "3793 S STATE ST","address2": "","city": "SALT LAKE CITY","state": "UT","zip": "84115","zip+4": "0000","phone": "8012689699"}
{"name": "PAROWAN DRUG AND GIFT","address1": "20 N MAIN","address2": "","city": "PAROWAN","state": "UT","zip": "84761","zip+4": "0000","phone": "4354773000"}
{"name": "SAMS PHARMACY #104730","address1": "7571 SOUTH 3800 WEST","address2": "","city": "WEST JORDAN","state": "UT","zip": "84084","zip+4": "0000","phone": "8012825674"}
{"name": "WAL-MART PHARMACY #103220","address1": "2610 SOUTH PIONEER ROAD","address2": "","city": "ST GEORGE","state": "UT","zip": "84790","zip+4": "0000","phone": "4356745792"}
{"name": "WAL-MART PHARMACY #103232","address1": "7671 SOUTH 3800 WEST","address2": "","city": "WEST JORDAN","state": "UT","zip": "84084","zip+4": "0000","phone": "8012824766"}
{"name": "VALLEY PHARMACY","address1": "2555 N WOLF CREEK DR","address2": "","city": "EDEN","state": "UT","zip": "84310","zip+4": "0000","phone": "8017451800"}
{"name": "SAMS PHARMACY #106685","address1": "1313 UNIVERSITY AVENUE","address2": "","city": "PROVO","state": "UT","zip": "84601","zip+4": "0000","phone": "8013735665"}
{"name": "WAL-MART PHARMACY #103454","address1": "1200 SOUTH COMMERCE WAY","address2": "","city": "PERRY","state": "UT","zip": "84302","zip+4": "0000","phone": "4357349784"}
{"name": "MACEYS PHARMACY #6","address1": "931 W STATE ST","address2": "","city": "PLEASANT GROVE","state": "UT","zip": "84062","zip+4": "0000","phone": "8017966580"}
{"name": "KENTS MARKET PHARMACY #560","address1": "3535 W 5600 S","address2": "","city": "ROY","state": "UT","zip": "84067","zip+4": "0000","phone": "8019853942"}
{"name": "WALGREEN DRUG STORE #6281","address1": "1300 E DRAPER PKWY","address2": "","city": "DRAPER","state": "UT","zip": "84020","zip+4": "0000","phone": "8015711744"}
{"name": "WALGREEN DRUG STORE #6961","address1": "4668 S REDWOOD RD","address2": "","city": "TAYLORSVILLE","state": "UT","zip": "84123","zip+4": "0000","phone": "8019674504"}
{"name": "SAMS PHARMACY #106684","address1": "4949 SOUTH 900 WEST ST","address2": "","city": "RIVERDALE","state": "UT","zip": "84405","zip+4": "0000","phone": "8016123477"}
{"name": "CACHE VALLEY PHARMACY","address1": "2380 N 400E","address2": "STE E","city": "NORTH LOGAN","state": "UT","zip": "84341","zip+4": "0000","phone": "4357871212"}
{"name": "ISLAND VIEW PHARMACY","address1": "2038 W 1900 S","address2": "","city": "SYRACUSE","state": "UT","zip": "84075","zip+4": "0000","phone": "8017737899"}
{"name": "WALGREEN DRUG STORE #7052","address1": "391 W ST GEORGE BLVD","address2": "","city": "ST GEORGE","state": "UT","zip": "84770","zip+4": "0000","phone": "4356525911"}
{"name": "SAMS PHARMACY #104786","address1": "145 WEST CACHE VALLEY BLVD","address2": "","city": "LOGAN","state": "UT","zip": "84341","zip+4": "0000","phone": "4357870495"}
{"name": "WAL-MART PHARMACY #103568","address1": "3180 SOUTH 5600 WEST","address2": "","city": "WEST VALLEY CITY","state": "UT","zip": "84120","zip+4": "0000","phone": "8019664492"}
{"name": "HARMONS PHARMACY #14","address1": "672 E 11400 SOUTH","address2": "","city": "DRAPER","state": "UT","zip": "84020","zip+4": "0000","phone": "8014957720"}
{"name": "PHARMACY SERVICES LLC","address1": "8752 S 700 E","address2": "","city": "SANDY","state": "UT","zip": "84070","zip+4": "0000","phone": "8013028555"}
{"name": "WAL-MART PHARMACY #105109","address1": "4570 SOUTH 4000 WEST","address2": "","city": "WEST VALLEY CITY","state": "UT","zip": "84120","zip+4": "0000","phone": "8019691242"}
{"name": "SAVON PHARMACY #329","address1": "745 N DIXIE DOWNS DR","address2": "","city": "ST GEORGE","state": "UT","zip": "84770","zip+4": "0000","phone": "4356887196"}
{"name": "WALGREEN DRUG STORE #7007","address1": "12623 S REDWOOD RD","address2": "","city": "RIVERTON","state": "UT","zip": "84065","zip+4": "0000","phone": "8012540138"}
{"name": "WAL-MART PHARMACY #105120","address1": "3706 WEST 9800 SOUTH","address2": "","city": "SOUTH JORDAN","state": "UT","zip": "84095","zip+4": "0000","phone": "8012825732"}
{"name": "WALGREEN DRUG STORE #7495","address1": "5554 S 1900 W","address2": "","city": "ROY","state": "UT","zip": "84067","zip+4": "0000","phone": "8016141260"}
{"name": "SMITHS PHARMACY #107 #706107","address1": "1320 NORTH REDWOOD RD","address2": "","city": "SARATOGA SPRINGS","state": "UT","zip": "84043","zip+4": "0000","phone": "8017682240"}
{"name": "TARGET PHARMACY #1814","address1": "608 W MAIN ST","address2": "","city": "AMERICAN FORK","state": "UT","zip": "84003","zip+4": "0000","phone": "8017565997"}
{"name": "HEREFORDSHIRE HEALTH CENTER PH","address1": "1915 W 5950 S","address2": "","city": "ROY","state": "UT","zip": "84067","zip+4": "1454","phone": "8013878215"}
{"name": "WAL-MART PHARMACY #105110","address1": "1360 EAST DRAPER PARKWAY","address2": "","city": "DRAPER","state": "UT","zip": "84020","zip+4": "0000","phone": "8018169466"}
{"name": "WAL-MART PHARMACY #105206","address1": "1710 SKYLINE DRIVE","address2": "","city": "SOUTH OGDEN","state": "UT","zip": "84405","zip+4": "0000","phone": "8014796893"}
{"name": "TOWNSHIP PROFESSIONAL PHARMACY","address1": "108 WEST 1325 NORTH","address2": "","city": "CEDAR CITY","state": "UT","zip": "84720","zip+4": "0000","phone": "4358670800"}
{"name": "WALGREEN DRUG STORE #9192","address1": "763 N STATE ST","address2": "","city": "OREM","state": "UT","zip": "84057","zip+4": "0000","phone": "8017341609"}
{"name": "WALGREEN DRUG STORE #2527","address1": "255 36TH ST","address2": "","city": "OGDEN","state": "UT","zip": "84405","zip+4": "0000","phone": "8016891355"}
{"name": "ORTHOPEDIC PHARMACY #41273","address1": "590 WAKARA WAY","address2": "SUITE 2146","city": "SALT LAKE CITY","state": "UT","zip": "84108","zip+4": "1200","phone": "8015877199"}
{"name": "WALGREEN DRUG STORE #7982","address1": "210 N MAIN ST","address2": "","city": "KAYSVILLE","state": "UT","zip": "84037","zip+4": "0000","phone": "8015291431"}
{"name": "IHC HEALTH CENTER PHARMACY MEM","address1": "2000 S 900 E","address2": "","city": "SALT LAKE CITY","state": "UT","zip": "84105","zip+4": "3208","phone": "8014647800"}
{"name": "IHC AMERICAN FORK PHARMACY #83","address1": "1159 E 200 N","address2": "SUITE 125","city": "AMERICAN FORK","state": "UT","zip": "84003","zip+4": "2041","phone": "8018552935"}
{"name": "IHC HEALTH SERVICES INC","address1": "36 SOUTH STATE STREET","address2": "SUITE 1900","city": "SALT LAKE CITY","state": "UT","zip": "84111","zip+4": "0000","phone": "8014423903"}
{"name": "HARMONS PHARMACY","address1": "3955 WEST 3500 SOUTH","address2": "","city": "WEST VALLEY CITY","state": "UT","zip": "84120","zip+4": "0000","phone": "8019578469"}
{"name": "SMITHS FOOD & DRUG/WEST DI","address1": "1550 S REDWOOD RD","address2": "","city": "SALT LAKE CITY","state": "UT","zip": "84104","zip+4": "0000","phone": "8019741302"}
{"name": "IHC HEALTH SERVICESINC.","address1": "36 SOUTH STATE STREET","address2": "SUITE 1900","city": "SALT LAKE CITY","state": "UT","zip": "84111","zip+4": "0000","phone": "8014423903"}
{"name": "UNIV OF UTAH HEALTH NETWOR","address1": "BUSINESS SERVICES","address2": "127 S 500 EAST  1ST FL","city": "SALT LAKE CITY","state": "UT","zip": "84102","zip+4": "0000","phone": "8015876334"}