{"name": "LONGS DRUGS #09228","address1": "1330 PALI HWY","address2": "","city": "HONOLULU","state": "HI","zip": "96813","zip+4": "0000","phone": "8085365542"}
{"name": "LONGS DRUGS #09620","address1": "555 KILAUEA AVE","address2": "","city": "HILO","state": "HI","zip": "96720","zip+4": "0000","phone": "8089359075"}
{"name": "SHIIGI DRUG COMPANY INC","address1": "333 KILAUEA AVE","address2": "SUITE 109","city": "HILO","state": "HI","zip": "96720","zip+4": "4239","phone": "8089350001"}
{"name": "DON QUIJOTE DRUGS","address1": "801 KAHEKA ST","address2": "","city": "HONOLULU","state": "HI","zip": "96814","zip+4": "0000","phone": "8089736661"}
{"name": "LONGS DRUGS #09182","address1": "1088 BISHOP ST","address2": "","city": "HONOLULU","state": "HI","zip": "96813","zip+4": "0000","phone": "8085365706"}
{"name": "LONGS DRUGS #09220","address1": "4211 WAIALAE AVE","address2": "","city": "HONOLULU","state": "HI","zip": "96816","zip+4": "0000","phone": "8087320782"}
{"name": "LONGS DRUGS #09653","address1": "1620 N SCHOOL ST","address2": "","city": "HONOLULU","state": "HI","zip": "96817","zip+4": "0000","phone": "8088410724"}
{"name": "NORTH SHORE PHARMACY INC","address1": "56 119 PUALALEO STREET","address2": "","city": "KAHUKU","state": "HI","zip": "96731","zip+4": "0385","phone": "8082938757"}
{"name": "DON QUIJOTE DRUGS","address1": "345 HAHANI ST","address2": "","city": "KAILUA","state": "HI","zip": "96734","zip+4": "2896","phone": "8082664434"}
{"name": "OSHIMA DRUG","address1": "79 7400 MAMALAHOA HWY","address2": "","city": "KEALAKEKUA","state": "HI","zip": "96750","zip+4": "0048","phone": "8083223313"}
{"name": "LONGS DRUGS #09275","address1": "850 KAMEHAMEHA HWY","address2": "","city": "PEARL CITY","state": "HI","zip": "96782","zip+4": "0000","phone": "8084554555"}
{"name": "WAIANAE DRUG","address1": "85-910 FARRINGTON HWY","address2": "SUITE 101","city": "WAIANAE","state": "HI","zip": "96792","zip+4": "2651","phone": "8086966349"}
{"name": "WAIPAHU DRUG #123","address1": "94 748 A HIKIMOE ST","address2": "","city": "WAIPAHU","state": "HI","zip": "96797","zip+4": "0000","phone": "8086770794"}
{"name": "LONGS DRUGS #09671","address1": "46047 KAMEHAMEHA HWY","address2": "","city": "KANEOHE","state": "HI","zip": "96744","zip+4": "0000","phone": "8082354551"}
{"name": "LONGS DRUGS #09206","address1": "1450 ALA MOANA BLVD  #2004","address2": "","city": "HONOLULU","state": "HI","zip": "96814","zip+4": "0000","phone": "8089494010"}
{"name": "WESTSIDE PHARMACY","address1": "1 3845 KAUMUALII HWY","address2": "","city": "HANAPEPE","state": "HI","zip": "96716","zip+4": "0249","phone": "8083355342"}
{"name": "TIMES PHARMACY #11","address1": "1425 LILIHA ST","address2": "","city": "HONOLULU","state": "HI","zip": "96817","zip+4": "0000","phone": "8085225078"}
{"name": "LONGS DRUGS #09663","address1": "70 E KAAHUMANU AVE","address2": "","city": "KAHULUI","state": "HI","zip": "96732","zip+4": "0000","phone": "8088770068"}
{"name": "LONGS DRUGS #09813","address1": "981005 MOANALUA RDSPC 400","address2": "","city": "AIEA","state": "HI","zip": "96701","zip+4": "0000","phone": "8084880958"}
{"name": "THE PILLBOX PHARMACY","address1": "1133 11TH AVE","address2": "","city": "HONOLULU","state": "HI","zip": "96816","zip+4": "0000","phone": "8087371777"}
{"name": "LONGS DRUGS #09825","address1": "609 KAILUA RD","address2": "","city": "KAILUA","state": "HI","zip": "96734","zip+4": "0000","phone": "8082619794"}
{"name": "LONGS DRUGS #09835","address1": "2750 WOODLAWN DR","address2": "","city": "HONOLULU","state": "HI","zip": "96822","zip+4": "0000","phone": "8089882151"}
{"name": "AIEA MEDICAL PHARMACY","address1": "99 128 AIEA HEIGHTS DR","address2": "SUITE 103","city": "AIEA","state": "HI","zip": "96701","zip+4": "3916","phone": "8088405680"}
{"name": "LONGS DRUGS #09164","address1": "3221 WAIALAE AVE","address2": "","city": "HONOLULU","state": "HI","zip": "96816","zip+4": "0000","phone": "8087352811"}
{"name": "PLAZA PHARMACY","address1": "321 N KUAKINI ST","address2": "","city": "HONOLULU","state": "HI","zip": "96817","zip+4": "2307","phone": "8085479440"}
{"name": "PHARMACARE #1","address1": "2228 LILIHA ST","address2": "SUITE 100","city": "HONOLULU","state": "HI","zip": "96817","zip+4": "0000","phone": "8088405620"}
{"name": "HONNIS INC","address1": "1520 LILIHA ST","address2": "STE 201","city": "HONOLULU","state": "HI","zip": "96817","zip+4": "3563","phone": "8085336990"}
{"name": "LONGS DRUGS #09185","address1": "377 KEAHOLE ST","address2": "","city": "HONOLULU","state": "HI","zip": "96825","zip+4": "0000","phone": "8083954427"}
{"name": "LONGS DRUGS #09189","address1": "32600 KAUMUALII HWY #1","address2": "","city": "LIHUE","state": "HI","zip": "96766","zip+4": "0000","phone": "8082458871"}
{"name": "LONGS DRUGS #09864","address1": "94780A MEHEULA PKWY","address2": "","city": "MILILANI TOWN","state": "HI","zip": "96789","zip+4": "0000","phone": "8086237715"}
{"name": "TIMES PHARMACY #8","address1": "1290 S BERETANIA ST","address2": "","city": "HONOLULU","state": "HI","zip": "96814","zip+4": "0000","phone": "8085225071"}
{"name": "WAIMANALO PHARMACY INC","address1": "41 1610 KALANIANAOLE HWY","address2": "","city": "WAIMANALO","state": "HI","zip": "96795","zip+4": "1140","phone": "8082598488"}
{"name": "KTA KEAUHOU PHARMACY","address1": "78-6831 ALII DR","address2": "STE 101","city": "KAILUA KONA","state": "HI","zip": "96740","zip+4": "2440","phone": "8083222511"}
{"name": "LONGS DRUGS #09227","address1": "111 E PUAINAKO ST","address2": "","city": "HILO","state": "HI","zip": "96720","zip+4": "0000","phone": "8089594508"}
{"name": "TIMES PHARMACY #9","address1": "99 115 AIEA HEIGHTS DR","address2": "","city": "AIEA","state": "HI","zip": "96701","zip+4": "0000","phone": "8084833071"}
{"name": "LONGS DRUGS #09877","address1": "1221 HONOAPIILANI HWY","address2": "","city": "LAHAINA","state": "HI","zip": "96761","zip+4": "0000","phone": "8086674390"}
{"name": "TIMES PHARMACY #12","address1": "98 1264 KAAHUMANU ST","address2": "","city": "PEARL CITY","state": "HI","zip": "96782","zip+4": "0000","phone": "8084833078"}
{"name": "PHARMACARE","address1": "3375 KOAPAKA","address2": "STE G320","city": "HONOLULU","state": "HI","zip": "96819","zip+4": "1864","phone": "8088360223"}
{"name": "LONGS DRUGS #09249","address1": "75-5595 PALANI RD","address2": "","city": "KAILUA-KONA","state": "HI","zip": "96740","zip+4": "0000","phone": "8083291632"}
{"name": "LONGS DRUGS #09890","address1": "951249D MEHEULA PKWY","address2": "","city": "MILILANI TOWN","state": "HI","zip": "96789","zip+4": "0000","phone": "8086255222"}
{"name": "TIMES PHARMACY #2","address1": "1173 21ST AVE","address2": "","city": "HONOLULU","state": "HI","zip": "96816","zip+4": "0000","phone": "8087332031"}
{"name": "CASTLE PROFESSIONAL CTR PHCY","address1": "46 001 KAMEHAMEHA HWY","address2": "SUITE 108","city": "KANEOHE","state": "HI","zip": "96744","zip+4": "3711","phone": "8082470047"}
{"name": "KAMEHAMEHA PHARMACY","address1": "54 3877 AKONI PULE HWY","address2": "","city": "KAPAAU","state": "HI","zip": "96755","zip+4": "0000","phone": "8088896161"}
{"name": "SAFEWAY #1087","address1": "200 HAMAKUA DRIVE","address2": "","city": "KAILUA","state": "HI","zip": "96734","zip+4": "0000","phone": "8082665220"}
{"name": "KTA PUAINAKO PHARMACY #3","address1": "50 E PUAINAKO ST","address2": "","city": "HILO","state": "HI","zip": "96720","zip+4": "5243","phone": "8089598700"}
{"name": "TIMES PHARMACY #4","address1": "45 934 KAMEHAMEHA HWY","address2": "","city": "KANEOHE","state": "HI","zip": "96744","zip+4": "0000","phone": "8082334601"}
{"name": "LONGS DRUGS #09259","address1": "94-060 FARRINGTON HWY","address2": "","city": "WAIPAHU","state": "HI","zip": "96797","zip+4": "0000","phone": "8086768116"}
{"name": "TIMES PHARMACY #6","address1": "94 766 FARRINGTON HWY","address2": "","city": "WAIPAHU","state": "HI","zip": "96797","zip+4": "0000","phone": "8086771513"}
{"name": "SAFEWAY #1209","address1": "4 831 KUHIO HWY","address2": "","city": "KAPAA","state": "HI","zip": "96746","zip+4": "0000","phone": "8088222191"}
{"name": "COSTCO PHARMACY #687","address1": "525 ALA KAWA STREET","address2": "","city": "IWILEI","state": "HI","zip": "96817","zip+4": "0000","phone": "8085266102"}
{"name": "MENEHUNE PHARMACY","address1": "1 9665 KAUMUALII HWY","address2": "","city": "WAIMEA","state": "HI","zip": "96796","zip+4": "0896","phone": "8083380200"}
{"name": "KTA KAMUELA PHARMACY #8","address1": "65-1158 MAMALAHOA","address2": "","city": "KAMUELA","state": "HI","zip": "96743","zip+4": "0388","phone": "8088850033"}
{"name": "SAFEWAY #0201","address1": "1121 S BERETANIA ST","address2": "","city": "HONOLULU","state": "HI","zip": "96814","zip+4": "0000","phone": "8085926487"}
{"name": "PARADISE PHARMACY","address1": "81 MAKAWAO AVE","address2": "SUITE 106","city": "PUKALANI","state": "HI","zip": "96768","zip+4": "9998","phone": "8085721266"}
{"name": "TIMES PHARMACY #1","address1": "1772 S KING ST","address2": "","city": "HONOLULU","state": "HI","zip": "96826","zip+4": "0000","phone": "8089735851"}
{"name": "LONGS DRUGS #09300","address1": "925 CALIFORNIA AVE","address2": "","city": "WAHIAWA","state": "HI","zip": "96786","zip+4": "0000","phone": "8086217772"}
{"name": "CHINATOWN PHARMACY","address1": "70 N HOTEL ST","address2": "","city": "HONOLULU","state": "HI","zip": "96817","zip+4": "5105","phone": "8085336288"}
{"name": "WAHIAWA GENERAL HOSPITAL PHARM","address1": "128 LEHUA ST","address2": "","city": "WAHIAWA","state": "HI","zip": "96786","zip+4": "0000","phone": "8086214222"}
{"name": "PHARMACARE #2","address1": "91 2139 FT WEAVER RD","address2": "SUITE 106","city": "EWA BEACH","state": "HI","zip": "96706","zip+4": "0000","phone": "8088405630"}
{"name": "LONGS DRUGS #09303","address1": "1215 S KIHEI RD","address2": "","city": "KIHEI","state": "HI","zip": "96753","zip+4": "0000","phone": "8088792033"}
{"name": "STAR MARKET PHARMACY #8","address1": "1310 S KIHEI RD","address2": "","city": "KIHEI","state": "HI","zip": "96753","zip+4": "8196","phone": "8088754695"}
{"name": "PHARMACARE","address1": "162 KINOOLE ST","address2": "SUITE 104","city": "HILO","state": "HI","zip": "96720","zip+4": "0000","phone": "8089615115"}
{"name": "MAUI CLINIC PHARMACY","address1": "53 PUUNENE AVE","address2": "","city": "KAHULUI","state": "HI","zip": "96732","zip+4": "2110","phone": "8088776222"}
{"name": "COSTCO PHARMACY #120","address1": "333 A KEOHOLE STREET","address2": "","city": "HONOLULU","state": "HI","zip": "96825","zip+4": "0000","phone": "8083943318"}
{"name": "LONGS DRUGS #09317","address1": "91-590 FARRINGTON HWY #300","address2": "","city": "KAPOLEI","state": "HI","zip": "96707","zip+4": "0000","phone": "8086740269"}
{"name": "HAWAII HOME INFUSION ASSOCIATE","address1": "4473 PAHEE ST STE I","address2": "","city": "LIHUE","state": "HI","zip": "96766","zip+4": "2032","phone": "8082453787"}
{"name": "TIMES PHARMACY #3","address1": "590 KAILUA RD","address2": "","city": "KAILUA","state": "HI","zip": "96734","zip+4": "0000","phone": "8082662702"}
{"name": "COSTCO PHARMACY #140","address1": "73 5600 MAIAU ST","address2": "","city": "KAILUA KONA","state": "HI","zip": "96740","zip+4": "0000","phone": "8083314808"}
{"name": "KMART PHARMACY #7680","address1": "4561 SALT LAKE BLVD","address2": "","city": "HONOLULU","state": "HI","zip": "96818","zip+4": "0000","phone": "8084866449"}
{"name": "CITY PHARMACY KAPAHULU INC","address1": "750 PALANI AVE","address2": "","city": "HONOLULU","state": "HI","zip": "96816","zip+4": "1109","phone": "8087391188"}
{"name": "KMART PHARMACY #7480","address1": "500 NORTH NIMITZ HWY","address2": "","city": "HONOLULU","state": "HI","zip": "96817","zip+4": "0000","phone": "8085241568"}
{"name": "NEWTOWN SQUARE PHARMACY","address1": "98-1247 KAAHUMANU ST","address2": "","city": "AIEA","state": "HI","zip": "96701","zip+4": "5309","phone": "8084885458"}
{"name": "TIMES PHARMACY #18","address1": "94 615 KUPUOHI ST","address2": "","city": "WAIPAHU","state": "HI","zip": "96797","zip+4": "0000","phone": "8086775999"}
{"name": "LONGS DRUGS #09936","address1": "786831 ALII DRIVE SUITE H","address2": "STE H","city": "KAILUA-KONA","state": "HI","zip": "96740","zip+4": "0000","phone": "8083226627"}
{"name": "KMART PHARMACY #7683","address1": "745465 KAMAKAEHA AVENUE","address2": "","city": "KONA","state": "HI","zip": "96740","zip+4": "0000","phone": "8083261707"}
{"name": "LONGS DRUGS #09952","address1": "4831 KUHIO HWY  SUITE 500","address2": "","city": "KAPAA","state": "HI","zip": "96746","zip+4": "0000","phone": "8088224918"}
{"name": "LONGS DRUGS #09954","address1": "2220 S KING ST","address2": "","city": "HONOLULU","state": "HI","zip": "96826","zip+4": "0000","phone": "8089472651"}
{"name": "LONGS DRUGS #09953","address1": "45480 KANEOHE BAY DR","address2": "","city": "KANEOHE","state": "HI","zip": "96744","zip+4": "0000","phone": "8082355805"}
{"name": "LONGS DRUGS #09955","address1": "848 ALA LILIKOI ST","address2": "","city": "HONOLULU","state": "HI","zip": "96818","zip+4": "0000","phone": "8088332597"}
{"name": "LONGS DRUGS #09956","address1": "86120 FARRINGTON HWY","address2": "","city": "WAIANAE","state": "HI","zip": "96792","zip+4": "0000","phone": "8086967059"}
{"name": "COSTCO PHARMACY #119","address1": "540 HALEAKALA HIGHWAY","address2": "","city": "KAHULUI","state": "HI","zip": "96732","zip+4": "0000","phone": "8088718755"}
{"name": "WAL-MART PHARMACY #102308","address1": "3 3300 KUHIO HWY","address2": "","city": "LIHUE","state": "HI","zip": "96766","zip+4": "0000","phone": "8082461822"}
{"name": "CAREPLUS CVS PHARMACY #02915","address1": "500 ALA MOANA BLVD","address2": "BLDG 1SUITE A","city": "HONOLULU","state": "HI","zip": "96813","zip+4": "0000","phone": "8082542727"}
{"name": "CVS CAREMARK","address1": "970 N KALAHEO AVE","address2": "STE C106 PALI PALMS PLAZA","city": "KAILUA","state": "HI","zip": "96734","zip+4": "1871","phone": "8082545841"}
{"name": "WAL-MART PHARMACY #102321","address1": "75 1015 HENRY STREET","address2": "","city": "KAILUA KONA","state": "HI","zip": "96740","zip+4": "0000","phone": "8083340552"}
{"name": "FOODLAND MEDICINE CABINET OR F","address1": "55 PUKALANI ST","address2": "","city": "PUKALANI","state": "HI","zip": "96768","zip+4": "0000","phone": "8085728266"}
{"name": "DON QUIJOTE DRUGS","address1": "94-144 FARRINGTON HWY","address2": "","city": "WAIPAHU","state": "HI","zip": "96797","zip+4": "0000","phone": "8086786831"}
{"name": "KMART PHARMACY #7478","address1": "94825 LUMIAINA","address2": "","city": "WAIPAHU","state": "HI","zip": "96797","zip+4": "0000","phone": "8086789701"}
{"name": "SAFEWAY #0220","address1": "170 E KAMEHAMEHA AVE","address2": "","city": "KAHULUI","state": "HI","zip": "96732","zip+4": "0000","phone": "8088930606"}
{"name": "HAIKU PHARMACY","address1": "810 HAIKU RD","address2": "SUITE 127","city": "HAIKU","state": "HI","zip": "96708","zip+4": "0000","phone": "8085757522"}
{"name": "ULULANI PHARMACY","address1": "868 ULULANI ST","address2": "SUITE 107","city": "HILO","state": "HI","zip": "96720","zip+4": "3913","phone": "8089349400"}
{"name": "WAL-MART PHARMACY #102473","address1": "325 MAKAALA ST","address2": "","city": "HILO","state": "HI","zip": "96720","zip+4": "0000","phone": "8089691062"}
{"name": "KMART PHARMACY #7488","address1": "424 DAIRY ROAD","address2": "","city": "KAHULUI","state": "HI","zip": "96732","zip+4": "0000","phone": "8088715677"}
{"name": "WAL-MART PHARMACY #102314","address1": "94 595 KUPUOHI ST","address2": "","city": "WAIPAHU","state": "HI","zip": "96797","zip+4": "0000","phone": "8086889096"}
{"name": "MINA PHARMACY MAIN OFFICE #1","address1": "1441 KAPIOLANI BLVD","address2": "STE 510","city": "HONOLULU","state": "HI","zip": "96814","zip+4": "0000","phone": "8089459366"}
{"name": "PAPALINA PHARMACY","address1": "4469 PAPALINA RD","address2": "STE 948","city": "KALAHEO","state": "HI","zip": "96741","zip+4": "0000","phone": "8083329130"}
{"name": "WELLNESS PHARMACY INC","address1": "100 N BERETANIA ST","address2": "SUITE 148","city": "HONOLULU","state": "HI","zip": "96817","zip+4": "0000","phone": "8085502833"}
{"name": "LONGS DRUGS #09988","address1": "911401 FORT WEAVER RD","address2": "","city": "EWA BEACH","state": "HI","zip": "96706","zip+4": "0000","phone": "8086855622"}
{"name": "KONA COMMUNITY HOSPITAL PHARMA","address1": "79 1019 HAUKAPILA ST","address2": "","city": "KEALAKEKUA","state": "HI","zip": "96750","zip+4": "0000","phone": "8083224470"}
{"name": "MINA PHARMACY #2","address1": "599 FARRINGTON HWY","address2": "STE 101","city": "KAPOLEI","state": "HI","zip": "96707","zip+4": "0000","phone": "8086744477"}
{"name": "COSTCO PHARMACY #485","address1": "94 1231 KA UKA BLVD","address2": "","city": "WAIPAHU","state": "HI","zip": "96797","zip+4": "0000","phone": "8086786102"}
{"name": "SAFEWAY #1500","address1": "277 PIIKEA AVENUE","address2": "","city": "KIHEI","state": "HI","zip": "96753","zip+4": "0000","phone": "8088919130"}
{"name": "KMART PHARMACY #9430","address1": "500 KAMOKILA BLVD","address2": "","city": "KAPOLEI","state": "HI","zip": "96707","zip+4": "0000","phone": "8086749655"}
{"name": "SAMS PHARMACY #106410","address1": "1000 KAMEHAMEHA HWY SUITE 100","address2": "","city": "PEARL CITY","state": "HI","zip": "96782","zip+4": "0000","phone": "8084540182"}
{"name": "SAFEWAY #2221","address1": "111 EAST PUAINAKO","address2": "","city": "HILO","state": "HI","zip": "96720","zip+4": "0000","phone": "8089592000"}
{"name": "WAL-MART PHARMACY #103290","address1": "101 PAKAULA STREET","address2": "","city": "KAHULUI","state": "HI","zip": "96732","zip+4": "0000","phone": "8088717012"}
{"name": "LEEWARD OAHU PHARMACY INC","address1": "94 837 WAIPAHU STREET","address2": "","city": "WAIPAHU","state": "HI","zip": "96797","zip+4": "0000","phone": "8086779611"}
{"name": "FOODLAND PHARMACY #38","address1": "67 1185 MAMALAHOA HWY","address2": "","city": "KAMUELA","state": "HI","zip": "96743","zip+4": "0000","phone": "8088852075"}
{"name": "KOOLAU PHARMACY","address1": "642 ULUKAHIKI ST","address2": "","city": "KAILUA","state": "HI","zip": "96734","zip+4": "0000","phone": "8082635060"}
{"name": "TIMES PHARMACY #10","address1": "47 388 HUI IWA ST","address2": "","city": "KANEOHE","state": "HI","zip": "96744","zip+4": "0000","phone": "8082393204"}
{"name": "LANAI FAMILY HEALTH CENTER","address1": "628 B 7TH ST","address2": "","city": "LANAI CITY","state": "HI","zip": "96763","zip+4": "0000","phone": "8085656423"}
{"name": "MEDIPHARM PHARMACYLLC #1","address1": "1188 BISHOP STREET STE 802","address2": "","city": "HONOLULU","state": "HI","zip": "96813","zip+4": "0000","phone": "8085237088"}
{"name": "MINA PHARMACY #3","address1": "2470 S KING ST","address2": "","city": "HONOLULU","state": "HI","zip": "96826","zip+4": "0000","phone": "8089556800"}
{"name": "MINA PHARMACY #4","address1": "1620 N SCHOOL ST","address2": "","city": "HONOLULU","state": "HI","zip": "96817","zip+4": "0000","phone": "8088532222"}
{"name": "LIHUE PHARMACY INC","address1": "4491 KOLOPA ST #A","address2": "","city": "LIHUE","state": "HI","zip": "96766","zip+4": "0000","phone": "8082469100"}
{"name": "ISLAND MEDICAL CARE INC","address1": "410 KILANI AVE","address2": "STE 102","city": "WAHIAWA","state": "HI","zip": "96786","zip+4": "0000","phone": "8086221666"}
{"name": "WAL-MART PHARMACY #103478","address1": "700 KEEAUMOKU STREET","address2": "","city": "HONOLULU","state": "HI","zip": "96814","zip+4": "0000","phone": "8089558611"}
{"name": "PHARMACARE LTC","address1": "99 128 AIEA HEIGHTS DR","address2": "SUITE 104","city": "AIEA","state": "HI","zip": "96701","zip+4": "0000","phone": "8088405690"}
{"name": "PHARMACYONE","address1": "1712 LILIHA ST STE 101","address2": "","city": "HONOLULU","state": "HI","zip": "96817","zip+4": "0000","phone": "8085482299"}
{"name": "HO OLA LAHUI HAWAI I #01","address1": "4491 RICE ST","address2": "STE 105A","city": "LIHUE","state": "HI","zip": "96766","zip+4": "0000","phone": "8082400200"}
{"name": "CENTURY SQUARE PHARMACY #1","address1": "1188 BISHOP ST","address2": "STE 2303","city": "HONOLULU","state": "HI","zip": "96813","zip+4": "0000","phone": "8085360260"}
{"name": "PHARMACARE #6","address1": "1319 PUNAHOU ST","address2": "","city": "HONOLULU","state": "HI","zip": "96826","zip+4": "0000","phone": "8088405670"}
{"name": "PHARMACARE #5","address1": "98 1079 MOANALUA RD","address2": "","city": "AIEA","state": "HI","zip": "96701","zip+4": "0000","phone": "8088405660"}
{"name": "PHARMACARE #3","address1": "888 S KING ST","address2": "","city": "HONOLULU","state": "HI","zip": "96813","zip+4": "3083","phone": "8088405640"}
{"name": "LONGS DRUGS #02425","address1": "2969 MAPUNAPUNA PL STE110","address2": "UNIT 106A","city": "HONOLULU","state": "HI","zip": "96819","zip+4": "0000","phone": "8088393300"}
{"name": "WAL-MART PHARMACY #105274","address1": "1131 KUALA STREET","address2": "","city": "PEARL CITY","state": "HI","zip": "96782","zip+4": "0000","phone": "8084548792"}
{"name": "SAMS PHARMACY #104755","address1": "750 KEEAUMOKU ST","address2": "","city": "HONOLULU","state": "HI","zip": "96814","zip+4": "0000","phone": "8089416719"}
{"name": "FOODLAND MEDICINE CABINET PHCY","address1": "108 HEKILI ST","address2": "","city": "KAILUA","state": "HI","zip": "96734","zip+4": "0000","phone": "8082613211"}
{"name": "LIFEWAY PHARMACY LIHUE","address1": "3 3295 KUHIO HWY","address2": "SUITE 102","city": "LIHUE","state": "HI","zip": "96766","zip+4": "0000","phone": "8082452471"}
{"name": "COSTCO PHARMACY #640","address1": "4300 NUHOU ST","address2": "","city": "LIHUE","state": "HI","zip": "96766","zip+4": "0000","phone": "8082414009"}
{"name": "LIHUE PROFESSIONAL PHARMACY","address1": "3-3420 KUHIO HWY","address2": "STE 101","city": "LIHUE","state": "HI","zip": "96766","zip+4": "1049","phone": "8082453800"}
{"name": "LIFEWAY PHARMACY WIAMEA","address1": "4643 A WAIMEA CANYON RD","address2": "","city": "WAIMEA","state": "HI","zip": "96796","zip+4": "0000","phone": "8083380600"}
{"name": "PUNA PHARMACY","address1": "15 2660 KEAAU PAHOA RD","address2": "STE 205","city": "PAHOA","state": "HI","zip": "96778","zip+4": "0000","phone": "8089650601"}
{"name": "FOODLAND PHARMACY #30","address1": "5 4280 KUHIO HWY","address2": "","city": "PRINCEVILLE","state": "HI","zip": "96722","zip+4": "0000","phone": "8088264228"}
{"name": "PACIFIC HEALTH PHARMACY LLC","address1": "2875 KOAPAKA ST","address2": "STE B","city": "HONOLULU","state": "HI","zip": "96819","zip+4": "0000","phone": "8088333414"}
{"name": "LONGS DRUGS #06928","address1": "2070 N KING ST #5","address2": "","city": "HONOLULU","state": "HI","zip": "96819","zip+4": "0000","phone": "8088458324"}
{"name": "CORNER PHARMACY","address1": "1029 KAPAHULU AVE","address2": "STE 303","city": "HONOLULU","state": "HI","zip": "96816","zip+4": "0000","phone": "8082187896"}
{"name": "MINA PHARMACY LTC #5","address1": "75 5995 KUAKINI HWY","address2": "513A","city": "KAILUA KONA","state": "HI","zip": "96740","zip+4": "0000","phone": "8083291000"}
{"name": "MINA PHARMACY #6","address1": "75 5995 KUAKINI HWY","address2": "STE 513","city": "KAILUA KONA","state": "HI","zip": "96740","zip+4": "0000","phone": "8083291000"}
{"name": "MEDIPHARM PHARMACY LLC #2","address1": "606 CORAL ST","address2": "","city": "HONOLULU","state": "HI","zip": "96813","zip+4": "0000","phone": "8087916077"}
{"name": "LONGS DRUGS #04463","address1": "30 AULIKE ST #104","address2": "","city": "KAILUA","state": "HI","zip": "96734","zip+4": "0000","phone": "8082663222"}
{"name": "LONGS DRUGS #04492","address1": "41 E LIPOA ST","address2": "# 23A","city": "KIHEI","state": "HI","zip": "96753","zip+4": "0000","phone": "8088798499"}
{"name": "LONGS DRUGS #04496","address1": "1900 MAIN ST #4","address2": "STE 4","city": "WAILUKU","state": "HI","zip": "96793","zip+4": "0000","phone": "8082449099"}
{"name": "MINA PHARMACY #8","address1": "4510 SALT LAKE BLVD","address2": "B7 B","city": "HONOLULU","state": "HI","zip": "96818","zip+4": "0000","phone": "8084887500"}
{"name": "MINA PHARMACY LTC LLC #7","address1": "4510 SALT LAKE BLVD","address2": "SUITE B7 A","city": "HONOLULU","state": "HI","zip": "96818","zip+4": "0000","phone": "8084887500"}
{"name": "LONGS DRUGS #06870","address1": "16586 OLD VOLCANO RD","address2": "","city": "KEAAU","state": "HI","zip": "96749","zip+4": "0000","phone": "8089828600"}
{"name": "TIMES MILILANI PHARMACY #20","address1": "95 390 KUAHEALANI AVE","address2": "","city": "MILILANI","state": "HI","zip": "96789","zip+4": "0000","phone": "8086258010"}
{"name": "LONGS DRUGS #07669","address1": "4469 WAIALO RD  STE C5","address2": "STE C5","city": "ELEELE","state": "HI","zip": "96705","zip+4": "0000","phone": "8083350700"}
{"name": "WALGREENS DRUG STORE #11443","address1": "1488 KAPIOLANI BLVD","address2": "","city": "HONOLULU","state": "HI","zip": "96814","zip+4": "3716","phone": "8089498500"}
{"name": "SAFEWAY #2747","address1": "888 KAPAHULU AVE","address2": "","city": "HONOLULU","state": "HI","zip": "96816","zip+4": "0000","phone": "8087332606"}
{"name": "LONGS DRUGS #07920","address1": "302 CALIFORNIA AVE  STE 105","address2": "STE 105","city": "WAHIAWA","state": "HI","zip": "96786","zip+4": "0000","phone": "8086222773"}
{"name": "FOODLAND PHARMACY #32","address1": "55 510 KAMEHAMEHA HWY","address2": "","city": "LAIE","state": "HI","zip": "96762","zip+4": "0000","phone": "8086401848"}
{"name": "KAHUKU MEDICAL CENTER","address1": "56 117 PUALALEA ST","address2": "","city": "KAHUKU","state": "HI","zip": "96731","zip+4": "0219","phone": "8082939221"}
{"name": "PHARMACARE NO. 7","address1": "500 ALA MOANA BLVD","address2": "TOWER 1- SUITE 302","city": "HONOLULU","state": "HI","zip": "96813","zip+4": "0000","phone": "8086282874"}
{"name": "MINA PHARMACY #10","address1": "1251 KILAUEA AVE","address2": "STE 190 C","city": "HILO","state": "HI","zip": "96720","zip+4": "0000","phone": "8089353100"}
{"name": "MINA PHARMACY LTC #9","address1": "1251 KILAUEA AVE","address2": "190C 1","city": "HILO","state": "HI","zip": "96720","zip+4": "0000","phone": "8089353100"}
{"name": "LONGS DRUGS #09127","address1": "66150 KAMEHAMEHA HIGHWAY","address2": "","city": "HALEIWA","state": "HI","zip": "96712","zip+4": "0000","phone": "8086379393"}
{"name": "FOODLAND PHARMACY #28","address1": "4 771 KUHIO HWY","address2": "","city": "KAPAA","state": "HI","zip": "96746","zip+4": "0000","phone": "8088227271"}
{"name": "LONGS DRUGS #05638","address1": "961115 KAMANI ST  STE 36","address2": "STE 36","city": "PAHALA","state": "HI","zip": "96777","zip+4": "0000","phone": "8089286252"}
{"name": "WALGREENS #10048","address1": "46-021 KAMEHAMEHA HWY","address2": "","city": "KANEOHE","state": "HI","zip": "96744","zip+4": "3793","phone": "8082341490"}
{"name": "LONGS DRUGS #01904","address1": "82 PUUHONU PLACE#103","address2": "STE 103","city": "HILO","state": "HI","zip": "96720","zip+4": "0000","phone": "8089619267"}
{"name": "LONGS DRUGS #02362","address1": "670 PONAHAWAI ST  STE 213","address2": "STE 213","city": "HILO","state": "HI","zip": "96720","zip+4": "0000","phone": "8089338555"}
{"name": "WALGREENS # #11118","address1": "1520 N SCHOOL ST.","address2": "","city": "HONOLULU","state": "HI","zip": "96817","zip+4": "1802","phone": "8088457111"}
{"name": "WALGREENS # #13119","address1": "843 WAINEE ST.","address2": "SUITE 109","city": "LAHAINA","state": "HI","zip": "96761","zip+4": "1685","phone": "8086613119"}
{"name": "PAIA PHARMACY","address1": "96 HANA HIGHWAY","address2": "","city": "PAIA","state": "HI","zip": "96779","zip+4": "0000","phone": "8085796466"}
{"name": "LONGS DRUGS #02406","address1": "65-1267 KAWAIHAE RD.","address2": "","city": "KAMUELA","state": "HI","zip": "96743","zip+4": "0000","phone": "8088854418"}
{"name": "LONGS DRUGS #06889","address1": "966 KAHEKA ST","address2": "","city": "HONOLULU","state": "HI","zip": "96814","zip+4": "0000","phone": "8089457875"}
{"name": "WALGREENS # #12763","address1": "2180 MAIN ST","address2": "STE 102","city": "WAILUKU","state": "HI","zip": "96793","zip+4": "1625","phone": "8082447252"}
{"name": "WALGREENS # #12764","address1": "99 S MARKET ST","address2": "SUITE 201","city": "WAILUKU","state": "HI","zip": "96793","zip+4": "2200","phone": "8082427095"}
{"name": "WALGREENS # #12762","address1": "130 PRISON ST","address2": "","city": "LAHAINA","state": "HI","zip": "96761","zip+4": "1247","phone": "8086614747"}
{"name": "TARGET PHARMACY #2411","address1": "4450 KAPOLEI PKWY STE 100","address2": "","city": "KAPOLEI","state": "HI","zip": "96707","zip+4": "0000","phone": "8084573680"}
{"name": "TARGET PHARMACY #2410","address1": "4380 LAWEHANA ST","address2": "","city": "HONOLULU","state": "HI","zip": "96818","zip+4": "0000","phone": "8084413119"}
{"name": "LONGS DRUGS #03059","address1": "55 KIOPA'A STREET","address2": "","city": "PUKALANI","state": "HI","zip": "96768","zip+4": "0000","phone": "8085739304"}
{"name": "COSTCO PHARMACY #1038","address1": "4589 KAPOLEI PARKWAY","address2": "","city": "KAPOLEI","state": "HI","zip": "96707","zip+4": "0000","phone": "8086743909"}
{"name": "WALGREENS #12466","address1": "56 ONEAWA ST","address2": "","city": "KAILUA","state": "HI","zip": "96734","zip+4": "2543","phone": "8082639980"}
{"name": "WALGREENS #13645","address1": "94-307 FARRINGTON HWY","address2": "STE B7B","city": "WAIPAHU","state": "HI","zip": "96797","zip+4": "2500","phone": "8086762230"}
{"name": "TARGET PHARMACY #2412","address1": "74-5455 MAKALA BLVD","address2": "","city": "KAILUA KONA","state": "HI","zip": "96740","zip+4": "0000","phone": "8083344021"}
{"name": "WALGREENS #11192","address1": "342 KEAWE ST BLDG D","address2": "","city": "LAHAINA","state": "HI","zip": "96761","zip+4": "0000","phone": "8086679515"}
{"name": "LONGS DRUG STORE #03040","address1": "1748 LILIHA ST","address2": "","city": "HONOLULU","state": "HI","zip": "96817","zip+4": "3111","phone": "4017651500"}
{"name": "SAFEWAY PHARMACY # #1501","address1": "75-1027 HENRY ST","address2": "","city": "KAILUA KONA","state": "HI","zip": "96740","zip+4": "3154","phone": "8083276778"},