{"name": "WALGREEN DRUG STORE #4867","address1": "3160 N HWY 67","address2": "","city": "FLORISSANT","state": "MO","zip": "63033","zip+4": "0000","phone": "3148310160"}
{"name": "WALGREEN DRUG STORE #3036","address1": "9070 W FLORISSANT","address2": "","city": "FERGUSON","state": "MO","zip": "63136","zip+4": "0000","phone": "3143880433"}
{"name": "WALGREEN DRUG STORE #2994","address1": "9285 HALLS FERRY ROAD","address2": "","city": "JENNINGS","state": "MO","zip": "63136","zip+4": "0000","phone": "3148672700"}
{"name": "WALGREEN DRUG STORE #6254","address1": "7199 NATURAL BRIDGE RD","address2": "","city": "ST LOUIS","state": "MO","zip": "63121","zip+4": "0000","phone": "3143820690"}
{"name": "WALGREEN DRUG STORE #2552","address1": "10585 STCHASROCK RD","address2": "","city": "ST ANN","state": "MO","zip": "63074","zip+4": "0000","phone": "3144272528"}
{"name": "WALGREEN DRUG STORE #6755","address1": "3920 HAMPTON AVE","address2": "","city": "ST LOUIS","state": "MO","zip": "63109","zip+4": "0000","phone": "3143516580"}
{"name": "CVS PHARMACY #05697","address1": "3902 MAIN ST","address2": "","city": "KANSAS CITY","state": "MO","zip": "64111","zip+4": "0000","phone": "8169315452"}
{"name": "CVS PHARMACY #05719","address1": "232 N OLDHAM PKWY","address2": "","city": "LEES SUMMIT","state": "MO","zip": "64081","zip+4": "0000","phone": "8165245084"}
{"name": "CVS PHARMACY #05698","address1": "7107 N OAK TRAFFIC WAY","address2": "","city": "GLADSTONE","state": "MO","zip": "64118","zip+4": "0000","phone": "8164363200"}
{"name": "WINKELMANN-SONS DRUG COMPANY","address1": "3300 MERAMEC ST","address2": "","city": "SAINT LOUIS","state": "MO","zip": "63118","zip+4": "4396","phone": "3143533300"}
{"name": "WALGREEN DRUG STORE #854","address1": "5764 S LINDBERGH","address2": "","city": "ST LOUIS","state": "MO","zip": "63123","zip+4": "0000","phone": "3148423340"}
{"name": "STANDARD DRUG COMPANY #2","address1": "305 HAWTHORNE AVE","address2": "","city": "SAINT CHARLES","state": "MO","zip": "63301","zip+4": "1497","phone": "6369463890"}
{"name": "STANDARD DRUG #5","address1": "3110 W CLAY ST","address2": "","city": "SAINT CHARLES","state": "MO","zip": "63301","zip+4": "1022","phone": "5733463866"}
{"name": "ST CHARLES REXALL DRUG CO","address1": "550 FIRST CAPITOL DR","address2": "","city": "ST CHARLES","state": "MO","zip": "63301","zip+4": "2797","phone": "6369466606"}
{"name": "WALGREEN DRUG STORE #4824","address1": "12098 LUSHER RD","address2": "","city": "ST LOUIS","state": "MO","zip": "63138","zip+4": "0000","phone": "3143550100"}
{"name": "WALGREEN DRUG STORE #01633","address1": "7398 N LINDBERGH BLVD","address2": "","city": "HAZELWOOD","state": "MO","zip": "63042","zip+4": "2033","phone": "3149721257"}
{"name": "SCHNUCKS PHARMACY #107","address1": "7450 HAMPTON AVE","address2": "","city": "ST LOUIS","state": "MO","zip": "63109","zip+4": "0000","phone": "3148323688"}
{"name": "WAL-MART PHARMACY #100059","address1": "1501 SOUTH RANGELINE ROAD","address2": "","city": "JOPLIN","state": "MO","zip": "64804","zip+4": "0000","phone": "4176242222"}
{"name": "WALGREEN DRUG STORE #7144","address1": "3631 GRAVOIS AVE","address2": "","city": "ST LOUIS","state": "MO","zip": "63116","zip+4": "0000","phone": "3147723215"}
{"name": "MEDICINE SHOPPE #1492","address1": "16 STONEGATE CENTER","address2": "","city": "VALLEY PARK","state": "MO","zip": "63088","zip+4": "0000","phone": "6362255123"}
{"name": "GROVE PHARMACY","address1": "1522 E SUNSHINE ST","address2": "","city": "SPRINGFIELD","state": "MO","zip": "65804","zip+4": "0000","phone": "4178812910"}
{"name": "STANLEYS PHARMACY","address1": "1365 SPUR DR","address2": "","city": "MARSHFIELD","state": "MO","zip": "65706","zip+4": "0000","phone": "4174682530"}
{"name": "AVA DRUG #8003","address1": "124 W WASHINGTON AVE","address2": "","city": "AVA","state": "MO","zip": "65608","zip+4": "0000","phone": "4176834127"}
{"name": "HIXSON DRUG,INC.","address1": "604A E SOUTH ST","address2": "","city": "OZARK","state": "MO","zip": "65721","zip+4": "0000","phone": "4175817777"}
{"name": "ST JOHNS PHARMACY SGC","address1": "3231 S NATIONAL AVE","address2": "","city": "SPRINGFIELD","state": "MO","zip": "65807","zip+4": "0000","phone": "4178410116"}
{"name": "SEYMOUR PHARMACY #8154","address1": "214 SOUTH MAIN ST","address2": "","city": "SEYMOUR","state": "MO","zip": "65746","zip+4": "0000","phone": "4179354900"}
{"name": "AURORA PROFESSIONAL PHARMACY","address1": "124 S MADISON","address2": "","city": "AURORA","state": "MO","zip": "65605","zip+4": "1496","phone": "4176784136"}
{"name": "BRUNER PBA PHARMACY","address1": "321 BROADWAY","address2": "","city": "MONETT","state": "MO","zip": "65708","zip+4": "2392","phone": "4172353139"}
{"name": "WILKINSON PHARMACY","address1": "105 S OAK ST","address2": "","city": "NEVADA","state": "MO","zip": "64772","zip+4": "0000","phone": "4176677802"}
{"name": "WILKINSON PHARMACY #7","address1": "143 W ELM ST","address2": "","city": "LEBANON","state": "MO","zip": "65536","zip+4": "0000","phone": "4175324431"}
{"name": "WALGREEN DRUG STORE #3686","address1": "4140 S BROADWAY","address2": "","city": "ST LOUIS","state": "MO","zip": "63118","zip+4": "0000","phone": "3148324990"}
{"name": "SATER PHARMACY","address1": "705 MAIN ST","address2": "","city": "CASSVILLE","state": "MO","zip": "65625","zip+4": "1421","phone": "4178472315"}
{"name": "RINDERERS DRUG INC #2","address1": "12141 BELLEFONTAINE RD","address2": "","city": "SAINT LOUIS","state": "MO","zip": "63138","zip+4": "1995","phone": "3147418700"}
{"name": "RINDERERS DRUG STORE #1","address1": "4447 NATURAL BRIDGE AVE","address2": "","city": "ST LOUIS","state": "MO","zip": "63115","zip+4": "2698","phone": "3143810501"}
{"name": "NORTHTOWN DRUG","address1": "1875 N WESTWOOD BLVD","address2": "","city": "POPLAR BLUFF","state": "MO","zip": "63901","zip+4": "0000","phone": "5736861461"}
{"name": "SCHROEDER DRUG","address1": "201 ELM ST","address2": "","city": "WASHINGTON","state": "MO","zip": "63090","zip+4": "0227","phone": "6362394707"}
{"name": "CLARK CNTY PHCY INC","address1": "250 S JOHNSON ST","address2": "","city": "KAHOKA","state": "MO","zip": "63445","zip+4": "0000","phone": "6607272214"}
{"name": "BENDERS PRESCRIPTION SHOP","address1": "3829 FREDERICK AVE","address2": "","city": "ST JOSEPH","state": "MO","zip": "64506","zip+4": "0000","phone": "8162791668"}
{"name": "MEDICINE SHOPPE PHARMACY #1104","address1": "900 MAIN ST","address2": "","city": "GRANDVIEW","state": "MO","zip": "64030","zip+4": "0000","phone": "8167615566"}
{"name": "WHALEYS EAST END DRUG","address1": "630 E HIGH ST","address2": "","city": "JEFFERSON CITY","state": "MO","zip": "65101","zip+4": "3268","phone": "5736363733"}
{"name": "GOLDSMITH PHARMACY","address1": "777 S NEW BALLAS RD","address2": "","city": "SAINT LOUIS","state": "MO","zip": "63141","zip+4": "8705","phone": "3144325020"}
{"name": "WAL-MART PHARMACY #100079","address1": "2623 WEST 7TH STREET","address2": "","city": "JOPLIN","state": "MO","zip": "64801","zip+4": "0000","phone": "4172069205"}
{"name": "MEDICINE SHOPPE #1633","address1": "1474 NORTH BOONVILLE","address2": "","city": "SPRINGFIELD","state": "MO","zip": "65802","zip+4": "0000","phone": "4178691866"}
{"name": "WATT DRUG CO","address1": "11724 E 23RD ST","address2": "","city": "INDEPENDENCE","state": "MO","zip": "64050","zip+4": "4204","phone": "8164618844"}
{"name": "LA PLATA PHARMACY","address1": "29936 JULY ROAD","address2": "","city": "LA PLATA","state": "MO","zip": "63549","zip+4": "0000","phone": "6603324456"}
{"name": "JON'S PHARMACY","address1": "219 S WASHINGTON ST","address2": "","city": "NEOSHO","state": "MO","zip": "64850","zip+4": "1818","phone": "4174513775"}
{"name": "MT VERNON HOMETOWN #4","address1": "606 E MOUNT VERNON BLVD","address2": "","city": "MOUNT VERNON","state": "MO","zip": "65712","zip+4": "0000","phone": "4174662000"}
{"name": "WHITLEY PHARMACY","address1": "101 W 8TH ST","address2": "","city": "CASSVILLE","state": "MO","zip": "65625","zip+4": "1311","phone": "4178472722"}
{"name": "VISTA PHARMACY #6139","address1": "1601 MISSOURI AVE","address2": "","city": "CARTHAGE","state": "MO","zip": "64836","zip+4": "0000","phone": "4173588223"}
{"name": "SPALITTOS PHARMACY LLC","address1": "3801 INDEPENDENCE AVE","address2": "","city": "KANSAS CITY","state": "MO","zip": "64124","zip+4": "0000","phone": "8162314717"}
{"name": "PLAZA  PHARMACY","address1": "700 S LIMIT","address2": "","city": "SEDALIA","state": "MO","zip": "65301","zip+4": "3951","phone": "6608262431"}
{"name": "FLOWS PHARMACY","address1": "1506 E BROADWAY","address2": "","city": "COLUMBIA","state": "MO","zip": "65201","zip+4": "0000","phone": "5734495366"}
{"name": "SCHNUCKS PHARMACY #142","address1": "1060 SCHNUCKS WOODS MILL PLAZA","address2": "","city": "CHESTERFIELD","state": "MO","zip": "63017","zip+4": "0000","phone": "6362272770"}
{"name": "OVERTURF HEALTH MART","address1": "116 S WALNUT","address2": "","city": "BERNIE","state": "MO","zip": "63822","zip+4": "0000","phone": "5732935531"}
{"name": "TOWN PHARMACY","address1": "302 S PRAIRIE","address2": "","city": "BLOOMFIELD","state": "MO","zip": "63825","zip+4": "0337","phone": "5735682643"}
{"name": "PRICE CHOPPER PHY","address1": "1100 SOUTH 7 HWY","address2": "","city": "BLUE SPRINGS","state": "MO","zip": "64015","zip+4": "0000","phone": "8162293252"}
{"name": "DAN AND STANS PHARMACY","address1": "103 E BROADWAY ST","address2": "","city": "BOLIVAR","state": "MO","zip": "65613","zip+4": "0000","phone": "4173267666"}
{"name": "PHARMAX PHARMACY #1365","address1": "60 A NESBIT DRIVE","address2": "","city": "BONNE TERRE","state": "MO","zip": "63628","zip+4": "0000","phone": "5733583301"}
{"name": "NYBERG PHARMACY","address1": "315 S ASH","address2": "","city": "BUFFALO","state": "MO","zip": "65622","zip+4": "0860","phone": "4173452321"}
{"name": "BROADWAY PRESCRIPTION SHOP","address1": "710 BROADWAY","address2": "","city": "CAPE GIRARDEAU","state": "MO","zip": "63701","zip+4": "0000","phone": "5733358207"}
{"name": "HOMETOWN PHARMACY","address1": "1409 N JEFFERSON","address2": "","city": "CARROLLTON","state": "MO","zip": "64633","zip+4": "0000","phone": "6605422020"}
{"name": "HAYDEN PHARMACY","address1": "1200 WARD AVE","address2": "","city": "CARUTHERSVILLE","state": "MO","zip": "63830","zip+4": "2204","phone": "5733334606"}
{"name": "PRESCRIPTION DRUG STORE","address1": "410 WARD AVE","address2": "","city": "CARUTHERSVILLE","state": "MO","zip": "63830","zip+4": "1451","phone": "5733334890"}
{"name": "CEDAR HILL DRUG","address1": "7032 STATE ROUTE BB","address2": "","city": "CEDAR HILL","state": "MO","zip": "63016","zip+4": "0000","phone": "6362743111"}
{"name": "KINKEAD PHARMACY INC","address1": "105 S ALLEN","address2": "","city": "CENTRALIA","state": "MO","zip": "65240","zip+4": "0000","phone": "5736822155"}
{"name": "MEDICAP PHARMACY #8081","address1": "211 W YOAKUM","address2": "","city": "CHAFFEE","state": "MO","zip": "63740","zip+4": "0000","phone": "5738873622"}
{"name": "L AND S DISCOUNT PHCY","address1": "406 S MAIN STREET","address2": "","city": "CHARLESTON","state": "MO","zip": "63834","zip+4": "0000","phone": "5736833307"}
{"name": "FORUM CENTER PBA PHARMACY","address1": "67 FORUM SHOPPING CTR","address2": "","city": "CHESTERFIELD","state": "MO","zip": "63017","zip+4": "3098","phone": "3144342544"}
{"name": "KREISLER DRUG CO INC","address1": "117 W FRANKLIN ST","address2": "","city": "CLINTON","state": "MO","zip": "64735","zip+4": "0528","phone": "6608855551"}
{"name": "ELLIS FISHEL OP PHCY","address1": "115 BUSINESS LOOP 70 W","address2": "","city": "COLUMBIA","state": "MO","zip": "65203","zip+4": "0000","phone": "5738828890"}
{"name": "NEELS PHARMACY","address1": "8 CRESTWOOD EXECUTIVE CTR","address2": "","city": "SAINT LOUIS","state": "MO","zip": "63126","zip+4": "0000","phone": "3148493123"}
{"name": "ST JOHNS MERCY PHARMACY ST JOH","address1": "621 S NEW BALLAS RD","address2": "STE 20A","city": "SAINT LOUIS","state": "MO","zip": "63141","zip+4": "0000","phone": "3142517444"}
{"name": "MEDICINE SHOPPE #1376","address1": "100 NORTH MAIN ST","address2": "","city": "DESOTO","state": "MO","zip": "63020","zip+4": "0000","phone": "6365865533"}
{"name": "BEAUTON DRUG","address1": "124 N WASHINGTON AVE","address2": "","city": "EAST PRAIRIE","state": "MO","zip": "63845","zip+4": "1192","phone": "5736493923"}
{"name": "EVANS DRUG","address1": "209 E US HWY 54","address2": "","city": "EL DORADO SPRINGS","state": "MO","zip": "64744","zip+4": "1123","phone": "4178763313"}
{"name": "WILKINSON PHARMACY #5","address1": "200 E US HIGHWAY 54","address2": "","city": "EL DORADO SPRINGS","state": "MO","zip": "64744","zip+4": "0000","phone": "4178763511"}
{"name": "DICUS DRUG","address1": "125 W KARSCH BLVD","address2": "","city": "FARMINGTON","state": "MO","zip": "63640","zip+4": "3104","phone": "5737565425"}
{"name": "MEDICATE LTC PHARMACY","address1": "312 E KARSCH BLVD","address2": "","city": "FARMINGTON","state": "MO","zip": "63640","zip+4": "0000","phone": "5737567870"}
{"name": "PHARMAX PHARMACY #1343","address1": "113 ST FRANCOIS PLAZA","address2": "","city": "LEADINGTON","state": "MO","zip": "63601","zip+4": "0000","phone": "5734315040"}
{"name": "FORSYTH PHARMACY INC","address1": "16269 HWY 160","address2": "","city": "FORSYTH","state": "MO","zip": "65653","zip+4": "9805","phone": "4175465151"}
{"name": "DICUS DRUGS","address1": "210 E MURTA","address2": "","city": "FREDERICKTOWN","state": "MO","zip": "63645","zip+4": "1018","phone": "5737832788"}
{"name": "MEDICATE PHARMACY #002797","address1": "111 E MAIN ST","address2": "","city": "FREDERICKTOWN","state": "MO","zip": "63645","zip+4": "1123","phone": "5737835508"}
{"name": "SAULTS DRUG INC","address1": "505 COURT STREET","address2": "","city": "FULTON","state": "MO","zip": "65251","zip+4": "0000","phone": "5736424186"}
{"name": "GAINESVILLE PHARMACY","address1": "404 W HWY 160","address2": "","city": "GAINESVILLE","state": "MO","zip": "65655","zip+4": "0000","phone": "4176793511"}
{"name": "ST MARYS PHARMACY #184","address1": "5 DIAMOND BLVD","address2": "","city": "HANNIBAL","state": "MO","zip": "63401","zip+4": "0000","phone": "5732213000"}
{"name": "TRAINOR CLEVENGER DRUG","address1": "225 S 3RD ST","address2": "","city": "HAYTI","state": "MO","zip": "63851","zip+4": "0000","phone": "5733591646"}
{"name": "BERLENER PHARMACY","address1": "219 EAST FIRST ST","address2": "","city": "HERMANN","state": "MO","zip": "65041","zip+4": "0000","phone": "5734862612"}
{"name": "HILLSBORO DRUG","address1": "10666 HWY 21","address2": "","city": "HILLSBORO","state": "MO","zip": "63050","zip+4": "0000","phone": "6367973468"}
{"name": "FORBES PHARMACY #8161","address1": "100 N GRAND","address2": "","city": "HOUSTON","state": "MO","zip": "65483","zip+4": "0000","phone": "4179673315"}
{"name": "MEDICAP PHARMACY #8070","address1": "2220 MAIN ST","address2": "","city": "SCOTT CITY","state": "MO","zip": "63780","zip+4": "0000","phone": "5732642450"}
{"name": "JONES DRUG STORE","address1": "125 COURT ST","address2": "","city": "JACKSON","state": "MO","zip": "63755","zip+4": "1807","phone": "5732433524"}
{"name": "WHALEYS MED CTR PHCY","address1": "1431 SW BLVD","address2": "","city": "JEFFERSON CITY","state": "MO","zip": "65109","zip+4": "2491","phone": "5736343606"}
{"name": "DRUG WAREHOUSE #3","address1": "1410 EAST 7TH STREET","address2": "","city": "JOPLIN","state": "MO","zip": "64801","zip+4": "0000","phone": "4176243270"}
{"name": "STARK PROFESSIONAL PHARMACY","address1": "6650 TROOST AVE","address2": "","city": "KANSAS CITY","state": "MO","zip": "64131","zip+4": "0000","phone": "8163336611"}
{"name": "SWOPE HEALTH SERVICES","address1": "3801 BLUE PKWY","address2": "","city": "KANSAS CITY","state": "MO","zip": "64130","zip+4": "0000","phone": "8169235800"}
{"name": "SAMUEL U RODGERS HEALTH CENTER","address1": "825 EUCLID AVE","address2": "","city": "KANSAS CITY","state": "MO","zip": "64124","zip+4": "2398","phone": "8168894652"}
{"name": "MITCHELL PHARMACY","address1": "123 SOUTHSIDE SQUARE","address2": "","city": "KENNETT","state": "MO","zip": "63857","zip+4": "0000","phone": "5738889094"}
{"name": "ELLIOTT PHARMACY","address1": "2120 N BALTIMORE","address2": "","city": "KIRKSVILLE","state": "MO","zip": "63501","zip+4": "0000","phone": "6606659871"}
{"name": "RIDER DRUG INC","address1": "1207 S BALTIMORE ST","address2": "","city": "KIRKSVILLE","state": "MO","zip": "63501","zip+4": "4528","phone": "6606654666"}
{"name": "WILKINSON PHARMACY LAMAR","address1": "605A W 12TH ST","address2": "","city": "LAMAR","state": "MO","zip": "64759","zip+4": "0000","phone": "4176825838"}
{"name": "ST JOHNS PHARMACY LEBANON","address1": "200 HOSPITAL DR","address2": "","city": "LEBANON","state": "MO","zip": "65536","zip+4": "0000","phone": "4175336770"}
{"name": "LEES SUMMIT PHARMACY INC","address1": "615 W 3RD ST","address2": "","city": "LEES SUMMIT","state": "MO","zip": "64063","zip+4": "0000","phone": "8165243335"}
{"name": "MEDICINE SHOPPE PHARMACY #1380","address1": "1120 FRANKLIN","address2": "","city": "LEXINGTON","state": "MO","zip": "64067","zip+4": "1336","phone": "6602592591"}
{"name": "ST JOHNS SISK PHARMACY #444","address1": "101 N MAIN ST","address2": "","city": "LICKING","state": "MO","zip": "65542","zip+4": "0000","phone": "5736742922"}
{"name": "NORRIDS CITY DRUG INC.","address1": "906 N DOUGLAS","address2": "","city": "MALDEN","state": "MO","zip": "63863","zip+4": "0000","phone": "5732762737"}
{"name": "OVERTURF DRUG STORES","address1": "210 W MAIN","address2": "","city": "MALDEN","state": "MO","zip": "63863","zip+4": "0000","phone": "5732762218"}
{"name": "MANSFIELD DRUG","address1": "101 N BUSINESS HWY 60","address2": "","city": "MANSFIELD","state": "MO","zip": "65704","zip+4": "0000","phone": "4179248877"}
{"name": "SAM'S HEALTH MART PHARMACY #1","address1": "300 N MORLEY","address2": "","city": "MOBERLY","state": "MO","zip": "65270","zip+4": "0957","phone": "6602630909"}
{"name": "MOUNTAIN GROVE PHARMACY","address1": "106 N UNION ST","address2": "","city": "MOUNTAIN GROVE","state": "MO","zip": "65711","zip+4": "1901","phone": "4179264156"}
{"name": "PRATTS PHARMACY","address1": "100 DWAYNE VON BEHREN DR","address2": "","city": "NEW HAVEN","state": "MO","zip": "63068","zip+4": "9716","phone": "5732373321"}
{"name": "DAVIS PHARMACY","address1": "415 MOTT ST","address2": "","city": "NEW MADRID","state": "MO","zip": "63869","zip+4": "1995","phone": "5737485205"}
{"name": "MEDICINE SHOPPE #1717","address1": "2514 WOODSON RD","address2": "","city": "OVERLAND","state": "MO","zip": "63114","zip+4": "0000","phone": "3154271818"}
{"name": "BIRDSONG PHARMACY INC","address1": "101 E ST. LOUIS STREET","address2": "","city": "PACIFIC","state": "MO","zip": "63069","zip+4": "0000","phone": "6362713450"}
{"name": "PARIS PHARMACY","address1": "223 NORTH MAIN STREET","address2": "","city": "PARIS","state": "MO","zip": "65275","zip+4": "0000","phone": "6603274514"}
{"name": "MEDICAL CENTER PHARMACY","address1": "RTE 4 BOX 4515","address2": "","city": "PIEDMONT","state": "MO","zip": "63957","zip+4": "0000","phone": "5732234235"}
{"name": "DILLES DISCOUNT PHARMACY","address1": "909 W PINE ST","address2": "","city": "POPLAR BLUFF","state": "MO","zip": "63901","zip+4": "0000","phone": "5737850984"}
{"name": "KEY DRUG","address1": "910 N WESTWOOD","address2": "","city": "POPLAR BLUFF","state": "MO","zip": "63901","zip+4": "4298","phone": "5737858218"}
{"name": "BUTLER DRUG STORE INC","address1": "222 E MAIN ST","address2": "","city": "PORTAGEVILLE","state": "MO","zip": "63873","zip+4": "1614","phone": "5733795469"}
{"name": "AUSTIN PLAZA PHARMACY","address1": "108 FRIZZELL STREET","address2": "","city": "POTOSI","state": "MO","zip": "63664","zip+4": "0000","phone": "5734382349"}
{"name": "FOXS DRUG STORE INC","address1": "10004 E 63RD ST","address2": "","city": "RAYTOWN","state": "MO","zip": "64133","zip+4": "0000","phone": "8163531600"}
{"name": "ECONOMY HEALTH MART","address1": "101 N THORNTON ST","address2": "","city": "RICHMOND","state": "MO","zip": "64085","zip+4": "1792","phone": "8167763315"}
{"name": "STONER DRUG #2","address1": "315 S MAIN ST","address2": "","city": "ROCK PORT","state": "MO","zip": "64482","zip+4": "1533","phone": "8607442433"}
{"name": "HILLCREST DRUG INC","address1": "1100B SOUTH BISHOP","address2": "","city": "ROLLA","state": "MO","zip": "65401","zip+4": "0000","phone": "5733643258"}
{"name": "VANDIVORT DRUG","address1": "117 W 4TH STREET","address2": "","city": "SALEM","state": "MO","zip": "65560","zip+4": "0000","phone": "5737294114"}
{"name": "MEDICAL CENTER PHARMACY","address1": "1700 S INGRAM AVE","address2": "","city": "SEDALIA","state": "MO","zip": "65301","zip+4": "7506","phone": "6608262626"}
{"name": "SUPER D DRUGS #16","address1": "702 NORTH MAIN","address2": "","city": "SIKESTON","state": "MO","zip": "63801","zip+4": "0000","phone": "5734720777"}
{"name": "SSM ST CHARLES CLINIC MED GRP","address1": "1551 WALL ST","address2": "STE 320","city": "SAINT CHARLES","state": "MO","zip": "63303","zip+4": "0000","phone": "6366692223"}
{"name": "ST CLAIR REXALL DRUG CO INC","address1": "855 N COMMERCIAL AVE","address2": "","city": "SAINT CLAIR","state": "MO","zip": "63077","zip+4": "1118","phone": "6366290710"}
{"name": "KLEINS PHARMACY","address1": "601 CENTER DR","address2": "","city": "ST GENEVIEVE","state": "MO","zip": "63670","zip+4": "0486","phone": "5738835788"}
{"name": "THE APOTHECARY PHARMACY","address1": "1517 ST JOSEPH AVE","address2": "","city": "ST JOSEPH","state": "MO","zip": "64505","zip+4": "0000","phone": "8162792590"}
{"name": "LADUE PHARMACY LLC","address1": "9832 CLAYTON RD","address2": "","city": "ST LOUIS","state": "MO","zip": "63124","zip+4": "0000","phone": "3149934031"}
{"name": "LDI PHARMACY BENEFIT SERVICES","address1": "680 CRAIG RD","address2": "STE 200","city": "ST LOUIS","state": "MO","zip": "63141","zip+4": "0000","phone": "3146522121"}
{"name": "WEST PINE PHARMACY","address1": "4401 W PINE BLVD","address2": "","city": "SAINT LOUIS","state": "MO","zip": "63108","zip+4": "2399","phone": "3145331081"}
{"name": "MD PHARMACY","address1": "8500 DELMAR BLVD","address2": "","city": "SAINT LOUIS","state": "MO","zip": "63124","zip+4": "1974","phone": "3149911111"}
{"name": "WILLIAMS PHARMACY INC","address1": "7010 PERSHING AVE","address2": "","city": "UNIVERSITY CITY","state": "MO","zip": "63130","zip+4": "4390","phone": "3147274854"}
{"name": "VANDALIA DRUG","address1": "112 N MAIN ST","address2": "","city": "VANDALIA","state": "MO","zip": "63382","zip+4": "1566","phone": "5735942136"}
{"name": "CLINIC PHARMACY","address1": "901 KIDWELL DR","address2": "","city": "VERSAILLES","state": "MO","zip": "65084","zip+4": "0000","phone": "5733784661"}
{"name": "STEWARTS PBA DRUG CO","address1": "227 E MAIN ST","address2": "","city": "WARRENTON","state": "MO","zip": "63383","zip+4": "2005","phone": "6364563419"}
{"name": "FERGUSON DRUG CO INC #8404","address1": "101 EAST MAIN STREET","address2": "","city": "WILLOW SPRINGS","state": "MO","zip": "65793","zip+4": "0000","phone": "4174693005"}
{"name": "LTC PHARMACY SERVICES","address1": "3651 W INDUSTRIAL DRIVE","address2": "","city": "LOUISIANA","state": "MO","zip": "63353","zip+4": "0000","phone": "5737567870"}
{"name": "STEPHENS PHARMACY","address1": "1100 S SPRINGFIELD","address2": "","city": "BOLIVAR","state": "MO","zip": "65613","zip+4": "0000","phone": "4173262416"}
{"name": "WHARF PHARMACY","address1": "2175 W TERR LN","address2": "","city": "OFALLON","state": "MO","zip": "63366","zip+4": "0000","phone": "6368874008"}
{"name": "MEDICAL ARTS PHARMACY","address1": "808 E WAKEFIELD","address2": "","city": "SIKESTON","state": "MO","zip": "63801","zip+4": "5147","phone": "5734715454"}
{"name": "KMART PHARMACY #4157","address1": "5615 BANNISTER RD E","address2": "","city": "KANSAS CITY","state": "MO","zip": "64137","zip+4": "0000","phone": "8167657555"}
{"name": "SIMMONS AND GRAHAM PHCY","address1": "101 N MAIN","address2": "","city": "CHARLESTON","state": "MO","zip": "63834","zip+4": "0000","phone": "5736833366"}
{"name": "KMART PHARMACY #4220","address1": "2821 VIVION RD NE","address2": "","city": "KANSAS CITY","state": "MO","zip": "64119","zip+4": "0000","phone": "8164525300"}
{"name": "KMART PHARMACY #4427","address1": "16200 EAST US HWY 24","address2": "","city": "INDEPENDENCE","state": "MO","zip": "64056","zip+4": "0000","phone": "8162571700"}
{"name": "WALGREEN DRUG STORE #6789","address1": "701 GRAVOIS BLUFF BLVD","address2": "","city": "FENTON","state": "MO","zip": "63026","zip+4": "0000","phone": "6363437602"}
{"name": "KMART PHARMACY #4743","address1": "11978 ST CHARLES ROCK ROAD","address2": "","city": "BRIDGETON","state": "MO","zip": "63044","zip+4": "0000","phone": "3142912290"}
{"name": "OVERTURF HEALTHMART","address1": "903 W BUSINESS 60","address2": "","city": "DEXTER","state": "MO","zip": "63841","zip+4": "9804","phone": "5736247452"}
{"name": "BUTLER PHARMACY INC","address1": "18 N DELAWARE ST","address2": "","city": "BUTLER","state": "MO","zip": "64730","zip+4": "2093","phone": "6606794175"}
{"name": "MEDICINE SHOPPE #1356","address1": "505 SALT LICK RD","address2": "","city": "ST PETERS","state": "MO","zip": "63376","zip+4": "0000","phone": "6362786561"}
{"name": "BRANSON DRUG","address1": "103 E MAIN ST","address2": "","city": "BRANSON","state": "MO","zip": "65616","zip+4": "2713","phone": "4173343187"}
{"name": "KMART PHARMACY #9336","address1": "4023 S NOLAND","address2": "","city": "INDEPENDENCE","state": "MO","zip": "64055","zip+4": "0000","phone": "8162541366"}
{"name": "KMART PHARMACY #4304","address1": "1 FLOWER VALLEY SHP CTR","address2": "","city": "FLORISSANT","state": "MO","zip": "63033","zip+4": "0000","phone": "3148318400"}
{"name": "WALGREEN DRUG STORE #7185","address1": "917 CHESTERFIELD PKWY EAST","address2": "","city": "CHESTERFIELD","state": "MO","zip": "63017","zip+4": "0000","phone": "6365360149"}
{"name": "DRUG WAREHOUSE #10","address1": "3222 SOUTH MAIN","address2": "","city": "JOPLIN","state": "MO","zip": "64804","zip+4": "0000","phone": "4176246300"}
{"name": "ST JOHNS REG HLTH CTR PHCY","address1": "1235 E CHEROKEE ST","address2": "","city": "SPRINGFIELD","state": "MO","zip": "65804","zip+4": "2263","phone": "4178206624"}
{"name": "MEDICINE SHOPPE PHARMACY #0128","address1": "7922 MACKENZIE RD","address2": "","city": "AFFTON","state": "MO","zip": "63123","zip+4": "0000","phone": "3146383535"}
{"name": "KMART PHARMACY #4720","address1": "6650 MANCHESTER","address2": "","city": "ST LOUIS","state": "MO","zip": "63139","zip+4": "0000","phone": "3146450544"}
{"name": "BRUNER PHARMACY","address1": "102 S MAIN","address2": "","city": "CARL JUNCTION","state": "MO","zip": "64834","zip+4": "0000","phone": "4176497021"}
{"name": "BECKWITH PHARMACY","address1": "107 N LINCOLN DR","address2": "STE 204","city": "TROY","state": "MO","zip": "63379","zip+4": "1315","phone": "6365288462"}
{"name": "SCHNUCKS PHARMACY #702","address1": "19 SOUTH KINGSHIGHWAY","address2": "","city": "CAPE GIRARDEAU","state": "MO","zip": "63701","zip+4": "0000","phone": "5733349125"}
{"name": "STRAUSER DRUGS #725","address1": "6 E SPRINGFIELD ROAD","address2": "","city": "SULLIVAN","state": "MO","zip": "63080","zip+4": "1310","phone": "5734686464"}
{"name": "ST ANTHONYS MED CTR PHCY CLOSE","address1": "10010 KENNERLY RD","address2": "","city": "ST LOUIS","state": "MO","zip": "63128","zip+4": "2185","phone": "3145251633"}
{"name": "MONETT PROFESSIONAL PHARMACY","address1": "801 N LINCOLN AVE","address2": "","city": "MONETT","state": "MO","zip": "65708","zip+4": "1698","phone": "4173541253"}
{"name": "TRUMAN MEDICAL CTR LAKEWOOD","address1": "7900 LEES SUMMIT RD","address2": "","city": "KANSAS CITY","state": "MO","zip": "64139","zip+4": "1246","phone": "8164049033"}
{"name": "HUTCHESON PHARMACY","address1": "1330 S HWY 63","address2": "","city": "HOUSTON","state": "MO","zip": "65483","zip+4": "0177","phone": "4179674139"}
{"name": "UNIVERSITY PHARMACY","address1": "ONE HOSPITAL DR","address2": "RM 1L29","city": "COLUMBIA","state": "MO","zip": "65212","zip+4": "0000","phone": "5738828600"}
{"name": "BOURBON DRUGS INC #1","address1": "386 E PINE ST","address2": "","city": "BOURBON","state": "MO","zip": "65441","zip+4": "0000","phone": "5737324921"}
{"name": "KMART PHARMACY #9338","address1": "3901 LEMAY FERRY ROAD","address2": "","city": "ST LOUIS","state": "MO","zip": "63125","zip+4": "0000","phone": "3144875440"}
{"name": "THE DRUG STORE #004493","address1": "610 N WALNUT","address2": "","city": "CAMERON","state": "MO","zip": "64429","zip+4": "0000","phone": "8166327211"}
{"name": "KMART PHARMACY #4026","address1": "29015 N BELT HWY","address2": "","city": "SAINT JOSEPH","state": "MO","zip": "64505","zip+4": "9447","phone": "8163642984"}
{"name": "WALGREEN DRUG STORE #5667","address1": "6071 TELEGRAPH RD","address2": "","city": "ST LOUIS","state": "MO","zip": "63129","zip+4": "0000","phone": "3148463989"}
{"name": "FAMILY PHARMACY INC #1","address1": "1156 W JACKSON","address2": "","city": "OZARK","state": "MO","zip": "65721","zip+4": "9159","phone": "4175816310"}
{"name": "ODESSA FAMILY PHARMACY","address1": "316 W 40 HWY","address2": "STE A","city": "ODESSA","state": "MO","zip": "64076","zip+4": "0000","phone": "8166338480"}
{"name": "KMART PHARMACY #3239","address1": "7100 NW PRAIRIE VIEW RD","address2": "","city": "KANSAS CITY","state": "MO","zip": "64151","zip+4": "0000","phone": "8165870200"}
{"name": "WALGREEN DRUG STORE #3305","address1": "12661 OLIVE STREET","address2": "","city": "CREVE COEUR","state": "MO","zip": "63141","zip+4": "0000","phone": "3148784304"}
{"name": "GERBES PHARMACY #615122","address1": "2805 W TRUMAN BLVD","address2": "","city": "JEFFERSON CITY","state": "MO","zip": "65109","zip+4": "0000","phone": "5738932226"}
{"name": "KRUMMENACHER PHARMACY","address1": "11020 OLIVE BLVD","address2": "","city": "SAINT LOUIS","state": "MO","zip": "63141","zip+4": "7693","phone": "3144322727"}
{"name": "RANDOLPH DRUG STORE","address1": "301 SOUTH POLK","address2": "","city": "MAYSVILLE","state": "MO","zip": "64469","zip+4": "0000","phone": "8164492700"}
{"name": "WALGREEN DRUG STORE #09481","address1": "12509 DORSETT RD","address2": "","city": "MARYLAND HEIGHTS","state": "MO","zip": "63043","zip+4": "3909","phone": "3144344224"}
{"name": "DILLON PHARMACY #615102","address1": "1707 W BATTLEFIELD","address2": "","city": "SPRINGFIELD","state": "MO","zip": "65807","zip+4": "0000","phone": "4172271122"}
{"name": "MEDICINE SHOPPE #1776","address1": "2386 N HWY 67","address2": "","city": "FLORISSANT","state": "MO","zip": "63033","zip+4": "2034","phone": "3149217700"}
{"name": "SCHROEDER'S PHARMACY #2","address1": "901 PATIENTS FIRST DR","address2": "","city": "WASHINGTON","state": "MO","zip": "63090","zip+4": "0000","phone": "6362397656"}
{"name": "DILLON PHARMACY #615103","address1": "1831 W KEARNEY","address2": "","city": "SPRINGFIELD","state": "MO","zip": "65803","zip+4": "0000","phone": "4178953144"}
{"name": "THRIFTWAY DRUGS","address1": "404 S HOPE ST","address2": "","city": "JACKSON","state": "MO","zip": "63755","zip+4": "1801","phone": "5732433117"}
{"name": "FAMILY PHARMACY #2","address1": "106 E PINE ST","address2": "","city": "STRAFFORD","state": "MO","zip": "65757","zip+4": "0000","phone": "4177362698"}
{"name": "SCHNUCKS PHARMACY #140","address1": "1225 SOUTH FLORISSANT RD","address2": "","city": "ST LOUIS","state": "MO","zip": "63121","zip+4": "0000","phone": "3145244144"}
{"name": "ROGERS PHARMACY","address1": "607 STATE STREET","address2": "","city": "MOUND CITY","state": "MO","zip": "64470","zip+4": "0000","phone": "6604423355"}
{"name": "LAURIE HEALTHMART PHARMACY","address1": "157 MISSOURI BLVD STE 2","address2": "","city": "LAURIE","state": "MO","zip": "65037","zip+4": "0000","phone": "5733747522"}
{"name": "MEDLEY PHARMACY","address1": "601 E HWY 28","address2": "","city": "OWENSVILLE","state": "MO","zip": "65066","zip+4": "0000","phone": "5734373440"}
{"name": "PHARMAX PHARMACY #1302","address1": "610 E HIGH ST","address2": "","city": "POTOSI","state": "MO","zip": "63664","zip+4": "0000","phone": "5734382189"}
{"name": "COLONIAL VILLAGE","address1": "7945 BIG BEND BLVD","address2": "","city": "WEBSTER GROVES","state": "MO","zip": "63119","zip+4": "0000","phone": "3149621065"}
{"name": "WAL-MART PHARMACY #100086","address1": "2825 N KANSAS EXPRESSWAY","address2": "","city": "SPRINGFIELD","state": "MO","zip": "65803","zip+4": "0000","phone": "4178311000"}
{"name": "FAMILY DRUG #02","address1": "301 GEORGIA ST","address2": "","city": "LOUISIANA","state": "MO","zip": "63353","zip+4": "1717","phone": "5737544551"}
{"name": "MEDICINE SHOPPE #0312","address1": "864 NORTH KINGSHIGHWAY","address2": "","city": "CAPE GIRARDEAU","state": "MO","zip": "63701","zip+4": "4316","phone": "5733344761"}
{"name": "BEST BUY PHARMACY OF BOWLING G","address1": "1106 BUSINESS HIGHWAY 61 S","address2": "","city": "BOWLING GREEN","state": "MO","zip": "63334","zip+4": "0000","phone": "5733243383"}
{"name": "KMART PHARMACY #7193","address1": "1930 E KEARNEY STREET","address2": "","city": "SPRINGFIELD","state": "MO","zip": "65803","zip+4": "0000","phone": "4178627750"}
{"name": "SSM PHARMACY AT DEPAUL","address1": "12255 DEPAUL DR","address2": "STE 120","city": "BRIDGETON","state": "MO","zip": "63044","zip+4": "2589","phone": "3143447300"}
{"name": "DILLON PHARMACY #615112","address1": "2843 E SUNSHINE","address2": "","city": "SPRINGFIELD","state": "MO","zip": "65804","zip+4": "0000","phone": "4172271000"}
{"name": "FAMILY PHARMACY STONECREST #3","address1": "924 W MT VERNON","address2": "","city": "NIXA","state": "MO","zip": "65714","zip+4": "0393","phone": "4177252624"}
{"name": "WALGREEN DRUG STORE #4671","address1": "7501 OLIVE ST","address2": "","city": "UNIVERSITY CITY","state": "MO","zip": "63130","zip+4": "0000","phone": "3147256016"}
{"name": "HESSELBERG DRUG COMPANY","address1": "3660 VISTA","address2": "","city": "ST LOUIS","state": "MO","zip": "63110","zip+4": "2593","phone": "3147712900"}
{"name": "WAL-MART PHARMACY #100219","address1": "3201 WEST BROADWAY","address2": "","city": "SEDALIA","state": "MO","zip": "65301","zip+4": "0000","phone": "6608262144"}
{"name": "KMART PHARMACY #7021","address1": "11 S KINGS HIGHWAY 61","address2": "","city": "CAPE GIRARDEAU","state": "MO","zip": "63703","zip+4": "0000","phone": "5733342887"}
{"name": "KMART PHARMACY #7018","address1": "2304 MISSOURI BLVD","address2": "","city": "JEFFERSON CITY","state": "MO","zip": "65109","zip+4": "0000","phone": "5736344400"}
{"name": "WAL-MART PHARMACY #100089","address1": "94 CECIL STREET","address2": "","city": "CAMDENTON","state": "MO","zip": "65020","zip+4": "0000","phone": "5733462992"}
{"name": "WAL-MART PHARMACY #100013","address1": "2705 GRAND AVE","address2": "","city": "CARTHAGE","state": "MO","zip": "64836","zip+4": "0000","phone": "4173588839"}
{"name": "WAL-MART PHARMACY #100179","address1": "3520 W SUNSHINE ST","address2": "","city": "SPRINGFIELD","state": "MO","zip": "65807","zip+4": "0000","phone": "4178648006"}
{"name": "ZUMWALT PBA PHARMACY","address1": "211 PUBLIC SQ","address2": "","city": "STOCKTON","state": "MO","zip": "65785","zip+4": "0000","phone": "4172763128"}
{"name": "SCHNUCKS PHARMACY #133","address1": "141 HILLTOWN VILLAGE","address2": "","city": "CHESTERFIELD","state": "MO","zip": "63017","zip+4": "0000","phone": "6365322511"}
{"name": "TEKO PHARMACY","address1": "501 TEACO RD","address2": "","city": "KENNETT","state": "MO","zip": "63857","zip+4": "3721","phone": "5738886673"}
{"name": "TWIN CITY PHARMACY INC","address1": "106 NORTH FIRST ST","address2": "","city": "MARBLE HILL","state": "MO","zip": "63764","zip+4": "0000","phone": "5732384177"}
{"name": "FAMILY PHARMACY # #4","address1": "16585 STATE HWY 13","address2": "STE C","city": "REEDS SPRING","state": "MO","zip": "65737","zip+4": "0000","phone": "4172728966"}
{"name": "WAL-MART PHARMACY #100046","address1": "2451 S SPRINGFIELD","address2": "","city": "BOLIVAR","state": "MO","zip": "65613","zip+4": "0000","phone": "4173265225"}
{"name": "DILLON PHARMACY #615105","address1": "1402 E 20TH ST","address2": "","city": "JOPLIN","state": "MO","zip": "64801","zip+4": "0000","phone": "4177824802"}
{"name": "WAL-MART PHARMACY #100267","address1": "1212 SOUTH MADISON","address2": "","city": "WEBB CITY","state": "MO","zip": "64870","zip+4": "0000","phone": "4176735623"}
{"name": "MEDICINE SHOPPE #0382","address1": "613 S MAIN","address2": "","city": "SIKESTON","state": "MO","zip": "63801","zip+4": "0000","phone": "5734722622"}
{"name": "WAL-MART PHARMACY #100048","address1": "885 HIGHWAY 60","address2": "","city": "MONETT","state": "MO","zip": "65708","zip+4": "0000","phone": "4172355980"}
{"name": "CVS PHARMACY #05655","address1": "1901 WEST KANSAS STREET","address2": "","city": "LIBERTY","state": "MO","zip": "64068","zip+4": "0000","phone": "8167810035"}
{"name": "SUPER D DRUGS #49","address1": "1404 MISSOURI BLVD","address2": "","city": "JEFFERSON CITY","state": "MO","zip": "65109","zip+4": "0000","phone": "5736353015"}
{"name": "ROGERS PHARMACY","address1": "411 MAIN ST","address2": "","city": "TARKIO","state": "MO","zip": "64491","zip+4": "0000","phone": "6607365512"}
{"name": "WALGREEN DRUG STORE #11744","address1": "1302 CLARKSON CLAYTON CTR","address2": "","city": "ELLISVILLE","state": "MO","zip": "63011","zip+4": "0000","phone": "3147394503"}
{"name": "WAL-MART PHARMACY #100014","address1": "1800 S JEFFERSON","address2": "","city": "LEBANON","state": "MO","zip": "65536","zip+4": "0000","phone": "4175327148"}
{"name": "INTERLOCK PHARMACY SYSTEMS","address1": "345 DUNN RD","address2": "","city": "FLORISSANT","state": "MO","zip": "63031","zip+4": "0000","phone": "3149214242"}
{"name": "DIERBERGS WEST OAK PHARMACY #5","address1": "11481 OLIVE STREET ROAD","address2": "","city": "ST LOUIS","state": "MO","zip": "63141","zip+4": "0000","phone": "3144325708"}
{"name": "IVPCARE INC","address1": "11500 OLIVE BLVD","address2": "STE 152","city": "SAINT LOUIS","state": "MO","zip": "63141","zip+4": "0000","phone": "8004249002"}
{"name": "KMART PHARMACY #7324","address1": "20 OFALLON SQUARE","address2": "","city": "OFALLON","state": "MO","zip": "63366","zip+4": "0000","phone": "6362406610"}
{"name": "SCHNUCKS PHARMACY #110","address1": "577 MIDRIVERS MALL DR","address2": "","city": "ST PETERS","state": "MO","zip": "63376","zip+4": "0000","phone": "6369702858"}
{"name": "SCHNUCKS PHARMACY #191","address1": "11253 ST CHARLES ROCK RD","address2": "","city": "BRIDGETON","state": "MO","zip": "63044","zip+4": "0000","phone": "3147380235"}
{"name": "WALGREEN DRUG STORE #5228","address1": "4400 LEMAY FERRY RD","address2": "","city": "ST LOUIS","state": "MO","zip": "63129","zip+4": "0000","phone": "3144870503"}
{"name": "GREENE PHARMACY","address1": "128 W MAIN ST","address2": "","city": "STEELE","state": "MO","zip": "63877","zip+4": "1434","phone": "5736954533"}
{"name": "WAL-MART PHARMACY #100030","address1": "2025 BUS HWY 60 WEST","address2": "","city": "DEXTER","state": "MO","zip": "63841","zip+4": "0000","phone": "5736245967"}
{"name": "WAL-MART PHARMACY #100135","address1": "1000 GRAVES ST","address2": "","city": "CHILLICOTHE","state": "MO","zip": "64601","zip+4": "0000","phone": "6606466550"}
{"name": "WALGREEN DRUG STORE #1124","address1": "460 N HWY 67","address2": "","city": "FLORISSANT","state": "MO","zip": "63031","zip+4": "0000","phone": "3148316322"}
{"name": "WALGREEN DRUG STORE #3243","address1": "1301 S 5TH STREET","address2": "","city": "ST CHARLES","state": "MO","zip": "63301","zip+4": "0000","phone": "6369466161"}
{"name": "WALGREEN DRUG STORE #4392","address1": "441 N KIRKWOOD","address2": "","city": "KIRKWOOD","state": "MO","zip": "63122","zip+4": "0000","phone": "3149657941"}
{"name": "WALGREEN DRUG STORE #10429","address1": "15253 MANCHESTER RD","address2": "","city": "BALLWIN","state": "MO","zip": "63011","zip+4": "0000","phone": "6362275885"}
{"name": "WALGREEN DRUG STORE #7680","address1": "8571 WATSON RD","address2": "","city": "WEBSTER GROVES","state": "MO","zip": "63119","zip+4": "0000","phone": "3149625151"}
{"name": "CVS PHARMACY #05661","address1": "409 E N AVE","address2": "","city": "BELTON","state": "MO","zip": "64012","zip+4": "0000","phone": "8163319716"}
{"name": "WAL-MART PHARMACY #100195","address1": "2203 PATSY LANE","address2": "","city": "EXCELSIOR SPRINGS","state": "MO","zip": "64024","zip+4": "0000","phone": "8166374900"}
{"name": "WAL-MART PHARMACY #100203","address1": "937 PARK CIRCLE DR","address2": "","city": "BROOKFIELD","state": "MO","zip": "64628","zip+4": "0000","phone": "6602587404"}
{"name": "SCHNUCKS PHARMACY #136","address1": "8650 BIG BEND","address2": "","city": "WEBSTER GROVES","state": "MO","zip": "63119","zip+4": "0000","phone": "3149615222"}
{"name": "ELSBERRY PHARMACY","address1": "106 A BROADWAY","address2": "","city": "ELSBERRY","state": "MO","zip": "63343","zip+4": "0000","phone": "5738982550"}
{"name": "LETASSY PHARMACY","address1": "1014 W PINE ST","address2": "","city": "POPLAR BLUFF","state": "MO","zip": "63901","zip+4": "4956","phone": "5737858421"}
{"name": "WAL-MART PHARMACY #100109","address1": "2000 NORTH WALNUT","address2": "","city": "CAMERON","state": "MO","zip": "64429","zip+4": "0000","phone": "8166322282"}
{"name": "WAL-MART PHARMACY #100379","address1": "2004 WEST MARLER LANE","address2": "","city": "OZARK","state": "MO","zip": "65721","zip+4": "0000","phone": "4175813288"}
{"name": "SCHNUCKS PHARMACY #137","address1": "10070 GRAVOIS","address2": "","city": "ST LOUIS","state": "MO","zip": "63123","zip+4": "0000","phone": "3146316781"}
{"name": "BURTON CREEK PHARMACY","address1": "805 KENTUCKY AVE","address2": "STE 2","city": "WEST PLAINS","state": "MO","zip": "65775","zip+4": "0000","phone": "4172562274"}
{"name": "WAL-MART PHARMACY #100363","address1": "855 S CHEROKEE DRIVE","address2": "","city": "MARSHALL","state": "MO","zip": "65340","zip+4": "0000","phone": "6608869730"}
{"name": "HORST PHARMACY","address1": "2705 HIGHWAY 61 E","address2": "","city": "JACKSON","state": "MO","zip": "63755","zip+4": "0000","phone": "5732438173"}
{"name": "SCHNUCKS PHARMACY #101","address1": "8200 N LINDBERGH","address2": "","city": "FLORISSANT","state": "MO","zip": "63031","zip+4": "0000","phone": "3149217345"}
{"name": "WAL-MART PHARMACY #100009","address1": "1303 SOUTH MAIN","address2": "","city": "SIKESTON","state": "MO","zip": "63801","zip+4": "0000","phone": "5734716775"}
{"name": "WAL-MART PHARMACY #100037","address1": "701 WALTON DRIVE","address2": "","city": "FARMINGTON","state": "MO","zip": "63640","zip+4": "0000","phone": "5737568677"}
{"name": "WAL-MART PHARMACY #100061","address1": "301 E COOPER AVENUE","address2": "","city": "WARRENSBURG","state": "MO","zip": "64093","zip+4": "0000","phone": "6607478677"}
{"name": "WAL-MART PHARMACY #100453","address1": "1007 NORTH DOUGLAS","address2": "","city": "MALDEN","state": "MO","zip": "63863","zip+4": "0000","phone": "5732762280"}
{"name": "WAL-MART PHARMACY #100338","address1": "29 SW 1ST LANE","address2": "","city": "LAMAR","state": "MO","zip": "64759","zip+4": "0000","phone": "4176823584"}
{"name": "MEDICINE CENTER PHARMACY","address1": "3601 FARAON ST","address2": "","city": "ST JOSEPH","state": "MO","zip": "64506","zip+4": "0000","phone": "8162339963"}
{"name": "WAL-MART PHARMACY #100101","address1": "500 SOUTH BISHOP","address2": "","city": "ROLLA","state": "MO","zip": "65401","zip+4": "0000","phone": "5733644339"}
{"name": "WALGREEN DRUG STORE #1107","address1": "2310 MCCAUSLAND","address2": "","city": "ST LOUIS","state": "MO","zip": "63143","zip+4": "0000","phone": "3146477810"}
{"name": "KROGER PHARMACY #25386","address1": "2770 NORTH WESTWOOD","address2": "","city": "POPLAR BLUFF","state": "MO","zip": "63901","zip+4": "0000","phone": "5736866974"}
{"name": "KMART PHARMACY #3579","address1": "3700 S CAMPBELL","address2": "","city": "SPRINGFIELD","state": "MO","zip": "65807","zip+4": "0000","phone": "4178828830"}
{"name": "FAMILY CARE PHARMACY SSH","address1": "3844 S LINDBERGH","address2": "","city": "ST LOUIS","state": "MO","zip": "63127","zip+4": "1368","phone": "3145250415"}
{"name": "WAL-MART PHARMACY #100444","address1": "3315 SOUTH CAMPBELL","address2": "","city": "SPRINGFIELD","state": "MO","zip": "65807","zip+4": "0000","phone": "4178816750"}
{"name": "ASH GROVE PHARMACY","address1": "490 N MEDICAL DRIVE","address2": "","city": "ASH GROVE","state": "MO","zip": "65604","zip+4": "0000","phone": "4177512111"}
{"name": "MEDICINE SHOPPE PHARMACY #0468","address1": "200 N 10TH STREET","address2": "","city": "POPLAR BLUFF","state": "MO","zip": "63901","zip+4": "0000","phone": "5736867216"}
{"name": "THE MEDICINE CHEST","address1": "216 W MAIN ST","address2": "","city": "WEST PLAINS","state": "MO","zip": "65775","zip+4": "0000","phone": "4172567706"}
{"name": "KMART PHARMACY #7526","address1": "3909 HIGHWAY 169 S","address2": "","city": "ST JOSEPH","state": "MO","zip": "64503","zip+4": "0000","phone": "8163643499"}
{"name": "JORDAN VALLEY COMMUN HLTH CNTR","address1": "440 E TAMPA ST","address2": "","city": "SPRINGFIELD","state": "MO","zip": "65806","zip+4": "1131","phone": "4178310150"}
{"name": "ST LUKES PHARMACY WINGHAVEN","address1": "5551 WINGHAVEN BLVD","address2": "STE 120","city": "O FALLON","state": "MO","zip": "63368","zip+4": "0000","phone": "6366952555"}
{"name": "THE PRESCRIPTION DRUG STORE #2","address1": "308 E MAIN ST","address2": "","city": "HAYTI","state": "MO","zip": "63851","zip+4": "0000","phone": "5733590008"}
{"name": "MYERS PHARMACY","address1": "N HWY 160","address2": "","city": "ALTON","state": "MO","zip": "65606","zip+4": "0000","phone": "4177787727"}
{"name": "KRIBBS FAMILY PHARMACY","address1": "319 W REED ST","address2": "","city": "MOBERLY","state": "MO","zip": "65270","zip+4": "0000","phone": "6602638020"}
{"name": "EASTSIDE PHARMACY","address1": "400 E PINE","address2": "","city": "POPLAR BLUFF","state": "MO","zip": "63901","zip+4": "0000","phone": "5736867238"}
{"name": "KMART PHARMACY #7458","address1": "601 NORTH M291","address2": "","city": "LEE S SUMMIT","state": "MO","zip": "64063","zip+4": "0000","phone": "8165250101"}
{"name": "SCHNUCKS PHARMACY #138","address1": "48 PLAZA NINETY FOUR DR","address2": "","city": "ST CHARLES","state": "MO","zip": "63376","zip+4": "0000","phone": "6369281625"}
{"name": "MARRS PHARMACY","address1": "205 RD MIZE ROAD","address2": "STE 104","city": "BLUE SPRINGS","state": "MO","zip": "64014","zip+4": "2538","phone": "8162297755"}
{"name": "JOHNSTON DRUG INC","address1": "214 N GRAND","address2": "","city": "CLARENCE","state": "MO","zip": "63437","zip+4": "9803","phone": "6606992432"}
{"name": "MYRTLE HILLIARD DAVIS COMPREHE","address1": "5471 DR MARTIN LUTHER KING DR","address2": "","city": "ST LOUIS","state": "MO","zip": "63112","zip+4": "0000","phone": "3143675820"}
{"name": "SAMS PRECRIPTION SHOP","address1": "7506 RAYTOWN RD","address2": "","city": "RAYTOWN","state": "MO","zip": "64138","zip+4": "0000","phone": "8163560300"}
{"name": "KMART PHARMACY #7543","address1": "4560 GRAVOIS VILLAGE CTR","address2": "","city": "HIGH RIDGE","state": "MO","zip": "63049","zip+4": "0000","phone": "6363765000"}
{"name": "WALGREEN DRUG STORE #09771","address1": "9801 MANCHESTER RD","address2": "","city": "ROCK HILL","state": "MO","zip": "63119","zip+4": "1227","phone": "3149633256"}
{"name": "WAL-MART PHARMACY #100560","address1": "4201 N BELT HIGHWAY","address2": "","city": "ST JOSEPH","state": "MO","zip": "64506","zip+4": "0000","phone": "8162337770"}
{"name": "SCHNUCKS PHARMACY #209","address1": "12332 MANCHESTER RD","address2": "","city": "DESPERES","state": "MO","zip": "63131","zip+4": "4315","phone": "3149650062"}
{"name": "ADVANCE PHARMACY","address1": "110 S OAK","address2": "","city": "ADVANCE","state": "MO","zip": "63730","zip+4": "0187","phone": "5737223562"}
{"name": "WAL-MART PHARMACY #100234","address1": "8301 NO CHURCH ROAD","address2": "","city": "KANSAS CITY","state": "MO","zip": "64158","zip+4": "0000","phone": "8167924230"}
{"name": "HIGH RIDGE PLAZA DRUG","address1": "2709 HIGH RIDGE BLVD","address2": "","city": "HIGH RIDGE","state": "MO","zip": "63049","zip+4": "2202","phone": "6366773900"}
{"name": "DIERBERGS 79 CROSSING PHARMACY","address1": "217 SALT LICK ROAD","address2": "","city": "ST PETERS","state": "MO","zip": "63376","zip+4": "0000","phone": "6369703510"}
{"name": "GERBES PHARMACY #615124","address1": "1729 W BROADWAY","address2": "","city": "COLUMBIA","state": "MO","zip": "65203","zip+4": "0000","phone": "5734459451"}
{"name": "WALGREEN DRUG STORE #4833","address1": "651 LEMAY FERRY RD","address2": "","city": "ST LOUIS","state": "MO","zip": "63125","zip+4": "0000","phone": "3146310344"}
{"name": "WAL-MART PHARMACY #100184","address1": "600 NE CORONADO DRIVE","address2": "","city": "BLUE SPRINGS","state": "MO","zip": "64014","zip+4": "0000","phone": "8162282801"}
{"name": "WAL-MART PHARMACY #100189","address1": "2206 NORTH BALTIMORE","address2": "","city": "KIRKSVILLE","state": "MO","zip": "63501","zip+4": "0000","phone": "6606271297"}
{"name": "ST JOHNS PHARMACY OF FREMONT","address1": "1965 S FREMONT AVE","address2": "STE 140","city": "SPRINGFIELD","state": "MO","zip": "65804","zip+4": "2200","phone": "4178203577"}
{"name": "HEARTLAND DISCOUNT PBA PHCY","address1": "707 HWY 50 W","address2": "","city": "UNION","state": "MO","zip": "63084","zip+4": "0208","phone": "6365832646"}
{"name": "CLARKSON SQUARE PHARMACY INC","address1": "1737 CLARKSON RD","address2": "","city": "CHESTERFIELD","state": "MO","zip": "63017","zip+4": "4977","phone": "6365326060"}
{"name": "WALGREEN DRUG STORE #1334","address1": "11015 OLIVE BLVD","address2": "","city": "CREVE COEUR","state": "MO","zip": "63141","zip+4": "0000","phone": "3149972073"}
{"name": "WAL-MART PHARMACY #100019","address1": "333 S WESTWOOD","address2": "","city": "POPLAR BLUFF","state": "MO","zip": "63901","zip+4": "0000","phone": "5736866539"}
{"name": "WAL-MART PHARMACY #100319","address1": "2015 WEST FOXWOOD DR","address2": "","city": "RAYMORE","state": "MO","zip": "64083","zip+4": "0000","phone": "8163312975"}
{"name": "WAL-MART PHARMACY #100573","address1": "1000 NE SAM WALTON LANE","address2": "","city": "LEES SUMMIT","state": "MO","zip": "64086","zip+4": "0000","phone": "8165252750"}
{"name": "GERBES PHARMACY #615125","address1": "2900 N PARIS RD","address2": "","city": "COLUMBIA","state": "MO","zip": "65202","zip+4": "0000","phone": "5734749418"}
{"name": "MEDICINE SHOPPE #0564","address1": "488 SOUTH FIFTH STREET","address2": "","city": "ST CHARLES","state": "MO","zip": "63301","zip+4": "2635","phone": "6369495593"}
{"name": "KREISLER DRUG 3 INC #3","address1": "1810 E OHIO ST","address2": "","city": "CLINTON","state": "MO","zip": "64735","zip+4": "0528","phone": "6608852227"}
{"name": "ELDON DRUG CO INC","address1": "101 S MAPLE ST","address2": "","city": "ELDON","state": "MO","zip": "65026","zip+4": "1850","phone": "5733924588"}
{"name": "SCHNUCKS PHARMACY #129","address1": "8660 VETERANS MEMORIAL PARKWAY","address2": "","city": "O FALLON","state": "MO","zip": "63366","zip+4": "0000","phone": "6369783568"}
{"name": "WAL-MART PHARMACY #100040","address1": "1301 HWY 24 EAST","address2": "","city": "MOBERLY","state": "MO","zip": "65270","zip+4": "0000","phone": "6602630494"}
{"name": "SHOP N SAVE PHARMACY #4518","address1": "15446 MANCHESTER RD","address2": "","city": "ELLISVILLE","state": "MO","zip": "63011","zip+4": "0000","phone": "6362270830"}
{"name": "WAL-MART PHARMACY #100065","address1": "350 PARKRIDGE ROAD","address2": "","city": "SULLIVAN","state": "MO","zip": "63080","zip+4": "0000","phone": "5734685121"}
{"name": "SCOTT FAMILY PHARMACY LLC","address1": "414 W GRAND AVE","address2": "","city": "CAMPBELL","state": "MO","zip": "63933","zip+4": "0000","phone": "5732462514"}
{"name": "MEDICINE STORE","address1": "1302 E SUNSHINE","address2": "","city": "SPRINGFIELD","state": "MO","zip": "65804","zip+4": "0000","phone": "4178818841"}
{"name": "LAKELAND PHARMACY #3","address1": "104 CORTNEY LANE","address2": "","city": "CRANE","state": "MO","zip": "65633","zip+4": "0000","phone": "4177235227"}
{"name": "WAL-MART PHARMACY #100029","address1": "724 STADIUM WEST BLVD","address2": "","city": "JEFFERSON CITY","state": "MO","zip": "65109","zip+4": "0000","phone": "5736358384"}
{"name": "WAL-MART PHARMACY #100032","address1": "2050 WEST HWY 76","address2": "","city": "BRANSON","state": "MO","zip": "65616","zip+4": "0000","phone": "4173347181"}
{"name": "E & S PHARMACY INC","address1": "115 W JEFFERSON ST","address2": "","city": "DONIPHAN","state": "MO","zip": "63935","zip+4": "1625","phone": "5739967157"}
{"name": "MEDICINE SHOPPE #0620","address1": "1940 EAST 20TH STREET","address2": "SUITE 2","city": "JOPLIN","state": "MO","zip": "64804","zip+4": "0000","phone": "4177812332"}
{"name": "WALGREEN DRUG STORE #6024","address1": "9320 LACKLAND","address2": "","city": "OVERLAND","state": "MO","zip": "63114","zip+4": "0000","phone": "3144293341"}
{"name": "KMART PHARMACY #7903","address1": "2001 W KANSAS","address2": "","city": "LIBERTY","state": "MO","zip": "64068","zip+4": "0000","phone": "8167816177"}
{"name": "RINDERERS DRUG STORE INC #6","address1": "500 W HWY 50","address2": "","city": "UNION","state": "MO","zip": "63084","zip+4": "1996","phone": "6365832110"}
{"name": "WAL-MART PHARMACY #100354","address1": "1888 HWY 28 EAST","address2": "","city": "OWENSVILLE","state": "MO","zip": "65066","zip+4": "0000","phone": "5734374158"}
{"name": "WAL-MART PHARMACY #100648","address1": "1661 JUNGERMAN RD","address2": "","city": "ST PETERS","state": "MO","zip": "63304","zip+4": "0000","phone": "6364477740"}
{"name": "MEDICINE SHOPPE #0626","address1": "210 SE SECOND ST","address2": "","city": "LEES SUMMIT","state": "MO","zip": "64063","zip+4": "0000","phone": "8165248444"}
{"name": "WAL-MART PHARMACY #100027","address1": "1101 HWY 32 WEST","address2": "","city": "SALEM","state": "MO","zip": "65560","zip+4": "0000","phone": "5737294131"}
{"name": "HOME PARENTERAL SERVICES","address1": "2220 W SUNSET","address2": "","city": "SPRINGFIELD","state": "MO","zip": "65807","zip+4": "0000","phone": "4178877525"}
{"name": "DIERBERGS LEMAY PHARMACY #8","address1": "2516 LEMAY FERRY ROAD","address2": "","city": "ST LOUIS","state": "MO","zip": "63125","zip+4": "0000","phone": "3148947755"}
{"name": "WAL-MART PHARMACY #100783","address1": "705 EAST BRIGGS DRIVE","address2": "","city": "MACON","state": "MO","zip": "63552","zip+4": "0000","phone": "6603855794"}
{"name": "SCHNUCKS PHARMACY #149","address1": "5055 ARSENAL ST","address2": "","city": "ST LOUIS","state": "MO","zip": "63139","zip+4": "0000","phone": "3147715314"}
{"name": "WAL-MART PHARMACY #100069","address1": "650 SOUTH TRUMAN BLVD","address2": "","city": "FESTUS","state": "MO","zip": "63028","zip+4": "0000","phone": "6369373527"}
{"name": "WAL-MART PHARMACY #100188","address1": "3439 WILLIAMS STREET","address2": "","city": "CAPE GIRARDEAU","state": "MO","zip": "63701","zip+4": "0000","phone": "5733353884"}
{"name": "WAL-MART PHARMACY #100820","address1": "1920 MAIN STREET","address2": "","city": "BOONVILLE","state": "MO","zip": "65233","zip+4": "0000","phone": "6608826552"}
{"name": "WAL-MART PHARMACY #100078","address1": "14740 STATE HWY 38","address2": "","city": "MARSHFIELD","state": "MO","zip": "65706","zip+4": "0000","phone": "4174686151"}
{"name": "WAL-MART PHARMACY #100815","address1": "4252 HWY 54","address2": "","city": "OSAGE BEACH","state": "MO","zip": "65065","zip+4": "0000","phone": "5733484095"}
{"name": "SAMS DRUGSTORES #3","address1": "300 N CHURCH ST","address2": "","city": "FAYETTE","state": "MO","zip": "65248","zip+4": "0509","phone": "6602482275"}
{"name": "GERBES PHARMACY #615123","address1": "2020 N BLUFF","address2": "","city": "FULTON","state": "MO","zip": "65251","zip+4": "0000","phone": "5736420145"}
{"name": "DIERBERGS BOGEY HILLS PHARMACY","address1": "2021 ZUMBEHL ROAD","address2": "","city": "ST CHARLES","state": "MO","zip": "63301","zip+4": "0000","phone": "6369470929"}
{"name": "WAL-MART PHARMACY #100801","address1": "1605 S MAIN ST","address2": "","city": "MARYVILLE","state": "MO","zip": "64468","zip+4": "0000","phone": "6605623593"}
{"name": "WAL-MART PHARMACY #100845","address1": "1250 WEST DALLAS","address2": "","city": "BUFFALO","state": "MO","zip": "65622","zip+4": "0000","phone": "4173456107"}
{"name": "WAL-MART PHARMACY #100834","address1": "810 SO. 37TH ST.","address2": "","city": "BETHANY","state": "MO","zip": "64424","zip+4": "0000","phone": "6604254430"}
{"name": "WAL-MART PHARMACY #100871","address1": "101 W HIGHWAY 60","address2": "","city": "MOUNTAINVIEW","state": "MO","zip": "65548","zip+4": "0000","phone": "4179342212"}
{"name": "WAL-MART PHARMACY #100837","address1": "333 EAST WALNUT","address2": "","city": "THAYER","state": "MO","zip": "65791","zip+4": "0000","phone": "4172642112"}
{"name": "WALGREEN DRUG STORE #5120","address1": "12006 MANCHESTER RD","address2": "","city": "DES PERES","state": "MO","zip": "63131","zip+4": "0000","phone": "3149650650"}
{"name": "SCHNUCKS PHARMACY #198","address1": "115 CROSS KEYS SHOPPING CTR","address2": "","city": "FLORISSANT","state": "MO","zip": "63033","zip+4": "0000","phone": "3148311515"}
{"name": "MEDICINE SHOPPE #0725","address1": "10056 ST CHARLES ROCK ROAD","address2": "","city": "ST ANN","state": "MO","zip": "63074","zip+4": "0000","phone": "3144296909"}
{"name": "WALGREEN DRUG STORE #6350","address1": "9395 OLIVE BLVD","address2": "","city": "OLIVETTE","state": "MO","zip": "63132","zip+4": "0000","phone": "3144328382"}
{"name": "DILLON PHARMACY #615107","address1": "1260 E SAINT LOUIS ST","address2": "","city": "SPRINGFIELD","state": "MO","zip": "65802","zip+4": "0000","phone": "4178953110"}
{"name": "DIERBERGS FLORISSANT PHARMACY","address1": "222 NORTH HIGHWAY 67","address2": "","city": "ST LOUIS","state": "MO","zip": "63031","zip+4": "0000","phone": "3148310990"}
{"name": "GRAND PHARMACY","address1": "733 GRAND AVE","address2": "","city": "HANNIBAL","state": "MO","zip": "63401","zip+4": "0000","phone": "5732212792"}
{"name": "PARK PHARMACY","address1": "37 DOCTORS PARK","address2": "","city": "CAPE GIRARDEAU","state": "MO","zip": "63703","zip+4": "0000","phone": "5733344432"}
{"name": "WAL-MART PHARMACY #100166","address1": "1433 SO SAM HOUSTON BLVD","address2": "","city": "HOUSTON","state": "MO","zip": "65483","zip+4": "0000","phone": "4179674521"}
{"name": "WAL-MART PHARMACY #100173","address1": "1 MEMORIAL DRIVE","address2": "","city": "POTOSI","state": "MO","zip": "63664","zip+4": "0000","phone": "5734383387"}
{"name": "SUPER SAVER DISCOUNT PHARMACY","address1": "449 HWY 53 S","address2": "","city": "POPLAR BLUFF","state": "MO","zip": "63902","zip+4": "0000","phone": "5736861919"}
{"name": "KIMBERLING CITY PHARMACY","address1": "41 KIMBERLING CITY CENTER LANE","address2": "","city": "KIMBERLING CITY","state": "MO","zip": "65686","zip+4": "0908","phone": "4177392273"}
{"name": "WALGREEN DRUG STORE #9436","address1": "9807 WATSON RD","address2": "","city": "CRESTWOOD","state": "MO","zip": "63126","zip+4": "0000","phone": "3149660220"}
{"name": "HERMITAGE PROFESSIONAL PHARMAC","address1": "HWY 254 AND DALLAS ST","address2": "","city": "HERMITAGE","state": "MO","zip": "65668","zip+4": "0000","phone": "4177452136"}
{"name": "GROVE PHARMACY SOUTH #2","address1": "1001 E PRIMROSE ST","address2": "","city": "SPRINGFIELD","state": "MO","zip": "65807","zip+4": "0000","phone": "4178836800"}
{"name": "WAL-MART PHARMACY #100015","address1": "1310 PREACHER RD HGWY 160","address2": "","city": "WEST PLAINS","state": "MO","zip": "65775","zip+4": "0000","phone": "4172567114"}
{"name": "WAL-MART PHARMACY #100888","address1": "1005 W FT SCOTT","address2": "","city": "BUTLER","state": "MO","zip": "64730","zip+4": "0000","phone": "6606793163"}
{"name": "WAL-MART PHARMACY #100895","address1": "100 OZARK DR","address2": "","city": "CUBA","state": "MO","zip": "65453","zip+4": "0000","phone": "5738852515"}
{"name": "WAL-MART PHARMACY #100914","address1": "10340 FARM ROAD 2176","address2": "","city": "CASSVILLE","state": "MO","zip": "65625","zip+4": "0000","phone": "4178473180"}
{"name": "WAL-MART PHARMACY #100088","address1": "2100 NORTH MAIN","address2": "","city": "MOUNTAIN GROVE","state": "MO","zip": "65711","zip+4": "0000","phone": "4179264129"}
{"name": "WALGREEN DRUG STORE #1734","address1": "515 N 6TH STREET","address2": "","city": "ST LOUIS","state": "MO","zip": "63101","zip+4": "0000","phone": "3142313300"}
{"name": "WAL-MART PHARMACY #100357","address1": "1003 WEST NEWTON ST","address2": "","city": "VERSAILLES","state": "MO","zip": "65084","zip+4": "0000","phone": "5733785421"}
{"name": "WAL-MART PHARMACY #100805","address1": "653 GRAVOIS BLUFFS BLVD","address2": "","city": "FENTON","state": "MO","zip": "63026","zip+4": "0000","phone": "6363493007"}
{"name": "WASHINGTON PHARMACY","address1": "919 A JEFFERSON ST","address2": "","city": "WASHINGTON","state": "MO","zip": "63090","zip+4": "0000","phone": "6362394732"}
{"name": "HEALTHCARE PHARMACY","address1": "628 N OLD ST MARYS RD","address2": "","city": "PERRYVILLE","state": "MO","zip": "63775","zip+4": "0000","phone": "5735472517"}
{"name": "WALGREEN DRUG STORE #1679","address1": "6411 GRAVOIS AVENUE","address2": "","city": "ST LOUIS","state": "MO","zip": "63116","zip+4": "0000","phone": "3148324210"}
{"name": "WAL-MART PHARMACY #100080","address1": "3001 W BROADWAY","address2": "","city": "COLUMBIA","state": "MO","zip": "65203","zip+4": "0000","phone": "5734453708"}
{"name": "WAL-MART PHARMACY #101014","address1": "4000 SOUTH BOLGER DR","address2": "","city": "INDEPENDENCE","state": "MO","zip": "64055","zip+4": "0000","phone": "8164783975"}
{"name": "SCHNUCKS PHARMACY #104","address1": "8800 MANCHESTER RD","address2": "","city": "BRENTWOOD","state": "MO","zip": "63144","zip+4": "0000","phone": "3149620323"}
{"name": "SCHNUCKS PHARMACY #118","address1": "5519 OAKVILLE SHOPPING CTR","address2": "","city": "ST LOUIS","state": "MO","zip": "63129","zip+4": "0000","phone": "3148922840"}
{"name": "WESTLAND PHARMACY","address1": "2060 ROCK ROAD","address2": "","city": "DESOTO","state": "MO","zip": "63020","zip+4": "0000","phone": "6363371761"}
{"name": "STEVENSON FAMILY PHARMACY","address1": "6201 KING HILL AVE","address2": "","city": "SAINT JOSEPH","state": "MO","zip": "64504","zip+4": "2063","phone": "8162382424"}
{"name": "WAL-MART PHARMACY #100946","address1": "15 HALS PLAZA DR","address2": "","city": "PIEDMONT","state": "MO","zip": "63957","zip+4": "0000","phone": "5732237611"}
{"name": "SCHNUCKS PHARMACY #105","address1": "4333 BUTLER HILL RD","address2": "","city": "ST LOUIS","state": "MO","zip": "63128","zip+4": "0000","phone": "3148942484"}
{"name": "SCHNUCKS PHARMACY #193","address1": "5434 SOUTHFIELD CENTER","address2": "","city": "ST LOUIS","state": "MO","zip": "63123","zip+4": "0000","phone": "3148492363"}
{"name": "WAL-MART PHARMACY #101009","address1": "1150 US HWY 60 EAST","address2": "","city": "REPUBLIC","state": "MO","zip": "65738","zip+4": "0000","phone": "4177321476"}
{"name": "SHOP N SAVE PHARMACY #4521","address1": "1275 N TRUMAN BLVD","address2": "","city": "FESTUS","state": "MO","zip": "63028","zip+4": "0000","phone": "6369374686"}
{"name": "RANDYS PBA RX","address1": "1012 NORTH MAIN","address2": "","city": "SIKESTON","state": "MO","zip": "63801","zip+4": "0000","phone": "5734710285"}
{"name": "WAL-MART PHARMACY #101021","address1": "500 WARREN COUNTY CENTER","address2": "","city": "WARRENTON","state": "MO","zip": "63383","zip+4": "0000","phone": "6364564243"}
{"name": "WALGREEN DRUG STORE #9714","address1": "9918Z KENNERLY ROAD","address2": "","city": "ST LOUIS","state": "MO","zip": "63128","zip+4": "0000","phone": "3148433736"}
{"name": "CONVENIENT CARE PHARMACY #1","address1": "1443 N ROBBERSON","address2": "","city": "SPRINGFIELD","state": "MO","zip": "65802","zip+4": "1964","phone": "4172698880"}
{"name": "RINDERERS DRUG STORE INC #8","address1": "44 N FLORISSANT RD","address2": "","city": "FERGUSON","state": "MO","zip": "63135","zip+4": "2367","phone": "3145212721"}
{"name": "BEVERLY HILLS PHARMACY","address1": "7150 NATURAL BRIDGE RD","address2": "","city": "SAINT LOUIS","state": "MO","zip": "63121","zip+4": "5151","phone": "3143818600"}
{"name": "WALGREEN DRUG STORE #6472","address1": "4218 LINDELL BLVD","address2": "","city": "ST LOUIS","state": "MO","zip": "63108","zip+4": "0000","phone": "3143714232"}
{"name": "MIKAS MEDICINE","address1": "211 N ASH","address2": "","city": "WINONA","state": "MO","zip": "65588","zip+4": "0000","phone": "5733254241"}
{"name": "SCHNUCKS PHARMACY #139","address1": "10233 MANCHESTER RD","address2": "","city": "KIRKWOOD","state": "MO","zip": "63122","zip+4": "0000","phone": "3149654533"}
{"name": "MATTS MEDICINE STORE #0844","address1": "11200 AND ONE HALF E US HWY 24","address2": "","city": "INDEPENDENCE","state": "MO","zip": "64054","zip+4": "0000","phone": "8168333636"}
{"name": "WAL-MART PHARMACY #100060","address1": "101 HWY 47 EAST","address2": "","city": "TROY","state": "MO","zip": "63379","zip+4": "0000","phone": "6364626366"}
{"name": "WALGREEN DRUG STORE #5749","address1": "500 HOWDERSHELL RD","address2": "","city": "FLORISSANT","state": "MO","zip": "63031","zip+4": "0000","phone": "3148378668"}
{"name": "SCHNUCKS PHARMACY #106","address1": "15425 MANCHESTER RD","address2": "","city": "BALLWIN","state": "MO","zip": "63011","zip+4": "0000","phone": "6362567922"}
{"name": "KROGER PHARMACY #21724","address1": "1 TROY SQUARE","address2": "","city": "TROY","state": "MO","zip": "63379","zip+4": "0000","phone": "6365288667"}
{"name": "WAL-MART PHARMACY #100095","address1": "407 NO STATE ST","address2": "","city": "DESLOGE","state": "MO","zip": "63601","zip+4": "0000","phone": "5734315483"}
{"name": "WAL-MART PHARMACY #101094","address1": "10300 E HWY 350","address2": "","city": "RAYTOWN","state": "MO","zip": "64133","zip+4": "0000","phone": "8163587872"}
{"name": "WAL-MART PHARMACY #101120","address1": "7207 NORTH M 1 HWY","address2": "","city": "GLADSTONE","state": "MO","zip": "64119","zip+4": "0000","phone": "8164680045"}
{"name": "MEDICINE SHOPPE #0859","address1": "673 WEST KARSCH BLVD","address2": "","city": "FARMINGTON","state": "MO","zip": "63640","zip+4": "0000","phone": "5737568906"}
{"name": "MEDICAL ARTS PHARMACY","address1": "1935 PRAIRIE DELL RD","address2": "SUITE 200","city": "UNION","state": "MO","zip": "63084","zip+4": "0000","phone": "6365833117"}
{"name": "WALGREEN DRUG STORE #6220","address1": "3300 BROWN RD","address2": "","city": "ST JOHN","state": "MO","zip": "63114","zip+4": "0000","phone": "3144273763"}
{"name": "WAL-MART PHARMACY #100326","address1": "1180 W 19TH STTREET","address2": "","city": "HIGGINSVILLE","state": "MO","zip": "64037","zip+4": "0000","phone": "6605847787"}
{"name": "ST LUKES PHARMACY","address1": "224 S WOODSMILL RD","address2": "STE 350","city": "CHESTERFIELD","state": "MO","zip": "63017","zip+4": "3451","phone": "3142056023"}
{"name": "UMC GREEN MEADOWS PHARMACY","address1": "3217 S PROVIDENCE","address2": "","city": "COLUMBIA","state": "MO","zip": "65203","zip+4": "3639","phone": "5738823151"}
{"name": "VITAL CARE OF ST LOUIS","address1": "9816 MANCHESTER ROAD","address2": "","city": "ROCK HILL","state": "MO","zip": "63119","zip+4": "0000","phone": "3149614405"}
{"name": "CVS PHARMACY #05691","address1": "11115 E US HWY 24 HWY","address2": "","city": "INDEPENDENCE","state": "MO","zip": "64054","zip+4": "0000","phone": "8168332493"}
{"name": "WAL-MART PHARMACY #100172","address1": "1701 A ROY DRIVE","address2": "","city": "WASHINGTON","state": "MO","zip": "63090","zip+4": "0000","phone": "6362393710"}
{"name": "ST JOHNS MERCY PHARMACY SOUTH","address1": "12348 OLD TESSON RD","address2": "STE 100","city": "SAINT LOUIS","state": "MO","zip": "63128","zip+4": "0000","phone": "3144673888"}
{"name": "WALGREEN DRUG STORE #2019","address1": "4925 SOUTHWEST AVE","address2": "","city": "ST LOUIS","state": "MO","zip": "63110","zip+4": "0000","phone": "3147735288"}
{"name": "WAL-MART PHARMACY #100021","address1": "185 ST ROBERT BLVD","address2": "","city": "SAINT ROBERT","state": "MO","zip": "65584","zip+4": "0000","phone": "5733364323"}
{"name": "AUBURN PHARMACY","address1": "4201 S NOLAND RD STE Z","address2": "","city": "INDEPENDENCE","state": "MO","zip": "64055","zip+4": "7333","phone": "8164783088"}
{"name": "SWORDS FAMILY PHARMACY","address1": "300 S OHIO ST","address2": "","city": "SEDALIA","state": "MO","zip": "65301","zip+4": "4432","phone": "6608260462"}
{"name": "WAL-MART PHARMACY #101161","address1": "2897 VETERANS MEMORIAL PKWY","address2": "","city": "ST CHARLES","state": "MO","zip": "63303","zip+4": "0000","phone": "6367234233"}
{"name": "WALGREEN DRUG STORE #6432","address1": "2401 S BRENTWOOD BLVD","address2": "","city": "BRENTWOOD","state": "MO","zip": "63144","zip+4": "0000","phone": "3149631818"}
{"name": "WAL-MART PHARMACY #101188","address1": "10835 ST CHARLES ROCK ROAD","address2": "","city": "ST ANN","state": "MO","zip": "63074","zip+4": "0000","phone": "3142918110"}
{"name": "SHOP N SAVE PHARMACY #4532","address1": "24 OFALLON SQUARE","address2": "","city": "OFALLON","state": "MO","zip": "63366","zip+4": "0000","phone": "6362401262"}
{"name": "DIERBERGS MARKETPLACE PHARMACY","address1": "1730 CLARKSON ROAD","address2": "","city": "CHESTERFIELD","state": "MO","zip": "63017","zip+4": "0000","phone": "6365379408"}
{"name": "WALGREEN DRUG STORE #2151","address1": "5550 S GRAND BLVD","address2": "","city": "ST LOUIS","state": "MO","zip": "63111","zip+4": "0000","phone": "3143526740"}
{"name": "WALGREEN DRUG STORE #6246","address1": "909 JUNGERMAN RD","address2": "","city": "SAINT PETERS","state": "MO","zip": "63376","zip+4": "0000","phone": "6364417871"}
{"name": "WAL-MART PHARMACY #101177","address1": "13901 MANCHESTER RD","address2": "","city": "TOWN AND COUNTRY","state": "MO","zip": "63011","zip+4": "0000","phone": "6362564835"}
{"name": "WINKELMANN SONS DRUG CO","address1": "2900 LEMAY FERRY RD","address2": "STE 121","city": "ST LOUIS","state": "MO","zip": "63125","zip+4": "3915","phone": "3148944666"}
{"name": "SCHNUCKS PHARMACY #116","address1": "12756 OLIVE BLVD","address2": "","city": "ST LOUIS","state": "MO","zip": "63141","zip+4": "0000","phone": "3144344522"}
{"name": "MEDICAP PHARMACY #8082","address1": "1020 NORTH KINGSHIGHWAY","address2": "","city": "CAPE GIRARDEAU","state": "MO","zip": "63701","zip+4": "0000","phone": "5733351002"}
{"name": "COOPER DRUGSTORE","address1": "N HWY 63","address2": "43","city": "THAYER","state": "MO","zip": "65791","zip+4": "0143","phone": "4172647115"}
{"name": "HOME CARE PHARMACY II #2","address1": "1224 GRAHAM RD","address2": "","city": "FLORISSANT","state": "MO","zip": "63031","zip+4": "0000","phone": "3149536740"}
{"name": "LETASSY HEALTH SERVICES INC","address1": "1002 W PINE ST","address2": "","city": "POPLAR BLUFF","state": "MO","zip": "63901","zip+4": "5036","phone": "5737850048"}
{"name": "HY VEE PHARMACY #1542","address1": "9400 E. 350 HIGHWAY","address2": "","city": "RAYTOWN","state": "MO","zip": "64133","zip+4": "0000","phone": "8163585988"}
{"name": "BOND PHARMACY INC","address1": "703 W BUCHANAN","address2": "","city": "CALIFORNIA","state": "MO","zip": "65018","zip+4": "0000","phone": "5737963145"}
{"name": "WAL-MART PHARMACY #100025","address1": "4820 S. CLARK ST","address2": "","city": "MEXICO","state": "MO","zip": "65265","zip+4": "0000","phone": "5735812600"}
{"name": "WAL-MART PHARMACY #100313","address1": "4550 GRAVOIS ROAD","address2": "","city": "HOUSE SPRINGS","state": "MO","zip": "63051","zip+4": "0000","phone": "6363753130"}
{"name": "WALGREEN DRUG STORE #6023","address1": "190 N FLORISSANT RD","address2": "","city": "FERGUSON","state": "MO","zip": "63135","zip+4": "0000","phone": "3145217676"}
{"name": "WALGREEN DRUG STORE #11351","address1": "10000 W FLORISSANT AVE.","address2": "","city": "DELLWOOD","state": "MO","zip": "63136","zip+4": "0000","phone": "3148670671"}
{"name": "GERBES PHARMACY #615116","address1": "410 E NORTH","address2": "","city": "ELDON","state": "MO","zip": "65026","zip+4": "0000","phone": "5733927336"}
{"name": "DIERBERGS MACKENZIE POINTE PHA","address1": "72233 WATSON ROAD","address2": "","city": "ST LOUIS","state": "MO","zip": "63119","zip+4": "0000","phone": "3147527881"}
{"name": "WAL-MART PHARMACY #100325","address1": "908 WALTON WAY","address2": "","city": "RICHMOND","state": "MO","zip": "64085","zip+4": "0000","phone": "8167768577"}
{"name": "WAL-MART PHARMACY #101265","address1": "10741 WEST FLORISSANT","address2": "","city": "FERGUSON","state": "MO","zip": "63135","zip+4": "0000","phone": "3145212230"}
{"name": "MEDICENTER PHARMACY #8083","address1": "200 W WASHINGTON","address2": "","city": "JACKSON","state": "MO","zip": "63755","zip+4": "0000","phone": "5732431303"}
{"name": "GERBES PHARMACY #615119","address1": "555 EAST HWY 54","address2": "","city": "CAMDENTON","state": "MO","zip": "65020","zip+4": "0000","phone": "5733464155"}
{"name": "FAMILY PHARMACY","address1": "806 N STURGEON","address2": "","city": "MONTGOMERY CITY","state": "MO","zip": "63361","zip+4": "0000","phone": "5735642273"}
{"name": "PUXICO DRUGS","address1": "176 E RICHARDSON AVE","address2": "","city": "PUXICO","state": "MO","zip": "63960","zip+4": "7780","phone": "5732226206"}
{"name": "DIERBERGS TELEGRAPH PHAMACY #1","address1": "5640 TELEGRAPH ROAD","address2": "","city": "ST LOUIS","state": "MO","zip": "63129","zip+4": "0000","phone": "3148465778"}
{"name": "KMART PHARMACY #3655","address1": "600 NORTH EAST BARRY ROAD","address2": "","city": "KANSAS CITY","state": "MO","zip": "64155","zip+4": "0000","phone": "8164684434"}
{"name": "DIERBERGS HERITAGE PHARMACY #1","address1": "12595 OLIVE STREET ROAD","address2": "","city": "ST LOUIS","state": "MO","zip": "63141","zip+4": "0000","phone": "3145422194"}
{"name": "WAL-MART PHARMACY #104553","address1": "11601 EAST US 40 HIGHWAY","address2": "","city": "KANSAS CITY","state": "MO","zip": "64133","zip+4": "0000","phone": "8163130673"}
{"name": "SCHNUCKS PHARMACY #141","address1": "9074 OVERLAND PLAZA","address2": "","city": "STLOUIS","state": "MO","zip": "63114","zip+4": "0000","phone": "3144264211"}
{"name": "SCHNUCKS PHARMACY #143","address1": "3430 SOUTH GRAND","address2": "","city": "ST LOUIS","state": "MO","zip": "63118","zip+4": "0000","phone": "3147725722"}
{"name": "SHOP N SAVE PHARMACY #4527","address1": "10461 MANCHESTER RD","address2": "","city": "KIRKWOOD","state": "MO","zip": "63122","zip+4": "0000","phone": "3149840422"}
{"name": "KMART PHARMACY #3759","address1": "15909 MANCHESTER ROAD","address2": "","city": "BALLWIN","state": "MO","zip": "63011","zip+4": "0000","phone": "6363914064"}
{"name": "OVERTURF PHARMACY","address1": "100 MAIN ST","address2": "","city": "GIDEON","state": "MO","zip": "63848","zip+4": "0000","phone": "5734485552"}
{"name": "SAINT MARY MEDICAL PLZ PHARMAC","address1": "200 SAINT MARY MEDICAL PLZ","address2": "","city": "JEFFERSON CITY","state": "MO","zip": "65101","zip+4": "0000","phone": "5736592111"}
{"name": "WALGREEN DRUG STORE #5748","address1": "1490 MEXICO LOOP RD E","address2": "","city": "OFALLON","state": "MO","zip": "63366","zip+4": "0000","phone": "6369781886"}
{"name": "CVS PHARMACY #05693","address1": "8421 NW PRAIRIE VIEW RD","address2": "","city": "KANSAS CITY","state": "MO","zip": "64153","zip+4": "0000","phone": "8167461933"}
{"name": "BIOSCRIP PHARMACY #4002","address1": "4620 JC NICHOLS PKWY","address2": "STE 417","city": "KANSAS CITY","state": "MO","zip": "64112","zip+4": "0000","phone": "8165611933"}
{"name": "VAN BUREN DRUG","address1": "406 MAIN ST","address2": "","city": "VAN BUREN","state": "MO","zip": "63965","zip+4": "0000","phone": "5733238159"}
{"name": "WALGREEN DRUG STORE #1273","address1": "1391 BIG BEND RD","address2": "","city": "TWIN OAKS","state": "MO","zip": "63021","zip+4": "0000","phone": "6368611985"}
{"name": "WAL-MART PHARMACY #100044","address1": "1802 SOUTH BUSINESS HWY 54","address2": "","city": "ELDON","state": "MO","zip": "65026","zip+4": "0000","phone": "5733921863"}
{"name": "CONVENIENT CARE PHARMACY #2","address1": "1000 E PRIMROSE ST","address2": "","city": "SPRINGFIELD","state": "MO","zip": "65807","zip+4": "5176","phone": "4172695584"}
{"name": "WAL-MART PHARMACY #101514","address1": "2201 MICHIGAN AVENUE","address2": "","city": "ARNOLD","state": "MO","zip": "63010","zip+4": "0000","phone": "6362822657"}
{"name": "LINDENWOOD DRUG","address1": "6903 LANSDOWNE","address2": "","city": "ST LOUIS","state": "MO","zip": "63109","zip+4": "0000","phone": "3147812445"}
{"name": "REGIONAL MEDICAL PLZ PHCY","address1": "404 KEENE ST","address2": "","city": "COLUMBIA","state": "MO","zip": "65201","zip+4": "0000","phone": "5734996022"}
{"name": "KMART PHARMACY #3812","address1": "2233 N WESTWOOD BLVD","address2": "","city": "POPLAR BLUFF","state": "MO","zip": "63901","zip+4": "0000","phone": "5737854557"}
{"name": "JOHNS PHARMACY INC #5216","address1": "2001 INDEPENDENCE","address2": "","city": "CAPE GIRARDEAU","state": "MO","zip": "63703","zip+4": "0000","phone": "5733341300"}
{"name": "SCHNUCKS PHARMACY #111","address1": "1950 ZUMBEHL RD","address2": "","city": "ST CHARLES","state": "MO","zip": "63303","zip+4": "0000","phone": "6369470311"}
{"name": "FOREST CITY PHARMACY","address1": "125 N JEFFERSON ST","address2": "","city": "SAINT JAMES","state": "MO","zip": "65559","zip+4": "1917","phone": "5732655400"}
{"name": "LAWRENCE DRUG INC","address1": "1454 E REPUBLIC ROAD","address2": "","city": "SPRINGFIELD","state": "MO","zip": "65804","zip+4": "0000","phone": "4178866880"}
{"name": "HY VEE PHARMACY #1380","address1": "301 NE RICE ROAD","address2": "","city": "LEES SUMMIT","state": "MO","zip": "64063","zip+4": "0000","phone": "8165246377"}
{"name": "ST JOHNS PHARMACY-ST JAMES #58","address1": "105 W ELDON ST","address2": "","city": "SAINT JAMES","state": "MO","zip": "65559","zip+4": "1903","phone": "5732658901"}
{"name": "REMEDIES FAMILY PHARMACY","address1": "1003 HWY 65 N","address2": "","city": "CARROLLTON","state": "MO","zip": "64633","zip+4": "1972","phone": "6605421111"}
{"name": "PLAZA PHARMACY","address1": "11 BRIDGEWAY PLAZA","address2": "","city": "SHELL KNOB","state": "MO","zip": "65747","zip+4": "0000","phone": "4178582200"}
{"name": "WALGREEN DRUG STORE #5894","address1": "6733 CLAYTON RD","address2": "","city": "CLAYTON","state": "MO","zip": "63105","zip+4": "0000","phone": "3147212033"}
{"name": "WALGREEN DRUG STORE #6989","address1": "14529 MANCHESTER RD","address2": "","city": "MANCHESTER","state": "MO","zip": "63011","zip+4": "0000","phone": "6362274511"}
{"name": "WALGREEN DRUG STORE #2674","address1": "630 N MCKNIGHT RD","address2": "","city": "ST LOUIS","state": "MO","zip": "63132","zip+4": "0000","phone": "3149913400"}
{"name": "WALGREEN DRUG STORE #7050","address1": "519 S TRUMAN BLVD","address2": "","city": "FESTUS","state": "MO","zip": "63028","zip+4": "0000","phone": "6369374107"}
{"name": "WALGREEN DRUG STORE #7762","address1": "1 GRASSO PLAZA","address2": "","city": "AFFTON","state": "MO","zip": "63123","zip+4": "0000","phone": "3146313700"}
{"name": "CORNER DRUG STORE","address1": "308 W DALLAS ST","address2": "","city": "BUFFALO","state": "MO","zip": "65622","zip+4": "0710","phone": "4173456500"}
{"name": "KMART PHARMACY #3934","address1": "1003 SOUTH BISHOP","address2": "","city": "ROLLA","state": "MO","zip": "65401","zip+4": "0000","phone": "5733646079"}
{"name": "WALGREEN DRUG STORE #5058","address1": "776 JEFFCO BLVD","address2": "","city": "ARNOLD","state": "MO","zip": "63010","zip+4": "0000","phone": "6362969449"}
{"name": "MEDICINE SHOPPE PHARMACY #1111","address1": "415 W JACKSON","address2": "","city": "MEXICO","state": "MO","zip": "65265","zip+4": "0000","phone": "5735817561"}
{"name": "MEDICINE SHOPPE PHARMACY #0832","address1": "11330 GRAVOIS RD","address2": "","city": "SAPPINGTON","state": "MO","zip": "63126","zip+4": "0000","phone": "3148420910"}
{"name": "WAL-MART PHARMACY #100295","address1": "131 ERKA TWN CNTR DR","address2": "","city": "EUREKA","state": "MO","zip": "63025","zip+4": "0000","phone": "6369389425"}
{"name": "WAL-MART PHARMACY #100082","address1": "1750 S PERRYVILLE","address2": "","city": "PERRYVILLE","state": "MO","zip": "63775","zip+4": "0000","phone": "5735472571"}
{"name": "BELLEVUE PHARMACY SOLUTIONS","address1": "1034 S BRENTWOOD BLVD","address2": "STE 102","city": "SAINT LOUIS","state": "MO","zip": "63117","zip+4": "0000","phone": "3147278787"}
{"name": "MEDICINE SHOPPE #1134","address1": "625 N EUCLID","address2": "STE 150","city": "ST LOUIS","state": "MO","zip": "63108","zip+4": "0000","phone": "3143673009"}
{"name": "PHARMAX PHARMACY #1108","address1": "305 HOVEN DR","address2": "","city": "PACIFIC","state": "MO","zip": "63069","zip+4": "0000","phone": "6362574660"}
{"name": "RINDERERS DRUG STORE #9","address1": "10017 BELLEFONTAINE RD","address2": "","city": "BELLEFONTAINE NEIG","state": "MO","zip": "63137","zip+4": "1934","phone": "3148692000"}
{"name": "NORTHWEST PHARMACY","address1": "2210 BARRON RD","address2": "","city": "POPLAR BLUFF","state": "MO","zip": "63901","zip+4": "1908","phone": "5736866211"}
{"name": "HY VEE PHARMACY #1335","address1": "500 N BALTIMORE","address2": "","city": "KIRKSVILLE","state": "MO","zip": "63501","zip+4": "0000","phone": "6606657400"}
{"name": "HY VEE PHARMACY #1033","address1": "601 W 40 HWY","address2": "","city": "BLUE SPRINGS","state": "MO","zip": "64015","zip+4": "0000","phone": "8162244277"}
{"name": "DIERBERGS SOUTHROADS PHARMACY","address1": "12420 TESSON FERRY ROAD","address2": "","city": "ST LOUIS","state": "MO","zip": "63128","zip+4": "0000","phone": "3148493880"}
{"name": "WALGREEN DRUG STORE #2617","address1": "2329 W CLAY ST","address2": "","city": "ST CHARLES","state": "MO","zip": "63301","zip+4": "0000","phone": "6369496563"}
{"name": "WALGREEN DRUG STORE #6166","address1": "3822 S KINGSHIGHWAY","address2": "","city": "ST LOUIS","state": "MO","zip": "63109","zip+4": "0000","phone": "3147730424"}
{"name": "MEDICINE SHOPPE #0812","address1": "116 WALNUT","address2": "","city": "FESTUS","state": "MO","zip": "63028","zip+4": "0000","phone": "6369374144"}
{"name": "OWL PHARMACY LLC","address1": "111 E 2ND ST","address2": "","city": "MILAN","state": "MO","zip": "63556","zip+4": "1346","phone": "6602653779"}
{"name": "PRESCRIPTION PLUS INC","address1": "5 MARYLAND PLAZA","address2": "","city": "SAINT LOUIS","state": "MO","zip": "63108","zip+4": "1913","phone": "3143675558"}
{"name": "CLAYTON HEALTH SERVICES PHCY W","address1": "1035 BELLEVUE AVE","address2": "","city": "SAINT LOUIS","state": "MO","zip": "63117","zip+4": "0000","phone": "3147688870"}
{"name": "WAL-MART PHARMACY #100056","address1": "1309 NW 12TH AVE","address2": "","city": "AVA","state": "MO","zip": "65608","zip+4": "0000","phone": "4176834708"}
{"name": "WAL-MART PHARMACY #100092","address1": "3020 SOUTH ELLIOTT","address2": "","city": "AURORA","state": "MO","zip": "65605","zip+4": "0000","phone": "4176786006"}
{"name": "SHOP N SAVE PHARMACY #4531","address1": "4660 CHIPPEWA ST","address2": "","city": "ST LOUIS","state": "MO","zip": "63116","zip+4": "0000","phone": "3147522156"}
{"name": "SHOP N SAVE PHARMACY #4528","address1": "175 FLOWER VALLEY SHOPPING CEN","address2": "","city": "FLORISSANT","state": "MO","zip": "63033","zip+4": "0000","phone": "3148378052"}
{"name": "SCHNUCKS PHARMACY #184","address1": "74 GRANDVIEW PLAZA CTR","address2": "","city": "FLORISSANT","state": "MO","zip": "63033","zip+4": "0000","phone": "3148381366"}
{"name": "SINKS PHARMACY","address1": "1113 HAUCK DRIVE","address2": "","city": "ROLLA","state": "MO","zip": "65401","zip+4": "0000","phone": "5733649616"}
{"name": "HY VEE PHARMACY #1260","address1": "1525 E 23RD STREET","address2": "","city": "INDEPENDENCE","state": "MO","zip": "64051","zip+4": "0000","phone": "8168369918"}
{"name": "WAL-MART PHARMACY #100190","address1": "1500 EAST FIRST ST","address2": "","city": "KENNETT","state": "MO","zip": "63857","zip+4": "0000","phone": "5738884543"}
{"name": "WALGREEN DRUG STORE #2501","address1": "12345 ST CHARLES ROCK RD","address2": "","city": "BRIDGETON","state": "MO","zip": "63044","zip+4": "0000","phone": "3147702447"}
{"name": "PRICE CHOPPER #21","address1": "500 NE BARRY ROAD","address2": "","city": "KANSAS CITY","state": "MO","zip": "64155","zip+4": "0000","phone": "8164687666"}
{"name": "WARNER DRUG","address1": "108 S 17TH ST","address2": "","city": "UNIONVILLE","state": "MO","zip": "63565","zip+4": "0000","phone": "6609472484"}
{"name": "WAL-MART PHARMACY #100337","address1": "1025 WALTON DRIVE","address2": "","city": "FREDERICKTOWN","state": "MO","zip": "63645","zip+4": "0000","phone": "5737832663"}
{"name": "WALGREEN DRUG STORE #2741","address1": "12400 OLD HALLS FERRY","address2": "","city": "BLACK JACK","state": "MO","zip": "63033","zip+4": "0000","phone": "3147417898"}
{"name": "WALGREEN DRUG STORE #2733","address1": "530 MID RIVERS MALL DRIVE","address2": "","city": "ST PETERS","state": "MO","zip": "63376","zip+4": "0000","phone": "6369703336"}
{"name": "WOODS PHARMACY #472","address1": "1407 W AUSTIN","address2": "","city": "NEVADA","state": "MO","zip": "64772","zip+4": "3102","phone": "4176673953"}
{"name": "WAL-MART PHARMACY #100156","address1": "STATE HWY 84 WEST","address2": "","city": "CARUTHERSVILLE","state": "MO","zip": "63830","zip+4": "0000","phone": "5733330073"}
{"name": "WILKINSON PHARMACY #8","address1": "113 W 2ND ST","address2": "","city": "HOLDEN","state": "MO","zip": "64040","zip+4": "1389","phone": "8167325514"}
{"name": "MEDICINE SHOPPE PHARMACY #0961","address1": "920 M ST CLAIR PLAZA DR","address2": "","city": "ST CLAIR","state": "MO","zip": "63077","zip+4": "0000","phone": "6366292022"}
{"name": "WAL-MART PHARMACY #100451","address1": "1201 GRINDSTONE PKWY","address2": "","city": "COLUMBIA","state": "MO","zip": "65203","zip+4": "0000","phone": "5734429989"}
{"name": "KREISLER CLINIC PHARMACY","address1": "HWY 13 N","address2": "","city": "CLINTON","state": "MO","zip": "64735","zip+4": "0528","phone": "6608854646"}
{"name": "MEDICINE SHOPPE #1216","address1": "4441 BROWN RD","address2": "","city": "ST LOUIS","state": "MO","zip": "63134","zip+4": "0000","phone": "3144287676"}
{"name": "GERBES PHARMACY #615118","address1": "2101 N SCHOTTHILL WOODS DR","address2": "","city": "JEFFERSON CITY","state": "MO","zip": "65101","zip+4": "0000","phone": "5736593700"}
{"name": "FAMILY CARE PHARMACY AT CHRIST","address1": "11125 DUNN RD","address2": "","city": "ST LOUIS","state": "MO","zip": "63136","zip+4": "0000","phone": "3146535200"}
{"name": "THE MEDICINE SHOPPE PHARMACY #","address1": "2000 S SPRINGFIELD AVE","address2": "","city": "BOLIVAR","state": "MO","zip": "65613","zip+4": "0000","phone": "4173267455"}
{"name": "WALGREEN DRUG STORE #2901","address1": "1705 SHACKELFORD","address2": "","city": "FLORISSANT","state": "MO","zip": "63031","zip+4": "0000","phone": "3148310044"}
{"name": "HY VEE PHARMACY #1219","address1": "7117 N PROSPECT","address2": "","city": "GLADSTONE","state": "MO","zip": "64119","zip+4": "0000","phone": "8164527711"}
{"name": "EBERHART PHARMACY","address1": "4221 BAYLESS AVE","address2": "","city": "ST LOUIS","state": "MO","zip": "63123","zip+4": "0000","phone": "3146381000"}
{"name": "MANAGED HEALTHCARE PHARMACY","address1": "1947 W SUNSET STE 200","address2": "","city": "SPRINGFIELD","state": "MO","zip": "65807","zip+4": "0000","phone": "4178894000"}
{"name": "MEDICAP PHARMACY #8108","address1": "507 N MAIN ST","address2": "","city": "SIKESTON","state": "MO","zip": "63801","zip+4": "0000","phone": "5734714401"}
{"name": "SCHNUCKS PHARMACY #714","address1": "1400 FORUM BLVD","address2": "","city": "COLUMBIA","state": "MO","zip": "65205","zip+4": "0000","phone": "5734462804"}
{"name": "WAL-MART PHARMACY #100017","address1": "3200 LUSK DRIVE","address2": "","city": "NEOSHO","state": "MO","zip": "64850","zip+4": "0000","phone": "4174511177"}
{"name": "KILGORES MEDICAL PHARMACY","address1": "700 N PROVIDENCE RD","address2": "","city": "COLUMBIA","state": "MO","zip": "65203","zip+4": "0000","phone": "5734420194"}
{"name": "MEDICINE SHOPPE #1260","address1": "811 EAST DIVISION","address2": "","city": "SPRINGFIELD","state": "MO","zip": "65803","zip+4": "0000","phone": "4178663054"}
{"name": "KREISLER COUNTRY PHARMACY INC","address1": "121 WEST 4TH STREET","address2": "","city": "APPLETON CITY","state": "MO","zip": "64724","zip+4": "0000","phone": "6604762142"}
{"name": "HOMETOWN PHARMACY","address1": "206 W 2ND ST","address2": "","city": "DIXON","state": "MO","zip": "65459","zip+4": "0000","phone": "5737592230"}
{"name": "SCHNUCKS PHARMACY #188","address1": "8867 LADUE RD","address2": "","city": "ST LOUIS","state": "MO","zip": "63124","zip+4": "0000","phone": "3147253264"}
{"name": "APOTHECARY SERVICES INC","address1": "1400 HWY 61 S STE","address2": "STE G38","city": "FESTUS","state": "MO","zip": "63028","zip+4": "4108","phone": "6369331600"}
{"name": "WALGREEN DRUG STORE #2971","address1": "2A GRANDVIEW PLAZA","address2": "","city": "FLORISSANT","state": "MO","zip": "63033","zip+4": "0000","phone": "3148301557"}
{"name": "WALGREEN DRUG STORE #3017","address1": "2002 MISSOURI BLVD","address2": "","city": "JEFFERSON CITY","state": "MO","zip": "65109","zip+4": "0000","phone": "5736368845"}
{"name": "SCHNUCKS PHARMACY #725","address1": "1960 WENTZVILLE PARKWAY","address2": "","city": "WENTZVILLE","state": "MO","zip": "63385","zip+4": "0000","phone": "6363328640"}
{"name": "QUICKMEDS PHARMACY FREEMAN WES","address1": "1102 W 32ND ST","address2": "","city": "JOPLIN","state": "MO","zip": "64804","zip+4": "3599","phone": "4173473792"}
{"name": "CONVENIENT CARE PHARMACY #3","address1": "3800 S NATIONAL AVE","address2": "STE 110","city": "SPRINGFIELD","state": "MO","zip": "65807","zip+4": "5249","phone": "4172695988"}
{"name": "GIFTS SCRIPTS AND MORE INC #1","address1": "7025 HOWDERSHELL RD","address2": "STE K","city": "HAZELWOOD","state": "MO","zip": "63042","zip+4": "3805","phone": "3148953300"}
{"name": "WALGREEN DRUG STORE #3118","address1": "1501 S FLORISSANT","address2": "","city": "COOL VALLEY","state": "MO","zip": "63121","zip+4": "0000","phone": "3145218687"}
{"name": "ST ANTHONYS RETAIL PHARMACY","address1": "10004 KENNERLY RD","address2": "SUITE 130","city": "SAINT LOUIS","state": "MO","zip": "63128","zip+4": "2141","phone": "3145254777"}
{"name": "PLAZA WEST PHARMACY","address1": "3330 W 10TH","address2": "","city": "SEDALIA","state": "MO","zip": "65301","zip+4": "0000","phone": "6608270000"}
{"name": "KELLER APOTHECARY","address1": "5201 CHIPPEWA","address2": "","city": "ST LOUIS","state": "MO","zip": "63109","zip+4": "0000","phone": "3143525201"}
{"name": "CVS PHARMACY #05727","address1": "1301 PLATTE FALLS RD","address2": "","city": "PLATTE CITY","state": "MO","zip": "64079","zip+4": "0000","phone": "8168582713"}
{"name": "PRICE CHOPPER #18","address1": "8430 WORNALL ROAD","address2": "","city": "KANSAS CITY","state": "MO","zip": "64114","zip+4": "0000","phone": "8163615000"}
{"name": "HEN HOUSE #29","address1": "6238 N CHATHAM ROAD","address2": "","city": "KANSAS CITY","state": "MO","zip": "64151","zip+4": "0000","phone": "8167461475"}
{"name": "QUICKMEDS PHARMACY NEOSHO","address1": "336 S JEFFERSON","address2": "","city": "NEOSHO","state": "MO","zip": "64850","zip+4": "0000","phone": "4174554378"}
{"name": "SUN FRESH PHARMACY","address1": "2415 NE VIVION RD","address2": "","city": "KANSAS CITY","state": "MO","zip": "64118","zip+4": "6221","phone": "8164547895"}
{"name": "SUN FRESH PHCY","address1": "2301 S STERLING","address2": "","city": "INDEPENDENCE","state": "MO","zip": "64052","zip+4": "3666","phone": "8164611287"}
{"name": "BARNES JEWISH HOSPITAL PHARMAC","address1": "216 S KINGSHIGHWAY BLVD","address2": "","city": "ST LOUIS","state": "MO","zip": "63110","zip+4": "0000","phone": "3144547666"}
{"name": "PRICE CUTTER PHARMACY #17","address1": "1013 E HIGHWAY 60","address2": "","city": "REPUBLIC","state": "MO","zip": "65738","zip+4": "0000","phone": "4177324212"}
{"name": "MARSHFIELD CLINIC PHARMACY LLC","address1": "483 POMME DE TERRE DR","address2": "","city": "MARSHFIELD","state": "MO","zip": "65706","zip+4": "0000","phone": "4174684442"}
{"name": "WAL-MART PHARMACY #100096","address1": "1700 NORTH 291 HIGHWAY","address2": "","city": "HARRISONVILLE","state": "MO","zip": "64701","zip+4": "0000","phone": "8168842040"}
{"name": "WALGREEN DRUG STORE #2616","address1": "455 HIGHWAY 61 NORTH","address2": "","city": "HANNIBAL","state": "MO","zip": "63401","zip+4": "0000","phone": "5732218881"}
{"name": "ROGERS PHARMACY","address1": "2524 FREDERICK AVE","address2": "","city": "ST JOSEPH","state": "MO","zip": "64506","zip+4": "0000","phone": "8162323348"}
{"name": "FAMILY PHARMACY INC #18","address1": "3202 INDIANA AVE","address2": "","city": "JOPLIN","state": "MO","zip": "64804","zip+4": "4037","phone": "4176233800"}
{"name": "ST MARYS HOLTS SUMMIT PHARMACY","address1": "140 NORTHSTAR","address2": "","city": "HOLTS SUMMIT","state": "MO","zip": "65043","zip+4": "0000","phone": "5738964579"}
{"name": "WAL-MART PHARMACY #100159","address1": "415 CONLEY ROAD","address2": "","city": "COLUMBIA","state": "MO","zip": "65201","zip+4": "0000","phone": "5734991933"}
{"name": "WAL-MART PHARMACY #102175","address1": "18401 STATE HWY 13","address2": "","city": "BRANSON WEST","state": "MO","zip": "65737","zip+4": "0000","phone": "4172728050"}
{"name": "KROGER PHARMACY #21501","address1": "US HIGHWAY 61 AND MC MASTERS","address2": "","city": "HANNIBAL","state": "MO","zip": "63401","zip+4": "0000","phone": "5732212866"}
{"name": "KMART PHARMACY #7710","address1": "1477 STATE HWY 248","address2": "","city": "BRANSON","state": "MO","zip": "65616","zip+4": "7477","phone": "4173379529"}
{"name": "WALGREEN DRUG STORE #3338","address1": "1 S KINGSHIGHWAY","address2": "","city": "CAPE GIRARDEAU","state": "MO","zip": "63701","zip+4": "0000","phone": "5733390707"}
{"name": "ST MARYS WESTPHALIA PHARMACY #","address1": "1875 HWY 63","address2": "","city": "WESTPHALIA","state": "MO","zip": "65085","zip+4": "0000","phone": "5734552284"}
{"name": "LAKE REGIONAL PHARMACY - CMC","address1": "1930 N STATE HWY 5","address2": "UNIT 1C","city": "CAMDENTON","state": "MO","zip": "65020","zip+4": "0000","phone": "5733462300"}
{"name": "CORUM HEALTH SERVICES INC","address1": "14805 N OUTER 40 RD","address2": "STE 140","city": "CHESTERFIELD","state": "MO","zip": "63017","zip+4": "6060","phone": "6367337300"}
{"name": "WAL-MART PHARMACY #102213","address1": "3270 TELEGRAPH ROAD","address2": "","city": "ST LOUIS","state": "MO","zip": "63125","zip+4": "0000","phone": "3148458760"}
{"name": "STERLING HLTH CARE SVS BY ENTE","address1": "808 HUNTER","address2": "STE 1","city": "SIKESTON","state": "MO","zip": "63801","zip+4": "3774","phone": "5734720608"}
{"name": "HY VEE PHARMACY #1384","address1": "1332 KANSAS STREET","address2": "","city": "LIBERTY","state": "MO","zip": "64068","zip+4": "0000","phone": "8167924632"}
{"name": "HY VEE PHARMACY #1077","address1": "1210 WASHINGTON STREET","address2": "","city": "CHILLICOTHE","state": "MO","zip": "64601","zip+4": "0000","phone": "6606461280"}
{"name": "MARIONVILLE PHARMACY","address1": "201 S US HWY 60","address2": "","city": "MARIONVILLE","state": "MO","zip": "65705","zip+4": "0000","phone": "4172582526"}
{"name": "WAL-MART PHARMACY #102221","address1": "2021 EAST INDEPENDENCE","address2": "","city": "SPRINGFIELD","state": "MO","zip": "65804","zip+4": "0000","phone": "4178862645"}
{"name": "PRICE CUTTER PHARMACY #18","address1": "1901 E DIVISION","address2": "","city": "SPRINGFIELD","state": "MO","zip": "65803","zip+4": "4517","phone": "4178667702"}
{"name": "PRICE CUTTER PHARMACY #30","address1": "2900 E SUNSHINE","address2": "","city": "SPRINGFIELD","state": "MO","zip": "65804","zip+4": "0000","phone": "4178875052"}
{"name": "WILKINSON PHARMACY RICH HILL","address1": "301 N 14TH ST","address2": "","city": "RICH HILL","state": "MO","zip": "64779","zip+4": "0000","phone": "4173954700"}
{"name": "GEORGES PHARMACY","address1": "3650 E SUNSHINE","address2": "","city": "SPRINGFIELD","state": "MO","zip": "65809","zip+4": "0000","phone": "4178897898"}
{"name": "DANS DISCOUNT DRUG MART","address1": "2625 N KANSAS EXPY","address2": "","city": "SPRINGFIELD","state": "MO","zip": "65803","zip+4": "0000","phone": "4178699003"}
{"name": "FAMILY PHARMACY # #5","address1": "432 S MILL ST","address2": "","city": "ROGERSVILLE","state": "MO","zip": "65742","zip+4": "0000","phone": "4177532046"}
{"name": "OMNICARE PHARMACY #193","address1": "1504 S GRAND","address2": "1ST FLOOR","city": "SAINT LOUIS","state": "MO","zip": "63104","zip+4": "1304","phone": "3145353334"}
{"name": "SCHNUCKS PHARMACY #145","address1": "8037 W FLORISSANT AVE","address2": "","city": "ST LOUIS","state": "MO","zip": "63136","zip+4": "0000","phone": "3143893600"}
{"name": "SCHNUCKS PHARMACY #216","address1": "1589 SIERRA VISTA SHOPPING CTR","address2": "","city": "ST LOUIS","state": "MO","zip": "63138","zip+4": "0000","phone": "3143558314"}
{"name": "SCHNUCKS PHARMACY #227","address1": "4171 LINDELL BLVD","address2": "","city": "ST LOUIS","state": "MO","zip": "63108","zip+4": "0000","phone": "3145338234"}
{"name": "SCHNUCKS PHARMACY #266","address1": "9540 WATSON RD","address2": "","city": "ST LOUIS","state": "MO","zip": "63126","zip+4": "0000","phone": "3148490527"}
{"name": "SCHNUCKS PHARMACY #173","address1": "1393 BIG BEND SQ","address2": "","city": "BALLWIN","state": "MO","zip": "63021","zip+4": "0000","phone": "6362254633"}
{"name": "SCHNUCKS PHARMACY #276","address1": "1160 SHACKELFORD RD","address2": "","city": "FLORISSANT","state": "MO","zip": "63031","zip+4": "0000","phone": "3148384660"}
{"name": "SCHNUCKS PHARMACY #281","address1": "4127 N GRAND","address2": "","city": "ST LOUIS","state": "MO","zip": "63107","zip+4": "0000","phone": "3145311415"}
{"name": "SCHNUCKS PHARMACY #284","address1": "800 S DUCHESNE","address2": "","city": "ST CHARLES","state": "MO","zip": "63301","zip+4": "0000","phone": "6369460738"}
{"name": "SCHNUCKS PHARMACY #291","address1": "1020 LOUGHBOROUGH","address2": "","city": "ST LOUIS","state": "MO","zip": "63111","zip+4": "0000","phone": "3147525272"}
{"name": "SCHNUCKS PHARMACY #731","address1": "1181 GANNON DR","address2": "","city": "FESTUS","state": "MO","zip": "63028","zip+4": "0000","phone": "6364644127"}
{"name": "WALGREEN DRUG STORE #3594","address1": "210 SOUTH HIGHWAY 165","address2": "","city": "BRANSON","state": "MO","zip": "65616","zip+4": "0000","phone": "4173394220"}
{"name": "WAL-MART PHARMACY #100138","address1": "1923 EAST KEARNEY","address2": "","city": "SPRINGFIELD","state": "MO","zip": "65803","zip+4": "0000","phone": "4178655558"}
{"name": "SCHNUCKS PHARMACY #272","address1": "6600 CLAYTON RD","address2": "","city": "ST LOUIS","state": "MO","zip": "63117","zip+4": "0000","phone": "3146443580"}
{"name": "CORAM SPECIALTY INFUSION SERVI","address1": "8248 LACKLAND RD STE 101","address2": "","city": "SAINT LOUIS","state": "MO","zip": "63114","zip+4": "0000","phone": "3145222800"}
{"name": "WAL-MART PHARMACY #100051","address1": "1701 NORTH BLUFF STREET","address2": "","city": "FULTON","state": "MO","zip": "65251","zip+4": "0000","phone": "5736429255"}
{"name": "FOX GRAPE PHARMACY #240","address1": "3250 P E BATTLEFIELD","address2": "","city": "SPRINGFIELD","state": "MO","zip": "65804","zip+4": "4081","phone": "4178834340"}
{"name": "MEDICAP #8152","address1": "800 VALLEY CREEK DRIVE","address2": "","city": "FARMINGTON","state": "MO","zip": "63640","zip+4": "0000","phone": "5737600200"}
{"name": "WALGREEN DRUG STORE #3690","address1": "2640 E SUNSHINE ST","address2": "","city": "SPRINGFIELD","state": "MO","zip": "65804","zip+4": "0000","phone": "4178851280"}
{"name": "WAL-MART PHARMACY #100099","address1": "1445 E CENTRAL","address2": "","city": "UNION","state": "MO","zip": "63084","zip+4": "0000","phone": "6365837958"}
{"name": "PRICE CHOPPER PHARMACY #250","address1": "2101 N HWY 7","address2": "","city": "PLEASANT HILL","state": "MO","zip": "64080","zip+4": "0000","phone": "8165403581"}
{"name": "ST MARYS TIPTON PHCY","address1": "875 HWY 5 SOUTH","address2": "","city": "TIPTON","state": "MO","zip": "65081","zip+4": "8253","phone": "6604335404"}
{"name": "PHELPS COUNTY REGIONAL MEDICAL","address1": "1000 W 10TH ST","address2": "","city": "ROLLA","state": "MO","zip": "65401","zip+4": "0000","phone": "5733648491"}
{"name": "WALGREEN DRUG STORE #3689","address1": "1140 E KEARNEY ST","address2": "","city": "SPRINGFIELD","state": "MO","zip": "65803","zip+4": "0000","phone": "4178695657"}
{"name": "WALGREEN DRUG STORE #3688","address1": "2951 S CAMPBELL","address2": "","city": "SPRINGFIELD","state": "MO","zip": "65807","zip+4": "0000","phone": "4178901700"}
{"name": "WALGREEN DRUG STORE #3598","address1": "2001 MAIN","address2": "","city": "JOPLIN","state": "MO","zip": "64804","zip+4": "0000","phone": "4176267800"}
{"name": "DIERBERGS WARSON WOODS PHARMAC","address1": "9901 MANCHESTER ROAD","address2": "","city": "ST LOUIS","state": "MO","zip": "63122","zip+4": "0000","phone": "3149190611"}
{"name": "CVS PHARMACY #05663","address1": "6244 BROOKSIDE BLVD","address2": "","city": "KANSAS CITY","state": "MO","zip": "64113","zip+4": "0000","phone": "8164440444"}
{"name": "CVS PHARMACY #05678","address1": "7907 STATE LINE RD","address2": "","city": "KANSAS CITY","state": "MO","zip": "64114","zip+4": "0000","phone": "8164442000"}
{"name": "MEDICINE SHOPPE #1424","address1": "10 CENTERLINE DR","address2": "","city": "TROY","state": "MO","zip": "63379","zip+4": "1393","phone": "6364627005"}
{"name": "HARRIS PHARMACY","address1": "1224 FIRST STREET","address2": "","city": "KENNETT","state": "MO","zip": "63857","zip+4": "0000","phone": "5738886006"}
{"name": "PRICE CUTTER PHARMACY #23","address1": "1503 W MCARTHUR","address2": "","city": "WEBB CITY","state": "MO","zip": "64870","zip+4": "0000","phone": "4176736302"}
{"name": "BRADFORD PHARMACY #245","address1": "307 KENTUCKY AVE","address2": "","city": "WEST PLAINS","state": "MO","zip": "65775","zip+4": "0000","phone": "4172567533"}
{"name": "ADRIAN KREISLER DRUG #5","address1": "21 E MAIN ST","address2": "","city": "ADRIAN","state": "MO","zip": "64720","zip+4": "0000","phone": "8162978833"}
{"name": "INTERLOCK PHARMACY OF COLUMBIA","address1": "4509 I 70 DRIVE SE","address2": "","city": "COLUMBIA","state": "MO","zip": "65201","zip+4": "0000","phone": "5738751971"}
{"name": "HY VEE PHARMACY #1320","address1": "8301 N ST CLAIR","address2": "","city": "KANSAS CITY","state": "MO","zip": "64151","zip+4": "0000","phone": "8165051010"}
{"name": "HY VEE PHARMACY #1667","address1": "1801 03 E 9TH STREET","address2": "","city": "TRENTON","state": "MO","zip": "64683","zip+4": "0000","phone": "6603594955"}
{"name": "HY VEE PHARMACY 2 #1381","address1": "310 SW WARD ROAD","address2": "","city": "LEES SUMMIT","state": "MO","zip": "64081","zip+4": "0000","phone": "8165542211"}
{"name": "WALGREEN DRUG STORE #3687","address1": "4492 CENTRAL SCHOOL RD","address2": "","city": "ST CHARLES","state": "MO","zip": "63304","zip+4": "0000","phone": "6369368754"}
{"name": "IMRAN PHARMACY","address1": "3737 N KINGSHIGHWAY BLVD","address2": "STE 100","city": "ST LOUIS","state": "MO","zip": "63115","zip+4": "0000","phone": "3143819394"}
{"name": "MARSHAS SUN FRESH PHARMACY #29","address1": "4001 MILL ST","address2": "","city": "KANSAS CITY","state": "MO","zip": "64111","zip+4": "0000","phone": "8169311505"}
{"name": "AUBURN PHARMACY","address1": "16611 E. 23RD ST","address2": "","city": "INDEPENDENCE","state": "MO","zip": "64055","zip+4": "0000","phone": "8168338629"}
{"name": "SEMO DRUGS OF KENNETT","address1": "1312 1ST ST","address2": "","city": "KENNETT","state": "MO","zip": "63857","zip+4": "2526","phone": "5738888880"}
{"name": "MISSOURI CANCER CARE PHARMACY","address1": "1705 E BROADWAY","address2": "SUITE 100","city": "COLUMBIA","state": "MO","zip": "65201","zip+4": "0000","phone": "5738178527"}
{"name": "PAMIDA PHARMACY #358","address1": "2001 E 9TH ST","address2": "","city": "TRENTON","state": "MO","zip": "64683","zip+4": "2599","phone": "6603592970"}
{"name": "SCHNUCKS PHARMACY #123","address1": "3029 HIGHWAY K","address2": "","city": "O FALLON","state": "MO","zip": "63368","zip+4": "8696","phone": "6362407749"}
{"name": "WILKINSON HLTH SVCS","address1": "125 S WASHINGTON ST","address2": "STE 200","city": "NEVADA","state": "MO","zip": "64772","zip+4": "0000","phone": "4176672500"}
{"name": "WALGREEN DRUG STORE #3906","address1": "7339 GRAVOIS AVENUE","address2": "","city": "ST LOUIS","state": "MO","zip": "63116","zip+4": "0000","phone": "3147520721"}
{"name": "DIERBERGS 94 CROSSING PHARMACY","address1": "6211 MID RIVERS MALL DRIVE","address2": "","city": "ST PETERS","state": "MO","zip": "63304","zip+4": "0000","phone": "6369363020"}
{"name": "PRICE CHOPPER #14","address1": "300 SW BLUE PARKWAY","address2": "","city": "LEES SUMMIT","state": "MO","zip": "64063","zip+4": "0000","phone": "8165542951"}
{"name": "SCHNUCKS PHARMACY #121","address1": "16570 MANCHESTER","address2": "","city": "WILDWOOD","state": "MO","zip": "63040","zip+4": "0000","phone": "6364589934"}
{"name": "BIOSCRIP PHARMACY #4011","address1": "115A N EUCLID AVE","address2": "","city": "SAINT LOUIS","state": "MO","zip": "63108","zip+4": "0000","phone": "3144546676"}
{"name": "UNIV PHYSICIANS BLDG PHY","address1": "1101 HOSPITAL DR","address2": "","city": "COLUMBIA","state": "MO","zip": "65212","zip+4": "0000","phone": "5738828300"}
{"name": "MEDICINE SHOPPE PHARMACY #1486","address1": "1107 S MADISON SUITE A","address2": "STE A","city": "WEBB CITY","state": "MO","zip": "64870","zip+4": "0000","phone": "4176734909"}
{"name": "HEN HOUSE #30","address1": "1015 NE RICE ROAD","address2": "","city": "LEES SUMMIT","state": "MO","zip": "64086","zip+4": "0000","phone": "8165251479"}
{"name": "SINKS PHARMACY #100","address1": "206 D ALVARADO","address2": "","city": "BELLE","state": "MO","zip": "65013","zip+4": "0000","phone": "5738593100"}
{"name": "RAMEY PHARMACY #5","address1": "2150 E CLEVELAND AVE","address2": "","city": "MONETT","state": "MO","zip": "65708","zip+4": "0000","phone": "4172362820"}
{"name": "WALGREEN DRUG STORE #4090","address1": "2920 HIGHWAY K","address2": "","city": "OFALLON","state": "MO","zip": "63366","zip+4": "0000","phone": "6369782432"}
{"name": "WAL-MART PHARMACY #100152","address1": "12862 STATE ROAD 21","address2": "","city": "DE SOTO","state": "MO","zip": "63020","zip+4": "0000","phone": "6365869666"}
{"name": "SCHNUCKS PHARMACY #122","address1": "20 GRAVOIS DILLON PLAZA","address2": "","city": "HIGH RIDGE","state": "MO","zip": "63049","zip+4": "0000","phone": "6366770430"}
{"name": "WAL-MART PHARMACY #100145","address1": "3 TOWN CENTER DR","address2": "","city": "BOWLING GREEN","state": "MO","zip": "63334","zip+4": "0000","phone": "5737546030"}
{"name": "WALGREEN DRUG STORE #4182","address1": "1801 SE LANGSFORD RD","address2": "","city": "LEES SUMMIT","state": "MO","zip": "64063","zip+4": "0000","phone": "8165543037"}
{"name": "WALGREEN DRUG STORE #3652","address1": "1001 BOWLES AVE","address2": "","city": "FENTON","state": "MO","zip": "63026","zip+4": "0000","phone": "6363430637"}
{"name": "MEDICINE SHOPPE PHARMACY #1507","address1": "616 C HIGHWAY 47 NORTH","address2": "","city": "WARRENTON","state": "MO","zip": "63383","zip+4": "0000","phone": "6364565570"}
{"name": "COUNTRY MART PHARMACY","address1": "50 BERRY RD","address2": "","city": "BONNE TERRE","state": "MO","zip": "63628","zip+4": "0000","phone": "5733580099"}
{"name": "BI LO COUNTRY MART #136","address1": "410 E YOUNG","address2": "","city": "WARRENSBURG","state": "MO","zip": "64093","zip+4": "0000","phone": "6604296650"}
{"name": "WALGREEN DRUG STORE #4225","address1": "1701 NW HIGHWAY 7","address2": "","city": "BLUE SPRINGS","state": "MO","zip": "64015","zip+4": "0000","phone": "8162203286"}
{"name": "SCHNUCKS PHARMACY #102","address1": "10650 OLIVE BLVD","address2": "","city": "ST LOUIS","state": "MO","zip": "63141","zip+4": "0000","phone": "3144325599"}
{"name": "FAMILY PHARMACY # #6","address1": "7154 STATE HIGHWAY 14 E","address2": "","city": "SPARTA","state": "MO","zip": "65753","zip+4": "0000","phone": "4176342060"}
{"name": "APRIA HEALTHCARE INC #085","address1": "8248 LACKLAND ROAD","address2": "","city": "SAINT LOUIS","state": "MO","zip": "63114","zip+4": "0000","phone": "8006595681"}
{"name": "WAL-MART PHARMACY #100034","address1": "2250 LINCOLN AVENUE","address2": "","city": "NEVADA","state": "MO","zip": "64772","zip+4": "0000","phone": "4176673011"}
{"name": "MOSER PHARMACY","address1": "900 S MAIN","address2": "","city": "SALEM","state": "MO","zip": "65560","zip+4": "0000","phone": "5737293300"}
{"name": "FAIRVIEW PHARMACY","address1": "101 S FAIRVIEW RD","address2": "","city": "COLUMBIA","state": "MO","zip": "65203","zip+4": "0000","phone": "5738841100"}
{"name": "WALGREEN DRUG STORE #4222","address1": "5400 E INDEPENDENCE","address2": "","city": "KANSAS CITY","state": "MO","zip": "64123","zip+4": "0000","phone": "8162311429"}
{"name": "WALGREEN DRUG STORE #4212","address1": "2501 E LINWOOD","address2": "","city": "KANSAS CITY","state": "MO","zip": "64128","zip+4": "0000","phone": "8168614346"}
{"name": "SCHNUCKS PHARMACY #125","address1": "6920 OLIVE BLVD","address2": "","city": "ST LOUIS","state": "MO","zip": "63130","zip+4": "0000","phone": "3147213276"}
{"name": "ST LOUIS CONNECTCARE PHARMACY","address1": "5535 DELMAR BLVD","address2": "","city": "SAINT LOUIS","state": "MO","zip": "63112","zip+4": "0000","phone": "3148796208"}
{"name": "PRICE CUTTER PHARMACY #31","address1": "2851 W REPUBLIC RD","address2": "","city": "SPRINGFIELD","state": "MO","zip": "65807","zip+4": "0000","phone": "4178898566"}
{"name": "WAL-MART PHARMACY #102616","address1": "1307 HIGHWAY K","address2": "","city": "O FALLON","state": "MO","zip": "63366","zip+4": "0000","phone": "6369809300"}
{"name": "PRICE CUTTER PHARMACY #3","address1": "1720 W GRAND AVE","address2": "","city": "SPRINGFIELD","state": "MO","zip": "65802","zip+4": "0000","phone": "4178747428"}
{"name": "WALGREEN DRUG STORE #4345","address1": "2700 TELEGRAPH RD","address2": "","city": "ST LOUIS","state": "MO","zip": "63125","zip+4": "0000","phone": "3144160361"}
{"name": "PARKERS PHARMACY","address1": "1047 S MAGUIRE","address2": "","city": "WARRENSBURG","state": "MO","zip": "64093","zip+4": "0000","phone": "6607477449"}
{"name": "WALGREEN DRUG STORE #4584","address1": "1993 WENTZVILLE PKWY","address2": "","city": "WENTZVILLE","state": "MO","zip": "63385","zip+4": "0000","phone": "6363325527"}
{"name": "HEALING ARTS PHARMACY","address1": "3250 GORDONVILLE RD","address2": "","city": "CAPE GIRARDEAU","state": "MO","zip": "63703","zip+4": "0000","phone": "5733390999"}
{"name": "PATIENTS FIRST PHARMACY","address1": "406 W 34TH ST","address2": "STE 810","city": "KANSAS CITY","state": "MO","zip": "64111","zip+4": "0000","phone": "8169311113"}
{"name": "WALGREEN DRUG STORE #4224","address1": "1536 E 23RD STREET","address2": "","city": "INDEPENDENCE","state": "MO","zip": "64055","zip+4": "0000","phone": "8162520350"}
{"name": "LAKE REGIONAL PHARMACY - LO","address1": "1870 BAGNELL DAM BLVD","address2": "","city": "LAKE OZARK","state": "MO","zip": "65049","zip+4": "0000","phone": "5739646200"}
{"name": "SCHNUCKS PHARMACY #117","address1": "2030 DORSETT RD","address2": "","city": "MARYLAND HEIGHTS","state": "MO","zip": "63043","zip+4": "0000","phone": "3144345496"}
{"name": "SHOP N SAVE PHARMACY #4533","address1": "7355 MANCHESTER RD","address2": "","city": "MAPLEWOOD","state": "MO","zip": "63143","zip+4": "0000","phone": "3146458495"}
{"name": "WALGREEN DRUG STORE #4235","address1": "7500 WORNALL RD","address2": "","city": "KANSAS CITY","state": "MO","zip": "64114","zip+4": "0000","phone": "8164443941"}
{"name": "TRANSMED PHARMACYINC.","address1": "1001 E 101ST TER STE 240","address2": "","city": "KANSAS CITY","state": "MO","zip": "64131","zip+4": "3368","phone": "8169600353"}
{"name": "WALGREEN DRUG STORE #4466","address1": "3645 FREDERICK AVE","address2": "","city": "ST JOSEPH","state": "MO","zip": "64506","zip+4": "0000","phone": "8162323649"}
{"name": "WALGREEN DRUG STORE #4467","address1": "1205 SULPHUR SPRING RD","address2": "","city": "ST LOUIS","state": "MO","zip": "63021","zip+4": "0000","phone": "6362303726"}
{"name": "TOWN AND COUNTRY PHARMACY","address1": "707 SPECIALTY DR","address2": "","city": "DEXTER","state": "MO","zip": "63841","zip+4": "0000","phone": "5736243733"}
{"name": "SAMS PHARMACY #108296","address1": "3660 EAST SUNSHINE BLVD","address2": "","city": "SPRINGFIELD","state": "MO","zip": "65809","zip+4": "0000","phone": "4178828245"}
{"name": "WESTERN MISSOURI OUTPATIENT PH","address1": "403 BURKARTH RD","address2": "","city": "WARRENSBURG","state": "MO","zip": "64093","zip+4": "0000","phone": "6607472500"}
{"name": "KMART PHARMACY #9332","address1": "3101 S GLENSTONE","address2": "","city": "SPRINGFIELD","state": "MO","zip": "65804","zip+4": "0000","phone": "4178837598"}
{"name": "KMART PHARMACY #9334","address1": "2855 DUNN ROAD","address2": "","city": "FLORISSANT","state": "MO","zip": "63033","zip+4": "0000","phone": "3149219740"}
{"name": "KMART PHARMACY #9353","address1": "155 TWIN CITY MALL","address2": "","city": "CRYSTAL CITY","state": "MO","zip": "63019","zip+4": "0000","phone": "6369314067"}
{"name": "LAKELAND PHARMACY #1","address1": "18192 BUS HWY 13","address2": "UNIT A","city": "BRANSON WEST","state": "MO","zip": "65737","zip+4": "0000","phone": "4172728064"}
{"name": "SCHNUCKS PHARMACY #113","address1": "3431 UNION","address2": "","city": "ST LOUIS","state": "MO","zip": "63115","zip+4": "0000","phone": "3143813007"}
{"name": "COUNTRY MART PHARMACY #2442","address1": "1204 E HWY 32","address2": "","city": "SALEM","state": "MO","zip": "65560","zip+4": "0000","phone": "5737294091"}
{"name": "PLAZA PHARMACY","address1": "1723 BROADWAY STE 110","address2": "","city": "CAPE GIRARDEAU","state": "MO","zip": "63701","zip+4": "0000","phone": "5733317900"}
{"name": "SAMS PHARMACY #108182","address1": "13455 MANCHESTER ROAD","address2": "","city": "SAINT LOUIS","state": "MO","zip": "63131","zip+4": "0000","phone": "3148222006"}
{"name": "WALGREEN DRUG STORE #4834","address1": "1225 UNION BLVD","address2": "","city": "ST LOUIS","state": "MO","zip": "63113","zip+4": "0000","phone": "3143678119"}
{"name": "WALGREEN DRUG STORE #4236","address1": "2261 S STERLING AVE","address2": "","city": "INDEPENDENCE","state": "MO","zip": "64052","zip+4": "0000","phone": "8168333025"}
{"name": "ORCHARD HILLS PHARMACY","address1": "3816A W CHESTNUT EXPRESSWAY","address2": "","city": "SPRINGFIELD","state": "MO","zip": "65802","zip+4": "0000","phone": "4178688288"}
{"name": "COLE CAMP PHARMACY","address1": "106 S MAPLE ST","address2": "","city": "COLE CAMP","state": "MO","zip": "65325","zip+4": "0000","phone": "6606684646"}
{"name": "WAL-MART PHARMACY #102702","address1": "1102 NORTH MASSEY BLVD.","address2": "","city": "NIXA","state": "MO","zip": "65714","zip+4": "0000","phone": "4177240798"}
{"name": "WAL-MART PHARMACY #100020","address1": "1712 EAST OHIO","address2": "","city": "CLINTON","state": "MO","zip": "64735","zip+4": "0000","phone": "6608902587"}
{"name": "FAMILY PHARMACY #7","address1": "180 MALL RD","address2": "PO BOX 507","city": "HOLLISTER","state": "MO","zip": "65672","zip+4": "0000","phone": "4173349006"}
{"name": "CVS PHARMACY #05635","address1": "11124 HOLMES RD","address2": "","city": "KANSAS CITY","state": "MO","zip": "64131","zip+4": "0000","phone": "8169423262"}
{"name": "APOTHECARE HEALTH SERVICES INC","address1": "103D S MAPLE ST","address2": "","city": "ELDON","state": "MO","zip": "65026","zip+4": "0000","phone": "5733925355"}
{"name": "WALGREEN DRUG STORE #4701","address1": "16105 MANCHESTER RD","address2": "","city": "ELLISVILLE","state": "MO","zip": "63011","zip+4": "0000","phone": "6363916914"}
{"name": "WALGREEN DRUG STORE #4970","address1": "2310 S OLD HWY 94","address2": "","city": "ST CHARLES","state": "MO","zip": "63303","zip+4": "0000","phone": "6364777702"}
{"name": "WALGREEN DRUG STORE #4210","address1": "1100 E 63RD ST","address2": "","city": "KANSAS CITY","state": "MO","zip": "64110","zip+4": "0000","phone": "8168228981"}
{"name": "WALGREEN DRUG STORE #4866","address1": "15390 NEW HALLS FERRY RD","address2": "","city": "FLORISSANT","state": "MO","zip": "63031","zip+4": "0000","phone": "3148318556"}
{"name": "TARGET PHARMACY #1102","address1": "25 BRENTWOOD PROMENADE","address2": "","city": "BRENTWOOD","state": "MO","zip": "63144","zip+4": "0000","phone": "3149181939"}
{"name": "TARGET PHARMACY #1177","address1": "8420 N MADISON AVE","address2": "","city": "KANSAS CITY","state": "MO","zip": "64155","zip+4": "0000","phone": "8164368025"}
{"name": "CVS PHARMACY #05645","address1": "930 N BELT HWY","address2": "","city": "SAINT JOSEPH","state": "MO","zip": "64506","zip+4": "0000","phone": "8162331353"}
{"name": "SCHNUCKS PHARMACY #719","address1": "2073 WASHINGTON CROSSING","address2": "","city": "WASHINGTON","state": "MO","zip": "63090","zip+4": "0000","phone": "6362394120"}
{"name": "WALGREEN DRUG STORE #4204","address1": "401 NE BARRY RD","address2": "","city": "KANSAS CITY","state": "MO","zip": "64155","zip+4": "2878","phone": "8164368147"}
{"name": "WALGREEN DRUG STORE #4972","address1": "3937 VOGEL RD","address2": "","city": "ARNOLD","state": "MO","zip": "63010","zip+4": "0000","phone": "6362827956"}
{"name": "WAL-MART PHARMACY #100122","address1": "3051 EAST JACKSON BLVD","address2": "","city": "JACKSON","state": "MO","zip": "63755","zip+4": "0000","phone": "5732047360"}
{"name": "WALGREEN DRUG STORE #4825","address1": "8000 ST CHARLES ROCK RD","address2": "","city": "ST LOUIS","state": "MO","zip": "63114","zip+4": "0000","phone": "3144261991"}
{"name": "WAYNE L MORTON MD","address1": "101 GIESLER DR","address2": "","city": "OSCEOLA","state": "MO","zip": "64776","zip+4": "0000","phone": "4176468123"}
{"name": "PRICE CUTTER PHARMACY #15","address1": "708 S ELLIOTT","address2": "","city": "AURORA","state": "MO","zip": "65605","zip+4": "0000","phone": "4176780493"}
{"name": "HY VEE PHARMACY #1034","address1": "1307 E NORTH AVENUE","address2": "","city": "BELTON","state": "MO","zip": "64012","zip+4": "0000","phone": "8163180404"}
{"name": "SCHNUCKS PHARMACY #180","address1": "10275 CLAYTON","address2": "","city": "ST LOUIS","state": "MO","zip": "63124","zip+4": "0000","phone": "3149830142"}
{"name": "WALGREEN DRUG STORE #4530","address1": "9430 BLUE RIDGE BLVD","address2": "","city": "KANSAS CITY","state": "MO","zip": "64138","zip+4": "3846","phone": "8167655265"}
{"name": "GERBES PHARMACY #615111","address1": "205 E NIFONG BLVD","address2": "","city": "COLUMBIA","state": "MO","zip": "65203","zip+4": "0000","phone": "5734422951"}
{"name": "LAKELAND PHARMACY #2","address1": "1494 STATE HWY 248","address2": "STE D","city": "BRANSON","state": "MO","zip": "65616","zip+4": "0000","phone": "4173364701"}
{"name": "PRICE CUTTER PHARMACY #32","address1": "2525 W COLLEGE","address2": "","city": "SPRINGFIELD","state": "MO","zip": "65802","zip+4": "0000","phone": "4178622021"}
{"name": "KILGORES MEDICAL PHARMACY #2","address1": "1608 CHAPEL HILL","address2": "STE E","city": "COLUMBIA","state": "MO","zip": "65203","zip+4": "0000","phone": "5734474444"}
{"name": "WAL-MART PHARMACY #100243","address1": "1971 WENTZVILLE PKWY","address2": "","city": "WENTZVILLE","state": "MO","zip": "63385","zip+4": "0000","phone": "6363275334"}
{"name": "TARGET PHARMACY #1201","address1": "17810 E 39TH STREET","address2": "","city": "INDEPENDENCE","state": "MO","zip": "64055","zip+4": "0000","phone": "8164783645"}
{"name": "PRICECUTTER PHARMACY #21","address1": "1223 W CENTRAL","address2": "","city": "CARTHAGE","state": "MO","zip": "64836","zip+4": "0000","phone": "4172377400"}
{"name": "COUNTRY MART PHARMACY #2425","address1": "43 E HIGHWAY 8","address2": "PO BOX 561","city": "STEELVILLE","state": "MO","zip": "65565","zip+4": "0000","phone": "5737754666"}
{"name": "WALGREEN DRUG STORE #4406","address1": "2630 NE VIVION ROAD","address2": "","city": "KANSAS CITY","state": "MO","zip": "64119","zip+4": "0000","phone": "8164597454"}
{"name": "SINKS PHARMACY SOUTH","address1": "1024 SOUTH BISHOP","address2": "","city": "ROLLA","state": "MO","zip": "65401","zip+4": "0000","phone": "5733084899"}
{"name": "WALGREEN DRUG STORE #5288","address1": "1525 W KEARNEY ST","address2": "","city": "SPRINGFIELD","state": "MO","zip": "65803","zip+4": "1353","phone": "4178626388"}
{"name": "HY VEE PHARMACY #1406","address1": "1217 S MAIN STREET","address2": "","city": "MARYVILLE","state": "MO","zip": "64468","zip+4": "0000","phone": "6605822199"}
{"name": "PRESCRIPTIONS PLUS PHARMACY","address1": "212 HOSPITAL LANE","address2": "STE 102","city": "PERRYVILLE","state": "MO","zip": "63775","zip+4": "0000","phone": "5735474960"}
{"name": "WALGREEN DRUG STORE #5047","address1": "2202 CHAMBERS RD","address2": "","city": "ST LOUIS","state": "MO","zip": "63136","zip+4": "0000","phone": "3143881636"}
{"name": "TARGET PHARMACY #1241","address1": "2300 HIGHWAY K","address2": "","city": "OFALLON","state": "MO","zip": "63366","zip+4": "0000","phone": "6363791918"}
{"name": "WALGREEN DRUG STORE #5286","address1": "1930 W GRAND ST","address2": "","city": "SPRINGFIELD","state": "MO","zip": "65802","zip+4": "0429","phone": "4178637192"}
{"name": "WAL-MART PHARMACY #102600","address1": "100 THF BLVD","address2": "","city": "CHESTERFIELD","state": "MO","zip": "63005","zip+4": "0000","phone": "6365364604"}
{"name": "DIERBERGS DEER CREEK CROSSING","address1": "2979 HIGHWAY K","address2": "","city": "OFALLON","state": "MO","zip": "63366","zip+4": "0000","phone": "6363798910"}
{"name": "MIDWEST LONG TERM CARE SERVICE","address1": "753 GODDARD AVE","address2": "","city": "CHESTERFIELD","state": "MO","zip": "63005","zip+4": "0000","phone": "6367280300"}
{"name": "WALGREEN DRUG STORE #5277","address1": "1400 E NORTH AVE","address2": "","city": "BELTON","state": "MO","zip": "64012","zip+4": "0000","phone": "8163223365"}
{"name": "WALGREEN DRUG STORE #5357","address1": "9300 E GREGORY BLVD","address2": "","city": "RAYTOWN","state": "MO","zip": "64133","zip+4": "0000","phone": "8163567372"}
{"name": "WALGREEN DRUG STORE #5287","address1": "1155 E ST LOUIS ST","address2": "","city": "SPRINGFIELD","state": "MO","zip": "65806","zip+4": "2527","phone": "4178625782"}
{"name": "WALGREEN DRUG STORE #5304","address1": "2933 S KINGSHIGHWAY BLVD","address2": "","city": "ST LOUIS","state": "MO","zip": "63139","zip+4": "0000","phone": "3147732473"}
{"name": "SENIOR CARE PHARMACY","address1": "3230 S WISCONSIN AVE","address2": "STE F","city": "JOPLIN","state": "MO","zip": "64804","zip+4": "0000","phone": "4176268180"}
{"name": "WALGREEN DRUG STORE #4989","address1": "2681 W REPUBLIC RD","address2": "","city": "SPRINGFIELD","state": "MO","zip": "65804","zip+4": "0000","phone": "4178778780"}
{"name": "WAL-MART PHARMACY #102856","address1": "201 SOUTH SALEM STREET","address2": "","city": "OAK GROVE","state": "MO","zip": "64075","zip+4": "0000","phone": "8166907606"}
{"name": "MUSTANG DRUG","address1": "704C S HWY 59","address2": "","city": "ANDERSON","state": "MO","zip": "64831","zip+4": "0000","phone": "4178457799"}
{"name": "SHOP N SAVE PHARMACY #4542","address1": "60 HARVESTER SQUARE","address2": "","city": "ST CHARLES","state": "MO","zip": "63303","zip+4": "0000","phone": "6364413300"}
{"name": "DRUG WAREHOUSE #37","address1": "1636 SOUTH MADISON","address2": "","city": "WEBB CITY","state": "MO","zip": "64870","zip+4": "0000","phone": "4176737730"}
{"name": "WALGREEN DRUG STORE #4439","address1": "1191 W KANSAS AVE","address2": "","city": "LIBERTY","state": "MO","zip": "64068","zip+4": "0000","phone": "8167819155"}
{"name": "WALGREEN DRUG STORE #4211","address1": "4630 TROOST AVE","address2": "","city": "KANSAS CITY","state": "MO","zip": "64110","zip+4": "0000","phone": "8169314911"}
{"name": "WALGREEN DRUG STORE #5247","address1": "3915 S NOLAND RD","address2": "","city": "INDEPENDENCE","state": "MO","zip": "64055","zip+4": "3346","phone": "8162547928"}
{"name": "WHALEYS PRO CARE SERVICES","address1": "630 B EAST HIGH ST","address2": "","city": "JEFFERSON CITY","state": "MO","zip": "65101","zip+4": "0000","phone": "5736322001"}
{"name": "WALGREEN DRUG STORE #5285","address1": "5050 LEMAY FERRY RD","address2": "","city": "ST LOUIS","state": "MO","zip": "63129","zip+4": "0000","phone": "3144161232"}
{"name": "OMNICARE PHARMACY OF THE MIDWE","address1": "453 E 111TH ST","address2": "","city": "KANSAS CITY","state": "MO","zip": "64131","zip+4": "0000","phone": "9134910101"}
{"name": "SUN FRESH PHARMACY #156","address1": "10225 N OAK TRFWY","address2": "","city": "KANSAS CITY","state": "MO","zip": "64155","zip+4": "0000","phone": "8167343600"}
{"name": "THE MEDICINE SHOPPE #1696","address1": "635 S STURGEON ST","address2": "","city": "MONTGOMERY CITY","state": "MO","zip": "63361","zip+4": "0000","phone": "5735641111"}
{"name": "SAMS PHARMACY #106252","address1": "196 THF BLVD","address2": "","city": "CHESTERFIELD","state": "MO","zip": "63005","zip+4": "0000","phone": "6367280372"}
{"name": "WALGREEN DRUG STORE #5003","address1": "13992 MANCHESTER","address2": "","city": "ST LOUIS","state": "MO","zip": "63011","zip+4": "0000","phone": "6362279169"}
{"name": "WALGREEN DRUG STORE #5624","address1": "600 W KARSCH","address2": "","city": "FARMINGTON","state": "MO","zip": "63640","zip+4": "0000","phone": "5737471528"}
{"name": "PRICE CHOPPER #36","address1": "6475 N PROSPECT","address2": "","city": "GLADSTONE","state": "MO","zip": "64119","zip+4": "0000","phone": "8164530503"}
{"name": "COURT SQUARE PHARMACY","address1": "101 E THIRD ST","address2": "","city": "GAINESVILLE","state": "MO","zip": "65655","zip+4": "0000","phone": "4176792650"}
{"name": "WALGREEN DRUG STORE #5928","address1": "1011 W MACARTHUR","address2": "","city": "WEBB CITY","state": "MO","zip": "64870","zip+4": "0000","phone": "4176731481"}
{"name": "WALGREEN DRUG STORE #5278","address1": "3845 BROADWAY BLVD","address2": "","city": "KANSAS CITY","state": "MO","zip": "64111","zip+4": "0000","phone": "8165616980"}
{"name": "WAL-MART PHARMACY #102694","address1": "1202 SO KIRKWOOD ROAD","address2": "","city": "KIRKWOOD","state": "MO","zip": "63122","zip+4": "0000","phone": "3148359409"}
{"name": "50 PLUS LTC PHARMACY","address1": "209 1/2 W LEXINGTON","address2": "","city": "INDEPENDENCE","state": "MO","zip": "64050","zip+4": "0000","phone": "8168334400"}
{"name": "TARGET PHARMACY #1278","address1": "3849 VOGEL RD","address2": "","city": "ARNOLD","state": "MO","zip": "63010","zip+4": "0000","phone": "6362871339"}
{"name": "TARGET PHARMACY #1279","address1": "1042 SOUTH KIRKWOOD","address2": "","city": "KIRKWOOD","state": "MO","zip": "63122","zip+4": "0000","phone": "3148224865"}
{"name": "TARGET PHARMACY #1280","address1": "3881 MEXICO RD","address2": "","city": "ST CHARLES","state": "MO","zip": "63303","zip+4": "0000","phone": "6369223064"}
{"name": "FAMILY CARE PHARMACY","address1": "3023 N BALLAS ROAD","address2": "SUITE 100D","city": "ST LOUIS","state": "MO","zip": "63131","zip+4": "2330","phone": "3149967501"}
{"name": "SCHNUCKS PHARMACY #127","address1": "3900 VOGEL RD","address2": "","city": "ARNOLD","state": "MO","zip": "63010","zip+4": "0000","phone": "6362827555"}
{"name": "BRANSON DRUG MEDICAL PLAZA","address1": "245 SKAGGS RD","address2": "SUITE 1007","city": "BRANSON","state": "MO","zip": "65616","zip+4": "0000","phone": "4173320565"}
{"name": "WALGREEN DRUG STORE #5289","address1": "106 N MASSEY","address2": "","city": "NIXA","state": "MO","zip": "65714","zip+4": "0000","phone": "4177249345"}
{"name": "SAMS PHARMACY #108251","address1": "2855 VETERANS MEMORIAL PARKWAY","address2": "","city": "SAINT CHARLES","state": "MO","zip": "63303","zip+4": "0000","phone": "6369251143"}
{"name": "PRICE CHOPPER PHARMACY #157","address1": "937 NE WOODS CHAPEL RD","address2": "","city": "LEES SUMMIT","state": "MO","zip": "64064","zip+4": "0000","phone": "8162467300"}
{"name": "SHOP N SAVE PHARMACY #4541","address1": "45 GRAVOI BLUFFS PLZ DR","address2": "","city": "FENTON","state": "MO","zip": "63026","zip+4": "0000","phone": "6363435488"}
{"name": "FOREST CITY MEDICAL CTR PHCY","address1": "1000 B N JEFFERSON","address2": "","city": "ST JAMES","state": "MO","zip": "65559","zip+4": "0000","phone": "5732652525"}
{"name": "WALGREEN DRUG STORE #5974","address1": "1305 JUNGERMAN RD","address2": "","city": "ST PETERS","state": "MO","zip": "63376","zip+4": "0000","phone": "6364413831"}
{"name": "WALGREEN DRUG STORE #6059","address1": "1003 WOLFRUM RD","address2": "","city": "ST CHARLES","state": "MO","zip": "63304","zip+4": "0000","phone": "6363000394"}
{"name": "IMMEDIATE HEALTHCARE KINGS HIG","address1": "1702 N KINGS HWY","address2": "","city": "CAPE GIRARDEAU","state": "MO","zip": "63701","zip+4": "0000","phone": "5733392000"}
{"name": "WALGREEN DRUG STORE #5552","address1": "920 N MAIN ST","address2": "","city": "OFALLON","state": "MO","zip": "63366","zip+4": "0000","phone": "6363792634"}
{"name": "SAMS PHARMACY #108207","address1": "5110 NORTH OAK TRAFFICWAY","address2": "","city": "KANSAS CITY","state": "MO","zip": "64118","zip+4": "0000","phone": "8164527401"}
{"name": "SAMS PHARMACY #108125","address1": "10735 W FLORISSANT AVE","address2": "","city": "FERGUSON","state": "MO","zip": "63136","zip+4": "0000","phone": "3145223420"}
{"name": "DIERBERGS FENTON CROSSING PHAR","address1": "450 OLD SMIZER MILL ROAD","address2": "","city": "FENTON","state": "MO","zip": "63026","zip+4": "0000","phone": "6363492666"}
{"name": "COSTCO PHARMACY #375","address1": "241 EAST LINWOOD BLVD","address2": "","city": "KANSAS CITY","state": "MO","zip": "64111","zip+4": "0000","phone": "8162160002"}
{"name": "SHOP N SAVE PHARMACY #4540","address1": "3740 MONTICELLO PLAZA DR","address2": "","city": "ST CHARLES","state": "MO","zip": "63304","zip+4": "0000","phone": "6363000629"}
{"name": "ROCKHILL LTC PHARMACY","address1": "4235 LOCUST ST","address2": "","city": "KANSAS CITY","state": "MO","zip": "64110","zip+4": "0000","phone": "8167990123"}
{"name": "PREFERRED PHARMACY SERVICES","address1": "810 W 35TH ST","address2": "STE 102","city": "HIGGINSVILLE","state": "MO","zip": "64037","zip+4": "0000","phone": "6605842110"}
{"name": "COSTCO PHARMACY #382","address1": "200 COSTCO WAY","address2": "","city": "ST PETERS","state": "MO","zip": "63376","zip+4": "0000","phone": "6369704003"}
{"name": "WAL-MART PHARMACY #102857","address1": "8551 N.BOARDWALK AVE.","address2": "","city": "KANSAS CITY","state": "MO","zip": "64154","zip+4": "0000","phone": "8167412214"}
{"name": "TARGET PHARMACY #1314","address1": "197 GRAVOIS BLUFF PLAZA DR","address2": "","city": "FENTON","state": "MO","zip": "63026","zip+4": "0000","phone": "6363267508"}
{"name": "WAL-MART PHARMACY #102994","address1": "3022 SOUTH BELT HWY","address2": "","city": "ST JOSEPH","state": "MO","zip": "64503","zip+4": "0000","phone": "8162329096"}
{"name": "NORTH TOWNE FAMILY PHARMACY","address1": "1600 N MAIN","address2": "","city": "MOUNTAIN GROVE","state": "MO","zip": "65711","zip+4": "0000","phone": "4179269655"}
{"name": "SAMS PHARMACY #108293","address1": "4100 BOLGER ROAD","address2": "","city": "INDEPENDENCE","state": "MO","zip": "64055","zip+4": "0000","phone": "8163502931"}
{"name": "WALGREEN DRUG STORE #5873","address1": "17811 E US HWY 24","address2": "","city": "INDEPENDENCE","state": "MO","zip": "64056","zip+4": "0000","phone": "8162575202"}
{"name": "WALGREEN DRUG STORE #5513","address1": "11590 GRAVOIS RD","address2": "","city": "ST LOUIS","state": "MO","zip": "63126","zip+4": "0000","phone": "3148496214"}
{"name": "HY VEE PHARMACY #1076","address1": "3100 BROADWAY W","address2": "","city": "COLUMBIA","state": "MO","zip": "65203","zip+4": "0000","phone": "5734472144"}
{"name": "WALGREEN DRUG STORE #6286","address1": "9495 MEXICO RD","address2": "","city": "OFALLON","state": "MO","zip": "63366","zip+4": "0000","phone": "6363794130"}
{"name": "D AND S DRUG","address1": "1226 W BUS HWY 60","address2": "","city": "DEXTER","state": "MO","zip": "63841","zip+4": "0000","phone": "5736144243"}
{"name": "TARGET PHARMACY #1388","address1": "4375 CHOUTEAU TRAFFIC WAY","address2": "","city": "KANSAS CITY","state": "MO","zip": "64117","zip+4": "0000","phone": "8164528079"}
{"name": "WALGREEN DRUG STORE #4702","address1": "1000 CROSSROADS PLACE","address2": "","city": "HIGH RIDGE","state": "MO","zip": "63049","zip+4": "0000","phone": "6363762358"}
{"name": "GREEN HILLS PHARMACY","address1": "206 N MAIN ST","address2": "","city": "BROOKFIELD","state": "MO","zip": "64628","zip+4": "0000","phone": "6602582122"}
{"name": "FAMILY PHARMACY #9","address1": "285 US HWY 60 W","address2": "","city": "REPUBLIC","state": "MO","zip": "65738","zip+4": "0000","phone": "4177328070"}
{"name": "COSTCO PHARMACY #373","address1": "19040 E VALLEY VIEW PKWY","address2": "","city": "INDEPENDENCE","state": "MO","zip": "64055","zip+4": "0000","phone": "8162002002"}
{"name": "WALGREEN DRUG STORE #6247","address1": "3801 OLD HWY 94","address2": "","city": "ST PETERS","state": "MO","zip": "63304","zip+4": "0000","phone": "6369221215"}
{"name": "PRICE CHOPPER #11","address1": "4820 N OAK TRAFFICWAY","address2": "","city": "KANSAS CITY","state": "MO","zip": "64118","zip+4": "0000","phone": "8164528845"}
{"name": "SHOP N SAVE PHARMACY #4537","address1": "1253 WATERTOWER PL","address2": "","city": "ARNOLD","state": "MO","zip": "63010","zip+4": "0000","phone": "6362820591"}
{"name": "STEELVILLE DRUG","address1": "503 W MAIN","address2": "PO BOX AB","city": "STEELVILLE","state": "MO","zip": "65565","zip+4": "0000","phone": "5737752900"}
{"name": "SHOP N SAVE PHARMACY #4544","address1": "7057 CHIPPEWA","address2": "","city": "SHREWSBURY","state": "MO","zip": "63119","zip+4": "0000","phone": "3146451371"}
{"name": "WALGREEN DRUG STORE #6492","address1": "11404 ST CHARLES ROCK RD","address2": "","city": "BRIDGETON","state": "MO","zip": "63044","zip+4": "0000","phone": "3147701979"}
{"name": "LAKE REGIONAL PHARMACY - OBMP","address1": "1057 MEDICAL PARK DR","address2": "STE B","city": "OSAGE BEACH","state": "MO","zip": "65065","zip+4": "0000","phone": "5733022700"}
{"name": "DIERBERGS BRENTWOOD POINTE PHA","address1": "8450 EAGER ROAD","address2": "","city": "ST LOUIS","state": "MO","zip": "63144","zip+4": "0000","phone": "3149629036"}
{"name": "WALGREEN DRUG STORE #5717","address1": "890 WASHINGTON CORNERS","address2": "","city": "WASHINGTON","state": "MO","zip": "63090","zip+4": "0000","phone": "6362394281"}
{"name": "HY VEE PHARMACY #1036","address1": "1104 S 25TH STREET","address2": "BOX 47","city": "BETHANY","state": "MO","zip": "64424","zip+4": "0000","phone": "6604258171"}
{"name": "MAIN STREET PHARMACY","address1": "117 E MAIN ST","address2": "","city": "EAST PRAIRIE","state": "MO","zip": "63845","zip+4": "0000","phone": "5736499229"}
{"name": "SAMS PHARMACY #104741","address1": "10248 BIG BEND BLVD","address2": "","city": "CRESTWOOD","state": "MO","zip": "63122","zip+4": "0000","phone": "3149656737"}
{"name": "HY VEE CLINIC #1036","address1": "710 MAIN","address2": "","city": "PRINCETON","state": "MO","zip": "64673","zip+4": "0000","phone": "6607487730"}
{"name": "WALGREEN DRUG STORE #5146","address1": "1000 CLUB VILLAGE DRIVE","address2": "","city": "COLUMBIA","state": "MO","zip": "65203","zip+4": "0000","phone": "5734498370"}
{"name": "TARGET PHARMACY #1392","address1": "1850 NORTHWEST CHIPMAN ROAD","address2": "","city": "LEES SUMMIT","state": "MO","zip": "64081","zip+4": "0000","phone": "8165241753"}
{"name": "SPRINGFIELD FAMILY MEDICAL WAL","address1": "4049 S CAMPBELL","address2": "","city": "SPRINGFIELD","state": "MO","zip": "65807","zip+4": "0000","phone": "4178905550"}
{"name": "WAL-MART PHARMACY #100609","address1": "3650 STAR DUST DRIVE","address2": "","city": "HANNIBAL","state": "MO","zip": "63401","zip+4": "0000","phone": "5734060682"}
{"name": "WALGREEN DRUG STORE #6801","address1": "1780 ZUMBEHL","address2": "","city": "ST CHARLES","state": "MO","zip": "63303","zip+4": "0000","phone": "6367232813"}
{"name": "STADIUM PHARMACY","address1": "4811 S ARROWHEAD DR","address2": "","city": "INDEPENDENCE","state": "MO","zip": "64055","zip+4": "0000","phone": "8163564600"}
{"name": "WALGREEN DRUG STORE #5145","address1": "222 E BROADWAY","address2": "","city": "COLUMBIA","state": "MO","zip": "65203","zip+4": "0000","phone": "5738742993"}
{"name": "HOMETOWN PHARMACY","address1": "601 LOCUST ST","address2": "","city": "CHILLICOTHE","state": "MO","zip": "64601","zip+4": "0000","phone": "6606467455"}
{"name": "REGIONAL PHARMACY","address1": "1328 E EVERGREEN","address2": "","city": "SPRINGFIELD","state": "MO","zip": "65803","zip+4": "0000","phone": "4178896357"}
{"name": "SMITTYS PRICE CUTTER PHARMACY","address1": "1850 MAIDEN LN","address2": "","city": "JOPLIN","state": "MO","zip": "64801","zip+4": "0000","phone": "4176260851"}
{"name": "SMITTYS PRICE CUTTER PHARMACY","address1": "300 ICHORD CTR","address2": "","city": "WAYNESVILLE","state": "MO","zip": "65583","zip+4": "0000","phone": "5737748469"}
{"name": "PRICE CUTTER PLUS PHARMACY #55","address1": "400 N MASSEY BLVD","address2": "","city": "NIXA","state": "MO","zip": "65714","zip+4": "0000","phone": "4177256606"}
{"name": "PRICECUTTER PHARMACY #51","address1": "4228 S NATIONAL","address2": "","city": "SPRINGFIELD","state": "MO","zip": "65810","zip+4": "0000","phone": "4178896828"}
{"name": "PRICECUTTER PHARMACY #50","address1": "3260 E BATTLEFIELD","address2": "","city": "SPRINGFIELD","state": "MO","zip": "65804","zip+4": "0000","phone": "4178875518"}
{"name": "PRICECUTTER PLUS PHARMACY #52","address1": "2021 W REPUBLIC RD","address2": "","city": "SPRINGFIELD","state": "MO","zip": "65807","zip+4": "0000","phone": "4178234875"}
{"name": "COSENTINOS PRICE CHOPPER PHARM","address1": "1030 W 103RD ST","address2": "","city": "KANSAS CITY","state": "MO","zip": "64114","zip+4": "0000","phone": "8167770533"}
{"name": "PLEASANT HILL DRUG STORE INC","address1": "1502 N 7 HWY","address2": "","city": "PLEASANT HILL","state": "MO","zip": "64080","zip+4": "0000","phone": "8165404000"}
{"name": "SHOP N SAVE PHARMACY #4529","address1": "10634 ST CHARLES ROCK RD","address2": "","city": "ST ANN","state": "MO","zip": "63074","zip+4": "0000","phone": "3144264180"}
{"name": "TARGET PHARMACY #1455","address1": "9220 NE BARRY ROAD","address2": "","city": "LIBERTY","state": "MO","zip": "64157","zip+4": "0000","phone": "8167812407"}
{"name": "FAMILY PHARMACY HEALTHCARE SVC","address1": "1152 W JACKSON","address2": "","city": "OZARK","state": "MO","zip": "65721","zip+4": "0000","phone": "4175816813"}
{"name": "SCHNUCKS PHARMACY #258","address1": "60 HAMPTON VILLAGE","address2": "","city": "ST LOUIS","state": "MO","zip": "63109","zip+4": "0000","phone": "3148327700"}
{"name": "CHOICE PHARMACY SYSTEMS","address1": "6437 N COSBY AVE","address2": "","city": "KANSAS CITY","state": "MO","zip": "64151","zip+4": "0000","phone": "8165054410"}
{"name": "SCHNUCKS PHARMACY #726","address1": "1801 MISSOURI BLVD","address2": "","city": "JEFFERSON CITY","state": "MO","zip": "65109","zip+4": "0000","phone": "5736358910"}
{"name": "SHOP N SAVE PHARMACY #4543","address1": "9070 ST CHARLES ROCK RD","address2": "","city": "ST JOHN","state": "MO","zip": "63114","zip+4": "0000","phone": "3147330607"}
{"name": "COSTCO PHARMACY #368","address1": "4200 RUSTY ROAD","address2": "","city": "ST LOUIS","state": "MO","zip": "63128","zip+4": "0000","phone": "3148947952"}
{"name": "WAL-MART PHARMACY #102955","address1": "1701 WEST 133RD STREET","address2": "","city": "KANSAS CITY","state": "MO","zip": "64145","zip+4": "0000","phone": "8169420476"}
{"name": "CVS PHARMACY #05652","address1": "1545 E 23RD ST","address2": "","city": "INDEPENDENCE","state": "MO","zip": "64055","zip+4": "0000","phone": "8162524267"}
{"name": "TARGET PHARMACY #1353","address1": "40 THF BLVD","address2": "","city": "CHESTERFIELD","state": "MO","zip": "63005","zip+4": "0000","phone": "6365366215"}
{"name": "TARGET PHARMACY #1436","address1": "8509 STATE LINE ROAD","address2": "","city": "WARD PARKWAY","state": "MO","zip": "64114","zip+4": "0000","phone": "8164440019"}
{"name": "TARGET PHARMACY #1509","address1": "4250 RUSTY ROAD","address2": "","city": "STLOUIS","state": "MO","zip": "63128","zip+4": "0000","phone": "3148926428"}
{"name": "SAMS PHARMACY #106415","address1": "3536 HAMMONS BLVD","address2": "","city": "JOPLIN","state": "MO","zip": "64804","zip+4": "0000","phone": "4176243264"}
{"name": "APRIA HEALTHCARE #265","address1": "3930 SOUTH PROVIDENCE RD","address2": "SUITE B","city": "COLUMBIA","state": "MO","zip": "65203","zip+4": "0000","phone": "5732564713"}
{"name": "HY VEE PHARMACY #1552","address1": "201 N BELT HWY","address2": "","city": "ST JOSEPH","state": "MO","zip": "64506","zip+4": "0000","phone": "8162329011"}
{"name": "NORTHWEST PHARMACY SERVICES","address1": "500 1/2 S DAVIS ST","address2": "","city": "HAMILTON","state": "MO","zip": "64644","zip+4": "0000","phone": "8165832881"}
{"name": "SHOP N SAVE PHARMACY #4545","address1": "3865 GRAVOIS AVE","address2": "","city": "ST LOUIS","state": "MO","zip": "63116","zip+4": "0000","phone": "3147710218"}
{"name": "FAMILY PHARMACY #11","address1": "4728 S CAMPBELL","address2": "STE 132","city": "SPRINGFIELD","state": "MO","zip": "65810","zip+4": "0000","phone": "4178237878"}
{"name": "MEDKARE PHARMACY LLC","address1": "8540 BLUE RIDGE BLVD","address2": "","city": "KANSAS CITY","state": "MO","zip": "64138","zip+4": "2959","phone": "8163533314"}
{"name": "ST JOHNS PHARMACY ST ROBERT","address1": "586 OLD RTE 66","address2": "","city": "ST ROBERT","state": "MO","zip": "65584","zip+4": "0000","phone": "5733362181"}
{"name": "SHOP N SAVE PHARMACY #4538","address1": "10805 OLD HALLS FERRY RD","address2": "","city": "ST LOUIS","state": "MO","zip": "63136","zip+4": "0000","phone": "3148673024"}
{"name": "FAMILY PHARMACY #8","address1": "520 E JACKSON","address2": "","city": "WILLARD","state": "MO","zip": "65781","zip+4": "0000","phone": "4177420029"}
{"name": "TARGET PHARMACY #0026","address1": "15025 MANCHESTER ROAD","address2": "","city": "BALLWIN","state": "MO","zip": "63011","zip+4": "0000","phone": "6362279436"}
{"name": "TARGET PHARMACY #1538","address1": "1106 E NORTH AVENUE","address2": "","city": "BELTON","state": "MO","zip": "64012","zip+4": "0000","phone": "8163314325"}
{"name": "MEDICINE CABINET","address1": "105 PROGRESS PARKWAY","address2": "","city": "SULLIVAN","state": "MO","zip": "63080","zip+4": "0000","phone": "5738603600"}
{"name": "WALGREEN DRUG STORE #1235","address1": "621 N MAGUIRE ST","address2": "","city": "WARRENSBURG","state": "MO","zip": "64093","zip+4": "0000","phone": "6607476510"}
{"name": "SHOP N SAVE PHARMACY #4539","address1": "49 N FLORISSANT RD","address2": "","city": "FERGUSON","state": "MO","zip": "63135","zip+4": "0000","phone": "3145221071"}
{"name": "WALGREEN DRUG STORE #7428","address1": "807 S LIMIT AVE","address2": "","city": "SEDALIA","state": "MO","zip": "65301","zip+4": "0000","phone": "6608267464"}
{"name": "FAMILY CARE HEALTH CENTERS PHA","address1": "401 HOLLY HILLS AVE","address2": "","city": "ST LOUIS","state": "MO","zip": "63111","zip+4": "0000","phone": "3143535190"}
{"name": "PRICE CUTTER PLUS PHARMACY #4","address1": "5504 N 17TH ST","address2": "","city": "OZARK","state": "MO","zip": "65721","zip+4": "0000","phone": "4175819288"}
{"name": "WALGREEN DRUG STORE #4220","address1": "14950 CLAYTON RD","address2": "","city": "CHESTERFIELD","state": "MO","zip": "63017","zip+4": "0000","phone": "6365277254"}
{"name": "WOODS SUPERMARKET PHARMACY #47","address1": "703 E COLLEGE ST","address2": "","city": "BOLIVAR","state": "MO","zip": "65613","zip+4": "0000","phone": "4173265208"}
{"name": "A & R PHARMACY II INC","address1": "445 E MILL ST","address2": "SUITE A","city": "LIBERTY","state": "MO","zip": "64068","zip+4": "0000","phone": "8164159995"}
{"name": "KANSAS CITY CANCER CENTERS EAS","address1": "4881 NE GOODVIEW CIRCLE","address2": "","city": "LEES SUMMIT","state": "MO","zip": "64064","zip+4": "0000","phone": "8163505844"}
{"name": "WALGREEN DRUG STORE #7551","address1": "2620 S BELT HWY","address2": "","city": "ST JOSEPH","state": "MO","zip": "64503","zip+4": "0000","phone": "8162337743"}
{"name": "CVS PHARMACY #05624","address1": "4149 N OAK TRAFFICWAY","address2": "","city": "KANSAS CITY","state": "MO","zip": "64116","zip+4": "0000","phone": "8164545541"}
{"name": "WALGREEN DRUG STORE #6711","address1": "7422 HIGHWAY N","address2": "","city": "OFALLON","state": "MO","zip": "63366","zip+4": "0000","phone": "6366255010"}
{"name": "THE MED STATION","address1": "545 E 1ST LANE","address2": "","city": "LAMAR","state": "MO","zip": "64759","zip+4": "0000","phone": "4176810999"}
{"name": "ST LOUIS PHARMACEUTICAL SVCS L","address1": "12855 N 4OTH DR","address2": "SUITE 200","city": "ST LOUIS","state": "MO","zip": "63141","zip+4": "0000","phone": "3145235500"}
{"name": "PRICE CHOPPER PHARMACY #171","address1": "251 SW GREENWICH DR","address2": "","city": "LEES SUMMIT","state": "MO","zip": "64082","zip+4": "0000","phone": "8167442104"}
{"name": "TARGET PHARMACY #1840","address1": "1201 W 136TH ST","address2": "","city": "KANSAS CITY","state": "MO","zip": "64145","zip+4": "0000","phone": "8164120109"}
{"name": "WALGREEN DRUG STORE #5363","address1": "5414 TELEGRAPH ROAD","address2": "","city": "ST LOUIS COUNTY","state": "MO","zip": "63129","zip+4": "0000","phone": "3144167367"}
{"name": "SMITTYS PHARMACY #10","address1": "601 S JEFFERSON","address2": "","city": "LEBANON","state": "MO","zip": "65536","zip+4": "3665","phone": "4175883313"}
{"name": "PAMIDA PHARMACY #866","address1": "502 E ROSS ST","address2": "","city": "PALMYRA","state": "MO","zip": "63461","zip+4": "1739","phone": "5737691115"}
{"name": "WAL-MART PHARMACY #100250","address1": "103 WEST POLK ST","address2": "","city": "WARSAW","state": "MO","zip": "65355","zip+4": "0000","phone": "6604382207"}
{"name": "PRICE CUTTER PHARMACY #11","address1": "1730 S CAMPBELL","address2": "","city": "SPRINGFIELD","state": "MO","zip": "65807","zip+4": "0000","phone": "4178626900"}
{"name": "CVS PHARMACY #05724","address1": "13101 STATE LINE RD","address2": "","city": "KANSAS CITY","state": "MO","zip": "64145","zip+4": "0000","phone": "8169422438"}
{"name": "ST JOHNS MERCY PHARMACY WASHIN","address1": "851 E 5TH ST","address2": "STE 104","city": "WASHINGTON","state": "MO","zip": "63090","zip+4": "1916","phone": "6363907333"}
{"name": "WALGREEN DRUG STORE #7789","address1": "3200 SW STATE ROUTE 7","address2": "","city": "BLUE SPRINGS","state": "MO","zip": "64014","zip+4": "0000","phone": "8162208562"}
{"name": "HY VEE PHARMACY 2 #1321","address1": "207 NE ENGLEWOOD ROAD","address2": "","city": "KANSAS CITY","state": "MO","zip": "64118","zip+4": "0000","phone": "8164544763"}
{"name": "WALGREEN DRUG STORE #7761","address1": "1718 CATLIN RD","address2": "","city": "BARNHART","state": "MO","zip": "63012","zip+4": "0000","phone": "6364616030"}
{"name": "ALPS PHARMACY #1","address1": "2650 W KEARNEY","address2": "STE 116","city": "SPRINGFIELD","state": "MO","zip": "65803","zip+4": "0000","phone": "4178651547"}
{"name": "DIERBERGS TOWN CENTER PHARMACY","address1": "2460 TAYLOR ROAD","address2": "","city": "WILDWOOD","state": "MO","zip": "63040","zip+4": "0000","phone": "6364587450"}
{"name": "RC LONG TERM CARE PHARMACY","address1": "157 S JEFFERSON","address2": "","city": "MARSHALL","state": "MO","zip": "65340","zip+4": "0000","phone": "6608865534"}
{"name": "AUBURN PHARMACY","address1": "9107 NW 45 HWY","address2": "","city": "PARKVILLE","state": "MO","zip": "64152","zip+4": "0000","phone": "8165872211"}
{"name": "HOMETOWN PHARMACY LLC","address1": "408 W BUCHANAN","address2": "SUITE A","city": "CALIFORNIA","state": "MO","zip": "65018","zip+4": "0000","phone": "5737962225"}
{"name": "ORTHOPEDIC ASSOCIATES","address1": "1050 DES PERES","address2": "STE 100","city": "ST LOUIS","state": "MO","zip": "63131","zip+4": "0000","phone": "3147143122"}
{"name": "WALGREEN DRUG STORE #7901","address1": "1050 US HIGHWAY 60 E","address2": "","city": "REPUBLIC","state": "MO","zip": "65738","zip+4": "0000","phone": "4177327829"}
{"name": "HY VEE PHARMACY 2 #1261","address1": "4545 SOUTH NOLAND ROAD","address2": "","city": "INDEPENDENCE","state": "MO","zip": "64055","zip+4": "0000","phone": "8164781968"}
{"name": "PAMIDA PHARMACY #853","address1": "1021 W BUCHANAN ST","address2": "","city": "CALIFORNIA","state": "MO","zip": "65018","zip+4": "1238","phone": "5737968002"}
{"name": "FAMILY PHARMACY #12","address1": "14974 US HWY 160","address2": "","city": "FORSYTH","state": "MO","zip": "65653","zip+4": "0000","phone": "4175468200"}
{"name": "SCHNUCKS PHARMACY #135","address1": "101 CIVIC CENTER DR","address2": "","city": "LAKE ST LOUIS","state": "MO","zip": "63367","zip+4": "0000","phone": "6365613963"}
{"name": "THEODOSIA PHARMACY #1","address1": "2 W HWY 160","address2": "","city": "THEODOSIA","state": "MO","zip": "65761","zip+4": "0000","phone": "4172734555"}
{"name": "SHOP N SAVE PHARMACY #4547","address1": "1023 CROSSRDS PL","address2": "","city": "HIGH RIDGE","state": "MO","zip": "63049","zip+4": "0000","phone": "6366775380"}
{"name": "TARGET PHARMACY #1914","address1": "919 HIGHWAY D","address2": "","city": "OSAGE BEACH","state": "MO","zip": "65065","zip+4": "0000","phone": "5733485963"}
{"name": "PAMIDA PHARMACY #851","address1": "101 S POLK ST","address2": "","city": "ALBANY","state": "MO","zip": "64402","zip+4": "1617","phone": "6607263154"}
{"name": "FOUNDATION CARE LLC #HEADQUART","address1": "4010 WEDGEWAY CT","address2": "","city": "EARTH CITY","state": "MO","zip": "63045","zip+4": "0000","phone": "3142911122"}
{"name": "WALGREEN DRUG STORE #1244","address1": "6320 N OAK TRAFFICWAY","address2": "","city": "GLADSTONE","state": "MO","zip": "64118","zip+4": "0000","phone": "8164531773"}
{"name": "WALGREEN DRUG STORE #2227","address1": "250 E 4TH ST","address2": "","city": "EUREKA","state": "MO","zip": "63025","zip+4": "0000","phone": "6369385530"}
{"name": "SCOTLAND COUNTY PHARMACY","address1": "445 GRAND AVE","address2": "","city": "MEMPHIS","state": "MO","zip": "63555","zip+4": "0000","phone": "6604652400"}
{"name": "SAMS PHARMACY #106474","address1": "2100 MAPLEWOOD COMMONS DR","address2": "","city": "MAPLEWOOD","state": "MO","zip": "63143","zip+4": "0000","phone": "3146447734"}
{"name": "WAL-MART PHARMACY #105150","address1": "1900 MAPLEWOOD COMMONS DRIVE","address2": "","city": "MAPLEWOOD","state": "MO","zip": "63143","zip+4": "0000","phone": "3147812935"}
{"name": "FAMILY PHARMACY CRIMSON PLAZA","address1": "105 RIDGECREST","address2": "STE 2","city": "NIXA","state": "MO","zip": "65714","zip+4": "0000","phone": "4177242601"}
{"name": "WALGREEN DRUG STORE #9382","address1": "412 PAWNEE ST","address2": "","city": "CLINTON","state": "MO","zip": "64735","zip+4": "0000","phone": "6608853502"}
{"name": "SWEET SPRINGS PHARMACY","address1": "401 S LOCUST","address2": "","city": "SWEET SPRINGS","state": "MO","zip": "65351","zip+4": "1308","phone": "6603356300"}
{"name": "PECULIAR PHARMACY LLC","address1": "219 MAIN STREET","address2": "","city": "PECULIAR","state": "MO","zip": "64078","zip+4": "0000","phone": "8167796100"}
{"name": "PRESCRIPTIONS PLUS","address1": "1113 W GANNON DR","address2": "","city": "FESTUS","state": "MO","zip": "63028","zip+4": "0000","phone": "6189332224"}
{"name": "HERMANN PHARMACY","address1": "2060 VILLAGE LN","address2": "","city": "HERMANN","state": "MO","zip": "65041","zip+4": "0000","phone": "5734868999"}
{"name": "FAMILY PHARMACY #16","address1": "49 E OLD MILL RD","address2": "","city": "FAIR GROVE","state": "MO","zip": "65648","zip+4": "0000","phone": "4177596300"}
{"name": "WAL-MART PHARMACY #105261","address1": "100 COMMERCIAL DRIVE","address2": "","city": "PINEVILLE","state": "MO","zip": "64856","zip+4": "0000","phone": "4172265811"}
{"name": "WALGREEN DRUG STORE #5666","address1": "4535 HUNTER LANE","address2": "","city": "HOUSE SPRINGS","state": "MO","zip": "63051","zip+4": "0000","phone": "6363753694"}
{"name": "WALGREEN DRUG STORE #7743","address1": "1955 S NATIONAL AVE","address2": "","city": "SPRINGFIELD","state": "MO","zip": "65804","zip+4": "0000","phone": "4178815411"}
{"name": "NETWORK HEALTHCARE MISSOURI","address1": "13995 CLAYTON RD","address2": "","city": "TOWN AND COUNTRY","state": "MO","zip": "63017","zip+4": "0000","phone": "6367792700"}
{"name": "WALGREEN DRUG STORE #7296","address1": "3720 N KINGSHIGHWAY BLVD","address2": "","city": "ST LOUIS","state": "MO","zip": "63115","zip+4": "0000","phone": "3143837953"}
{"name": "PHARMACY PLUS","address1": "150 S MT AUBURN RD","address2": "STE 107","city": "CAPE GIRARDEAU","state": "MO","zip": "63703","zip+4": "0000","phone": "5733315555"}
{"name": "THE CORNER PHARMACY #1","address1": "12266 DEPAUL DRIVE","address2": "SUITE 105","city": "BRIDGETON","state": "MO","zip": "63044","zip+4": "0000","phone": "3143447567"}
{"name": "TARGET PHARMACY #1977","address1": "5201 N BELT HWY STE H","address2": "","city": "ST JOSEPH","state": "MO","zip": "64506","zip+4": "0000","phone": "8166710822"}
{"name": "ST JOHNS MERCY PHARMACY WEST","address1": "12680 OLIVE BLVD","address2": "STE 150","city": "ST LOUIS","state": "MO","zip": "63141","zip+4": "0000","phone": "3142518989"}
{"name": "SCHNUCKS PHARMACY #124","address1": "6083 MID RIVERS MALL DR","address2": "","city": "COTTLEVILLE","state": "MO","zip": "63304","zip+4": "0000","phone": "6364986550"}
{"name": "WALGREEN DRUG STORE #9301","address1": "299 N MAIN ST","address2": "","city": "SIKESTON","state": "MO","zip": "63801","zip+4": "0000","phone": "5734711374"}
{"name": "MAIN STREET PHARMACY","address1": "2685 E MAIN ST","address2": "STE B","city": "JACKSON","state": "MO","zip": "63755","zip+4": "0000","phone": "5732048151"}
{"name": "SINKS PHARMACY","address1": "606 E HWY 63","address2": "","city": "VIENNA","state": "MO","zip": "65582","zip+4": "0000","phone": "5734226400"}
{"name": "CENTRIC HEALTH RESOURCES INC","address1": "17877 CHESTERFIELD AIRPORT RD","address2": "","city": "CHESTERFIELD","state": "MO","zip": "63005","zip+4": "0000","phone": "6365192400"}
{"name": "WHALEYS WEST SIDE PHARMACY","address1": "3526 AMAZONAS","address2": "","city": "JEFFERSON CITY","state": "MO","zip": "65109","zip+4": "0000","phone": "5736590650"}
{"name": "SAMS PHARMACY #104920","address1": "5201 N BELT HWY BLDG A","address2": "","city": "SAINT JOSEPH","state": "MO","zip": "64506","zip+4": "0000","phone": "8162798081"}
{"name": "WALGREEN DRUG STORE #9467","address1": "880 S NEOSHO BLVD","address2": "","city": "NEOSHO","state": "MO","zip": "64850","zip+4": "0000","phone": "4174515147"}
{"name": "HY VEE PHARMACY #1475","address1": "929 HIGHWAY D","address2": "","city": "OSAGE BEACH","state": "MO","zip": "65065","zip+4": "0000","phone": "5733028383"}
{"name": "WALGREEN DRUG STORE #1142","address1": "3938 HWY 54","address2": "","city": "OSAGE BEACH","state": "MO","zip": "65065","zip+4": "0000","phone": "5733485346"}
{"name": "ST JOHNS PHARMACY NIXA #692","address1": "940 W MT VERNON","address2": "SUITE 130","city": "NIXA","state": "MO","zip": "65714","zip+4": "0000","phone": "4177245350"}
{"name": "SAMS PHARMACY #108163","address1": "101 CONLEY ROAD","address2": "","city": "COLUMBIA","state": "MO","zip": "65201","zip+4": "0000","phone": "5738751095"}
{"name": "WALGREEN DRUG STORE #6155","address1": "100 PLAZA DRIVE","address2": "","city": "WILDWOOD","state": "MO","zip": "63040","zip+4": "0000","phone": "6362731286"}
{"name": "WALGREEN DRUG STORE #9022","address1": "1349 E REPUBLIC AVE","address2": "","city": "SPRINGFIELD","state": "MO","zip": "65804","zip+4": "0000","phone": "4178876727"}
{"name": "WALGREEN DRUG STORE #9420","address1": "2737 GRAND AVE","address2": "","city": "CARTHAGE","state": "MO","zip": "64836","zip+4": "3700","phone": "4173598043"}
{"name": "COUNTRY MART PHARMACY #2416","address1": "508 E 5TH ST","address2": "","city": "DIXON","state": "MO","zip": "65459","zip+4": "0000","phone": "5737593073"}
{"name": "SHOP N SAVE PHARMACY #4522","address1": "1032 LEMAY FERRY RD","address2": "","city": "ST LOUIS","state": "MO","zip": "63125","zip+4": "0000","phone": "3145444963"}
{"name": "SCHNUCKS PHARMACY #196","address1": "245 EAST FIFTH ST","address2": "","city": "EUREKA","state": "MO","zip": "63025","zip+4": "0000","phone": "6369384976"}
{"name": "HY VEE CLINIC #1475","address1": "5816 HWY ST PKWY CNTR","address2": "SUITE 104","city": "OSAGE BEACH","state": "MO","zip": "65065","zip+4": "0000","phone": "5733482721"}
{"name": "FAMILY HEALTH PHARMACY","address1": "102 W 1ST ST","address2": "","city": "STANBERRY","state": "MO","zip": "64489","zip+4": "0000","phone": "6607830700"}
{"name": "FAMILY PHARMACY #19","address1": "759 W WASHINGTON ST","address2": "","city": "MARSHFIELD","state": "MO","zip": "65706","zip+4": "0000","phone": "4178595150"}
{"name": "TARGET PHARMACY #1515","address1": "4255 HAMPTON AVE","address2": "","city": "SAINT LOUIS","state": "MO","zip": "63109","zip+4": "0000","phone": "3148020123"}
{"name": "PARKLAND APOTHECARY","address1": "617 N COWLING ST","address2": "STE G","city": "DESLOGE","state": "MO","zip": "63601","zip+4": "0000","phone": "5734316677"}
{"name": "WALGREEN DRUG STORE #7692","address1": "97 LONG RD","address2": "","city": "CHESTERFIELD","state": "MO","zip": "63017","zip+4": "0000","phone": "6365195213"}
{"name": "PRICE CUTTER PHARMACY #16","address1": "91 S MAIN ST","address2": "","city": "CASSVILLE","state": "MO","zip": "65625","zip+4": "0000","phone": "4178471077"}
{"name": "WALGREEN DRUG STORE #1236","address1": "13000 S US HIGHWAY 71","address2": "","city": "GRANDVIEW","state": "MO","zip": "64030","zip+4": "0000","phone": "8167656034"}
{"name": "PHARMA LIFE","address1": "10479 OLD OLIVE ST RD","address2": "","city": "CREVE COEUR","state": "MO","zip": "63141","zip+4": "0000","phone": "3149977722"}
{"name": "JOHNS RX INC","address1": "2003 INDEPENDENCE ST","address2": "","city": "CAPE GIRARDEAU","state": "MO","zip": "63703","zip+4": "0000","phone": "5736514004"}
{"name": "STE GENEVIEVE COUNTY MEMORIAL","address1": "800 STE GENEVIEVE DR","address2": "","city": "STE GENEVIEVE","state": "MO","zip": "63670","zip+4": "0000","phone": "5738837730"}
{"name": "HOMER G PHILLIPS HEALTH CNTR","address1": "2425 WHITTIER ST","address2": "","city": "SAINT LOUIS","state": "MO","zip": "63113","zip+4": "0000","phone": "3143713100"}
{"name": "MYRTLE H DAVIS COMP HEALTH CNT","address1": "5541 RIVERVIEW BLVD","address2": "","city": "SAINT LOUIS","state": "MO","zip": "63120","zip+4": "0000","phone": "3143894566"}
{"name": "ALLIED HEALTH SVCS LLC","address1": "808 HUNTER STE 2","address2": "","city": "SIKESTON","state": "MO","zip": "63801","zip+4": "0000","phone": "5734721708"}
{"name": "WAL-MART PHARMACY #105313","address1": "6100 RONALD REAGAN DRIVE","address2": "","city": "LAKE ST LOUIS","state": "MO","zip": "63367","zip+4": "0000","phone": "6366252137"}
{"name": "WALGREEN DRUG STORE #9713","address1": "3740 W TRUMAN BLVD","address2": "","city": "JEFFERSON CITY","state": "MO","zip": "65109","zip+4": "0000","phone": "5738931047"}
{"name": "WALGREEN DRUG STORE #9796","address1": "588 JEFFERSON AVE","address2": "","city": "LEBANON","state": "MO","zip": "65536","zip+4": "3243","phone": "4175329015"}
{"name": "SENIOR PHARMACY","address1": "901 W KIDWELL DR STE C","address2": "","city": "VERAILLES","state": "MO","zip": "65084","zip+4": "0000","phone": "5733781916"}
{"name": "TARGET PHARMACY #2098","address1": "1200 BRANSON HILLS PARKWAY","address2": "","city": "BRANSON","state": "MO","zip": "65616","zip+4": "0000","phone": "4172434513"}
{"name": "SAMS PHARMACY #108205","address1": "4512 LEMAY FERRY ROAD","address2": "","city": "SAINT LOUIS","state": "MO","zip": "63129","zip+4": "0000","phone": "3148946893"}
{"name": "UVANTA PHARMACY - ST. LOUIS","address1": "2067 CONCOURSE DR","address2": "","city": "ST LOUIS","state": "MO","zip": "63146","zip+4": "0000","phone": "3143731111"}
{"name": "DIERBERGS LAFAYETTE PHARMACY #","address1": "421 LAFAYETTE CENTER","address2": "","city": "ST LOUIS","state": "MO","zip": "63011","zip+4": "0000","phone": "6365910600"}
{"name": "WALGREEN DRUG STORE #09986","address1": "311 N BALTIMORE ST","address2": "","city": "KIRKSVILLE","state": "MO","zip": "63501","zip+4": "3209","phone": "6606653063"}
{"name": "WALGREEN DRUG STORE #10130","address1": "6365 LEWIS DR","address2": "","city": "PARKVILLE","state": "MO","zip": "64152","zip+4": "3699","phone": "8165051708"}
{"name": "DIERBERGS WENTZVILLE PHARMACY","address1": "1820 WENTZVILLE PARKWAY","address2": "","city": "WENTZVILLE","state": "MO","zip": "63385","zip+4": "0000","phone": "6368873317"}
{"name": "WALGREEN DRUG STORE #09692","address1": "807 HWY 50 E","address2": "","city": "UNION","state": "MO","zip": "63084","zip+4": "0000","phone": "6365837896"}
{"name": "CVS PHARMACY #08587","address1": "1735 S GLENSTONE","address2": "","city": "SPRINGFIELD","state": "MO","zip": "65804","zip+4": "0000","phone": "4178817651"}
{"name": "CVS PHARMACY #08578","address1": "6300 PROSPECT AVE","address2": "","city": "KANSAS CITY","state": "MO","zip": "64132","zip+4": "0000","phone": "8165234765"}
{"name": "CVS PHARMACY #08592","address1": "921 MAIN","address2": "","city": "KANSAS CITY","state": "MO","zip": "64105","zip+4": "0000","phone": "8168422514"}
{"name": "CVS PHARMACY #08594","address1": "5901 INDEPENDENCE","address2": "","city": "KANSAS CITY","state": "MO","zip": "64125","zip+4": "0000","phone": "8162312033"}
{"name": "CVS PHARMACY #08590","address1": "315 W 75TH STREET","address2": "","city": "KANSAS CITY","state": "MO","zip": "64114","zip+4": "0000","phone": "8163614668"}
{"name": "CVS PHARMACY #08543","address1": "1914 SWIFT","address2": "","city": "NORTH KANSAS CITY","state": "MO","zip": "64116","zip+4": "0000","phone": "8164718078"}
{"name": "CVS PHARMACY #08598","address1": "9005 EAST 350 HIGHWAY","address2": "","city": "RAYTOWN","state": "MO","zip": "64133","zip+4": "0000","phone": "8163564881"}
{"name": "CVS PHARMACY #08607","address1": "12000 S 71 HWY","address2": "","city": "GRANDVIEW","state": "MO","zip": "64030","zip+4": "0000","phone": "8167611671"}
{"name": "CVS PHARMACY #08570","address1": "1616 N 7TH HWY","address2": "","city": "BLUE SPRINGS","state": "MO","zip": "64015","zip+4": "0000","phone": "8162286848"}
{"name": "CVS PHARMACY #08564","address1": "17403 E HWY 24","address2": "","city": "INDEPENDENCE","state": "MO","zip": "64056","zip+4": "0000","phone": "8167968769"}
{"name": "CVS PHARMACY #08566","address1": "5310 BLUERIDGE BLVD","address2": "","city": "RAYTOWN","state": "MO","zip": "64133","zip+4": "0000","phone": "8163566662"}
{"name": "CVS PHARMACY #08559","address1": "3106 S PROSPECT","address2": "","city": "KANSAS CITY","state": "MO","zip": "64128","zip+4": "0000","phone": "8168612355"}
{"name": "CVS PHARMACY #08553","address1": "10205 STATE LINE RD","address2": "","city": "KANSAS CITY","state": "MO","zip": "64114","zip+4": "0000","phone": "8169420134"}
{"name": "CVS PHARMACY #08555","address1": "4990 NE VIVIO RD","address2": "","city": "KANSAS CITY","state": "MO","zip": "64119","zip+4": "0000","phone": "8164548800"}
{"name": "CVS PHARMACY #08556","address1": "5314 NW 64TH ST","address2": "","city": "KANSAS CITY","state": "MO","zip": "64151","zip+4": "0000","phone": "8167415576"}
{"name": "CVS PHARMACY #08563","address1": "300 S COMMERCIAL ST","address2": "","city": "HARRISONVILLE","state": "MO","zip": "64701","zip+4": "0000","phone": "8168844368"}
{"name": "CVS PHARMACY #08565","address1": "330 NE BARRY RD","address2": "","city": "KANSAS CITY","state": "MO","zip": "64155","zip+4": "0000","phone": "8164365600"}
{"name": "CVS PHARMACY #08583","address1": "4531 TROOST","address2": "","city": "KANSAS CITY","state": "MO","zip": "64110","zip+4": "0000","phone": "8167565005"}
{"name": "CVS PHARMACY #08554","address1": "6129 N ANTIOCH RD","address2": "","city": "GLADSTONE","state": "MO","zip": "64119","zip+4": "0000","phone": "8164532220"}
{"name": "CVS PHARMACY #08609","address1": "7003 BANISTER RD","address2": "","city": "KANSAS CITY","state": "MO","zip": "64134","zip+4": "0000","phone": "8167617715"}
{"name": "CVS PHARMACY #08557","address1": "1900 NE LANGSFORD RD","address2": "","city": "LEES SUMMIT","state": "MO","zip": "64063","zip+4": "0000","phone": "8165549500"}
{"name": "CVS PHARMACY #08581","address1": "3201 SOUTH 7 HIGHWAY","address2": "","city": "BLUE SPRINGS","state": "MO","zip": "64014","zip+4": "0000","phone": "8162202302"}
{"name": "CVS PHARMACY #08567","address1": "5011 MAIN ST","address2": "","city": "KANSAS CITY","state": "MO","zip": "64112","zip+4": "0000","phone": "8165314699"}
{"name": "CVS PHARMACY #08571","address1": "4750 LEES SUMMIT RD","address2": "","city": "KANSAS CITY","state": "MO","zip": "64136","zip+4": "0000","phone": "8163503886"}
{"name": "CVS PHARMACY #08576","address1": "2435 E INDEPENDENCE","address2": "","city": "KANSAS CITY","state": "MO","zip": "64124","zip+4": "0000","phone": "8164836464"}
{"name": "CVS PHARMACY #08579","address1": "751 NE WOODS CHAPEL ROAD","address2": "","city": "LEES SUMMIT","state": "MO","zip": "64064","zip+4": "0000","phone": "8165248840"}
{"name": "CVS PHARMACY #08577","address1": "4400 NW BARRY ROAD","address2": "","city": "KANSAS CITY","state": "MO","zip": "64153","zip+4": "0000","phone": "8165878018"}
{"name": "CVS PHARMACY #08595","address1": "1215 NORTH FOX RIDGE DR","address2": "","city": "RAYMORE","state": "MO","zip": "64083","zip+4": "0000","phone": "8163188022"}
{"name": "CVS PHARMACY #08596","address1": "601 S JEFFERSON","address2": "","city": "KEARNEY","state": "MO","zip": "64060","zip+4": "0000","phone": "8166359001"}
{"name": "INTERNACARE LLC","address1": "226 S WOODS MILL RD","address2": "STE 56W","city": "CHESTERFIELD","state": "MO","zip": "63017","zip+4": "0000","phone": "3143732501"}
{"name": "PRICE CUTTER PHARMACY #9","address1": "1211 PARKWAY SHOPPING CTR","address2": "","city": "WEST PLAINS","state": "MO","zip": "65775","zip+4": "0000","phone": "4172564620"}
{"name": "FAMILY PHARMACY #20","address1": "1326 W BROADWAY","address2": "","city": "BOLIVAR","state": "MO","zip": "65613","zip+4": "0000","phone": "4173268747"}
{"name": "TARGET PHARMACY #0752","address1": "735 W STADIUM BLVD","address2": "","city": "JEFFERSON CITY","state": "MO","zip": "65109","zip+4": "0000","phone": "5738931079"}
{"name": "TARGET PHARMACY #1031","address1": "1825 E PRIMROSE ST","address2": "","city": "SPRINGFIELD","state": "MO","zip": "65804","zip+4": "0000","phone": "4178891511"}
{"name": "TARGET PHARMACY #2103","address1": "7955 HIGHWAY N","address2": "","city": "DARDENNE PRAIRIE","state": "MO","zip": "63368","zip+4": "0000","phone": "6366252821"}
{"name": "WALGREEN DRUG STORE #07423","address1": "1210 SUGAR CREEK SQ","address2": "","city": "FENTON","state": "MO","zip": "63026","zip+4": "4401","phone": "6363265003"}
{"name": "CARE PLUS CVS/PHARMACY# #01438","address1": "32 N EUCLID AVE","address2": "","city": "ST LOUIS","state": "MO","zip": "63108","zip+4": "0000","phone": "3144541214"}
{"name": "WALGREEN DRUG STORE #02450","address1": "330 SW WARD RD","address2": "","city": "LEES SUMMIT","state": "MO","zip": "64081","zip+4": "0000","phone": "8162467732"}
{"name": "WALGREEN DRUG STORE #10153","address1": "110 N WESTWOOD BLVD","address2": "","city": "POPLAR BLUFF","state": "MO","zip": "63901","zip+4": "0000","phone": "5737761476"}
{"name": "HALLS PHARMACY INC","address1": "3021 HWY A","address2": "STE 203","city": "WASHINGTON","state": "MO","zip": "63090","zip+4": "0000","phone": "6363902828"}
{"name": "CVS PHARMACY #08430","address1": "3825 S NOLAND RD","address2": "","city": "INDEPENDENCE","state": "MO","zip": "64055","zip+4": "0000","phone": "8162546002"}
{"name": "MEDICAL CENTER PHARMACY","address1": "513B GRAND AVE","address2": "","city": "DONIPHAN","state": "MO","zip": "63935","zip+4": "0000","phone": "5739963784"}
{"name": "WALGREEN DRUG STORE #09929","address1": "1675 W SOUTH ST","address2": "","city": "OZARK","state": "MO","zip": "65721","zip+4": "5152","phone": "4174850762"}
{"name": "TARGET PHARMACY #0774","address1": "3151 E 7TH ST","address2": "","city": "JOPLIN","state": "MO","zip": "64801","zip+4": "0000","phone": "4172063377"}
{"name": "TARGET PHARMACY #0992","address1": "202 SIEMENS DR","address2": "","city": "CAPE GIRARDEAU","state": "MO","zip": "63701","zip+4": "0000","phone": "5733346578"}
{"name": "TARGET PHARMACY #2050","address1": "8007 W FLORISSANT AVE","address2": "","city": "JENNINGS","state": "MO","zip": "63136","zip+4": "0000","phone": "3145130195"}
{"name": "ST JOHN PHCY ROLLA #350576","address1": "1100 W 10TH ST","address2": "STE 150","city": "ROLLA","state": "MO","zip": "65401","zip+4": "0000","phone": "4178206624"}
{"name": "WASHINGTON UNIVERSITY CANCER C","address1": "4921 PARKVIEW PLACE","address2": "7TH FLOOR","city": "ST LOUIS","state": "MO","zip": "63110","zip+4": "0000","phone": "3147478646"}
{"name": "SHOP N SAVE PHARMACY #4550","address1": "7909 HWY N","address2": "","city": "DARDENNE PRAIRIE","state": "MO","zip": "63368","zip+4": "0000","phone": "6365618450"}
{"name": "DCI PHARMACY KANSAS CITY","address1": "650 CARONDELET DR","address2": "","city": "KANSAS CITY","state": "MO","zip": "64114","zip+4": "0000","phone": "8169412162"}
{"name": "WALGREEN DRUG STORE #10377","address1": "1711 N MORLEY ST","address2": "","city": "MOBERLY","state": "MO","zip": "65270","zip+4": "3630","phone": "6602630793"}
{"name": "WALGREEN DRUG STORE #06493","address1": "3497 TECHNOLOGY DR LAKE","address2": "","city": "ST LOUIS","state": "MO","zip": "63367","zip+4": "2599","phone": "6366250691"}
{"name": "SHOP N SAVE PHARMACY #4548","address1": "2183 CHARBONIER RD","address2": "","city": "FLORISSANT","state": "MO","zip": "63031","zip+4": "0000","phone": "3148391327"}
{"name": "QUICKMEDS PHARMACY","address1": "3201 MCCLELLAND BLVD","address2": "","city": "JOPLIN","state": "MO","zip": "64804","zip+4": "3524","phone": "4173476337"}
{"name": "MOCH PHARMACY #1","address1": "504 NW 10TH AVE","address2": "","city": "AVA","state": "MO","zip": "65608","zip+4": "0000","phone": "4176834831"}
{"name": "TWIN CITY PHARMACY","address1": "1447 US HWY 61","address2": "STE A","city": "CRYSTAL CITY","state": "MO","zip": "63019","zip+4": "0000","phone": "6369378228"}
{"name": "THAYER DRUG STORE","address1": "623 S 6TH ST","address2": "","city": "THAYER","state": "MO","zip": "65791","zip+4": "0000","phone": "4172643784"}
{"name": "COUNTRY MART","address1": "301 T J STEWART DR","address2": "","city": "PARK HILLS","state": "MO","zip": "63601","zip+4": "0000","phone": "5734318537"}
{"name": "ROGERSVILLE PHARMACY","address1": "319 S MAIN","address2": "STE N","city": "ROGERSVILLE","state": "MO","zip": "65742","zip+4": "0000","phone": "4177537774"}
{"name": "SITEMAN CANCER CTR PHYSICIAN D","address1": "4921 PARKVIEW PL","address2": "7TH FLOOR","city": "ST LOUIS","state": "MO","zip": "63110","zip+4": "0000","phone": "3143627356"}
{"name": "WALGREEN DRUG STORE #10845","address1": "2301 HOLMES","address2": "","city": "KANSAS CITY","state": "MO","zip": "64108","zip+4": "0000","phone": "8164044175"}
{"name": "WALGREEN DRUG STORE #10587","address1": "101 N WESTERN","address2": "","city": "MEXICO","state": "MO","zip": "65265","zip+4": "1936","phone": "5735813353"}
{"name": "BRANSON DRUG IN HOLLISTER","address1": "215 GAGE DR","address2": "STE L","city": "HOLLISTER","state": "MO","zip": "65672","zip+4": "0000","phone": "4173349551"}
{"name": "REHOBOTH PHARMACY","address1": "9944 W FLORISSANT AVE","address2": "","city": "ST LOUIS","state": "MO","zip": "63136","zip+4": "0000","phone": "3148683333"}
{"name": "SHOP N SAVE PHARMACY #4549","address1": "9521 LEWIS AND CLARK BLVD","address2": "","city": "MOLINE ACRES","state": "MO","zip": "63136","zip+4": "0000","phone": "3148692897"}
{"name": "N E MO CLOSED DOOR PHARMACY LL","address1": "214B W GRAND","address2": "","city": "CLARENCE","state": "MO","zip": "63437","zip+4": "0000","phone": "6606992432"}
{"name": "HLTC PHARMACY","address1": "603 LOCUST ST","address2": "","city": "CHILLICOTHE","state": "MO","zip": "64601","zip+4": "0000","phone": "6607073972"}
{"name": "TARGET PHARMACY #2255","address1": "1851 VERNACI DR","address2": "","city": "WASHINGTON","state": "MO","zip": "63090","zip+4": "0000","phone": "6368257701"}
{"name": "WALGREENS DRUG STORE #10725","address1": "4022 N BELT HWY","address2": "","city": "ST JOSEPH","state": "MO","zip": "64501","zip+4": "0000","phone": "8163640376"}
{"name": "FOREST PARK PHARMACY","address1": "6125 CLAYTON","address2": "STE 100","city": "ST LOUIS","state": "MO","zip": "63139","zip+4": "0000","phone": "3146459990"}
{"name": "CLEAR STREAM LTC","address1": "2210 BARRON RD","address2": "STE B 010","city": "POPULAR BLUFF","state": "MO","zip": "63901","zip+4": "0000","phone": "5736864556"}
{"name": "WALGREENS DRUG STORE #10474","address1": "499 SALT LICK RD","address2": "","city": "ST PETERS","state": "MO","zip": "63376","zip+4": "0000","phone": "6362783802"}
{"name": "DNG PHARMACEUTICALS","address1": "2331 HAMPTON AVE","address2": "","city": "ST LOUIS","state": "MO","zip": "63139","zip+4": "0000","phone": "3147725000"}
{"name": "WALGREENS DRUG STORE #10540","address1": "12977 STATE ROUTE 21","address2": "","city": "DESOTO","state": "MO","zip": "63020","zip+4": "1078","phone": "6365868779"}
{"name": "WALGREENS DRUG STORE #11087","address1": "1214 W FOXWOOD DR","address2": "","city": "RAYMORE","state": "MO","zip": "64083","zip+4": "8300","phone": "8163311410"}
{"name": "OLD TOWN PHARMACY LLC","address1": "100 A CHAPEL DRIVE","address2": "","city": "MONETT","state": "MO","zip": "65708","zip+4": "0000","phone": "4176351100"}
{"name": "PAMIDA PHARMACY #870","address1": "202 MAIN STREET","address2": "","city": "TARKIO","state": "MO","zip": "64491","zip+4": "0000","phone": "6607364125"}
{"name": "PAMIDA PHARMACY #856","address1": "212 NORTH MAIN STREET","address2": "","city": "GALLATIN","state": "MO","zip": "64640","zip+4": "0000","phone": "6606639241"}
{"name": "GENOA HEALTHCARE","address1": "10901 WINNER RD","address2": "","city": "INDEPENDENCE","state": "MO","zip": "64052","zip+4": "0000","phone": "8168337325"}
{"name": "WALGREENS DRUG STORE #10908","address1": "6 S PERRYVILLE BLVD","address2": "","city": "PERRYVILLE","state": "MO","zip": "63775","zip+4": "1267","phone": "5735170029"}
{"name": "ST ANTHONYS FENTON URGENT CARE","address1": "714 GRAVOIS RD","address2": "STE 100","city": "ST LOUIS","state": "MO","zip": "63026","zip+4": "0000","phone": "6363266100"}
{"name": "WALGREENS DRUG STORE #07811","address1": "100 JASON DR","address2": "","city": "TROY","state": "MO","zip": "63379","zip+4": "0000","phone": "6364625901"}
{"name": "WALGREENS DRUG STORE #10588","address1": "1400 N GRAND BLVD","address2": "","city": "ST LOUIS","state": "MO","zip": "63106","zip+4": "1309","phone": "3145343853"}
{"name": "HY VEE PHARMACY #1303","address1": "3721 W TRUMAN BLVD","address2": "","city": "JEFFERSON CITY","state": "MO","zip": "65109","zip+4": "0000","phone": "5736342628"}
{"name": "MERCY CANCER CARE BURTON M NEE","address1": "607 S NEW BALLAS RD","address2": "STE 3300","city": "ST LOUIS","state": "MO","zip": "63141","zip+4": "0000","phone": "3142514400"}
{"name": "TARGET PHARMACY #2345","address1": "1883 WENTZVILLE PKWY","address2": "","city": "WENTZVILLE","state": "MO","zip": "63385","zip+4": "3896","phone": "6366397434"}
{"name": "SKAGGS COMMUNITY HOSPITAL","address1": "251 SKAGGS RD","address2": "","city": "BRANSON","state": "MO","zip": "65616","zip+4": "0000","phone": "4173357353"}
{"name": "ST LOUIS GYNECOLOGY AND ONCOLO","address1": "11652 STUDT AVE","address2": "","city": "ST LOUIS","state": "MO","zip": "63141","zip+4": "0000","phone": "3149915445"}
{"name": "FAMILY PHARMACY #23","address1": "527 W KEARNEY","address2": "","city": "SPRINGFIELD","state": "MO","zip": "64803","zip+4": "0000","phone": "4178692988"}
{"name": "WALGREEN DRUG STORE #11288","address1": "1010 WORELY DR","address2": "","city": "WEST PLAINS","state": "MO","zip": "65775","zip+4": "0000","phone": "4172555880"}
{"name": "PAMIDA PHARMACY #663","address1": "111 LEROUX DRIVE","address2": "","city": "DONIPHAN","state": "MO","zip": "63935","zip+4": "0000","phone": "5739962311"}
{"name": "SHOP N SAVE PHARMACY #4515","address1": "100 JUNGERMANN RD","address2": "","city": "ST PETERS","state": "MO","zip": "63376","zip+4": "0000","phone": "6364419600"}
{"name": "SHOP N SAVE PHARMACY #4535","address1": "196 MAYFAIR PLAZA SHOPPING CEN","address2": "","city": "FLORISSANT","state": "MO","zip": "63033","zip+4": "0000","phone": "3144388383"}
{"name": "WALGREEN DRUG STORE #10211","address1": "701 N STATE HWY 47","address2": "","city": "WARRENTON","state": "MO","zip": "63383","zip+4": "1119","phone": "6363772172"}
{"name": "WALGREEN DRUG SORE #10907","address1": "1410 N BLUFF ST","address2": "","city": "FULTON","state": "MO","zip": "65251","zip+4": "2350","phone": "5735927030"}
{"name": "PRICE CHOPPER PHARMACY #285","address1": "900 WEST FOXWOOD DRIVE","address2": "","city": "RAYMORE","state": "MO","zip": "64083","zip+4": "0000","phone": "8162656134"}
{"name": "WALGREEN DRUG STORE #11666","address1": "HWY 83 AND ALDRICH","address2": "","city": "BOLIVAR","state": "MO","zip": "65613","zip+4": "0000","phone": "4177773700"}
{"name": "WALGREENS #11930","address1": "3545 BROADWAY","address2": "","city": "KANSAS CITY","state": "MO","zip": "64111","zip+4": "0000","phone": "8167561924"}
{"name": "LOWE DRUG AT CENTERPOINT","address1": "19550 E 39TH STREET","address2": "STE 120","city": "INDEPENDENCE","state": "MO","zip": "64057","zip+4": "0000","phone": "8167950086"}
{"name": "SMILEY LANE PHARMACY","address1": "2325 SMILEY LANE","address2": "","city": "COLUMBIA","state": "MO","zip": "65202","zip+4": "0000","phone": "5738173555"}
{"name": "WALGREEN DRUG STORE #11311","address1": "1053 MEYER RD","address2": "","city": "WENTZVILLE","state": "MO","zip": "63385","zip+4": "0000","phone": "6363322443"}
{"name": "WALGREEN DRUG STORE #11422","address1": "4650 HWY K","address2": "","city": "OFALLON","state": "MO","zip": "63304","zip+4": "0000","phone": "6363299163"}
{"name": "MEDICINE SHOPPE #1747","address1": "1103 S 169 HWY","address2": "","city": "SMITHVILLE","state": "MO","zip": "64089","zip+4": "0000","phone": "8165320977"}
{"name": "MEDICINE SHOPPE PHARMACY #1573","address1": "810 W 35TH ST","address2": "STE 101","city": "HIGGINSVILLE","state": "MO","zip": "64037","zip+4": "0000","phone": "6605842700"}
{"name": "MEDICINE SHOPPE PHARMACY #1563","address1": "161 S BENTON ST","address2": "","city": "MARSHALL","state": "MO","zip": "65340","zip+4": "0000","phone": "6608866590"}
{"name": "SOUTHEAST MISSOURI QUALITY CAR","address1": "215 E RUSSELL","address2": "","city": "IRONTON","state": "MO","zip": "63650","zip+4": "0000","phone": "5735463018"}
{"name": "EVERSPRING","address1": "4280 RIDGER TRAIL NORTH","address2": "BLDG B","city": "EARTH CITY","state": "MO","zip": "63045","zip+4": "0000","phone": "3143449094"}
{"name": "QOL MEDS #130","address1": "1032 CROSSWINDS CT","address2": "","city": "WENTZVILLE","state": "MO","zip": "63385","zip+4": "0000","phone": "6363273528"}
{"name": "DIERBERGS ARNOLD COMMONS #7","address1": "860 ARNOLD COMMONS DRIVE","address2": "","city": "ARNOLD","state": "MO","zip": "63010","zip+4": "0000","phone": "6362824817"}
{"name": "WILKINSON PHARMACY #10","address1": "932 STATE HIGHWAY 5 NORTH","address2": "","city": "CAMDENTON","state": "MO","zip": "65020","zip+4": "0000","phone": "5733463396"}
{"name": "WALGREEN DRUG STORE #11627","address1": "3800 ELM ST","address2": "","city": "ST CHARLES","state": "MO","zip": "63301","zip+4": "4368","phone": "6367246628"}
{"name": "CVS PHARMACY #04088","address1": "3351 SW 3RD ST","address2": "","city": "LEES SUMMIT","state": "MO","zip": "64081","zip+4": "0000","phone": "8169661455"}
{"name": "LANDRUM DRUG","address1": "1319-E S LANDRUM","address2": "","city": "MT VERNON","state": "MO","zip": "65712","zip+4": "0000","phone": "4174611100"}
{"name": "WALGREEN DRUG STORE #11628","address1": "10 E HIGHWAY N","address2": "","city": "WENTZVILLE","state": "MO","zip": "63385","zip+4": "5901","phone": "6363322333"}
{"name": "WAL-MART PHARMACY #104381","address1": "1101 BRANSON HILLS P","address2": "","city": "BRANSON","state": "MO","zip": "65616","zip+4": "0000","phone": "4173342137"}
{"name": "SUZANNE E ALT DO LLC","address1": "2605 N BALTIMORE ST","address2": "","city": "KIRKSVILLE","state": "MO","zip": "63501","zip+4": "0000","phone": "6606650817"}
{"name": "TARGET PHARMACY #1952","address1": "1272 TOWN AND COUNTRY CROSSING","address2": "","city": "CHESTERFIELD","state": "MO","zip": "63017","zip+4": "0605","phone": "6365910235"}
{"name": "TARGET PHARMACY #2423","address1": "9040 N SKYVIEW AVE","address2": "","city": "KANSAS CITY","state": "MO","zip": "64154","zip+4": "8501","phone": "8164102941"}
{"name": "GRAND MEDICAL GROUP LLC #1706","address1": "3137 SOUTH GRAND BLVD","address2": "","city": "ST LOUIS","state": "MO","zip": "63118","zip+4": "0000","phone": "3148655219"}
{"name": "WOODS PHARMACY","address1": "701 EAST BROADWAY","address2": "","city": "SEDALIA","state": "MO","zip": "65301","zip+4": "0000","phone": "6608272643"}
{"name": "GROVE PHARMACY #4","address1": "3050 S NATIONAL AVE","address2": "STE 109","city": "SPRINGFIELD","state": "MO","zip": "65804","zip+4": "0000","phone": "4178818822"}
{"name": "CENTRAL MISSOURI WOMENS HEALTH","address1": "268 S JEFFERSON","address2": "","city": "MARSHALL","state": "MO","zip": "65340","zip+4": "0000","phone": "6608862842"}
{"name": "URGENT CARE OF KANSAS CITY","address1": "4741 S ARROWHEAD DR","address2": "STE B","city": "INDEPENDENCE","state": "MO","zip": "64055","zip+4": "0000","phone": "8167956000"}
{"name": "ST LOUIS CANCER CARE LLP","address1": "3844 S LINDBERGH","address2": "STE 216","city": "ST. LOUIS","state": "MO","zip": "63127","zip+4": "0000","phone": "3148427301"}
{"name": "CVS PHARMACY #04754","address1": "909 CHESTNUT","address2": "STE 105","city": "ST LOUIS","state": "MO","zip": "63101","zip+4": "0000","phone": "3145880356"}
{"name": "WALGREENS #11925","address1": "400 S BROADWAY","address2": "","city": "OAK GROVE","state": "MO","zip": "64075","zip+4": "6140","phone": "8166253578"}
{"name": "WALGREENS #11626","address1": "917 WASHINGTON ST","address2": "","city": "CHILLICOTHE","state": "MO","zip": "64601","zip+4": "2233","phone": "6607070396"}
{"name": "PHYSICIAN PARK PHARMACY LLC","address1": "225 PHYSICIAN PARK DRIVE","address2": "STE 100","city": "POPULAR BLUFF","state": "MO","zip": "63901","zip+4": "0000","phone": "5737789238"}
{"name": "PHYSICIANS PARK PHARMACY LTC","address1": "225 PHYSICIAN PARK DRIVE","address2": "STE 100A","city": "POPLAR BLUFF","state": "MO","zip": "63901","zip+4": "0000","phone": "5737789238"}
{"name": "WALGREENS #12062","address1": "106 SILVER THREAD LN","address2": "","city": "BRANSON WEST","state": "MO","zip": "65737","zip+4": "0000","phone": "4172721112"}
{"name": "ELLIOTT PHARMACY LTC","address1": "2120A NORTH BALTIMORE","address2": "","city": "KIRKSVILLE","state": "MO","zip": "63501","zip+4": "0000","phone": "6606659871"}
{"name": "PROMPT MEDICAL CLINIC INC","address1": "1325 C SOUTH NOLAND ROAD","address2": "","city": "INDEPENDENCE","state": "MO","zip": "64055","zip+4": "0000","phone": "8162526647"}
{"name": "WALGREENS #12153","address1": "358 E HIGHWAY 69","address2": "","city": "KANSAS CITY","state": "MO","zip": "64119","zip+4": "3117","phone": "8164130079"}
{"name": "WALGREENS #11502","address1": "1260 SPUR DR","address2": "","city": "MARSHFIELD","state": "MO","zip": "65706","zip+4": "2350","phone": "4178595394"}
{"name": "WALGREENS #11836","address1": "10700 PAGE AVE","address2": "","city": "SAINT LOUIS","state": "MO","zip": "63132","zip+4": "0000","phone": "3144471804"}
{"name": "INTEGRITY PHARMACY","address1": "509 S UNION AVE","address2": "","city": "SPRINGFIELD","state": "MO","zip": "65802","zip+4": "2659","phone": "4178652900"}
{"name": "GENOA HEALTHCARE","address1": "901 NE INDEPENDENCE AVENUE","address2": "","city": "LEES SUMMIT","state": "MO","zip": "64086","zip+4": "0000","phone": "8163470075"}
{"name": "THE PHARMACY AT PRICE CHOPPER","address1": "2600 ENSIGN HILL DRIVE","address2": "","city": "PLATTE CITY","state": "MO","zip": "64079","zip+4": "0000","phone": "8164312751"}
{"name": "WELLFOUNT CORP #02","address1": "111 E COLUMBIA ST","address2": "","city": "FARMINGTON","state": "MO","zip": "63640","zip+4": "0000","phone": "8009494979"}
{"name": "MEDLEY PHARMACY","address1": "733 W SPRINGFIELD RD","address2": "","city": "GERALD","state": "MO","zip": "63037","zip+4": "0000","phone": "5737645980"}
{"name": "WALGREENS # #12268","address1": "101 INDUSTRIAL PARK DR","address2": "","city": "HOLLISTER","state": "MO","zip": "65672","zip+4": "5392","phone": "4173366901"}
{"name": "WALGREENS # #11239","address1": "3660 VISTA AVE","address2": "STE 100","city": "SAINT LOUIS","state": "MO","zip": "63110","zip+4": "2540","phone": "3147712900"}
{"name": "WALGREENS # #12927","address1": "2340 HAMPTON AVE","address2": "","city": "SAINT LOUIS","state": "MO","zip": "63139","zip+4": "2935","phone": "3146471256"}
{"name": "UVANTA PHARMACY- SOUTHERN MISS","address1": "3054 EAST ELM STREET","address2": "","city": "SPRINGFIELD","state": "MO","zip": "65802","zip+4": "0000","phone": "4178645873"}
{"name": "WOODS SUPERMARKET INC #2473","address1": "1109 SOUTH STREET","address2": "","city": "STOCKTON","state": "MO","zip": "65785","zip+4": "0000","phone": "4172763670"}
{"name": "PRICE CHOPPER PHARMACY #37","address1": "520 S. COMMERCIAL","address2": "","city": "HARRISONVILLE","state": "MO","zip": "64701","zip+4": "0000","phone": "8168874320"}
{"name": "WALGREENS #11375","address1": "1718 E JESSE JAMES RD","address2": "","city": "EXCELSIOR SPRINGS","state": "MO","zip": "64024","zip+4": "1802","phone": "8166372537"}
{"name": "WALGREENS #12114","address1": "9700 N CEDAR AVE","address2": "","city": "KANSAS CITY","state": "MO","zip": "64157","zip+4": "0000","phone": "8164159918"}
{"name": "FAMILY HEALTH CARE LLC","address1": "220 SOUTH WOODBINE RD","address2": "","city": "ST JOSEPH","state": "MO","zip": "64506","zip+4": "0000","phone": "8166761300"}
{"name": "SSM RX EXPRESS","address1": "12266 DEPAUL DRIVE","address2": "STE 105","city": "BRIDGETON","state": "MO","zip": "63044","zip+4": "0000","phone": "3143447567"}
{"name": "GOODVIEW FAMILY CARE","address1": "3600 N E RALPH POWELL RD","address2": "STE B","city": "LEES SUMMIT","state": "MO","zip": "64064","zip+4": "0000","phone": "8165547100"}
{"name": "WALGREENS #12307","address1": "120 S BISHOP AVE","address2": "","city": "ROLLA","state": "MO","zip": "65401","zip+4": "4215","phone": "5734263338"}
{"name": "COUNTRY MART PHARMACY #2151","address1": "190 PLAZA DRIVE","address2": "","city": "STE GENEVIEVE","state": "MO","zip": "63670","zip+4": "0000","phone": "5738833524"}
{"name": "WAL-MART PHARMACY #105477","address1": "401 SUPERCENTER DR","address2": "","city": "JEFFERSON CITY","state": "MO","zip": "65101","zip+4": "0000","phone": "5736353877"}
{"name": "ROGERS LTC PHARMACY","address1": "2518 1/2 FREDERICK AVE","address2": "","city": "SAINT JOSEPH","state": "MO","zip": "64506","zip+4": "2751","phone": "8166711161"}
{"name": "QUADRANGLE PHARMACYLLC","address1": "6643 SHEPLEY DRIVE","address2": "HABIF HEALTH AND WELLNESS CENT","city": "ST. LOUIS","state": "MO","zip": "63105","zip+4": "0000","phone": "3149356662"}
{"name": "SCHNUCKS PHARMACY #327","address1": "3960 LINDELL BLVD","address2": "","city": "SAINT LOUIS","state": "MO","zip": "63108","zip+4": "3204","phone": "3145332992"}
{"name": "CENTRAL FAMILY MEDICINEINC","address1": "407 E RUSSELL ROAD","address2": "BLDG C","city": "WARRENSBURG","state": "MO","zip": "64093","zip+4": "0000","phone": "6607475114"}
{"name": "WALGREENS #12925","address1": "2301 RUNNING HORSE RD","address2": "","city": "PLATTE CITY","state": "MO","zip": "64079","zip+4": "7703","phone": "8164310327"}
{"name": "TARA PHARMACY SE LLC #002","address1": "11643 LILBURN PARK RD","address2": "","city": "SAINT LOUIS","state": "MO","zip": "63146","zip+4": "3535","phone": "3145677239"}
{"name": "PRESCRIPTIONS PLUS LONGTERM CA","address1": "212 HOSPITAL LN STE 103","address2": "","city": "PERRYVILLE","state": "MO","zip": "63775","zip+4": "4204","phone": "5737683393"}
{"name": "WALGREENS #12778","address1": "505 S COMMERCIAL ST","address2": "","city": "HARRISONVILLE","state": "MO","zip": "64701","zip+4": "0000","phone": "8168841891"}
{"name": "SCHNUCKS PHARMACY #301","address1": "315 N 9TH ST","address2": "","city": "SAINT LOUIS","state": "MO","zip": "63101","zip+4": "1403","phone": "3144367491"}
{"name": "TARGET PHARMACY #2525","address1": "1040 NE CORONADO","address2": "","city": "BLUE SPRINGS","state": "MO","zip": "64014","zip+4": "2971","phone": "8166223401"}
{"name": "SHELBINA PHARMACY LLC","address1": "201 N CENTER ST STE A","address2": "","city": "SHELBINA","state": "MO","zip": "63468","zip+4": "1117","phone": "5735882143"}
{"name": "GENOA HEALTHCARE","address1": "724 N 22ND ST","address2": "","city": "SAINT JOSEPH","state": "MO","zip": "64506","zip+4": "2604","phone": "8163964800"}
{"name": "WALGREENS #12713","address1": "1605 W 7TH ST","address2": "","city": "JOPLIN","state": "MO","zip": "64801","zip+4": "3071","phone": "4176598453"}
{"name": "STERLING PHARMACY","address1": "19321 E US HIGHWAY 40 STE A","address2": "","city": "INDEPENDENCE","state": "MO","zip": "64055","zip+4": "5486","phone": "8167956034"}
{"name": "WALGREENS #12821","address1": "1114 S MAIN ST","address2": "","city": "MARYVILLE","state": "MO","zip": "64468","zip+4": "2602","phone": "6605622157"}
{"name": "HY-VEE PHARMACY #2 #1081","address1": "405 E NIFONG BLVD","address2": "","city": "COLUMBIA","state": "MO","zip": "65201","zip+4": "3708","phone": "5734428616"}
{"name": "WALGREENS #11711","address1": "1530 LAFAYETTE AVE","address2": "","city": "SAINT LOUIS","state": "MO","zip": "63104","zip+4": "3323","phone": "3146781039"}
{"name": "COSTCO PHARMACY #1060","address1": "301 HIGHLANDS BOULEVARD DR","address2": "","city": "MANCHESTER","state": "MO","zip": "63011","zip+4": "4385","phone": "6366867409"}
{"name": "GOWER FAMILY CARE CENTER,","address1": "313 US HIGHWAT 169","address2": "","city": "GOWER","state": "MO","zip": "64454","zip+4": "0000","phone": "8164246427"}
{"name": "CVS PHARMACY # #05643","address1": "7334 S LINDBERGH BLVD","address2": "","city": "SAINT LOUIS","state": "MO","zip": "63125","zip+4": "4522","phone": "4017651500"}
{"name": "CVS PHARMACY # #05669","address1": "7320 GRAVOIS AVE","address2": "","city": "SAINT LOUIS","state": "MO","zip": "63116","zip+4": "1021","phone": "4017651500"}
{"name": "CVS PHARMACY # #05670","address1": "9141 OLIVE BLVD","address2": "","city": "OLIVETTE","state": "MO","zip": "63132","zip+4": "3722","phone": "4017651500"}
{"name": "CVS PHARMACY # #05689","address1": "15846 MANCHESTER RD","address2": "","city": "ELLISVILLE","state": "MO","zip": "63011","zip+4": "2208","phone": "4017651500"}
{"name": "UNIV OF MO HOSP & CLINIC","address1": "PHARMACY DEPT DC060 00","address2": "ONE HOSPITAL DRIVE","city": "COLUMBIA","state": "MO","zip": "65212","zip+4": "0000","phone": "5738828615"}
{"name": "RINDERER'S DRUG STORESINC.","address1": "1053 CAVE SPRINGS RD STE 301","address2": "","city": "ST PETERS","state": "MO","zip": "63376","zip+4": "0000","phone": "6369283957"}
{"name": "DIERBERGS FAMILY MARKETSINC.","address1": "16690 SWINGLEY RIDGE ROAD","address2": "","city": "CHESTERFIELD","state": "MO","zip": "63017","zip+4": "0758","phone": "6365328897"}
{"name": "UNITY RETAIL PHARMACIES","address1": "12800 CORPORATE HILL DR","address2": "","city": "ST LOUIS","state": "MO","zip": "63131","zip+4": "0000","phone": "3143642303"}
{"name": "SCHNUCKS MARKETS INC","address1": "11420 LACKLAND RD","address2": "","city": "ST LOUIS","state": "MO","zip": "63146","zip+4": "0000","phone": "3149944705"}
{"name": "RAMEY/PRICE CUTTER","address1": "336 SOUTH BARNES AVENUE","address2": "","city": "SPRINGFIELD","state": "MO","zip": "65802","zip+4": "0000","phone": "4178299200"}
{"name": "MEDICINE SHOPPE","address1": "1 RIDER TRAIL PLAZA DRIVE","address2": "STE 300","city": "EARTH CITY","state": "MO","zip": "63045","zip+4": "0000","phone": "8003251397"}
{"name": "MEDICAP PHARMACIES INC","address1": "1 RIDER TRAIL PLAZA DRIVE","address2": "STE 300","city": "EARTH CITY","state": "MO","zip": "63045","zip+4": "0000","phone": "5152248400"}