{"id": 8169,"ncpdp": "0800183","pharmacy_name": "RITE AID PHARMACY #11183","address1": "501 EAST BASIN ROAD","address2": "","city": "NEW CASTLE","state": "DE","zip": "19720","zip+4": "0000","phone": "3023284173","NPI": "     1083713309"}, 
{"id": 8170,"ncpdp": "0800210","pharmacy_name": "RITE AID PHARMACY #11186","address1": "4609 KIRKWOOD HIGHWAY","address2": "","city": "WILMINGTON","state": "DE","zip": "19808","zip+4": "0000","phone": "3029942591","NPI": "     1801995139"}, 
{"id": 8171,"ncpdp": "0800222","pharmacy_name": "RITE AID PHARMACY #11177","address1": "2713 PHILADELPHIA PIKE","address2": "","city": "CLAYMONT","state": "DE","zip": "19703","zip+4": "0000","phone": "3027989520","NPI": "     1710086046"}, 
{"id": 8172,"ncpdp": "0800234","pharmacy_name": "RITE AID PHARMACY #11181","address1": "4607 STANTON OGLETOWN ROAD","address2": "","city": "NEWARK","state": "DE","zip": "19713","zip+4": "0000","phone": "3027374440","NPI": "     1629177951"}, 
{"id": 8173,"ncpdp": "0800246","pharmacy_name": "RITE AID PHARMACY #11178","address1": "641 NAAMANS ROAD","address2": "","city": "CLAYMONT","state": "DE","zip": "19703","zip+4": "0000","phone": "3027986866","NPI": "     1558461905"}, 
{"id": 8174,"ncpdp": "0800258","pharmacy_name": "RITE AID PHARMACY #11179","address1": "399 NEW LONDON ROAD","address2": "","city": "NEWARK","state": "DE","zip": "19711","zip+4": "0000","phone": "3027314400","NPI": "     1538268867"}, 
{"id": 8175,"ncpdp": "0800436","pharmacy_name": "MANOR PHARMACY INC","address1": "1412 N DUPONT HIGHWAY","address2": "","city": "NEW CASTLE","state": "DE","zip": "19720","zip+4": "1844","phone": "3023283175","NPI": "     1255438099"}, 
{"id": 8176,"ncpdp": "0800599","pharmacy_name": "HAPPY HARRYS INC #11002","address1": "3601 SILVERSIDE RD","address2": "","city": "WILMINGTON","state": "DE","zip": "19803","zip+4": "0000","phone": "3024784335","NPI": "     1417973017"}, 
{"id": 8177,"ncpdp": "0800703","pharmacy_name": "RITE AID PHARMACY #11182","address1": "25 CHESTNUT HILL PLAZA","address2": "","city": "NEWARK","state": "DE","zip": "19713","zip+4": "0000","phone": "3027319335","NPI": "     1467552810"}, 
{"id": 8178,"ncpdp": "0800715","pharmacy_name": "RITE AID PHARMACY #00731","address1": "2080 NAAMANS ROAD","address2": "","city": "WILMINGTON","state": "DE","zip": "19810","zip+4": "3624","phone": "3024754690","NPI": "     1477643591"}, 
{"id": 8179,"ncpdp": "0800753","pharmacy_name": "HAPPY HARRYS INC #11134","address1": "700 JIMMY DR.","address2": "","city": "SMYRNA","state": "DE","zip": "19977","zip+4": "5806","phone": "3023660335","NPI": "     1356367932"}, 
{"id": 8180,"ncpdp": "0800789","pharmacy_name": "RITE AID PHARMACY #00814","address1": "801 MARKET STREET","address2": "","city": "WILMINGTON","state": "DE","zip": "19801","zip+4": "0000","phone": "3026557432","NPI": "     1316956436"}, 
{"id": 8181,"ncpdp": "0800866","pharmacy_name": "HAPPY HARRYS INC #11006","address1": "2119 CONCORD PIKE","address2": "FAIRFAX","city": "WILMINGTON","state": "DE","zip": "19803","zip+4": "2911","phone": "3026564333","NPI": "     1336153907"}, 
{"id": 8182,"ncpdp": "0800880","pharmacy_name": "HAPPY HARRYS INC #11005","address1": "1325 MCKENNANS CHURCH RD","address2": "MILLTOWN","city": "WILMINGTON","state": "DE","zip": "19808","zip+4": "0000","phone": "3029990515","NPI": "     1669498259"}, 
{"id": 8183,"ncpdp": "0800892","pharmacy_name": "HAPPY HARRYS INC #11003","address1": "15 UNIVERSITY PLZ","address2": "UNIVERSITY PLAZA","city": "NEWARK","state": "DE","zip": "19702","zip+4": "0000","phone": "3027376400","NPI": "     1073539664"}, 
{"id": 8184,"ncpdp": "0800905","pharmacy_name": "HAPPY HARRYS INC #11008","address1": "124 E MAIN ST","address2": "","city": "NEWARK","state": "DE","zip": "19711","zip+4": "0000","phone": "3027386333","NPI": "     1073539672"}, 
{"id": 8185,"ncpdp": "0800967","pharmacy_name": "RITE AID PHARMACY #00839","address1": "1718 MARSH ROAD","address2": "","city": "WILMINGTON","state": "DE","zip": "19810","zip+4": "0000","phone": "3024787200","NPI": "     1942219449"}, 
{"id": 8186,"ncpdp": "0800979","pharmacy_name": "STANTON DISCOUNT PHARMACY","address1": "2006 W NEWPORT PIKE","address2": "","city": "WILMINGTON","state": "DE","zip": "19804","zip+4": "0000","phone": "3029990131","NPI": "     1669576617"}, 
{"id": 8187,"ncpdp": "0801058","pharmacy_name": "MILFORD PHARMACY INC","address1": "112 N E FRONT STREET","address2": "","city": "MILFORD","state": "DE","zip": "19963","zip+4": "0000","phone": "3024228077","NPI": "     1386729671"}, 
{"id": 8188,"ncpdp": "0801147","pharmacy_name": "HAPPY HARRYS INC #11133","address1": "2659 CAPITOL TRAIL","address2": "","city": "NEWARK","state": "DE","zip": "19711","zip+4": "0000","phone": "3024531010","NPI": "     1124042593"}, 
{"id": 8189,"ncpdp": "0801262","pharmacy_name": "MILLSBORO PHARMACY INC","address1": "321 OLD LANDING ROAD","address2": "","city": "MILLSBORO","state": "DE","zip": "19966","zip+4": "0000","phone": "3029349398","NPI": "     1467551333"}, 
{"id": 8190,"ncpdp": "0801351","pharmacy_name": "OUTPATIENT PHARMACY OF THE NEM","address1": "1600 ROCKLAND RD","address2": "","city": "WILMINGTON","state": "DE","zip": "19803","zip+4": "0000","phone": "3026514649","NPI": "     1386830859"}, 
{"id": 8191,"ncpdp": "0801402","pharmacy_name": "HAPPY HARRYS INC #11001","address1": "1812 MARSH RD","address2": "","city": "WILMINGTON","state": "DE","zip": "19810","zip+4": "4533","phone": "3024754265","NPI": "     1376568196"}, 
{"id": 8192,"ncpdp": "0801630","pharmacy_name": "HAPPY HARRYS INC #11011","address1": "1900 MARYLAND AVE","address2": "","city": "WILMINGTON","state": "DE","zip": "19805","zip+4": "0000","phone": "3026525543","NPI": "     1336161587"}, 
{"id": 8193,"ncpdp": "0801717","pharmacy_name": "BAYHEALTH AMBULATORY PHARMACY","address1": "640 S STATE ST","address2": "","city": "DOVER","state": "DE","zip": "19901","zip+4": "0000","phone": "3027446615","NPI": "     1467546135"}, 
{"id": 8194,"ncpdp": "0801820","pharmacy_name": "BAY PHARMACY","address1": "10 SE FRONT ST","address2": "","city": "MILFORD","state": "DE","zip": "19963","zip+4": "0000","phone": "3024223351","NPI": "     1609969971"}, 
{"id": 8195,"ncpdp": "0801832","pharmacy_name": "HAPPY HARRYS INC #09687","address1": "1001 FOREST AVE","address2": "OLDE OAK CTR","city": "DOVER","state": "DE","zip": "19904","zip+4": "0000","phone": "3026789820","NPI": "     1669491841"}, 
{"id": 8196,"ncpdp": "0801870","pharmacy_name": "RITE AID PHARMACY #11195","address1": "66 SMYRNA MART","address2": "","city": "SMYRNA","state": "DE","zip": "19977","zip+4": "0000","phone": "3026536649","NPI": "     1376643726"}, 
{"id": 8197,"ncpdp": "0801971","pharmacy_name": "PATHMARK PHARMACY #586","address1": "4365 KIRKWOOD HIGHWAY","address2": "","city": "WILMINGTON","state": "DE","zip": "19808","zip+4": "0000","phone": "3029952291","NPI": "     1669579421"}, 
{"id": 8198,"ncpdp": "0802012","pharmacy_name": "RITE AID PHARMACY #00129","address1": "263 ELKTON ROAD","address2": "","city": "NEWARK","state": "DE","zip": "19711","zip+4": "4564","phone": "3023681614","NPI": "     1902915283"}, 
{"id": 8199,"ncpdp": "0802048","pharmacy_name": "HAPPY HARRYS INC #11014","address1": "1 TROLLEY SQ","address2": "TROLLEY SQUARE","city": "WILMINGTON","state": "DE","zip": "19806","zip+4": "0000","phone": "3026556397","NPI": "     1073533980"}, 
{"id": 8200,"ncpdp": "0802050","pharmacy_name": "HAPPY HARRYS # #12462","address1": "700 S RIDGE AVE.","address2": "MIDDLETOWN SQUARE","city": "MIDDLETOWN","state": "DE","zip": "19709","zip+4": "0000","phone": "3023789512","NPI": "     1063435360"}, 
{"id": 8201,"ncpdp": "0802086","pharmacy_name": "RITE AID PHARMACY #00172","address1": "2034 NEW CASTLE AVENUE","address2": "","city": "NEW CASTLE","state": "DE","zip": "19720","zip+4": "7703","phone": "3026589824","NPI": "     1811006190"}, 
{"id": 8202,"ncpdp": "0802151","pharmacy_name": "RITE AID PHARMACY #11187","address1": "4718 LIMESTONE ROAD","address2": "","city": "WILMINGTON","state": "DE","zip": "19808","zip+4": "0000","phone": "3029952286","NPI": "     1285734632"}, 
{"id": 8203,"ncpdp": "0802163","pharmacy_name": "RITE AID PHARMACY #11188","address1": "3209 KIRKWOOD HIGHWAY","address2": "","city": "WILMINGTON","state": "DE","zip": "19808","zip+4": "0000","phone": "3029956124","NPI": "     1093815441"}, 
{"id": 8204,"ncpdp": "0802175","pharmacy_name": "PATHMARK PHARMACY #589","address1": "3901 LANCASTER PIKE","address2": "","city": "WILMINGTON","state": "DE","zip": "19805","zip+4": "0000","phone": "3029956677","NPI": "     1578660338"}, 
{"id": 8205,"ncpdp": "0802187","pharmacy_name": "HAPPY HARRYS INC #11010","address1": "3301 LANCASTER PIKE","address2": "","city": "WILMINGTON","state": "DE","zip": "19805","zip+4": "0000","phone": "3026650826","NPI": "     1447276084"}, 
{"id": 8206,"ncpdp": "0802199","pharmacy_name": "MILTON PHARMACY INC","address1": "614 MULBERRY STREET","address2": "","city": "MILTON","state": "DE","zip": "19968","zip+4": "0000","phone": "3026848561","NPI": "     1407994478"}, 
{"id": 8207,"ncpdp": "0802238","pharmacy_name": "HAPPY HARRYS INC #11009","address1": "1410 DUPONT HWY","address2": "","city": "NEW CASTLE","state": "DE","zip": "19720","zip+4": "0000","phone": "3023288237","NPI": "     1972522605"}, 
{"id": 8208,"ncpdp": "0802240","pharmacy_name": "RITE AID PHARMACY #01294","address1": "636 SOUTH MARYLAND AVENUE","address2": "BOXWOOD SHOPPING CENTER","city": "WILMINGTON","state": "DE","zip": "19804","zip+4": "1632","phone": "3029943473","NPI": "     1720197007"}, 
{"id": 8209,"ncpdp": "0802252","pharmacy_name": "RITE AID PHARMACY #11192","address1": "101 EAST DUPONT HIGHWAY","address2": "","city": "MILLSBORO","state": "DE","zip": "19966","zip+4": "0000","phone": "3029348175","NPI": "     1174622401"}, 
{"id": 8210,"ncpdp": "0802264","pharmacy_name": "RITE AID PHARMACY #11193","address1": "18898 REHOBOTH MALL BLVD","address2": "SUITE 1","city": "REHOBOTH BEACH","state": "DE","zip": "19971","zip+4": "0000","phone": "3026458451","NPI": "     1902906357"}, 
{"id": 8211,"ncpdp": "0802276","pharmacy_name": "RITE AID PHARMACY #11189","address1": "245 NORTH DUPONT HIGHWAY","address2": "","city": "DOVER","state": "DE","zip": "19901","zip+4": "0000","phone": "3026742945","NPI": "     1083713317"}, 
{"id": 8212,"ncpdp": "0802288","pharmacy_name": "PATHMARK PHARMACY #590","address1": "100 COLLEGE SQUARE","address2": "","city": "NEWARK","state": "DE","zip": "19711","zip+4": "0000","phone": "3027370393","NPI": "     1487751244"}, 
{"id": 8213,"ncpdp": "0802290","pharmacy_name": "RITE AID PHARMACY #11191","address1": "115 NORTHEAST FRONT STREET","address2": "","city": "MILFORD","state": "DE","zip": "19963","zip+4": "0000","phone": "3024228004","NPI": "     1891894127"}, 
{"id": 8214,"ncpdp": "0802315","pharmacy_name": "RITE AID PHARMACY #11194","address1": "900 WEST STEIN HIGHWAY","address2": "","city": "SEAFORD","state": "DE","zip": "19973","zip+4": "0000","phone": "3026296686","NPI": "     1700985033"}, 
{"id": 8215,"ncpdp": "0802327","pharmacy_name": "MOORES LAKE PHARMACY","address1": "18 LEBANON ROAD","address2": "","city": "DOVER","state": "DE","zip": "19901","zip+4": "0000","phone": "3026970200","NPI": "     1578667523"}, 
{"id": 8216,"ncpdp": "0802341","pharmacy_name": "RITE AID PHARMACY #01411","address1": "1698 PULASKI HIGHWAY","address2": "","city": "BEAR","state": "DE","zip": "19701","zip+4": "1315","phone": "3028361004","NPI": "     1639288913"}, 
{"id": 8217,"ncpdp": "0802391","pharmacy_name": "RITE AID PHARMACY #01600","address1": "1602 KIRKWOOD HIGHWAY","address2": "","city": "NEWARK","state": "DE","zip": "19711","zip+4": "5718","phone": "3024531337","NPI": "     1659482800"}, 
{"id": 8218,"ncpdp": "0802416","pharmacy_name": "HEALTH CENTER AT CHRISTIANA","address1": "200 HYGEIA DR","address2": "","city": "NEWARK","state": "DE","zip": "19713","zip+4": "2049","phone": "3024212526","NPI": "     1891835252"}, 
{"id": 8219,"ncpdp": "0802442","pharmacy_name": "RITE AID PHARMACY #01658","address1": "800 W 4TH STREET","address2": "SUITE 501","city": "WILMINGTON","state": "DE","zip": "19801","zip+4": "2054","phone": "3026544493","NPI": "     1548379829"}, 
{"id": 8220,"ncpdp": "0802555","pharmacy_name": "HAPPY HARRYS INC #11020","address1": "839 N MARKET ST","address2": "MARKET STREET MALL","city": "WILMINGTON","state": "DE","zip": "19801","zip+4": "0000","phone": "3026541834","NPI": "     1497775779"}, 
{"id": 8221,"ncpdp": "0802567","pharmacy_name": "HAPPY HARRYS INC #11019","address1": "241 COLLEGE SQ","address2": "COLLEGE SQUARE","city": "NEWARK","state": "DE","zip": "19711","zip+4": "0000","phone": "3027380478","NPI": "     1528081247"}, 
{"id": 8222,"ncpdp": "0802579","pharmacy_name": "RITE AID PHARMACY #01751","address1": "400 PEOPLES PLAZA","address2": "","city": "NEWARK","state": "DE","zip": "19702","zip+4": "4797","phone": "3028340532","NPI": "     1457460735"}, 
{"id": 8223,"ncpdp": "0802606","pharmacy_name": "RITE AID PHARMACY #01782","address1": "3801 N MARKET STREET","address2": "","city": "WILMINGTON","state": "DE","zip": "19802","zip+4": "2215","phone": "3027621127","NPI": "     1508938085"}, 
{"id": 8224,"ncpdp": "0802644","pharmacy_name": "RITE AID PHARMACY #03748","address1": "1580 SOUTH DUPONT HIGHWAY","address2": "","city": "DOVER","state": "DE","zip": "19901","zip+4": "4900","phone": "3027344788","NPI": "     1366551640"}, 
{"id": 8225,"ncpdp": "0802656","pharmacy_name": "RITE AID PHARMACY #03749","address1": "677 NORTH DUPONT BLVD","address2": "","city": "MILFORD","state": "DE","zip": "19963","zip+4": "1002","phone": "3024223341","NPI": "     1275642555"}, 
{"id": 8226,"ncpdp": "0802670","pharmacy_name": "RITE AID PHARMACY #03756","address1": "41 GREENTREE DRIVE","address2": "GREENTREE VILLAGE SHOPPING CEN","city": "DOVER","state": "DE","zip": "19901","zip+4": "2685","phone": "3026782101","NPI": "     1801905187"}, 
{"id": 8227,"ncpdp": "0802682","pharmacy_name": "SHOPRITE PHARMACY #538","address1": "1600 WEST NEWPORT PIKE","address2": "","city": "WILMINGTON","state": "DE","zip": "19804","zip+4": "0000","phone": "3029991303","NPI": "     1053426825"}, 
{"id": 8228,"ncpdp": "0802719","pharmacy_name": "HAPPY HARRYS INC #11021","address1": "4396 HWY 1","address2": "ROHOBETH BEACH","city": "REHOBOTH","state": "DE","zip": "19971","zip+4": "0000","phone": "3022260220","NPI": "     1023038932"}, 
{"id": 8229,"ncpdp": "0802721","pharmacy_name": "PATHMARK PHARMACY #593","address1": "148 SUNSET BLVD","address2": "","city": "NEW CASTLE","state": "DE","zip": "19720","zip+4": "0000","phone": "3023239612","NPI": "     1295832053"}, 
{"id": 8230,"ncpdp": "0802795","pharmacy_name": "HAPPY HARRYS INC #11022","address1": "128 FOX HUNT DR","address2": "FOX RUN","city": "BEAR","state": "DE","zip": "19701","zip+4": "0000","phone": "3028349209","NPI": "     1134143522"}, 
{"id": 8231,"ncpdp": "0802810","pharmacy_name": "SAVON PHARMACY #7817","address1": "146 FOX HUNT DR ROUTE 40","address2": "","city": "BEAR","state": "DE","zip": "19701","zip+4": "0000","phone": "3028369387","NPI": "     1750337770"}, 
{"id": 8232,"ncpdp": "0802822","pharmacy_name": "SAVON PHARMACY #7822","address1": "1001 N DUPONT HWY RT 13","address2": "","city": "DOVER","state": "DE","zip": "19901","zip+4": "0000","phone": "3026748376","NPI": "     1669428686"}, 
{"id": 8233,"ncpdp": "0802858","pharmacy_name": "MEDICINE SHOPPE #1039","address1": "630 STEIN HIGHWAY","address2": "","city": "SEAFORD","state": "DE","zip": "19973","zip+4": "0000","phone": "3026289928","NPI": "     1073685855"}, 
{"id": 8234,"ncpdp": "0802884","pharmacy_name": "HAPPY HARRYS INC #11080","address1": "6317 LIMESTONE RD","address2": "LANTANA SQUARE","city": "HOCKESSIN","state": "DE","zip": "19707","zip+4": "9170","phone": "3022345440","NPI": "     1063432276"}, 
{"id": 8235,"ncpdp": "0802896","pharmacy_name": "HAPPY HARRYS INC #11024","address1": "4575 NEW LINDEN HILL RD","address2": "LINDEN HILL","city": "WILMINGTON","state": "DE","zip": "19808","zip+4": "0000","phone": "3024563000","NPI": "     1013937937"}, 
{"id": 8236,"ncpdp": "0802909","pharmacy_name": "SAVON PHARMACY #7828","address1": "RT 7 AND VALLEY RD","address2": "","city": "HOCKESSIN","state": "DE","zip": "19707","zip+4": "0000","phone": "3022349004","NPI": "     1578519591"}, 
{"id": 8237,"ncpdp": "0802911","pharmacy_name": "HAPPY HARRYS INC #11025","address1": "4011 KENNETT PIKE","address2": "","city": "WILMINGTON","state": "DE","zip": "19807","zip+4": "0000","phone": "3024275650","NPI": "     1801816731"}, 
{"id": 8238,"ncpdp": "0802923","pharmacy_name": "HAPPY HARRYS INC #11026","address1": "110 E DUPONT HWY","address2": "","city": "MILLSBORO","state": "DE","zip": "19966","zip+4": "0000","phone": "3029343190","NPI": "     1518987395"}, 
{"id": 8239,"ncpdp": "0802947","pharmacy_name": "RITE AID PHARMACY #11176","address1": "701 GOVERNORS PLACE","address2": "","city": "BEAR","state": "DE","zip": "19701","zip+4": "0000","phone": "3028362966","NPI": "     1528167855"}, 
{"id": 8240,"ncpdp": "0802959","pharmacy_name": "WAL-MART PHARMACY #101741","address1": "939 N.DUPONT HWY","address2": "","city": "MILFORD","state": "DE","zip": "19963","zip+4": "0000","phone": "3024220429","NPI": "     1316965833"}, 
{"id": 8241,"ncpdp": "0802973","pharmacy_name": "WAL-MART PHARMACY #101736","address1": "1574 NORTH DUPONT HWY","address2": "","city": "DOVER","state": "DE","zip": "19901","zip+4": "0000","phone": "3026744827","NPI": "     1144247438"}, 
{"id": 8242,"ncpdp": "0802985","pharmacy_name": "HAPPY HARRYS INC #11028","address1": "216 SUBURBAN DR","address2": "SUBURBAN PLAZA","city": "NEWARK","state": "DE","zip": "19711","zip+4": "0000","phone": "3024566760","NPI": "     1730100140"}, 
{"id": 8243,"ncpdp": "0802997","pharmacy_name": "SAVON PHARMACY #7806","address1": "950 ELKTON RD","address2": "","city": "NEWARK","state": "DE","zip": "19711","zip+4": "0000","phone": "3024532335","NPI": "     1487600409"}, 
{"id": 8244,"ncpdp": "0803014","pharmacy_name": "RITE AID PHARMACY #11180","address1": "4 POLLY DRUMMOND SHOPPING CENT","address2": "","city": "NEWARK","state": "DE","zip": "19711","zip+4": "0000","phone": "3027319111","NPI": "     1811097264"}, 
{"id": 8245,"ncpdp": "0803088","pharmacy_name": "HAPPY HARRYS INC #11029","address1": "2103 KIRKWOOD HWY","address2": "","city": "WILMINGTON","state": "DE","zip": "19805","zip+4": "0000","phone": "3026333770","NPI": "     1093738643"}, 
{"id": 8246,"ncpdp": "0803090","pharmacy_name": "SHOPRITE PHARMACY #558","address1": "1300ROCKY RUN PARKWAY","address2": "","city": "WILMINGTON","state": "DE","zip": "19803","zip+4": "0000","phone": "3024773274","NPI": "     1962517730"}, 
{"id": 8247,"ncpdp": "0803103","pharmacy_name": "HAPPY HARRYS INC #11017","address1": "1120 PULASKI HWY","address2": "EDEN QUARE","city": "BEAR","state": "DE","zip": "19701","zip+4": "0000","phone": "3028322300","NPI": "     1144240433"}, 
{"id": 8248,"ncpdp": "0803115","pharmacy_name": "HAPPY HARRYS INC #10031","address1": "1 BACK BAY PARK CTR","address2": "LONG NECK","city": "MILLSBORO","state": "DE","zip": "19966","zip+4": "0000","phone": "3029456060","NPI": "     1356363733"}, 
{"id": 8249,"ncpdp": "0803127","pharmacy_name": "SUPER G PHARMACY #385","address1": "300 EDEN SQUARE","address2": "","city": "BEAR","state": "DE","zip": "19701","zip+4": "0000","phone": "3028320156","NPI": "     1366475618"}, 
{"id": 8250,"ncpdp": "0803139","pharmacy_name": "FAMILY PHARMACY","address1": "1416 LANCASTER AVE","address2": "BAYARD SQUARE","city": "WILMINGTON","state": "DE","zip": "19805","zip+4": "3905","phone": "3026521994","NPI": "     1083761134"}, 
{"id": 8251,"ncpdp": "0803141","pharmacy_name": "CHRISTIANA CARE PHARMACY-WILMI","address1": "501 W 14TH ST","address2": "","city": "WILMINGTON","state": "DE","zip": "19801","zip+4": "0000","phone": "3024286843","NPI": "     1639219082"}, 
{"id": 8252,"ncpdp": "0803189","pharmacy_name": "KMART PHARMACY #7725","address1": "19563 COASTAL HWY UNIT A","address2": "","city": "REHOBOTH BEACH","state": "DE","zip": "19971","zip+4": "1141","phone": "3022260251","NPI": "     1679504781"}, 
{"id": 8253,"ncpdp": "0803228","pharmacy_name": "SUPER G PHARMACY #386","address1": "4301 CONCORD PIKE","address2": "","city": "WILMINGTON","state": "DE","zip": "19803","zip+4": "0000","phone": "3024756572","NPI": "     1275566523"}, 
{"id": 8254,"ncpdp": "0803254","pharmacy_name": "SAVON PHARMACY #7872","address1": "1308 CENTERVILLE RD","address2": "","city": "WILMINGTON","state": "DE","zip": "19808","zip+4": "0000","phone": "3029943848","NPI": "     1396791216"}, 
{"id": 8255,"ncpdp": "0803266","pharmacy_name": "HAPPY HARRYS INC #11033","address1": "729 S COASTAL HWY","address2": "BETHANY CENTER","city": "BETHANY BEACH","state": "DE","zip": "19930","zip+4": "0000","phone": "3025392200","NPI": "     1164443479"}, 
{"id": 8256,"ncpdp": "0803292","pharmacy_name": "HAPPY HARRYS INC #11035","address1": "4114 STANTON OGLETOWN RD","address2": "HARMONY PLAZA","city": "NEWARK","state": "DE","zip": "19713","zip+4": "0000","phone": "3023665660","NPI": "     1548281900"}, 
{"id": 8257,"ncpdp": "0803305","pharmacy_name": "HAPPY HARRYS INC #11034","address1": "740 FERRY CUT OFF","address2": "RIVER PLAZA","city": "NEW CASTLE","state": "DE","zip": "19720","zip+4": "5072","phone": "3023264630","NPI": "     1104832526"}, 
{"id": 8258,"ncpdp": "0803317","pharmacy_name": "WAL-MART PHARMACY #102460","address1": "751 NORTH DUAL HWY","address2": "","city": "SEAFORD","state": "DE","zip": "19973","zip+4": "0000","phone": "3026289824","NPI": "     1053338343"}, 
{"id": 8259,"ncpdp": "0803381","pharmacy_name": "HAPPY HARRYS INC #11036","address1": "261 N DUPONT HWY","address2": "CENTER AT DOVER","city": "DOVER","state": "DE","zip": "19901","zip+4": "0000","phone": "3027305280","NPI": "     1972519221"}, 
{"id": 8260,"ncpdp": "0803393","pharmacy_name": "HAPPY HARRYS INC #11052","address1": "2012 BRACKENVILLE RD","address2": "HOCKESSIN VILLAGE","city": "HOCKESSIN","state": "DE","zip": "19707","zip+4": "0000","phone": "3022345710","NPI": "     1801817259"}, 
{"id": 8261,"ncpdp": "0803406","pharmacy_name": "HAPPY HARRYS INC #11039","address1": "210 GATEWAY SOUTH","address2": "","city": "DOVER","state": "DE","zip": "19901","zip+4": "0000","phone": "3026981265","NPI": "     1699799908"}, 
{"id": 8262,"ncpdp": "0803420","pharmacy_name": "HAPPY HARRYS INC #11132","address1": "648 NW FRONT ST","address2": "","city": "MILFORD","state": "DE","zip": "19963","zip+4": "1033","phone": "3024246300","NPI": "     1750301552"}, 
{"id": 8263,"ncpdp": "0803432","pharmacy_name": "COSTCO PHARMACY #246","address1": "900 CENTER BLVD","address2": "","city": "NEWARK","state": "DE","zip": "19702","zip+4": "0000","phone": "3028940250","NPI": "     1548370158"}, 
{"id": 8264,"ncpdp": "0803444","pharmacy_name": "TARGET PHARMACY #1146","address1": "1050 BRANDYWINE PARKWAY","address2": "","city": "WILMINGTON","state": "DE","zip": "19803","zip+4": "0000","phone": "3024783200","NPI": "     1790707396"}, 
{"id": 8265,"ncpdp": "0803456","pharmacy_name": "STUDENT HEALTH SRVC DISPENSARY","address1": "UNIVERSITY OF DELAWARE LAUREL","address2": "","city": "NEWARK","state": "DE","zip": "19716","zip+4": "0000","phone": "3028314251","NPI": "     1063555605"}, 
{"id": 8266,"ncpdp": "0803494","pharmacy_name": "HAPPY HARRYS INC #11016","address1": "RT 13 AND CR 468","address2": "LAUREL SQUARE","city": "LAUREL","state": "DE","zip": "19956","zip+4": "0000","phone": "3028758560","NPI": "     1609896513"}, 
{"id": 8267,"ncpdp": "0803507","pharmacy_name": "HAPPY HARRYS INC #11041","address1": "16864 SAVANNAH RD","address2": "","city": "LEWES","state": "DE","zip": "19958","zip+4": "0000","phone": "3026447880","NPI": "     1134149933"}, 
{"id": 8268,"ncpdp": "0803519","pharmacy_name": "SUPER FRESH PHARMACY #559","address1": "4575 HWY 1","address2": "STE 50","city": "REHOBOTH BEACH","state": "DE","zip": "19971","zip+4": "0000","phone": "3026447530","NPI": "     1245255892"}, 
{"id": 8269,"ncpdp": "0803521","pharmacy_name": "RITE AID PHARMACY #04913","address1": "444 SAVANNAH ROAD","address2": "","city": "LEWES","state": "DE","zip": "19958","zip+4": "1462","phone": "3026456243","NPI": "     1710096094"}, 
{"id": 8270,"ncpdp": "0803533","pharmacy_name": "RITE AID PHARMACY #04914","address1": "1120 SOUTH CENTRAL AVENUE","address2": "","city": "LAUREL","state": "DE","zip": "19956","zip+4": "1418","phone": "3028757844","NPI": "     1629187901"}, 
{"id": 8271,"ncpdp": "0803545","pharmacy_name": "RITE AID PHARMACY #04916","address1": "24832 JOHN J WILLIAMS HWY 3","address2": "","city": "MILLSBORO","state": "DE","zip": "19966","zip+4": "9511","phone": "3029471204","NPI": "     1538278817"}, 
{"id": 8272,"ncpdp": "0803557","pharmacy_name": "RITE AID PHARMACY #04918","address1": "40 GEORGETOWN PLAZA","address2": "","city": "GEORGETOWN","state": "DE","zip": "19947","zip+4": "0000","phone": "3028562015","NPI": "     1801806013"}, 
{"id": 8273,"ncpdp": "0803583","pharmacy_name": "RITE AID PHARMACY #04924","address1": "17069 SOUTH DUPONT HIGHWAY","address2": "","city": "HARRINGTON","state": "DE","zip": "19952","zip+4": "7403","phone": "3023984420","NPI": "     1447369723"}, 
{"id": 8274,"ncpdp": "0803595","pharmacy_name": "RITE AID PHARMACY #04919","address1": "219 ATLANTIC AVENUE","address2": "","city": "MILLVILLE","state": "DE","zip": "19967","zip+4": "6701","phone": "3025393334","NPI": "     1356450639"}, 
{"id": 8275,"ncpdp": "0803608","pharmacy_name": "RITE AID PHARMACY #04910","address1": "10 MASON DIXON SHOPPING CENTER","address2": "","city": "SELBYVILLE","state": "DE","zip": "19975","zip+4": "9614","phone": "3024369226","NPI": "     1265541544"}, 
{"id": 8276,"ncpdp": "0803622","pharmacy_name": "RITE AID PHARMACY #04926","address1": "455 WEST MAIN STREET","address2": "","city": "MIDDLETOWN","state": "DE","zip": "19709","zip+4": "1064","phone": "3023767833","NPI": "     1174632459"}, 
{"id": 8277,"ncpdp": "0803634","pharmacy_name": "SUPER G PHARMACY #387","address1": "19312 LIGHTHOUSE PLAZA BLVD","address2": "","city": "REHOBOTH BEACH","state": "DE","zip": "19971","zip+4": "0000","phone": "3022275954","NPI": "     1184657439"}, 
{"id": 8278,"ncpdp": "0803646","pharmacy_name": "WAL-MART PHARMACY #102555","address1": "117 WILTON BLVD","address2": "","city": "NEW CASTLE","state": "DE","zip": "19720","zip+4": "0000","phone": "3023240905","NPI": "     1790702090"}, 
{"id": 8279,"ncpdp": "0803658","pharmacy_name": "RITE AID PHARMACY #11175","address1": "1999 PULASKI HWY ROUTE 40","address2": "","city": "BEAR","state": "DE","zip": "19701","zip+4": "0000","phone": "3028329772","NPI": "     1437258761"}, 
{"id": 8280,"ncpdp": "0803660","pharmacy_name": "HAPPY HARRYS INC #11042","address1": "2000 MIDWAY DR","address2": "","city": "HARRINGTON","state": "DE","zip": "19952","zip+4": "0000","phone": "3023981200","NPI": "     1649290438"}, 
{"id": 8281,"ncpdp": "0803711","pharmacy_name": "KMART PHARMACY #4807","address1": "401 GOVERNOR PLACE","address2": "","city": "BEAR","state": "DE","zip": "19701","zip+4": "0000","phone": "3028349052","NPI": "     1588695696"}, 
{"id": 8282,"ncpdp": "0803723","pharmacy_name": "SUPER FRESH PHARMACY #562","address1": "2105 PHILADELPHIA PIKE","address2": "","city": "CLAYMONT","state": "DE","zip": "19703","zip+4": "0000","phone": "3027984618","NPI": "     1154346708"}, 
{"id": 8283,"ncpdp": "0803747","pharmacy_name": "HAPPY HARRYS INC #11044","address1": "RR 2 BOX 21B","address2": "","city": "CLARKSVILLE","state": "DE","zip": "19970","zip+4": "0000","phone": "3025373970","NPI": "     1174543953"}, 
{"id": 8284,"ncpdp": "0803759","pharmacy_name": "HAPPY HARRYS INC #11045","address1": "372 POSSUM PARK RD","address2": "","city": "NEWARK","state": "DE","zip": "19711","zip+4": "0000","phone": "3024551707","NPI": "     1134133010"}, 
{"id": 8285,"ncpdp": "0803761","pharmacy_name": "HAPPY HARRYS INC #11621","address1": "22898 SUSSEX HWY","address2": "","city": "SEAFORD","state": "DE","zip": "19973","zip+4": "0000","phone": "3026286100","NPI": "     1144240920"}, 
{"id": 8286,"ncpdp": "0803773","pharmacy_name": "HAPPY HARRYS INC #11047","address1": "2 COLLEGE PARK LN","address2": "","city": "GEORGETOWN","state": "DE","zip": "19947","zip+4": "0000","phone": "3028545200","NPI": "     1528088390"}, 
{"id": 8287,"ncpdp": "0803785","pharmacy_name": "KMART PHARMACY #7110","address1": "333 NAAMANS ROAD","address2": "","city": "CLAYMONT","state": "DE","zip": "19703","zip+4": "2894","phone": "3027929741","NPI": "     1396776407"}, 
{"id": 8288,"ncpdp": "0803797","pharmacy_name": "HAPPY HARRYS INC #11048","address1": "2719 PULASKI HWY","address2": "DEER PARK","city": "NEWARK","state": "DE","zip": "19702","zip+4": "0000","phone": "3024534800","NPI": "     1073536165"}, 
{"id": 8289,"ncpdp": "0803800","pharmacy_name": "WAL-MART PHARMACY #102791","address1": "4 COLLEGE PARK LANE","address2": "","city": "GEORGETOWN","state": "DE","zip": "19947","zip+4": "0000","phone": "3028549464","NPI": "     1609893908"}, 
{"id": 8290,"ncpdp": "0803812","pharmacy_name": "HAPPY HARRYS INC #11049","address1": "802 PHILADELPHIA PIKE","address2": "","city": "WILMINGTON","state": "DE","zip": "19809","zip+4": "0000","phone": "3027611700","NPI": "     1518987445"}, 
{"id": 8291,"ncpdp": "0803836","pharmacy_name": "HAPPY HARRYS INC #11050","address1": "500 PLAZA DR","address2": "FOUR SEASONS","city": "NEWARK","state": "DE","zip": "19702","zip+4": "0000","phone": "3026311900","NPI": "     1255355566"}, 
{"id": 8292,"ncpdp": "0803850","pharmacy_name": "HAPPY HARRYS INC #11053","address1": "RD 3 BOX 512A","address2": "","city": "FENWICK ISLAND","state": "DE","zip": "19944","zip+4": "0000","phone": "3025391800","NPI": "     1578583480"}, 
{"id": 8293,"ncpdp": "0803862","pharmacy_name": "TARGET PHARMACY #1312","address1": "148 JOHN HUNN BROWN ROAD","address2": "","city": "DOVER","state": "DE","zip": "19901","zip+4": "0000","phone": "3027410466","NPI": "     1609898204"}, 
{"id": 8294,"ncpdp": "0803874","pharmacy_name": "HAPPY HARRYS INC #11051","address1": "536 MAIN ST","address2": "","city": "STANTON","state": "DE","zip": "19804","zip+4": "0000","phone": "3026330569","NPI": "     1275553190"}, 
{"id": 8295,"ncpdp": "0803898","pharmacy_name": "HAPPY HARRYS INC #11055","address1": "4465 SUMMIT BRIDGE RD","address2": "","city": "MIDDLETOWN","state": "DE","zip": "19709","zip+4": "0000","phone": "3023761600","NPI": "     1366461444"}, 
{"id": 8296,"ncpdp": "0803901","pharmacy_name": "HAPPY HARRYS INC #11058","address1": "287 CHRISTIANA RD","address2": "COMMUNITY PLAZA","city": "NEW CASTLE","state": "DE","zip": "19720","zip+4": "0000","phone": "3023251098","NPI": "     1598781130"}, 
{"id": 8297,"ncpdp": "0803925","pharmacy_name": "WAL-MART PHARMACY #102419","address1": "18922 REHOBOTH MALL BLVD","address2": "","city": "REHOBOTH BEACH","state": "DE","zip": "19971","zip+4": "0000","phone": "3026448022","NPI": "     1619995032"}, 
{"id": 8298,"ncpdp": "0803937","pharmacy_name": "SAFEWAY #1763","address1": "190 JOHN HUNN BROWN ROAD","address2": "","city": "DOVER","state": "DE","zip": "19901","zip+4": "0000","phone": "3027309101","NPI": "     1598701377"}, 
{"id": 8299,"ncpdp": "0803949","pharmacy_name": "HAPPY HARRYS INC #11060","address1": "5506 S DUPONT HWY","address2": "WOODSIDE","city": "DOVER","state": "DE","zip": "19901","zip+4": "0000","phone": "3026986320","NPI": "     1295753275"}, 
{"id": 8300,"ncpdp": "0803951","pharmacy_name": "HAPPY HARRYS INC #11061","address1": "1215 S STATE ST","address2": "","city": "DOVER","state": "DE","zip": "19901","zip+4": "0000","phone": "3027301170","NPI": "     1295759405"}, 
{"id": 8301,"ncpdp": "0803963","pharmacy_name": "SAVON PHARMACY #7836","address1": "236 E GLENWOOD AVE","address2": "","city": "SMYRNA","state": "DE","zip": "19977","zip+4": "0000","phone": "3026533610","NPI": "     1760438386"}, 
{"id": 8302,"ncpdp": "0803987","pharmacy_name": "HAPPY HARRYS INC #11063","address1": "52 W BIRDIE LN","address2": "","city": "MAGNOLIA","state": "DE","zip": "19962","zip+4": "0000","phone": "3026977435","NPI": "     1619998937"}, 
{"id": 8303,"ncpdp": "0803999","pharmacy_name": "HAPPY HARRYS INC #11065","address1": "9561 BRIDGEVILLE CENTRE","address2": "","city": "BRIDGEVILLE","state": "DE","zip": "19933","zip+4": "0000","phone": "3023379785","NPI": "     1396766622"}, 
{"id": 8304,"ncpdp": "0804004","pharmacy_name": "HAPPY HARRYS INC #11066","address1": "19 MARROWS RD","address2": "","city": "NEWARK","state": "DE","zip": "19713","zip+4": "0000","phone": "3023692510","NPI": "     1376551820"}, 
{"id": 8305,"ncpdp": "0804016","pharmacy_name": "HAPPY HARRYS INC #11067","address1": "396 E MAIN ST","address2": "","city": "MIDDLETOWN","state": "DE","zip": "19709","zip+4": "0000","phone": "3023781891","NPI": "     1922022136"}, 
{"id": 8306,"ncpdp": "0804028","pharmacy_name": "RITE AID PHARMACY #11190","address1": "3004 SOUTH DUPONT HIGHWAY","address2": "","city": "CAMDEN","state": "DE","zip": "19934","zip+4": "0000","phone": "3026983966","NPI": "     1346349677"}, 
{"id": 8307,"ncpdp": "0804030","pharmacy_name": "CHRISTIANA CARE PHARMACY #1","address1": "4755 OGLETOWN STATION RD","address2": "","city": "NEWARK","state": "DE","zip": "19718","zip+4": "0000","phone": "3027332182","NPI": "     1720128176"}, 
{"id": 8308,"ncpdp": "0804042","pharmacy_name": "CVS PHARMACY #03738","address1": "4298 HWY ONE","address2": "","city": "REHOBOTH BEACH","state": "DE","zip": "19971","zip+4": "0000","phone": "3022267791","NPI": "     1871697706"}, 
{"id": 8309,"ncpdp": "0804054","pharmacy_name": "HAPPY HARRYS INC #11069","address1": "1710 FAULKLAND RD","address2": "","city": "WILMINGTON","state": "DE","zip": "19805","zip+4": "0000","phone": "3029941971","NPI": "     1902820129"}, 
{"id": 8310,"ncpdp": "0804066","pharmacy_name": "WAL-MART PHARMACY #105039","address1": "263 WAL-MART DRIVE","address2": "","city": "CAMDEN","state": "DE","zip": "19934","zip+4": "0000","phone": "3026989287","NPI": "     1518984814"}, 
{"id": 8311,"ncpdp": "0804078","pharmacy_name": "SAVON PHARMACY #7816","address1": "460 E MAIN ST","address2": "","city": "MIDDLETOWN","state": "DE","zip": "19709","zip+4": "0000","phone": "3024491868","NPI": "     1205882123"}, 
{"id": 8312,"ncpdp": "0804080","pharmacy_name": "SAMS PHARMACY #106330","address1": "1572 NO DUPONT HWY","address2": "","city": "DOVER","state": "DE","zip": "19901","zip+4": "0000","phone": "3026782161","NPI": "     1427075720"}, 
{"id": 8313,"ncpdp": "0804105","pharmacy_name": "CAPE PHARMACY LLC","address1": "17252 N VILLAGE MAIN BLVD","address2": "UNIT 3","city": "LEWES","state": "DE","zip": "19958","zip+4": "0000","phone": "3026450090","NPI": "     1487717104"}, 
{"id": 8314,"ncpdp": "0804117","pharmacy_name": "HAPPY HARRYS INC #11070","address1": "1313 N UNION ST","address2": "","city": "WILMINGTON","state": "DE","zip": "19806","zip+4": "2533","phone": "3026581381","NPI": "     1538182860"}, 
{"id": 8315,"ncpdp": "0804129","pharmacy_name": "FULCRUM PHARMACY","address1": "501 N SHIPLEY ST","address2": "","city": "WILMINGTON","state": "DE","zip": "19805","zip+4": "0000","phone": "3026588020","NPI": "     1689756462"}, 
{"id": 8316,"ncpdp": "0804131","pharmacy_name": "MARKET STREET PHARMACY INC","address1": "1914 N MARKET ST","address2": "","city": "WILMINGTON","state": "DE","zip": "19802","zip+4": "0000","phone": "3024219200","NPI": "     1316005176"}, 
{"id": 8317,"ncpdp": "0804143","pharmacy_name": "HAPPY HARRYS INC #11073","address1": "120 BROADKILL RD","address2": "","city": "MILTON","state": "DE","zip": "19968","zip+4": "0000","phone": "3026843184","NPI": "     1720009053"}, 
{"id": 8318,"ncpdp": "0804167","pharmacy_name": "SUPER G PHARMACY #388","address1": "200 DOVE RUN CENTER","address2": "","city": "MIDDLETOWN","state": "DE","zip": "19709","zip+4": "0000","phone": "3028289181","NPI": "     1992738249"}, 
{"id": 8319,"ncpdp": "0844692","pharmacy_name": "HAPPY HARRYS INC #11075","address1": "2470 S DUPONT PKWY","address2": "","city": "MIDDLETOWN","state": "DE","zip": "19709","zip+4": "0000","phone": "3023769743","NPI": "     1437171907"}, 
{"id": 8320,"ncpdp": "0844729","pharmacy_name": "SAFEWAY #2706","address1": "NW CORNER ROUTE 1 AND MILLER R","address2": "","city": "REHOBOTH BEACH","state": "DE","zip": "19971","zip+4": "0000","phone": "3022268410","NPI": "     1851310882"}, 
{"id": 8321,"ncpdp": "0844731","pharmacy_name": "WAL-MART PHARMACY #105436","address1": "1251 CENTERVILLE RD","address2": "","city": "WILMINGTON","state": "DE","zip": "19808","zip+4": "0000","phone": "3029982626","NPI": "     1295876159"}, 
{"id": 8322,"ncpdp": "0844755","pharmacy_name": "HAPPY HARRYS INC #11078","address1": "1500 BEAVER BROOK PLZ","address2": "","city": "NEW CASTLE","state": "DE","zip": "19720","zip+4": "0000","phone": "3023271060","NPI": "     1538181946"}, 
{"id": 8323,"ncpdp": "0844767","pharmacy_name": "GIANT PHARMACY #389","address1": "220 TOWN CENTER DR","address2": "","city": "MILLVILLE","state": "DE","zip": "19967","zip+4": "0000","phone": "3025378210","NPI": "     1396794160"}, 
{"id": 8324,"ncpdp": "0844779","pharmacy_name": "BI STATE PHARMACY INC","address1": "5 E STATE ST","address2": "","city": "DELMAR","state": "DE","zip": "19940","zip+4": "0000","phone": "3028469101","NPI": "     1235184060"}, 
{"id": 8325,"ncpdp": "0844781","pharmacy_name": "HAPPY HARRYS INC #11079","address1": "38627 BENRO DRIVE","address2": "","city": "DELMAR","state": "DE","zip": "19940","zip+4": "0000","phone": "3029071001","NPI": "     1457373920"}, 
{"id": 8326,"ncpdp": "0844793","pharmacy_name": "PILL BOX PHARMACY #1","address1": "115 AERENSON DR","address2": "","city": "MILFORD","state": "DE","zip": "19963","zip+4": "0000","phone": "3024300995","NPI": "     1407962665"}, 
{"id": 8327,"ncpdp": "0844818","pharmacy_name": "CURASCRIPT SP SPECIALTY PHARMA","address1": "2 BOULDER CIR","address2": "STE 1","city": "NEW CASTLE","state": "DE","zip": "19720","zip+4": "0000","phone": "3023958943","NPI": "     1538281837"}, 
{"id": 8328,"ncpdp": "0844832","pharmacy_name": "MS RX PHARMACY","address1": "908 EAST 16TH ST","address2": "STE B","city": "WILMINGTON","state": "DE","zip": "19802","zip+4": "0000","phone": "3022251790","NPI": "     1427268069"}, 
{"id": 8329,"ncpdp": "0844844","pharmacy_name": "HARRIS TEETER PHARMACY #327","address1": "31221 AMERICANA PKWY","address2": "","city": "SELBYVILLE","state": "DE","zip": "19975","zip+4": "0000","phone": "3024364858","NPI": "     1932394368"}, 
{"id": 8330,"ncpdp": "0844856","pharmacy_name": "WALGREEN DRUG STORE #11135","address1": "5999 SUMMIT BRIDGE RD","address2": "","city": "TOWNSEND","state": "DE","zip": "19734","zip+4": "9613","phone": "3026961002","NPI": "     1215121942"}, 
{"id": 8331,"ncpdp": "0844870","pharmacy_name": "WALGREEN DRUG STORE #11136","address1": "37088 W FENWICK BLVD","address2": "","city": "WEST FENWICK","state": "DE","zip": "19975","zip+4": "0000","phone": "3024367191","NPI": "     1154519676"}, 
{"id": 8332,"ncpdp": "0844882","pharmacy_name": "ATLANTIC APOTHECARY A HEALTH M","address1": "100 S MAIN ST","address2": "STE 104","city": "SMYRNA","state": "DE","zip": "19977","zip+4": "0000","phone": "3026539355","NPI": "     1609065283"}, 
{"id": 8333,"ncpdp": "0844894","pharmacy_name": "WALGREEN DRUG STORE #11032","address1": "1508 PHILADELPHIA PIKE","address2": "","city": "WILMINGTON","state": "DE","zip": "19809","zip+4": "1826","phone": "3022461111","NPI": "     1598954513"}, 
{"id": 8334,"ncpdp": "0844907","pharmacy_name": "RITE AID PHARMACY #07891","address1": "200 PHARMACY DRIVE","address2": "","city": "SMYRNA","state": "DE","zip": "19977","zip+4": "2886","phone": "3026591267","NPI": "     1982880100"}, 
{"id": 8335,"ncpdp": "0844919","pharmacy_name": "RENAISSANCE FAMILY PHARMACY","address1": "2618 PHILADELPHIA PIKE","address2": "","city": "CLAYMONT","state": "DE","zip": "19703","zip+4": "0000","phone": "3027984801","NPI": "     1568631372"}, 
{"id": 8336,"ncpdp": "0844921","pharmacy_name": "GIANT PHARMACY #2351","address1": "25939 PLAZA DRIVE","address2": "","city": "MILLSBORO","state": "DE","zip": "19966","zip+4": "0000","phone": "3029474380","NPI": "     1598936577"}, 
{"id": 8337,"ncpdp": "0844933","pharmacy_name": "NEW CASTLE RX","address1": "263 QUIGLEY BLVD","address2": "STE 1B","city": "NEW CASTLE","state": "DE","zip": "19720","zip+4": "8112","phone": "3023565600","NPI": "     1528226362"}, 
{"id": 8338,"ncpdp": "0844945","pharmacy_name": "HAPPY HARRY\'S #11322","address1": "200 BANNING ST","address2": "STE 100","city": "DOVER","state": "DE","zip": "19904","zip+4": "0000","phone": "3027349303","NPI": "     1437313210"}, 
{"id": 8339,"ncpdp": "0844957","pharmacy_name": "WAL-MART PHARMACY #3802","address1": "705 MIDDLETOWN WARWICK RD","address2": "","city": "MIDDLETOWN","state": "DE","zip": "19709","zip+4": "0000","phone": "3024491254","NPI": "     1427205244"}, 
{"id": 8340,"ncpdp": "0844969","pharmacy_name": "PROGRESS PHARMACY AT NEWARK","address1": "600 WHITE CLAY CENTER DRIVE","address2": "","city": "NEWARK","state": "DE","zip": "19711","zip+4": "0000","phone": "3025333120","NPI": "     1992953988"}, 
{"id": 8341,"ncpdp": "0844983","pharmacy_name": "RADIUS RX DIRECT","address1": "501 N. SHIPLEY STREET","address2": "UNIT 2","city": "WILMINGTON","state": "DE","zip": "19801","zip+4": "0000","phone": "3026589196","NPI": "     1083865463"}, 
{"id": 8342,"ncpdp": "0844995","pharmacy_name": "SHOPRITE OF CHRISTINA LANDING","address1": "501 S WALNUT STREET","address2": "","city": "WILIMINGTON","state": "DE","zip": "19801","zip+4": "0000","phone": "7325218439","NPI": "     1548413891"}, 
{"id": 8343,"ncpdp": "0845000","pharmacy_name": "DARLEY PHARMACY #1","address1": "111 DARLEY ROAD","address2": "","city": "CLAYMONT","state": "DE","zip": "19703","zip+4": "0000","phone": "3027980202","NPI": "     1366683799"}, 
{"id": 8344,"ncpdp": "0845012","pharmacy_name": "PATHMARK PHARMACY #540","address1": "700 PLAZA DR","address2": "","city": "NEWARK","state": "DE","zip": "19702","zip+4": "6370","phone": "3027373802","NPI": "     1396986790"}, 
{"id": 8345,"ncpdp": "0845024","pharmacy_name": "CVS PHARMACY #00088","address1": "1005 DELAWARE AVE.","address2": "","city": "WILMINGTON","state": "DE","zip": "19806","zip+4": "0000","phone": "3025749836","NPI": "     1598992448"}, 
