{"id": 14664,"ncpdp": "1200031","pharmacy_name": "LONGS DRUGS #09228","address1": "1330 PALI HWY","address2": "","city": "HONOLULU","state": "HI","zip": "96813","zip+4": "0000","phone": "8085365542","NPI": "     1134162902"}, 
{"id": 14665,"ncpdp": "1200106","pharmacy_name": "LONGS DRUGS #09620","address1": "555 KILAUEA AVE","address2": "","city": "HILO","state": "HI","zip": "96720","zip+4": "0000","phone": "8089359075","NPI": "     1538103973"}, 
{"id": 14666,"ncpdp": "1200118","pharmacy_name": "SHIIGI DRUG COMPANY INC","address1": "333 KILAUEA AVE","address2": "SUITE 109","city": "HILO","state": "HI","zip": "96720","zip+4": "4239","phone": "8089350001","NPI": "     1528023777"}, 
{"id": 14667,"ncpdp": "1200271","pharmacy_name": "DON QUIJOTE DRUGS","address1": "801 KAHEKA ST","address2": "","city": "HONOLULU","state": "HI","zip": "96814","zip+4": "0000","phone": "8089736661","NPI": "     1821123951"}, 
{"id": 14668,"ncpdp": "1200384","pharmacy_name": "LONGS DRUGS #09182","address1": "1088 BISHOP ST","address2": "","city": "HONOLULU","state": "HI","zip": "96813","zip+4": "0000","phone": "8085365706","NPI": "     1447294889"}, 
{"id": 14669,"ncpdp": "1200396","pharmacy_name": "LONGS DRUGS #09220","address1": "4211 WAIALAE AVE","address2": "","city": "HONOLULU","state": "HI","zip": "96816","zip+4": "0000","phone": "8087320782","NPI": "     1083656805"}, 
{"id": 14670,"ncpdp": "1200411","pharmacy_name": "LONGS DRUGS #09653","address1": "1620 N SCHOOL ST","address2": "","city": "HONOLULU","state": "HI","zip": "96817","zip+4": "0000","phone": "8088410724","NPI": "     1598707325"}, 
{"id": 14671,"ncpdp": "1200699","pharmacy_name": "NORTH SHORE PHARMACY INC","address1": "56 119 PUALALEO STREET","address2": "","city": "KAHUKU","state": "HI","zip": "96731","zip+4": "0385","phone": "8082938757","NPI": "     1669429239"}, 
{"id": 14672,"ncpdp": "1200738","pharmacy_name": "DON QUIJOTE DRUGS","address1": "345 HAHANI ST","address2": "","city": "KAILUA","state": "HI","zip": "96734","zip+4": "2896","phone": "8082664434","NPI": "     1053454959"}, 
{"id": 14673,"ncpdp": "1200841","pharmacy_name": "OSHIMA DRUG","address1": "79 7400 MAMALAHOA HWY","address2": "","city": "KEALAKEKUA","state": "HI","zip": "96750","zip+4": "0048","phone": "8083223313","NPI": "     1669565008"}, 
{"id": 14674,"ncpdp": "1200889","pharmacy_name": "LONGS DRUGS #09275","address1": "850 KAMEHAMEHA HWY","address2": "","city": "PEARL CITY","state": "HI","zip": "96782","zip+4": "0000","phone": "8084554555","NPI": "     1407898232"}, 
{"id": 14675,"ncpdp": "1200928","pharmacy_name": "WAIANAE DRUG","address1": "85-910 FARRINGTON HWY","address2": "SUITE 101","city": "WAIANAE","state": "HI","zip": "96792","zip+4": "2651","phone": "8086966349","NPI": "     1831241934"}, 
{"id": 14676,"ncpdp": "1200978","pharmacy_name": "WAIPAHU DRUG #123","address1": "94 748 A HIKIMOE ST","address2": "","city": "WAIPAHU","state": "HI","zip": "96797","zip+4": "0000","phone": "8086770794","NPI": "     1538158258"}, 
{"id": 14677,"ncpdp": "1201057","pharmacy_name": "LONGS DRUGS #09671","address1": "46047 KAMEHAMEHA HWY","address2": "","city": "KANEOHE","state": "HI","zip": "96744","zip+4": "0000","phone": "8082354551","NPI": "     1316989148"}, 
{"id": 14678,"ncpdp": "1201071","pharmacy_name": "LONGS DRUGS #09206","address1": "1450 ALA MOANA BLVD  #2004","address2": "","city": "HONOLULU","state": "HI","zip": "96814","zip+4": "0000","phone": "8089494010","NPI": "     1356384671"}, 
{"id": 14679,"ncpdp": "1201083","pharmacy_name": "WESTSIDE PHARMACY","address1": "1 3845 KAUMUALII HWY","address2": "","city": "HANAPEPE","state": "HI","zip": "96716","zip+4": "0249","phone": "8083355342","NPI": "     1922198845"}, 
{"id": 14680,"ncpdp": "1201160","pharmacy_name": "TIMES PHARMACY #11","address1": "1425 LILIHA ST","address2": "","city": "HONOLULU","state": "HI","zip": "96817","zip+4": "0000","phone": "8085225078","NPI": "     1417055443"}, 
{"id": 14681,"ncpdp": "1201172","pharmacy_name": "LONGS DRUGS #09663","address1": "70 E KAAHUMANU AVE","address2": "","city": "KAHULUI","state": "HI","zip": "96732","zip+4": "0000","phone": "8088770068","NPI": "     1891737615"}, 
{"id": 14682,"ncpdp": "1201184","pharmacy_name": "LONGS DRUGS #09813","address1": "981005 MOANALUA RD, SPC 400","address2": "","city": "AIEA","state": "HI","zip": "96701","zip+4": "0000","phone": "8084880958","NPI": "     1700828522"}, 
{"id": 14683,"ncpdp": "1201223","pharmacy_name": "THE PILLBOX PHARMACY","address1": "1133 11TH AVE","address2": "","city": "HONOLULU","state": "HI","zip": "96816","zip+4": "0000","phone": "8087371777","NPI": "     1750500260"}, 
{"id": 14684,"ncpdp": "1201350","pharmacy_name": "LONGS DRUGS #09825","address1": "609 KAILUA RD","address2": "","city": "KAILUA","state": "HI","zip": "96734","zip+4": "0000","phone": "8082619794","NPI": "     1689617854"}, 
{"id": 14685,"ncpdp": "1201502","pharmacy_name": "LONGS DRUGS #09835","address1": "2750 WOODLAWN DR","address2": "","city": "HONOLULU","state": "HI","zip": "96822","zip+4": "0000","phone": "8089882151","NPI": "     1063455822"}, 
{"id": 14686,"ncpdp": "1201588","pharmacy_name": "AIEA MEDICAL PHARMACY","address1": "99 128 AIEA HEIGHTS DR","address2": "SUITE 103","city": "AIEA","state": "HI","zip": "96701","zip+4": "3916","phone": "8088405680","NPI": "     1649256298"}, 
{"id": 14687,"ncpdp": "1201677","pharmacy_name": "LONGS DRUGS #09164","address1": "3221 WAIALAE AVE","address2": "","city": "HONOLULU","state": "HI","zip": "96816","zip+4": "0000","phone": "8087352811","NPI": "     1356385793"}, 
{"id": 14688,"ncpdp": "1201689","pharmacy_name": "PLAZA PHARMACY","address1": "321 N KUAKINI ST","address2": "","city": "HONOLULU","state": "HI","zip": "96817","zip+4": "2307","phone": "8085479440","NPI": "     1326031279"}, 
{"id": 14689,"ncpdp": "1201704","pharmacy_name": "PHARMACARE #1","address1": "2228 LILIHA ST","address2": "SUITE 100","city": "HONOLULU","state": "HI","zip": "96817","zip+4": "0000","phone": "8088405620","NPI": "     1316923725"}, 
{"id": 14690,"ncpdp": "1201716","pharmacy_name": "HONNIS INC","address1": "1520 LILIHA ST","address2": "STE 201","city": "HONOLULU","state": "HI","zip": "96817","zip+4": "3563","phone": "8085336990","NPI": "     1457306748"}, 
{"id": 14691,"ncpdp": "1201728","pharmacy_name": "LONGS DRUGS #09185","address1": "377 KEAHOLE ST","address2": "","city": "HONOLULU","state": "HI","zip": "96825","zip+4": "0000","phone": "8083954427","NPI": "     1972546737"}, 
{"id": 14692,"ncpdp": "1201730","pharmacy_name": "LONGS DRUGS #09189","address1": "32600 KAUMUALII HWY #1","address2": "","city": "LIHUE","state": "HI","zip": "96766","zip+4": "0000","phone": "8082458871","NPI": "     1225070055"}, 
{"id": 14693,"ncpdp": "1201805","pharmacy_name": "LONGS DRUGS #09864","address1": "94780A MEHEULA PKWY","address2": "","city": "MILILANI TOWN","state": "HI","zip": "96789","zip+4": "0000","phone": "8086237715","NPI": "     1265475586"}, 
{"id": 14694,"ncpdp": "1201855","pharmacy_name": "TIMES PHARMACY #8","address1": "1290 S BERETANIA ST","address2": "","city": "HONOLULU","state": "HI","zip": "96814","zip+4": "0000","phone": "8085225071","NPI": "     1326146358"}, 
{"id": 14695,"ncpdp": "1201879","pharmacy_name": "WAIMANALO PHARMACY INC","address1": "41 1610 KALANIANAOLE HWY","address2": "","city": "WAIMANALO","state": "HI","zip": "96795","zip+4": "1140","phone": "8082598488","NPI": "     1477694339"}, 
{"id": 14696,"ncpdp": "1201881","pharmacy_name": "KTA KEAUHOU PHARMACY","address1": "78-6831 ALII DR","address2": "STE 101","city": "KAILUA KONA","state": "HI","zip": "96740","zip+4": "2440","phone": "8083222511","NPI": "     1518057017"}, 
{"id": 14697,"ncpdp": "1201906","pharmacy_name": "LONGS DRUGS #09227","address1": "111 E PUAINAKO ST","address2": "","city": "HILO","state": "HI","zip": "96720","zip+4": "0000","phone": "8089594508","NPI": "     1134161961"}, 
{"id": 14698,"ncpdp": "1201918","pharmacy_name": "TIMES PHARMACY #9","address1": "99 115 AIEA HEIGHTS DR","address2": "","city": "AIEA","state": "HI","zip": "96701","zip+4": "0000","phone": "8084833071","NPI": "     1235237264"}, 
{"id": 14699,"ncpdp": "1201932","pharmacy_name": "LONGS DRUGS #09877","address1": "1221 HONOAPIILANI HWY","address2": "","city": "LAHAINA","state": "HI","zip": "96761","zip+4": "0000","phone": "8086674390","NPI": "     1043252877"}, 
{"id": 14700,"ncpdp": "1201944","pharmacy_name": "TIMES PHARMACY #12","address1": "98 1264 KAAHUMANU ST","address2": "","city": "PEARL CITY","state": "HI","zip": "96782","zip+4": "0000","phone": "8084833078","NPI": "     1144328170"}, 
{"id": 14701,"ncpdp": "1202061","pharmacy_name": "PHARMACARE","address1": "3375 KOAPAKA","address2": "STE G320","city": "HONOLULU","state": "HI","zip": "96819","zip+4": "1864","phone": "8088360223","NPI": "     1265418891"}, 
{"id": 14702,"ncpdp": "1202073","pharmacy_name": "LONGS DRUGS #09249","address1": "75-5595 PALANI RD","address2": "","city": "KAILUA-KONA","state": "HI","zip": "96740","zip+4": "0000","phone": "8083291632","NPI": "     1619919438"}, 
{"id": 14703,"ncpdp": "1202085","pharmacy_name": "LONGS DRUGS #09890","address1": "951249D MEHEULA PKWY","address2": "","city": "MILILANI TOWN","state": "HI","zip": "96789","zip+4": "0000","phone": "8086255222","NPI": "     1528000346"}, 
{"id": 14704,"ncpdp": "1202112","pharmacy_name": "TIMES PHARMACY #2","address1": "1173 21ST AVE","address2": "","city": "HONOLULU","state": "HI","zip": "96816","zip+4": "0000","phone": "8087332031","NPI": "     1053419085"}, 
{"id": 14705,"ncpdp": "1202136","pharmacy_name": "CASTLE PROFESSIONAL CTR PHCY","address1": "46 001 KAMEHAMEHA HWY","address2": "SUITE 108","city": "KANEOHE","state": "HI","zip": "96744","zip+4": "3711","phone": "8082470047","NPI": "     1679540264"}, 
{"id": 14706,"ncpdp": "1202148","pharmacy_name": "KAMEHAMEHA PHARMACY","address1": "54 3877 AKONI PULE HWY","address2": "","city": "KAPAAU","state": "HI","zip": "96755","zip+4": "0000","phone": "8088896161","NPI": "     1396881942"}, 
{"id": 14707,"ncpdp": "1202162","pharmacy_name": "SAFEWAY #1087","address1": "200 HAMAKUA DRIVE","address2": "","city": "KAILUA","state": "HI","zip": "96734","zip+4": "0000","phone": "8082665220","NPI": "     1124064902"}, 
{"id": 14708,"ncpdp": "1202174","pharmacy_name": "KTA PUAINAKO PHARMACY #3","address1": "50 E PUAINAKO ST","address2": "","city": "HILO","state": "HI","zip": "96720","zip+4": "5243","phone": "8089598700","NPI": "     1821188327"}, 
{"id": 14709,"ncpdp": "1202186","pharmacy_name": "TIMES PHARMACY #4","address1": "45 934 KAMEHAMEHA HWY","address2": "","city": "KANEOHE","state": "HI","zip": "96744","zip+4": "0000","phone": "8082334601","NPI": "     1962500991"}, 
{"id": 14710,"ncpdp": "1202201","pharmacy_name": "LONGS DRUGS #09259","address1": "94-060 FARRINGTON HWY","address2": "","city": "WAIPAHU","state": "HI","zip": "96797","zip+4": "0000","phone": "8086768116","NPI": "     1437191251"}, 
{"id": 14711,"ncpdp": "1202213","pharmacy_name": "TIMES PHARMACY #6","address1": "94 766 FARRINGTON HWY","address2": "","city": "WAIPAHU","state": "HI","zip": "96797","zip+4": "0000","phone": "8086771513","NPI": "     1871691808"}, 
{"id": 14712,"ncpdp": "1202251","pharmacy_name": "SAFEWAY #1209","address1": "4 831 KUHIO HWY","address2": "","city": "KAPAA","state": "HI","zip": "96746","zip+4": "0000","phone": "8088222191","NPI": "     1033155817"}, 
{"id": 14713,"ncpdp": "1202275","pharmacy_name": "COSTCO PHARMACY #687","address1": "525 ALA KAWA STREET","address2": "","city": "IWILEI","state": "HI","zip": "96817","zip+4": "0000","phone": "8085266102","NPI": "     1336259944"}, 
{"id": 14714,"ncpdp": "1202287","pharmacy_name": "MENEHUNE PHARMACY","address1": "1 9665 KAUMUALII HWY","address2": "","city": "WAIMEA","state": "HI","zip": "96796","zip+4": "0896","phone": "8083380200","NPI": "     1669514691"}, 
{"id": 14715,"ncpdp": "1202314","pharmacy_name": "KTA KAMUELA PHARMACY #8","address1": "65-1158 MAMALAHOA","address2": "","city": "KAMUELA","state": "HI","zip": "96743","zip+4": "0388","phone": "8088850033","NPI": "     1134219645"}, 
{"id": 14716,"ncpdp": "1202465","pharmacy_name": "SAFEWAY #0201","address1": "1121 S BERETANIA ST","address2": "","city": "HONOLULU","state": "HI","zip": "96814","zip+4": "0000","phone": "8085926487","NPI": "     1437195054"}, 
{"id": 14717,"ncpdp": "1202477","pharmacy_name": "PARADISE PHARMACY","address1": "81 MAKAWAO AVE","address2": "SUITE 106","city": "PUKALANI","state": "HI","zip": "96768","zip+4": "9998","phone": "8085721266","NPI": "     1306911987"}, 
{"id": 14718,"ncpdp": "1202491","pharmacy_name": "TIMES PHARMACY #1","address1": "1772 S KING ST","address2": "","city": "HONOLULU","state": "HI","zip": "96826","zip+4": "0000","phone": "8089735851","NPI": "     1780782714"}, 
{"id": 14719,"ncpdp": "1202516","pharmacy_name": "LONGS DRUGS #09300","address1": "925 CALIFORNIA AVE","address2": "","city": "WAHIAWA","state": "HI","zip": "96786","zip+4": "0000","phone": "8086217772","NPI": "     1346282167"}, 
{"id": 14720,"ncpdp": "1202528","pharmacy_name": "CHINATOWN PHARMACY","address1": "70 N HOTEL ST","address2": "","city": "HONOLULU","state": "HI","zip": "96817","zip+4": "5105","phone": "8085336288","NPI": "     1841382777"}, 
{"id": 14721,"ncpdp": "1202617","pharmacy_name": "WAHIAWA GENERAL HOSPITAL PHARM","address1": "128 LEHUA ST","address2": "","city": "WAHIAWA","state": "HI","zip": "96786","zip+4": "0000","phone": "8086214222","NPI": "     1689643553"}, 
{"id": 14722,"ncpdp": "1202629","pharmacy_name": "PHARMACARE #2","address1": "91 2139 FT WEAVER RD","address2": "SUITE 106","city": "EWA BEACH","state": "HI","zip": "96706","zip+4": "0000","phone": "8088405630","NPI": "     1962488031"}, 
{"id": 14723,"ncpdp": "1202679","pharmacy_name": "LONGS DRUGS #09303","address1": "1215 S KIHEI RD","address2": "","city": "KIHEI","state": "HI","zip": "96753","zip+4": "0000","phone": "8088792033","NPI": "     1609819911"}, 
{"id": 14724,"ncpdp": "1202693","pharmacy_name": "STAR MARKET PHARMACY #8","address1": "1310 S KIHEI RD","address2": "","city": "KIHEI","state": "HI","zip": "96753","zip+4": "8196","phone": "8088754695","NPI": "     1023055308"}, 
{"id": 14725,"ncpdp": "1202756","pharmacy_name": "PHARMACARE","address1": "162 KINOOLE ST","address2": "SUITE 104","city": "HILO","state": "HI","zip": "96720","zip+4": "0000","phone": "8089615115","NPI": "     1083690150"}, 
{"id": 14726,"ncpdp": "1202833","pharmacy_name": "MAUI CLINIC PHARMACY","address1": "53 PUUNENE AVE","address2": "","city": "KAHULUI","state": "HI","zip": "96732","zip+4": "2110","phone": "8088776222","NPI": "     1720033236"}, 
{"id": 14727,"ncpdp": "1202845","pharmacy_name": "COSTCO PHARMACY #120","address1": "333 A KEOHOLE STREET","address2": "","city": "HONOLULU","state": "HI","zip": "96825","zip+4": "0000","phone": "8083943318","NPI": "     1245340850"}, 
{"id": 14728,"ncpdp": "1203037","pharmacy_name": "LONGS DRUGS #09317","address1": "91-590 FARRINGTON HWY #300","address2": "","city": "KAPOLEI","state": "HI","zip": "96707","zip+4": "0000","phone": "8086740269","NPI": "     1255373072"}, 
{"id": 14729,"ncpdp": "1203063","pharmacy_name": "HAWAII HOME INFUSION ASSOCIATE","address1": "4473 PAHEE ST STE I","address2": "","city": "LIHUE","state": "HI","zip": "96766","zip+4": "2032","phone": "8082453787","NPI": "     1649256785"}, 
{"id": 14730,"ncpdp": "1203102","pharmacy_name": "TIMES PHARMACY #3","address1": "590 KAILUA RD","address2": "","city": "KAILUA","state": "HI","zip": "96734","zip+4": "0000","phone": "8082662702","NPI": "     1598863524"}, 
{"id": 14731,"ncpdp": "1203140","pharmacy_name": "COSTCO PHARMACY #140","address1": "73 5600 MAIAU ST","address2": "","city": "KAILUA KONA","state": "HI","zip": "96740","zip+4": "0000","phone": "8083314808","NPI": "     1063522670"}, 
{"id": 14732,"ncpdp": "1203152","pharmacy_name": "KMART PHARMACY #7680","address1": "4561 SALT LAKE BLVD","address2": "","city": "HONOLULU","state": "HI","zip": "96818","zip+4": "0000","phone": "8084866449","NPI": "     1053342105"}, 
{"id": 14733,"ncpdp": "1203176","pharmacy_name": "CITY PHARMACY KAPAHULU INC","address1": "750 PALANI AVE","address2": "","city": "HONOLULU","state": "HI","zip": "96816","zip+4": "1109","phone": "8087391188","NPI": "     1861407249"}, 
{"id": 14734,"ncpdp": "1203215","pharmacy_name": "KMART PHARMACY #7480","address1": "500 NORTH NIMITZ HWY","address2": "","city": "HONOLULU","state": "HI","zip": "96817","zip+4": "0000","phone": "8085241568","NPI": "     1962433011"}, 
{"id": 14735,"ncpdp": "1203239","pharmacy_name": "NEWTOWN SQUARE PHARMACY","address1": "98-1247 KAAHUMANU ST","address2": "","city": "AIEA","state": "HI","zip": "96701","zip+4": "5309","phone": "8084885458","NPI": "     1003924234"}, 
{"id": 14736,"ncpdp": "1203253","pharmacy_name": "TIMES PHARMACY #18","address1": "94 615 KUPUOHI ST","address2": "","city": "WAIPAHU","state": "HI","zip": "96797","zip+4": "0000","phone": "8086775999","NPI": "     1629178678"}, 
{"id": 14737,"ncpdp": "1203289","pharmacy_name": "LONGS DRUGS #09936","address1": "786831 ALII DRIVE SUITE H","address2": "STE H","city": "KAILUA-KONA","state": "HI","zip": "96740","zip+4": "0000","phone": "8083226627","NPI": "     1265476600"}, 
{"id": 14738,"ncpdp": "1203291","pharmacy_name": "KMART PHARMACY #7683","address1": "745465 KAMAKAEHA AVENUE","address2": "","city": "KONA","state": "HI","zip": "96740","zip+4": "0000","phone": "8083261707","NPI": "     1871524926"}, 
{"id": 14739,"ncpdp": "1203304","pharmacy_name": "LONGS DRUGS #09952","address1": "4831 KUHIO HWY  SUITE 500","address2": "","city": "KAPAA","state": "HI","zip": "96746","zip+4": "0000","phone": "8088224918","NPI": "     1790728582"}, 
{"id": 14740,"ncpdp": "1203316","pharmacy_name": "LONGS DRUGS #09954","address1": "2220 S KING ST","address2": "","city": "HONOLULU","state": "HI","zip": "96826","zip+4": "0000","phone": "8089472651","NPI": "     1285677534"}, 
{"id": 14741,"ncpdp": "1203330","pharmacy_name": "LONGS DRUGS #09953","address1": "45480 KANEOHE BAY DR","address2": "","city": "KANEOHE","state": "HI","zip": "96744","zip+4": "0000","phone": "8082355805","NPI": "     1174566491"}, 
{"id": 14742,"ncpdp": "1203342","pharmacy_name": "LONGS DRUGS #09955","address1": "848 ALA LILIKOI ST","address2": "","city": "HONOLULU","state": "HI","zip": "96818","zip+4": "0000","phone": "8088332597","NPI": "     1952343782"}, 
{"id": 14743,"ncpdp": "1203354","pharmacy_name": "LONGS DRUGS #09956","address1": "86120 FARRINGTON HWY","address2": "","city": "WAIANAE","state": "HI","zip": "96792","zip+4": "0000","phone": "8086967059","NPI": "     1861434698"}, 
{"id": 14744,"ncpdp": "1203378","pharmacy_name": "COSTCO PHARMACY #119","address1": "540 HALEAKALA HIGHWAY","address2": "","city": "KAHULUI","state": "HI","zip": "96732","zip+4": "0000","phone": "8088718755","NPI": "     1972613586"}, 
{"id": 14745,"ncpdp": "1203405","pharmacy_name": "WAL-MART PHARMACY #102308","address1": "3 3300 KUHIO HWY","address2": "","city": "LIHUE","state": "HI","zip": "96766","zip+4": "0000","phone": "8082461822","NPI": "     1902823255"}, 
{"id": 14746,"ncpdp": "1203417","pharmacy_name": "CAREPLUS CVS PHARMACY #02915","address1": "500 ALA MOANA BLVD","address2": "BLDG 1, SUITE A","city": "HONOLULU","state": "HI","zip": "96813","zip+4": "0000","phone": "8082542727","NPI": "     1518039858"}, 
{"id": 14747,"ncpdp": "1203429","pharmacy_name": "CVS CAREMARK","address1": "970 N KALAHEO AVE","address2": "STE C106 PALI PALMS PLAZA","city": "KAILUA","state": "HI","zip": "96734","zip+4": "1871","phone": "8082545841","NPI": "     1326029323"}, 
{"id": 14748,"ncpdp": "1203481","pharmacy_name": "WAL-MART PHARMACY #102321","address1": "75 1015 HENRY STREET","address2": "","city": "KAILUA KONA","state": "HI","zip": "96740","zip+4": "0000","phone": "8083340552","NPI": "     1811914161"}, 
{"id": 14749,"ncpdp": "1203518","pharmacy_name": "FOODLAND MEDICINE CABINET OR F","address1": "55 PUKALANI ST","address2": "","city": "PUKALANI","state": "HI","zip": "96768","zip+4": "0000","phone": "8085728266","NPI": "     1134283021"}, 
{"id": 14750,"ncpdp": "1203520","pharmacy_name": "DON QUIJOTE DRUGS","address1": "94-144 FARRINGTON HWY","address2": "","city": "WAIPAHU","state": "HI","zip": "96797","zip+4": "0000","phone": "8086786831","NPI": "     1295880169"}, 
{"id": 14751,"ncpdp": "1203544","pharmacy_name": "KMART PHARMACY #7478","address1": "94825 LUMIAINA","address2": "","city": "WAIPAHU","state": "HI","zip": "96797","zip+4": "0000","phone": "8086789701","NPI": "     1598796641"}, 
{"id": 14752,"ncpdp": "1203570","pharmacy_name": "SAFEWAY #0220","address1": "170 E KAMEHAMEHA AVE","address2": "","city": "KAHULUI","state": "HI","zip": "96732","zip+4": "0000","phone": "8088930606","NPI": "     1346286960"}, 
{"id": 14753,"ncpdp": "1203582","pharmacy_name": "HAIKU PHARMACY","address1": "810 HAIKU RD","address2": "SUITE 127","city": "HAIKU","state": "HI","zip": "96708","zip+4": "0000","phone": "8085757522","NPI": "     1851395289"}, 
{"id": 14754,"ncpdp": "1203594","pharmacy_name": "ULULANI PHARMACY","address1": "868 ULULANI ST","address2": "SUITE 107","city": "HILO","state": "HI","zip": "96720","zip+4": "3913","phone": "8089349400","NPI": "     1578525952"}, 
{"id": 14755,"ncpdp": "1203619","pharmacy_name": "WAL-MART PHARMACY #102473","address1": "325 MAKAALA ST","address2": "","city": "HILO","state": "HI","zip": "96720","zip+4": "0000","phone": "8089691062","NPI": "     1720005077"}, 
{"id": 14756,"ncpdp": "1203645","pharmacy_name": "KMART PHARMACY #7488","address1": "424 DAIRY ROAD","address2": "","city": "KAHULUI","state": "HI","zip": "96732","zip+4": "0000","phone": "8088715677","NPI": "     1780615831"}, 
{"id": 14757,"ncpdp": "1203695","pharmacy_name": "WAL-MART PHARMACY #102314","address1": "94 595 KUPUOHI ST","address2": "","city": "WAIPAHU","state": "HI","zip": "96797","zip+4": "0000","phone": "8086889096","NPI": "     1639196983"}, 
{"id": 14758,"ncpdp": "1203772","pharmacy_name": "MINA PHARMACY MAIN OFFICE #1","address1": "1441 KAPIOLANI BLVD","address2": "STE 510","city": "HONOLULU","state": "HI","zip": "96814","zip+4": "0000","phone": "8089459366","NPI": "     1225130974"}, 
{"id": 14759,"ncpdp": "1203784","pharmacy_name": "PAPALINA PHARMACY","address1": "4469 PAPALINA RD","address2": "STE 948","city": "KALAHEO","state": "HI","zip": "96741","zip+4": "0000","phone": "8083329130","NPI": "     1841364213"}, 
{"id": 14760,"ncpdp": "1203873","pharmacy_name": "WELLNESS PHARMACY INC","address1": "100 N BERETANIA ST","address2": "SUITE 148","city": "HONOLULU","state": "HI","zip": "96817","zip+4": "0000","phone": "8085502833","NPI": "     1457416059"}, 
{"id": 14761,"ncpdp": "1203885","pharmacy_name": "LONGS DRUGS #09988","address1": "911401 FORT WEAVER RD","address2": "","city": "EWA BEACH","state": "HI","zip": "96706","zip+4": "0000","phone": "8086855622","NPI": "     1770525503"}, 
{"id": 14762,"ncpdp": "1204077","pharmacy_name": "KONA COMMUNITY HOSPITAL PHARMA","address1": "79 1019 HAUKAPILA ST","address2": "","city": "KEALAKEKUA","state": "HI","zip": "96750","zip+4": "0000","phone": "8083224470","NPI": "     1639217300"}, 
{"id": 14763,"ncpdp": "1204116","pharmacy_name": "MINA PHARMACY #2","address1": "599 FARRINGTON HWY","address2": "STE 101","city": "KAPOLEI","state": "HI","zip": "96707","zip+4": "0000","phone": "8086744477","NPI": "     1770685422"}, 
{"id": 14764,"ncpdp": "1204154","pharmacy_name": "COSTCO PHARMACY #485","address1": "94 1231 KA UKA BLVD","address2": "","city": "WAIPAHU","state": "HI","zip": "96797","zip+4": "0000","phone": "8086786102","NPI": "     1508976119"}, 
{"id": 14765,"ncpdp": "1204166","pharmacy_name": "SAFEWAY #1500","address1": "277 PIIKEA AVENUE","address2": "","city": "KIHEI","state": "HI","zip": "96753","zip+4": "0000","phone": "8088919130","NPI": "     1255377875"}, 
{"id": 14766,"ncpdp": "1204178","pharmacy_name": "KMART PHARMACY #9430","address1": "500 KAMOKILA BLVD","address2": "","city": "KAPOLEI","state": "HI","zip": "96707","zip+4": "0000","phone": "8086749655","NPI": "     1407887557"}, 
{"id": 14767,"ncpdp": "1204192","pharmacy_name": "SAMS PHARMACY #106410","address1": "1000 KAMEHAMEHA HWY SUITE 100","address2": "","city": "PEARL CITY","state": "HI","zip": "96782","zip+4": "0000","phone": "8084540182","NPI": "     1548287899"}, 
{"id": 14768,"ncpdp": "1204205","pharmacy_name": "SAFEWAY #2221","address1": "111 EAST PUAINAKO","address2": "","city": "HILO","state": "HI","zip": "96720","zip+4": "0000","phone": "8089592000","NPI": "     1669401626"}, 
{"id": 14769,"ncpdp": "1204279","pharmacy_name": "WAL-MART PHARMACY #103290","address1": "101 PAKAULA STREET","address2": "","city": "KAHULUI","state": "HI","zip": "96732","zip+4": "0000","phone": "8088717012","NPI": "     1457378705"}, 
{"id": 14770,"ncpdp": "1204318","pharmacy_name": "LEEWARD OAHU PHARMACY INC","address1": "94 837 WAIPAHU STREET","address2": "","city": "WAIPAHU","state": "HI","zip": "96797","zip+4": "0000","phone": "8086779611","NPI": "     1396862462"}, 
{"id": 14771,"ncpdp": "1204368","pharmacy_name": "FOODLAND PHARMACY #38","address1": "67 1185 MAMALAHOA HWY","address2": "","city": "KAMUELA","state": "HI","zip": "96743","zip+4": "0000","phone": "8088852075","NPI": "     1093860959"}, 
{"id": 14772,"ncpdp": "1204370","pharmacy_name": "KOOLAU PHARMACY","address1": "642 ULUKAHIKI ST","address2": "","city": "KAILUA","state": "HI","zip": "96734","zip+4": "0000","phone": "8082635060","NPI": "     1588631170"}, 
{"id": 14773,"ncpdp": "1204394","pharmacy_name": "TIMES PHARMACY #10","address1": "47 388 HUI IWA ST","address2": "","city": "KANEOHE","state": "HI","zip": "96744","zip+4": "0000","phone": "8082393204","NPI": "     1538269584"}, 
{"id": 14774,"ncpdp": "1204433","pharmacy_name": "LANAI FAMILY HEALTH CENTER","address1": "628 B 7TH ST","address2": "","city": "LANAI CITY","state": "HI","zip": "96763","zip+4": "0000","phone": "8085656423","NPI": "     1871534735"}, 
{"id": 14775,"ncpdp": "1204445","pharmacy_name": "MEDIPHARM PHARMACY, LLC #1","address1": "1188 BISHOP STREET STE 802","address2": "","city": "HONOLULU","state": "HI","zip": "96813","zip+4": "0000","phone": "8085237088","NPI": "     1144369273"}, 
{"id": 14776,"ncpdp": "1204457","pharmacy_name": "MINA PHARMACY #3","address1": "2470 S KING ST","address2": "","city": "HONOLULU","state": "HI","zip": "96826","zip+4": "0000","phone": "8089556800","NPI": "     1114029865"}, 
{"id": 14777,"ncpdp": "1204469","pharmacy_name": "MINA PHARMACY #4","address1": "1620 N SCHOOL ST","address2": "","city": "HONOLULU","state": "HI","zip": "96817","zip+4": "0000","phone": "8088532222","NPI": "     1295837946"}, 
{"id": 14778,"ncpdp": "1204483","pharmacy_name": "LIHUE PHARMACY INC","address1": "4491 KOLOPA ST #A","address2": "","city": "LIHUE","state": "HI","zip": "96766","zip+4": "0000","phone": "8082469100","NPI": "     1821074972"}, 
{"id": 14779,"ncpdp": "1204508","pharmacy_name": "ISLAND MEDICAL CARE INC","address1": "410 KILANI AVE","address2": "STE 102","city": "WAHIAWA","state": "HI","zip": "96786","zip+4": "0000","phone": "8086221666","NPI": "     1861449951"}, 
{"id": 14780,"ncpdp": "1239551","pharmacy_name": "WAL-MART PHARMACY #103478","address1": "700 KEEAUMOKU STREET","address2": "","city": "HONOLULU","state": "HI","zip": "96814","zip+4": "0000","phone": "8089558611","NPI": "     1366469611"}, 
{"id": 14781,"ncpdp": "1239599","pharmacy_name": "PHARMACARE LTC","address1": "99 128 AIEA HEIGHTS DR","address2": "SUITE 104","city": "AIEA","state": "HI","zip": "96701","zip+4": "0000","phone": "8088405690","NPI": "     1780660191"}, 
{"id": 14782,"ncpdp": "1239626","pharmacy_name": "PHARMACYONE","address1": "1712 LILIHA ST STE 101","address2": "","city": "HONOLULU","state": "HI","zip": "96817","zip+4": "0000","phone": "8085482299","NPI": "     1114031184"}, 
{"id": 14783,"ncpdp": "1239638","pharmacy_name": "HO OLA LAHUI HAWAI I #01","address1": "4491 RICE ST","address2": "STE 105A","city": "LIHUE","state": "HI","zip": "96766","zip+4": "0000","phone": "8082400200","NPI": "     1952302770"}, 
{"id": 14784,"ncpdp": "1239640","pharmacy_name": "CENTURY SQUARE PHARMACY #1","address1": "1188 BISHOP ST","address2": "STE 2303","city": "HONOLULU","state": "HI","zip": "96813","zip+4": "0000","phone": "8085360260","NPI": "     1639247430"}, 
{"id": 14785,"ncpdp": "1239664","pharmacy_name": "PHARMACARE #6","address1": "1319 PUNAHOU ST","address2": "","city": "HONOLULU","state": "HI","zip": "96826","zip+4": "0000","phone": "8088405670","NPI": "     1841263720"}, 
{"id": 14786,"ncpdp": "1239676","pharmacy_name": "PHARMACARE #5","address1": "98 1079 MOANALUA RD","address2": "","city": "AIEA","state": "HI","zip": "96701","zip+4": "0000","phone": "8088405660","NPI": "     1851364731"}, 
{"id": 14787,"ncpdp": "1239688","pharmacy_name": "PHARMACARE #3","address1": "888 S KING ST","address2": "","city": "HONOLULU","state": "HI","zip": "96813","zip+4": "3083","phone": "8088405640","NPI": "     1578536454"}, 
{"id": 14788,"ncpdp": "1239715","pharmacy_name": "LONGS DRUGS #02425","address1": "2969 MAPUNAPUNA PL STE110","address2": "UNIT 106A","city": "HONOLULU","state": "HI","zip": "96819","zip+4": "0000","phone": "8088393300","NPI": "     1194768457"}, 
{"id": 14789,"ncpdp": "1239727","pharmacy_name": "WAL-MART PHARMACY #105274","address1": "1131 KUALA STREET","address2": "","city": "PEARL CITY","state": "HI","zip": "96782","zip+4": "0000","phone": "8084548792","NPI": "     1174541650"}, 
{"id": 14790,"ncpdp": "1239741","pharmacy_name": "SAMS PHARMACY #104755","address1": "750 KEEAUMOKU ST","address2": "","city": "HONOLULU","state": "HI","zip": "96814","zip+4": "0000","phone": "8089416719","NPI": "     1275550527"}, 
{"id": 14791,"ncpdp": "1239765","pharmacy_name": "FOODLAND MEDICINE CABINET PHCY","address1": "108 HEKILI ST","address2": "","city": "KAILUA","state": "HI","zip": "96734","zip+4": "0000","phone": "8082613211","NPI": "     1083772503"}, 
{"id": 14792,"ncpdp": "1239777","pharmacy_name": "LIFEWAY PHARMACY LIHUE","address1": "3 3295 KUHIO HWY","address2": "SUITE 102","city": "LIHUE","state": "HI","zip": "96766","zip+4": "0000","phone": "8082452471","NPI": "     1326070442"}, 
{"id": 14793,"ncpdp": "1239789","pharmacy_name": "COSTCO PHARMACY #640","address1": "4300 NUHOU ST","address2": "","city": "LIHUE","state": "HI","zip": "96766","zip+4": "0000","phone": "8082414009","NPI": "     1245399617"}, 
{"id": 14794,"ncpdp": "1239791","pharmacy_name": "LIHUE PROFESSIONAL PHARMACY","address1": "3-3420 KUHIO HWY","address2": "STE 101","city": "LIHUE","state": "HI","zip": "96766","zip+4": "1049","phone": "8082453800","NPI": "     1295827111"}, 
{"id": 14795,"ncpdp": "1239804","pharmacy_name": "LIFEWAY PHARMACY WIAMEA","address1": "4643 A WAIMEA CANYON RD","address2": "","city": "WAIMEA","state": "HI","zip": "96796","zip+4": "0000","phone": "8083380600","NPI": "     1073606224"}, 
{"id": 14796,"ncpdp": "1239816","pharmacy_name": "PUNA PHARMACY","address1": "15 2660 KEAAU PAHOA RD","address2": "STE 205","city": "PAHOA","state": "HI","zip": "96778","zip+4": "0000","phone": "8089650601","NPI": "     1326122151"}, 
{"id": 14797,"ncpdp": "1239828","pharmacy_name": "FOODLAND PHARMACY #30","address1": "5 4280 KUHIO HWY","address2": "","city": "PRINCEVILLE","state": "HI","zip": "96722","zip+4": "0000","phone": "8088264228","NPI": "     1730255837"}, 
{"id": 14798,"ncpdp": "1239842","pharmacy_name": "PACIFIC HEALTH PHARMACY LLC","address1": "2875 KOAPAKA ST","address2": "STE B","city": "HONOLULU","state": "HI","zip": "96819","zip+4": "0000","phone": "8088333414","NPI": "     1699835827"}, 
{"id": 14799,"ncpdp": "1239878","pharmacy_name": "LONGS DRUGS #06928","address1": "2070 N KING ST #5","address2": "","city": "HONOLULU","state": "HI","zip": "96819","zip+4": "0000","phone": "8088458324","NPI": "     1790840122"}, 
{"id": 14800,"ncpdp": "1239880","pharmacy_name": "CORNER PHARMACY","address1": "1029 KAPAHULU AVE","address2": "STE 303","city": "HONOLULU","state": "HI","zip": "96816","zip+4": "0000","phone": "8082187896","NPI": "     1518038694"}, 
{"id": 14801,"ncpdp": "1239892","pharmacy_name": "MINA PHARMACY LTC #5","address1": "75 5995 KUAKINI HWY","address2": "513A","city": "KAILUA KONA","state": "HI","zip": "96740","zip+4": "0000","phone": "8083291000","NPI": "     1942350525"}, 
{"id": 14802,"ncpdp": "1239905","pharmacy_name": "MINA PHARMACY #6","address1": "75 5995 KUAKINI HWY","address2": "STE 513","city": "KAILUA KONA","state": "HI","zip": "96740","zip+4": "0000","phone": "8083291000","NPI": "     1780734376"}, 
{"id": 14803,"ncpdp": "1239929","pharmacy_name": "MEDIPHARM PHARMACY LLC #2","address1": "606 CORAL ST","address2": "","city": "HONOLULU","state": "HI","zip": "96813","zip+4": "0000","phone": "8087916077","NPI": "     1912024209"}, 
{"id": 14804,"ncpdp": "1239931","pharmacy_name": "LONGS DRUGS #04463","address1": "30 AULIKE ST #104","address2": "","city": "KAILUA","state": "HI","zip": "96734","zip+4": "0000","phone": "8082663222","NPI": "     1043336977"}, 
{"id": 14805,"ncpdp": "1239943","pharmacy_name": "LONGS DRUGS #04492","address1": "41 E LIPOA ST","address2": "# 23A","city": "KIHEI","state": "HI","zip": "96753","zip+4": "0000","phone": "8088798499","NPI": "     1427174358"}, 
{"id": 14806,"ncpdp": "1239955","pharmacy_name": "LONGS DRUGS #04496","address1": "1900 MAIN ST #4","address2": "STE 4","city": "WAILUKU","state": "HI","zip": "96793","zip+4": "0000","phone": "8082449099","NPI": "     1265558258"}, 
{"id": 14807,"ncpdp": "1239967","pharmacy_name": "MINA PHARMACY #8","address1": "4510 SALT LAKE BLVD","address2": "B7 B","city": "HONOLULU","state": "HI","zip": "96818","zip+4": "0000","phone": "8084887500","NPI": "     1952424400"}, 
{"id": 14808,"ncpdp": "1239979","pharmacy_name": "MINA PHARMACY LTC LLC #7","address1": "4510 SALT LAKE BLVD","address2": "SUITE B7 A","city": "HONOLULU","state": "HI","zip": "96818","zip+4": "0000","phone": "8084887500","NPI": "     1255453676"}, 
{"id": 14809,"ncpdp": "1239981","pharmacy_name": "LONGS DRUGS #06870","address1": "16586 OLD VOLCANO RD","address2": "","city": "KEAAU","state": "HI","zip": "96749","zip+4": "0000","phone": "8089828600","NPI": "     1871700914"}, 
{"id": 14810,"ncpdp": "1239993","pharmacy_name": "TIMES MILILANI PHARMACY #20","address1": "95 390 KUAHEALANI AVE","address2": "","city": "MILILANI","state": "HI","zip": "96789","zip+4": "0000","phone": "8086258010","NPI": "     1982803672"}, 
{"id": 14811,"ncpdp": "1240009","pharmacy_name": "LONGS DRUGS #07669","address1": "4469 WAIALO RD  STE C5","address2": "STE C5","city": "ELEELE","state": "HI","zip": "96705","zip+4": "0000","phone": "8083350700","NPI": "     1023208253"}, 
{"id": 14812,"ncpdp": "1240011","pharmacy_name": "WALGREENS DRUG STORE #11443","address1": "1488 KAPIOLANI BLVD","address2": "","city": "HONOLULU","state": "HI","zip": "96814","zip+4": "3716","phone": "8089498500","NPI": "     1932392354"}, 
{"id": 14813,"ncpdp": "1240035","pharmacy_name": "SAFEWAY #2747","address1": "888 KAPAHULU AVE","address2": "","city": "HONOLULU","state": "HI","zip": "96816","zip+4": "0000","phone": "8087332606","NPI": "     1528257854"}, 
{"id": 14814,"ncpdp": "1240061","pharmacy_name": "LONGS DRUGS #07920","address1": "302 CALIFORNIA AVE  STE 105","address2": "STE 105","city": "WAHIAWA","state": "HI","zip": "96786","zip+4": "0000","phone": "8086222773","NPI": "     1427235654"}, 
{"id": 14815,"ncpdp": "1240073","pharmacy_name": "FOODLAND PHARMACY #32","address1": "55 510 KAMEHAMEHA HWY","address2": "","city": "LAIE","state": "HI","zip": "96762","zip+4": "0000","phone": "8086401848","NPI": "     1972775997"}, 
{"id": 14816,"ncpdp": "1240085","pharmacy_name": "KAHUKU MEDICAL CENTER","address1": "56 117 PUALALEA ST","address2": "","city": "KAHUKU","state": "HI","zip": "96731","zip+4": "0219","phone": "8082939221","NPI": "     1730360934"}, 
{"id": 14817,"ncpdp": "1240097","pharmacy_name": "PHARMACARE NO. 7","address1": "500 ALA MOANA BLVD","address2": "TOWER 1- SUITE 302","city": "HONOLULU","state": "HI","zip": "96813","zip+4": "0000","phone": "8086282874","NPI": "     1871767731"}, 
{"id": 14818,"ncpdp": "1240112","pharmacy_name": "MINA PHARMACY #10","address1": "1251 KILAUEA AVE","address2": "STE 190 C","city": "HILO","state": "HI","zip": "96720","zip+4": "0000","phone": "8089353100","NPI": "     1275709834"}, 
{"id": 14819,"ncpdp": "1240124","pharmacy_name": "MINA PHARMACY LTC #9","address1": "1251 KILAUEA AVE","address2": "190C 1","city": "HILO","state": "HI","zip": "96720","zip+4": "0000","phone": "8089353100","NPI": "     1770750911"}, 
{"id": 14820,"ncpdp": "1240136","pharmacy_name": "LONGS DRUGS #09127","address1": "66150 KAMEHAMEHA HIGHWAY","address2": "","city": "HALEIWA","state": "HI","zip": "96712","zip+4": "0000","phone": "8086379393","NPI": "     1710147749"}, 
{"id": 14821,"ncpdp": "1240150","pharmacy_name": "FOODLAND PHARMACY #28","address1": "4 771 KUHIO HWY","address2": "","city": "KAPAA","state": "HI","zip": "96746","zip+4": "0000","phone": "8088227271","NPI": "     1982860532"}, 
{"id": 14822,"ncpdp": "1240162","pharmacy_name": "LONGS DRUGS #05638","address1": "961115 KAMANI ST  STE 36","address2": "STE 36","city": "PAHALA","state": "HI","zip": "96777","zip+4": "0000","phone": "8089286252","NPI": "     1881856367"}, 
{"id": 14823,"ncpdp": "1240174","pharmacy_name": "WALGREENS #10048","address1": "46-021 KAMEHAMEHA HWY","address2": "","city": "KANEOHE","state": "HI","zip": "96744","zip+4": "3793","phone": "8082341490","NPI": "     1831346154"}, 
{"id": 14824,"ncpdp": "1240186","pharmacy_name": "LONGS DRUGS #01904","address1": "82 PUUHONU PLACE, #103","address2": "STE 103","city": "HILO","state": "HI","zip": "96720","zip+4": "0000","phone": "8089619267","NPI": "     1518127562"}, 
{"id": 14825,"ncpdp": "1240198","pharmacy_name": "LONGS DRUGS #02362","address1": "670 PONAHAWAI ST  STE 213","address2": "STE 213","city": "HILO","state": "HI","zip": "96720","zip+4": "0000","phone": "8089338555","NPI": "     1427218478"}, 
{"id": 14826,"ncpdp": "1240201","pharmacy_name": "WALGREENS # #11118","address1": "1520 N SCHOOL ST.","address2": "","city": "HONOLULU","state": "HI","zip": "96817","zip+4": "1802","phone": "8088457111","NPI": "     1760633978"}, 
{"id": 14827,"ncpdp": "1240213","pharmacy_name": "WALGREENS # #13119","address1": "843 WAINEE ST.","address2": "SUITE 109","city": "LAHAINA","state": "HI","zip": "96761","zip+4": "1685","phone": "8086613119","NPI": "     1629229232"}, 
{"id": 14828,"ncpdp": "1240225","pharmacy_name": "PAIA PHARMACY","address1": "96 HANA HIGHWAY","address2": "","city": "PAIA","state": "HI","zip": "96779","zip+4": "0000","phone": "8085796466","NPI": "     1346494390"}, 
{"id": 14829,"ncpdp": "1240237","pharmacy_name": "LONGS DRUGS #02406","address1": "65-1267 KAWAIHAE RD.","address2": "","city": "KAMUELA","state": "HI","zip": "96743","zip+4": "0000","phone": "8088854418","NPI": "     1871746883"}, 
{"id": 14830,"ncpdp": "1240249","pharmacy_name": "LONGS DRUGS #06889","address1": "966 KAHEKA ST","address2": "","city": "HONOLULU","state": "HI","zip": "96814","zip+4": "0000","phone": "8089457875","NPI": "     1881848703"}, 
{"id": 14831,"ncpdp": "1240251","pharmacy_name": "WALGREENS # #12763","address1": "2180 MAIN ST","address2": "STE 102","city": "WAILUKU","state": "HI","zip": "96793","zip+4": "1625","phone": "8082447252","NPI": "     1346495835"}, 
{"id": 14832,"ncpdp": "1240263","pharmacy_name": "WALGREENS # #12764","address1": "99 S MARKET ST","address2": "SUITE 201","city": "WAILUKU","state": "HI","zip": "96793","zip+4": "2200","phone": "8082427095","NPI": "     1245485739"}, 
{"id": 14833,"ncpdp": "1240275","pharmacy_name": "WALGREENS # #12762","address1": "130 PRISON ST","address2": "","city": "LAHAINA","state": "HI","zip": "96761","zip+4": "1247","phone": "8086614747","NPI": "     1720233141"}, 
{"id": 14834,"ncpdp": "1240287","pharmacy_name": "TARGET PHARMACY #2411","address1": "4450 KAPOLEI PKWY STE 100","address2": "","city": "KAPOLEI","state": "HI","zip": "96707","zip+4": "0000","phone": "8084573680","NPI": "     1215174693"}, 
{"id": 14835,"ncpdp": "1240299","pharmacy_name": "TARGET PHARMACY #2410","address1": "4380 LAWEHANA ST","address2": "","city": "HONOLULU","state": "HI","zip": "96818","zip+4": "0000","phone": "8084413119","NPI": "     1598901936"}, 
{"id": 14836,"ncpdp": "1240302","pharmacy_name": "LONGS DRUGS #03059","address1": "55 KIOPA\'A STREET","address2": "","city": "PUKALANI","state": "HI","zip": "96768","zip+4": "0000","phone": "8085739304","NPI": "     1972749414"}, 
{"id": 14837,"ncpdp": "1240314","pharmacy_name": "COSTCO PHARMACY #1038","address1": "4589 KAPOLEI PARKWAY","address2": "","city": "KAPOLEI","state": "HI","zip": "96707","zip+4": "0000","phone": "8086743909","NPI": "     1366689606"}, 
{"id": 14838,"ncpdp": "1240326","pharmacy_name": "WALGREENS #12466","address1": "56 ONEAWA ST","address2": "","city": "KAILUA","state": "HI","zip": "96734","zip+4": "2543","phone": "8082639980","NPI": "     1346488582"}, 
{"id": 14839,"ncpdp": "1240338","pharmacy_name": "WALGREENS #13645","address1": "94-307 FARRINGTON HWY","address2": "STE B7B","city": "WAIPAHU","state": "HI","zip": "96797","zip+4": "2500","phone": "8086762230","NPI": "     1215177910"}, 
{"id": 14840,"ncpdp": "1240340","pharmacy_name": "TARGET PHARMACY #2412","address1": "74-5455 MAKALA BLVD","address2": "","city": "KAILUA KONA","state": "HI","zip": "96740","zip+4": "0000","phone": "8083344021","NPI": "     1669607784"}, 
{"id": 14841,"ncpdp": "1240352","pharmacy_name": "WALGREENS #11192","address1": "342 KEAWE ST BLDG D","address2": "","city": "LAHAINA","state": "HI","zip": "96761","zip+4": "0000","phone": "8086679515","NPI": "     1518195429"}, 
{"id": 14842,"ncpdp": "1240364","pharmacy_name": "LONGS DRUG STORE #03040","address1": "1748 LILIHA ST","address2": "","city": "HONOLULU","state": "HI","zip": "96817","zip+4": "3111","phone": "4017651500","NPI": "     1902035140"}, 
{"id": 14843,"ncpdp": "1240390","pharmacy_name": "SAFEWAY PHARMACY # #1501","address1": "75-1027 HENRY ST","address2": "","city": "KAILUA KONA","state": "HI","zip": "96740","zip+4": "3154","phone": "8083276778","NPI": "     1679703664"},