{"id": 19203,"ncpdp": "1700031","pharmacy_name": "PROFESSIONAL PHARMACY","address1": "744 N WACO","address2": "","city": "WICHITA","state": "KS","zip": "67203","zip+4": "0000","phone": "3162635218","NPI": "     1386644458"}, 
{"id": 19204,"ncpdp": "1700081","pharmacy_name": "WALGREEN DRUG STORE #4782","address1": "3696 SW TOPEKA BLVD","address2": "","city": "TOPEKA","state": "KS","zip": "66611","zip+4": "0000","phone": "7852667181","NPI": "     1962417287"}, 
{"id": 19205,"ncpdp": "1700093","pharmacy_name": "WALGREEN DRUG STORE #3069","address1": "1001 SW TOPEKA BLVD","address2": "","city": "TOPEKA","state": "KS","zip": "66612","zip+4": "0000","phone": "7853541747","NPI": "     1871508192"}, 
{"id": 19206,"ncpdp": "1700118","pharmacy_name": "CVS PHARMACY #05271","address1": "9622 NALL AVE","address2": "","city": "OVERLAND PARK","state": "KS","zip": "66207","zip+4": "0000","phone": "9136481210","NPI": "     1144327636"}, 
{"id": 19207,"ncpdp": "1700156","pharmacy_name": "GIBSON PHARMACY","address1": "321 S BROADWAY","address2": "","city": "SALINA","state": "KS","zip": "67401","zip+4": "3899","phone": "7858250524","NPI": "     1174565014"}, 
{"id": 19208,"ncpdp": "1700233","pharmacy_name": "DEGOLER PHARMACY #1","address1": "21 N 12TH ST STE 100","address2": "","city": "KANSAS CITY","state": "KS","zip": "66102","zip+4": "5172","phone": "9133424073","NPI": "     1710086731"}, 
{"id": 19209,"ncpdp": "1700257","pharmacy_name": "WOLKAR DRUG INC","address1": "2303 MILITARY AVE","address2": "","city": "BAXTER SPRINGS","state": "KS","zip": "66713","zip+4": "2324","phone": "6208565555","NPI": "     1053423905"}, 
{"id": 19210,"ncpdp": "1700358","pharmacy_name": "WALGREEN DRUG STORE #4557","address1": "2121 SW FAIRLAWN RD","address2": "","city": "TOPEKA","state": "KS","zip": "66614","zip+4": "0000","phone": "7852730216","NPI": "     1780699009"}, 
{"id": 19211,"ncpdp": "1700485","pharmacy_name": "THE PRESCRIPTION SHOP INC","address1": "601 W 11TH ST","address2": "","city": "COFFEYVILLE","state": "KS","zip": "67337","zip+4": "5025","phone": "6202511620","NPI": "     1619966272"}, 
{"id": 19212,"ncpdp": "1700586","pharmacy_name": "GRAVES DRUG STORE #11","address1": "212 S SUMMIT ST","address2": "","city": "ARKANSAS CITY","state": "KS","zip": "67005","zip+4": "2896","phone": "6204422300","NPI": "     1780754218"}, 
{"id": 19213,"ncpdp": "1700827","pharmacy_name": "WINFIELD PHARMACY INC","address1": "1708 E 9TH AVE","address2": "","city": "WINFIELD","state": "KS","zip": "67156","zip+4": "0756","phone": "6202210450","NPI": "     1114921798"}, 
{"id": 19214,"ncpdp": "1700865","pharmacy_name": "GRAVES DRUG # #10","address1": "905 MAIN ST","address2": "","city": "WINFIELD","state": "KS","zip": "67156","zip+4": "3697","phone": "6202210080","NPI": "     1164516019"}, 
{"id": 19215,"ncpdp": "1700877","pharmacy_name": "VALLEY DRUG INC","address1": "801 S MERIDIAN","address2": "","city": "VALLEY CENTER","state": "KS","zip": "67147","zip+4": "0000","phone": "3167550191","NPI": "     1740376730"}, 
{"id": 19216,"ncpdp": "1700904","pharmacy_name": "BAXTER DRUG","address1": "1000 MILITARY","address2": "","city": "BAXTER SPRINGS","state": "KS","zip": "66713","zip+4": "0000","phone": "6208565858","NPI": "     1457392888"}, 
{"id": 19217,"ncpdp": "1700942","pharmacy_name": "GESSLER WESTLINK #4","address1": "8903 W CENTRAL AVE","address2": "","city": "WICHITA","state": "KS","zip": "67212","zip+4": "3896","phone": "3167224281","NPI": "     1760485841"}, 
{"id": 19218,"ncpdp": "1700966","pharmacy_name": "DUNNES PHARMACY","address1": "2429 CLAFLIN RD","address2": "","city": "MANHATTAN","state": "KS","zip": "66502","zip+4": "2785","phone": "7855392345","NPI": "     1053309922"}, 
{"id": 19219,"ncpdp": "1700992","pharmacy_name": "EVANS DRUG INC","address1": "116 W PINE ST","address2": "","city": "COLUMBUS","state": "KS","zip": "66725","zip+4": "0000","phone": "6204293322","NPI": "     1780770099"}, 
{"id": 19220,"ncpdp": "1701019","pharmacy_name": "RIGGS DRUGS STORE","address1": "426 MAPLE","address2": "","city": "CHETOPA","state": "KS","zip": "67336","zip+4": "0000","phone": "6202367272","NPI": "     1164539714"}, 
{"id": 19221,"ncpdp": "1701069","pharmacy_name": "REYNOLDS PHARMACY","address1": "701 COMMERCIAL ST","address2": "","city": "ATCHISON","state": "KS","zip": "66846","zip+4": "0000","phone": "9133674113","NPI": "     1386793958"}, 
{"id": 19222,"ncpdp": "1701071","pharmacy_name": "CROWELL DRUG CO INC","address1": "401 N BROADWAY ST","address2": "","city": "PITTSBURG","state": "KS","zip": "66762","zip+4": "6563","phone": "6202310750","NPI": "     1659462489"}, 
{"id": 19223,"ncpdp": "1701146","pharmacy_name": "GARDNER PHARMACY","address1": "131 E MAIN ST","address2": "","city": "GARDNER","state": "KS","zip": "66030","zip+4": "0000","phone": "9138568106","NPI": "     1588761696"}, 
{"id": 19224,"ncpdp": "1701158","pharmacy_name": "ARMA DRUG","address1": "504 E WASHINGTON","address2": "","city": "ARMA","state": "KS","zip": "66712","zip+4": "9801","phone": "6203478311","NPI": "     1770525206"}, 
{"id": 19225,"ncpdp": "1701235","pharmacy_name": "KEN MAR FAMILY DRUGS","address1": "4728 E 13TH STREET NORTH","address2": "","city": "WICHITA","state": "KS","zip": "67208","zip+4": "2293","phone": "3166847271","NPI": "     1154402311"}, 
{"id": 19226,"ncpdp": "1701259","pharmacy_name": "GESSLER EAST","address1": "4817 E DOUGLAS AVE # 300","address2": "","city": "WICHITA","state": "KS","zip": "67218","zip+4": "1013","phone": "3166840118","NPI": "     1356344436"}, 
{"id": 19227,"ncpdp": "1701324","pharmacy_name": "BANKES HEALTH MART","address1": "304 N BROADWAY","address2": "","city": "ABILENE","state": "KS","zip": "67410","zip+4": "2694","phone": "7852634330","NPI": "     1821150368"}, 
{"id": 19228,"ncpdp": "1701348","pharmacy_name": "RICCO PHARMACY","address1": "1812 N BUCKEYE","address2": "","city": "ABILENE","state": "KS","zip": "67410","zip+4": "0000","phone": "7852633770","NPI": "     1770664203"}, 
{"id": 19229,"ncpdp": "1701350","pharmacy_name": "PATTERSON HEALTH CARE PHARMACY","address1": "105 NW THIRD ST","address2": "","city": "ABILENE","state": "KS","zip": "67410","zip+4": "0000","phone": "7852632229","NPI": "     1083797997"}, 
{"id": 19230,"ncpdp": "1701362","pharmacy_name": "TRAPP PHARMACY","address1": "204 N CEDAR ST","address2": "","city": "ABILENE","state": "KS","zip": "67410","zip+4": "2651","phone": "7852634550","NPI": "     1649388745"}, 
{"id": 19231,"ncpdp": "1701526","pharmacy_name": "ROBERTS PBA DRUG STORE","address1": "112 N 8TH STREET","address2": "","city": "BALDWIN CITY","state": "KS","zip": "66006","zip+4": "0000","phone": "7855946867","NPI": "     1598877441"}, 
{"id": 19232,"ncpdp": "1701540","pharmacy_name": "ARBUTHNOT DRUG COMPANY","address1": "1806 M ST","address2": "","city": "BELLEVILLE","state": "KS","zip": "66935","zip+4": "2206","phone": "7855272146","NPI": "     1891796017"}, 
{"id": 19233,"ncpdp": "1701742","pharmacy_name": "ASHLEY PHARMACY","address1": "505 S PLUMMER","address2": "","city": "CHANUTE","state": "KS","zip": "66720","zip+4": "1950","phone": "6204312510","NPI": "     1609961234"}, 
{"id": 19234,"ncpdp": "1701754","pharmacy_name": "SEVENTH ST PHARMACY INC","address1": "511 N MAIN ST STE B","address2": "","city": "ERIE","state": "KS","zip": "66733","zip+4": "1017","phone": "6202443333","NPI": "     1104905876"}, 
{"id": 19235,"ncpdp": "1701766","pharmacy_name": "CARDINAL DRUG","address1": "103 E MAIN ST","address2": "","city": "CHANUTE","state": "KS","zip": "66720","zip+4": "1883","phone": "6204319150","NPI": "     1356455331"}, 
{"id": 19236,"ncpdp": "1701778","pharmacy_name": "CHERRYVALE PHARMACY INC","address1": "101 E MAIN ST","address2": "","city": "CHERRYVALE","state": "KS","zip": "67337","zip+4": "0000","phone": "3163362144","NPI": "     1720154826"}, 
{"id": 19237,"ncpdp": "1701792","pharmacy_name": "CLARK PHARMACY INC","address1": "101 S MAIN ST","address2": "","city": "CIMARRON","state": "KS","zip": "67835","zip+4": "9998","phone": "3168552242","NPI": "     1720145105"}, 
{"id": 19238,"ncpdp": "1701831","pharmacy_name": "PATTERSON HEALTHMART PHARMACY","address1": "422 LINCOLN AVE","address2": "","city": "CLAY CENTER","state": "KS","zip": "67432","zip+4": "0000","phone": "7856323115","NPI": "     1306840855"}, 
{"id": 19239,"ncpdp": "1701881","pharmacy_name": "MED ECON PHARMACY","address1": "1205 W 8TH ST","address2": "","city": "COFFEYVILLE","state": "KS","zip": "67337","zip+4": "0000","phone": "3162513533","NPI": "     1558360818"}, 
{"id": 19240,"ncpdp": "1701920","pharmacy_name": "MAIN STREET PHARMACY","address1": "113 E MAIN","address2": "","city": "COLDWATER","state": "KS","zip": "67029","zip+4": "0000","phone": "6205822134","NPI": "     1407862287"}, 
{"id": 19241,"ncpdp": "1701982","pharmacy_name": "PALMQUIST DRUG INC","address1": "135 W 6TH","address2": "","city": "CONCORDIA","state": "KS","zip": "66901","zip+4": "0000","phone": "7852431212","NPI": "     1679681886"}, 
{"id": 19242,"ncpdp": "1702059","pharmacy_name": "DIGHTON DRUG","address1": "136 E LONG ST","address2": "","city": "DIGHTON","state": "KS","zip": "67839","zip+4": "9801","phone": "6203975331","NPI": "     1598788960"}, 
{"id": 19243,"ncpdp": "1702237","pharmacy_name": "F AND M DRUG LLC","address1": "209 N DOUGLAS","address2": "","city": "ELLSWORTH","state": "KS","zip": "67439","zip+4": "0000","phone": "7854723131","NPI": "     1245388248"}, 
{"id": 19244,"ncpdp": "1702249","pharmacy_name": "SEITZ DRUG COMPANY INC","address1": "206 N DOUGLAS AVE","address2": "","city": "ELLSWORTH","state": "KS","zip": "67439","zip+4": "3216","phone": "7854723212","NPI": "     1265546246"}, 
{"id": 19245,"ncpdp": "1702251","pharmacy_name": "GRAVES DRUG STORE EMPORIA INC","address1": "609 COMMERCIAL ST","address2": "","city": "EMPORIA","state": "KS","zip": "66801","zip+4": "2974","phone": "6203432323","NPI": "     1871527192"}, 
{"id": 19246,"ncpdp": "1702542","pharmacy_name": "MATHIS DRUG STORE INC","address1": "400 WEST ST JOHN","address2": "","city": "GIRARD","state": "KS","zip": "66743","zip+4": "0097","phone": "6207244313","NPI": "     1861418444"}, 
{"id": 19247,"ncpdp": "1702693","pharmacy_name": "PIERSON HANOVER PROFESSIONAL P","address1": "103 NORTH ST","address2": "","city": "HANOVER","state": "KS","zip": "66945","zip+4": "9998","phone": "7853372241","NPI": "     1174637151"}, 
{"id": 19248,"ncpdp": "1702807","pharmacy_name": "BOELLING PHARMACY","address1": "2 W MAIN ST","address2": "","city": "HERINGTON","state": "KS","zip": "67449","zip+4": "2244","phone": "7852583703","NPI": "     1104915883"}, 
{"id": 19249,"ncpdp": "1702895","pharmacy_name": "GREENHAW PHARMACY INC","address1": "508 S ASH ST","address2": "STE P","city": "HILLSBORO","state": "KS","zip": "67063","zip+4": "0000","phone": "6209473784","NPI": "     1578645362"}, 
{"id": 19250,"ncpdp": "1702922","pharmacy_name": "MEDICAL PHARMACY PA","address1": "1100 COLUMBINE DR","address2": "","city": "HOLTON","state": "KS","zip": "66436","zip+4": "0000","phone": "7853642114","NPI": "     1104873769"}, 
{"id": 19251,"ncpdp": "1702960","pharmacy_name": "MAHANNA PHARMACY INC","address1": "833 MAIN ST","address2": "","city": "HOXIE","state": "KS","zip": "67740","zip+4": "9735","phone": "7856753461","NPI": "     1851434872"}, 
{"id": 19252,"ncpdp": "1702972","pharmacy_name": "BLOODHART DRUG","address1": "621 S MAIN ST","address2": "","city": "HUGOTON","state": "KS","zip": "67951","zip+4": "0000","phone": "6205444369","NPI": "     1811050669"}, 
{"id": 19253,"ncpdp": "1703001","pharmacy_name": "HUTCHINSON CLINIC PHARMACY","address1": "2101 N WALDRON ST","address2": "","city": "HUTCHINSON","state": "KS","zip": "67502","zip+4": "1197","phone": "6206639542","NPI": "     1013982305"}, 
{"id": 19254,"ncpdp": "1703013","pharmacy_name": "COBERLY DRUG CO INC","address1": "1300 N MAIN ST","address2": "","city": "HUTCHINSON","state": "KS","zip": "67501","zip+4": "4099","phone": "6206637172","NPI": "     1699884486"}, 
{"id": 19255,"ncpdp": "1703265","pharmacy_name": "HASSIG DRUGS INC","address1": "1001 CENTRAL AVE","address2": "","city": "KANSAS CITY","state": "KS","zip": "66102","zip+4": "5396","phone": "9133710447","NPI": "     1982790986"}, 
{"id": 19256,"ncpdp": "1703431","pharmacy_name": "KINGMAN DRUG INC","address1": "211 N MAIN ST","address2": "","city": "KINGMAN","state": "KS","zip": "67068","zip+4": "1396","phone": "6205325113","NPI": "     1700887023"}, 
{"id": 19257,"ncpdp": "1703481","pharmacy_name": "KIOWAS PRESCRIPTIONS PLUS","address1": "530 MAIN ST","address2": "","city": "KIOWA","state": "KS","zip": "67070","zip+4": "1406","phone": "6208254782","NPI": "     1750420709"}, 
{"id": 19258,"ncpdp": "1703607","pharmacy_name": "MEDICAL ARTS PHCY","address1": "346 MAINE ST","address2": "","city": "LAWRENCE","state": "KS","zip": "66044","zip+4": "1394","phone": "7858434160","NPI": "     1265576631"}, 
{"id": 19259,"ncpdp": "1703734","pharmacy_name": "ALLEGRE REXALL DRUGS","address1": "6 W BROADWAY","address2": "","city": "LEBO","state": "KS","zip": "66856","zip+4": "9998","phone": "6202566122","NPI": "     1770572216"}, 
{"id": 19260,"ncpdp": "1703746","pharmacy_name": "ELKAN DRUG","address1": "1033 N KANSAS","address2": "","city": "LIBERAL","state": "KS","zip": "67901","zip+4": "0000","phone": "6206244065","NPI": "     1366424145"}, 
{"id": 19261,"ncpdp": "1703796","pharmacy_name": "APOTEK","address1": "605 W LINCOLN","address2": "","city": "LINDSBORG","state": "KS","zip": "67456","zip+4": "0000","phone": "7852273374","NPI": "     1487657144"}, 
{"id": 19262,"ncpdp": "1703885","pharmacy_name": "BARRYS DRUG CENTER","address1": "414 POYNTZ AVE","address2": "","city": "MANHATTAN","state": "KS","zip": "66502","zip+4": "6086","phone": "7857768833","NPI": "     1568451342"}, 
{"id": 19263,"ncpdp": "1703950","pharmacy_name": "LAFENE HEALTH CENTER PHARMACY","address1": "1105 SUNSET AVE","address2": "","city": "MANHATTAN","state": "KS","zip": "66502","zip+4": "3575","phone": "7855327758","NPI": "     1952357691"}, 
{"id": 19264,"ncpdp": "1703986","pharmacy_name": "MARION HEALTHMART PHARMACY","address1": "217 E MAIN ST","address2": "","city": "MARION","state": "KS","zip": "66861","zip+4": "1627","phone": "6203822135","NPI": "     1194833947"}, 
{"id": 19265,"ncpdp": "1704003","pharmacy_name": "AR EX DRUG STORE","address1": "801 BROADWAY","address2": "","city": "MARYSVILLE","state": "KS","zip": "66508","zip+4": "0000","phone": "7855623196","NPI": "     1447334453"}, 
{"id": 19266,"ncpdp": "1704091","pharmacy_name": "HIBBARDS PRESCRIPTIONS PLUS","address1": "102 N MAIN","address2": "","city": "MEDICINE LODGE","state": "KS","zip": "67104","zip+4": "0000","phone": "6208865161","NPI": "     1013004225"}, 
{"id": 19267,"ncpdp": "1704128","pharmacy_name": "CITY PHARMACY LLC","address1": "209 W 2ND ST","address2": "","city": "MINNEAPOLIS","state": "KS","zip": "67467","zip+4": "2393","phone": "7853922213","NPI": "     1710992359"}, 
{"id": 19268,"ncpdp": "1704178","pharmacy_name": "MONTEZUMA DRUG","address1": "300 N AZTEC","address2": "","city": "MONTEZUMA","state": "KS","zip": "67867","zip+4": "0000","phone": "6208462202","NPI": "     1184733396"}, 
{"id": 19269,"ncpdp": "1704217","pharmacy_name": "MULVANE PHARMACY INC","address1": "1008 SE LOUIS DR","address2": "","city": "MULVANE","state": "KS","zip": "67110","zip+4": "0000","phone": "3167771601","NPI": "     1134206006"}, 
{"id": 19270,"ncpdp": "1704231","pharmacy_name": "PORTER DRUGS","address1": "506 MAIN ST","address2": "","city": "NEODESHA","state": "KS","zip": "66757","zip+4": "0000","phone": "6203752671","NPI": "     1487736278"}, 
{"id": 19271,"ncpdp": "1704332","pharmacy_name": "MOFFET DRUG STORE","address1": "102 S STATE ST","address2": "","city": "NORTON","state": "KS","zip": "67654","zip+4": "0405","phone": "7858772721","NPI": "     1700969888"}, 
{"id": 19272,"ncpdp": "1704394","pharmacy_name": "WARD DRUG STORE","address1": "142 S PENN","address2": "","city": "OBERLIN","state": "KS","zip": "67749","zip+4": "0000","phone": "7854752285","NPI": "     1699836866"}, 
{"id": 19273,"ncpdp": "1704483","pharmacy_name": "GIBSON TRUECARE PHARMACY INC","address1": "521 MARKET ST","address2": "","city": "OSAGE CITY","state": "KS","zip": "66523","zip+4": "0000","phone": "7855284415","NPI": "     1942394010"}, 
{"id": 19274,"ncpdp": "1704560","pharmacy_name": "BRISCOE DRUG STORE","address1": "847 S MAIN","address2": "","city": "OTTAWA","state": "KS","zip": "66067","zip+4": "0000","phone": "7852424133","NPI": "     1891892485"}, 
{"id": 19275,"ncpdp": "1704596","pharmacy_name": "ALLEGRE PBA PHARMACY","address1": "304 S MAIN ST","address2": "","city": "OTTAWA","state": "KS","zip": "66067","zip+4": "0000","phone": "7852423092","NPI": "     1083702518"}, 
{"id": 19276,"ncpdp": "1704697","pharmacy_name": "AUBURN PHARMACY","address1": "311 N HOSPITAL DR","address2": "","city": "PAOLA","state": "KS","zip": "66071","zip+4": "1493","phone": "9132943516","NPI": "     1124111034"}, 
{"id": 19277,"ncpdp": "1704724","pharmacy_name": "BOWEN PHARMACY","address1": "1519 MAIN ST","address2": "","city": "PARSONS","state": "KS","zip": "67357","zip+4": "3381","phone": "6204214950","NPI": "     1730268400"}, 
{"id": 19278,"ncpdp": "1704798","pharmacy_name": "WENZL DRUG INC","address1": "719 3RD ST","address2": "","city": "PHILLIPSBURG","state": "KS","zip": "67661","zip+4": "1915","phone": "7855435131","NPI": "     1144263310"}, 
{"id": 19279,"ncpdp": "1704825","pharmacy_name": "MEDICINE SHOPPE PHARMACY #1293","address1": "2409 N BROADWAY","address2": "","city": "PITTSBURG","state": "KS","zip": "66762","zip+4": "0000","phone": "6202313410","NPI": "     1326116302"}, 
{"id": 19280,"ncpdp": "1704851","pharmacy_name": "UNREIN DRUG STORE","address1": "210 W MILL ST","address2": "","city": "PLAINVILLE","state": "KS","zip": "67663","zip+4": "0000","phone": "7854344615","NPI": "     1083728067"}, 
{"id": 19281,"ncpdp": "1704875","pharmacy_name": "BRUCE SMITH DRUGS","address1": "25 ON THE MALL","address2": "","city": "PRAIRIE VILLAGE","state": "KS","zip": "66208","zip+4": "8029","phone": "9133623100","NPI": "     1831268671"}, 
{"id": 19282,"ncpdp": "1705029","pharmacy_name": "B AND K PRESCRIPTION SHOP","address1": "601 E IRON AVE","address2": "","city": "SALINA","state": "KS","zip": "67401","zip+4": "0000","phone": "7858274455","NPI": "     1861490013"}, 
{"id": 19283,"ncpdp": "1705055","pharmacy_name": "KEY REXALL PHARMACY","address1": "2024 S OHIO ST","address2": "","city": "SALINA","state": "KS","zip": "67401","zip+4": "6708","phone": "7858270408","NPI": "     1730298878"}, 
{"id": 19284,"ncpdp": "1705245","pharmacy_name": "KRILEYS FAMILY DRUG CTR","address1": "125 S MAIN ST","address2": "","city": "SMITH CENTER","state": "KS","zip": "66967","zip+4": "0245","phone": "7852826843","NPI": "     1790903599"}, 
{"id": 19285,"ncpdp": "1705360","pharmacy_name": "HAMILTON COUNTY DRUG STORE","address1": "302 E AVE A","address2": "","city": "SYRACUSE","state": "KS","zip": "67878","zip+4": "0000","phone": "6203847424","NPI": "     1285682153"}, 
{"id": 19286,"ncpdp": "1705497","pharmacy_name": "HIGHLAND PARK PHARMACY","address1": "1244 E 27TH ST","address2": "","city": "TOPEKA","state": "KS","zip": "66605","zip+4": "1498","phone": "7852346688","NPI": "     1891809877"}, 
{"id": 19287,"ncpdp": "1705702","pharmacy_name": "GRANT COUNTY DRUG CO","address1": "219 N MAIN ST","address2": "","city": "ULYSSES","state": "KS","zip": "67880","zip+4": "0925","phone": "6203561446","NPI": "     1063573178"}, 
{"id": 19288,"ncpdp": "1705740","pharmacy_name": "GIBSON HEALTH MART","address1": "125 N MAIN ST","address2": "","city": "WAKEENEY","state": "KS","zip": "67672","zip+4": "0000","phone": "7857435753","NPI": "     1114026895"}, 
{"id": 19289,"ncpdp": "1705764","pharmacy_name": "WAMEGO DRUG STORE","address1": "501 LINCOLN ST","address2": "","city": "WAMEGO","state": "KS","zip": "66547","zip+4": "1633","phone": "7854569292","NPI": "     1619081692"}, 
{"id": 19290,"ncpdp": "1705788","pharmacy_name": "WASHINGTON PHARMACY","address1": "227 C ST","address2": "","city": "WASHINGTON","state": "KS","zip": "66968","zip+4": "1906","phone": "7853253130","NPI": "     1811957608"}, 
{"id": 19291,"ncpdp": "1706348","pharmacy_name": "WICHITA CLINIC PHARMACY","address1": "3311 E MURDOCK ST","address2": "","city": "WICHITA","state": "KS","zip": "67208","zip+4": "3054","phone": "3166899280","NPI": "     1679584890"}, 
{"id": 19292,"ncpdp": "1706362","pharmacy_name": "WINCHESTER PHARMACY","address1": "408 DELAWARE","address2": "","city": "WINCHESTER","state": "KS","zip": "66097","zip+4": "0000","phone": "9137743328","NPI": "     1689605263"}, 
{"id": 19293,"ncpdp": "1706437","pharmacy_name": "KMART PHARMACY #7444","address1": "1740 SW WANAMAKER ROAD","address2": "","city": "TOPEKA","state": "KS","zip": "66604","zip+4": "0000","phone": "7852734040","NPI": "     1841221819"}, 
{"id": 19294,"ncpdp": "1706540","pharmacy_name": "IOLA PHARMACY","address1": "109 E MADISON ST","address2": "","city": "IOLA","state": "KS","zip": "66749","zip+4": "3390","phone": "6203653176","NPI": "     1528172509"}, 
{"id": 19295,"ncpdp": "1706603","pharmacy_name": "MEDICAL CENTER PHARMACY","address1": "400 W 4TH ST","address2": "SUITE 1","city": "MC PHERSON","state": "KS","zip": "67460","zip+4": "2306","phone": "6202410022","NPI": "     1942215314"}, 
{"id": 19296,"ncpdp": "1706615","pharmacy_name": "CONSUMERS PHARMACY INC","address1": "1035 N EMPORIA ST","address2": "","city": "WICHITA","state": "KS","zip": "67214","zip+4": "2944","phone": "3162636233","NPI": "     1811913015"}, 
{"id": 19297,"ncpdp": "1706641","pharmacy_name": "KMART PHARMACY #4215","address1": "7836 STATE AVE","address2": "","city": "KANSAS CITY","state": "KS","zip": "66112","zip+4": "0000","phone": "9132996016","NPI": "     1750312724"}, 
{"id": 19298,"ncpdp": "1706691","pharmacy_name": "MYERS FAMILY CENTER","address1": "616 CEDAR ST","address2": "","city": "CEDAR VALE","state": "KS","zip": "67024","zip+4": "9998","phone": "6207582711","NPI": "     1659595312"}, 
{"id": 19299,"ncpdp": "1706754","pharmacy_name": "FERGUSON REXALL DRUGS","address1": "713 5TH ST","address2": "","city": "CLAY CENTER","state": "KS","zip": "67432","zip+4": "2936","phone": "7856323121","NPI": "     1043317886"}, 
{"id": 19300,"ncpdp": "1706778","pharmacy_name": "DANDURAND DRUG","address1": "7732 E CENTRAL ST","address2": "","city": "WICHITA","state": "KS","zip": "67206","zip+4": "2163","phone": "3166852353","NPI": "     1518940873"}, 
{"id": 19301,"ncpdp": "1706918","pharmacy_name": "KMART PHARMACY #4443","address1": "9401 METCALF","address2": "","city": "OVERLAND PARK","state": "KS","zip": "66212","zip+4": "0000","phone": "9133815883","NPI": "     1669403630"}, 
{"id": 19302,"ncpdp": "1706968","pharmacy_name": "WISE DRUG INC","address1": "308 N POMEROY","address2": "","city": "HILL CITY","state": "KS","zip": "67642","zip+4": "0000","phone": "7854215632","NPI": "     1770695629"}, 
{"id": 19303,"ncpdp": "1706982","pharmacy_name": "WATKINS MEMORIAL HEALTH CTR PH","address1": "1200 SCHWEGLER DR","address2": "UNIVERSITY OF KANSAS","city": "LAWRENCE","state": "KS","zip": "66045","zip+4": "0000","phone": "7858649512","NPI": "     1942357413"}, 
{"id": 19304,"ncpdp": "1707085","pharmacy_name": "DONS REXALL DRUG","address1": "126 WALNUT","address2": "","city": "PEABODY","state": "KS","zip": "66866","zip+4": "1062","phone": "6209832162","NPI": "     1366459034"}, 
{"id": 19305,"ncpdp": "1707100","pharmacy_name": "KMART PHARMACY #4222","address1": "8703 63RD ST W","address2": "","city": "SHAWNEE MISSION","state": "KS","zip": "66202","zip+4": "0000","phone": "9137224750","NPI": "     1578594545"}, 
{"id": 19306,"ncpdp": "1707136","pharmacy_name": "MEDICAP #8151","address1": "1720 S SANTA FE","address2": "PO BOX 126","city": "CHANUTE","state": "KS","zip": "66720","zip+4": "0000","phone": "6204310898","NPI": "     1669565610"}, 
{"id": 19307,"ncpdp": "1707504","pharmacy_name": "DON DAWSON PHARMACY INC","address1": "725 N MAIN ST","address2": "","city": "RUSSELL","state": "KS","zip": "67665","zip+4": "0000","phone": "7854832119","NPI": "     1124178447"}, 
{"id": 19308,"ncpdp": "1707629","pharmacy_name": "KANSAS UNIVERSITY MEDICAL CENT","address1": "3901 RAINBOW BLVD","address2": "MAILSTOP 4040","city": "KANSAS CITY","state": "KS","zip": "66160","zip+4": "0000","phone": "9135882370","NPI": "     1457335036"}, 
{"id": 19309,"ncpdp": "1707782","pharmacy_name": "KMART PHARMACY #3358","address1": "4830 S BROADWAY","address2": "","city": "WICHITA","state": "KS","zip": "67216","zip+4": "0000","phone": "3165224701","NPI": "     1487685459"}, 
{"id": 19310,"ncpdp": "1707871","pharmacy_name": "KMART PHARMACY #3322","address1": "2000 E SANTA FE","address2": "","city": "OLATHE","state": "KS","zip": "66062","zip+4": "0000","phone": "9137822811","NPI": "     1295766269"}, 
{"id": 19311,"ncpdp": "1707910","pharmacy_name": "MANKATO PROFESSIONAL PHARMACY","address1": "125 N COMMERCIAL","address2": "","city": "MANKATO","state": "KS","zip": "66956","zip+4": "0266","phone": "7853783183","NPI": "     1497741748"}, 
{"id": 19312,"ncpdp": "1707934","pharmacy_name": "LINDBURG PHARMACY INC","address1": "909 E CENTENNIAL","address2": "","city": "PITTSBURG","state": "KS","zip": "66762","zip+4": "6600","phone": "6202318130","NPI": "     1225069198"}, 
{"id": 19313,"ncpdp": "1708001","pharmacy_name": "MEDICINE SHOPPE #0188","address1": "6523 PARALLEL AVE","address2": "","city": "KANSAS CITY","state": "KS","zip": "66102","zip+4": "1046","phone": "9137883344","NPI": "     1497867345"}, 
{"id": 19314,"ncpdp": "1708049","pharmacy_name": "KMART PHARMACY #4171","address1": "4200 W KELLOGG","address2": "","city": "WICHITA","state": "KS","zip": "67209","zip+4": "0000","phone": "3169428253","NPI": "     1104857176"}, 
{"id": 19315,"ncpdp": "1708063","pharmacy_name": "DILLON PHARMACY #615025","address1": "206 W 5TH ST","address2": "","city": "HUTCHINSON","state": "KS","zip": "67501","zip+4": "0000","phone": "6206633375","NPI": "     1689614182"}, 
{"id": 19316,"ncpdp": "1708099","pharmacy_name": "DILLON PHARMACY #615005","address1": "1305 E KANSAS AVE","address2": "","city": "GARDEN CITY","state": "KS","zip": "67846","zip+4": "0000","phone": "6202751957","NPI": "     1497795991"}, 
{"id": 19317,"ncpdp": "1708239","pharmacy_name": "DILLON PHARMACY #615036","address1": "1320 N MAIN","address2": "","city": "MCPHERSON","state": "KS","zip": "67460","zip+4": "0000","phone": "6202416108","NPI": "     1306886809"}, 
{"id": 19318,"ncpdp": "1708253","pharmacy_name": "DEGOLERS PHARMACY #2","address1": "5701 STATE AVE","address2": "","city": "KANSAS CITY","state": "KS","zip": "66102","zip+4": "0000","phone": "9135962133","NPI": "     1790872075"}, 
{"id": 19319,"ncpdp": "1708277","pharmacy_name": "MEDICINE SHOPPE #1336","address1": "10410 MASTIN","address2": "","city": "OVERLAND PARK","state": "KS","zip": "66212","zip+4": "1120","phone": "9134924998","NPI": "     1306958251"}, 
{"id": 19320,"ncpdp": "1708378","pharmacy_name": "LINDSAY PHARMACY INC","address1": "2131 N RIDGE RD","address2": "","city": "WICHITA","state": "KS","zip": "67212","zip+4": "0000","phone": "3167227227","NPI": "     1982706669"}, 
{"id": 19321,"ncpdp": "1709609","pharmacy_name": "CALDWELL PHARMACY #8101","address1": "7 N MAIN ST","address2": "","city": "CALDWELL","state": "KS","zip": "67022","zip+4": "1599","phone": "6208456916","NPI": "     1992873798"}, 
{"id": 19322,"ncpdp": "1709712","pharmacy_name": "KMART PHARMACY #7169","address1": "400 SOUTH BROADWAY","address2": "","city": "SALINA","state": "KS","zip": "67401","zip+4": "0000","phone": "7858252248","NPI": "     1659302628"}, 
{"id": 19323,"ncpdp": "1709748","pharmacy_name": "DILLON PHARMACY #615010","address1": "725 E 4TH ST","address2": "","city": "HUTCHINSON","state": "KS","zip": "67501","zip+4": "0000","phone": "6206698238","NPI": "     1275576068"}, 
{"id": 19324,"ncpdp": "1709849","pharmacy_name": "BALES PHARMACY","address1": "116 E ROSS","address2": "","city": "CLEARWATER","state": "KS","zip": "67026","zip+4": "0459","phone": "6205842025","NPI": "     1982764197"}, 
{"id": 19325,"ncpdp": "1709851","pharmacy_name": "DILLON PHARMACY #615084","address1": "1216 NORTH MAIN","address2": "","city": "NEWTON","state": "KS","zip": "67114","zip+4": "0000","phone": "3162836770","NPI": "     1649210469"}, 
{"id": 19326,"ncpdp": "1709875","pharmacy_name": "DILLON PHARMACY #615061","address1": "1902 VINE ST","address2": "","city": "HAYS","state": "KS","zip": "67601","zip+4": "0000","phone": "7856286148","NPI": "     1235170143"}, 
{"id": 19327,"ncpdp": "1709899","pharmacy_name": "KMART PHARMACY #3184","address1": "1320 E THIRTIETH AVE","address2": "","city": "HUTCHINSON","state": "KS","zip": "67502","zip+4": "4298","phone": "6206698559","NPI": "     1013948082"}, 
{"id": 19328,"ncpdp": "1709902","pharmacy_name": "KMART PHARMACY #7037","address1": "401 E POYNTZ AVE","address2": "","city": "MANHATTAN","state": "KS","zip": "66502","zip+4": "0000","phone": "7857764070","NPI": "     1831120807"}, 
{"id": 19329,"ncpdp": "1709952","pharmacy_name": "DILLON PHARMACY #615038","address1": "425 N SUMMIT","address2": "","city": "ARKANSAS CITY","state": "KS","zip": "67005","zip+4": "0000","phone": "6204427842","NPI": "     1528008323"}, 
{"id": 19330,"ncpdp": "1710018","pharmacy_name": "CVS PHARMACY #05272","address1": "6300 JOHNSON DR","address2": "","city": "MISSION","state": "KS","zip": "66202","zip+4": "0000","phone": "9137223711","NPI": "     1609970557"}, 
{"id": 19331,"ncpdp": "1710157","pharmacy_name": "ASHCRAFT PHARMACY","address1": "503 N MAIN ST","address2": "","city": "S HUTCHINSON","state": "KS","zip": "67505","zip+4": "1123","phone": "6206632258","NPI": "     1184776965"}, 
{"id": 19332,"ncpdp": "1710169","pharmacy_name": "DILLON PHARMACY #615033","address1": "4747 S BROADWAY","address2": "","city": "WICHITA","state": "KS","zip": "67216","zip+4": "0000","phone": "3165244228","NPI": "     1205877644"}, 
{"id": 19333,"ncpdp": "1710195","pharmacy_name": "BOND PHARMACY","address1": "3017 STRONG AVE","address2": "","city": "KANSAS CITY","state": "KS","zip": "66106","zip+4": "2190","phone": "9138311500","NPI": "     1447302732"}, 
{"id": 19334,"ncpdp": "1710210","pharmacy_name": "KMART PHARMACY #9647","address1": "4820 4TH ST TRAFFICWAY","address2": "","city": "LEAVENWORTH","state": "KS","zip": "66048","zip+4": "0000","phone": "9137272255","NPI": "     1740211713"}, 
{"id": 19335,"ncpdp": "1710222","pharmacy_name": "DAMM PHARMACY","address1": "1412 N WOODLAWN","address2": "","city": "DERBY","state": "KS","zip": "67037","zip+4": "2998","phone": "3167885533","NPI": "     1568579316"}, 
{"id": 19336,"ncpdp": "1710234","pharmacy_name": "FUNK PHARMACY","address1": "1020 ELMHURST AVE","address2": "","city": "CONCORDIA","state": "KS","zip": "66901","zip+4": "3900","phone": "7852434414","NPI": "     1770586125"}, 
{"id": 19337,"ncpdp": "1710246","pharmacy_name": "MEDICAL ARTS PHARMACY","address1": "701 MAIN STREET","address2": "","city": "SENECA","state": "KS","zip": "66538","zip+4": "1931","phone": "7853366146","NPI": "     1588624365"}, 
{"id": 19338,"ncpdp": "1710258","pharmacy_name": "DILLON PHARMACY #615016","address1": "8828 W 13TH ST","address2": "","city": "WICHITA","state": "KS","zip": "67212","zip+4": "0000","phone": "3167229733","NPI": "     1588605968"}, 
{"id": 19339,"ncpdp": "1710359","pharmacy_name": "DILLON PHARMACY #615041","address1": "1201 W CRAWFORD","address2": "","city": "SALINA","state": "KS","zip": "67401","zip+4": "0000","phone": "7858270417","NPI": "     1669546032"}, 
{"id": 19340,"ncpdp": "1710400","pharmacy_name": "DILLON PHARMACY #615018","address1": "1510 OHIO","address2": "","city": "AUGUSTA","state": "KS","zip": "67010","zip+4": "0000","phone": "3167755456","NPI": "     1114968047"}, 
{"id": 19341,"ncpdp": "1710412","pharmacy_name": "DILLON PHARMACY #615051","address1": "4107 10TH ST","address2": "","city": "GREAT BEND","state": "KS","zip": "67530","zip+4": "0000","phone": "6207925944","NPI": "     1346280146"}, 
{"id": 19342,"ncpdp": "1710474","pharmacy_name": "MEDICAL PARK PHARMACY OF GREAT","address1": "1309 POLK ST","address2": "","city": "GREAT BEND","state": "KS","zip": "67530","zip+4": "0000","phone": "6207921221","NPI": "     1861564437"}, 
{"id": 19343,"ncpdp": "1710501","pharmacy_name": "KAYS PHARMACY INC","address1": "11 N BROADWAY","address2": "","city": "HERINGTON","state": "KS","zip": "67449","zip+4": "2401","phone": "7852583717","NPI": "     1184633414"}, 
{"id": 19344,"ncpdp": "1710513","pharmacy_name": "KMART PHARMACY #7409","address1": "2240 N TYLER ST","address2": "","city": "TOPEKA","state": "KS","zip": "66608","zip+4": "0000","phone": "7852337003","NPI": "     1568493534"}, 
{"id": 19345,"ncpdp": "1710626","pharmacy_name": "CORNER DRUG AND GIFT INC","address1": "823 MORGAN AVE","address2": "","city": "DOWNS","state": "KS","zip": "67437","zip+4": "0000","phone": "7854546614","NPI": "     1073546347"}, 
{"id": 19346,"ncpdp": "1710652","pharmacy_name": "THE CORNER PHARMACY","address1": "429 DELAWARE ST","address2": "","city": "LEAVENWORTH","state": "KS","zip": "66048","zip+4": "2783","phone": "9136821602","NPI": "     1194790469"}, 
{"id": 19347,"ncpdp": "1710676","pharmacy_name": "DILLON PHARMACY #615043","address1": "1740 MASSACHUSETTS","address2": "","city": "LAWRENCE","state": "KS","zip": "66044","zip+4": "0000","phone": "7858422434","NPI": "     1467492280"}, 
{"id": 19348,"ncpdp": "1710789","pharmacy_name": "DILLON PHARMACY #615001","address1": "1700 N 14TH","address2": "","city": "DODGE CITY","state": "KS","zip": "67801","zip+4": "0000","phone": "6202256140","NPI": "     1376583195"}, 
{"id": 19349,"ncpdp": "1710791","pharmacy_name": "DILLON PHARMACY #615044","address1": "618 W 6TH ST","address2": "","city": "JUNCTION CITY","state": "KS","zip": "66441","zip+4": "0000","phone": "7852384141","NPI": "     1285674002"}, 
{"id": 19350,"ncpdp": "1710842","pharmacy_name": "DILLON PHARMACY #615108","address1": "2600 N BROADWAY","address2": "","city": "PITTSBURG","state": "KS","zip": "66762","zip+4": "0000","phone": "6202323066","NPI": "     1255371050"}, 
{"id": 19351,"ncpdp": "1710892","pharmacy_name": "WAL-MART PHARMACY #100484","address1": "3300 IOWA STREET","address2": "","city": "LAWRENCE","state": "KS","zip": "66046","zip+4": "0000","phone": "7858420177","NPI": "     1548287931"}, 
{"id": 19352,"ncpdp": "1710929","pharmacy_name": "RENOS PHARMACY","address1": "519 MAIN STREET","address2": "","city": "JETMORE","state": "KS","zip": "67854","zip+4": "0000","phone": "6203578305","NPI": "     1376758532"}, 
{"id": 19353,"ncpdp": "1710931","pharmacy_name": "WAL-MART PHARMACY #100557","address1": "2301 INDUSTRIAL ROAD","address2": "","city": "EMPORIA","state": "KS","zip": "66801","zip+4": "0000","phone": "6203427711","NPI": "     1457378846"}, 
{"id": 19354,"ncpdp": "1710955","pharmacy_name": "WAL-MART PHARMACY #100042","address1": "1705 WEST 11TH STREET","address2": "","city": "COFFEYVILLE","state": "KS","zip": "67337","zip+4": "0000","phone": "6202515528","NPI": "     1366469751"}, 
{"id": 19355,"ncpdp": "1710967","pharmacy_name": "SABETHA HEALTHMART","address1": "934 MAIN ST","address2": "","city": "SABETHA","state": "KS","zip": "66534","zip+4": "1829","phone": "7852843414","NPI": "     1669432456"}, 
{"id": 19356,"ncpdp": "1710981","pharmacy_name": "DILLON PHARMACY #615021","address1": "5500 EAST HARRY","address2": "","city": "WICHITA","state": "KS","zip": "67218","zip+4": "0000","phone": "3166869200","NPI": "     1114968559"}, 
{"id": 19357,"ncpdp": "1711010","pharmacy_name": "WAL-MART PHARMACY #100486","address1": "12801 KANSAS AVENUE","address2": "","city": "BONNER SPRINGS","state": "KS","zip": "66012","zip+4": "0000","phone": "9134418800","NPI": "     1184641573"}, 
{"id": 19358,"ncpdp": "1711123","pharmacy_name": "DILLON PHARMACY #615034","address1": "3932 W 13TH ST","address2": "","city": "WICHITA","state": "KS","zip": "67203","zip+4": "0000","phone": "3169427636","NPI": "     1780625103"}, 
{"id": 19359,"ncpdp": "1711147","pharmacy_name": "GALENA MED-X DRUG","address1": "606 S MAIN ST","address2": "","city": "GALENA","state": "KS","zip": "66739","zip+4": "0398","phone": "6207831347","NPI": "     1588758429"}, 
{"id": 19360,"ncpdp": "1711161","pharmacy_name": "JIMS PHARMACY","address1": "582 S OHIO ST","address2": "","city": "SALINA","state": "KS","zip": "67401","zip+4": "0000","phone": "7858274114","NPI": "     1801989850"}, 
{"id": 19361,"ncpdp": "1711185","pharmacy_name": "PARKLANE PHARMACY","address1": "1530 S OLIVER ST","address2": "STE 141","city": "WICHITA","state": "KS","zip": "67218","zip+4": "3240","phone": "3166852269","NPI": "     1114071297"}, 
{"id": 19362,"ncpdp": "1711212","pharmacy_name": "DILLON PHARMACY #615063","address1": "1111 W 8TH ST","address2": "","city": "WELLINGTON","state": "KS","zip": "67152","zip+4": "0000","phone": "6203265981","NPI": "     1073553871"}, 
{"id": 19363,"ncpdp": "1711224","pharmacy_name": "WAL-MART PHARMACY #100592","address1": "2020 NORTH SE BLVD","address2": "","city": "DERBY","state": "KS","zip": "67037","zip+4": "0000","phone": "3167883731","NPI": "     1275550667"}, 
{"id": 19364,"ncpdp": "1711236","pharmacy_name": "WAL-MART PHARMACY #100577","address1": "13600 S. ALDEN ST.","address2": "","city": "OLATHE","state": "KS","zip": "66062","zip+4": "0000","phone": "9138295300","NPI": "     1093732497"}, 
{"id": 19365,"ncpdp": "1711286","pharmacy_name": "WAL-MART PHARMACY #100664","address1": "4301 VINE STREET","address2": "","city": "HAYS","state": "KS","zip": "67601","zip+4": "0000","phone": "0785620537","NPI": "     1902823305"}, 
{"id": 19366,"ncpdp": "1711387","pharmacy_name": "DILLON PHARMACY #615060","address1": "1211 BUFFALO JONES AVE","address2": "","city": "GARDEN CITY","state": "KS","zip": "67846","zip+4": "0000","phone": "6202750194","NPI": "     1598706913"}, 
{"id": 19367,"ncpdp": "1711476","pharmacy_name": "SATANTA RETAIL PHARMACY","address1": "401 CHEYENNE","address2": "","city": "SATANTA","state": "KS","zip": "67870","zip+4": "0000","phone": "6206492450","NPI": "     1326088972"}, 
{"id": 19368,"ncpdp": "1711515","pharmacy_name": "WAL-MART PHARMACY #100382","address1": "2101 PRINCETON RD","address2": "","city": "OTTAWA","state": "KS","zip": "66067","zip+4": "0000","phone": "7852421034","NPI": "     1811914211"}, 
{"id": 19369,"ncpdp": "1711539","pharmacy_name": "DILLON PHARMACY #615064","address1": "5720 W 21ST ST","address2": "","city": "TOPEKA","state": "KS","zip": "66604","zip+4": "0000","phone": "7852736292","NPI": "     1023059953"}, 
{"id": 19370,"ncpdp": "1711541","pharmacy_name": "OSWEGO DRUG STORE","address1": "413 COMMERCIAL","address2": "","city": "OSWEGO","state": "KS","zip": "67356","zip+4": "2017","phone": "6207952233","NPI": "     1124130075"}, 
{"id": 19371,"ncpdp": "1711553","pharmacy_name": "PRESTON SOCORA PHARMACY","address1": "8200 W CENTRAL ST","address2": "STE 2","city": "WICHITA","state": "KS","zip": "67212","zip+4": "3673","phone": "3167224248","NPI": "     1881747624"}, 
{"id": 19372,"ncpdp": "1711589","pharmacy_name": "WAL-MART PHARMACY #100770","address1": "3503 TENTH STREET","address2": "","city": "GREAT BEND","state": "KS","zip": "67530","zip+4": "0000","phone": "6207925237","NPI": "     1720005127"}, 
{"id": 19373,"ncpdp": "1711616","pharmacy_name": "WAL-MART PHARMACY #100799","address1": "250 EAST TUCKER ROAD","address2": "","city": "LIBERAL","state": "KS","zip": "67901","zip+4": "0000","phone": "6206264240","NPI": "     1639196033"}, 
{"id": 19374,"ncpdp": "1711628","pharmacy_name": "WAL-MART PHARMACY #100794","address1": "1905 E 17TH STREET","address2": "","city": "HUTCHINSON","state": "KS","zip": "67501","zip+4": "0000","phone": "6206690125","NPI": "     1548287949"}, 
{"id": 19375,"ncpdp": "1711654","pharmacy_name": "WALGREEN DRUG STORE #7778","address1": "1001 SW GAGE BLVD","address2": "","city": "TOPEKA","state": "KS","zip": "66604","zip+4": "0000","phone": "7852722690","NPI": "     1598770810"}, 
{"id": 19376,"ncpdp": "1711844","pharmacy_name": "DILLON PHARMACY #615048","address1": "517 E 30TH ST","address2": "","city": "HUTCHINSON","state": "KS","zip": "67502","zip+4": "0000","phone": "6206637628","NPI": "     1396786778"}, 
{"id": 19377,"ncpdp": "1711907","pharmacy_name": "DILLON PHARMACY #615065","address1": "3211 S SENECA","address2": "","city": "WICHITA","state": "KS","zip": "67217","zip+4": "0000","phone": "3165224545","NPI": "     1093755811"}, 
{"id": 19378,"ncpdp": "1711933","pharmacy_name": "MEDICINE STORE","address1": "539 E SANTA FE","address2": "","city": "OLATHE","state": "KS","zip": "66061","zip+4": "0000","phone": "9137641800","NPI": "     1821038373"}, 
{"id": 19379,"ncpdp": "1712101","pharmacy_name": "WALGREEN DRUG STORE #3772","address1": "2901 SE CALIFORNIA AVE","address2": "","city": "TOPEKA","state": "KS","zip": "66605","zip+4": "0000","phone": "7852665197","NPI": "     1407861727"}, 
{"id": 19380,"ncpdp": "1712238","pharmacy_name": "LEEKERS FAMILY PHARMACY","address1": "6223 N BROADWAY ST","address2": "","city": "WICHITA","state": "KS","zip": "67219","zip+4": "1194","phone": "3167443948","NPI": "     1760592000"}, 
{"id": 19381,"ncpdp": "1712276","pharmacy_name": "DILLON PHARMACY #615067","address1": "2010 SE 29TH ST","address2": "","city": "TOPEKA","state": "KS","zip": "66605","zip+4": "0000","phone": "7852670234","NPI": "     1982644787"}, 
{"id": 19382,"ncpdp": "1712315","pharmacy_name": "DILLON PHARMACY #615068","address1": "3000 W 6TH ST","address2": "","city": "LAWRENCE","state": "KS","zip": "66044","zip+4": "0000","phone": "7858430847","NPI": "     1891735601"}, 
{"id": 19383,"ncpdp": "1712327","pharmacy_name": "HESSTON PHARMACY INC","address1": "101 S MAIN ST","address2": "","city": "HESSTON","state": "KS","zip": "67062","zip+4": "8940","phone": "6203272211","NPI": "     1952408791"}, 
{"id": 19384,"ncpdp": "1712341","pharmacy_name": "WAL-MART PHARMACY #100370","address1": "2022 E 16TH ST","address2": "","city": "WELLINGTON","state": "KS","zip": "67152","zip+4": "0000","phone": "6203263321","NPI": "     1457378853"}, 
{"id": 19385,"ncpdp": "1712353","pharmacy_name": "WAL-MART PHARMACY #100993","address1": "205 SO. CENTENNIAL DRIVE","address2": "","city": "MCPHERSON","state": "KS","zip": "67460","zip+4": "0000","phone": "6202410941","NPI": "     1831116235"}, 
{"id": 19386,"ncpdp": "1712365","pharmacy_name": "CARBONDALE CLINIC PHARMACY INC","address1": "211 E MAIN ST","address2": "","city": "CARBONDALE","state": "KS","zip": "66414","zip+4": "0000","phone": "7858367202","NPI": "     1437263415"}, 
{"id": 19387,"ncpdp": "1712389","pharmacy_name": "CVS PHARMACY #05265","address1": "13360 87TH PKWY","address2": "","city": "LENEXA","state": "KS","zip": "66215","zip+4": "0000","phone": "9134924650","NPI": "     1518061464"}, 
{"id": 19388,"ncpdp": "1712391","pharmacy_name": "DILLON PHARMACY #615066","address1": "2244 N ROCK RD CT","address2": "","city": "WICHITA","state": "KS","zip": "67226","zip+4": "0000","phone": "3166855740","NPI": "     1700826518"}, 
{"id": 19389,"ncpdp": "1712416","pharmacy_name": "WAL-MART PHARMACY #100978","address1": "2701 NORTH SUMMIT","address2": "","city": "ARKANSAS CITY","state": "KS","zip": "67005","zip+4": "0000","phone": "6204422051","NPI": "     1518984020"}, 
{"id": 19390,"ncpdp": "1712442","pharmacy_name": "WAL-MART PHARMACY #101054","address1": "1920 SOUTH US 73","address2": "","city": "ATCHISON","state": "KS","zip": "66002","zip+4": "0000","phone": "9133676142","NPI": "     1043237571"}, 
{"id": 19391,"ncpdp": "1712555","pharmacy_name": "WAL-MART PHARMACY #100026","address1": "3450 S 4TH TRAFFICWAY","address2": "","city": "LEAVENWORTH","state": "KS","zip": "66048","zip+4": "0000","phone": "9136514070","NPI": "     1740207141"}, 
{"id": 19392,"ncpdp": "1712579","pharmacy_name": "KOMBO PHARMACY","address1": "19846 W KELLOGG ST","address2": "","city": "GODDARD","state": "KS","zip": "67052","zip+4": "0000","phone": "3167942217","NPI": "     1043320310"}, 
{"id": 19393,"ncpdp": "1712593","pharmacy_name": "WAL-MART PHARMACY #100652","address1": "3101 EAST KANSAS AVE","address2": "","city": "GARDEN CITY","state": "KS","zip": "67846","zip+4": "0000","phone": "6202757557","NPI": "     1659398055"}, 
{"id": 19394,"ncpdp": "1712606","pharmacy_name": "HAYSVILLE HEALTH MART PHARMACY","address1": "145 N MAIN ST","address2": "","city": "HAYSVILLE","state": "KS","zip": "67060","zip+4": "1202","phone": "3165244234","NPI": "     1821115296"}, 
{"id": 19395,"ncpdp": "1712769","pharmacy_name": "GARDEN PHARMACY","address1": "701 KANSAS PLAZA","address2": "","city": "GARDEN CITY","state": "KS","zip": "67846","zip+4": "5866","phone": "3162755791","NPI": "     1326003104"}, 
{"id": 19396,"ncpdp": "1712771","pharmacy_name": "DILLON PHARMACY #615046","address1": "1000 WESTLOOP","address2": "","city": "MANHATTAN","state": "KS","zip": "66502","zip+4": "0000","phone": "7855399454","NPI": "     1528008331"}, 
{"id": 19397,"ncpdp": "1712808","pharmacy_name": "WAL-MART PHARMACY #101151","address1": "10824 PARALLEL PKWY","address2": "","city": "KANSAS CITY","state": "KS","zip": "66109","zip+4": "3649","phone": "9137883202","NPI": "     1568489961"}, 
{"id": 19398,"ncpdp": "1712858","pharmacy_name": "CVS PHARMACY #05268","address1": "390 LIMIT ST","address2": "","city": "LEAVENWORTH","state": "KS","zip": "66048","zip+4": "0000","phone": "9136512323","NPI": "     1427152370"}, 
{"id": 19399,"ncpdp": "1713040","pharmacy_name": "WAL-MART PHARMACY #101802","address1": "1501 S.W. WANAMAKER ROAD","address2": "","city": "TOPEKA","state": "KS","zip": "66604","zip+4": "0000","phone": "7852715673","NPI": "     1477570877"}, 
{"id": 19400,"ncpdp": "1713165","pharmacy_name": "HUMBOLDT PHARMACY","address1": "204 SOUTH 9TH ST","address2": "","city": "HUMBOLDT","state": "KS","zip": "66748","zip+4": "0075","phone": "6204732520","NPI": "     1811962038"}, 
{"id": 19401,"ncpdp": "1713228","pharmacy_name": "FAMILY PRESCRIPTION SHOP #1","address1": "7111 E 21ST ST","address2": "","city": "WICHITA","state": "KS","zip": "67206","zip+4": "1078","phone": "3166847899","NPI": "     1679541585"}, 
{"id": 19402,"ncpdp": "1713242","pharmacy_name": "HY VEE PHARMACY #1508","address1": "11552 W 95TH STREET","address2": "","city": "OVERLAND PARK","state": "KS","zip": "66214","zip+4": "0000","phone": "9138942079","NPI": "     1255367835"}, 
{"id": 19403,"ncpdp": "1713254","pharmacy_name": "WAL-MART PHARMACY #101221","address1": "6110 WEST KELLOG","address2": "","city": "WICHITA","state": "KS","zip": "67209","zip+4": "0000","phone": "3169458181","NPI": "     1386661783"}, 
{"id": 19404,"ncpdp": "1713278","pharmacy_name": "DILLON PHARMACY #615047","address1": "2815 SW 29TH ST","address2": "","city": "TOPEKA","state": "KS","zip": "66614","zip+4": "0000","phone": "7852720314","NPI": "     1346280153"}, 
{"id": 19405,"ncpdp": "1713280","pharmacy_name": "MAHONEYS PHARMACY","address1": "11844 QUIVIRA RD","address2": "","city": "OVERLAND PARK","state": "KS","zip": "66210","zip+4": "1300","phone": "9136619966","NPI": "     1861581415"}, 
{"id": 19406,"ncpdp": "1713343","pharmacy_name": "CVS PHARMACY #05266","address1": "13438 W 62ND TER","address2": "","city": "SHAWNEE","state": "KS","zip": "66216","zip+4": "0000","phone": "9139620352","NPI": "     1336243286"}, 
{"id": 19407,"ncpdp": "1713355","pharmacy_name": "HY VEE PHARMACY #1378","address1": "12200 STATE LINE ROAD","address2": "","city": "LEAWOOD","state": "KS","zip": "66209","zip+4": "0000","phone": "9133459377","NPI": "     1083659767"}, 
{"id": 19408,"ncpdp": "1713367","pharmacy_name": "WAL-MART PHARMACY #101214","address1": "115 WEST WILLOW","address2": "","city": "COLBY","state": "KS","zip": "67701","zip+4": "0000","phone": "7854628651","NPI": "     1942227475"}, 
{"id": 19409,"ncpdp": "1713379","pharmacy_name": "DILLON PHARMACY #615070","address1": "1015 W 23RD ST","address2": "","city": "LAWRENCE","state": "KS","zip": "66046","zip+4": "0000","phone": "7858415110","NPI": "     1255371068"}, 
{"id": 19410,"ncpdp": "1713381","pharmacy_name": "WAL-MART PHARMACY #101187","address1": "2200 N STATE ST","address2": "","city": "IOLA","state": "KS","zip": "66749","zip+4": "0000","phone": "6203657637","NPI": "     1194742593"}, 
{"id": 19411,"ncpdp": "1713393","pharmacy_name": "FRAESE DRUG","address1": "100 N MAIN","address2": "","city": "HUTCHINSON","state": "KS","zip": "67501","zip+4": "5230","phone": "6206624477","NPI": "     1184628166"}, 
{"id": 19412,"ncpdp": "1713444","pharmacy_name": "YATES CENTER PHARMACY","address1": "122 W RUTLEDGE ST","address2": "","city": "YATES CENTER","state": "KS","zip": "66783","zip+4": "1238","phone": "6206252221","NPI": "     1962506162"}, 
{"id": 19413,"ncpdp": "1713456","pharmacy_name": "DIXON DRUG","address1": "422 BROADWAY","address2": "","city": "TRIBUNE","state": "KS","zip": "67879","zip+4": "0000","phone": "6203764224","NPI": "     1801817457"}, 
{"id": 19414,"ncpdp": "1713482","pharmacy_name": "WAL-MART PHARMACY #100341","address1": "1174 PONY EXPRESS HWY","address2": "","city": "MARYSVILLE","state": "KS","zip": "66508","zip+4": "0000","phone": "7855623000","NPI": "     1003833401"}, 
{"id": 19415,"ncpdp": "1713634","pharmacy_name": "DILLON PHARMACY #615023","address1": "1108 E 1ST ST","address2": "","city": "PRATT","state": "KS","zip": "67124","zip+4": "0000","phone": "6206725584","NPI": "     1023059466"}, 
{"id": 19416,"ncpdp": "1713709","pharmacy_name": "WAL-MART PHARMACY #100346","address1": "1618 NORTH OHIO STREET","address2": "","city": "AUGUSTA","state": "KS","zip": "67010","zip+4": "0000","phone": "3167751168","NPI": "     1912924317"}, 
{"id": 19417,"ncpdp": "1713711","pharmacy_name": "WAL-MART PHARMACY #100558","address1": "2900 SOUTH 9TH ST","address2": "","city": "SALINA","state": "KS","zip": "67401","zip+4": "0000","phone": "7858254449","NPI": "     1821015223"}, 
{"id": 19418,"ncpdp": "1713735","pharmacy_name": "THE MEDICINE STORE","address1": "760 N STAR COURT","address2": "","city": "TONGANOXIE","state": "KS","zip": "66086","zip+4": "0000","phone": "9133692100","NPI": "     1356370217"}, 
{"id": 19419,"ncpdp": "1713759","pharmacy_name": "WAL-MART PHARMACY #100419","address1": "2003 EAST 1ST ST","address2": "","city": "PRATT","state": "KS","zip": "67124","zip+4": "0000","phone": "6206727525","NPI": "     1730106139"}, 
{"id": 19420,"ncpdp": "1713761","pharmacy_name": "DILLON PHARMACY #615074","address1": "2350 PLANET AVE","address2": "","city": "SALINA","state": "KS","zip": "67401","zip+4": "0000","phone": "7858239515","NPI": "     1932140373"}, 
{"id": 19421,"ncpdp": "1714105","pharmacy_name": "MEDICINE SHOPPE","address1": "4501 RAINBOW BLVD","address2": "","city": "KANSAS CITY","state": "KS","zip": "66103","zip+4": "3428","phone": "9132625553","NPI": "     1225100019"}, 
{"id": 19422,"ncpdp": "1714129","pharmacy_name": "WAL-MART PHARMACY #100111","address1": "2700 SOUTH SANTA FE","address2": "","city": "CHANUTE","state": "KS","zip": "66720","zip+4": "0000","phone": "6204314064","NPI": "     1649297045"}, 
{"id": 19423,"ncpdp": "1714131","pharmacy_name": "WAL-MART PHARMACY #101507","address1": "3030 NORTH ROCK RD","address2": "","city": "WICHITA","state": "KS","zip": "67226","zip+4": "0000","phone": "3166365384","NPI": "     1558388959"}, 
{"id": 19424,"ncpdp": "1714220","pharmacy_name": "PATTERSON FMLY APOTHECARY #967","address1": "708 LIBERTY ST","address2": "","city": "CLAY CENTER","state": "KS","zip": "67432","zip+4": "1529","phone": "7856323032","NPI": "     1366588766"}, 
{"id": 19425,"ncpdp": "1714321","pharmacy_name": "WAL-MART PHARMACY #100035","address1": "101 EAST BLUEMONT AVENUE","address2": "","city": "MANHATTAN","state": "KS","zip": "66502","zip+4": "0000","phone": "7857764841","NPI": "     1467479865"}, 
{"id": 19426,"ncpdp": "1714333","pharmacy_name": "DILLON PHARMACY #615072","address1": "10515 W CENTRAL","address2": "","city": "WICHITA","state": "KS","zip": "67212","zip+4": "0000","phone": "3167290431","NPI": "     1992746812"}, 
{"id": 19427,"ncpdp": "1714422","pharmacy_name": "WAL-MART PHARMACY #101599","address1": "11701 METCALF","address2": "","city": "OVERLAND PARK","state": "KS","zip": "66210","zip+4": "0000","phone": "9133381849","NPI": "     1376560771"}, 
{"id": 19428,"ncpdp": "1714460","pharmacy_name": "DILLON PHARMACY #615073","address1": "1417 N KANSAS","address2": "","city": "LIBERAL","state": "KS","zip": "67901","zip+4": "0000","phone": "6206264234","NPI": "     1205877685"}, 
{"id": 19429,"ncpdp": "1714496","pharmacy_name": "MEDICAL CENTER PHARMACY","address1": "2020 CENTRAL AVE","address2": "","city": "DODGE CITY","state": "KS","zip": "67801","zip+4": "0000","phone": "6202278506","NPI": "     1437259462"}, 
{"id": 19430,"ncpdp": "1714511","pharmacy_name": "ORCHARDS DRUG LC","address1": "1410 KASOLD DR","address2": "STE A16","city": "LAWRENCE","state": "KS","zip": "66049","zip+4": "3424","phone": "7858438555","NPI": "     1760594618"}, 
{"id": 19431,"ncpdp": "1714523","pharmacy_name": "MEDICINE SHOPPE PHARMACY #1137","address1": "421 MAIN ST","address2": "","city": "CHANUTE","state": "KS","zip": "66720","zip+4": "0000","phone": "6204317193","NPI": "     1770508681"}, 
{"id": 19432,"ncpdp": "1714535","pharmacy_name": "WAL-MART PHARMACY #100372","address1": "1905 NORTH 14 AVE","address2": "","city": "DODGE CITY","state": "KS","zip": "67801","zip+4": "0000","phone": "6202250872","NPI": "     1285651687"}, 
{"id": 19433,"ncpdp": "1714561","pharmacy_name": "PRICE CHOPPER #20","address1": "2107 S 4TH STREET","address2": "","city": "LEAVENWORTH","state": "KS","zip": "66048","zip+4": "0000","phone": "9136516134","NPI": "     1720193824"}, 
{"id": 19434,"ncpdp": "1714585","pharmacy_name": "WAL-MART PHARMACY #100378","address1": "209 ARIZONA AVENUE","address2": "","city": "HOLTON","state": "KS","zip": "66436","zip+4": "0000","phone": "7853644619","NPI": "     1851318380"}, 
{"id": 19435,"ncpdp": "1714600","pharmacy_name": "MEDICINE SHOPPE PHARMACY #1148","address1": "2701 MAIN","address2": "","city": "PARSONS","state": "KS","zip": "67357","zip+4": "0000","phone": "6204210882","NPI": "     1306846720"}, 
{"id": 19436,"ncpdp": "1714624","pharmacy_name": "MEDICINE SHOPPE #1153","address1": "1001 W 11TH","address2": "","city": "COFFEYVILLE","state": "KS","zip": "67337","zip+4": "0000","phone": "6202512150","NPI": "     1043382831"}, 
{"id": 19437,"ncpdp": "1714686","pharmacy_name": "G AND L PHARMACY","address1": "207 S PENNSYLVANIA AVE","address2": "","city": "NESS CITY","state": "KS","zip": "67560","zip+4": "1635","phone": "7857982897","NPI": "     1689773590"}, 
{"id": 19438,"ncpdp": "1714701","pharmacy_name": "THE MEDICINE SHOPPE #1191","address1": "400 N PENN AVE","address2": "","city": "INDEPENDENCE","state": "KS","zip": "67301","zip+4": "0000","phone": "6203310036","NPI": "     1073589032"}, 
{"id": 19439,"ncpdp": "1714713","pharmacy_name": "AUBURN PHARMACY INC","address1": "429 N MAPLE STREET","address2": "","city": "GARNETT","state": "KS","zip": "66032","zip+4": "1074","phone": "7854486122","NPI": "     1831285212"}, 
{"id": 19440,"ncpdp": "1714725","pharmacy_name": "MEDICINE SHOPPE #1196","address1": "1000 ADAMS ST","address2": "","city": "GREAT BEND","state": "KS","zip": "67530","zip+4": "4256","phone": "6207923030","NPI": "     1568577591"}, 
{"id": 19441,"ncpdp": "1714737","pharmacy_name": "MEDICINE SHOPPE #0045","address1": "1401 NORTH MAIN","address2": "","city": "HUTCHINSON","state": "KS","zip": "67501","zip+4": "4003","phone": "6206637681","NPI": "     1396857249"}, 
{"id": 19442,"ncpdp": "1714751","pharmacy_name": "DERBY DRUG","address1": "1101 N ROCK RD","address2": "","city": "DERBY","state": "KS","zip": "67037","zip+4": "3735","phone": "3167886669","NPI": "     1194828194"}, 
{"id": 19443,"ncpdp": "1714763","pharmacy_name": "WALGREEN DRUG STORE #2846","address1": "2915 SW GAGE","address2": "","city": "TOPEKA","state": "KS","zip": "66614","zip+4": "0000","phone": "7852719924","NPI": "     1740296334"}, 
{"id": 19444,"ncpdp": "1714775","pharmacy_name": "AUTEN PHARMACY INC","address1": "125 E MAIN ST","address2": "","city": "OSAWATOMIE","state": "KS","zip": "66064","zip+4": "1343","phone": "9137554111","NPI": "     1770633893"}, 
{"id": 19445,"ncpdp": "1714814","pharmacy_name": "DILLON PHARMACY #615083","address1": "1624 N ROCK RD","address2": "","city": "DERBY","state": "KS","zip": "67037","zip+4": "0000","phone": "3167882838","NPI": "     1114968591"}, 
{"id": 19446,"ncpdp": "1714826","pharmacy_name": "MOUNDRIDGE PHARMACY","address1": "200 E PACK","address2": "","city": "MOUNDRIDGE","state": "KS","zip": "67107","zip+4": "0000","phone": "6203458650","NPI": "     1073520748"}, 
{"id": 19447,"ncpdp": "1714838","pharmacy_name": "WALGREEN DRUG STORE #2888","address1": "2110 NW TOPEKA AVE","address2": "","city": "TOPEKA","state": "KS","zip": "66608","zip+4": "0000","phone": "7852321011","NPI": "     1316952633"}, 
{"id": 19448,"ncpdp": "1714852","pharmacy_name": "WAL-MART PHARMACY #100072","address1": "2710 N BROADWAY","address2": "","city": "PITTSBURG","state": "KS","zip": "66762","zip+4": "0000","phone": "6202310756","NPI": "     1194742502"}, 
{"id": 19449,"ncpdp": "1714864","pharmacy_name": "WAL-MART PHARMACY #101691","address1": "7701 FRONTAGE ROAD","address2": "","city": "OVERLAND PARK","state": "KS","zip": "66204","zip+4": "0000","phone": "9136485335","NPI": "     1003833419"}, 
{"id": 19450,"ncpdp": "1714876","pharmacy_name": "DEGOLER PHARMACY #3","address1": "8101 PARALLEL PKWY STE 200","address2": "","city": "KANSAS CITY","state": "KS","zip": "66112","zip+4": "1655","phone": "9132999000","NPI": "     1942309976"}, 
{"id": 19451,"ncpdp": "1714888","pharmacy_name": "HY VEE PHARMACY #1422","address1": "6655 MARTWAY","address2": "","city": "MISSION","state": "KS","zip": "66202","zip+4": "0000","phone": "9138314477","NPI": "     1982649661"}, 
{"id": 19452,"ncpdp": "1714903","pharmacy_name": "WAL-MART PHARMACY #100208","address1": "2970 MILITARY AVENUE","address2": "","city": "BAXTER SPRINGS","state": "KS","zip": "66713","zip+4": "0000","phone": "6208565196","NPI": "     1912924325"}, 
{"id": 19453,"ncpdp": "1714939","pharmacy_name": "TICE HEALTHMART","address1": "618 OREGON ST","address2": "","city": "HIAWATHA","state": "KS","zip": "66434","zip+4": "2299","phone": "7857422191","NPI": "     1982664959"}, 
{"id": 19454,"ncpdp": "1714941","pharmacy_name": "WAL-MART PHARMACY #100186","address1": "301 SO. VILLAGE ROAD","address2": "","city": "EL DORADO","state": "KS","zip": "67042","zip+4": "0000","phone": "3163228901","NPI": "     1821015231"}, 
{"id": 19455,"ncpdp": "1714953","pharmacy_name": "CANEY DRUG","address1": "208 W 4TH AVE","address2": "","city": "CANEY","state": "KS","zip": "67333","zip+4": "1462","phone": "6208795822","NPI": "     1801964606"}, 
{"id": 19456,"ncpdp": "1714965","pharmacy_name": "CVS PHARMACY #05274","address1": "191 N PARKER ST","address2": "","city": "OLATHE","state": "KS","zip": "66061","zip+4": "0000","phone": "9137645858","NPI": "     1053418541"}, 
{"id": 19457,"ncpdp": "1715006","pharmacy_name": "RICHEYS REXALL DRUG","address1": "511 N. MAIN STREET","address2": "","city": "ERIE","state": "KS","zip": "66733","zip+4": "1332","phone": "6202443661","NPI": "     1679685523"}, 
{"id": 19458,"ncpdp": "1715018","pharmacy_name": "PRICE CHOPPER #26","address1": "2101 E SANTA FE","address2": "","city": "OLATHE","state": "KS","zip": "66062","zip+4": "0000","phone": "9137822323","NPI": "     1639284730"}, 
{"id": 19459,"ncpdp": "1715107","pharmacy_name": "THE MEDICINE SHOPPE #1236","address1": "2715 CANDLEWOOD DR","address2": "SUITE A","city": "EMPORIA","state": "KS","zip": "66801","zip+4": "0000","phone": "6203421661","NPI": "     1952473746"}, 
{"id": 19460,"ncpdp": "1715157","pharmacy_name": "AUBURN PHARMACY","address1": "2020 MAIN ST","address2": "","city": "PARSONS","state": "KS","zip": "67357","zip+4": "0000","phone": "6204212360","NPI": "     1821173113"}, 
{"id": 19461,"ncpdp": "1715171","pharmacy_name": "DILLON PHARMACY #615058","address1": "1400 HUNTOON","address2": "","city": "TOPEKA","state": "KS","zip": "66604","zip+4": "0000","phone": "7852356289","NPI": "     1881637189"}, 
{"id": 19462,"ncpdp": "1715183","pharmacy_name": "QUALICARE INC","address1": "2336 RIDGE COURT","address2": "STE C","city": "LAWRENCE","state": "KS","zip": "66046","zip+4": "3955","phone": "7858411950","NPI": "     1710934369"}, 
{"id": 19463,"ncpdp": "1715195","pharmacy_name": "RAYS PHARMACY","address1": "324 MAIN ST","address2": "","city": "QUINTER","state": "KS","zip": "67752","zip+4": "9998","phone": "7857543312","NPI": "     1063469294"}, 
{"id": 19464,"ncpdp": "1715210","pharmacy_name": "WALGREEN DRUG STORE #3055","address1": "3421 W 6TH ST","address2": "","city": "LAWRENCE","state": "KS","zip": "66049","zip+4": "0000","phone": "7858415400","NPI": "     1225043540"}, 
{"id": 19465,"ncpdp": "1715222","pharmacy_name": "WALGREEN DRUG STORE #3056","address1": "400 WEST 23RD ST","address2": "","city": "LAWRENCE","state": "KS","zip": "66046","zip+4": "0000","phone": "7858328188","NPI": "     1134134455"}, 
{"id": 19466,"ncpdp": "1715258","pharmacy_name": "MEDICAP PHARMACY #8121","address1": "722 WHEAT ROAD","address2": "","city": "WINFIELD","state": "KS","zip": "67156","zip+4": "0000","phone": "6202217850","NPI": "     1891889200"}, 
{"id": 19467,"ncpdp": "1715260","pharmacy_name": "GREAT PLAINS COMPOUNDING CTR","address1": "11131 W 79 ST","address2": "","city": "LENEXA","state": "KS","zip": "66214","zip+4": "0000","phone": "9132344664","NPI": "     1891703914"}, 
{"id": 19468,"ncpdp": "1715272","pharmacy_name": "WALGREEN DRUG STORE #5768","address1": "5505 E HARRY ST","address2": "","city": "WICHITA","state": "KS","zip": "67218","zip+4": "0000","phone": "3166856361","NPI": "     1043225360"}, 
{"id": 19469,"ncpdp": "1715284","pharmacy_name": "WALGREEN DRUG STORE #5769","address1": "3333 E CENTRAL AVE","address2": "","city": "WICHITA","state": "KS","zip": "67208","zip+4": "0000","phone": "3166821108","NPI": "     1952316275"}, 
{"id": 19470,"ncpdp": "1715296","pharmacy_name": "WALGREEN DRUG STORE #6361","address1": "1330 N WOODLAWN ST","address2": "","city": "WICHITA","state": "KS","zip": "67208","zip+4": "0000","phone": "3166180816","NPI": "     1356357990"}, 
{"id": 19471,"ncpdp": "1715311","pharmacy_name": "DILLON PHARMACY #615015","address1": "130 SARBER LANE","address2": "","city": "MANHATTAN","state": "KS","zip": "66502","zip+4": "0000","phone": "7857760060","NPI": "     1508807421"}, 
{"id": 19472,"ncpdp": "1715323","pharmacy_name": "MASCHINO PHARMACY","address1": "1012 MAIN","address2": "","city": "PLEASANTON","state": "KS","zip": "66075","zip+4": "0500","phone": "9133528733","NPI": "     1992874630"}, 
{"id": 19473,"ncpdp": "1715347","pharmacy_name": "MEDICINE SHOPPE PHARMACY #1299","address1": "461 E POYNTZ","address2": "","city": "MANHATTAN","state": "KS","zip": "66502","zip+4": "0000","phone": "7855391717","NPI": "     1710087432"}, 
{"id": 19474,"ncpdp": "1715359","pharmacy_name": "THE MEDICINE SHOPPE #1301","address1": "2315 W 21ST ST","address2": "SUITE 117","city": "WICHITA","state": "KS","zip": "67203","zip+4": "0000","phone": "3168382100","NPI": "     1649379538"}, 
{"id": 19475,"ncpdp": "1715373","pharmacy_name": "HEN HOUSE #27","address1": "8120 PARALLEL PARKWAY","address2": "","city": "KANSAS CITY","state": "KS","zip": "66112","zip+4": "0000","phone": "9133341660","NPI": "     1548375645"}, 
{"id": 19476,"ncpdp": "1715397","pharmacy_name": "PRICE CHOPPER PHARMACY","address1": "7418 W 119TH ST","address2": "","city": "OVERLAND PARK","state": "KS","zip": "66213","zip+4": "1110","phone": "9133382707","NPI": "     1285797803"}, 
{"id": 19477,"ncpdp": "1715400","pharmacy_name": "PRICE CHOPPER PHARMACY","address1": "8686 ANTIOCH RD","address2": "","city": "OVERLAND PARK","state": "KS","zip": "66212","zip+4": "3648","phone": "9136424140","NPI": "     1124193701"}, 
{"id": 19478,"ncpdp": "1715498","pharmacy_name": "WALGREEN DRUG STORE #5793","address1": "710 N WEST ST","address2": "","city": "WICHITA","state": "KS","zip": "67203","zip+4": "0000","phone": "3169465546","NPI": "     1508871724"}, 
{"id": 19479,"ncpdp": "1715501","pharmacy_name": "SCOTT CITY PHARMACY","address1": "401 S MAIN ST","address2": "","city": "SCOTT CITY","state": "KS","zip": "67871","zip+4": "0099","phone": "6208722146","NPI": "     1639277833"}, 
{"id": 19480,"ncpdp": "1715513","pharmacy_name": "BARNEYS PHARMACY INC","address1": "3108 W CENTRAL","address2": "","city": "WICHITA","state": "KS","zip": "67203","zip+4": "0000","phone": "3169453388","NPI": "     1912002486"}, 
{"id": 19481,"ncpdp": "1715537","pharmacy_name": "WAL-MART PHARMACY #100342","address1": "701 HOPI DRIVE","address2": "","city": "HIAWATHA","state": "KS","zip": "66434","zip+4": "0000","phone": "7857424213","NPI": "     1760409296"}, 
{"id": 19482,"ncpdp": "1715549","pharmacy_name": "STARK PHARMACY","address1": "5701 WEST 119TH STREET","address2": "STE 125","city": "OVERLAND PARK","state": "KS","zip": "66209","zip+4": "3722","phone": "9133453800","NPI": "     1598850232"}, 
{"id": 19483,"ncpdp": "1715551","pharmacy_name": "WAL-MART PHARMACY #100242","address1": "310 HEDGE LANE","address2": "","city": "PAOLA","state": "KS","zip": "66071","zip+4": "0000","phone": "9132945777","NPI": "     1730106147"}, 
{"id": 19484,"ncpdp": "1715563","pharmacy_name": "WAL-MART PHARMACY #100043","address1": "521 EAST CHESTNUT ST","address2": "","city": "JUNCTION CITY","state": "KS","zip": "66441","zip+4": "0000","phone": "7852381118","NPI": "     1649297052"}, 
{"id": 19485,"ncpdp": "1715575","pharmacy_name": "JAYHAWK PHARMACY","address1": "3510 CLINTON PKWY PL","address2": "","city": "LAWRENCE","state": "KS","zip": "66047","zip+4": "2145","phone": "7858430111","NPI": "     1083834998"}, 
{"id": 19486,"ncpdp": "1715587","pharmacy_name": "SUNFLOWER PHARMACY INC","address1": "1501 INVERNESS DR","address2": "","city": "LAWRENCE","state": "KS","zip": "66047","zip+4": "1825","phone": "7858432100","NPI": "     1386627297"}, 
{"id": 19487,"ncpdp": "1715599","pharmacy_name": "COLUMBUS FAMILY PHARMACY","address1": "200 E MAPLE ST","address2": "","city": "COLUMBUS","state": "KS","zip": "66725","zip+4": "0000","phone": "6204291999","NPI": "     1497776447"}, 
{"id": 19488,"ncpdp": "1715614","pharmacy_name": "DILLON PHARMACY #615029","address1": "700 N MAIN","address2": "","city": "EL DORADO","state": "KS","zip": "67042","zip+4": "0000","phone": "3163210318","NPI": "     1841231289"}, 
{"id": 19489,"ncpdp": "1715640","pharmacy_name": "PRICE CHOPPER #25","address1": "7000 W 75TH STREET","address2": "","city": "OVERLAND PARK","state": "KS","zip": "66204","zip+4": "0000","phone": "9134323396","NPI": "     1366557464"}, 
{"id": 19490,"ncpdp": "1715676","pharmacy_name": "HY VEE PHARMACY #1377","address1": "3504 CLINTON PARKWAY","address2": "","city": "LAWRENCE","state": "KS","zip": "66047","zip+4": "0000","phone": "7858320110","NPI": "     1902841687"}, 
{"id": 19491,"ncpdp": "1715703","pharmacy_name": "DILLON PHARMACY #615020","address1": "7707 E CENTRAL","address2": "","city": "WICHITA","state": "KS","zip": "67206","zip+4": "0000","phone": "3166512703","NPI": "     1245304765"}, 
{"id": 19492,"ncpdp": "1715727","pharmacy_name": "WAL-MART PHARMACY #102131","address1": "1301 SW 37TH STREET","address2": "","city": "TOPEKA","state": "KS","zip": "66611","zip+4": "0000","phone": "7852676900","NPI": "     1558388967"}, 
{"id": 19493,"ncpdp": "1715739","pharmacy_name": "SABETHA FAMILY PHARMACY","address1": "1118 MAIN","address2": "","city": "SABETHA","state": "KS","zip": "66534","zip+4": "1810","phone": "7852843432","NPI": "     1205948155"}, 
{"id": 19494,"ncpdp": "1715765","pharmacy_name": "GREGWIRE DRUG STORE","address1": "714 N MAIN ST","address2": "","city": "RUSSELL","state": "KS","zip": "67665","zip+4": "1991","phone": "7854833301","NPI": "     1700988698"}, 
{"id": 19495,"ncpdp": "1715777","pharmacy_name": "AUBURN PHRM","address1": "625 MAIN ST","address2": "","city": "MOUND CITY","state": "KS","zip": "66056","zip+4": "0000","phone": "9137954435","NPI": "     1720014459"}, 
{"id": 19496,"ncpdp": "1715804","pharmacy_name": "DILLON PHARMACY #615045","address1": "2310 MAIN","address2": "","city": "WINFIELD","state": "KS","zip": "67156","zip+4": "0000","phone": "6202215710","NPI": "     1750322194"}, 
{"id": 19497,"ncpdp": "1715816","pharmacy_name": "PRESCRIPTION CENTRE","address1": "312 CROSS ST","address2": "","city": "BURLINGTON","state": "KS","zip": "66839","zip+4": "0208","phone": "6203645523","NPI": "     1801904743"}, 
{"id": 19498,"ncpdp": "1715830","pharmacy_name": "CVS CAREMARK (CAREMARK KANSAS","address1": "11162 RENNER BLVD","address2": "","city": "LENEXA","state": "KS","zip": "66219","zip+4": "9621","phone": "9137483200","NPI": "     1902887805"}, 
	{"id": 19499,"ncpdp": "1715854","pharmacy_name": "WAL-MART PHARMACY #101282","address1": "140 E COLLEGE DRIVE","address2": "","city": "CONCORDIA","state": "KS","zip": "66901","zip+4": "0000","phone": "7852432807","NPI": "     1467479873"}, 
{"id": 19500,"ncpdp": "1715878","pharmacy_name": "WAL-MART PHARMACY #101099","address1": "501 EAST PAWNEE","address2": "","city": "WICHITA","state": "KS","zip": "67211","zip+4": "0000","phone": "3162674230","NPI": "     1376560789"}, 
{"id": 19501,"ncpdp": "1715892","pharmacy_name": "HY VEE PHARMACY #1463","address1": "16100 W 135TH STREET","address2": "","city": "OLATHE","state": "KS","zip": "66062","zip+4": "0000","phone": "9137809449","NPI": "     1356377931"}, 
{"id": 19502,"ncpdp": "1715905","pharmacy_name": "WALGREEN DRUG STORE #6170","address1": "555 N MAIZE ROAD","address2": "","city": "WICHITA","state": "KS","zip": "67212","zip+4": "0000","phone": "3167296099","NPI": "     1417962630"}, 
{"id": 19503,"ncpdp": "1715917","pharmacy_name": "DILLON PHARMACY #615012","address1": "9450 E HARRY","address2": "","city": "WICHITA","state": "KS","zip": "67207","zip+4": "0000","phone": "3166512732","NPI": "     1669413001"}, 
{"id": 19504,"ncpdp": "1715943","pharmacy_name": "HY VEE PHARMACY #1560","address1": "13550 W 63RD STREET","address2": "","city": "SHAWNEE","state": "KS","zip": "66216","zip+4": "0000","phone": "9139622256","NPI": "     1235165812"}, 
{"id": 19505,"ncpdp": "1715967","pharmacy_name": "TARGET PHARMACY #0531","address1": "3201 IOWA STREET","address2": "","city": "LAWRENCE","state": "KS","zip": "66046","zip+4": "0000","phone": "7858320312","NPI": "     1467474106"}, 
{"id": 19506,"ncpdp": "1715979","pharmacy_name": "WAL-MART PHARMACY #102428","address1": "1701 S KANSAS AVE","address2": "","city": "NEWTON","state": "KS","zip": "67114","zip+4": "0000","phone": "3162842333","NPI": "     1285651695"}, 
{"id": 19507,"ncpdp": "1715993","pharmacy_name": "AUBURN PHARMACY","address1": "1400 W AMITY","address2": "","city": "LOUISBURG","state": "KS","zip": "66053","zip+4": "0189","phone": "9138372115","NPI": "     1871644922"}, 
{"id": 19508,"ncpdp": "1716010","pharmacy_name": "PRICE CHOPPER PHARMACY #6","address1": "7201 W 151ST ST","address2": "","city": "STANLEY","state": "KS","zip": "66223","zip+4": "0000","phone": "9138970023","NPI": "     1467513531"}, 
{"id": 19509,"ncpdp": "1716022","pharmacy_name": "HY VEE PHARMACY 2 #1509","address1": "8900 W 135TH STREET","address2": "","city": "OVERLAND PARK","state": "KS","zip": "66221","zip+4": "0000","phone": "9136853299","NPI": "     1427093061"}, 
{"id": 19510,"ncpdp": "1716046","pharmacy_name": "DILLON PHARMACY #615050","address1": "1605 S RANGE RD","address2": "","city": "COLBY","state": "KS","zip": "67701","zip+4": "0000","phone": "7854621310","NPI": "     1902846728"}, 
{"id": 19511,"ncpdp": "1716058","pharmacy_name": "PROFESSIONAL MEDICAL SERVICES","address1": "1708 E 9TH AVE","address2": "STE B","city": "WINFIELD","state": "KS","zip": "67156","zip+4": "0000","phone": "6202214777","NPI": "     1215966924"}, 
{"id": 19512,"ncpdp": "1716084","pharmacy_name": "MEDICINE SHOPPE #1430","address1": "1509 W 12TH ST","address2": "","city": "EMPORIA","state": "KS","zip": "66801","zip+4": "0000","phone": "6203421242","NPI": "     1992871537"}, 
{"id": 19513,"ncpdp": "1716096","pharmacy_name": "DILLON PHARMACY #615049","address1": "10222 W 21ST","address2": "","city": "WICHITA","state": "KS","zip": "67205","zip+4": "0000","phone": "3167921535","NPI": "     1831139625"}, 
{"id": 19514,"ncpdp": "1716109","pharmacy_name": "MEDICINE SHOPPE #1450","address1": "7222 WEST 80TH STREET","address2": "","city": "OVERLAND PARK","state": "KS","zip": "66204","zip+4": "0000","phone": "9133417244","NPI": "     1275687626"}, 
{"id": 19515,"ncpdp": "1716111","pharmacy_name": "WAL-MART PHARMACY #102490","address1": "5150 ROE AVENUE","address2": "","city": "ROELAND PARK","state": "KS","zip": "66205","zip+4": "0000","phone": "9132368778","NPI": "     1093732406"}, 
{"id": 19516,"ncpdp": "1716123","pharmacy_name": "WICHITA COUNTY PHARMACY","address1": "111 W BROADWAY","address2": "","city": "LEOTI","state": "KS","zip": "67861","zip+4": "0000","phone": "6203752323","NPI": "     1710085311"}, 
{"id": 19517,"ncpdp": "1716173","pharmacy_name": "AUBURN PHARMACY","address1": "11700 W 135TH ST","address2": "","city": "OVERLAND PARK","state": "KS","zip": "66221","zip+4": "9395","phone": "9136850308","NPI": "     1720139884"}, 
{"id": 19518,"ncpdp": "1716212","pharmacy_name": "NCS HEALTHCARE OF WICHITA","address1": "4999 S LULU","address2": "","city": "WICHITA","state": "KS","zip": "67216","zip+4": "0000","phone": "3165223449","NPI": "     1821108325"}, 
{"id": 19519,"ncpdp": "1716301","pharmacy_name": "PARSONS FAMILY PHARMACY","address1": "2517 MAIN","address2": "","city": "PARSONS","state": "KS","zip": "67357","zip+4": "0000","phone": "6204212020","NPI": "     1346354321"}, 
{"id": 19520,"ncpdp": "1716313","pharmacy_name": "CVS PHARMACY #05261","address1": "8226 MISSION RD","address2": "","city": "PRAIRIE VILLAGE","state": "KS","zip": "66208","zip+4": "0000","phone": "9133813300","NPI": "     1154425007"}, 
{"id": 19521,"ncpdp": "1716349","pharmacy_name": "HY VEE PHARMACY 3 #1510","address1": "6801 W 91ST STREET","address2": "","city": "OVERLAND PARK","state": "KS","zip": "66212","zip+4": "0000","phone": "9133857373","NPI": "     1326083965"}, 
{"id": 19522,"ncpdp": "1716351","pharmacy_name": "MEDICINE SHOPPE #1490","address1": "716 NORTH 4TH STREET","address2": "","city": "BURLINGTON","state": "KS","zip": "66839","zip+4": "0000","phone": "6203643388","NPI": "     1477668408"}, 
{"id": 19523,"ncpdp": "1716363","pharmacy_name": "WAL-MART PHARMACY #100369","address1": "2202 PIKE RD","address2": "","city": "WINFIELD","state": "KS","zip": "67156","zip+4": "0000","phone": "6202219437","NPI": "     1902823313"}, 
{"id": 19524,"ncpdp": "1716375","pharmacy_name": "VALLEY FALLS HLTHMART PHCY","address1": "320 BROADWAY ST","address2": "","city": "VALLEY FALLS","state": "KS","zip": "66618","zip+4": "0000","phone": "7859453711","NPI": "     1295812592"}, 
{"id": 19525,"ncpdp": "1716387","pharmacy_name": "TARGET PHARMACY #1756","address1": "15345 WEST 119TH ST","address2": "","city": "OLATHE","state": "KS","zip": "66061","zip+4": "0000","phone": "9133934420","NPI": "     1376565010"}, 
{"id": 19526,"ncpdp": "1716414","pharmacy_name": "HEARTLAND HOMECARE SERVICES IN","address1": "1025 N 3RD ST","address2": "STE 110","city": "LAWRENCE","state": "KS","zip": "66044","zip+4": "0000","phone": "7853310807","NPI": "     1780631176"}, 
{"id": 19527,"ncpdp": "1716426","pharmacy_name": "WAL-MART PHARMACY #102562","address1": "2160 C0MMERCE ROAD","address2": "","city": "GOODLAND","state": "KS","zip": "67735","zip+4": "0000","phone": "7858992266","NPI": "     1093733529"}, 
{"id": 19528,"ncpdp": "1716452","pharmacy_name": "WALGREEN DRUG STORE #4183","address1": "545 E SANTA FE","address2": "","city": "OLATHE","state": "KS","zip": "66061","zip+4": "0000","phone": "9133932753","NPI": "     1326053547"}, 
{"id": 19529,"ncpdp": "1716464","pharmacy_name": "WALGREEN DRUG STORE #4185","address1": "4951 ROE BLVD","address2": "","city": "ROELAND PARK","state": "KS","zip": "66205","zip+4": "0000","phone": "9132365447","NPI": "     1235144452"}, 
{"id": 19530,"ncpdp": "1716476","pharmacy_name": "WAL-MART PHARMACY #100039","address1": "2500 SOUTH MAIN","address2": "","city": "FORT SCOTT","state": "KS","zip": "66701","zip+4": "0000","phone": "6202235051","NPI": "     1831116250"}, 
{"id": 19531,"ncpdp": "1716488","pharmacy_name": "HY VEE PHARMACY #1532","address1": "7620 STATELINE","address2": "","city": "PRAIRIE VILLAGE","state": "KS","zip": "66208","zip+4": "0000","phone": "9133838322","NPI": "     1225066384"}, 
{"id": 19532,"ncpdp": "1716490","pharmacy_name": "HY-VEE PHARMACY #1512","address1": "10118 W 119TH STREET","address2": "","city": "OVERLAND PARK","state": "KS","zip": "66213","zip+4": "0000","phone": "9134916261","NPI": "     1669408050"}, 
{"id": 19533,"ncpdp": "1716515","pharmacy_name": "TARGET PHARMACY #1757","address1": "12200 BLUE VALLEY PARKWAY","address2": "","city": "OVERLAND PARK","state": "KS","zip": "66213","zip+4": "0000","phone": "9133277743","NPI": "     1548282288"}, 
{"id": 19534,"ncpdp": "1716527","pharmacy_name": "WAL-MART PHARMACY #100368","address1": "3201 NO 16TH ST","address2": "","city": "PARSONS","state": "KS","zip": "67357","zip+4": "0000","phone": "6204219200","NPI": "     1740207166"}, 
{"id": 19535,"ncpdp": "1716539","pharmacy_name": "WALGREEN DRUG STORE #4234","address1": "7500 METCALF","address2": "","city": "OVERLAND PARK","state": "KS","zip": "66204","zip+4": "0000","phone": "9133411106","NPI": "     1144235367"}, 
{"id": 19536,"ncpdp": "1716541","pharmacy_name": "WALGREEN DRUG STORE #4186","address1": "15100 W 87TH","address2": "","city": "LENEXA","state": "KS","zip": "66219","zip+4": "0000","phone": "9134385102","NPI": "     1053326272"}, 
{"id": 19537,"ncpdp": "1716553","pharmacy_name": "WALGREEN DRUG STORE #5770","address1": "3150 S SENECA ST","address2": "","city": "WICHITA","state": "KS","zip": "67217","zip+4": "0000","phone": "3165223629","NPI": "     1962417188"}, 
{"id": 19538,"ncpdp": "1716604","pharmacy_name": "TARGET PHARMACY #1759","address1": "15700 SHAWNEE MISSION PKWY","address2": "","city": "SHAWNEE","state": "KS","zip": "66217","zip+4": "0000","phone": "9139625199","NPI": "     1366464000"}, 
{"id": 19539,"ncpdp": "1716616","pharmacy_name": "WESLEY OUTPATIENT PHARMACY","address1": "550 N HILLSIDE","address2": "","city": "WICHITA","state": "KS","zip": "67214","zip+4": "0000","phone": "3169622395","NPI": "     1023054483"}, 
{"id": 19540,"ncpdp": "1716642","pharmacy_name": "DILLON PHARMACY #615054","address1": "800 NW 25TH","address2": "","city": "TOPEKA","state": "KS","zip": "66618","zip+4": "0000","phone": "7853572664","NPI": "     1740220532"}, 
{"id": 19541,"ncpdp": "1716654","pharmacy_name": "US BIOSERVICES","address1": "9652 LOIRET BLVD","address2": "","city": "LENEXA","state": "KS","zip": "66219","zip+4": "0000","phone": "8008606581","NPI": "     1326047168"}, 
{"id": 19542,"ncpdp": "1716680","pharmacy_name": "DILLON PHARMACY #615077","address1": "1410 S KANSAS","address2": "","city": "NEWTON","state": "KS","zip": "67114","zip+4": "0000","phone": "3162843725","NPI": "     1619918513"}, 
{"id": 19543,"ncpdp": "1716692","pharmacy_name": "HEN HOUSE #31","address1": "5800 ANTIOCH ROAD","address2": "","city": "MERRIAM","state": "KS","zip": "66202","zip+4": "0000","phone": "9138314140","NPI": "     1275648370"}, 
{"id": 19544,"ncpdp": "1716705","pharmacy_name": "APRIA HEALTHCARE #020","address1": "8013 FLINT ST","address2": "","city": "LENEXA","state": "KS","zip": "66214","zip+4": "0000","phone": "9134929449","NPI": "     1356410567"}, 
{"id": 19545,"ncpdp": "1716717","pharmacy_name": "HEARTLAND HOMECARE SERVICES","address1": "7777 E OSIE","address2": "STE 307","city": "WICHITA","state": "KS","zip": "67207","zip+4": "0000","phone": "3168219646","NPI": "     1750324448"}, 
{"id": 19546,"ncpdp": "1716743","pharmacy_name": "J AND J PHARMACY","address1": "500 THORPE STREET","address2": "","city": "LAKIN","state": "KS","zip": "67860","zip+4": "0000","phone": "6203557712","NPI": "     1447358643"}, 
{"id": 19547,"ncpdp": "1716779","pharmacy_name": "DILLON PHARMACY #615085","address1": "225 E CLOUD AVE","address2": "","city": "ANDOVER","state": "KS","zip": "67002","zip+4": "0000","phone": "3167333705","NPI": "     1811937634"}, 
{"id": 19548,"ncpdp": "1716781","pharmacy_name": "DILLON PHARMACY #615014","address1": "517 W 27TH","address2": "","city": "HAYS","state": "KS","zip": "67601","zip+4": "0000","phone": "7856252523","NPI": "     1578504916"}, 
{"id": 19549,"ncpdp": "1716806","pharmacy_name": "PRICE CHOPPER PHARMACY #121","address1": "3700 W 95TH ST","address2": "","city": "LEAWOOD","state": "KS","zip": "66206","zip+4": "0000","phone": "9136480133","NPI": "     1447381983"}, 
{"id": 19550,"ncpdp": "1716818","pharmacy_name": "CHENEY PHARMACY","address1": "114 N MAIN","address2": "","city": "CHENEY","state": "KS","zip": "67025","zip+4": "0000","phone": "3165420464","NPI": "     1679643480"}, 
{"id": 19551,"ncpdp": "1716820","pharmacy_name": "MCCLAIN MEDICAL CLINIC","address1": "206 S VERMONT AVE","address2": "","city": "RANSOM","state": "KS","zip": "67572","zip+4": "0247","phone": "7857312295","NPI": "     1588734396"}, 
{"id": 19552,"ncpdp": "1716832","pharmacy_name": "CANDLEWOOD HEALTH MART PHCY","address1": "3254 KIMBALL AVE","address2": "","city": "MANHATTAN","state": "KS","zip": "66503","zip+4": "0000","phone": "7857764100","NPI": "     1770684557"}, 
{"id": 19553,"ncpdp": "1716844","pharmacy_name": "CROSSROADS PHARMACY","address1": "2311 M ST","address2": "","city": "BELLEVILLE","state": "KS","zip": "66935","zip+4": "0000","phone": "7855272200","NPI": "     1841302791"}, 
{"id": 19554,"ncpdp": "1716856","pharmacy_name": "SAINT LUKES RETAIL PHARMACY","address1": "12300 METCALF AVE","address2": "","city": "OVERLAND PARK","state": "KS","zip": "66213","zip+4": "0000","phone": "9133177604","NPI": "     1457490013"}, 
{"id": 19555,"ncpdp": "1716933","pharmacy_name": "WALGREEN DRUG STORE #4221","address1": "8450 151 STREET","address2": "","city": "OVERLAND PARK","state": "KS","zip": "66223","zip+4": "2108","phone": "9138147877","NPI": "     1871508093"}, 
{"id": 19556,"ncpdp": "1716945","pharmacy_name": "HOMELAND PHARMCY #646","address1": "201 NORTH MAIN STREET","address2": "","city": "HAYSVILLE","state": "KS","zip": "67060","zip+4": "0000","phone": "3165225583","NPI": "     1629193701"}, 
{"id": 19557,"ncpdp": "1717000","pharmacy_name": "WOODS SUPERMARKET PHARMACY #46","address1": "2322 S MAIN ST","address2": "","city": "FT SCOTT","state": "KS","zip": "66701","zip+4": "0000","phone": "6202230135","NPI": "     1982795027"}, 
{"id": 19558,"ncpdp": "1717012","pharmacy_name": "WALGREEN DRUG STORE #4981","address1": "3630 SW WANAMAKER RD","address2": "","city": "TOPEKA","state": "KS","zip": "66614","zip+4": "0000","phone": "7852285655","NPI": "     1528074994"}, 
{"id": 19559,"ncpdp": "1717024","pharmacy_name": "HEN HOUSE #33","address1": "6900 W 135TH STREET","address2": "","city": "OVERLAND PARK","state": "KS","zip": "66223","zip+4": "0000","phone": "9138149355","NPI": "     1992810097"}, 
{"id": 19560,"ncpdp": "1717036","pharmacy_name": "TARGET PHARMACY #1943","address1": "7575 MAPLE ST","address2": "","city": "WICHITA","state": "KS","zip": "67209","zip+4": "0000","phone": "3167290320","NPI": "     1184646820"}, 
{"id": 19561,"ncpdp": "1717048","pharmacy_name": "PRICE CHOPPER PHARMACY #117","address1": "830 E MAIN","address2": "","city": "GARDNER","state": "KS","zip": "66030","zip+4": "0000","phone": "9138562425","NPI": "     1780744912"}, 
{"id": 19562,"ncpdp": "1717062","pharmacy_name": "TARGET PHARMACY #0092","address1": "301 SOUTH ARMOUR","address2": "","city": "WICHITA","state": "KS","zip": "67207","zip+4": "0000","phone": "3166127157","NPI": "     1992727630"}, 
{"id": 19563,"ncpdp": "1717074","pharmacy_name": "WALDRONS PHARMACY","address1": "111 S MAIN","address2": "","city": "JOHNSON","state": "KS","zip": "67855","zip+4": "0000","phone": "6204923263","NPI": "     1508921800"}, 
{"id": 19564,"ncpdp": "1717086","pharmacy_name": "THE MEDICINE SHOPPE #1660","address1": "427 S OAK","address2": "","city": "GARNETT","state": "KS","zip": "66032","zip+4": "0000","phone": "7854486650","NPI": "     1740392091"}, 
{"id": 19565,"ncpdp": "1717098","pharmacy_name": "DILLON PHARMACY #615019","address1": "4701 W 6TH ST","address2": "","city": "LAWRENCE","state": "KS","zip": "66049","zip+4": "0000","phone": "7858380110","NPI": "     1518908342"}, 
{"id": 19566,"ncpdp": "1717101","pharmacy_name": "HEN HOUSE #32","address1": "13600 S BLACKBOB","address2": "","city": "OLATHE","state": "KS","zip": "66062","zip+4": "0000","phone": "9137822039","NPI": "     1538275946"}, 
{"id": 19567,"ncpdp": "1717113","pharmacy_name": "WALGREEN DRUG STORE #4665","address1": "13450 S BLACKBOB RD","address2": "","city": "OLATHE","state": "KS","zip": "66062","zip+4": "1503","phone": "9138295339","NPI": "     1780699900"}, 
{"id": 19568,"ncpdp": "1717151","pharmacy_name": "U SAVE PHARMACY","address1": "2505 CANTERBURY DR","address2": "","city": "HAYS","state": "KS","zip": "67601","zip+4": "0000","phone": "7856252529","NPI": "     1295817088"}, 
{"id": 19569,"ncpdp": "1717163","pharmacy_name": "WALGREEN DRUG STORE #5539","address1": "700 S BROADWAY BLVD","address2": "","city": "SALINA","state": "KS","zip": "67401","zip+4": "0000","phone": "7858255319","NPI": "     1598770711"}, 
{"id": 19570,"ncpdp": "1717175","pharmacy_name": "BONNER SPRINGS PRICE CHOPPER #","address1": "501 S COMMERCIAL DR","address2": "","city": "BONNER SPRINGS","state": "KS","zip": "66012","zip+4": "0000","phone": "9134416988","NPI": "     1861564650"}, 
{"id": 19571,"ncpdp": "1717238","pharmacy_name": "WALGREEN DRUG STORE #6113","address1": "1625 S WEBB RD","address2": "","city": "WICHITA","state": "KS","zip": "67207","zip+4": "0000","phone": "3166529140","NPI": "     1407861628"}, 
{"id": 19572,"ncpdp": "1717240","pharmacy_name": "HY VEE PHARMACY 2 #1379","address1": "4000 W 6TH AVENUE","address2": "","city": "LAWRENCE","state": "KS","zip": "66049","zip+4": "0000","phone": "7858328606","NPI": "     1801831581"}, 
{"id": 19573,"ncpdp": "1717264","pharmacy_name": "WALGREEN DRUG STORE #6006","address1": "9525 E 21ST ST N","address2": "","city": "WICHITA","state": "KS","zip": "67205","zip+4": "0000","phone": "3166313818","NPI": "     1316952534"}, 
{"id": 19574,"ncpdp": "1717288","pharmacy_name": "WAL-MART PHARMACY #102893","address1": "121 SO. PETER PAN ROAD","address2": "","city": "INDEPENDENCE","state": "KS","zip": "67301","zip+4": "0000","phone": "6203319068","NPI": "     1659398071"}, 
{"id": 19575,"ncpdp": "1717290","pharmacy_name": "MEDICAL PAVILION PHARMACY","address1": "2214 CANTERBURY DR","address2": "","city": "HAYS","state": "KS","zip": "67601","zip+4": "0000","phone": "7856502789","NPI": "     1083769947"}, 
{"id": 19576,"ncpdp": "1717303","pharmacy_name": "WALGREEN DRUG STORE #6005","address1": "2229 N MAIZE RD","address2": "","city": "WICHITA","state": "KS","zip": "67205","zip+4": "0000","phone": "3167229743","NPI": "     1225043441"}, 
{"id": 19577,"ncpdp": "1717315","pharmacy_name": "ARJ INFUSION SERVICES INC","address1": "10049 LAKEVIEW AVE","address2": "","city": "LENEXA","state": "KS","zip": "66219","zip+4": "0000","phone": "9134518804","NPI": "     1891754602"}, 
{"id": 19578,"ncpdp": "1717327","pharmacy_name": "WAL-MART PHARMACY #102855","address1": "16100 WEST 65TH STREET","address2": "","city": "SHAWNEE","state": "KS","zip": "66217","zip+4": "0000","phone": "9132683545","NPI": "     1568489987"}, 
{"id": 19579,"ncpdp": "1717339","pharmacy_name": "SAMS PHARMACY #108208","address1": "12200 WEST 95TH STREET","address2": "","city": "LENEXA","state": "KS","zip": "66215","zip+4": "0000","phone": "9138942093","NPI": "     1477570893"}, 
{"id": 19580,"ncpdp": "1717341","pharmacy_name": "DILLON PHARMACY #615037","address1": "6829 SW 29TH","address2": "","city": "TOPEKA","state": "KS","zip": "66614","zip+4": "0000","phone": "7852284204","NPI": "     1528009420"}, 
{"id": 19581,"ncpdp": "1717353","pharmacy_name": "AUBURN PHARMACY","address1": "410 AMES STREET","address2": "","city": "BALDWIN CITY","state": "KS","zip": "66006","zip+4": "0000","phone": "7855940340","NPI": "     1710073192"}, 
{"id": 19582,"ncpdp": "1717365","pharmacy_name": "WALGREEN DRUG STORE #6285","address1": "2600 VINE STREET","address2": "","city": "HAYS","state": "KS","zip": "67601","zip+4": "0000","phone": "7856283272","NPI": "     1134134356"}, 
{"id": 19583,"ncpdp": "1717404","pharmacy_name": "DILLON PHARMACY #615040","address1": "720 EISENHOWER","address2": "","city": "LEAVENWORTH","state": "KS","zip": "66048","zip+4": "0000","phone": "9132503504","NPI": "     1487695821"}, 
{"id": 19584,"ncpdp": "1717416","pharmacy_name": "WALGREEN DRUG STORE #5840","address1": "440 N ANDOVER RD","address2": "","city": "ANDOVER","state": "KS","zip": "67002","zip+4": "0000","phone": "3162180382","NPI": "     1043225261"}, 
{"id": 19585,"ncpdp": "1717430","pharmacy_name": "WALGREEN DRUG STORE #6478","address1": "8701 JOHNSON DRIVE","address2": "","city": "MERRIAM","state": "KS","zip": "66202","zip+4": "0000","phone": "9137899047","NPI": "     1952316176"}, 
{"id": 19586,"ncpdp": "1717442","pharmacy_name": "WALGREEN DRUG STORE #6362","address1": "333 W 13TH ST N","address2": "","city": "WICHITA","state": "KS","zip": "67203","zip+4": "0000","phone": "3162642810","NPI": "     1508872144"}, 
{"id": 19587,"ncpdp": "1717454","pharmacy_name": "WALGREEN DRUG STORE #5263","address1": "11021 SHAWNEE MISSION PKWY","address2": "","city": "SHAWNEE","state": "KS","zip": "66203","zip+4": "0000","phone": "9132684604","NPI": "     1861407082"}, 
{"id": 19588,"ncpdp": "1717466","pharmacy_name": "LANSING PHARMACY HEALTHMART PH","address1": "121 EXPRESS DR","address2": "SUITE A","city": "LANSING","state": "KS","zip": "66043","zip+4": "0000","phone": "9132501108","NPI": "     1215087507"}, 
{"id": 19589,"ncpdp": "1717531","pharmacy_name": "SAMS PHARMACY #104707","address1": "8300 WEST 135TH STREET","address2": "","city": "OVERLAND PARK","state": "KS","zip": "66213","zip+4": "0000","phone": "9134024352","NPI": "     1386661700"}, 
{"id": 19590,"ncpdp": "1717543","pharmacy_name": "WAL-MART PHARMACY #103283","address1": "10600 WEST 21ST STREET","address2": "","city": "WICHITA","state": "KS","zip": "67205","zip+4": "0000","phone": "3167295914","NPI": "     1194742510"}, 
{"id": 19591,"ncpdp": "1717567","pharmacy_name": "WALGREEN DRUG STORE #6363","address1": "3770 N WOODLAWN","address2": "","city": "WICHITA","state": "KS","zip": "67220","zip+4": "0000","phone": "3166861311","NPI": "     1770598997"}, 
{"id": 19592,"ncpdp": "1717618","pharmacy_name": "SAMS PHARMACY #108254","address1": "6200 WEST KELLOGG","address2": "","city": "WICHITA","state": "KS","zip": "67209","zip+4": "0000","phone": "3169414427","NPI": "     1003833427"}, 
{"id": 19593,"ncpdp": "1717620","pharmacy_name": "SAMS PHARMACY #106418","address1": "3415 NORTH ROCK ROAD","address2": "","city": "WICHITA","state": "KS","zip": "67226","zip+4": "0000","phone": "3166362009","NPI": "     1912924333"}, 
{"id": 19594,"ncpdp": "1717632","pharmacy_name": "COSTCO PHARMACY #349","address1": "9350 MARSHALL DRIVE","address2": "","city": "LENEXA","state": "KS","zip": "66215","zip+4": "0000","phone": "9132273702","NPI": "     1316057938"}, 
{"id": 19595,"ncpdp": "1717644","pharmacy_name": "KANSAS CITY CANCER CENTER PHAR","address1": "12200 W 110TH STREET","address2": "","city": "OVERLAND PARK","state": "KS","zip": "66210","zip+4": "0000","phone": "9132340475","NPI": "     1417090275"}, 
{"id": 19596,"ncpdp": "1717656","pharmacy_name": "DANDURAND PHARMACY","address1": "7732 E CENTRAL","address2": "102B","city": "WICHITA","state": "KS","zip": "67206","zip+4": "2163","phone": "3166852354","NPI": "     1932182664"}, 
{"id": 19597,"ncpdp": "1717682","pharmacy_name": "COSTCO PHARMACY #369","address1": "12221 BLUE VALLEY PKWY","address2": "","city": "OVERLAND PARK","state": "KS","zip": "66213","zip+4": "0000","phone": "9132172052","NPI": "     1225148844"}, 
{"id": 19598,"ncpdp": "1717694","pharmacy_name": "MEDICAL CENTER PHARMACY","address1": "8901 W 74TH ST","address2": "SUITE 100","city": "SHAWNEE MISSION","state": "KS","zip": "66204","zip+4": "0000","phone": "9137893976","NPI": "     1720146970"}, 
{"id": 19599,"ncpdp": "1717707","pharmacy_name": "WAL-MART PHARMACY #103492","address1": "11411 EAST KELLOGG","address2": "","city": "WICHITA","state": "KS","zip": "67207","zip+4": "0000","phone": "3166838463","NPI": "     1821015249"}, 
{"id": 19600,"ncpdp": "1717719","pharmacy_name": "DILLON PHARMACY #615056","address1": "3707 N WOODLAWN","address2": "","city": "WITCHITA","state": "KS","zip": "67220","zip+4": "0000","phone": "3166919134","NPI": "     1568402352"}, 
{"id": 19601,"ncpdp": "1717721","pharmacy_name": "WALGREEN DRUG STORE #7060","address1": "325 BLUEMONT AVE","address2": "","city": "MANHATTAN","state": "KS","zip": "66502","zip+4": "0000","phone": "7857769724","NPI": "     1689689804"}, 
{"id": 19602,"ncpdp": "1717771","pharmacy_name": "WALGREEN DRUG STORE #7148","address1": "510 E 30TH AVE","address2": "","city": "HUTCHINSON","state": "KS","zip": "67502","zip+4": "0000","phone": "6206632871","NPI": "     1497760615"}, 
{"id": 19603,"ncpdp": "1717783","pharmacy_name": "AUBURN PHARMACY","address1": "13351 MISSION RD","address2": "","city": "LEAWOOD","state": "KS","zip": "66209","zip+4": "0000","phone": "9134699315","NPI": "     1336290493"}, 
{"id": 19604,"ncpdp": "1717795","pharmacy_name": "WALGREEN DRUG STORE #6920","address1": "8681 W 135TH ST","address2": "","city": "OVERLAND PARK","state": "KS","zip": "66223","zip+4": "0000","phone": "9132399113","NPI": "     1417963059"}, 
{"id": 19605,"ncpdp": "1717808","pharmacy_name": "WALGREEN DRUG STORE #7152","address1": "1300 N MAIN ST","address2": "","city": "NEWTON","state": "KS","zip": "67114","zip+4": "0000","phone": "3162819331","NPI": "     1306851522"}, 
{"id": 19606,"ncpdp": "1717846","pharmacy_name": "PRICE CHOPPER PHARMACY #249","address1": "22210 WEST 66TH ST","address2": "","city": "SHAWNEE","state": "KS","zip": "66226","zip+4": "0000","phone": "9134222134","NPI": "     1477593267"}, 
{"id": 19607,"ncpdp": "1717858","pharmacy_name": "TARGET PHARMACY #1487","address1": "6100 BROADMOOR ST","address2": "","city": "MISSION","state": "KS","zip": "66202","zip+4": "0000","phone": "9132627863","NPI": "     1801818547"}, 
{"id": 19608,"ncpdp": "1717872","pharmacy_name": "SAMS PHARMACY #106426","address1": "2919 MARKET PLACE","address2": "","city": "SALINA","state": "KS","zip": "67401","zip+4": "0000","phone": "7858237641","NPI": "     1730106154"}, 
{"id": 19609,"ncpdp": "1717884","pharmacy_name": "CLIFTON FAMILY PRESCRIPTION SH","address1": "1515 S CLIFTON","address2": "","city": "WICHITA","state": "KS","zip": "67218","zip+4": "0000","phone": "3166896100","NPI": "     1972571784"}, 
{"id": 19610,"ncpdp": "1717909","pharmacy_name": "CVS PHARMACY #05257","address1": "1785 S MUR LEN RD","address2": "","city": "OLATHE","state": "KS","zip": "66062","zip+4": "0000","phone": "9133909892","NPI": "     1972607828"}, 
{"id": 19611,"ncpdp": "1717911","pharmacy_name": "WALGREEN DRUG STORE #7147","address1": "1555 S BROADWAY","address2": "","city": "WICHITA","state": "KS","zip": "67211","zip+4": "0000","phone": "3162627429","NPI": "     1215942438"}, 
{"id": 19612,"ncpdp": "1717923","pharmacy_name": "WALGREEN DRUG STORE #6112","address1": "15066 W 151ST ST","address2": "","city": "OLATHE","state": "KS","zip": "66062","zip+4": "0000","phone": "9133931905","NPI": "     1326054966"}, 
{"id": 19613,"ncpdp": "1717947","pharmacy_name": "TARGET PHARMACY #1543","address1": "20255 W 154TH STREET","address2": "","city": "OLATHE","state": "KS","zip": "66062","zip+4": "0000","phone": "9137828756","NPI": "     1063435386"}, 
{"id": 19614,"ncpdp": "1717961","pharmacy_name": "HART PHARMACY & HOME MEDICAL E","address1": "6217 E 13TH ST N","address2": "","city": "WICHITA","state": "KS","zip": "67208","zip+4": "0000","phone": "3166835621","NPI": "     1083611867"}, 
{"id": 19615,"ncpdp": "1717973","pharmacy_name": "SENIOR CARE PHARMACY","address1": "8975 W MONROE","address2": "STE 100","city": "WICHITA","state": "KS","zip": "67209","zip+4": "0000","phone": "3169457455","NPI": "     1093818056"}, 
{"id": 19616,"ncpdp": "1717997","pharmacy_name": "PRICE CHOPPER #39","address1": "12010 W 63RD STREET","address2": "","city": "SHAWNEE","state": "KS","zip": "66216","zip+4": "0000","phone": "9132688150","NPI": "     1710092812"}, 
{"id": 19617,"ncpdp": "1718002","pharmacy_name": "TARGET PHARMACY #1821","address1": "800 COMMONS PLACE","address2": "","city": "MANHATTAN","state": "KS","zip": "66503","zip+4": "0000","phone": "7857703871","NPI": "     1710909452"}, 
{"id": 19618,"ncpdp": "1718014","pharmacy_name": "WALGREEN DRUG STORE #7818","address1": "3920 10TH ST","address2": "","city": "GREAT BEND","state": "KS","zip": "67530","zip+4": "0000","phone": "6207923893","NPI": "     1124033345"}, 
{"id": 19619,"ncpdp": "1718038","pharmacy_name": "WALGREEN DRUG STORE #7550","address1": "7739 STATE AVE","address2": "","city": "KANSAS CITY","state": "KS","zip": "66112","zip+4": "0000","phone": "9137887625","NPI": "     1033124250"}, 
{"id": 19620,"ncpdp": "1718040","pharmacy_name": "PAMIDA PHARMACY #236","address1": "505 W HOLME ST","address2": "","city": "NORTON","state": "KS","zip": "67654","zip+4": "1247","phone": "7858772133","NPI": "     1851345060"}, 
{"id": 19621,"ncpdp": "1718064","pharmacy_name": "WALGREEN DRUG STORE #7817","address1": "1801 N 14TH AVE","address2": "","city": "DODGE CITY","state": "KS","zip": "67801","zip+4": "0000","phone": "6202256031","NPI": "     1942215165"}, 
{"id": 19622,"ncpdp": "1718090","pharmacy_name": "WAL-MART PHARMACY #103273","address1": "15700 METCALF AVENUE","address2": "","city": "OVERLAND PARK","state": "KS","zip": "66223","zip+4": "0000","phone": "9136857493","NPI": "     1649297060"}, 
{"id": 19623,"ncpdp": "1718103","pharmacy_name": "PRICE CHOPPER PHARMACY #7","address1": "22350 S HARRISON","address2": "","city": "SPRING HILL","state": "KS","zip": "66083","zip+4": "0000","phone": "9135925350","NPI": "     1508937525"}, 
{"id": 19624,"ncpdp": "1718115","pharmacy_name": "TARGET PHARMACY #1842","address1": "8101 W 151ST","address2": "","city": "OVERLAND PARK","state": "KS","zip": "66223","zip+4": "0000","phone": "9139050420","NPI": "     1629090360"}, 
{"id": 19625,"ncpdp": "1718127","pharmacy_name": "WAL-MART PHARMACY #105180","address1": "10303 METCALF AVENUE","address2": "","city": "OVERLAND PARK","state": "KS","zip": "66212","zip+4": "0000","phone": "9166423759","NPI": "     1558388975"}, 
{"id": 19626,"ncpdp": "1718139","pharmacy_name": "WAL-MART PHARMACY #105207","address1": "9000 METCALF AVENUE","address2": "","city": "OVERLAND PARK","state": "KS","zip": "66212","zip+4": "0000","phone": "9136494314","NPI": "     1083633069"}, 
{"id": 19627,"ncpdp": "1718141","pharmacy_name": "PRESTON PHARMACY","address1": "2622 W CENTRAL AVE","address2": "SUITE 302","city": "WICHITA","state": "KS","zip": "67203","zip+4": "0000","phone": "3162653300","NPI": "     1053393330"}, 
{"id": 19628,"ncpdp": "1718153","pharmacy_name": "WALGREEN DRUG STORE #6707","address1": "458 N BALTIMORE AVE","address2": "","city": "DERBY","state": "KS","zip": "67037","zip+4": "0000","phone": "3167886793","NPI": "     1851306070"}, 
{"id": 19629,"ncpdp": "1718204","pharmacy_name": "WALGREEN DRUG STORE #7972","address1": "1308 E KANSAS AVE","address2": "","city": "GARDEN CITY","state": "KS","zip": "67846","zip+4": "0000","phone": "6202754498","NPI": "     1760497986"}, 
{"id": 19630,"ncpdp": "1718216","pharmacy_name": "ROSE HILL PHARMACY","address1": "323 N ROSE HILL RD","address2": "","city": "ROSE HILL","state": "KS","zip": "67133","zip+4": "0000","phone": "3167761100","NPI": "     1033226808"}, 
{"id": 19631,"ncpdp": "1718228","pharmacy_name": "WAL-MART PHARMACY #105308","address1": "11010 WEST 74TH TERRACE","address2": "","city": "SHAWNEE","state": "KS","zip": "66203","zip+4": "0000","phone": "9132684012","NPI": "     1467479881"}, 
{"id": 19632,"ncpdp": "1718230","pharmacy_name": "GERICARE LTC","address1": "113 E MADISON","address2": "","city": "IOLA","state": "KS","zip": "66749","zip+4": "0000","phone": "6203655555","NPI": "     1255445235"}, 
{"id": 19633,"ncpdp": "1718254","pharmacy_name": "WALGREEN DRUG STORE #2750","address1": "5555 S BROADWAY ST","address2": "","city": "WICHITA","state": "KS","zip": "67216","zip+4": "0000","phone": "3165291159","NPI": "     1679588891"}, 
{"id": 19634,"ncpdp": "1718266","pharmacy_name": "CUSTOM RX","address1": "2360 N GREENWICH RD STE 1000","address2": "","city": "WICHITA","state": "KS","zip": "67226","zip+4": "8204","phone": "3166369595","NPI": "     1013072289"}, 
{"id": 19635,"ncpdp": "1718280","pharmacy_name": "DILLON PHARMACY #615081","address1": "13415 W MAPLE","address2": "","city": "WICHITA","state": "KS","zip": "67235","zip+4": "0000","phone": "3167295204","NPI": "     1528009966"}, 
{"id": 19636,"ncpdp": "1718292","pharmacy_name": "ST MARYS PHARMACY","address1": "520 W BERTRAND AVE","address2": "","city": "SAINT MARYS","state": "KS","zip": "66536","zip+4": "1698","phone": "7854372967","NPI": "     1720182785"}, 
{"id": 19637,"ncpdp": "1718305","pharmacy_name": "BROADWAY PHARMACY","address1": "1610 S BROADWAY","address2": "","city": "WICHITA","state": "KS","zip": "67211","zip+4": "0000","phone": "3162608880","NPI": "     1144321084"}, 
{"id": 19638,"ncpdp": "1718329","pharmacy_name": "TARGET PHARMACY #1944","address1": "10800 E 21ST ST N","address2": "","city": "WICHITA","state": "KS","zip": "67226","zip+4": "0000","phone": "3166364352","NPI": "     1538181276"}, 
{"id": 19639,"ncpdp": "1718331","pharmacy_name": "TARGET PHARMACY #1945","address1": "2727 N MAIZE ROAD","address2": "","city": "WICHITA","state": "KS","zip": "67205","zip+4": "0000","phone": "3167292798","NPI": "     1447272182"}, 
{"id": 19640,"ncpdp": "1718343","pharmacy_name": "WALGREEN DRUG STORE #9049","address1": "1911 N BROADWAY ST","address2": "","city": "PITTSBURG","state": "KS","zip": "66762","zip+4": "0000","phone": "6202311310","NPI": "     1588679708"}, 
{"id": 19641,"ncpdp": "1718406","pharmacy_name": "CEDAR CREEK PHARMACY","address1": "8960 COMMERCE DRIVE","address2": "SUITE 4A","city": "DE SOTO","state": "KS","zip": "66018","zip+4": "0000","phone": "9135831117","NPI": "     1104908995"}, 
{"id": 19642,"ncpdp": "1718418","pharmacy_name": "CVS PHARMACY #08237","address1": "5001 WEST 135 ST","address2": "","city": "LEAWOOD","state": "KS","zip": "66224","zip+4": "0000","phone": "9138519903","NPI": "     1881798734"}, 
{"id": 19643,"ncpdp": "1718420","pharmacy_name": "DEGOLER PHARMACY #4","address1": "2040 HUTTON RD","address2": "","city": "KANSAS CITY","state": "KS","zip": "66109","zip+4": "0000","phone": "9137213133","NPI": "     1003916032"}, 
{"id": 19644,"ncpdp": "1718432","pharmacy_name": "SAMS PHARMACY #108176","address1": "1401 SW WANAMAKER ROAD","address2": "","city": "TOPEKA","state": "KS","zip": "66604","zip+4": "0000","phone": "7852282672","NPI": "     1376560797"}, 
{"id": 19645,"ncpdp": "1718470","pharmacy_name": "JCB LABORATORIES","address1": "3510 N RIDGE RD","address2": "STE 910","city": "WICHITA","state": "KS","zip": "67205","zip+4": "0000","phone": "3167730405","NPI": "     1730206103"}, 
{"id": 19646,"ncpdp": "1718482","pharmacy_name": "WALGREEN DRUG STORE #2751","address1": "13534 W MAPLE","address2": "","city": "WICHITA","state": "KS","zip": "67235","zip+4": "0000","phone": "3167731160","NPI": "     1497760623"}, 
{"id": 19647,"ncpdp": "1718519","pharmacy_name": "WALGREEN DRUG STORE #9455","address1": "1528 MAIN ST","address2": "","city": "PARSONS","state": "KS","zip": "67357","zip+4": "0000","phone": "6204214713","NPI": "     1306851530"}, 
{"id": 19648,"ncpdp": "1718521","pharmacy_name": "AUBURN PHARMACY","address1": "6 S METCALF RD","address2": "","city": "LOUISBURG","state": "KS","zip": "66053","zip+4": "4116","phone": "9138375555","NPI": "     1730264227"}, 
{"id": 19649,"ncpdp": "1718533","pharmacy_name": "SIGLER PHARMACY","address1": "4525 W 6TH ST","address2": "STE 104","city": "LAWRENCE","state": "KS","zip": "66049","zip+4": "0000","phone": "7858421225","NPI": "     1578675427"}, 
{"id": 19650,"ncpdp": "1718545","pharmacy_name": "PRICE CHOPPER #12","address1": "4950 ROE BLVD","address2": "","city": "ROELAND PARK","state": "KS","zip": "66205","zip+4": "0000","phone": "9132362879","NPI": "     1538274634"}, 
{"id": 19651,"ncpdp": "1718557","pharmacy_name": "MERIDEN PHARMACY","address1": "7210 HIGHWAY K4","address2": "STE A","city": "MERIDEN","state": "KS","zip": "66512","zip+4": "0000","phone": "7854843784","NPI": "     1679566012"}, 
{"id": 19652,"ncpdp": "1718569","pharmacy_name": "TARGET PHARMACY #2043","address1": "11501 W 97TH CIRCLE","address2": "","city": "OVERLAND PARK","state": "KS","zip": "66214","zip+4": "0000","phone": "9139050286","NPI": "     1356363097"}, 
{"id": 19653,"ncpdp": "1718571","pharmacy_name": "HEN HOUSE #35","address1": "2774 W 53RD STREET","address2": "","city": "FAIRWAY","state": "KS","zip": "66205","zip+4": "0000","phone": "9132364983","NPI": "     1396851762"}, 
{"id": 19654,"ncpdp": "1718583","pharmacy_name": "WALGREEN DRUG STORE #9454","address1": "301 W MAIN ST","address2": "","city": "INDEPENDENCE","state": "KS","zip": "67301","zip+4": "0000","phone": "6203317982","NPI": "     1407861636"}, 
{"id": 19655,"ncpdp": "1718608","pharmacy_name": "KELLSTROM PHARMACY","address1": "1862 CLAFLIN RD","address2": "","city": "MANHATTAN","state": "KS","zip": "66502","zip+4": "0000","phone": "7857761200","NPI": "     1144247651"}, 
{"id": 19656,"ncpdp": "1718610","pharmacy_name": "LONG TERM CARE SPECIALISTS","address1": "401 SOUTH MAIN","address2": "SUITE A","city": "SCOTT CITY","state": "KS","zip": "67871","zip+4": "0000","phone": "6208727228","NPI": "     1306867577"}, 
{"id": 19657,"ncpdp": "1718622","pharmacy_name": "WALGREEN DRUG STORE #9424","address1": "12601 PLUMM RD","address2": "","city": "OVERLAND PARK","state": "KS","zip": "66213","zip+4": "0000","phone": "9137643696","NPI": "     1316952542"}, 
{"id": 19658,"ncpdp": "1718634","pharmacy_name": "PRESCRIPTION SOLUTIONS","address1": "6800 W.115TH STE 600","address2": "","city": "OVERLAND PARK","state": "KS","zip": "66211","zip+4": "2457","phone": "9132530600","NPI": "     1669498515"}, 
{"id": 19659,"ncpdp": "1718646","pharmacy_name": "HLTHONE PHCY OF KC","address1": "9204 BOND ST","address2": "","city": "OVERLAND PARK","state": "KS","zip": "66214","zip+4": "0000","phone": "9136474601","NPI": "     1225189202"}, 
{"id": 19660,"ncpdp": "1718660","pharmacy_name": "KINDRED CARE","address1": "1918 E 23RD ST","address2": "STE A","city": "LAWRENCE","state": "KS","zip": "66046","zip+4": "0000","phone": "8663512636","NPI": "     1952418717"}, 
{"id": 19661,"ncpdp": "1718672","pharmacy_name": "WALGREEN DRUG STORE #09376","address1": "1455 S MAIN ST","address2": "","city": "OTTAWA","state": "KS","zip": "66067","zip+4": "3528","phone": "7852424745","NPI": "     1629023882"}, 
{"id": 19662,"ncpdp": "1718711","pharmacy_name": "CVS PHARMACY #08584","address1": "950 MINNESOTA AVE","address2": "","city": "KANSAS CITY","state": "KS","zip": "66101","zip+4": "0000","phone": "9133214505","NPI": "     1912941386"}, 
{"id": 19663,"ncpdp": "1718723","pharmacy_name": "CVS PHARMACY #08599","address1": "5170 ROE BLVD","address2": "","city": "ROELAND PARK","state": "KS","zip": "66205","zip+4": "0000","phone": "9134320110","NPI": "     1821032293"}, 
{"id": 19664,"ncpdp": "1718735","pharmacy_name": "CVS PHARMACY #08600","address1": "8101 STATE AVE","address2": "","city": "KANSAS CITY","state": "KS","zip": "66112","zip+4": "0000","phone": "9132991224","NPI": "     1730123100"}, 
{"id": 19665,"ncpdp": "1718747","pharmacy_name": "CVS PHARMACY #08602","address1": "7501 METCALF","address2": "","city": "OVERLAND PARK","state": "KS","zip": "66204","zip+4": "0000","phone": "9136426330","NPI": "     1649214016"}, 
{"id": 19666,"ncpdp": "1718759","pharmacy_name": "CVS PHARMACY #08606","address1": "9521 MISSION RD","address2": "","city": "OVERLAND PARK","state": "KS","zip": "66206","zip+4": "0000","phone": "9133832823","NPI": "     1558305920"}, 
{"id": 19667,"ncpdp": "1718761","pharmacy_name": "CVS PHARMACY #08569","address1": "2011 E SANTA FE","address2": "","city": "OLATHE","state": "KS","zip": "66062","zip+4": "0000","phone": "9137641911","NPI": "     1467496836"}, 
{"id": 19668,"ncpdp": "1718785","pharmacy_name": "CVS PHARMACY #08603","address1": "3750 STATE ST","address2": "","city": "KANSAS CITY","state": "KS","zip": "66102","zip+4": "0000","phone": "9132813551","NPI": "     1376587741"}, 
{"id": 19669,"ncpdp": "1718800","pharmacy_name": "CVS PHARMACY #08601","address1": "12290 W COLLEGE BLVD","address2": "","city": "OVERLAND PARK","state": "KS","zip": "66210","zip+4": "0000","phone": "9133271332","NPI": "     1093759466"}, 
{"id": 19670,"ncpdp": "1718812","pharmacy_name": "CVS PHARMACY #08582","address1": "8800 W 95TH STREET","address2": "","city": "OVERLAND PARK","state": "KS","zip": "66212","zip+4": "0000","phone": "9133818184","NPI": "     1093756991"}, 
{"id": 19671,"ncpdp": "1718824","pharmacy_name": "CVS PHARMACY #08580","address1": "6510 NIEMAN RD","address2": "","city": "SHAWNEE","state": "KS","zip": "66203","zip+4": "0000","phone": "9132480437","NPI": "     1902847809"}, 
{"id": 19672,"ncpdp": "1718836","pharmacy_name": "CVS PHARMACY #08605","address1": "2835 SW WANAMAKER RD","address2": "","city": "TOPEKA","state": "KS","zip": "66614","zip+4": "0000","phone": "7852734080","NPI": "     1811938715"}, 
{"id": 19673,"ncpdp": "1718848","pharmacy_name": "CVS PHARMACY #08561","address1": "14950 W 87TH","address2": "","city": "LENEXA","state": "KS","zip": "66215","zip+4": "0000","phone": "9138882538","NPI": "     1902840374"}, 
{"id": 19674,"ncpdp": "1718850","pharmacy_name": "CVS PHARMACY #08588","address1": "11729 ROE AVE","address2": "","city": "LEAWOOD","state": "KS","zip": "66211","zip+4": "0000","phone": "9133458404","NPI": "     1811931280"}, 
{"id": 19675,"ncpdp": "1718862","pharmacy_name": "CVS PHARMACY #08608","address1": "4645 SHAWNEE DR","address2": "","city": "KANSAS CITY","state": "KS","zip": "66106","zip+4": "0000","phone": "9132369126","NPI": "     1720022197"}, 
{"id": 19676,"ncpdp": "1718874","pharmacy_name": "CVS PHARMACY #08585","address1": "12691 ANTIOCH","address2": "","city": "OVERLAND PARK","state": "KS","zip": "66213","zip+4": "0000","phone": "9136819665","NPI": "     1639113004"}, 
{"id": 19677,"ncpdp": "1718886","pharmacy_name": "CVS PHARMACY #08573","address1": "11900 W 135TH STREET","address2": "","city": "OVERLAND PARK","state": "KS","zip": "66221","zip+4": "0000","phone": "9138147003","NPI": "     1548204910"}, 
{"id": 19678,"ncpdp": "1718898","pharmacy_name": "CVS PHARMACY #08586","address1": "7100 W 151ST STREET","address2": "","city": "OVERLAND PARK","state": "KS","zip": "66223","zip+4": "0000","phone": "9136813950","NPI": "     1184665085"}, 
{"id": 19679,"ncpdp": "1718901","pharmacy_name": "PRICE CHOPPER #40","address1": "15970 SOUTH MUR LEN ROAD","address2": "","city": "OLATHE","state": "KS","zip": "66206","zip+4": "0000","phone": "9133838050","NPI": "     1225198260"}, 
{"id": 19680,"ncpdp": "1718913","pharmacy_name": "YUNGEBERG DRUG","address1": "17 PUBLIC SQ","address2": "BOX 115","city": "BLUE RAPIDS","state": "KS","zip": "66411","zip+4": "0000","phone": "7853637444","NPI": "     1114938750"}, 
{"id": 19681,"ncpdp": "1718925","pharmacy_name": "OAKLEY HEALTH MART","address1": "103 CENTER AVE","address2": "","city": "OAKLEY","state": "KS","zip": "67748","zip+4": "0000","phone": "7856724727","NPI": "     1356376099"}, 
{"id": 19682,"ncpdp": "1718949","pharmacy_name": "HY VEE PHARMACY 2 #1464","address1": "18101 WEST 119TH STREET","address2": "","city": "OLATHE","state": "KS","zip": "66061","zip+4": "0000","phone": "9133934154","NPI": "     1841218864"}, 
{"id": 19683,"ncpdp": "1718987","pharmacy_name": "MINNEOLA PHARMACY INC","address1": "131 S MAIN ST","address2": "","city": "MINNEOLA","state": "KS","zip": "67865","zip+4": "0000","phone": "6208854544","NPI": "     1447353503"}, 
{"id": 19684,"ncpdp": "1718999","pharmacy_name": "WAL-MART PHARMACY #105307","address1": "1725 EAST SANTA FE STREET","address2": "","city": "GARDNER","state": "KS","zip": "66030","zip+4": "0000","phone": "9138848411","NPI": "     1326132481"}, 
{"id": 19685,"ncpdp": "1719004","pharmacy_name": "TARGET PHARMACY #2222","address1": "10900 STADIUM PARKWAY","address2": "","city": "KANSAS CITY","state": "KS","zip": "66111","zip+4": "0000","phone": "9139050317","NPI": "     1013099258"}, 
{"id": 19686,"ncpdp": "1719016","pharmacy_name": "WALGREEN DRUG STORE #09985","address1": "5230 W 151ST ST","address2": "","city": "LEA WOOD","state": "KS","zip": "66224","zip+4": "0000","phone": "9136601978","NPI": "     1972683332"}, 
{"id": 19687,"ncpdp": "1719030","pharmacy_name": "WALGREEN DRUG STORE #10150","address1": "750 E MAIN ST","address2": "","city": "GARDNER","state": "KS","zip": "66030","zip+4": "1744","phone": "9138847912","NPI": "     1568546836"}, 
{"id": 19688,"ncpdp": "1719042","pharmacy_name": "AUBURN PHARMACY","address1": "601 S MAIN","address2": "","city": "WELLSVILLE","state": "KS","zip": "66092","zip+4": "0000","phone": "7858832462","NPI": "     1144328113"}, 
{"id": 19689,"ncpdp": "1719054","pharmacy_name": "DEGOLERS CARE MIDWEST PHARMACY","address1": "7622 STATE AVE","address2": "","city": "KANSAS CITY","state": "KS","zip": "66112","zip+4": "0000","phone": "9135960159","NPI": "     1972685063"}, 
{"id": 19690,"ncpdp": "1719078","pharmacy_name": "STEVES CORNER DRUG","address1": "101 S 6TH ST","address2": "","city": "HIAWATHA","state": "KS","zip": "66434","zip+4": "2392","phone": "7857422125","NPI": "     1629071246"}, 
{"id": 19691,"ncpdp": "1719080","pharmacy_name": "CVS PHARMACY #05156","address1": "1295 E 119TH ST","address2": "","city": "OLATHE","state": "KS","zip": "66061","zip+4": "0000","phone": "9133977325","NPI": "     1891874772"}, 
{"id": 19692,"ncpdp": "1719092","pharmacy_name": "WAL-MART PHARMACY #105441","address1": "2600 N.W. ROCHESTER ROAD","address2": "","city": "TOPEKA","state": "KS","zip": "66617","zip+4": "0000","phone": "7853577397","NPI": "     1043375470"}, 
{"id": 19693,"ncpdp": "1719105","pharmacy_name": "GENOA HEALTHCARE #40","address1": "1301 N 47TH ST","address2": "","city": "KANSAS CITY","state": "KS","zip": "66102","zip+4": "0000","phone": "9132871600","NPI": "     1932248879"}, 
{"id": 19694,"ncpdp": "1719117","pharmacy_name": "PAMIDA PHARMACY #651","address1": "430 MAIN ST","address2": "","city": "SENECA","state": "KS","zip": "66538","zip+4": "1926","phone": "7853362145","NPI": "     1073653986"}, 
{"id": 19695,"ncpdp": "1719143","pharmacy_name": "WALGREENS DRUG STORE #10125","address1": "2850 STATE AVE","address2": "","city": "KANSAS CITY","state": "KS","zip": "66102","zip+4": "4038","phone": "9136217073","NPI": "     1194945196"}, 
{"id": 19696,"ncpdp": "1719155","pharmacy_name": "WALGREENS DRUG STORE #11167","address1": "1502 INDUSTRIAL RD","address2": "","city": "EMPORIA","state": "KS","zip": "66801","zip+4": "0000","phone": "6203423301","NPI": "     1275748857"}, 
{"id": 19697,"ncpdp": "1719167","pharmacy_name": "WALGREENS DRUG STORE #10722","address1": "10 W 15TH ST","address2": "","city": "LIBERAL","state": "KS","zip": "67901","zip+4": "0000","phone": "6206245334","NPI": "     1790992394"}, 
{"id": 19698,"ncpdp": "1719193","pharmacy_name": "CVS PHARMACY #00676","address1": "2300 IOWA ST","address2": "","city": "LAWRENCE","state": "KS","zip": "66046","zip+4": "0000","phone": "7858321112","NPI": "     1811195068"}, 
{"id": 19699,"ncpdp": "1719218","pharmacy_name": "WALGREENS DRUG STORE #11086","address1": "2229 S MAIN ST","address2": "","city": "FORT SCOTT","state": "KS","zip": "66701","zip+4": "3023","phone": "6202232402","NPI": "     1366633570"}, 
{"id": 19700,"ncpdp": "1719220","pharmacy_name": "COMCARE FAMILY PRESCRIPTION SH","address1": "1969 W 21 ST","address2": "","city": "WICHITA","state": "KS","zip": "67203","zip+4": "0000","phone": "3162954721","NPI": "     1619168374"}, 
{"id": 19701,"ncpdp": "1719244","pharmacy_name": "MAIN STREET DRUG","address1": "103 W MAIN ST","address2": "","city": "OSBORNE","state": "KS","zip": "67473","zip+4": "0000","phone": "7853462136","NPI": "     1104013713"}, 
{"id": 19702,"ncpdp": "1719256","pharmacy_name": "PAMIDA PHARMACY #664","address1": "114 S MAIN ST","address2": "","city": "SMITH CENTER","state": "KS","zip": "66967","zip+4": "2606","phone": "7852826443","NPI": "     1477732022"}, 
{"id": 19703,"ncpdp": "1719268","pharmacy_name": "WALGREEN DRUG STORE #10721","address1": "119 W 6TH AVE","address2": "","city": "EL DORADO","state": "KS","zip": "67042","zip+4": "1934","phone": "3163216700","NPI": "     1689854713"}, 
{"id": 19704,"ncpdp": "1719270","pharmacy_name": "PAMIDA PHARMACY #670","address1": "1212 W MAIN","address2": "","city": "LYONS","state": "KS","zip": "67554","zip+4": "0000","phone": "6202572821","NPI": "     1588845929"}, 
{"id": 19705,"ncpdp": "1719307","pharmacy_name": "SIGLER PHARMACY LAWERENCE FAMI","address1": "4951 W 18TH ST","address2": "","city": "LAWRENCE","state": "KS","zip": "66047","zip+4": "0000","phone": "7857496740","NPI": "     1558545079"}, 
{"id": 19706,"ncpdp": "1719319","pharmacy_name": "PRICE CHOPPER #42","address1": "16665 W 151ST ST","address2": "","city": "OLATHE","state": "KS","zip": "66062","zip+4": "0000","phone": "9138295808","NPI": "     1790953990"}, 
{"id": 19707,"ncpdp": "1719321","pharmacy_name": "PAMIDA PHARMACY #674","address1": "522 BROADWAY","address2": "","city": "LARNED","state": "KS","zip": "67550","zip+4": "3092","phone": "6202853118","NPI": "     1619155512"}, 
{"id": 19708,"ncpdp": "1719333","pharmacy_name": "DILLON PHARMACY #615092","address1": "640 N WEST STREET","address2": "","city": "WICHITA","state": "KS","zip": "67203","zip+4": "0000","phone": "3169411927","NPI": "     1649448663"}, 
{"id": 19709,"ncpdp": "1719345","pharmacy_name": "DILLON PHARMACY #615089","address1": "1910 WEST 21ST NORTH","address2": "","city": "WICHITA","state": "KS","zip": "67203","zip+4": "0000","phone": "3168385908","NPI": "     1003084021"}, 
{"id": 19710,"ncpdp": "1719357","pharmacy_name": "WAL-MART PHARMACY #104321","address1": "5475 N MERIDIAN","address2": "","city": "WICHITA","state": "KS","zip": "67204","zip+4": "0000","phone": "3168319057","NPI": "     1487836110"}, 
{"id": 19711,"ncpdp": "1719369","pharmacy_name": "DILLON PHARMACY #615087","address1": "5311 SW 22ND PLACE","address2": "","city": "TOPEKA","state": "KS","zip": "66614","zip+4": "0000","phone": "7852288762","NPI": "     1306015466"}, 
{"id": 19712,"ncpdp": "1719371","pharmacy_name": "WALGREEN DRUG STORE #11369","address1": "2100 N SUMMIT ST","address2": "","city": "ARKANSAS CITY","state": "KS","zip": "67005","zip+4": "3855","phone": "6204410283","NPI": "     1437337292"}, 
{"id": 19713,"ncpdp": "1719383","pharmacy_name": "DILLON PHARMACY #615091","address1": "3020 E DOUGLAS AVE","address2": "","city": "WICHITA","state": "KS","zip": "67214","zip+4": "0000","phone": "3166816834","NPI": "     1255501441"}, 
{"id": 19714,"ncpdp": "1719395","pharmacy_name": "MEDICINE SHOPPE PHARMACY #1831","address1": "213 N MAIN STREET","address2": "","city": "MCPHERSON","state": "KS","zip": "67460","zip+4": "0000","phone": "6202411574","NPI": "     1841460276"}, 
{"id": 19715,"ncpdp": "1719408","pharmacy_name": "HY VEE PHARMACY #1658","address1": "2951 SW WANAMAKER RD","address2": "","city": "TOPEKA","state": "KS","zip": "66614","zip+4": "0000","phone": "7852710764","NPI": "     1487825683"}, 
{"id": 19716,"ncpdp": "1719410","pharmacy_name": "COAST HEALTH SERVICES","address1": "102 WEST AVE A","address2": "","city": "CIMARRON","state": "KS","zip": "67835","zip+4": "0000","phone": "6208552055","NPI": "     1942474135"}, 
{"id": 19717,"ncpdp": "1719422","pharmacy_name": "IOLA PHARMACY CLINIC","address1": "1408 EAST STREET","address2": "","city": "IOLA","state": "KS","zip": "66749","zip+4": "0000","phone": "6203656848","NPI": "     1013182047"}, 
{"id": 19718,"ncpdp": "1719434","pharmacy_name": "WAL-MART PHARMACY #104475","address1": "395 N K 7 HWY","address2": "","city": "OLATHE","state": "KS","zip": "66061","zip+4": "0000","phone": "9137647150","NPI": "     1174709513"}, 
{"id": 19719,"ncpdp": "1719446","pharmacy_name": "SENIOR RX CARE OF KANSAS LLC","address1": "121 SE 6TH AVE","address2": "","city": "TOPEKA","state": "KS","zip": "66603","zip+4": "0000","phone": "7852324600","NPI": "     1316107162"}, 
{"id": 19720,"ncpdp": "1719458","pharmacy_name": "CVS PHARMACY #04521","address1": "22700 W 55TH TERRACE","address2": "","city": "SHAWNEE","state": "KS","zip": "66226","zip+4": "0000","phone": "9134221825","NPI": "     1093974529"}, 
{"id": 19721,"ncpdp": "1719460","pharmacy_name": "K AND D PHARMACY LLC","address1": "224 SOUTH SUMMIT","address2": "","city": "ARKANSAS CITY","state": "KS","zip": "67005","zip+4": "0000","phone": "6203076264","NPI": "     1043470396"}, 
{"id": 19722,"ncpdp": "1719472","pharmacy_name": "AXELA CARE","address1": "9730 PFLUMM RD","address2": "","city": "LENEXA","state": "KS","zip": "66215","zip+4": "0000","phone": "9133109619","NPI": "     1366603854"}, 
{"id": 19723,"ncpdp": "1719484","pharmacy_name": "DANDURAND INC","address1": "800 CARRIAGE PARKWAY","address2": "","city": "WICHITA","state": "KS","zip": "67208","zip+4": "0000","phone": "3168585890","NPI": "     1255594933"}, 
{"id": 19724,"ncpdp": "1719496","pharmacy_name": "PLEASANTON FAMILY PRACTICE","address1": "9TH AND MAIN","address2": "","city": "PLEASANTON","state": "KS","zip": "66075","zip+4": "0000","phone": "9133528379","NPI": "     1982867230"}, 
{"id": 19725,"ncpdp": "1719509","pharmacy_name": "HOYT HEALTH MART PHARMACY","address1": "708 MAIN ST","address2": "","city": "LA CROSSE","state": "KS","zip": "67548","zip+4": "0000","phone": "7852229091","NPI": "     1083870638"}, 
{"id": 19726,"ncpdp": "1719535","pharmacy_name": "INDEPENDENCE PHARMACY","address1": "205 N PENN AVE","address2": "","city": "INDEPENDENCE","state": "KS","zip": "67301","zip+4": "0000","phone": "6203313784","NPI": "     1962658633"}, 
{"id": 19727,"ncpdp": "1719547","pharmacy_name": "TARGET PHARMACY #2448","address1": "2024 NORTH ROCK RD","address2": "","city": "DERBY","state": "KS","zip": "67037","zip+4": "3752","phone": "3164484554","NPI": "     1992953996"}, 
{"id": 19728,"ncpdp": "1719559","pharmacy_name": "SAMS PHARMACY #4791","address1": "3010 LARUE STREET","address2": "","city": "GARDEN CITY","state": "KS","zip": "67846","zip+4": "0000","phone": "6202729001","NPI": "     1063669877"}, 
{"id": 19729,"ncpdp": "1719561","pharmacy_name": "AUBURN PHARMACY","address1": "19601 W 101ST STREET","address2": "","city": "LENEXA","state": "KS","zip": "66220","zip+4": "0000","phone": "9137649070","NPI": "     1124275755"}, 
{"id": 19730,"ncpdp": "1719573","pharmacy_name": "WALGREENS #09425","address1": "5455 ROBERTS ST","address2": "","city": "SHAWNEE","state": "KS","zip": "66226","zip+4": "0000","phone": "9136671728","NPI": "     1437307329"}, 
{"id": 19731,"ncpdp": "1719597","pharmacy_name": "THE MEDCINE STORE","address1": "15415 PINEHURST DR","address2": "","city": "BONNER SPRINGS","state": "KS","zip": "66012","zip+4": "0000","phone": "9137243666","NPI": "     1073764973"}, 
{"id": 19732,"ncpdp": "1719624","pharmacy_name": "WASHINGTON HEALTH MART","address1": "227 C STREET","address2": "","city": "WASHINGTON","state": "KS","zip": "66968","zip+4": "0000","phone": "7853253130","NPI": "     1144465469"}, 
{"id": 19733,"ncpdp": "1719636","pharmacy_name": "WAL-MART PHARMACY #105219","address1": "550 CONGRESSIONAL DR","address2": "","city": "LAWRENCE","state": "KS","zip": "66049","zip+4": "0000","phone": "7858411718","NPI": "     1265672190"}, 
{"id": 19734,"ncpdp": "1719648","pharmacy_name": "OLATHE WOMENS CENTER","address1": "20375 W 151ST STREET","address2": "STE 250","city": "OLATHE","state": "KS","zip": "66061","zip+4": "0000","phone": "9137646262","NPI": "     1033376785"}, 
{"id": 19735,"ncpdp": "1719650","pharmacy_name": "MEDICAL CENTER DRUG STORE","address1": "1100 N MAIN STREET","address2": "","city": "HUTCHINSON","state": "KS","zip": "67501","zip+4": "0000","phone": "6206696698","NPI": "     1952543167"}, 
{"id": 19736,"ncpdp": "1719662","pharmacy_name": "MARIANA E LUCERO, MD CHARTERED","address1": "2132 N. KANSAS AVE","address2": "STE B","city": "LIBERAL","state": "KS","zip": "67901","zip+4": "0000","phone": "6206247400","NPI": "     1902076060"}, 
{"id": 19737,"ncpdp": "1719674","pharmacy_name": "GENOA HEALTHCARE #77","address1": "6440 NIEMAN RD","address2": "","city": "SHAWNEE","state": "KS","zip": "66203","zip+4": "3326","phone": "9132683610","NPI": "     1164657060"}, 
{"id": 19738,"ncpdp": "1719686","pharmacy_name": "NEIGHBORHOOD PHARMACY #0001","address1": "2810 E 21ST ST N","address2": "","city": "WICHITA","state": "KS","zip": "67214","zip+4": "2252","phone": "3166654427","NPI": "     1609001395"}, 
{"id": 19739,"ncpdp": "1719698","pharmacy_name": "THE DOWNTOWN DRUGSTORE LLC","address1": "516 E 4TH ST","address2": "","city": "TONGANOXIE","state": "KS","zip": "66086","zip+4": "8920","phone": "9133693800","NPI": "     1346476900"}, 
{"id": 19740,"ncpdp": "1719701","pharmacy_name": "ROCKERS PHARMACY","address1": "2 E PEORIA ST","address2": "","city": "PAOLA","state": "KS","zip": "66071","zip+4": "1707","phone": "9132942715","NPI": "     1104053107"}, 
{"id": 19741,"ncpdp": "1719725","pharmacy_name": "ANGEL\'S TOUCH PHARMACY #1","address1": "7720 STATE AVE","address2": "","city": "KANSAS CITY","state": "KS","zip": "66112","zip+4": "0000","phone": "9133224500","NPI": "     1679708192"}, 
{"id": 19742,"ncpdp": "1719737","pharmacy_name": "WALGREENS #13784","address1": "6450 SPRINT PKWY","address2": "","city": "OVERLAND PARK","state": "KS","zip": "66251","zip+4": "6105","phone": "9133158646","NPI": "     1437388709"}, 
{"id": 19743,"ncpdp": "1719749","pharmacy_name": "HY-VEE PHARMACY #1398","address1": "601 THIRD STREET","address2": "","city": "MANHATTAN","state": "KS","zip": "66502","zip+4": "0000","phone": "6605878648","NPI": "     1528297074"}, 
{"id": 19744,"ncpdp": "1719751","pharmacy_name": "WALGREENS #12586","address1": "2095 E KANSAS AVE","address2": "","city": "MCPHERSON","state": "KS","zip": "67460","zip+4": "4005","phone": "6202411581","NPI": "     1669601506"}, 
{"id": 19745,"ncpdp": "1719763","pharmacy_name": "WALGREENS #12814","address1": "2719 ANDERSON AVE","address2": "","city": "MANHATTAN","state": "KS","zip": "66502","zip+4": "2803","phone": "7855878326","NPI": "     1841429685"}, 
{"id": 19746,"ncpdp": "1719775","pharmacy_name": "WALGREENS #11924","address1": "11830 W 75TH ST","address2": "","city": "SHAWNEE","state": "KS","zip": "66214","zip+4": "1366","phone": "9134332359","NPI": "     1023248713"}, 
{"id": 19747,"ncpdp": "1719787","pharmacy_name": "GURPREET RANDHAWA MD PA","address1": "1411  W 15TH ST","address2": "STE 202","city": "LIBERAL","state": "KS","zip": "67901","zip+4": "0000","phone": "6206265033","NPI": "     1609080969"}, 
{"id": 19748,"ncpdp": "1719799","pharmacy_name": "BALL BROTHERS HEALTH MART","address1": "504 COMMERCIAL ST","address2": "","city": "ATCHISON","state": "KS","zip": "66002","zip+4": "2469","phone": "9133670332","NPI": "     1467683318"}, 
{"id": 19749,"ncpdp": "1719802","pharmacy_name": "CVS PHARMACY # #03212","address1": "4841 BAUER FARMS DR","address2": "","city": "LAWRENCE","state": "KS","zip": "66049","zip+4": "0000","phone": "7858409381","NPI": "     1376774893"}, 
{"id": 19750,"ncpdp": "1719826","pharmacy_name": "WALGREENS #12815","address1": "1453 E 151ST ST","address2": "","city": "OLATHE","state": "KS","zip": "66062","zip+4": "2854","phone": "9135385019","NPI": "     1760614267"}, 
{"id": 19751,"ncpdp": "1719838","pharmacy_name": "WALGREENS #12923","address1": "2900 S 4TH ST","address2": "","city": "LEAVENWORTH","state": "KS","zip": "66048","zip+4": "5002","phone": "9136512027","NPI": "     1184856619"}, 
{"id": 19752,"ncpdp": "1719840","pharmacy_name": "ANGEL\'S TOUCH PHARMACY #2","address1": "151 S 18TH ST STE H","address2": "","city": "KANSAS CITY","state": "KS","zip": "66102","zip+4": "5627","phone": "9133226700","NPI": "     1669602686"}, 
{"id": 19753,"ncpdp": "1719864","pharmacy_name": "GENOA HEALTHCARE #81","address1": "330 OAKLEY AVENUE","address2": "","city": "TOPEKA","state": "KS","zip": "66606","zip+4": "0000","phone": "7857830209","NPI": "     1669707857"},
{"id": 59633,"ncpdp": "9500421","pharmacy_name": "ASSOC WHOLESALERS GROC NTWK","address1": "PO BOX 2931","address2": "","city": "KANSAS CITY","state": "KS","zip": "66110","zip+4": "2931","phone": "8163608350","NPI": ""}, 
{"id": 59446,"ncpdp": "9000010","pharmacy_name": "DILLIONS/CENTRAL DIVISION","address1": "2700 E 4TH","address2": "","city": "HUTCHINSON","state": "KS","zip": "67504","zip+4": "0000","phone": "6206693339","NPI": ""}, 
{"id": 59461,"ncpdp": "9000071","pharmacy_name": "BALLS FOUR B CORP","address1": "5300 SPEAKER ROAD","address2": "","city": "KANSAS CITY","state": "KS","zip": "66106","zip+4": "0000","phone": "9135731294","NPI": ""}, 
{"id": 59653,"ncpdp": "9500854","pharmacy_name": "TPS-LIBRA RX","address1": "CORPORATE WOODS BLDG 14","address2": "8717 WEST 110 ST  SUITE 420","city": "OVERLAND PARK","state": "KS","zip": "66210","zip+4": "0000","phone": "9136610298","NPI": ""}, 
{"id": 59654,"ncpdp": "9500866","pharmacy_name": "THIRD PARTY STATION-CP","address1": "CORPORATE WOODS BLDG 14","address2": "8717 WEST 110TH ST   SUITE 420","city": "SHAWNEE MISSION","state": "KS","zip": "66225","zip+4": "0000","phone": "9136610298","NPI": ""}, 
