{"id": 57559,"ncpdp": "5200011","pharmacy_name": "BI RITE HEALTHMART","address1": "428 S DURBIN ST","address2": "","city": "CASPER","state": "WY","zip": "82601","zip+4": "2898","phone": "3072651914","NPI": "     1962499491"}, 
{"id": 57560,"ncpdp": "5200251","pharmacy_name": "HOYS DRUG","address1": "1115 E PERSHING BLVD","address2": "","city": "CHEYENNE","state": "WY","zip": "82001","zip+4": "3292","phone": "3076341818","NPI": "     1588647952"}, 
{"id": 57561,"ncpdp": "5200352","pharmacy_name": "CITY DRUG","address1": "131 10TH ST","address2": "","city": "EVANSTON","state": "WY","zip": "82930","zip+4": "0000","phone": "3077894000","NPI": "     1326133745"}, 
{"id": 57562,"ncpdp": "5200516","pharmacy_name": "PALACE PHARMACY","address1": "166 W MAIN ST","address2": "","city": "LANDER","state": "WY","zip": "82520","zip+4": "0000","phone": "3073322270","NPI": "     1851462295"}, 
{"id": 57563,"ncpdp": "5200528","pharmacy_name": "MCRAES INC","address1": "745 MAIN ST","address2": "","city": "LANDER","state": "WY","zip": "82520","zip+4": "0000","phone": "3073325712","NPI": "     1821148818"}, 
{"id": 57564,"ncpdp": "5200631","pharmacy_name": "LOVELL DRUG COMPANY","address1": "164 E MAIN ST","address2": "","city": "LOVELL","state": "WY","zip": "82431","zip+4": "0847","phone": "3075487231","NPI": "     1659400430"}, 
{"id": 57565,"ncpdp": "5200718","pharmacy_name": "POWELL DRUG INC","address1": "140 N BENT ST","address2": "","city": "POWELL","state": "WY","zip": "82435","zip+4": "0000","phone": "3077542031","NPI": "     1215078241"}, 
{"id": 57566,"ncpdp": "5200869","pharmacy_name": "HOSPITAL PHARMACY INC","address1": "1 S MAIN ST","address2": "","city": "SHERIDAN","state": "WY","zip": "82801","zip+4": "4221","phone": "3076722426","NPI": "     1285709477"}, 
{"id": 57567,"ncpdp": "5200922","pharmacy_name": "VANDEL DRUG INC","address1": "2041 MAIN ST","address2": "","city": "TORRINGTON","state": "WY","zip": "82240","zip+4": "2792","phone": "3075322214","NPI": "     1184602690"}, 
{"id": 57568,"ncpdp": "5200972","pharmacy_name": "RICKER PHARMACY INC","address1": "1801 BIG HORN AVE","address2": "","city": "WORLAND","state": "WY","zip": "82401","zip+4": "2691","phone": "3073472281","NPI": "     1730291659"}, 
{"id": 57569,"ncpdp": "5201431","pharmacy_name": "SHATTO\'S FRONTIER DRUG","address1": "1202 E RICHARDS","address2": "","city": "DOUGLAS","state": "WY","zip": "82633","zip+4": "0000","phone": "3073585077","NPI": "     1871594895"}, 
{"id": 57570,"ncpdp": "5201479","pharmacy_name": "TOWN AND COUNTRY PHARMACY","address1": "514 S GREELEY HWY","address2": "","city": "CHEYENNE","state": "WY","zip": "82007","zip+4": "9984","phone": "3076346662","NPI": "     1164428710"}, 
{"id": 57571,"ncpdp": "5201570","pharmacy_name": "KMART PHARMACY #4736","address1": "4000 EAST 2ND ST","address2": "","city": "CASPER","state": "WY","zip": "82609","zip+4": "0000","phone": "3072651331","NPI": "     1790716843"}, 
{"id": 57572,"ncpdp": "5201582","pharmacy_name": "KMART PHARMACY #3891","address1": "1840 DELL RANGE BLVD","address2": "","city": "CHEYENNE","state": "WY","zip": "82009","zip+4": "0000","phone": "3076359108","NPI": "     1609807759"}, 
{"id": 57573,"ncpdp": "5201594","pharmacy_name": "KMART PHARMACY #7107","address1": "2450 FOOTHILL BLVD","address2": "","city": "ROCK SPRINGS","state": "WY","zip": "82901","zip+4": "0000","phone": "3073627990","NPI": "     1518998665"}, 
{"id": 57574,"ncpdp": "5201772","pharmacy_name": "SAFEWAY #0433","address1": "1375 CY AVENUE","address2": "","city": "CASPER","state": "WY","zip": "82604","zip+4": "0000","phone": "3072347949","NPI": "     1962448738"}, 
{"id": 57575,"ncpdp": "5201796","pharmacy_name": "SAFEWAY #2469","address1": "400 COLE CENTER","address2": "","city": "CHEYENNE","state": "WY","zip": "82001","zip+4": "0000","phone": "3077788589","NPI": "     1174552103"}, 
{"id": 57576,"ncpdp": "5201809","pharmacy_name": "CITY MARKET PHARMACY #620412","address1": "602 HIGLEY BLVD","address2": "","city": "RAWLINS","state": "WY","zip": "82301","zip+4": "0000","phone": "3073248084","NPI": "     1053347245"}, 
{"id": 57577,"ncpdp": "5201847","pharmacy_name": "SAFEWAY #0461","address1": "708 N FEDERAL BLVD","address2": "","city": "RIVERTON","state": "WY","zip": "82501","zip+4": "0000","phone": "3078576833","NPI": "     1083643019"}, 
{"id": 57578,"ncpdp": "5201885","pharmacy_name": "SMITHS PHARMACY #86 #706086","address1": "70 YELLOW CREEK RD","address2": "","city": "EVANSTON","state": "WY","zip": "82930","zip+4": "0000","phone": "3077890535","NPI": "     1659396281"}, 
{"id": 57579,"ncpdp": "5201948","pharmacy_name": "SAFEWAY #2468","address1": "300 SE WYOMING BOULEVARD","address2": "","city": "CASPER","state": "WY","zip": "82609","zip+4": "0000","phone": "3075777062","NPI": "     1871539643"}, 
{"id": 57580,"ncpdp": "5201998","pharmacy_name": "SMITHS PHARMACY #187 #706187","address1": "905 BRIDGER DR","address2": "","city": "GREEN RIVER","state": "WY","zip": "82935","zip+4": "0000","phone": "3078757841","NPI": "     1568487197"}, 
{"id": 57581,"ncpdp": "5202089","pharmacy_name": "SMITHS PHARMACY #185 #706185","address1": "2405 C Y AVE","address2": "","city": "CASPER","state": "WY","zip": "82604","zip+4": "0000","phone": "3072666250","NPI": "     1477578003"}, 
{"id": 57582,"ncpdp": "5202166","pharmacy_name": "SMITHS PHARMACY #183 #706183","address1": "1200 WEST MAIN ST","address2": "","city": "RIVERTON","state": "WY","zip": "82501","zip+4": "0000","phone": "3078564934","NPI": "     1386669919"}, 
{"id": 57583,"ncpdp": "5202205","pharmacy_name": "MEDICAL CENTER PHARMACY","address1": "698 YELLOWSTONE AVE","address2": "","city": "CODY","state": "WY","zip": "82414","zip+4": "0000","phone": "3075276221","NPI": "     1700961083"}, 
{"id": 57584,"ncpdp": "5202243","pharmacy_name": "VICKLUND PHARMACY","address1": "621 RICHARDS","address2": "","city": "THERMOPOLIS","state": "WY","zip": "82443","zip+4": "3041","phone": "3078642369","NPI": "     1649382565"}, 
{"id": 57585,"ncpdp": "5202267","pharmacy_name": "SMITHS PHARMACY # 182 #706182","address1": "2531 FOOTHILL BLVD","address2": "","city": "ROCK SPRINGS","state": "WY","zip": "82902","zip+4": "0000","phone": "3073621841","NPI": "     1194740720"}, 
{"id": 57586,"ncpdp": "5202279","pharmacy_name": "PLAZA PHARMACY","address1": "1411 DEWAR DR","address2": "","city": "ROCK SPRINGS","state": "WY","zip": "82901","zip+4": "0000","phone": "3073621007","NPI": "     1528121183"}, 
{"id": 57587,"ncpdp": "5202281","pharmacy_name": "SAFEWAY #2466","address1": "554 NORTH 3RD STREET","address2": "","city": "LARAMIE","state": "WY","zip": "82070","zip+4": "0000","phone": "3077454224","NPI": "     1992734933"}, 
{"id": 57588,"ncpdp": "5202356","pharmacy_name": "STONE DRUG","address1": "830 W BROADWAY","address2": "","city": "JACKSON","state": "WY","zip": "83001","zip+4": "0000","phone": "3077339768","NPI": "     1003943176"}, 
{"id": 57589,"ncpdp": "5202382","pharmacy_name": "WAL-MART PHARMACY #101315","address1": "2032 DELL RANGE BLVD","address2": "","city": "CHEYENNE","state": "WY","zip": "82009","zip+4": "0000","phone": "3076347433","NPI": "     1093732224"}, 
{"id": 57590,"ncpdp": "5202421","pharmacy_name": "WAL-MART PHARMACY #101412","address1": "4308 GRAND AVENUE","address2": "","city": "LARAMIE","state": "WY","zip": "82070","zip+4": "0000","phone": "3077456112","NPI": "     1902823131"}, 
{"id": 57591,"ncpdp": "5202433","pharmacy_name": "WAL-MART PHARMACY #101457","address1": "1733 NORTH FEDERAL","address2": "","city": "RIVERTON","state": "WY","zip": "82501","zip+4": "0000","phone": "3078563269","NPI": "     1811914047"}, 
{"id": 57592,"ncpdp": "5202445","pharmacy_name": "WAL-MART PHARMACY #101456","address1": "125 NORTH 2ND STREET","address2": "","city": "EVANSTON","state": "WY","zip": "82930","zip+4": "0000","phone": "3077890020","NPI": "     1720005952"}, 
{"id": 57593,"ncpdp": "5202457","pharmacy_name": "WAL-MART PHARMACY #101461","address1": "201 GATEWAY BLVD","address2": "","city": "ROCK SPRINGS","state": "WY","zip": "82901","zip+4": "0000","phone": "3073621967","NPI": "     1639196868"}, 
{"id": 57594,"ncpdp": "5202469","pharmacy_name": "WAL-MART PHARMACY #101508","address1": "1695 COFFEEN AVE","address2": "","city": "SHERIDAN","state": "WY","zip": "82801","zip+4": "0000","phone": "3076747417","NPI": "     1548287774"}, 
{"id": 57595,"ncpdp": "5202471","pharmacy_name": "DEER CREEK DRUG","address1": "215 S 4TH","address2": "","city": "GLENROCK","state": "WY","zip": "82637","zip+4": "0000","phone": "3074369611","NPI": "     1407859911"}, 
{"id": 57596,"ncpdp": "5202572","pharmacy_name": "PAMIDA PHARMACY #322","address1": "205 BOYD AVE","address2": "","city": "NEWCASTLE","state": "WY","zip": "82701","zip+4": "2965","phone": "3077462741","NPI": "     1497794374"}, 
{"id": 57597,"ncpdp": "5202584","pharmacy_name": "FRONTIER PHARMACY","address1": "501 NICHOLS ST","address2": "","city": "BIG PINEY","state": "WY","zip": "83113","zip+4": "0000","phone": "3072763499","NPI": "     1003958018"}, 
{"id": 57598,"ncpdp": "5202609","pharmacy_name": "WESTON COUNTY HOSP PHARMACY","address1": "1124 WASHINGTON BLVD","address2": "","city": "NEWCASTLE","state": "WY","zip": "82701","zip+4": "2970","phone": "3077464491","NPI": "     1518050947"}, 
{"id": 57599,"ncpdp": "5202623","pharmacy_name": "WAL-MART PHARMACY #101485","address1": "2300 SOUTH DOUGLAS HWY","address2": "","city": "GILLETTE","state": "WY","zip": "82718","zip+4": "0000","phone": "3076865166","NPI": "     1457378689"}, 
{"id": 57600,"ncpdp": "5202635","pharmacy_name": "JUBILEE PHARMACY","address1": "524 FRONT ST","address2": "","city": "EVANSTON","state": "WY","zip": "82930","zip+4": "0000","phone": "3077893494","NPI": "     1851327472"}, 
{"id": 57601,"ncpdp": "5202673","pharmacy_name": "KMART PHARMACY #7139","address1": "510 SOUTH HIGHWAY 89","address2": "","city": "JACKSON","state": "WY","zip": "83001","zip+4": "0000","phone": "3077391164","NPI": "     1205943198"}, 
{"id": 57602,"ncpdp": "5202736","pharmacy_name": "WAL-MART PHARMACY #101617","address1": "4400 EAST 2ND STREET","address2": "","city": "CASPER","state": "WY","zip": "82609","zip+4": "0000","phone": "3072370994","NPI": "     1366469595"}, 
{"id": 57603,"ncpdp": "5202774","pharmacy_name": "WAL-MART PHARMACY #101778","address1": "321 YELLOWSTONE AVENUE","address2": "","city": "CODY","state": "WY","zip": "82414","zip+4": "0000","phone": "3075275746","NPI": "     1275550402"}, 
{"id": 57604,"ncpdp": "5202786","pharmacy_name": "BI RITE PHARMACY","address1": "300 3RD ST","address2": "","city": "RAWLINS","state": "WY","zip": "82301","zip+4": "5612","phone": "3073243403","NPI": "     1659429660"}, 
{"id": 57605,"ncpdp": "5202801","pharmacy_name": "KMART PHARMACY #9074","address1": "2571 N BUSINESS 90","address2": "","city": "SHERIDAN","state": "WY","zip": "82801","zip+4": "0000","phone": "3076721810","NPI": "     1427089572"}, 
{"id": 57606,"ncpdp": "5202837","pharmacy_name": "KMART PHARMACY #4837","address1": "1960 N FEDERAL BLVD","address2": "","city": "RIVERTON","state": "WY","zip": "82501","zip+4": "0000","phone": "3078562261","NPI": "     1336170489"}, 
{"id": 57607,"ncpdp": "5202849","pharmacy_name": "KMART PHARMACY #4863","address1": "2150 SOUTH DOUGLAS HWY","address2": "","city": "GILLETTE","state": "WY","zip": "82718","zip+4": "0000","phone": "3076823212","NPI": "     1245261395"}, 
{"id": 57608,"ncpdp": "5202938","pharmacy_name": "KMART PHARMACY #9792","address1": "750 NORTH 3RD STREET","address2": "","city": "LARAMIE","state": "WY","zip": "82070","zip+4": "0000","phone": "3077424995","NPI": "     1154352201"}, 
{"id": 57609,"ncpdp": "5202988","pharmacy_name": "KEMMERER PHARMACY","address1": "620 PINE AVE","address2": "","city": "KEMMERER","state": "WY","zip": "83101","zip+4": "3002","phone": "3078774209","NPI": "     1841331709"}, 
{"id": 57610,"ncpdp": "5203017","pharmacy_name": "STONES FAMILY PHARMACY","address1": "141 N WASHINGTON ST","address2": "","city": "AFTON","state": "WY","zip": "83110","zip+4": "0070","phone": "3078863845","NPI": "     1992830871"}, 
{"id": 57611,"ncpdp": "5203120","pharmacy_name": "VALLEY PHARMACY","address1": "1504 S 1ST ST","address2": "","city": "SARATOGA","state": "WY","zip": "82331","zip+4": "0000","phone": "3073265129","NPI": "     1316087299"}, 
{"id": 57612,"ncpdp": "5203156","pharmacy_name": "ROCK SPRINGS IV CENTER","address1": "400 2ND ST","address2": "STE A1","city": "ROCK SPRINGS","state": "WY","zip": "82901","zip+4": "0000","phone": "3073823544","NPI": "     1346332970"}, 
{"id": 57613,"ncpdp": "5203168","pharmacy_name": "PAMIDA PHARMACY #356","address1": "1701 16TH ST","address2": "","city": "WHEATLAND","state": "WY","zip": "82201","zip+4": "2243","phone": "3073222030","NPI": "     1851330740"}, 
{"id": 57614,"ncpdp": "5203257","pharmacy_name": "PAMIDA PHARMACY #362","address1": "100 S 20TH ST","address2": "","city": "WORLAND","state": "WY","zip": "82401","zip+4": "3742","phone": "3073472851","NPI": "     1568401453"}, 
{"id": 57615,"ncpdp": "5203283","pharmacy_name": "EMISSARY PHCY AND INFUSION SVC","address1": "2546 E SECOND ST 100","address2": "","city": "CASPER","state": "WY","zip": "82609","zip+4": "0000","phone": "3074720597","NPI": "     1346233186"}, 
{"id": 57616,"ncpdp": "5203334","pharmacy_name": "SMITHS PHARMACY #180 #706180","address1": "906 CAMEL DRIVE","address2": "","city": "GILLETTE","state": "WY","zip": "82716","zip+4": "0000","phone": "3076821217","NPI": "     1003831637"}, 
{"id": 57617,"ncpdp": "5203372","pharmacy_name": "PAMIDA PHARMACY #378","address1": "2100 E CEDAR ST","address2": "","city": "RAWLINS","state": "WY","zip": "82301","zip+4": "6029","phone": "3073245276","NPI": "     1033158944"}, 
{"id": 57618,"ncpdp": "5203459","pharmacy_name": "CORNER DRUG AT IGA","address1": "225 S 4TH ST","address2": "","city": "THERMOPOLIS","state": "WY","zip": "82443","zip+4": "0000","phone": "3078643150","NPI": "     1487725404"}, 
{"id": 57619,"ncpdp": "5203473","pharmacy_name": "MEDICAL HILL PHARMACY","address1": "407 MEDICAL ARTS COURT","address2": "STE A","city": "GILLETTE","state": "WY","zip": "82716","zip+4": "0000","phone": "3076852899","NPI": "     1184765554"}, 
{"id": 57620,"ncpdp": "5203485","pharmacy_name": "EXPRESS PHARMACY","address1": "4005 GRAND AVE","address2": "","city": "LARAMIE","state": "WY","zip": "82070","zip+4": "0000","phone": "3077451557","NPI": "     1720077837"}, 
{"id": 57621,"ncpdp": "5203497","pharmacy_name": "COMMUNITY DRUG INC","address1": "900 W VALLEY RD","address2": "","city": "TORRINGTON","state": "WY","zip": "82240","zip+4": "0000","phone": "3075323060","NPI": "     1346352036"}, 
{"id": 57622,"ncpdp": "5203562","pharmacy_name": "MEDICAP PHARMACY #8251","address1": "501 EAST LAKEWAY ROAD","address2": "SUITE A","city": "GILLETTE","state": "WY","zip": "82718","zip+4": "0000","phone": "3076856985","NPI": "     1891861902"}, 
{"id": 57623,"ncpdp": "5203598","pharmacy_name": "SAVON PHARMACY #183","address1": "105 BUFFALO WAY","address2": "","city": "JACKSON","state": "WY","zip": "83002","zip+4": "0000","phone": "3077339223","NPI": "     1558318915"}, 
{"id": 57624,"ncpdp": "5203613","pharmacy_name": "WRIGHT CLINIC","address1": "500 LATIGO DRIVE","address2": "","city": "WRIGHT","state": "WY","zip": "82732","zip+4": "0000","phone": "3076875592","NPI": "     1225081649"}, 
{"id": 57625,"ncpdp": "5203663","pharmacy_name": "WALGREEN DRUG STORE #5838","address1": "2302 E LINCOLNWAY","address2": "","city": "CHEYENNE","state": "WY","zip": "82001","zip+4": "0000","phone": "3076357977","NPI": "     1861407942"}, 
{"id": 57626,"ncpdp": "5203687","pharmacy_name": "RIDLEYS PHARMACY #1153","address1": "341 EAST PINE ST","address2": "","city": "PINEDALE","state": "WY","zip": "82941","zip+4": "0000","phone": "3073674451","NPI": "     1891909198"}, 
{"id": 57627,"ncpdp": "5203699","pharmacy_name": "KING SOOPERS PHARMACY #620079","address1": "3702 DELL RANGE BLVD","address2": "","city": "CHEYENNE","state": "WY","zip": "82001","zip+4": "0000","phone": "3076380192","NPI": "     1962438150"}, 
{"id": 57628,"ncpdp": "5203726","pharmacy_name": "MEDICAP PHARMACY #8245","address1": "1947 BLUEGRASS CIRCLE","address2": "","city": "CHEYENNE","state": "WY","zip": "82009","zip+4": "0000","phone": "3076353712","NPI": "     1760547194"}, 
{"id": 57629,"ncpdp": "5203738","pharmacy_name": "SAVON PHARMACY #342","address1": "1323 DEWAR DR","address2": "","city": "ROCK SPRINGS","state": "WY","zip": "82901","zip+4": "0000","phone": "3073629734","NPI": "     1649226564"}, 
{"id": 57630,"ncpdp": "5203740","pharmacy_name": "SAFEWAY #0467","address1": "1900 E RICHARDS RD","address2": "","city": "DOUGLAS","state": "WY","zip": "82633","zip+4": "0000","phone": "3073581706","NPI": "     1801825849"}, 
{"id": 57631,"ncpdp": "5203764","pharmacy_name": "REGISTER CLIFF PHARMACY INC","address1": "437 W WHALEN ST","address2": "","city": "GUERNSEY","state": "WY","zip": "82214","zip+4": "0000","phone": "3078369270","NPI": "     1356560742"}, 
{"id": 57632,"ncpdp": "5203776","pharmacy_name": "PAMIDA PHARMACY #252","address1": "1005 W COULTER AVE","address2": "","city": "POWELL","state": "WY","zip": "82435","zip+4": "2530","phone": "3077542755","NPI": "     1124067095"}, 
{"id": 57633,"ncpdp": "5203788","pharmacy_name": "PAMIDA PHARMACY #90","address1": "1100 E VALLEY RD","address2": "","city": "TORRINGTON","state": "WY","zip": "82240","zip+4": "3614","phone": "3075321011","NPI": "     1912946856"}, 
{"id": 57634,"ncpdp": "5203790","pharmacy_name": "PAMIDA PHARMACY #211","address1": "1950 E RICHARDS ST","address2": "","city": "DOUGLAS","state": "WY","zip": "82633","zip+4": "3049","phone": "3073583386","NPI": "     1568401537"}, 
{"id": 57635,"ncpdp": "5203803","pharmacy_name": "SMITHS PHARMACY #184 #706184","address1": "1425 SOUTH HIGHWAY 89","address2": "","city": "JACKSON","state": "WY","zip": "83002","zip+4": "0000","phone": "3077338746","NPI": "     1912922543"}, 
{"id": 57636,"ncpdp": "5203815","pharmacy_name": "BASIN PHARMACY","address1": "403 W C ST","address2": "","city": "BASIN","state": "WY","zip": "82410","zip+4": "0000","phone": "3075683636","NPI": "     1518978014"}, 
{"id": 57637,"ncpdp": "5203827","pharmacy_name": "WALGREEN DRUG STORE #7462","address1": "190 SE WYOMING BLVD","address2": "","city": "CASPER","state": "WY","zip": "82609","zip+4": "0000","phone": "3072344698","NPI": "     1770598856"}, 
{"id": 57638,"ncpdp": "5203839","pharmacy_name": "WALGREEN DRUG STORE #7601","address1": "1071 CY AVE","address2": "","city": "CASPER","state": "WY","zip": "82601","zip+4": "0000","phone": "3072344416","NPI": "     1689689762"}, 
{"id": 57639,"ncpdp": "5203853","pharmacy_name": "SAFEWAY #2667","address1": "700 S GREELEY HWY","address2": "","city": "CHEYENNE","state": "WY","zip": "82007","zip+4": "0000","phone": "3076354087","NPI": "     1710916754"}, 
{"id": 57640,"ncpdp": "5203865","pharmacy_name": "WALGREEN DRUG STORE #7928","address1": "2000 S DOUGLAS HWY","address2": "","city": "GILLETTE","state": "WY","zip": "82718","zip+4": "0000","phone": "3076824061","NPI": "     1497760573"}, 
{"id": 57641,"ncpdp": "5203877","pharmacy_name": "HOYS HOSPITAL PHARMACY","address1": "2301 HOUSE AVENUE","address2": "STE 101","city": "CHEYENNE","state": "WY","zip": "82001","zip+4": "0000","phone": "3076377920","NPI": "     1942364385"}, 
{"id": 57642,"ncpdp": "5203891","pharmacy_name": "WALGREEN DRUG STORE #9092","address1": "70 GATEWAY BLVD","address2": "","city": "ROCK SPRINGS","state": "WY","zip": "82901","zip+4": "0000","phone": "3073822034","NPI": "     1306851480"}, 
{"id": 57643,"ncpdp": "5203928","pharmacy_name": "WALGREEN DRUG STORE #9548","address1": "1501 DELL RANGE BLVD","address2": "","city": "CHEYENNE","state": "WY","zip": "82009","zip+4": "0000","phone": "3076352658","NPI": "     1215942396"}, 
{"id": 57644,"ncpdp": "5203930","pharmacy_name": "WALGREEN DRUG STORE #9547","address1": "1766 COFFEEN AVE","address2": "","city": "SHERIDAN","state": "WY","zip": "82801","zip+4": "5710","phone": "3076741609","NPI": "     1407861594"}, 
{"id": 57645,"ncpdp": "5203980","pharmacy_name": "WAL-MART PHARMACY #103778","address1": "4255 CY AVENUE","address2": "","city": "CASPER","state": "WY","zip": "82604","zip+4": "0000","phone": "3072329605","NPI": "     1932217221"}, 
{"id": 57646,"ncpdp": "5203992","pharmacy_name": "WALGREEN DRUG STORE #10466","address1": "845 N FEDERAL BLVD","address2": "","city": "RIVERTON","state": "WY","zip": "82501","zip+4": "2961","phone": "3078576023","NPI": "     1013096536"}, 
{"id": 57647,"ncpdp": "5204007","pharmacy_name": "PAMIDA PHARMACY #281","address1": "1105 BRIDGER DR","address2": "","city": "GREEN RIVER","state": "WY","zip": "82935","zip+4": "5895","phone": "3078755244","NPI": "     1780885228"}, 
{"id": 57648,"ncpdp": "5204019","pharmacy_name": "RAWHIDE DRUG COMPANY","address1": "232 S MAIN","address2": "","city": "LUSK","state": "WY","zip": "82225","zip+4": "0000","phone": "3073343132","NPI": "     1508060153"}, 
{"id": 57649,"ncpdp": "5204021","pharmacy_name": "GENOA HEALTHCARE #47","address1": "2526 SEYMOUR AVE","address2": "","city": "CHEYENNE","state": "WY","zip": "82003","zip+4": "0000","phone": "3077783818","NPI": "     1801089404"}, 
{"id": 57650,"ncpdp": "5204033","pharmacy_name": "PAMIDA PHARMACY #660","address1": "925 N 6TH ST","address2": "","city": "GREYBULL","state": "WY","zip": "82426","zip+4": "1610","phone": "3077654601","NPI": "     1114113511"}, 
{"id": 57651,"ncpdp": "5204057","pharmacy_name": "SAFEWAY #2664","address1": "169 COFFEEN STREET","address2": "","city": "SHERIDAN","state": "WY","zip": "82801","zip+4": "0000","phone": "3070000000","NPI": "     1518148055"}, 
{"id": 57652,"ncpdp": "5204069","pharmacy_name": "OSCO PHARMACY #2067","address1": "2610 S DOUGLAS HWY","address2": "","city": "GILLETTE","state": "WY","zip": "82718","zip+4": "0000","phone": "3076872996","NPI": "     1770767279"}, 
{"id": 57653,"ncpdp": "5204071","pharmacy_name": "OSCO PHARMACY #2060","address1": "1076 CY AVE","address2": "","city": "CASPER","state": "WY","zip": "82604","zip+4": "0000","phone": "3072660156","NPI": "     1508040007"}, 
{"id": 57654,"ncpdp": "5204083","pharmacy_name": "OSCO PHARMACY #2061","address1": "1825 17TH ST","address2": "","city": "CODY","state": "WY","zip": "82414","zip+4": "0000","phone": "3075277426","NPI": "     1962686410"}, 
{"id": 57655,"ncpdp": "5204095","pharmacy_name": "OSCO PHARMACY #2066","address1": "5800 N YELLOWSTONE RD","address2": "","city": "CHEYENNE","state": "WY","zip": "82009","zip+4": "0000","phone": "3076378361","NPI": "     1861676363"}, 
{"id": 57656,"ncpdp": "5204108","pharmacy_name": "OSCO PHARMACY #2065","address1": "3355 E PERSHING BLVD","address2": "","city": "CHEYENNE","state": "WY","zip": "82001","zip+4": "0000","phone": "3076351155","NPI": "     1043494545"}, 
{"id": 57657,"ncpdp": "5204110","pharmacy_name": "OSCO PHARMACY #2064","address1": "1865 COFFEEN AVE","address2": "","city": "SHERIDAN","state": "WY","zip": "82801","zip+4": "0000","phone": "3076728908","NPI": "     1225212723"}, 
{"id": 57658,"ncpdp": "5204122","pharmacy_name": "OSCO PHARMACY #2063","address1": "3112 E GRAND","address2": "","city": "LARAMIE","state": "WY","zip": "82070","zip+4": "0000","phone": "3077457246","NPI": "     1144404641"}, 
{"id": 57659,"ncpdp": "5204134","pharmacy_name": "OSCO PHARMACY #2062","address1": "2625 E 2ND ST","address2": "","city": "CASPER","state": "WY","zip": "82609","zip+4": "0000","phone": "3072347159","NPI": "     1235313735"}, 
{"id": 57660,"ncpdp": "5204146","pharmacy_name": "PAMIDA PHARMACY #685","address1": "190 NORTH MAIN","address2": "","city": "THAYNE","state": "WY","zip": "83127","zip+4": "1006","phone": "3078834600","NPI": "     1508042425"}, 
{"id": 57661,"ncpdp": "5204158","pharmacy_name": "PAMIDA PHARMACY #675","address1": "439 WASHINGTON","address2": "","city": "AFTON","state": "WY","zip": "83110","zip+4": "0099","phone": "3078859804","NPI": "     1891971719"}, 
{"id": 57662,"ncpdp": "5204160","pharmacy_name": "PAMIDA PHARMACY #688","address1": "106 S MAIN ST","address2": "","city": "LYMAN","state": "WY","zip": "82937","zip+4": "0000","phone": "3077876756","NPI": "     1093983132"}, 
{"id": 57663,"ncpdp": "5204184","pharmacy_name": "COALITION FAMILY PHARMACY #131","address1": "430 MEDICAL ARTS COURT","address2": "","city": "GILLETTE","state": "WY","zip": "82716","zip+4": "0000","phone": "3076863835","NPI": "     1144497603"}, 
{"id": 57664,"ncpdp": "5204196","pharmacy_name": "PAMIDA PHARMACY #178","address1": "1255 WEST MAIN STREET","address2": "","city": "LANDER","state": "WY","zip": "82520","zip+4": "2653","phone": "3073325712","NPI": "     1588818702"}, 
{"id": 57665,"ncpdp": "5204209","pharmacy_name": "COE PHARMACY","address1": "424 YELLOWSTONE AVENUE","address2": "SUITE 130","city": "CODY","state": "WY","zip": "82414","zip+4": "0000","phone": "3075782900","NPI": "     1790926970"}, 
{"id": 57666,"ncpdp": "5204211","pharmacy_name": "HOSPITAL PHARMACY WEST #2","address1": "1333 WEST 5TH STREET","address2": "SUITE 107","city": "SHERIDAN","state": "WY","zip": "82801","zip+4": "0000","phone": "3076733188","NPI": "     1588892095"}, 
{"id": 57667,"ncpdp": "5204223","pharmacy_name": "WALGREENS #12378","address1": "1585 SHERIDAN AVE","address2": "","city": "CODY","state": "WY","zip": "82414","zip+4": "3819","phone": "3075872017","NPI": "     1538398904"}, 